name,region,address,lat,lon
동해 논골담길 (등대 담화마을),강원 동해시,강원도 동해시 일출로 97,37.55216582,129.1183172
속초 외옹치 바다향기로,강원 속초시,강원도 속초시 대포항길 186,38.18061259,128.6127912
서피비치,강원 양양군,강원도 양양군 현북면 하조대해안길 119,38.02775348,128.7175212
오대산 선재길,강원 평창군,강원도 평창군 진부면 오대산로 374-8,37.73167848,128.5931364
정동심곡바다부채길,강원 강릉시,강원도 강릉시 강동면,37.72809432,128.9542264
정선레일바이크,강원 정선군,강원도 정선군 여량면 노추산로 745,37.5170461,128.7304317
강릉컬링센터 (강릉실내빙상장),강원 강릉시,강원도 강릉시 종합운동장길 32,37.77372394,128.8925583
춘천 의암호 자전거길(물레길),강원 춘천시,강원도 춘천시 스포츠타운길 113-1,37.85496429,127.6857679
매봉힐링쉼터 오토캠핑장,강원 원주시,강원도 원주시 신림면 창촌길 132,37.26059982,128.1387359
삼척 해양레일바이크,강원 삼척시,강원도 삼척시 근덕면 공양왕길 2,37.32364924,129.2663648
무릉계곡 힐링캠핑장,강원 동해시,강원도 동해시 삼화로 467,37.46439798,129.0265553
춘천물레길,강원 춘천시,강원도 춘천시 스포츠타운길 113-1,37.85496429,127.6857679
화천 파로호 자전거 100리길,강원 화천군,강원도 화천군 하남면 춘화로 3331-50,38.09647885,127.6995908
송지호 오토캠핑장,강원 고성군,강원도 고성군 죽왕면 동해대로 6090,38.34277885,128.5131604
화이트캐빈,강원 평창군,강원도 평창군 봉평면 태기로 93,37.58771675,128.3216319
정동진 레일바이크,강원 강릉시,강원도 강릉시 강동면 정동역길 17,37.6913387,129.0328303
인제나르샤파크(구. 인제 밀리터리 테마파크),강원 인제군,강원도 인제군 인제읍 비봉로44번길 81,38.06007315,128.1679637
강원도 세계잼버리 수련장,강원 고성군,강원도 고성군 토성면 잼버리로 244,38.22362848,128.5001397
분주령야생화 트레킹,강원 태백시,강원도 태백시 화전동,37.20157912,128.9420334
화암카트체험장,강원 정선군,강원도 정선군 화암면 소금강로 973,37.34909317,128.7876859
강릉 올림픽파크,강원 강릉시,강원도 강릉시 수리골길 76,37.77705623,128.8969607
동해시 바다낚시,강원 동해시,강원도 동해시 동해대로 6270-10,37.59225327,129.0896922
덕풍계곡 트레킹,강원 삼척시,강원도 삼척시 가곡면 풍곡리,37.08903333,129.1634262
내린천 짚트랙 휴레저,강원 인제군,강원도 인제군 인제읍 내린천로 5693,38.00988909,128.2392314
[강릉 바우길 1구간] 선자령 풍차길,강원 평창군,강원도 평창군 대관령면 경강로 5754,37.68552302,128.7583027
강촌레일파크,강원 춘천시,강원도 춘천시 신동면 김유정로 1383,37.81564654,127.7121815
노추산 모정탑길,강원 강릉시,강원도 강릉시 왕산면 노추산로,37.56051411,128.7166994
델피노 CC (대명 델피노),강원 고성군,강원도 고성군 토성면 미시령옛길 1153,38.21312066,128.493436
하이원리조트 스키장,강원 정선군,강원도 정선군 고한읍 하이원길 500,37.20393887,128.8394697
칠족령 트레킹,강원 평창군,강원도 평창군 미탄면 문희길 63,37.27786222,128.5770659
평창 포레스트 어드벤처,강원 평창군,강원도 평창군 봉평면 태기로 174,37.58246341,128.3268678
엑스게임리조트(내린천 번지점프),강원 인제군,강원도 인제군 인제읍 설악로 2254,38.07759867,128.1861034
홍천 가리산 레포츠파크,강원 홍천군,강원도 홍천군 두촌면 가리산길 426,37.8656358,127.9811498
알펜시아리조트 스키장,강원 평창군,강원도 평창군 대관령면 솔봉로 325,37.65925417,128.6840107
[강릉 바우길 2구간] 대관령 옛길,강원 평창군,강원도 평창군 대관령면 경강로 5754,37.68552302,128.7583027
휘닉스 태기산CC,강원 평창군,강원도 평창군 봉평면 태기로 174,37.58246341,128.3268678
용평리조트 스키장,강원 평창군,강원도 평창군 대관령면 올림픽로 715,37.65094444,128.7055569
인제스피디움리조트 서킷,강원 인제군,강원도 인제군 기린면 상하답로 130,38.00260361,128.2953846
알프스벨리 사계절썰매장,강원 춘천시,강원도 춘천시 사북면 화악지암길 322-65,37.9731306,127.5982583
대명 비발디파크 눈썰매장,강원 홍천군,강원도 홍천군 서면 한치골길 262,37.65233706,127.6873348
원주레일파크,강원 원주시,강원도 원주시 지정면 간현로 163,37.3630494,127.8372631
한탄강번지점프(코리아레저),강원 철원군,강원도 철원군 갈말읍 태봉대교길 153,38.20563584,127.2693067
DMZ 평화의길(고성 A/B코스),강원 고성군,강원도 고성군 현내면 금강산로 481,38.51438609,128.416703
순담계곡,강원 철원군,강원도 철원군 갈말읍 순담길 143-3,38.177098,127.298141
휘닉스 스노우파크,강원 평창군,강원도 평창군 봉평면 태기로 174,37.58246341,128.3268678
강원랜드 카지노,강원 정선군,강원도 정선군 사북읍 하이원길 265,37.21187405,128.8214537
의암호,강원 춘천시,강원도 춘천시 신동면 옛경춘로 114,37.83741091,127.6774039
강촌 자전거 하이킹,강원 춘천시,강원도 춘천시 남산면 강촌로 150,37.80580644,127.634126
영월에코빌리지 유스호스텔,강원 영월군,강원도 영월군 영월읍 동강로 716,37.22820572,128.505455
횡성스포랜드,강원 횡성군,강원도 횡성군 공근면 금계로 380-57,37.56154865,127.98684
엘리시안 강촌 컨트리클럽,강원 춘천시,강원도 춘천시 남산면 북한강변길 688,37.83001982,127.5786232
초곡 용굴촛대바위길,강원 삼척시,강원도 삼척시 근덕면 초곡길 236-4,37.30964672,129.2947741
횡성호수길,강원 횡성군,강원도 횡성군 갑천면 태기로구방5길 40,37.54555631,128.0670139
삼척항 - 새천년도로변,강원 삼척시,강원도 삼척시 삼척항길 196,37.43618802,129.1881603
[강릉 바우길 6구간] 굴산사 가는 길,강원 강릉시,강원도 강릉시 남항진동,37.75885178,128.9555711
만항재,강원 태백시,강원도 태백시 혈동,37.11756555,128.9095094
오크밸리스키장,강원 원주시,강원도 원주시 지정면 오크밸리2길 58,37.40780168,127.8089639
비발디파크 스키월드,강원 홍천군,강원도 홍천군 서면 한치골길 262,37.65233706,127.6873348
섬지골 캠핑장,강원 영월군,강원도 영월군 상동읍 섬지골길 19,37.12232414,128.7451699
한스캠핑장,강원 원주시,강원도 원주시 신림면 신림황둔로 1072,37.25501531,128.1783589
원주종합체육관,강원 원주시,강원도 원주시 서원대로 281,37.33906197,127.9419151
주문진 방파제,강원 강릉시,강원도 강릉시 주문진읍 해안로 1609,37.87955118,128.8335549
강릉바우길(9구간),강원 강릉시,강원도 강릉시 강동면 정동역길 17,37.6913387,129.0328303
평창올림픽플라자,강원 평창군,강원도 평창군 대관령면 올림픽로,37.64906625,128.6882091
영월스포츠파크,강원 영월군,강원도 영월군 영월읍 제방안길 100,37.17427054,128.4591706
렌탈의전설,강원 원주시,강원도 원주시 지정면 구재로 132,37.39886519,127.7919344
아라나비(스카이 어촌체험),강원 강릉시,강원도 강릉시 공항길127번길 35-7,37.76700343,128.9514255
덕풍계곡 플라이낚시,강원 삼척시,강원도 삼척시 가곡면 풍곡안길 17-18,37.12468951,129.1559552
금대 에코힐링 캠핑장,강원 원주시,강원도 원주시 판부면 영원산성길 372,37.29334864,128.0183053
설악파인리조트 아쿠아펀,강원 속초시,강원도 속초시 관광로408번길 14,38.19553403,128.5391009
영월국민체육센터,강원 영월군,강원도 영월군 영월읍 제방안길 100,37.17427054,128.4591706
엘리시안 강촌 스키장,강원 춘천시,강원도 춘천시 남산면 북한강변길 688,37.83001982,127.5786232
화천 명품DMZ코스,강원 화천군,강원도 화천군 하남면 춘화로,38.01986307,127.7213289
소양강둘레길,강원 인제군,강원도 인제군 인제읍 남북리,38.07813464,128.1462287
설악산국립공원 자동차야영장,강원 속초시,강원도 속초시 설악동 370번지,38.16318607,128.542511
양구청소년수련관,강원 양구군,강원도 양구군 양구읍 박수근로 366-33,38.10632441,127.9815131
치악산 구룡자동차야영장,강원 원주시,강원도 원주시 소초면 구룡사로,37.41768906,128.0511727
레이싱파크,강원 태백시,강원도 태백시 사군드리길 240,37.08263185,129.02017
속초 바다낚시,강원 속초시,강원도 속초시 동명항길,38.21181642,128.5973996
롱비치 서프스쿨,강원 양양군,강원도 양양군 현남면 갯마을길 42-20,37.94855125,128.7789584
원주시청소년수련관,강원 원주시,강원도 원주시 서원대로 234,37.34096572,127.9356896
철원군 병영체험수련원,강원 철원군,강원도 철원군 갈말읍 텃골4길 3-26,38.19613177,127.3770736
가리산(홍천) 등산로,강원 홍천군,강원도 홍천군 두촌면 가리산길 260-9,37.85440999,127.9987464
임원항 (임원항방파제 ~ 도미굴),강원 삼척시,강원도 삼척시 원덕읍 임원항구로 30-11,37.22975726,129.3460863
해파랑길 45코스,강원 속초시,강원도 속초시 대포동 421-51,38.174458,128.607142
길캠프,강원 영월군,강원도 영월군 수주면 황정길 29,37.30298146,128.1541652
알펜시아 카지노,강원 평창군,강원도 평창군 대관령면 솔봉로 325,37.65925417,128.6840107
어라연 (강원고생대 국가지질공원),강원 영월군,강원도 영월군 영월읍 거운리,37.24051548,128.532199
켄싱턴리조트 오토캠핑장,강원 고성군,강원도 고성군 토성면 중앙로 646,38.2410455,128.5723908
강릉승마장,강원 강릉시,강원도 강릉시 강동면 임곡로 1-17,37.72662789,128.9806569
맹방해수욕장근처,강원 삼척시,강원도 삼척시 근덕면 맹방해변로,37.38544237,129.2273135
한탄강래프팅,강원 철원군,강원도 철원군 갈말읍 순담길 143-1,38.17666774,127.2977432
교암해변,강원 고성군,강원도 고성군 토성면,38.2572897,128.5589065
넌스키난보드,강원 원주시,강원도 원주시 지정면 구재로 132,37.39886519,127.7919344
설악동야영장,강원 속초시,강원도 속초시 청봉로 25,38.16159314,128.5451766
망상 제2오토캠핑장,강원 동해시,강원도 동해시 동해대로 6220,37.59009113,129.0943428
법흥캠핑장,강원 영월군,강원도 영월군 무릉도원면 백년계곡길 14-3,37.3661425,128.2738052
[강릉 바우길 5구간] 바다 호숫길,강원 강릉시,강원도 강릉시 사천면 사천진리,37.84158802,128.8678885
화진포,강원 고성군,강원도 고성군 현내면 화진포길 386,38.47839561,128.4374861
내린천 래프팅,강원 인제군,강원도 인제군 인제읍 내린천로 6211,38.04304029,128.2068116
보보스캇 캠핑장,강원 영월군,강원도 영월군 주천면 미다리길 50-24,37.29124006,128.3263332
한여울 1코스,강원 철원군,강원도 철원군 동송읍 한탄강길 208,38.20344715,127.2700356
국민여가오토캠핑장,강원 속초시,강원도 속초시 해오름로 190,38.19057054,128.6020243
장호항방파제,강원 삼척시,강원도 삼척시 근덕면 장호항길,37.28643781,129.3178991
비젼스키샵,강원 홍천군,강원도 홍천군 서면 한서로 2166,37.61475,127.673653
캐라비언 코리아,강원 동해시,강원도 동해시 해안로 635-7,37.55693337,129.103073
웰리힐리파크 스노우파크,강원 횡성군,강원도 횡성군 둔내면 고원로 451,37.49012611,128.2501389
소양호(빙어낚시),강원 인제군,강원도 인제군 인제읍 설악로,38.09529137,128.1807116
취병낚시터,강원 원주시,강원도 원주시 문막읍 취병로 267,37.32237616,127.7937183
철원관광레저,강원 철원군,강원도 철원군 갈말읍 갈말로 358,38.18541205,127.3074242
정선 알파인경기장,강원 정선군,강원도 정선군 북평면 오대천로 549-6,37.47006629,128.6175235
동강래프팅(평창),강원 영월군,강원도 평창군 미탄면 마하리,37.28325552,128.5626157
동강 래프팅(정선),강원 정선군,강원도 정선군 정선읍 정선로,37.37317353,128.6136327
카트조이,강원 철원군,강원도 철원군 갈말읍 드르니길 26,38.1503527,127.2984811
설악레저스쿨(바다래프팅),강원 속초시,강원도 속초시 동해대로 4236,38.19776126,128.577531
[강릉 바우길 8구간] 산우에 바닷길,강원 강릉시,강원도 강릉시 강동면 안인진리,37.727715,128.9889586
속초연안 배낚시,강원 속초시,강원도 속초시 장사항해안길 58,38.22664409,128.5880191
태백국민체육센터,강원 태백시,강원도 태백시 번영로 220,37.16293569,128.9852903
어성전숲속수련장,강원 양양군,강원도 양양군 현북면 부연동길 1303,37.911116,128.652313
원천낚시터,강원 화천군,강원도 화천군 하남면 호수길 163,38.04839794,127.6767754
K2 스키&보드,강원 춘천시,강원도 춘천시 남산면 북한강변길 822,37.82892827,127.6024252
강원도자연학습원,강원 원주시,강원도 원주시 소초면 구룡사로 451,37.40384479,128.0527829
파로호 낚시터,강원 양구군,강원도 양구군 양구읍 파로호로,38.11297438,127.9780314
해파랑길 33코스,강원 동해시,강원도 동해시 촛대바위길 2,37.478552,129.158193
간현청소년수련원,강원 원주시,강원도 원주시 지정면 소금산길 125,37.36759006,127.8231085
오투리조트 스키장,강원 태백시,강원도 태백시 서학로 861,37.17171176,128.9587558
속초항 방파제낚시,강원 속초시,강원도 속초시 영금정로 46,38.21143036,128.6009143
내린천 수변공원,강원 인제군,강원도 인제군 인제읍 내린천로 5693,38.00988909,128.2392314
강원도청소년수련관,강원 춘천시,강원도 춘천시 신샘밭로 89,37.92294014,127.7206389
강릉항요트마리나,강원 강릉시,강원도 강릉시 창해로14번길 51-20,37.77236822,128.9510358
장암산 활공장,강원 평창군,강원도 평창군 평창읍 장암동길 129,37.39763576,128.4218058
철원청소년회관,강원 철원군,강원도 철원군 갈말읍 명성로139번길 52,38.14586869,127.3021894
해파랑길 35코스,강원 강릉시,강원도 강릉시 금진리 105-10,37.609161,129.035477
오대산 명상의 숲길,강원 평창군,강원도 평창군 진부면 동산리,37.75876119,128.5656899
조나단 패러글라이딩 스쿨,강원 평창군,강원도 평창군 평창읍 장암동길 167,37.3968963,128.4209257
강릉시 청소년 해양수련원,강원 강릉시,강원도 강릉시 주문진읍 동해대로 4940,37.91492638,128.8124264
양양오토캠핑장,강원 양양군,강원도 양양군 손양면 동명로 321-20,38.09005807,128.6564612
국립평창청소년수련원,강원 평창군,강원도 평창군 용평면 새터마을길 108,37.58321603,128.4020073
해파랑길 39코스,강원 강릉시,강원도 강릉시 병산동 881,37.75801692,128.9443953
거진방파제,강원 고성군,강원도 고성군 거진읍 거진항1길 62-3,38.44567754,128.4617328
옥스필드컨트리클럽,강원 횡성군,강원도 횡성군 서원면 경강로유현6길 28,37.52377953,127.8420135
블랙밸리 컨트리클럽,강원 삼척시,강원도 삼척시 도계읍 도상로 307-84,37.21818252,129.073433
서바이벌게임(철원),강원 철원군,강원도 철원군 갈말읍 삼부연로 51,38.14675637,127.3134613
송강카누학교,강원 인제군,강원도 인제군 인제읍 내린천로 6215,38.04321966,128.2063809
평창낚시터,강원 평창군,강원도 평창군 평창읍 등강길 44-1,37.3490822,128.3792976
영월군청소년수련관,강원 영월군,강원도 영월군 영월읍 제방안길 100,37.17427054,128.4591706
영월천문대 캠핑장,강원 영월군,강원도 영월군 북면 사만길 173,37.2636301,128.4099556
썬크루즈요트,강원 강릉시,강원도 강릉시 강동면 헌화로 950-39,37.68406187,129.0419045
호렙오대산청소년수련원,강원 평창군,강원도 평창군 진부면 진고개로 351-16,37.69808714,128.5985044
바다배낚시,강원 강릉시,강원도 강릉시 강동면 하시동리 1413,37.7438589,128.9666669
해양관광레저스포츠센터,강원 삼척시,강원도 삼척시 근덕면 덕산해변길 104,37.38598085,129.2406994
진밭골 캠핑&글램핑,강원 원주시,강원도 원주시 문막읍 취병로 638-3,37.34374094,127.7713839
하조대백사장,강원 양양군,강원도 양양군 현북면 하조대해안길 119,38.02775348,128.7175212
양구 사명산 MTB여행길,강원 양구군,강원도 양구군 양구읍 학안로 142,38.07256808,127.984242
해파랑길 41코스,강원 강릉시,강원도 강릉시 주문진읍 향호리 8-35,37.91133802,128.8185966
한여울 2코스,강원 철원군,강원도 철원군 동송읍 한탄강길 208,38.20344715,127.2700356
치악산금강송길,강원 원주시,강원도 원주시 소초면 구룡사로 500,37.39956708,128.0496655
춘천시청소년여행의집,강원 춘천시,강원도 춘천시 영서로 3035,37.92319102,127.7204818
[강릉 바우길 11구간] 신사임당길,강원 강릉시,강원도 강릉시 성산면 위촌길 198,37.75885165,128.8477386
동서울레스피아 골프장,강원 원주시,강원도 원주시 지정면 신평석화로 236,37.40082885,127.87949
새막골 캠프,강원 영월군,강원도 영월군 수주면 새막골길 72-115,37.32360986,128.1785338
한여울 5코스,강원 철원군,강원도 철원군 철원읍 사요길 167,38.250273,127.192627
오대천(수항계곡) 래프팅,강원 평창군,강원도 평창군 진부면 오대천로 553,37.53420623,128.5665561
관동하키센터,강원 강릉시,강원도 강릉시 범일로579번길 24,37.73732878,128.8737046
대관령 옛길,강원 강릉시,강원도 강릉시 성산면 어흘리,37.70926816,128.781558
오크밸리 C.C,강원 원주시,강원도 원주시 지정면 오크밸리2길 58,37.40780168,127.8089639
한여울 6코스,강원 철원군,강원도 철원군 동송읍 이평리 메뚜기교,37.2687137,128.2676066
겨울세상,강원 정선군,강원도 정선군 고한읍 고한로 83,37.20546911,128.8475989
연대천래프팅,강원 영월군,강원도 영월군 영월읍 섭새길 78-4,37.23186566,128.5133316
S-스키,강원 원주시,강원도 원주시 지정면 구재로 46,37.39219305,127.7890197
단종대왕 유배길,강원 영월군,강원도 영월군 주천면 주천리 1125-4,37.2687137,128.2676066
춘천 자전거길,강원 춘천시,강원도 춘천시 서면 신매리,37.91987807,127.7133796
백도해변오토캠핑장,강원 고성군,강원도 고성군 죽왕면 문암항길 133,38.30161938,128.5459142
봄내길 1코스,강원 춘천시,강원도 춘천시 신동면 실레길 25,37.81912478,127.7186675
[강릉 바우길 7구간] 풍호연가길,강원 강릉시,강원도 강릉시 구정면 금평로 117,37.70661509,128.8890232
잼버리카트장,강원 고성군,강원도 고성군 토성면 잼버리로 244,38.22362848,128.5001397
김삿갓계곡 캠핑장,강원 영월군,강원도 영월군 김삿갓면 김삿갓로 216-30,37.07926182,128.6026695
죽헌저수지,강원 강릉시,강원도 강릉시 유죽길,37.78027589,128.8753256
한탄강 래프팅,강원 철원군,강원도 철원군 갈말읍 삼부연로,38.14815433,127.3146611
스키토탈,강원 홍천군,강원도 홍천군 서면 한서로 2101,37.61901417,127.6688068
[강릉 바우길 4구간] 사천 둑방길,강원 강릉시,강원도 강릉시 성산면 삼왕길 204-15,37.76036099,128.7945446
샘마을레저파크,강원 춘천시,강원도 춘천시 남산면 방하로 429,37.77318141,127.5417642
금진방파제,강원 강릉시,강원도 강릉시 옥계면 헌화로,37.65875929,129.0566231
익사이팅코리아,강원 철원군,강원도 철원군 동송읍 태봉로 1814-1,38.18931191,127.2899411
동강 오토캠핑장,강원 영월군,강원도 영월군 영월읍 둥글바위길 33,37.20221237,128.5039058
해파랑길 44코스,강원 양양군,강원도 양양군 손양면 수산리 89-3,38.07961653,128.672161
속초스쿠버센터,강원 속초시,강원도 속초시 영랑해안9길 7-1,38.21851973,128.5932908
보드트레이더,강원 평창군,강원도 평창군 봉평면 태기로 321,37.57551426,128.340018
고산낚시터,강원 원주시,강원도 원주시 호저면 호저로 1140,37.46676342,127.9175964
이무기낚시터,강원 원주시,강원도 원주시 소초면 신양선녀길 99,37.41304365,127.9726254
해파랑길 37코스,강원 강릉시,강원도 강릉시 강동면 안인진리 16-5,37.73446181,128.9897742
해파랑길 38코스,강원 강릉시,강원도 강릉시 구정면 금평로 117,37.70661509,128.8890232
강원쥬라기랜드,강원 횡성군,강원도 횡성군 서원면 경강로 646-18,37.52401345,127.8683496
태백시청소년수련관,강원 태백시,강원도 태백시 천제단길 148,37.12170837,128.9516411
리더스스키,강원 홍천군,강원도 홍천군 서면 한치골길 70,37.62748118,127.6681484
한여울 4코스,강원 철원군,강원도 철원군 철원읍 금학로 591,38.23944032,127.2135054
동강 래프팅(영월),강원 영월군,강원도 영월군 영월읍 제방안길,37.17608769,128.465545
동강레포츠,강원 평창군,강원도 평창군 미탄면 마하길 41-5,37.2916362,128.5410876
수산항 낚시터,강원 양양군,강원도 양양군 손양면 수산1길 20-24,38.07688762,128.6747762
대명 비발디컨트리클럽(퍼블릭),강원 홍천군,강원도 홍천군 서면 한치골길 200,37.63865599,127.6736479
오투리조트 골프장,강원 태백시,강원도 태백시 서학로 861,37.17171176,128.9587558
봄내길 3코스,강원 춘천시,강원도 춘천시 서면 당숲안길 81,37.83784571,127.6081748
해파랑길 40코스,강원 강릉시,강원도 강릉시 사천면 공회당길 27-1,37.83931059,128.8741371
[강릉 바우길 10구간] 심스테파노 길,강원 강릉시,강원도 강릉시 성산면 삼왕길 204-15,37.76036099,128.7945446
만해마을 수련원,강원 인제군,강원도 인제군 북면 만해로 91,38.18753627,128.318117
바다캠핑장,강원 양양군,강원도 양양군 손양면 동명로 321-14,38.0895173,128.6581241
화진포 오토캠핑장,강원 고성군,강원도 고성군 현내면 모정2길 2,38.47047649,128.4198125
강촌 번지점프,강원 춘천시,강원도 춘천시 남산면 강촌로 256,37.79695454,127.6392802
강촌스키보드타운,강원 춘천시,강원도 춘천시 남산면 서백길 68,37.84201693,127.5514388
한여울 3코스,강원 철원군,강원도 철원군 동송읍 오덕로 273,38.23171908,127.2396229
오십천하구,강원 삼척시,강원도 삼척시 오분동 삼척항길,37.43264791,129.1862807
양양 낙산 해변야영장,강원 양양군,강원도 양양군 양양읍 해맞이길 115,38.112723,128.6376701
강사랑래프팅,강원 영월군,강원도 영월군 영월읍 동강로 878,37.23659715,128.5133596
순담레져,강원 철원군,강원도 철원군 갈말읍 순담길 149,38.17676282,127.2975139
산악자전거 자운리코스,강원 홍천군,강원도 홍천군 내면 자운리 일대,37.7263859,128.3942755
대평낚시터,강원 원주시,강원도 원주시 관설동 1348-2,37.31213143,127.970614
주문리어촌계,강원 강릉시,강원도 강릉시 주문진읍 주문북로 210,37.91013153,128.8176761
환타피아,강원 평창군,강원도 평창군 대관령면 올림픽로 240,37.66504409,128.70453
한탄강썬래프팅,강원 철원군,강원도 철원군 갈말읍 호국로 5053-1,38.17007117,127.3195771
하이원 컨트리클럽,강원 정선군,강원도 정선군 사북읍 하이원길 265,37.21187405,128.8214537
R#,강원 홍천군,강원도 홍천군 서면 한서로 2133,37.61702279,127.6714974
한백레저,강원 인제군,강원도 인제군 인제읍 내린천로 6211,38.04304029,128.2068116
코리아레저캠프,강원 철원군,강원도 철원군 동송읍 태봉로 1842-5,38.18905059,127.2871088
용평스키라인,강원 평창군,강원도 평창군 대관령면 삼현동1길 10-6,37.66219491,128.6986281
평창유스호스텔,강원 평창군,강원도 평창군 방림면 칡사리길 254-14,37.42953694,128.2704486
토미스노우보드,강원 평창군,강원도 평창군 봉평면 태기로 262,37.57987952,128.336619
설악프라자컨트리클럽,강원 속초시,강원도 속초시 미시령로2983번길 111,38.21030036,128.5287214
요트마리나,강원 양양군,강원도 양양군 손양면 수산1길 20-24,38.07688762,128.6747762
서핑,강원 양양군,강원도 양양군 현북면 동해대로 1290,38.00748989,128.7297912
록키스키,강원 횡성군,강원도 횡성군 둔내면 고원로 389,37.49868859,128.2384197
수달레저,강원 영월군,강원도 영월군 영월읍 동강로 871-11,37.23567741,128.5117196
영월동강삼성래프팅,강원 영월군,강원도 영월군 영월읍 동강로 245-4,37.20222459,128.5061137
코리아레저 번지점프장,강원 철원군,강원도 철원군 갈말읍 태봉대교길 153,38.20563584,127.2693067
아날로거 글램핑,강원 영월군,강원도 영월군 수주면 무릉법흥로 852-24,37.33359533,128.2828424
덕산포구,강원 삼척시,강원도 삼척시 근덕면 덕산해안로,37.38199264,129.2470821
봄내길 4코스,강원 춘천시,강원도 춘천시 서면 금산2길 21,37.90346175,127.6993912
해파랑길 36코스,강원 강릉시,강원도 강릉시 강동면 정동역길 17,37.6913387,129.0328303
본적산 황부자 며느리 친정가는길,강원 태백시,강원도 태백시 고원로 203,37.17196057,128.9880394
천일스키샵,강원 평창군,강원도 평창군 봉평면 태기로 131,37.58582879,128.3248831
[강릉 바우길 3구간] 어명을 받은 소나무길,강원 강릉시,강원도 강릉시 성산면 보광리,37.7488719,128.7804788
세븐스키,강원 정선군,강원도 정선군 고한읍 고한로 8,37.20960347,128.8413399
동서울레스피아 연수원,강원 원주시,강원도 원주시 지정면 신평석화로 236,37.40082885,127.87949
마리나요트,강원 속초시,강원도 속초시 철새길 106,38.19231195,128.5897431
금대에코힐링캠핑장,강원 원주시,강원도 원주시 판부면 영원산성길 372,37.29334864,128.0183053
거두리낚시터,강원 춘천시,강원도 춘천시 동내면 거두리 312-3,37.85993897,127.788923
문화마을 둘레길,강원 평창군,강원도 평창군 봉평면 이효석길 167,37.61491792,128.3726085
닥터스노우,강원 평창군,강원도 평창군 대관령면 올림픽로 56,37.67377447,128.7004766
레포츠114,강원 철원군,강원도 철원군 갈말읍 순담길 149,38.17676282,127.2975139
동강드림래프팅,강원 영월군,강원도 영월군 영월읍 어라연길 48,37.23463513,128.5171612
사기막저수지,강원 강릉시,강원도 강릉시 사천면 중앙서로,37.7941121,128.8185159
태용래프팅,강원 영월군,강원도 영월군 영월읍 동강로 871-18,37.23596899,128.5119574
썸머쿨래프팅,강원 영월군,강원도 영월군 영월읍 동강로 241,37.20170179,128.5063589
미남스키,강원 평창군,강원도 평창군 봉평면 태기로 362,37.57277324,128.3422557
눈밥,강원 홍천군,강원도 홍천군 서면 한치골길 911,37.69059048,127.6992044
내린천 번지점프,강원 인제군,강원도 인제군 인제읍 설악로 2254,38.07759867,128.1861034
카트조이레저 레저카트,강원 철원군,강원도 철원군 갈말읍 드르니길 26,38.1503527,127.2984811
스키스,강원 홍천군,강원도 홍천군 서면 한치골길 48,37.6256903,127.6675153
에스앤에스,강원 홍천군,강원도 홍천군 서면 한서로 2054,37.62231517,127.6657129
강촌레저 서바이벌,강원 춘천시,강원도 춘천시 남산면 강촌로 151-1,37.80624754,127.6380312
성동힐링센터 휴영월캠프,강원 영월군,강원도 영월군 영월읍 동강로 1488-23,37.26913077,128.5263276
대화장터 가는길,강원 평창군,강원도 평창군 용평면 장평리 301-8,37.57817189,128.4162276
가지오래프팅,강원 영월군,강원도 영월군 영월읍 삼옥길 4,37.20784217,128.5091099
겨울세상,강원 평창군,강원도 평창군 대관령면 올림픽로 24,37.67667613,128.6999444
파인리즈컨트리클럽,강원 고성군,강원도 고성군 토성면 잼버리동로 267,38.24322089,128.5375866
대관령스포츠,강원 평창군,강원도 평창군 봉평면 태기로 493,37.56363761,128.3501723
화이트스포츠,강원 횡성군,강원도 횡성군 둔내면 고원로398번길 15-1,37.49675135,128.238215
수인리낚시터,강원 양구군,강원도 양구군 양구읍 웅진리 332,38.04033144,127.9497506
파크밸리골프클럽,강원 원주시,강원도 원주시 소초면 바우실길 281,37.38889492,128.013145
용평 버치힐골프클럽,강원 평창군,강원도 평창군 대관령면 올림픽로 715,37.65094444,128.7055569
수산항 요트 및 카누 체험,강원 양양군,강원도 양양군 손양면 수산1길 26-41,38.08028931,128.6733664
스키911,강원 횡성군,강원도 횡성군 둔내면 고원로 162,37.51134347,128.2243484
로시놀,강원 평창군,강원도 평창군 대관령면 올림픽로 183,37.66676761,128.7100081
바이스포츠,강원 평창군,강원도 평창군 대관령면 삼현동1길 10-6,37.66219491,128.6986281
기화리조트,강원 춘천시,강원도 춘천시 남산면 방하로 444,37.77453253,127.5414586
구룡령 옛길,강원 양양군,강원도 양양군 서면 갈천리 산21-2,37.9085567,128.509147
방림 천제당길,강원 평창군,강원도 평창군 방림면 천제당길,37.42744201,128.4139069
동양원목오토캠핑장,강원 영월군,강원도 영월군 수주면 명마동길 13,37.2862959,128.2779438
짚트랙,강원 인제군,강원도 인제군 인제읍 내린천로 6211,38.04304029,128.2068116
100고개길,강원 원주시,강원도 원주시 치악로 1906,37.35124633,127.9559887
코리아레저스쿨,강원 평창군,강원도 평창군 대관령면 솔봉로 469,37.6558241,128.6824173
눈의나라,강원 정선군,강원도 정선군 고한읍 고한로 47,37.20717375,128.8443454
무실배과수원길,강원 원주시,강원도 원주시 만대로 155,37.33543002,127.9216593
스키짱 주인짱,강원 횡성군,강원도 횡성군 둔내면 고원로 98,37.50981767,128.2171697
성우스키샵,강원 횡성군,강원도 횡성군 둔내면 고원로 419,37.49732538,128.2408137
휘닉스 컨트리클럽,강원 평창군,강원도 평창군 봉평면 태기로 174,37.58246341,128.3268678
스노우밸리,강원 원주시,강원도 원주시 지정면 구재로 269,37.40701547,127.8015434
눈내리는겨울,강원 평창군,강원도 평창군 대관령면 올림픽로 236,37.66513502,128.7049764
드림하이원스키샵,강원 정선군,강원도 정선군 고한읍 물한리길 52,37.21013111,128.8383149
연어 자전거길,강원 양양군,강원도 양양군 양양읍 남문리,38.07355871,128.6250446
치악신림오토캠핑장,강원 원주시,강원도 원주시 신림면 성남로 194,37.2622395,128.084538
원주두리캠핑장,강원 원주시,강원도 원주시 신림면 신림황둔로 974,37.24854211,128.1687165
오크글램핑,강원 원주시,강원도 원주시 지정면 송정로 2-1,37.38459621,127.8602439
소금산 암벽등반,강원 원주시,강원도 원주시 지정면 소금산길 26,37.36489335,127.8325455
아이러브스키,강원 횡성군,강원도 횡성군 둔내면 고원로 387,37.4989106,128.2382896
황학동캠핑장,강원 원주시,강원도 원주시 신림면 구학산로 1456-6,37.20869039,128.0453531
아이언웨이,강원 인제군,강원도 인제군 인제읍 내린천로 6211,38.04304029,128.2068116
아르고,강원 인제군,강원도 인제군 인제읍 내린천로 6211,38.04304029,128.2068116
금대길,강원 원주시,강원도 원주시 동부순환로 26,37.31848877,127.9713524
봄내길 2코스,강원 춘천시,강원도 춘천시 남산면 강촌구곡길 254,37.79703294,127.6158514
하얀여울 캠핑장,강원 영월군,강원도 영월군 수주면 무릉법흥로 932,37.34028551,128.2805875
파크밸리CC,강원 원주시,강원도 원주시 소초면 바우실길 281,37.38889492,128.013145
땡스키,강원 춘천시,강원도 춘천시 남산면 서백길 86-4,37.84065705,127.5517657
스키뱅크,강원 평창군,강원도 평창군 대관령면 올림픽로 56,37.67377447,128.7004766
사람과자연,강원 평창군,강원도 평창군 대관령면 올림픽로 234,37.66524956,128.7053288
장사어촌계 배낚시,강원 속초시,강원도 속초시 장사항해안길 58,38.22664409,128.5880191
보트,강원 강릉시,강원도 강릉시 송정동 268,37.78544903,128.9279328
스키아이,강원 평창군,강원도 평창군 봉평면 태기로 789-122,37.57526073,128.3639134
월드스키,강원 횡성군,강원도 횡성군 둔내면 고원로 112,37.51012341,128.2190176
금방아민박캠핑장,강원 영월군,강원도 영월군 수주면 무릉법흥로 516,37.31786034,128.2603555
아빠가 만든 캠핑장,강원 영월군,강원도 영월군 북면 덕전길 240,37.25562363,128.3930078
녹색경관길,강원 양양군,강원도 양양군 강현면 정암리,38.14304691,128.6073493
배말나루길,강원 원주시,강원도 원주시 북원로 2613,37.37711036,127.9442443
포인트스키,강원 평창군,강원도 평창군 대관령면 올림픽로 12,37.67775657,128.6999556
용평 나인골프클럽,강원 평창군,강원도 평창군 대관령면 올림픽로 715,37.65094444,128.7055569
그루터기 캠핑장,강원 양양군,강원도 양양군 서면 구룡령로 1694,37.95566652,128.5091045
황둔애오토캠핑장,강원 원주시,강원도 원주시 신림면 신림황둔로 1032,37.25176372,128.1752857
치악산휴양림길,강원 원주시,강원도 원주시 판부면 휴양림길 66,37.2558736,128.03138
꽃밭머리길,강원 원주시,강원도 원주시 고문골길 1,37.34325563,128.0020442
굴봉산 캠핑장,강원 춘천시,강원도 춘천시 남산면 백양리 252-1,37.80487849,127.5738119
스키911,강원 평창군,강원도 평창군 대관령면 올림픽로 10,37.67785529,128.6998876
강윤정프로샵(오크점),강원 원주시,강원도 원주시 지정면 구재로 216,37.40320606,127.7989861
드림월드프로샵,강원 횡성군,강원도 횡성군 둔내면 고원로 397,37.49817999,128.2389798
개야강변 야영장,강원 홍천군,강원도 홍천군 서면 개야마을길,37.69594713,127.6332852
건등낚시터,강원 원주시,강원도 원주시 문막읍 건등리 137-2,37.31223516,127.836852
한반도승마장,강원 영월군,강원도 영월군 주천면 주천리 304,37.26188169,128.2907635
연화산둘레길,강원 태백시,강원도 태백시 연화산길 155,37.14775613,129.0108908
더스노우(the snow),강원 춘천시,강원도 춘천시 남산면 서백길 81,37.84092372,127.5522486
스키114,강원 횡성군,강원도 횡성군 둔내면 고원로 222,37.50875214,128.2261388
피싱12,강원 홍천군,강원도 홍천군 서면 밤벌길2번길 35,37.6948838,127.6022465
북원역사길,강원 원주시,강원도 원주시 원일로 85,37.3481818,127.9499428
백운낚시터,강원 원주시,강원도 원주시 판부면 서곡리,37.28367211,127.9481129
상순네 오토캠핑장,강원 영월군,강원도 영월군 중동면 고장골길 76-6,37.1549652,128.6586681
설인스키샵,강원 평창군,강원도 평창군 대관령면 삼현동1길 10-6,37.66219491,128.6986281
저류지캠핑장,강원 영월군,강원도 영월군 영월읍 방절리 352-1,37.1913541,128.4483631
장산야영장캠핑장,강원 영월군,강원도 영월군 상동읍 천평리 58-1,37.10923097,128.8664732
솔숲캠핑장,강원 영월군,강원도 영월군 수주면 무릉법흥로 588-80,37.32495693,128.2610776
백야,강원 평창군,강원도 평창군 봉평면 태기로 527,37.5641228,128.3538263
스노우뱅크,강원 정선군,강원도 정선군 고한읍 고한로 36,37.20787721,128.8432506
뜨란솔 캠핑장,강원 영월군,강원도 영월군 수주면 법흥리 625-1,37.33182282,128.2763987
월명리낚시터,강원 양구군,강원도 양구군 양구읍 간척월명로 1715,38.11779545,127.89806
두산분교캠핑장,강원 영월군,강원도 영월군 수주면 두산길 241,37.30814595,128.1699154
모곡레저타운,강원 홍천군,강원도 홍천군 서면 밤벌길 141,37.70308127,127.6023404
인공암벽장,강원 태백시,강원도 태백시 천제단길 203-52,37.11468043,128.9514681
동강시스타CC,강원 영월군,강원도 영월군 영월읍 삼옥리 362,37.21668835,128.5114018
상동통나무캠핑장,강원 영월군,강원도 영월군 상동읍 태백산로 3419,37.12028826,128.8420259
어울림 펜션캠핑장,강원 영월군,강원도 영월군 한반도면 후탄리 329-2,37.1986022,128.3730322
휴가를 부탁해 캠핑장,강원 영월군,강원도 영월군 김삿갓면 내리계곡로 1024,37.10344411,128.6828444
인구항 배낚시,강원 양양군,강원도 양양군 현남면 인구리,37.95909493,128.745476
안보등산로,강원 강릉시,강원도 강릉시 강동면 정동진리,37.69471431,129.0109086
물가애 캠핑장,강원 원주시,강원도 원주시 호저면 칠봉로 840-74,37.46167279,127.8996805
준스키,강원 평창군,강원도 평창군 봉평면 태기로 155,37.58459165,128.3270467
늘푸른 캠핑장,강원 영월군,강원도 영월군 김삿갓면 내리계곡로 1116-4,37.10783739,128.6756306
달과별 캠핑장,강원 영월군,강원도 영월군 상동읍 덕구리 15,37.0954933,128.8104426
별마로 펜션캠핑,강원 영월군,강원도 영월군 수주면 무릉법흥로 1078-22,37.35149848,128.2800842
사슬치 캠핑장,강원 영월군,강원도 영월군 주천면 용석리 339,37.22051846,128.2960727
거북이낚시터,강원 춘천시,강원도 춘천시 서면 현암리 698-3,37.8754407,127.6780412
서울스키,강원 횡성군,강원도 횡성군 둔내면 고원로 404,37.497454,128.2391171
용평골프클럽,강원 평창군,강원도 평창군 대관령면 올림픽로 715,37.65094444,128.7055569
봉포다이빙,강원 고성군,강원도 고성군 토성면 봉포해변길 114,38.25088876,128.567301
아야진 스쿠버리조트,강원 고성군,강원도 고성군 토성면 아야진해변길 104,38.27400369,128.5561386
아야진항 배낚시,강원 고성군,강원도 고성군 토성면 아야진해변길 80,38.27214478,128.5560294
월척낚시터,강원 춘천시,강원도 춘천시 서면 박사로 914-14,37.89784898,127.6945198
좋은친구들,강원 정선군,강원도 정선군 고한읍 고한로 8,37.20960347,128.8413399
알프스스키,강원 평창군,강원도 평창군 대관령면 올림픽로 18,37.67720095,128.7001023
교암 스쿠버리조트,강원 고성군,강원도 고성군 토성면 천학정길 12,38.28928623,128.5478624
호식이 캠핑장,강원 영월군,강원도 영월군 주천면 중선로 215,37.31163628,128.3187948
마대산장 캠핑장,강원 영월군,강원도 영월군 대야리 116-3,37.10796724,128.5619585
기사문항 배낚시,강원 양양군,강원도 양양군 현북면 기사문리,38.0083682,128.7260957
아리울 캠핑장,강원 원주시,강원도 원주시 신림면 재사동길 143,37.2378856,128.1640233
광명낚시터,강원 춘천시,강원도 춘천시 서면 박사로 741-11,37.88621512,127.683806
오리온스,강원 횡성군,강원도 횡성군 둔내면 고원로412번길 6,37.49683527,128.2396631
판운 캠핑장,강원 영월군,강원도 영월군 주천면 미다리길 58,37.29153777,128.3265636
힐링 캠프,강원 영월군,강원도 영월군 수주면 무릉법흥로 1208-7,37.36410794,128.2734027
사이클경기장,강원 양양군,강원도 양양군 양양읍 군청길 1,38.07550927,128.6189563
호호캠핑장,강원 원주시,강원도 원주시 신림면 무시정길 16,37.25180467,128.0824294
한터둘레길,강원 원주시,강원도 원주시 호저면 대덕길 133,37.42552234,127.9385597
한다리골야영장,강원 원주시,강원도 원주시 소초면 백교길 84-15,37.42608775,128.0645576
수산항 배낚시,강원 양양군,강원도 양양군 손양면 수산리,38.07930952,128.6715418
매화마을 녹색길,강원 평창군,강원도 평창군 도돈리 29-31,37.32734958,128.3717113
동해종합운동장,강원 동해시,강원도 동해시 덕골길 10,37.51606095,129.1021986
느티나무 캠핑장,강원 영월군,강원도 영월군 김삿갓면 내리계곡로 1061,37.10398598,128.6784954
외룡캠핑장,강원 영월군,강원도 영월군 김삿갓면 영월동로 2696,37.11374321,128.6662789
천진항배낚시,강원 고성군,강원도 고성군 토성면 천진리,38.25781325,128.5495771
산솔 캠핑장,강원 영월군,강원도 영월군 중동면 녹전리 193,37.14690521,128.7077736
솔밭캠프,강원 영월군,강원도 영월군 수주면 무릉법흥로 715-20,37.32938121,128.268993
약수터캠핑장,강원 영월군,강원도 영월군 중동면 태백산로 1133-7,37.14634425,128.6769979
솔밭가족캠프촌,강원 양양군,강원도 양양군 손양면 송평길 38,38.09098838,128.6538245
행복빌리지캠핑장,강원 원주시,강원도 원주시 신림면 신림황둔로 662,37.25139215,128.1361799
장구봉길,강원 원주시,강원도 원주시 상지대길 80,37.37046377,127.9342686
월운여울길,강원 원주시,강원도 원주시 강변로 385,37.34175638,127.9622374
신포리낚시터,강원 춘천시,강원도 춘천시 사북면 지촌길 36-6,38.03134884,127.644624
그린낚시터,강원 춘천시,강원도 춘천시 강창골길 64,37.86744581,127.7002228
금천낚시터,강원 태백시,강원도 태백시 금천길 159,37.09384758,128.9953468
공현진항 배낚시,강원 고성군,강원도 고성군 공현진해변길,38.35438522,128.5107391
포안캠핑장,강원 영월군,강원도 영월군 수주면 두산리 224,37.31320032,128.1771982
저금어지길,강원 원주시,강원도 원주시 호저로 226,37.39548162,127.937183
반계낚시터,강원 원주시,강원도 원주시 문막읍 반계리 산 1,37.3025753,127.7990698
귀운낚시터,강원 원주시,강원도 원주시 귀래면 귀래리 1412-2,37.22547308,127.8598637
아날로거 무릉도원점,강원 영월군,강원도 영월군 수주면 아래골길 10,37.29277068,128.2753723
소치길,강원 인제군,강원도 인제군 남면 갑둔리,37.91512972,128.1442356
연가리 조침령길,강원 인제군,강원도 인제군 기린면 조침령로 1436-8,37.97449705,128.436899
구학리산채관광마을,강원 원주시,강원도 원주시 신림면 구학산로 1624,37.21058217,128.0635688
호반낚시터,강원 춘천시,강원도 춘천시 송암길 47,37.85281146,127.686688
삼천낚시터,강원 춘천시,강원도 춘천시 삼천동 335-1,37.86300615,127.6908953
고탄리낚시터,강원 춘천시,강원도 춘천시 사북면 춘화로 337,37.98003844,127.6913541
풍경,강원 영월군,강원도 영월군 수주면 법흥리 704,37.32690687,128.2617653
구룡레저타운야영장,강원 원주시,강원도 원주시 소초면 학곡리 530-1,37.44011003,128.0546148
웅진리낚시터,강원 양구군,강원도 양구군 양구읍 웅진리 490,38.06076163,127.9408176
청룡레저,강원 철원군,강원도 철원군 동송읍 태봉로 1850,38.18941525,127.2862685
오투리조트스키장,강원 태백시,강원도 태백시 서학로 861,37.17171176,128.9587558
천진 스쿠버리조트,강원 고성군,강원도 고성군 토성면 천진해변길 46,38.26056603,128.5606691
운학캠프,강원 영월군,강원도 영월군 수주면 학산길 26-9,37.31928446,128.188241
청산캠프,강원 영월군,강원도 영월군 수주면 무릉법흥로 782-10,37.33092075,128.2747621
샌드파인골프클럽(샌드파인GC),강원 강릉시,강원도 강릉시 저동등길 53,37.79622492,128.8810137
메이플비치골프,강원 강릉시,강원도 강릉시 강동면 하시동리 산101,37.74765042,128.9689648
원평리낚시터,강원 춘천시,강원도 춘천시 사북면 원평길 36-64,38.00295664,127.6436077
소문난드림낚시터,강원 춘천시,강원도 춘천시 서면 덕두원리,37.86793175,127.6424443
자연이랑 캠프,강원 영월군,강원도 영월군 수주면 무릉법흥로 1174,37.36078801,128.2746199
정든오토캠프,강원 영월군,강원도 영월군 수주면 무릉법흥로 644-9,37.3249562,128.2630372
지구캠프,강원 영월군,강원도 영월군 수주면 무릉법흥로 1104,37.35528841,128.2787348
황토와 통나무 캠프,강원 영월군,강원도 영월군 수주면 백년계곡길 66-16,37.37167517,128.2737624
상무룡리낚시터,강원 양구군,강원도 양구군 양구읍 상무룡로 786-18,38.14518786,127.9013311
꿈엔들캠프,강원 영월군,강원도 영월군 수주면 무릉법흥로 968-12,37.3428711,128.2809798
춘천 박사마을 어린이 글램핑장,강원 춘천시,강원도 춘천시 서면 박사로 770,37.88754095,127.6857843
