name,region,address,lat,lon
여강길(1코스~5코스),경기 여주시,경기도 여주시 교동,37.28031078,127.6320575
한탄강 주상절리길(포천),경기 포천시,경기도 포천시 영북면,38.08913503,127.2755211
평화누리길 1코스 염하강철책길,경기 김포시,경기도 김포시 대곶면 대명리 517-4,37.64138072,126.539728
자라섬오토캠핑장,경기 가평군,경기도 가평군 가평읍 자라섬로 60,37.82089751,127.5210451
광릉숲길,경기 남양주시,경기도 남양주시 진접읍 부평리,37.74378465,127.1771783
플라이스테이션,경기 용인시,경기도 용인시 처인구 포곡읍 성산로 521,37.28089164,127.1992079
웅진플레이도시 실내스키장,경기 부천시,경기도 부천시 조마루로 2,37.49997006,126.7442354
남이섬 짚와이어,경기 가평군,경기도 가평군 가평읍 북한강변로 1024,37.80396191,127.5253669
양평레일바이크,경기 양평군,경기도 양평군 용문면 용문로 277,37.47971462,127.5865471
경기의왕레일파크,경기 의왕시,경기도 의왕시 왕송못동로 209,37.31088595,126.9503038
송원글램핑파크,경기 용인시,경기도 용인시 처인구 남사면 전궁로95번길 93,37.10740234,127.1429835
가평사계절썰매장,경기 가평군,경기도 가평군 상면 깃대봉길 5-20,37.75548501,127.4024016
파주 카트랜드,경기 파주시,경기도 파주시 탄현면 필승로 398-30,37.77749299,126.684548
지산 포레스트 리조트 스키장,경기 이천시,경기도 이천시 마장면 지산로 267,37.21900005,127.3420572
용인자연휴양림 에코어드벤처,경기 용인시,경기도 용인시 처인구 모현읍 초부로 220,37.31487372,127.2678442
용담태교둘레길,경기 용인시,경기도 용인시 처인구 원삼면,37.17695241,127.3286748
W홀스랜드,경기 가평군,경기도 가평군 상면 물골길 391,37.84904549,127.2935606
의왕스카이레일,경기 의왕시,경기도 의왕시 왕송못동로,37.31323565,126.9489864
남한강 자전거길,경기 남양주시,경기도 남양주시 와부읍 경강로926번길 80,37.5495833,127.2387505
경기도종합사격장,경기 화성시,경기도 화성시 양감면 사격장길 142,37.09390565,126.9565356
원마운트 스노우파크,경기 고양시,경기도 고양시 일산서구 한류월드로 300,37.6645541,126.7545266
안성시사계절썰매장,경기 안성시,경기도 안성시 보개면 남사당로 198-3,37.03125388,127.3114616
서서울컨트리클럽,경기 파주시,경기도 파주시 광탄면 혜음로 324,37.73132545,126.8964689
고대산캠핑리조트,경기 연천군,경기도 연천군 신서면 고대산길 84-12,38.21251732,127.1456447
한탄강관광지 오토캠핑장,경기 연천군,경기도 연천군 전곡읍 선사로 76,38.00887699,127.0588604
광명스피돔,경기 광명시,경기도 광명시 광명로 721,37.4668955,126.8453132
한국민속촌 눈썰매장,경기 용인시,경기도 용인시 기흥구 민속촌로 90,37.25913189,127.1225431
양지파인리조트 눈썰매장,경기 용인시,경기도 용인시 처인구 양지면 남평로 112,37.2103839,127.2937759
다산길1코스,경기 남양주시,경기도 남양주시 와부읍 덕소로 56,37.58689758,127.2088195
대부도,경기 안산시,경기도 안산시 단원구 대부동동,37.24902391,126.6016174
명지산 트레킹,경기 가평군,경기도 가평군 북면 도대리 일원,37.9467242,127.4879054
라비돌 컨트리클럽(퍼블릭골프장),경기 화성시,경기도 화성시 정남면 세자로 286,37.18708443,126.9841532
평화누리길 10코스 고랑포길,경기 연천군,경기도 연천군 장남면 원당리,37.98547211,126.8786975
[경기옛길 삼남길 제1길] 한양관문길(남태령표석 ~ 인덕원옛터),경기,경기도 과천시 남태령옛길,37.45278279,126.9928967
[경기옛길 삼남길 제4길] 서호천길(지지대비 ~ 서호공원입구),경기 수원시,경기도 수원시 장안구 경수대로,37.29361515,127.015895
의정부실내빙상장,경기 의정부시,경기도 의정부시 체육로 136,37.75879471,127.0238361
성은낚시터,경기 안성시,경기도 안성시 원곡면 통심길 16-46,37.07048505,127.1678744
가평 자라섬테마파크,경기 가평군,경기도 가평군 가평읍 자라섬로 60,37.82089751,127.5210451
캠프통 아일랜드,경기 가평군,경기도 가평군 청평면 호반로 976,37.7105574,127.4844323
어린이비전센터 사계절썰매장,경기 남양주시,경기도 남양주시 진접읍 해밀예당1로 96,37.71709051,127.1910488
[서울둘레길 6코스] 안양천코스,경기 안양시,경기도 안양시 만안구 경수대로 1431,37.43434247,126.9025292
SRC재활체육관 광주,경기 광주시,경기도 광주시 초월읍 경수길 25,37.41948735,127.287081
서정온천오토캠핑장,경기 연천군,경기도 연천군 장남면 장백로330번길 137-28,37.99592044,126.8859611
엑스라이프(X-LIFE),경기 양평군,경기도 양평군 옥천면,37.51806468,127.4560724
하노버승마장,경기 안성시,경기도 안성시 일죽면 원설로 1042,37.13481803,127.4467941
삼풍수영장(실외),경기 수원시,경기도 수원시 장안구 서부로 2388,37.31739781,126.9854649
미사리 경정공원,경기 하남시,경기도 하남시 미사대로 505 미사경정공원,37.55362591,127.2132296
뉴서울 다이빙 풀,경기 광명시,경기도 광명시 하안로288번길 15,37.46224731,126.8813411
딱따구리청소년수련원,경기 양주시,경기도 양주시 광적면 현석로 313-44,37.83271237,126.9414906
왕송호수 캠핑장,경기 의왕시,경기도 의왕시 왕송못동로 295,37.30582873,126.9527823
곤지암리조트 스키장,경기 광주시,경기도 광주시 도척면 도척윗로 278,37.3375066,127.2963741
스타힐리조트,경기 남양주시,경기도 남양주시 화도읍 먹갓로 96,37.6634947,127.2694304
양평물소리길,경기 양평군,경기도 양평군 양서면 목왕로 55-10,37.54575225,127.3288429
미필스키랜드,경기 성남시,경기도 성남시 분당구 구미로 120,37.3397408,127.1221485
베어스타운리조트 스키장,경기 포천시,경기도 포천시 내촌면 금강로2536번길 27,37.79991851,127.2451998
시흥 그린웨이,경기 시흥시,경기도 시흥시 동서로 287,37.38979099,126.7812554
토토큰바위캠핑장,경기 가평군,경기도 가평군 북면 화악산로 1246,37.96217692,127.5278801
동수원 뉴코아 PG휘트니스,경기 수원시,경기도 수원시 팔달구 인계로 154,37.26630686,127.034316
평화누리길 4코스 행주나루길,경기 고양시,경기도 고양시 덕양구 행주로15번길 89,37.59610775,126.8287118
스카이어드벤처,경기 하남시,경기도 하남시 미사대로 505,37.55362591,127.2132296
가평TOP랜드 번지점프,경기 가평군,경기도 가평군 가평읍 북한강변로 1044-15,37.80604214,127.5260286
한숲스포츠센터,경기 군포시,경기도 군포시 산본천로 43-6,37.36067457,126.9281743
양평 카누체험,경기 양평군,경기도 양평군 개군면 신내길7번길 37,37.4682398,127.530863
[경기옛길 삼남길 제8길] 오나리길(오산고인돌공원 ~ 맑음터공원),경기 오산시,경기도 오산시 금암동,37.1728364,127.0459409
김포스포츠센터(실내수영장),경기 김포시,경기도 김포시 봉화로181번길 31-20,37.62624013,126.7009209
에어로마스터,경기 화성시,경기도 화성시 송산면 삼존리 622-13,37.22496268,126.7701984
여주카라반,경기 여주시,경기도 여주시 점동면 선사길 321,37.23807757,127.684189
미리내캠프 눈썰매장,경기 양평군,경기도 양평군 지평면 월산저수지길 21,37.48098811,127.6497617
안성팜랜드 승마센터 (구. 안성목장 승마센터),경기 안성시,경기도 안성시 공도읍 대신두길 28,36.99208881,127.1944227
[경기옛길 영남길 제3길] 구성현길,경기 성남시,경기도 성남시 분당구 미금로22번길 6,37.33588233,127.1182402
[경기옛길 삼남길 제9길] 진위고을길(맑음터공원 ~ 원균장군묘),경기 오산시,경기도 오산시 오산천로 52,37.1450051,127.0677543
남부골프연습장,경기 용인시,경기도 용인시 기흥구 민속촌로 95,37.26146841,127.1150646
성림스포츠센터,경기 구리시,경기도 구리시 동구릉로 65,37.60594278,127.1338576
[경기옛길 영남길 제1길] 달래내고개길,경기 성남시,경기도 성남시 수정구 옛골로,37.42635402,127.0655119
경기도청소년수련원,경기 안산시,경기도 안산시 단원구 선감로 255,37.21515797,126.6421073
안산해피승마클럽,경기 안산시,경기도 안산시 상록구 목장길 36-21,37.31277259,126.8816188
평화누리길 9코스 율곡길,경기 파주시,경기도 파주시 파평면,37.92193589,126.8379492
호텔미란다수영장(실내.외),경기 이천시,경기도 이천시 중리천로115번길 45,37.27638756,127.4507682
고초골낚시터,경기 용인시,경기도 용인시 처인구 원삼면 이원로913번길 19-21,37.1572936,127.2831176
[경기옛길 삼남길 제6길] 화성효행길 (배양교 ~ 세마교),경기 화성시,경기도 화성시 배양동,37.2217002,126.9938616
분당올림픽스포츠센터 아이스링크,경기 성남시,경기도 성남시 분당구 중앙공원로 35,37.38086956,127.1286641
렉스필드 컨트리클럽,경기 여주시,경기도 여주시 산북면 광여로 1115,37.39889207,127.4313951
[구리 둘레길 1코스] 역사와 자연이 살아있는 구리 둘레길,경기 구리시,경기도 구리시 장자호수공원,37.5851107,127.1418934
아시아나 컨트리클럽,경기 용인시,경기도 용인시 처인구 양지면 양대로 290,37.2546997,127.2926706
한탄강,경기 연천군,경기도 연천군 전곡읍 선사로,38.02667149,127.0720691
[경기옛길 의주길 제4길] 파주고을길,경기 파주시,경기도 파주시 광탄면,37.77615422,126.8512579
의정부시 청소년수련관,경기 의정부시,경기도 의정부시 의정로 27,37.73517724,127.0338894
[경기옛길 삼남길 제2길] 인덕원길(인덕원옛터 ~ 백운호수입구),경기 안양시,경기도 안양시 동안구 인덕원로30번길 14,37.40194941,126.9751006
안양실내체육관,경기 안양시,경기도 안양시 동안구 평촌대로 389,37.40629131,126.9487366
[경기옛길 영남길 제4길] 석성산길,경기 용인시,경기도 용인시 기흥구 동백중앙로 239,37.27496587,127.1500328
김포사계절썰매장,경기 김포시,경기도 김포시 월곶면 용강로13번길 38,37.72080378,126.552204
[경기옛길 삼남길 제7길] 독산성길(세마교 ~ 오산고인돌공원),경기 화성시,경기도 화성시 안녕동,37.20310255,126.9942236
코오롱스포렉스(분당점),경기 성남시,경기도 성남시 분당구 탄천로 27,37.39502725,127.1229819
서울랜드 눈썰매장,경기,경기도 과천시 광명로 181,37.43654743,127.0240449
용인레저스포츠 야외수영장,경기 용인시,경기도 용인시 처인구 이동읍 이원로 495,37.16762404,127.2401253
평화누리길 2코스 조강철책길,경기 김포시,경기도 김포시 월곶면 포내리,37.72216581,126.5347665
쇠꼴마을 눈썰매장,경기 파주시,경기도 파주시 법원읍 술이홀로1333번길 164,37.88229941,126.8698929
양평한화리조트 눈썰매장,경기 양평군,경기도 양평군 옥천면 신촌길 188,37.5669431,127.4569926
[경기옛길 삼남길 제5길] 중복들길(서호공원입구 ~ 배양교),경기 수원시,경기도 수원시 팔달구 수성로,37.2881678,127.0023402
율동공원번지점프,경기 성남시,경기도 성남시 분당구 문정로 145,37.38335593,127.150005
베르아델 승마클럽,경기 안산시,경기도 안산시 단원구 부흥로 376,37.21378124,126.6090332
뒷방울 저수지,경기 시흥시,경기도 시흥시 뒷방울길 147,37.37045536,126.7507241
안양컨트리클럽,경기 군포시,경기도 군포시 군포로 364,37.3394048,126.9392884
하니랜드 눈썰매장,경기 파주시,경기도 파주시 조리읍 장곡로 218,37.74984994,126.8335561
남수원컨트리클럽,경기 화성시,경기도 화성시 황계남길 21-10,37.21444511,127.0080122
평화누리길 6코스 출판도시길,경기 고양시,경기도 고양시 일산서구,37.67519827,126.7506691
평택시 무봉산청소년수련원,경기 평택시,경기도 평택시 진위면 진위로 181-94,37.10584894,127.1012038
평화누리길 7코스 헤이리길,경기 파주시,경기도 파주시 탄현면 성동리,37.78446488,126.6781165
양지파인리조트 스키장,경기 용인시,경기도 용인시 처인구 양지면 남평로 112,37.2103839,127.2937759
뉴스프링빌 컨트리클럽,경기 이천시,경기도 이천시 모가면 사실로527번길 158,37.15426859,127.4314051
평택시 실내수영장,경기 평택시,경기도 평택시 평남로 616,36.98756543,127.106511
평화누리길 8코스 반구정길,경기 파주시,경기도 파주시 문산읍,37.85699359,126.7908612
[시흥 늠내길 제1코스] 숲길,경기 시흥시,경기도 시흥시 시청로,37.38233728,126.8006729
대부도해맞이승마클럽,경기 안산시,경기도 안산시 단원구 영전로 262-20,37.24889371,126.6095979
평화누리 캠핑장,경기 파주시,경기도 파주시 문산읍 임진각로 148-40,37.89204346,126.7447929
양평 미래항공스포츠,경기 양평군,경기도 양평군 옥천면 동막길 49,37.55938707,127.4637122
소풍캠핑장,경기 가평군,경기도 가평군 설악면 가일리 108,37.5949187,127.508512
용담저수지(사암지),경기 용인시,경기도 용인시 처인구 원삼면 원양로 382-2,37.19178744,127.3064023
여주청소년수련원,경기 여주시,경기도 여주시 강천면 부평로 3,37.25758772,127.7538137
덕우저수지,경기 화성시,경기도 화성시 봉담읍 삼천병마로 709,37.17124007,126.9359644
수원클라이밍센터,경기 수원시,경기도 수원시 팔달구 월드컵로357번길 23-18,37.28813791,127.0306172
[경기옛길 영남길 제2길] 낙생역길,경기 성남시,경기도 성남시 분당구 판교역로,37.39803198,127.1113278
고삼호수(고삼지),경기 안성시,경기도 안성시 고삼면 향림길 50,37.08850669,127.284972
웨이크베이,경기 가평군,경기도 가평군 설악면 유명로 2304-34,37.70594724,127.4491823
[경기옛길 삼남길 제3길] 모락산길(백운호수입구 ~ 지지대비),경기 의왕시,경기도 의왕시 학의동,37.37122516,127.0111315
솔모로 컨트리클럽,경기 여주시,경기도 여주시 가남읍 솔모로그린길 171,37.19201223,127.5883362
기천지(기천저수지),경기 화성시,경기도 화성시 봉담읍 상기리,37.20550886,126.9205196
한탄강관광지 세계캠핑체험장,경기 연천군,경기도 연천군 전곡읍 선사로 123,38.00737616,127.062135
발리오스 컨트리클럽,경기 화성시,경기도 화성시 팔탄면 3.1만세로 641-28,37.11654859,126.860409
평화누리길 11코스 임진적벽길,경기 연천군,경기도 연천군 미산면 숭의전로 382-27,38.02371328,126.9730162
김포시청소년수련원,경기 김포시,경기도 김포시 월곶면 용강로13번길 38,37.72080378,126.552204
수원월드컵경기장,경기 수원시,경기도 수원시 팔달구 월드컵로 310,37.2864229,127.0359666
하니랜드 워터파크,경기 파주시,경기도 파주시 조리읍 장곡로 218,37.74984994,126.8335561
북동저수지(대부도),경기 안산시,경기도 안산시 단원구 뻐꾹산길,37.25413843,126.5804732
어천저수지,경기 화성시,경기도 화성시 매송면 어사로 47,37.25539685,126.9145467
한화리조트 플라자CC 용인,경기 용인시,경기도 용인시 처인구 남사면 봉무로153번길 79,37.13362839,127.1469823
극동스포랜드(실내수영장),경기 안산시,경기도 안산시 단원구 초지동로 7,37.30431595,126.8162043
[경기옛길 영남길 제5길] 수여선옛길,경기 용인시,경기도 용인시 처인구 중부대로,37.24408459,127.3171469
가평베네스트 골프클럽,경기 가평군,경기도 가평군 상면 둔덕말길 232,37.7971308,127.3054464
[경기옛길 의주길 제5길] 임진나루길,경기 파주시,경기도 파주시 문산읍,37.85699359,126.7908612
중부눈썰매장,경기 광주시,경기도 광주시 곤지암읍 경충대로 451,37.33828164,127.3574289
동동카누 (관광두레 주민사업체),경기 양평군,경기도 양평군 개군면 공세리 389번지,37.46537155,127.5455813
풍차수상레저,경기 남양주시,경기도 남양주시 조안면 북한강로 876,37.59464303,127.339314
양지 파인골프클럽,경기 용인시,경기도 용인시 처인구 양지면 남평로 112,37.2103839,127.2937759
가평 레이크리조트,경기 가평군,경기도 가평군 설악면 유명로 2570,37.72157886,127.4280087
"[경기옛길 영남길 제6길] 은이성지, 마애불길",경기 용인시,경기도 용인시 처인구 양지면 남곡로 92,37.22685251,127.2785946
송골매(패러글라이딩 스쿨),경기 용인시,경기도 용인시 처인구 모현읍 초부로 210,37.31448953,127.2639921
베어스타운리조트 수영장,경기 포천시,경기도 포천시 내촌면 금강로2536번길 27,37.79991851,127.2451998
평화누리길 3코스 한강철책길,경기 김포시,경기도 김포시 하성면 평화공원로 139,37.74325099,126.5940678
송라저수지,경기 화성시,경기도 화성시 매송면 매송북길 179,37.28432384,126.9017394
GRC 국제 무선모형 자동차 트랙,경기 김포시,경기도 김포시 통진읍 김포대로 1966,37.68028672,126.6249418
[시흥 늠내길 제2코스] 갯골길,경기 시흥시,경기도 시흥시 장곡동,37.37985686,126.7831156
분당 그린피아골프,경기 성남시,경기도 성남시 분당구 새마을로 255,37.38968887,127.1556427
J퍼블릭,경기 파주시,경기도 파주시 조리읍 장곡로 100,37.74969715,126.8445921
대성저수지,경기 화성시,경기도 화성시 팔탄면 녹막말길 133-22,37.17410742,126.8706995
[구리 둘레길 2코스] 구릉산과 갈매마을을 잇는 둘레길,경기 구리시,경기도 구리시 교문동,37.5869736,127.1341715
유네스코평화센터,경기 이천시,경기도 이천시 호법면 덕평로470번길 167,37.20135278,127.3910156
한강수상레저,경기 가평군,경기도 가평군 설악면 유명로 2430,37.71484994,127.4409301
[경기옛길 의주길 제1길] 벽제관길,경기 고양시,경기도 고양시 덕양구 삼송로,37.65415351,126.9015366
백학저수지,경기 연천군,경기도 연천군 백학면 저수지길 21,38.032232,126.9250483
[북한산 둘레길] 21 우이령길,경기 양주시,경기도 양주시 장흥면 교현리,37.6976213,126.9849827
NFC(축구 국가대표팀 트레이닝 센터),경기 파주시,경기도 파주시 탄현면 필승로 368,37.77560875,126.6852308
리버랜드,경기 가평군,경기도 가평군 설악면 유명로 2320,37.70822946,127.4489752
광명시민체육관 실내경기장,경기 광명시,경기도 광명시 오리로 703,37.46251993,126.8711626
동방저수지 (방농장),경기 화성시,경기도 화성시 팔탄면 노하길116번길 195,37.15184631,126.8627232
아난티클럽 서울,경기 가평군,경기도 가평군 설악면 유명로 961-34,37.62011977,127.482404
[시흥 늠내길 제3코스] 옛길,경기 시흥시,경기도 시흥시 대야동,37.44304607,126.7885383
신촌낚시터,경기 화성시,경기도 화성시 매송면 매송북길 282,37.28683811,126.9103754
[경기옛길 영남길 제9길] 죽산성지순례길,경기 안성시,경기도 안성시 죽산면 죽산초교길,37.07711817,127.420989
1.2.3 골프클럽,경기 고양시,경기도 고양시 덕양구 통일로 43-168,37.64140522,126.9030492
한국패러글라이딩학교,경기 용인시,경기도 용인시 처인구 모현면 초부로 197,37.31457182,127.2626031
리베라컨트리클럽,경기 화성시,경기도 화성시 중리길 183,37.19029602,127.1128196
덕평수련원,경기 이천시,경기도 이천시 호법면 장자터로 114-127,37.18374287,127.3915125
[경기옛길 의주길 제3길] 쌍미륵길,경기 파주시,경기도 파주시 광탄면,37.77615422,126.8512579
"송전지(이동, 어비리저수지 관광좌대)",경기 용인시,경기도 용인시 처인구 이동읍 경기동로842번길 15,37.12612012,127.2039098
YWCA 버들캠프장,경기 시흥시,경기도 시흥시 하우로 167,37.46865753,126.7820148
[경기옛길 의주길 제2길] 고양관청길,경기 고양시,경기도 고양시 덕양구 벽제관로,37.70382951,126.9014365
금광지,경기 안성시,경기도 안성시 금광면 금광리,36.99212402,127.3280395
베어스타운리조트 골프장,경기 포천시,경기도 포천시 내촌면 금강로2536번길 27,37.79991851,127.2451998
[구리 둘레길 3코스] 왕숙천과 도심생활공원이 조화로운 둘레길,경기 구리시,경기도 구리시 인창동 구리역,37.6033064,127.1432928
안양종합운동장(실내.외수영장),경기 안양시,경기도 안양시 동안구 평촌대로 389,37.40629131,126.9487366
제일컨트리클럽,경기 안산시,경기도 안산시 상록구 태마당로 28,37.32264302,126.86853
양평칠읍산밸리 ATV체험장,경기 양평군,경기도 양평군 용문면 화전로266번길 10-5,37.4669155,127.6047083
수원체육문화센터,경기 수원시,경기도 수원시 영통구 영통로 383,37.2585695,127.0677972
한터캠프,경기 용인시,경기도 용인시 처인구 양지면 대대로 140,37.273458,127.2672517
평화누리길 12코스 통일이음길,경기 연천군,경기도 연천군 군남면,38.08519693,127.0190811
파라다이스수영장,경기 양주시,경기도 양주시 장흥면 권율로 112,37.723753,126.9494552
신갈승마클럽,경기 용인시,경기도 용인시 기흥구 지삼로201번길 9,37.24108058,127.1362951
[경기옛길 영남길 제8길] 죽주산성길,경기 용인시,경기도 용인시 처인구 백암면 삼백로,37.14110532,127.3725142
탄천종합운동장,경기 성남시,경기도 성남시 분당구 탄천로 215,37.41179093,127.120513
성남시근로자종합복지관,경기 성남시,경기도 성남시 중원구 순환로 166,37.43839795,127.179101
[북한산 둘레길] 12 충의길,경기 고양시,경기도 고양시 덕양구 지축동,37.65392736,126.9213224
한성컨트리클럽,경기 용인시,경기도 용인시 기흥구 구교동로 151,37.30704007,127.1231144
[경기옛길 영남길 제10길] 이천옛길,경기 안성시,경기도 안성시 일죽면 산전길,37.06397288,127.4993815
탄천종합운동장 빙상장,경기 성남시,경기도 성남시 분당구 탄천로 215,37.41179093,127.120513
연천승마공원,경기 연천군,경기도 연천군 연천읍 동막로 89,38.08899877,127.0949177
안양시시설관리공단 빙상장,경기 안양시,경기도 안양시 동안구 평촌대로 389,37.40629131,126.9487366
미리내승마클럽,경기 양평군,경기도 양평군 지평면 월산저수지길 21,37.48098811,127.6497617
금촌청소년문화의집,경기 파주시,경기도 파주시 시민회관길 40,37.7585124,126.7800425
에덴스포츠타운,경기 가평군,경기도 가평군 청평면 경춘로 1436,37.77730247,127.4644684
송추컨트리클럽,경기 양주시,경기도 양주시 광적면 쇠장이길 435,37.79320703,126.910459
로얄새들승마클럽,경기 고양시,경기도 고양시 일산동구 견달산로 402,37.7000057,126.8254469
대성수상레저,경기 가평군,경기도 가평군 청평면 대성강변길 14,37.681431,127.3795214
평화누리길 5코스 킨텍스길,경기 고양시,경기도 고양시 일산동구 호수공원,37.6567441,126.7662508
새싹동산 청려수련원,경기 화성시,경기도 화성시 동탄면 풀무골로110번길 69,37.20499204,127.1462321
안양종합운동장,경기 안양시,경기도 안양시 동안구 평촌대로 389,37.40629131,126.9487366
임진강,경기 연천군,경기도 연천군 군남면,38.08519693,127.0190811
새마을운동중앙연수원,경기 성남시,경기도 성남시 분당구 새마을로 257,37.39157101,127.158426
코리아 골프장,경기 용인시,경기도 용인시 처인구 이동면 기흥단지로 579,37.21940716,127.1548467
프라임리조트레저,경기 포천시,경기도 포천시 영북면 산정호수로 921,38.0814936,127.3193983
영안청소년수련원,경기 가평군,경기도 가평군 북면 논남기길403번길 41,37.96390276,127.422935
성남시수정청소년수련관,경기 성남시,경기도 성남시 수정구 희망로509번길 20,37.44930166,127.1501845
[경기옛길 영남길 제7길] 구봉산길,경기 용인시,경기도 용인시 처인구 원삼면 이원로1116번길,37.15626248,127.3077492
레이크힐스 용인컨트리클럽,경기 용인시,경기도 용인시 처인구 남사면 경기동로 628,37.12558636,127.1829054
[북한산 둘레길] 11 효자길,경기 고양시,경기도 고양시 덕양구 효자동,37.66158655,126.9491084
한원컨트리클럽,경기 용인시,경기도 용인시 처인구 남사면 전나무골길2번길 94,37.15710373,127.1305614
화이트,경기 남양주시,경기도 남양주시 화도읍 먹갓로 47-2,37.65860367,127.2740318
퀸승마클럽 (구. 호스랜드 운악승마클럽),경기 화성시,경기도 화성시 봉담읍 매봉로 218,37.2310808,126.9256343
88컨트리클럽,경기 용인시,경기도 용인시 기흥구 석성로521번길 169,37.30673267,127.1604623
레이크밸리 승마클럽,경기 포천시,경기도 포천시 가산면 우금3길 59,37.82065432,127.2177237
[경기옛길 삼남길 제10길] 소사원길(원균장군묘 ~ 안성천교),경기 평택시,경기도 평택시 도일동,37.053394,127.1082188
골드컨트리클럽,경기 용인시,경기도 용인시 기흥구 기흥단지로 398,37.21740406,127.1386143
유스토리 청소년수련원,경기 가평군,경기도 가평군 북면 백둔로 246,37.9025618,127.4797213
모닝스키,경기 이천시,경기도 이천시 마장면 지산로 257-7,37.21642459,127.3483649
버드마리나수상레저,경기 가평군,경기도 가평군 설악면 유명로 2606,37.72266626,127.424812
서원밸리 컨트리클럽,경기 파주시,경기도 파주시 광탄면 서원길 333,37.8157491,126.8952472
티클라우드 컨트리클럽,경기 동두천시,경기도 동두천시 평화로 3202,37.96779657,127.0892438
트레보 휘트니스센터,경기 수원시,경기도 수원시 팔달구 효원로 288,37.26085799,127.0330391
뉴코리아 컨트리클럽,경기 고양시,경기도 고양시 덕양구 신원2로 57,37.66491465,126.8767058
썬힐 골프클럽,경기 가평군,경기도 가평군 조종면 운악청계로 809,37.8797738,127.3510643
아침햇살수련원,경기 포천시,경기도 포천시 관인면 찬우물길 201-47,38.16171273,127.2745447
양평 MTB 280랠리코스,경기 양평군,경기도 양평군 단월면,37.53856143,127.6729902
겨울이야기,경기 포천시,경기도 포천시 내촌면 금강로 2482,37.79514271,127.2362044
지평낚시터,경기 양평군,경기도 양평군 지평면 금의길 69,37.46763071,127.652845
바하마수상레포츠,경기 가평군,경기도 가평군 설악면 유명로 2526,37.71929399,127.4327755
블루원 용인컨트리클럽,경기 용인시,경기도 용인시 처인구 원삼면 보개원삼로1534번길 40,37.13417322,127.3259002
부천시민운동장,경기 부천시,경기도 부천시 부일로 365,37.48863335,126.7706577
블루헤런 골프클럽,경기 여주시,경기도 여주시 대신면 고달사로 67,37.38334613,127.6437861
수원컨트리클럽,경기 용인시,경기도 용인시 기흥구 중부대로 495,37.28133463,127.1203325
캠핑어클락,경기 가평군,경기도 가평군 조종면 연인산로474번길 27,37.84727539,127.3775713
기흥컨트리클럽,경기 화성시,경기도 화성시 동탄면 풀무골로106번길 244,37.19136803,127.1466193
미리내캠프,경기 양평군,경기도 양평군 지평면 월산저수지길 21,37.48098811,127.6497617
태광 컨트리클럽,경기 용인시,경기도 용인시 기흥구 흥덕4로 77,37.27857347,127.0890818
남서울컨트리클럽,경기 성남시,경기도 성남시 분당구 안양판교로1201번길 161,37.3838342,127.0882241
푸른솔 골프클럽 포천,경기 포천시,경기도 포천시 가산면 금우로 276,37.84036972,127.2352432
한양컨트리클럽,경기 고양시,경기도 고양시 덕양구 고양대로1643번길 164,37.65749433,126.863513
양평 MTB 유명산코스,경기 양평군,경기도 양평군 옥천면,37.51806468,127.4560724
안성베네스트 골프클럽,경기 안성시,경기도 안성시 금광면 삼흥로 660,37.02705253,127.3839448
마이다스밸리 골프클럽,경기 가평군,경기도 가평군 설악면 다락재로 73-111,37.66577635,127.4586969
에어타임,경기 남양주시,경기도 남양주시 화도읍 먹갓로 72,37.66042929,127.2732314
이스트밸리,경기 광주시,경기도 광주시 곤지암읍 건업길 195,37.4058006,127.3846605
김포 SEASIDE 컨트리클럽,경기 김포시,경기도 김포시 월곶면 김포대로2801번길 219,37.71009527,126.5341624
스카이밸리 컨트리클럽,경기 여주시,경기도 여주시 북내면 운촌길 254,37.33340503,127.7265926
양평 MTB 비룡산코스,경기 양평군,경기도 양평군 청운면,37.55628069,127.7107228
오늘은 눈,경기 이천시,경기도 이천시 마장면 지산로 140,37.21386501,127.3604354
장비좋은집,경기 광주시,경기도 광주시 도척면 독고개길 307,37.33896202,127.3054467
스카이스키,경기 포천시,경기도 포천시 내촌면 금강로 2520-12,37.7962776,127.240989
곤지암 컨트리클럽,경기 광주시,경기도 광주시 도척면 도척윗로 280,37.33329364,127.2954474
프리스틴밸리 골프클럽,경기 가평군,경기도 가평군 설악면 유명로 1243-199,37.66074712,127.4563951
은화삼컨트리클럽,경기 용인시,경기도 용인시 처인구 백옥대로 860-38,37.21536471,127.2189655
테라스스키,경기 이천시,경기도 이천시 마장면 지산로 242,37.21626915,127.3502634
올림픽컨트리클럽,경기 고양시,경기도 고양시 덕양구 혜음로 301,37.72058744,126.8948804
비전힐스 컨트리클럽,경기 남양주시,경기도 남양주시 화도읍 마치로 226-220,37.64803067,127.2696151
뉴서울컨트리클럽,경기 광주시,경기도 광주시 삼지곡길 95,37.42522536,127.2095318
한국스카우트연맹 중앙훈련원,경기 고양시,경기도 고양시 덕양구 서삼릉길 107-62,37.66677511,126.8564222
화산컨트리클럽,경기 용인시,경기도 용인시 처인구 이동면 화산로 239,37.14797819,127.2322762
한강레포츠,경기 남양주시,경기도 남양주시 화도읍 먹갓로 54,37.65885075,127.2742536
중부컨트리클럽,경기 광주시,경기도 광주시 곤지암읍 경충대로 451,37.33828164,127.3574289
양평 MTB 중미산코스,경기 양평군,경기도 양평군 서종면,37.60657629,127.3487212
양평 MTB 계정금왕산코스,경기 양평군,경기도 양평군 양동면,37.42510596,127.7511776
신라컨트리클럽,경기 여주시,경기도 여주시 북내면 신라그린길 84,37.35810073,127.6918961
크리스탈밸리,경기 가평군,경기도 가평군 상면 대보간선로 602-111,37.79413216,127.3873222
그린힐 컨트리클럽,경기 광주시,경기도 광주시 곤지암읍 내선길 176,37.35952611,127.4247088
덕평힐뷰 컨트리클럽,경기 이천시,경기도 이천시 호법면 장자터로 115,37.18824095,127.4033446
포천힐스 컨트리클럽,경기 포천시,경기도 포천시 군내면 반월산성로375번길 34,37.88641104,127.2307107
지산컨트리클럽,경기 용인시,경기도 용인시 처인구 원삼면 죽양대로2000번길 60,37.20987573,127.3358449
양평 MTB 삼각고래산코스,경기 양평군,경기도 양평군 지평면,37.47447552,127.6393098
캐슬파인 골프클럽,경기 여주시,경기도 여주시 강천면 부평로 580,37.29824124,127.7434175
캐슬렉스서울,경기 하남시,경기도 하남시 감이로 317,37.49701091,127.1691303
스키아이,경기 남양주시,경기도 남양주시 화도읍 먹갓로 55,37.65915884,127.2738427
파인크리크 컨트리클럽,경기 안성시,경기도 안성시 양성면 안성맞춤대로 2417-13,37.10354115,127.2340786
렌타르,경기 양평군,경기도 양평군 단월면 단월로 288,37.55994879,127.6688971
블루버드컨트리클럽,경기 광주시,경기도 광주시 곤지암읍 오향길 180,37.38005902,127.3724614
글렌로스 골프클럽,경기 용인시,경기도 용인시 처인구 포곡읍 에버랜드로562번길 69,37.29446649,127.185739
아도니스 컨트리클럽,경기 포천시,경기도 포천시 신북면 포천로 2499,37.97089543,127.1719966
비에이비스타 컨트리클럽,경기 이천시,경기도 이천시 모가면 어농로 272,37.18081936,127.4168358
여주컨트리클럽,경기 여주시,경기도 여주시 월평로 78,37.27854609,127.602625
신안 컨트리클럽,경기 안성시,경기도 안성시 고삼면 개울말길 149,37.09276992,127.2544138
필로스 골프클럽,경기 포천시,경기도 포천시 일동면 운악청계로 1507,37.9332321,127.3338639
몽베르 컨트리클럽,경기 포천시,경기도 포천시 영북면 산정호수로 359-12,38.07418316,127.3055608
신원 컨트리클럽,경기 용인시,경기도 용인시 처인구 이동면 이원로 225,37.18180913,127.2413772
양지월드스키,경기 용인시,경기도 용인시 처인구 양지면 남평로 36,37.23065101,127.288284
스키24,경기 광주시,경기도 광주시 도척면 도척윗로 226,37.33593916,127.317564
윈체스트 골프클럽,경기 안성시,경기도 안성시 서운면 오촌길 97-31,36.95958794,127.2818606
알프스스키월드,경기 용인시,경기도 용인시 처인구 양지면 남평로 145,37.2278422,127.2978121
이포컨트리클럽,경기 여주시,경기도 여주시 금사면 장흥로 416,37.39247777,127.4974576
바나나스키,경기 광주시,경기도 광주시 도척면 도척윗로 258,37.33450236,127.314297
일동레이크 골프클럽,경기 포천시,경기도 포천시 일동면 화동로 738,37.93172356,127.3120397
용인컨트리클럽,경기 용인시,경기도 용인시 처인구 백암면 황새울로 255,37.11066987,127.3440847
안성컨트리클럽,경기 안성시,경기도 안성시 죽산면 걸미로 487,37.03859451,127.4131648
준스키,경기 광주시,경기도 광주시 도척면 도척윗로 230,37.33569664,127.317113
레이크우드 컨트리클럽,경기 양주시,경기도 양주시 만송로 244,37.78475899,127.0871255
스키타기 좋은날,경기 이천시,경기도 이천시 마장면 지산로 58,37.21882561,127.3665737
남양주컨트리클럽,경기 남양주시,경기도 남양주시 오남읍 진건오남로 516-31,37.67901083,127.2161447
피닉스스키,경기 포천시,경기도 포천시 내촌면 금강로 2490,37.79539013,127.2368717
자유컨트리클럽,경기 여주시,경기도 여주시 가남읍 자유그린길 69,37.20828207,127.5631889
와우스키,경기 이천시,경기도 이천시 마장면 지산로 8,37.2224711,127.3694006
스키세상,경기 포천시,경기도 포천시 내촌면 금강로2536번길 22-5,37.79784094,127.2437064
광릉컨트리클럽,경기 남양주시,경기도 남양주시 진접읍 팔야로 280,37.75890723,127.2445837
레이크사이드 컨트리클럽,경기 용인시,경기도 용인시 처인구 모현면 능원로 181,37.32411666,127.1752683
금강컨트리클럽,경기 여주시,경기도 여주시 가남읍 여주남로 541,37.24299698,127.5931464
한마음청소년수련원,경기 양주시,경기도 양주시 버들로 147-142,37.77167891,127.0054832
양주컨트리클럽,경기 남양주시,경기도 남양주시 화도읍 북한강로 1525-52,37.63620386,127.3480216
강남 300 컨트리클럽,경기 광주시,경기도 광주시 새말길 353,37.3869502,127.1823819
용인엑스파크공원,경기 용인시,경기 용인시 기흥구 보정동 1180,37.32279718,127.1103185
한탄강벼룻길,경기 포천시,경기도 포천시 영북면 운천리,38.08249298,127.2772743
렛츠런파크 서울,경기,경기도 과천시 경마공원대로 107,37.44120036,127.0161266
아라마리나 해양아카데미,경기 김포시,경기도 김포시 고촌읍 아라육로270번길 73,37.59929521,126.7891571
용인 구갈레스피아,경기 용인시,경기도 용인시 기흥구 중부대로 640,37.26682449,127.131244
