name,region,address,lat,lon
호미반도 해안둘레길,경북 포항시,경상북도 포항시 남구 동해면,35.98848071,129.4401758
금오산 올레길,경북 구미시,경상북도 구미시 금오산로 336-44,36.11719077,128.3148565
문경 철로자전거(레일바이크),경북 문경시,경상북도 문경시 불정강변길 187,36.6553867,128.141024
구미시평생교육원,경북 구미시,경상북도 구미시 산호대로 243,36.10555959,128.3839007
문경활공랜드,경북 문경시,경상북도 문경시 문경읍 활공장길 80,36.73629896,128.1538507
경주월드 눈썰매장,경북 경주시,경상북도 경주시 보문로 544,35.83610009,129.279149
트리독스 반려견 전용 캠핑장,경북 고령군,경상북도 고령군 쌍림면 용당길 42-56,35.65048205,128.2300756
청량산 트레킹,경북 봉화군,경상북도 봉화군 명호면 광석길 39,36.78808222,128.8938782
상주국제승마장,경북 상주시,경상북도 상주시 사벌국면 경천로 683-47,36.45928606,128.2305529
화랑교육원,경북 경주시,경상북도 경주시 새남산길 62,35.80660131,129.2412438
늘푸른체험학교 캠핑장,경북 영천시,경상북도 영천시 대창면 영지길 100,35.85821183,128.9197937
양포방파제,경북 포항시,경상북도 포항시 남구 장기면 양포항길,35.88191688,129.5203153
예천 진호국제양궁장,경북 예천군,경상북도 예천군 예천읍 양궁장길 38,36.63462912,128.4683906
소백산 자락길,경북 영주시,경상북도 영주시 선비로 213,36.82317916,128.6169196
후포방파제,경북 울진군,경상북도 울진군 후포면 울진대게로,36.69657317,129.4723752
[영덕 블루로드] B코스 푸른대게의 길,경북 영덕군,경상북도 영덕군 영덕읍,36.40948188,129.3728193
짚라인 문경,경북 문경시,경상북도 문경시 불정길 174,36.62285691,128.1367808
안동 퇴계 오솔길 (녀던길),경북 안동시,경상북도 안동시 도산면 도산서원길 154,36.72789366,128.8403536
포항동해승마장,경북 포항시,경상북도 포항시 남구 동해면 약전로115번길 11,35.9798771,129.4483643
치산관광지 캠핑장,경북 영천시,경상북도 영천시 신녕면 치산관광길 263,36.04914303,128.7128084
덕구계곡 트레킹,경북 울진군,경상북도 울진군 북면 덕구온천로 905,37.07851478,129.2817235
경주 산내 반딧불이캠핑장,경북 경주시,경상북도 경주시 산내면 대현길 250-13,35.71272409,129.0738914
봉평해수욕장 (바다낚시),경북 울진군,경상북도 울진군 죽변면 울진북로 1166,37.0429179,129.413005
문경호스랜드 승마클럽,경북 문경시,경상북도 문경시 마성면 진남2길 32-10,36.6535102,128.1330299
감포방파제,경북 경주시,경상북도 경주시 감포읍 감포항구길,35.8084433,129.5044179
[영덕 블루로드] A코스 빛과 바람의 길,경북 영덕군,경상북도 영덕군 강구면,36.36181514,129.3785933
경천대랜드 눈썰매장,경북 상주시,경상북도 상주시 사벌면 경천로 652-18,36.4554179,128.2437392
[영덕 블루로드] C코스 목은사색의 길,경북 영덕군,경상북도 영덕군 축산면,36.50894572,129.4142579
안동호,경북 안동시,경상북도 안동시 호반로,36.60163537,128.8074344
문경관광사격장,경북 문경시,경상북도 문경시 사격장길 155,36.64298155,128.1299961
봉화군승마교육장,경북 봉화군,경상북도 봉화군 봉화읍 유록길 22-1,36.88212703,128.7254673
안동물길카누투어,경북 안동시,경상북도 안동시 포도1길 30,36.57049654,128.7070389
보현산댐 짚와이어,경북 영천시,경상북도 영천시 화북면 배나무정길 196,36.14392724,128.9645019
김천부항댐 산내들오토캠핑장,경북 김천시,경상북도 김천시 지례면 부항댐길 50,35.9779663,128.0118639
경주보문실탄사격장,경북 경주시,경상북도 경주시 보문로 424-11,35.84397779,129.2863608
구미시승마장,경북 구미시,경상북도 구미시 옥성면 선상동로 1174-7,36.32647816,128.2772804
의성컬링센터,경북 의성군,경상북도 의성군 의성읍 충효로 88,36.35527766,128.7024955
금오랜드 눈썰매장,경북 구미시,경상북도 구미시 금오산로 341,36.11321694,128.3162484
금오랜드 실내아이스링크장,경북 구미시,경상북도 구미시 금오산로 341,36.11321694,128.3162484
주왕계곡코스,경북 청송군,경상북도 청송군 주왕산면 공원길 219,36.39594315,129.1454339
신창리 앞바다,경북 포항시,경상북도 포항시 남구 장기면 동해안로,35.88279632,129.5168802
경상북도 환경연수원,경북 구미시,경상북도 구미시 금오산로 336-97,36.11968163,128.3083704
산내들패밀리어드벤처파크 야영장,경북 김천시,경상북도 김천시 지례면 부항로 109-38,35.97707147,128.0157507
경주보문 청소년수련원,경북 경주시,경상북도 경주시 천북남로 176,35.85343631,129.2949884
포항시청소년수련원(구룡포청소년수련원),경북 포항시,경상북도 포항시 남구 구룡포읍 명월길 51,36.02929442,129.5734945
구룡포방파제,경북 포항시,경상북도 포항시 남구 구룡포읍 구룡포리,35.99957404,129.5511231
경주 자전거 투어 코스,경북 경주시,경상북도 경주시 국당3길 5,35.82834378,129.2074879
경천호,경북 문경시,경상북도 문경시 동로면 인곡리,36.70243378,128.3135378
상의자동차야영장,경북 청송군,경상북도 청송군 주왕산면 공원길 146,36.39083115,129.1417146
코오롱호텔수영장(실외),경북 경주시,경상북도 경주시 불국로 289-17,35.78783631,129.3217692
하곡지(딱실못),경북 경주시,경상북도 경주시 안강읍 호국로,35.99816774,129.1908228
추풍령 말사랑 호스타운,경북 김천시,경상북도 김천시 봉산면 상금길 970-51,36.19182197,128.0475092
의성군 청소년센터,경북 의성군,경상북도 의성군 의성읍 충효로 68,36.35481281,128.7048011
유니밸리CC,경북 고령군,경상북도 고령군 대가야읍 일량로 588,35.68153489,128.2938984
아지청소년야영장,경북 영주시,경상북도 영주시 회헌로 433-1,36.86324275,128.6013989
구미시 낙동강 수상레포츠 체험센터,경북 구미시,경상북도 구미시 수출대로 326-20,36.10996821,128.3992298
오태지,경북 상주시,경상북도 상주시 공검면 오태지동길,36.48872391,128.1329905
대진해수욕장(918번 해안도로),경북 영덕군,경상북도 영덕군 영해면 영덕대게로 2840,36.56449216,129.4267296
보문골프클럽,경북 경주시,경상북도 경주시 보문로 182-14,35.85386898,129.2768541
호텔현대(경주) 실.내외 수영장,경북 경주시,경상북도 경주시 보문로 338,35.85032021,129.2771896
"용연지(신광지, 호리못)",경북 포항시,경상북도 포항시 북구 신광면 신흥로 417,36.1241514,129.2952524
경주시청소년수련관,경북 경주시,경상북도 경주시 알천북로 131,35.85511329,129.2158847
하눌저수지,경북 봉화군,경상북도 봉화군 상운면 하눌로 372,36.8841968,128.7883498
금오랜드수영장(실외),경북 구미시,경상북도 구미시 금오산로 341,36.11321694,128.3162484
영덕군 경정2리 차유돔 바위,경북 영덕군,경상북도 영덕군 축산면 경정리,36.48519106,129.4331873
포항앞바다,경북 포항시,경상북도 포항시 북구 해안로 44-8,36.0511121,129.3800012
[상주 MRF 5코스] 가야길,경북 상주시,경북 상주시 합창읍,36.5701469,128.1794639
블루오션 스킨스쿠버,경북 포항시,경상북도 포항시 북구 흥해읍 영일만항로 76,36.11254242,129.4269352
[상주 MRF 4코스] 숨소리길,경북 상주시,경북 상주시 낙동면,36.37495321,128.248162
코오롱가든골프장,경북 경주시,경상북도 경주시 불국로 289-17,35.78783631,129.3217692
나리분지 숲길,경북 울릉도,경상북도 울릉군 북면 나리,37.51539629,130.8644793
하회래프팅,경북 안동시,경상북도 안동시 풍천면 전서로 159,36.55184676,128.5306795
선산골프장,경북 구미시,경상북도 구미시 산동면 강동로 953-73,36.15842438,128.4454965
축산방파제,경북 영덕군,경상북도 영덕군 축산면 축산항길,36.51178763,129.4485228
울릉아쿠아캠프리조트,경북 울릉도,경상북도 울릉군 울릉읍 울릉순환로 31-3,37.5053321,130.9138404
[상주 MRF 2코스] 초원길,경북 상주시,경북 상주시 사벌면,36.46635081,128.2085797
구미시청소년수련원,경북 구미시,경상북도 구미시 해평면 해평4길 12,36.19757202,128.3702823
[상주 MRF 3코스] 아자개성길,경북 상주시,경북 상주시 사벌면,36.46635081,128.2085797
[상주 MRF 1코스] 낙동강길,경북 상주시,경북 상주시 사벌면,36.46635081,128.2085797
가송래프팅,경북 안동시,경상북도 안동시 도산면 퇴계로 3443,36.77074844,128.889534
[상주 MRF 10코스] 똥고개길,경북 상주시,경상북도 상주시 만산동,36.43444298,128.1499843
울릉둘레길 남양~태하 구간,경북 울릉도,경상북도 울릉군 서면 태하리,37.51017546,130.8149655
동이사람들(안동래프팅),경북 안동시,경상북도 안동시 도산면 퇴계로 3443,36.77074844,128.889534
도산래프팅,경북 안동시,경상북도 안동시 도산면 가송길 133,36.76579054,128.8913141
마우나오션 컨트리클럽,경북 경주시,경상북도 경주시 양남면 동남로 982,35.69092875,129.3754642
낙동강래프팅,경북 봉화군,경상북도 봉화군 명호면 청량로 1136-18,36.85709984,128.9031531
경주신라컨트리클럽,경북 경주시,경상북도 경주시 보문로 319,35.85870743,129.2816339
비나리래프팅,경북 봉화군,경상북도 봉화군 명호면 노루목재길 34,36.85698721,128.898885
[상주 MRF 12코스] 자산산성길,경북 상주시,경상북도 상주시 만산동,36.43444298,128.1499843
강나루래프팅,경북 봉화군,경상북도 봉화군 명호면 명재로 16,36.84442359,128.8899394
문경레저타운,경북 문경시,경상북도 문경시 마성면 문경골프장길 240,36.71546284,128.1618731
추산 자연경관 탐방 둘레길,경북 울릉도,경상북도 울릉군 북면 나리길 598,37.52084184,130.8683342
[상주 MRF 6코스] 이전길,경북 상주시,경북 상주시 공검면,36.51206762,128.1585975
경주컨트리클럽,경북 경주시,경상북도 경주시 보문로 182-98,35.86912554,129.2557886
파미힐스 컨트리클럽,경북 칠곡군,경상북도 칠곡군 왜관읍 봉계로 263,35.99810585,128.446683
세븐밸리 컨트리클럽,경북 칠곡군,경상북도 칠곡군 왜관읍 봉계3길 180,36.01526614,128.4651195
[상주 MRF 11코스] 천년길,경북 상주시,경상북도 상주시 만산동,36.43444298,128.1499843
[상주 MRF 8코스] 장서방길,경북 상주시,경북 상주시 내서면,36.41239538,128.0675962
[상주 MRF 13코스] 너추리길,경북 상주시,경상북도 상주시 만산동,36.43444298,128.1499843
국민청소년수련원,경북 경주시,경상북도 경주시 산내면 문복로 1280-7,35.74242734,129.0625445
[상주 MRF 9코스] 바람소리길,경북 상주시,경북 상주시 내서면,36.41239538,128.0675962
[상주 MRF 7코스] 소곰길,경북 상주시,경북 상주시 공검면,36.51206762,128.1585975
포항전통문화체험관,경북 포항시,경상북도 포항시 북구 기북면 덕동문화길 7,36.16510617,129.1851516
대구컨트리클럽,경북 경산시,경상북도 경산시 진량읍 일연로 718-42,35.86535955,128.8156189
천년숲,경북 안동시,경상북도 안동시 풍천면 도청대로 455,36.57612055,128.5057227
영천 홀스파크,경북 영천시,경상북도 영천시 삼밭골길 107,35.98931315,128.9396444
