name,region,address,lat,lon
가야컨트리클럽,경남 김해시,경상남도 김해시 인제로 502,35.28114514,128.8958383
소매물도 트레킹,경남 통영시,경상남도 통영시 한산면 매죽리,34.73106961,128.5311723
스카이라인 루지,경남 통영시,경상남도 통영시 발개로 178,34.82440861,128.4241568
학동흑진주몽돌해변,경남 거제시,경상남도 거제시 동부면 학동6길 18-1,34.77330415,128.6402426
창원컨트리클럽,경남 창원시,경상남도 창원시 의창구 대봉로 137,35.26035492,128.6641042
한우산,경남 의령군,경남 의령군 궁류면 벽계리,35.41449712,128.2078875
가야산 소리길,경남 합천군,경상남도 합천군 가야면 가야산로 1783,35.79111138,128.0909064
통영 어드벤처타워,경남 통영시,경상남도 통영시 발개로 172-12,34.82474074,128.4223768
비토국민여가캠핑장,경남 사천시,경상남도 사천시 서포면 용궁로 124,34.96552218,127.982729
학동자동차야영장,경남 거제시,경상남도 거제시 동부면 학동리,34.77418343,128.6335822
거제 덕포랜드 씨라인,경남 거제시,경상남도 거제시 덕포5길 35-2,34.91213523,128.7109256
황금빛노을바다낚시터,경남 사천시,경상남도 사천시 대방동 737-12,34.93115909,128.0524957
진주소싸움경기장,경남 진주시,경상남도 진주시 판문오동길 100,35.17598181,128.0406394
에덴밸리스키장 (에덴밸리리조트),경남 양산시,경상남도 양산시 원동면 어실로 1206,35.42905196,128.9844664
주은캠핑장자연휴양림,경남 거창군,경상남도 거창군 북상면 덕유월성로 1642,35.76472772,127.7643319
진주 레일바이크,경남 진주시,경상남도 진주시 내동면 망경로 13,35.16626913,128.0673239
하동 알프스 짚와이어,경남 하동군,경상남도 하동군 금남면 경충로 493-37,34.98341127,127.8933811
통영마리나리조트 요트,경남 통영시,경상남도 통영시 큰발개1길 33,34.82728288,128.438618
남해스포츠파크,경남 남해군,경상남도 남해군 서면 스포츠파크길 15,34.80636119,127.8385748
창녕우포승마장,경남 창녕군,경상남도 창녕군 대지면 우포2로 864,35.55773239,128.4566368
김해카라반르몽드,경남 김해시,경상남도 김해시 가야테마길 161,35.25163508,128.8937494
사량도 바다낚시,경남 통영시,경상남도 통영시 사량면,34.84551361,128.2200718
[남해 바래길 1코스] 다랭이지겟길,경남 남해군,경상남도 남해군 남면 평산리,34.76176496,127.8533403
소노벨 거제 마리나베이 요트투어,경남 거제시,경상남도 거제시 일운면 거제대로 2660,34.84379126,128.7029426
소리길 오토캠핑장,경남 합천군,경상남도 합천군 가야면 매화산로 670,35.77524811,128.1272761
에덴밸리 루지,경남 양산시,경상남도 양산시 원동면 어실로 1206,35.42905196,128.9844664
갈도 남쪽 홈통,경남 통영시,경상남도 통영시 욕지면 갈도길,34.56229868,128.1835908
통도환타지아 썰매장,경남 양산시,경상남도 양산시 하북면 통도7길 68,35.4999924,129.0831299
진해해양레포츠센터,경남 창원시,경상남도 창원시 진해구 천자로 160,35.14129908,128.6883002
남해청소년수련원,경남 남해군,경상남도 남해군 삼동면 동부대로 1542-35,34.82946726,128.0290996
통영산양스포츠파크,경남 통영시,경상남도 통영시 산양읍 산양중앙로 100,34.80031829,128.396332
[남해 바래길 6코스] 말발굽길,경남 남해군,경상남도 남해군 삼동면 죽방로,34.8162518,127.9711251
거창스포츠파크,경남 거창군,경상남도 거창군 거창읍 심소정길 39-36,35.69513581,127.9263505
남해군요트학교,경남 남해군,경상남도 남해군 삼동면 동부대로1030번길 42-26,34.7937446,128.0528142
[지리산 둘레길 코스] 금계~동강,경남 함양군,경상남도 함양군 마천면 금계길 5,35.40379174,127.6849971
장포리 바다낚시,경남 남해군,경상남도 남해군 창선면 진동리,34.84522826,128.050995
다물민족학교 다물평생교육원,경남 산청군,경상남도 산청군 단성면 호암로619번길 50-29,35.31729122,127.8927291
[남해 바래길 7코스] 고사리밭길,경남 남해군,경상남도 남해군 창선면 진동리,34.84522826,128.050995
황석산청소년수련원,경남 함양군,경상남도 함양군 서하면 육십령로 2991,35.62598037,127.7744165
창원경륜장,경남 창원시,경상남도 창원시 의창구 원이대로 470,35.2320562,128.6680114
합천워터월드,경남 합천군,경상남도 합천군 대병면 회양관광단지길 36-1,35.52536612,128.0183865
거제도,경남 거제시,경상남도 거제시 거제면 거제도,34.85104371,128.5904279
남해유스타운,경남 남해군,경상남도 남해군 삼동면 동부대로 1542-12,34.83007741,128.0319476
통영시청소년수련관,경남 통영시,경상남도 통영시 발개로 194,34.82536384,128.4262393
아델스코트 컨트리클럽,경남 합천군,경상남도 합천군 가야면 가조가야로 1916-10,35.69661188,128.0809386
[하동 박경리 토지길 1코스] 섬진강 평사리공원~화개장터,경남 하동군,경상남도 하동군 악양면,35.16232066,127.708932
마산해양레포츠센터,경남 창원시,경상남도 창원시 마산합포구 돝섬1길 187,35.17976054,128.5798689
삼성산청연수소,경남 산청군,경상남도 산청군 시천면 지리산대로1478번길 68,35.2364083,127.8156585
통영요트학교,경남 통영시,경상남도 통영시 도남로 269-28,34.82821295,128.4349089
[하동 박경리 토지길 2코스] 십리벚꽃길~국사암,경남 하동군,경상남도 하동군 화개면,35.18838207,127.6254478
함양승마클럽,경남 함양군,경상남도 함양군 함양읍 삼휴길 134,35.51534954,127.7085287
당항포 요트앤스쿨,경남 고성군,경상남도 고성군 회화면 당항만로 1116,35.05322563,128.3920261
지리산청소년수련원,경남 산청군,경상남도 산청군 단성면 지리산대로2395번길 26-25,35.27186713,127.8970846
통영시공설운동장,경남 통영시,경상남도 산청군 시천면 지리산대로1478번길 68,35.23748791,127.8164632
[지리산 둘레길 코스] 동강~수철,경남 함양군,경상남도 함양군 마천면 금계길 5,35.40379174,127.6849971
산청경호강래프팅,경남 산청군,경상남도 산청군 산청읍 꽃봉산로34번길 77,35.41153931,127.8655754
창원 스포츠파크,경남 창원시,경상남도 창원시 성산구 원이대로 450,35.23400713,128.6647354
라온레포츠,경남 합천군,경상남도 합천군 용주면 합천호수로 828-5,35.54686969,128.0803604
동호방파제,경남 통영시,경상남도 통영시 정량동,34.84794253,128.4357697
경상남도환경교육원,경남 산청군,경상남도 산청군 시천면 지리산대로 1,35.31829615,127.7570957
경호강래프팅,경남 산청군,경상남도 산청군 금서면 친환경로 2619-2,35.4185696,127.8721435
하동군청소년수련원,경남 하동군,경상남도 하동군 금남면 경충로 493-9,34.98260917,127.894714
농가도,경남 통영시,경상남도 통영시 사량면,34.84551361,128.2200718
당항포 요트체험,경남 고성군,경상남도 고성군 회화면 당항만로 1116,35.05322563,128.3920261
모아레벤트,경남 합천군,경상남도 합천군 용주면 합천호수로 828-5,35.54686969,128.0803604
사람과 레저,경남 산청군,경상남도 산청군 산청읍 꽃봉산로34번길 77,35.41153931,127.8655754
창원승마클럽,경남 창원시,경상남도 창원시 의창구 북면 구룡로 524-10,35.29896215,128.608908
케이레포츠,경남 산청군,경상남도 산청군 산청읍 꽃봉산로34번길 131,35.40886773,127.8716632
연대도일대,경남 통영시,경상남도 통영시 산양읍 연대길,34.73762257,128.3974811
사람과바다 래프팅,경남 산청군,경상남도 산청군 산청읍 웅석봉로86번길 9-5,35.40980305,127.8721938
늘푸른전당,경남 창원시,경상남도 창원시 의창구 두대로 97,35.23006618,128.6545431
국도,경남 통영시,경상남도 통영시 욕지면 중촌길,34.63495682,128.2598332
가인리 바다낚시,경남 남해군,경상남도 남해군 창선면 흥선로,34.8789153,128.0466021
경상남도청소년수련원,경남 고성군,경상남도 고성군 하이면 자란만로 646,34.90748353,128.1521501
해운청소년수련원,경남 양산시,경상남도 양산시 하북면 삼수온천길 27,35.46283128,129.0762711
산청래프팅,경남 산청군,경상남도 산청군 산청읍 꽃봉산로34번길 77,35.41153931,127.8655754
통도승마랜드,경남 양산시,경상남도 양산시 하북면 충렬로 1475,35.46536777,129.0784106
비진도 외항방파제,경남 통영시,경상남도 통영시 한산면 비진도길 481,34.7165283,128.4587847
소지도,경남 통영시,경상남도 통영시 한산면 비진도길,34.72449744,128.4587839
율도리 바다낚시,경남 남해군,경상남도 남해군 창선면 서부로,34.89160638,127.9911367
오비도 주변,경남 통영시,경상남도 통영시 산양읍 오비도길,34.82114207,128.3553609
합천호,경남 합천군,경상남도 합천군 대병면 회양관광단지길 79-4,35.52325805,128.0170652
하동 부일수련원,경남 하동군,경상남도 하동군 북천면 곤북로 943-6,35.09397677,127.8877231
충무체육관,경남 통영시,경상남도 통영시 북문2길 34,34.8510953,128.4289366
포시즌스키샵,경남 양산시,경상남도 양산시 원동면 어실로 1535,35.45195309,128.9637908
장척호와 번개늪,경남 창녕군,경상남도 창녕군 영산면 장척호수길,35.43165122,128.4885974
구을비도,경남 통영시,경상남도 통영시 한산면 매죽리,34.73106961,128.5311723
좌사리도,경남 통영시,경상남도 통영시 욕지면 동항리,34.63828118,128.2529169
연화도선착장(바다낚시),경남 통영시,경상남도 통영시 욕지면 본촌길,34.64884628,128.3511144
온누리청소년수련원,경남 창녕군,경상남도 창녕군 고암면 창밀로 786,35.57062482,128.5480881
청산래프팅,경남 산청군,경상남도 산청군 산청읍 꽃봉산로34번길 77,35.41153931,127.8655754
갈도,경남 통영시,경상남도 통영시 욕지면 갈도길,34.56229868,128.1835908
진주컨트리클럽,경남 진주시,경상남도 진주시 진성면 진성로464번길 82,35.17625536,128.2329294
의령군청소년수련관,경남 의령군,경상남도 의령군 부림면 신번로11길 26,35.47026773,128.3218923
동부산컨트리클럽,경남 양산시,경상남도 양산시 매곡외산로 282,35.36370948,129.1832865
에이원컨트리클럽,경남 양산시,경상남도 양산시 덕명로 190,35.37805499,129.1758063
통도컨트리클럽,경남 양산시,경상남도 양산시 하북면 신평남부길 78-130,35.49201756,129.0949803
용원컨트리클럽,경남 창원시,경상남도 창원시 진해구 가주로 133,35.11365202,128.8254886
소혈도,경남 통영시,경상남도 통영시 한산면 두억로,34.78186034,128.4808805
통영요트학교,경남 통영시,경상남도 통영시 도남로 269-28,34.82821295,128.4349089
회남재 숲길,경남 하동군,경상남도 하동군 청암면 삼성궁길 2,35.23870093,127.7054288
