name,region,address,lat,lon
[북악하늘길 스카이웨이] 하늘한마당~하늘마루,서울 성북구,서울특별시 성북구 북악산로,37.5976213,127.0189716
경의선숲길(연트럴파크),서울 마포구,서울특별시 마포구 동교로51길 133,37.5664463,126.9197259
서울 한양도성(스탬프투어),서울 종로구,서울특별시 종로구 창의문로 42,37.5906062,126.9709242
올림픽공원 경기장,서울 송파구,서울특별시 송파구 올림픽로 424,37.5217853,127.1165203
여의도 둘레길(여의도 자전거도로),서울 영등포구,서울특별시 영등포구 여의동로 330,37.5263086,126.9335824
서울종합운동장(잠실종합운동장),서울 송파구,서울특별시 송파구 올림픽로 25,37.5140929,127.0749534
한강시민공원 뚝섬수영장(실외),서울 광진구,서울특별시 광진구 강변북로 139,37.5293797,127.0739795
[북한산 둘레길] 7 옛성길,서울 종로구,서울특별시 종로구 구기동,37.6180692,126.9581885
코오롱스포렉스(서초점),서울 서초구,서울특별시 서초구 서초대로70길 32,37.493189,127.023303
서대문문화체육회관 실내수영장,서울 서대문구,서울특별시 서대문구 백련사길 39,37.5806516,126.9312702
양천구 둘레길(하천형),서울 양천구,서울특별시 양천구 안양천로 711,37.5283271,126.8800082
YMCA 송파 수영장(실내),서울 송파구,서울특별시 송파구 올림픽로 211,37.5125309,127.0944272
강동그린웨이 가족캠핑장,서울 강동구,서울특별시 강동구 천호대로206길 87,37.5358284,127.1540755
신림체육센터,서울 관악구,서울특별시 관악구 난곡로58길 13,37.4801485,126.9161948
롯데월드 아이스링크(실내),서울 송파구,서울특별시 송파구 올림픽로 240,37.5112348,127.0980274
서울마리나 요트&클럽,서울 영등포구,서울특별시 영등포구 여의서로 160,37.5350498,126.9132566
[서울둘레길 1코스] 수락·불암산코스,서울 도봉구,서울특별시 도봉구 도봉로 964-40,37.6890803,127.046509
[서울둘레길 8코스] 북한산코스,서울 은평구,서울특별시 은평구 진관동 533,37.636747,126.9188346
세븐럭카지노(강남코엑스점),서울 강남구,서울특별시 강남구 테헤란로87길 58,37.5101935,127.0585824
[북악하늘길 1산책로] 북악팔각정~말바위쉼터,서울 종로구,서울특별시 종로구 북악산로 267,37.6019354,126.9805359
장충체육관,서울 중구,서울특별시 중구 동호로 241,37.5581465,127.0065932
뚝섬한강공원,서울 광진구,서울특별시 광진구 강변북로 139,37.5293797,127.0739795
서울광장 스케이트장,서울 중구,서울특별시 중구 세종대로 110,37.5663797,126.9777154
고덕사회체육센터(실내수영장),서울 강동구,서울특별시 강동구 구천면로93길 12,37.5508311,127.1690836
태릉국제스케이트장(실내),서울 노원구,서울특별시 노원구 화랑로 727,37.6335672,127.0967967
올림픽공원 스케이트장,서울 송파구,서울특별시 송파구 올림픽로 448,37.5217853,127.1165203
리버시티,서울 강남구,서울특별시 강남구 압구정동 379-1,37.529372,127.02021
한강시민공원 여의도수영장(실외),서울 영등포구,서울특별시 영등포구 여의동로 330,37.5263086,126.9335824
[서울둘레길 2코스] 용마·아차산코스,서울 노원구,서울특별시 노원구 화랑로 지하 510,37.6245739,127.0830557
용산초등학교 실내수영장,서울 용산구,서울특별시 용산구 한강대로57길 33,37.5352899,126.9720729
[서울둘레길 4코스] 대모·우면산코스,서울 강남구,서울특별시 강남구 광평로 지하 270,37.4873027,127.1018755
[북악하늘길 형제봉오름길] 하늘마루~형제봉,서울 성북구,서울특별시 성북구 동소문로24길 14-8,37.5928019,127.01819
한강공원 뚝섬 눈썰매장,서울 광진구,서울특별시 광진구 강변북로 139,37.5293797,127.0739795
[북한산 둘레길] 8 구름정원길,서울 은평구,서울특별시 은평구 불광동,37.6183087,126.9390451
명동사격장,서울 중구,서울특별시 중구 명동8가길 27,37.5618939,126.9864389
송강카누학교 서울분교,서울 광진구,서울특별시 광진구 강변북로 139,37.5293797,127.0739795
[서울둘레길 5코스] 관악산코스,서울 관악구,서울특별시 관악구 과천대로 941,37.4746293,126.9812716
코오롱등산학교 실내빙장,서울 강북구,서울특별시 강북구 삼양로173길 52,37.6623859,127.0096883
한강시민공원 광나루수영장(실외),서울 강동구,서울특별시 강동구 올림픽로89길 39,37.5476907,127.1241692
"목동운동장(목동아이스링크,사격장)",서울 양천구,서울특별시 양천구 안양천로 939,37.5305809,126.8810483
서울월드컵경기장,서울 마포구,서울특별시 마포구 월드컵로 240,37.5677584,126.8981147
태릉골프장,서울 노원구,서울특별시 노원구 화랑로 574,37.6280159,127.10198
[북한산 둘레길] 6 평창마을길,서울 종로구,서울특별시 종로구 평창동,37.6053351,126.9668582
[서울둘레길 7코스] 봉산·앵봉산코스,서울 강서구,서울특별시 강서구 양천로 497,37.5612647,126.8558686
산호수중,서울 동대문구,서울특별시 동대문구 난계로30길 28-7,37.5737603,127.0247083
scg스포츠아카데미,서울 은평구,서울특별시 은평구 통일로 1050,37.6375145,126.9177904
[북악하늘길 2산책로] 하늘교~성북천발원지,서울 성북구,서울특별시 성북구 성북동,37.5909485,127.003439
망원한강공원,서울 마포구,서울특별시 마포구 마포나루길 467,37.5524957,126.8994475
광운대학교 아이스링크,서울 노원구,서울특별시 노원구 광운로 20,37.6194277,127.05982
서울여성플라자,서울 동작구,서울특별시 동작구 여의대방로54길 18,37.5115519,126.9271787
문래청소년수련관 수영장(실내),서울 영등포구,서울특별시 영등포구 문래로 110,37.5188211,126.8940158
태평백화점 스포츠센터,서울 동작구,서울특별시 동작구 동작대로 115,37.4866967,126.9814391
관악산 자락길,서울 관악구,서울특별시 관악구 신림로 23,37.4686593,126.9344062
클라이밍클럽 더탑,서울 송파구,서울특별시 송파구 오금로18길 5,37.5101612,127.1108049
창동문화체육센터,서울 도봉구,서울특별시 도봉구 노해로69길 132,37.6582713,127.0506149
역삼청소년수련관(실내수영장),서울 강남구,서울특별시 강남구 논현로64길 7,37.4939252,127.0408998
파라다이스 카지노 워커힐,서울 광진구,서울특별시 광진구 워커힐로 177,37.5557741,127.1109118
[북한산 둘레길] 9 마실길,서울 은평구,서울특별시 은평구 진관동,37.6413466,126.9421897
세븐럭카지노(강북힐튼점),서울 중구,서울특별시 중구 소월로 50,37.5554538,126.9754336
[북한산 둘레길] 1 소나무숲길,서울 강북구,서울특별시 강북구 삼양로173길 12,37.6630883,127.0115843
그랜드하얏트 서울 아이스링크,서울 용산구,서울특별시 용산구 소월로 322,37.5390222,126.9958631
한강시민공원 잠원수영장(실외),서울 서초구,서울특별시 서초구 잠원로 221-124,37.5206865,127.0122724
DMC(디지털미디어시티) 자전거코스,서울 마포구,서울특별시 마포구 월드컵북로 366,37.5777446,126.8921565
서울특별시립 보라매청소년수련관,서울 동작구,서울특별시 동작구 여의대방로20길 33,37.4932342,126.9197115
KBS스포츠월드,서울 강서구,서울특별시 강서구 공항대로 376,37.5567802,126.8476094
종로구시설관리공단 종로구민회관(실내),서울 종로구,서울특별시 종로구 지봉로5길 7-5,37.5734636,127.0143719
한강시민공원 잠실수영장(실외),서울 송파구,서울특별시 송파구 한가람로 65,37.5175896,127.0867236
고려대학교 아이스링크,서울 성북구,서울특별시 성북구 안암로 145,37.5900117,127.0318586
반트(실내수영장),서울 강남구,서울특별시 강남구 언주로30길 26,37.4873934,127.0527274
서울특별시립수서청소년수련관,서울 강남구,서울특별시 강남구 광평로 144,37.4835336,127.0887371
강남청소년수련관,서울 강남구,서울특별시 강남구 영동대로131길 26,37.5203984,127.0541271
명품 구로 올레길,서울 구로구,서울특별시 구로구 중앙로17길 10,37.5094119,126.8575122
올림픽유스호스텔,서울 송파구,서울특별시 송파구 올림픽로 448,37.5217853,127.1165203
[서울둘레길 3코스] 고덕·일자산코스,서울 광진구,서울특별시 광진구 천호대로 813-2,37.54553,127.1041134
문래청소년수련관,서울 영등포구,서울특별시 영등포구 문래로 110,37.5188211,126.8940158
서울청소년수련관,서울 중구,서울특별시 중구 을지로11길 23,37.5674298,126.990542
북한산 자락길,서울 성북구,서울특별시 성북구 솔샘로25가길 8,37.6196747,127.0052212
금호스포츠센터,서울 노원구,서울특별시 노원구 상계로5길 32,37.6570687,127.0628192
그랜드 워커힐 리버파크(야외수영장),서울 광진구,서울특별시 광진구 워커힐로 177,37.5557741,127.1109118
서초YMCA 수영장(실내),서울 서초구,서울특별시 서초구 사평대로 55,37.5068585,127.0215598
정립회관 수영센터(실내),서울 광진구,서울특별시 광진구 워커힐로 93,37.5513581,127.0973857
스킨/스쿠버 다이빙,서울 송파구,서울특별시 송파구 올림픽로 424,37.5217853,127.1165203
목동청소년수련관,서울 양천구,서울특별시 양천구 목동서로 143,37.5306952,126.8754462
서울 YMCA 체육교육부,서울 종로구,서울특별시 종로구 종로 69,37.5706042,126.9852919
어린이회관 눈썰매장,서울 광진구,서울특별시 광진구 광나루로 441,37.5465004,127.0788059
역사문화관광스탬프투어,서울 강북구,서울특별시 강북구 4.19로 114(출발지점),37.6396099,127.0256575
대신샹제리제 휘트니스클럽(실내수영장),서울 강남구,서울특별시 강남구 테헤란로 406,37.5043857,127.0499612
목동아이스링크(실내),서울 양천구,서울특별시 양천구 안양천로 939,37.5305809,126.8810483
와우라스포짐 광장점,서울 광진구,서울특별시 광진구 아차산로70길 62,37.5406764,127.098826
양천구 둘레길(산림형),서울 양천구,서울특별시 양천구 중앙로17길 21,37.509617,126.8554358
[북한산 둘레길] 2 순례길,서울 강북구,서울특별시 강북구 우이동,37.6479697,127.0118806
[북악하늘길 3산책로] 북카페~숲속다리,서울 성북구,서울특별시 성북구 성북동,37.5909485,127.003439
가디언 클럽바다,서울 강동구,서울특별시 강동구 성내동 449번지,37.523327,127.1317035
관악청소년회관,서울 관악구,서울특별시 관악구 신림로23길 17,37.4701424,126.9352208
올림픽기념국민생활관,서울 종로구,서울특별시 종로구 성균관로 91,37.590434,126.9987747
[북한산 둘레길] 4 솔샘길,서울 성북구,서울특별시 성북구 솔샘로25길 121-50,37.6209249,127.0068708
관악구민운동장,서울 관악구,서울특별시 관악구 낙성대로 40,37.4753202,126.9569753
사당청소년문화의집,서울 동작구,서울특별시 동작구 사당로23길 57-7,37.4862768,126.9739412
난지한강공원 MTB코스장,서울 마포구,서울특별시 마포구 한강난지로 162,37.5661708,126.8763463
구로안양천튜빙눈썰매장,서울 구로구,서울특별시 구로구 구로중앙로42길 41,37.5085559,126.8760103
목동사격장,서울 양천구,서울특별시 양천구 안양천로 939,37.5305809,126.8810483
해밀톤호텔 수영장(실외),서울 용산구,서울특별시 용산구 이태원로 179,37.5347302,126.9941284
[북한산 둘레길] 3 흰구름길,서울 강북구,서울특별시 강북구 수유동,37.6387326,127.0089103
강동청소년회관,서울 강동구,서울특별시 강동구 양재대로138길 41,37.5496994,127.1462174
양천구 둘레길(도심형),서울 양천구,서울특별시 양천구 목동중앙로 143,37.5411913,126.8755307
그랜드워커힐 피트니스센터,서울 광진구,서울특별시 광진구 워커힐로 177,37.5557741,127.1109118
안양천 물놀이장,서울 구로구,서울 양천구 신정동 871-23,37.5060638,126.8726285
[북한산 둘레길] 10 내시묘역길,서울 은평구,서울특별시 은평구 진관동,37.6413466,126.9421897
[북한산 둘레길] 5 명상길,서울 성북구,서울특별시 성북구 정릉4동,37.6133078,127.006965
강서청소년회관,서울 강서구,서울특별시 강서구 공항대로42길 23-19,37.5562039,126.8440543
날개클럽,서울 마포구,서울특별시 서대문구 세검정로4길 24,37.5940951,126.9494563
롯데호텔 실내수영장,서울 중구,서울특별시 중구 을지로 30,37.5649903,126.981369
호텔롯데 휘트니스클럽,서울 중구,서울특별시 중구 을지로 30,37.5649903,126.981369
골든블루마리나,서울 서초구,서울특별시 서초구 올림픽대로 2085-14,37.5113719,126.9946884
