name,region,address,lat,lon
선유도해수욕장 (명사십리 해수욕장),전북 군산시,전라북도 군산시 옥도면,35.6709622,126.4965411
[군산 구불길] 구불1길 비단강길,전북 군산시,전라북도 군산시 금강변 일원,35.9676772,126.7366293
고군산군도,전북 군산시,전라북도 군산시 옥도면,35.6709622,126.4965411
웅포관광지 캠핑장,전북 익산시,전라북도 익산시 웅포면 강변로 25,36.0662158,126.876232
무주덕유산리조트 스키장,전북 무주군,전라북도 무주군 설천면 만선로 185,35.8893667,127.7389493
섬진강향가오토캠핑장,전북 순창군,전라북도 순창군 풍산면 향가로 575,35.3424563,127.1804313
무주덕유산리조트 썰매장,전북 무주군,전라북도 무주군 설천면 만선로 185,35.8893667,127.7389493
전주한옥레일바이크,전북 전주시,전라북도 전주시 덕진구 동부대로 420,35.848752,127.1464411
부안스포츠파크,전북 부안군,전라북도 부안군 행안면 체육공원길 31,35.7005537,126.723777
부남면 금강하천,전북 무주군,전라북도 무주군 부남면 대소길,35.973251,127.5611447
전주승마장,전북 전주시,전라북도 전주시 덕진구 호성로 19,35.8526495,127.15078
태평양수영장(실내),전북 전주시,전라북도 전주시 덕진구 기린대로 358,35.8357881,127.1357714
완주 밀리터리파크,전북 완주군,전라북도 완주군 고산면 고산휴양림로 89,35.9740131,127.2315259
완주 에코 어드벤처,전북 완주군,전라북도 완주군 고산면 고산휴양림로 246,35.9596666,127.2355162
아름다운 순례길,전북 전주시,전북 전주시 완산구,35.812111,127.1199201
[지리산 둘레길 코스] 인월~금계,전북 남원시,전라북도 남원시 인월면 인월2길 95,35.4590788,127.6060085
선유스카이SUN라인,전북 군산시,전라북도 군산시 옥도면 선유북길 129-2,35.8141146,126.4096003
청정테마힐링센터,전북 완주군,전라북도 완주군 구이면 장미로 31,35.6859933,127.0998802
장수승마체험장,전북 장수군,전라북도 장수군 장수읍 승마로 74,35.6562999,127.5110902
격포방파제낚시,전북 부안군,전라북도 부안군 변산면 방파제길,35.6251571,126.4707171
전주월드컵경기장,전북 전주시,전라북도 전주시 덕진구 기린대로 1055,35.8680573,127.0645192
[변산 마실길 1코스] 조개미 패총길,전북 부안군,전라북도 부안군 변산면,35.6634849,126.5284868
무주래프팅,전북 무주군,전라북도 무주군 무주읍 잠두길 5-11,35.9978661,127.607204
[군산 구불길] 구불4길 구슬뫼길,전북 군산시,전라북도 군산시 옥산면 남내리,35.9373896,126.764462
[변산 마실길 3코스] 적벽강 노을길,전북 부안군,전라북도 부안군 변산면,35.6634849,126.5284868
어청도,전북 군산시,전라북도 군산시 옥도면 어청도길,36.1191774,125.9782188
전라북도종합사격장,전북 임실군,전라북도 임실군 청웅면 청운로 168-46,35.5868681,127.1921824
무주레저스쿨,전북 무주군,전라북도 무주군 부남면 굴암로 263,35.9928121,127.5820307
[고창 고인돌 질마재길 1코스] 고인돌길,전북 고창군,전라북도 고창군 고창읍 고인돌공원길,35.4422854,126.6509793
청암산오토캠핑장,전북 군산시,전라북도 군산시 옥산면 대위로 50,35.9364117,126.7569602
코레일과 함께하는 남원 자전거하이킹_1일코스,전북 남원시,전라북도 남원시 교룡로 71,35.4109308,127.3621994
무주스피드레져,전북 무주군,전라북도 무주군 부남면 잠두강변길 215,36.002694,127.5989158
익산시 국민생활관,전북 익산시,전라북도 익산시 선화로 255,35.9453889,126.9586965
전라북도교육문화회관,전북 전주시,전라북도 전주시 덕진구 안덕원로 71,35.8291331,127.1378158
[지리산 둘레길 코스] 운봉~인월,전북 남원시,전라북도 남원시 인월면 인월2길 95,35.4590788,127.6060085
전라북도자연환경연수원,전북 무주군,전라북도 무주군 안성면 칠연로 607,35.8392615,127.6991484
코레일과 함께하는 남원 자전거하이킹_반일코스,전북 남원시,전라북도 남원시 교룡로 71,35.4109308,127.3621994
[지리산 둘레길 코스] 주천~운봉,전북 남원시,전라북도 남원시 주천면 정령치로,35.3864691,127.4773485
적상산 트레킹,전북 무주군,전라북도 무주군 적상면,35.9454691,127.659408
코레일과 함께하는 남원 자전거하이킹_2일코스,전북 남원시,전라북도 남원시 교룡로 71,35.4109308,127.3621994
만경지(능제저수지),전북 김제시,전라북도 김제시 만경읍 장산리,35.8510272,126.8341343
[변산 마실길 2코스] 노루목 상사화길,전북 부안군,전라북도 부안군 변산면,35.6634849,126.5284868
전북학생교육원,전북 남원시,전라북도 남원시 운봉읍 행정공안길 302,35.3962966,127.5387097
[군산 구불길] 구불2길 햇빛길,전북 군산시,전라북도 군산시 나포면 나포리,36.0491186,126.8600901
대율저수지,전북 김제시,전라북도 김제시 금구면 대화리,35.7905138,127.0389206
월명실내수영장 (월명체육관),전북 군산시,전라북도 군산시 번영로 281,35.9639181,126.7476388
위도바다낚시,전북 부안군,전라북도 부안군 위도면 진리안길,35.6065714,126.2949504
녹두장군 전봉준관,전북 순창군,전라북도 순창군 쌍치면 피노길 65-29,35.5242264,127.0127093
[익산 둘레길] 함라산길,전북 익산시,전라북도 익산시 함라면 수동길 8,36.0612814,126.9105952
전주종합경기장,전북 전주시,전라북도 전주시 덕진구 기린대로 451,35.8382206,127.125162
[고창 고인돌 질마재길 2코스] 복분자 풍천장어길,전북 고창군,전라북도 고창군 고창읍 고인돌공원길,35.4422854,126.6509793
렛츠고스키샵,전북 무주군,전라북도 무주군 설천면 만선로 84,35.9059536,127.7551551
상떼힐익산 컨트리클럽,전북 익산시,전라북도 익산시 무왕로38길 111,35.9617381,127.027346
김제시 청소년수련관,전북 김제시,전라북도 김제시 도작로 224-32,35.8151145,126.9008666
[고창 고인돌 질마재길 3코스] 질마재길,전북 고창군,전라북도 고창군 고창읍 고인돌공원길,35.4422854,126.6509793
초이스스키샵,전북 무주군,전라북도 무주군 설천면 만선1로 114,35.9095002,127.7568648
지리산 중앙하이츠콘도 수영장(실외),전북 남원시,전라북도 남원시 장승안길 2-9,35.4200952,127.3735837
스카이스키샵,전북 무주군,전라북도 무주군 설천면 구천동로 1063,35.9077702,127.7598116
[고창 고인돌 질마재길 4코스] 보은길,전북 고창군,전라북도 고창군 고창읍 고인돌공원길,35.4422854,126.6509793
금강래프팅,전북 무주군,전라북도 무주군 부남면 부남로 854,35.9711621,127.5599128
반딧불레저,전북 무주군,전라북도 무주군 부남면 무금로 693,35.999802,127.5979194
무주스키텔 스키샵,전북 무주군,전라북도 무주군 설천면 만선로 36-19,35.9094807,127.7548218
[군산 구불길] 구불3길 큰들길,전북 군산시,전라북도 군산시 성산면 깐치멀1길 27-1,35.977922,126.8227874
익산시여성회관,전북 익산시,전라북도 익산시 인북로32길 32,35.9471151,126.9598687
전라북도 학생해양수련원,전북 부안군,전라북도 부안군 변산면 변산로 3318,35.5919811,126.4896929
실크로드스키샵,전북 무주군,전라북도 무주군 설천면 만선로 57,35.9079231,127.7556243
스노우파크,전북 무주군,전라북도 무주군 설천면 만선1로 60,35.9047006,127.7554913
무풍저수지(민물낚시터),전북 무주군,전라북도 무주군 무풍면 대덕산로 352,35.942565,127.8483837
군산컨트리클럽,전북 군산시,전라북도 군산시 옥서면 남군산로 1685,35.8963408,126.6587262
강산에스키샵,전북 무주군,전라북도 무주군 설천면 구천동로 1077,35.9089428,127.7593515
알파인스키보드 대여점,전북 무주군,전라북도 무주군 설천면 만선로 6,35.9109393,127.7589256
오봉저수지,전북 임실군,전라북도 임실군 성수면 산성로 522,35.6146962,127.36434
비응도일대,전북 군산시,전라북도 군산시 비응로,35.9397731,126.5298749
팡팡레저,전북 무주군,전라북도 무주군 설천면 만선로 12,35.9109477,127.7582176
k2스키클럽,전북 무주군,전라북도 무주군 설천면 만선로 63,35.9074978,127.7557032
무주스키,전북 무주군,전라북도 무주군 설천면 만선로 70,35.9069023,127.7553948
노블스키샵,전북 무주군,전라북도 무주군 설천면 구천동로 1083-11,35.9094881,127.7589233
그랜드스키타운,전북 무주군,전라북도 무주군 설천면 만선로 74-1,35.9065459,127.7552142
스키119,전북 무주군,전라북도 무주군 설천면 만선1로 62,35.9048496,127.7556703
수청저수지,전북 정읍시,전라북도 정읍시 칠보면 칠보산로,35.5732404,126.9500947
챔피언스키,전북 무주군,전라북도 무주군 설천면 만선1로 64,35.904967,127.7557531
스키라이프,전북 무주군,전라북도 무주군 설천면 만선로 36-2,35.9100262,127.7558173
칠산 앞바다,전북 고창군,전라북도 고창군 해리면 구동호2길 9,35.5162785,126.4855878
태인컨트리클럽,전북 정읍시,전라북도 정읍시 태인면 정읍북로 1739-90,35.6819803,126.9675575
고창컨트리클럽,전북 고창군,전라북도 고창군 심원면 애향갯벌로 70,35.5159494,126.5023235
무주스키스쿨,전북 무주군,전라북도 무주군 설천면 만선로 49,35.9085697,127.7558018
네이버스키샵,전북 무주군,전라북도 무주군 설천면 내배방길 9,35.911379,127.7570707
스노우밸리콘도스키샵,전북 무주군,전라북도 무주군 설천면 만선로 36-37,35.9091126,127.7546512
광산스키,전북 무주군,전라북도 무주군 설천면 만선로 52,35.9084891,127.7552049
스키일번지,전북 무주군,전라북도 무주군 설천면 만선로 62,35.9076904,127.7551331
국가대표,전북 무주군,전라북도 무주군 설천면 구천동로 1101,35.9111059,127.7593007
스키광장,전북 무주군,전라북도 무주군 설천면 만선로 60,35.9078914,127.7551148
설천계곡 하천(낚시터),전북 무주군,전라북도 무주군 설천면 무설로,36.0111601,127.7752841
리틀프린스 스키샵,전북 무주군,전라북도 무주군 설천면 만선로 34-1,35.9104263,127.7557452
ok스키샵,전북 무주군,전라북도 무주군 설천면 내배방길 6,35.9115116,127.7580264
알프스펜션스키샵,전북 무주군,전라북도 무주군 설천면 만선로 38,35.9097242,127.7557617
백암스키샵,전북 무주군,전라북도 무주군 설천면 만선로 32,35.9103673,127.7560101
알토스키샵,전북 무주군,전라북도 무주군 설천면 만선로 72,35.9067688,127.7553387
스마트스키,전북 무주군,전라북도 무주군 설천면 만선로 46,35.9091096,127.7553969
대위제,전북 군산시,전라북도 군산시 회현면 대위로,35.915765,126.7579075
사동저수지(민물낚시터),전북 무주군,전라북도 무주군 무풍면 실미길 59-10,35.9433385,127.8456124
무주컨트리클럽,전북 무주군,전라북도 무주군 설천면 만선로 185,35.8893667,127.7389493
덕동자동차야영장,전북 남원시,전라북도 남원시 산내면 지리산로 593,35.3851324,127.5881926
