name,region,address,lat,lon
우도,제주 제주시,제주특별자치도 제주시 우도면 우도로 153,33.5063307,126.953232
사려니숲길,제주 서귀포시,제주특별자치도 서귀포시 표선면 가시리 붉은오름 입구,33.403297,126.682666
[제주올레 12코스] 무릉-용수 올레,제주 서귀포시,제주특별자치도 서귀포시 대정읍 노을해안로 342-5,33.2522329,126.1956862
[제주올레 18-1코스] 추자도 올레,제주 제주시,제주특별자치도 제주시 추자면 추자로 26,33.963599,126.2961362
타보카 투명카약,제주 제주시,제주특별자치도 제주시 애월읍 애월로 11,33.4600513,126.3113009
무릉 자전거 도로(환상자전거길 3구간),제주 제주시,제주특별자치도 제주시 구좌읍 구좌해안로 237,33.5571102,126.7365197
[제주올레 6코스] 쇠소깍-서귀포 올레,제주 서귀포시,제주특별자치도 서귀포시 하효동 995-4,33.2522716,126.6233818
한라산 트레킹,제주 제주시,제주특별자치도 제주시 1100로 2070-61,33.3922314,126.4945663
제주빅볼랜드,제주 제주시,제주특별자치도 제주시 애월읍 산록서로 15,33.3898219,126.3757735
[제주올레 3코스] 온평-표선 올레,제주 서귀포시,제주특별자치도 서귀포시 성산읍 온평리 1001-6,33.4054472,126.9040958
제주도 스쿠터 여행사 한라하이킹,제주 제주시,제주특별자치도 제주시 용두암길 50-1,33.5131312,126.5140754
더마파크,제주 제주시,제주특별자치도 제주시 한림읍 월림7길 155,33.3555222,126.2420266
세리월드,제주 서귀포시,제주특별자치도 서귀포시 법환상로2번길 97-17,33.2468934,126.5119875
[제주올레 21코스] 하도-종달올레,제주 제주시,제주특별자치도 제주시 구좌읍 해녀박물관길 26,33.5230497,126.8628483
신풍리 밭담길,제주 서귀포시,제주특별자치도 서귀포시 성산읍 신풍하동로 39,33.3618401,126.8405958
제주하이킹(제주도자전거여행),제주 제주시,제주특별자치도 제주시 용해로 6,33.516702,126.5020811
천아숲길(한라산둘레길),제주 제주시,제주특별자치도 제주시 애월읍 산록서로 678-207,33.3989223,126.4051573
윈드1947 카트테마파크,제주 서귀포시,제주특별자치도 서귀포시 토평공단로 78-27,33.2894549,126.5876107
[제주올레 18코스] 제주원도심-조천 올레,제주 제주시,제주특별자치도 제주시 일도1동 1146-8,33.5131494,126.5273822
산방산‧용머리해안 지질트레일,제주 서귀포시,제주특별자치도 서귀포시 안덕면,33.2496801,126.3371482
제주돔레저,제주 서귀포시,제주특별자치도 서귀포시 대정읍 보성구억로 119,33.2621627,126.2754861
라마다프라자제주호텔 스포츠센터(실내.외 수영장),제주 제주시,제주특별자치도 제주시 탑동로 66,33.5185924,126.5175016
김녕요트투어,제주 제주시,제주특별자치도 제주시 구좌읍 구좌해안로 229-16,33.558256,126.7372137
제주승마공원,제주 제주시,제주특별자치도 제주시 애월읍 녹고메길 152-1,33.4053866,126.4054711
[제주올레 1-1코스] 우도올레,제주 제주시,제주특별자치도 제주시 우도면 연평리 1737-1,33.4929922,126.9518677
[제주올레 1코스] 시흥-광치기 올레,제주 서귀포시,제주특별자치도 서귀포시 성산읍 시흥상동로 113,33.47963,126.8955819
비자림청소년수련원,제주 제주시,제주특별자치도 제주시 구좌읍 비자숲길 55,33.4913168,126.8113883
9.81 파크,제주 제주시,제주특별자치도 제주시 애월읍 천덕로 880-24,33.3911825,126.3665285
말 테마파크 골프장 (렛츠런파크 제주),제주 제주시,제주특별자치도 제주시 애월읍 평화로 2144,33.4074945,126.3950743
중문골프클럽,제주 서귀포시,제주특별자치도 서귀포시 중문관광로72번길 60,33.2520261,126.40774
다이브랜드,제주 서귀포시,제주특별자치도 서귀포시 보목포로 29,33.240825,126.6060099
제주레포츠랜드㈜,제주 제주시,제주특별자치도 제주시 조천읍 와흘상서2길 47,33.4823902,126.6386812
에버리스골프리조트,제주 제주시,제주특별자치도 제주시 애월읍 평화로 1693-75,33.3780778,126.3621058
요트투어 샹그릴라,제주 서귀포시,제주특별자치도 서귀포시 중문관광로 154-17,33.2444327,126.4161942
서귀포시청소년수련관,제주 서귀포시,제주특별자치도 서귀포시 중산간서로 97-1,33.2608092,126.4981555
[제주올레 10코스] 화순-모슬포 올레,제주 서귀포시,제주특별자치도 서귀포시 안덕면 화순리 776-8,33.2395922,126.3357689
[제주올레 10-1코스] 가파도 올레,제주 서귀포시,제주특별자치도 서귀포시 대정읍 가파로 243,33.1742353,126.2710076
메종글래드호텔수영장(실외),제주 제주시,제주특별자치도 제주시 노연로 80,33.4847577,126.4887056
대유랜드,제주 서귀포시,제주특별자치도 서귀포시 상예로 381,33.2787568,126.394896
추자군도,제주 제주시,제주특별자치도 제주시 추자면 추자로,33.9530197,126.3158619
제주칼호텔 카지노 (주)골든비치,제주 제주시,제주특별자치도 제주시 중앙로 151,33.5058769,126.5262064
[제주올레 17코스] 광령-제주원도심 올레,제주 제주시,제주특별자치도 제주시 애월읍 광령리 1271-5,33.4604957,126.4376583
제주 오리엔탈호텔 카지노,제주 제주시,제주특별자치도 제주시 탑동로 47,33.5172617,126.5199138
[제주올레 7코스] 서귀포-월평 올레,제주 서귀포시,제주특별자치도 서귀포시 서홍동 780-4,33.2639577,126.5507293
오라컨트리클럽,제주 제주시,제주특별자치도 제주시 오라남로 130-16,33.4480893,126.5137713
제주 조랑말타운,제주 서귀포시,제주특별자치도 서귀포시 표선면 번영로 2486,33.4092101,126.7706544
[제주올레 4코스] 표선-남원 올레,제주 서귀포시,제주특별자치도 서귀포시 표선면 민속해안로 594,33.3126457,126.8232437
차귀도 바다낚시,제주 제주시,제주특별자치도 제주시 한경면 노을해안로,33.3019154,126.1657993
알프스승마장 포니,제주 서귀포시,제주특별자치도 서귀포시 표선면 서성일로 73,33.3991759,126.8021768
이어도 승마장,제주 서귀포시,제주특별자치도 서귀포시 성산읍 서성일로 688,33.4268965,126.8647243
[제주올레 2코스] 광치기-온평 올레,제주 서귀포시,제주특별자치도 서귀포시 성산읍 고성리 224-33,33.4526753,126.9241174
파라다이스 카지노 제주 그랜드,제주 제주시,제주특별자치도 제주시 노연로 80,33.4847577,126.4887056
홀스랜드(어승생승마장),제주 제주시,제주특별자치도 제주시 1100로 2659,33.4257046,126.490448
[제주올레 5코스] 남원-쇠소깍 올레,제주 서귀포시,제주특별자치도 서귀포시 남원읍 남태해안로 137-1,33.2781372,126.7198291
제주신라호텔 실내.외 수영장,제주 서귀포시,제주특별자치도 서귀포시 중문관광로72번길 75,33.2475582,126.4081161
[제주올레 15코스] 한림-고내 올레,제주 제주시,제주특별자치도 제주시 한림읍 한림해안로 196,33.4190733,126.2626436
[제주올레 19코스] 조천-김녕 올레,제주 제주시,제주특별자치도 제주시 조천읍 조천리 1209-1,33.5397118,126.6412058
제주해양레저,제주 서귀포시,제주특별자치도 서귀포시 중문관광로 192,33.2475278,126.4185955
[제주올레 7-1코스] 제주월드컵경기장-서귀포 올레,제주 서귀포시,제주특별자치도 서귀포시 월드컵로 33,33.2472388,126.5092079
[제주올레 8코스] 월평-대평 올레,제주 서귀포시,제주특별자치도 서귀포시 월평동 741-3,33.4510724,126.5758973
제주탑승마클럽 (구.봉개승마타운),제주 제주시,제주특별자치도 제주시 명림로 274,33.4637669,126.6144241
[제주올레 11코스] 모슬포-무릉 올레,제주 서귀포시,제주특별자치도 서귀포시 대정읍 하모리 2140,33.2186656,126.2528951
캐슬렉스제주 골프클럽,제주 서귀포시,제주특별자치도 서귀포시 안덕면 평화로 1241,33.3195978,126.342428
블랙스톤 골프클럽,제주 제주시,제주특별자치도 제주시 한림읍 한창로 925-122,33.3386593,126.3124298
제주항방파제,제주 제주시,제주특별자치도 제주시 서부두길 22,33.5183177,126.5285583
라온골프클럽,제주 제주시,제주특별자치도 제주시 한경면 용금로 998,33.3448687,126.2782452
라온더마파크,제주 제주시,제주특별자치도 제주시 한림읍 월림7길 155,33.3555222,126.2420266
탐라승마장,제주 제주시,제주특별자치도 제주시 조천읍 비자림로 1044,33.4330365,126.7168442
[제주올레 9코스] 대평-화순 올레,제주 서귀포시,제주특별자치도 서귀포시 안덕면 감산리 982-3,33.2370799,126.3614565
[제주올레 13코스] 용수-저지 올레,제주 제주시,제주특별자치도 제주시 한경면 용수리 4241-7,33.3234271,126.1671039
[제주올레 14-1코스] 저지-무릉 올레,제주 제주시,제주특별자치도 제주시 한경면 저지리 1851-5,33.3325613,126.2563791
차귀도글라스요트,제주 제주시,제주특별자치도 제주시 한경면 한경해안로 156,33.3239386,126.1660859
사이프러스 골프앤리조트,제주 서귀포시,제주특별자치도 서귀포시 표선면 번영로 2300,33.3726822,126.7971235
성읍승마장,제주 서귀포시,제주특별자치도 서귀포시 표선면 번영로 2650,33.3990017,126.7868715
제주제트(중문),제주 서귀포시,제주특별자치도 서귀포시 대포로 172-5,33.2384404,126.4395581
하얏트리젠시제주 수영장,제주 서귀포시,제주특별자치도 서귀포시 중문관광로72번길 114,33.2455761,126.4055533
송당승마장,제주 제주시,제주특별자치도 제주시 구좌읍 번영로 2015,33.4358907,126.7377234
한라산컨트리클럽,제주 제주시,제주특별자치도 제주시 선돌목동길 56-46,33.4446301,126.5445663
[제주올레 20코스] 김녕-하도 올레,제주 제주시,제주특별자치도 제주시 구좌읍 김녕리 4069,33.5576246,126.7452607
제주청소년수련원,제주 제주시,제주특별자치도 제주시 한림읍 금능남로 128,33.3781039,126.236942
보물섬하이킹,제주 제주시,제주특별자치도 제주시 용문로14길 14,33.5058529,126.5102555
[제주올레 14코스] 저지-한림 올레,제주 제주시,제주특별자치도 제주시 한경면 저지리 1851-5,33.3325613,126.2563791
레이크힐스 제주컨트리클럽,제주 서귀포시,제주특별자치도 서귀포시 산록남로 1391,33.3017887,126.5095926
제주월드컵경기장,제주 서귀포시,제주특별자치도 서귀포시 월드컵로 33,33.2472388,126.5092079
서진승마장,제주 제주시,제주특별자치도 제주시 조천읍 비자림로 1118,33.4339185,126.7242038
멍에승마장,제주 서귀포시,제주특별자치도 서귀포시 성산읍 서성일로 397,33.4268965,126.8647243
세인트 포 골프클럽,제주 제주시,제주특별자치도 제주시 구좌읍 선유로 445-55,33.5196008,126.7425076
크라운컨트리클럽,제주 제주시,제주특별자치도 제주시 조천읍 북선로 125,33.5300132,126.6947389
오케이 승마장,제주 서귀포시,제주특별자치도 서귀포시 표선면 번영로 2595,33.4027327,126.783112
[제주올레 16코스] 고내-광령 올레,제주 제주시,제주특별자치도 제주시 애월읍 고내리 1111-2,33.4668464,126.338134
바지선 선상낚시(토평동유어장),제주 서귀포시,제주특별자치도 서귀포시 칠십리로 56,33.2403183,126.5619085
엘리시안 골프 제주,제주 제주시,제주특별자치도 제주시 애월읍 평화로 1738-116,33.3728781,126.3824986
서광승마장,제주 서귀포시,제주특별자치도 서귀포시 안덕면 녹차분재로 239,33.2923161,126.2996588
제주컨트리클럽,제주 제주시,제주특별자치도 제주시 516로 2695,33.4303677,126.583471
갬주리코지(볼락코지),제주 서귀포시,제주특별자치도 서귀포시 대정읍 가파로,33.1710594,126.2731193
핀크스 골프클럽,제주 서귀포시,제주특별자치도 서귀포시 안덕면 산록남로 863,33.3053535,126.3937346
해비치 컨트리클럽 제주,제주 서귀포시,제주특별자치도 서귀포시 남원읍 원님로399번길 319,33.3601625,126.72564
머체왓숲길,제주 서귀포시,제주특별자치도 서귀포시 남원읍 서성로 755,33.3245683,126.6627718
