name,region,address,lat,lon
만천하스카이워크,충북 단양군,충청북도 단양군 적성면 옷바위길 10,36.9770829,128.3369439
하늘재 트레킹,충북 충주시,충청북도 충주시 수안보면 미륵리,36.8205886,128.0940826
청풍랜드,충북 제천시,충청북도 제천시 청풍면 청풍호로50길 6,37.0122312,128.179197
산막이옛길,충북 괴산군,충청북도 괴산군 칠성면 산막이옛길 88,36.7609955,127.8387433
충주호 종댕이길,충북 충주시,충청북도 충주시 종민동,36.9904678,127.9877821
옥천 향수 100리 자전거길(금강코스),충북 옥천군,충청북도 옥천군 옥천읍,36.3073447,127.5748173
두산패러글라이딩,충북 단양군,충청북도 단양군 가곡면 두산길 254-6,36.9963008,128.3967846
충주호,충북 충주시,충청북도 충주시 동량면 조동리,37.0348412,127.984953
충주반딧불오토캠핑장,충북 충주시,충청북도 충주시 엄정면 가춘리길 19,37.1254402,127.9256586
덕동골캠핑장,충북 제천시,충청북도 제천시 백운면 덕동로2길 23-26,37.2172235,127.9568779
속리산둘레길 보은길,충북 보은군,충청북도 보은군 장안면 개안길 20,36.4665509,127.7976087
양방산활공장,충북 단양군,충청북도 단양군 단양읍 양방산길 350,36.9682771,128.3817898
청주종합사격장,충북 청주시,충청북도 청주시 청원구 내수읍 도원세교로 369,36.6976745,127.5590271
충주조정체험아카데미,충북 충주시,충청북도 충주시 중앙탑면 중앙탑길 150,37.0220582,127.8611492
솔향공원 스카이바이크,충북 보은군,충청북도 보은군 속리산면 속리산로 600,36.4991742,127.8020815
짚라인 충주,충북 충주시,충청북도 충주시 노은면 우성1길 191,37.0274709,127.7544342
단양클레이사격장,충북 단양군,충청북도 단양군 단양읍 노동장현로 207-17,36.9626976,128.3921631
단양드림레저 패러글라이딩,충북 단양군,충청북도 단양군 단양읍 수변로 59-1,36.9808447,128.370401
비내길,충북 충주시,충청북도 충주시 앙성면 새바지길 17,37.091572,127.8009252
송호국민관광지 야영장,충북 영동군,충청북도 영동군 양산면 송호로 105,36.1273455,127.6755192
떼제베 컨트리클럽,충북 청주시,충청북도 청주시 흥덕구 옥산면 동림2길 149,36.665459,127.3190149
박달재수련원,충북 제천시,충청북도 제천시 봉양읍 박달로 256-46,37.1430545,128.0604749
속리산유스타운,충북 보은군,충청북도 보은군 속리산면 법주사로 134,36.5212004,127.8179903
단양 패러일번지,충북 단양군,충청북도 단양군 가곡면 두산길 196-91,36.9938568,128.3949081
충청북도자연학습원,충북 괴산군,충청북도 괴산군 청천면 화양로 1314-12,36.6674381,127.844173
대청호,충북 옥천군,충청북도 청주시 상당구 문의면 대청호반로 206,36.4790378,127.4850578
월류봉 둘레길,충북 영동군,충청북도 영동군 황간면 원촌리,36.2406353,127.8896966
청풍호 카약카누체험장 (관광두레 주민사업체),충북 제천시,충청북도 제천시 수산면 옥순봉로 342,36.955213,128.2153962
닷돈재야영장,충북 제천시,충청북도 제천시 한수면 미륵송계로 1118,36.8459743,128.0926049
그랜드컨트리클럽,충북 청주시,충청북도 청주시 청원구 오창읍 꽃화산길 51-20,36.7221201,127.3783637
제천수상레저,충북 제천시,충청북도 제천시 금성면 청풍호로 1482,37.0338405,128.1752451
도담삼봉 모터보트,충북 단양군,충청북도 단양군 매포읍 삼봉로 644-13,37.0007407,128.3417706
탄금호 국제조정경기장,충북 충주시,충청북도 충주시 중앙탑면 중앙탑길 150,37.0220582,127.8611492
낭추골 현장학습원 사계절썰매장,충북 청주시,충청북도 청주시 상당구 낭성면 단재로 1890,36.598121,127.6180379
영동군 산악자전거코스,충북 영동군,충청북도 영동군 영동읍 동정로 1,36.1748913,127.7834363
수안보 인공암벽장,충북 충주시,충청북도 충주시 수안보면 수안보로 129,36.8421731,127.9986826
옥천 향수 200리 자전거길(대청호코스),충북 옥천군,충청북도 옥천군 옥천읍,36.3073447,127.5748173
화양동계곡 트레킹,충북 괴산군,충청북도 괴산군 청천면 화양동길,36.6704519,127.8095493
"대물낚시터 (모점지, 앙암저수지)",충북 충주시,충청북도 충주시 앙성면 모점1길 128,37.1534211,127.736824
단양레포츠,충북 단양군,충청북도 단양군 영춘면 북벽길 51-10,37.0838566,128.4936908
천동관광지 물놀이장,충북 단양군,충청북도 단양군 단양읍 다리안로 534,36.9731031,128.4173187
초평저수지,충북 진천군,충청북도 진천군 초평면 초평로,36.8271581,127.5164427
에머슨 골프클럽,충북 진천군,충청북도 진천군 백곡면 배티로 818-105,36.9388756,127.3375212
진양밸리 골프클럽,충북 음성군,충청북도 음성군 삼성면 금일로 1195,37.0311568,127.4683282
단양패러마을,충북 단양군,충청북도 단양군 가곡면 두산길 196-52,36.9938568,128.3949081
썬밸리컨트리클럽,충북 음성군,충청북도 음성군 삼성면 범말길 49,37.0396909,127.465763
용곡지,충북 청주시,충청북도 청주시 상당구 미원면 미원초정로 685-35,36.6396755,127.6564384
명암낚시터,충북 제천시,충청북도 제천시 봉양읍 명암로 243,37.1694047,128.1265577
제천청소년수련원,충북 제천시,충청북도 제천시 봉양읍 제원로 623,37.1737691,128.1082017
충북학생종합수련원,충북 진천군,충청북도 진천군 문백면 농다리로 536-41,36.7935058,127.4861618
청풍호 활공장,충북 제천시,충청북도 제천시 청풍면 청풍명월로 869-17,37.0043945,128.1328006
맹동저수지,충북 음성군,충청북도 음성군 맹동면 군자길 1492,36.8939606,127.5711534
초롱길,충북 진천군,충청북도 진천군 문백면 구곡리,36.8345396,127.4904527
남한강 래프팅(단양),충북 단양군,충청북도 단양군 영춘면 강변로 704,37.0871501,128.4865369
천지연레저,충북 단양군,충청북도 단양군 영춘면 북벽1길 10,37.0866016,128.489738
백곡저수지낚시터,충북 진천군,충청북도 진천군 진천읍 백곡로,36.8728084,127.4105833
BFL 플레이파크,충북 충주시,충청북도 충주시 중앙탑면 중앙탑길 150,37.0220582,127.8611492
청소년수련마을보람원,충북 괴산군,충청북도 괴산군 청천면 대야로 487,36.6977243,127.8829065
천등산승마클럽,충북 충주시,충청북도 충주시 산척면 아랫강영길 9-4,37.0989339,127.9675144
남한강(목계교권),충북 충주시,충청북도 충주시 엄정면 구룡로,37.0774839,127.8983402
꽃동네,충북 음성군,충청북도 음성군 맹동면 꽃동네길 47-93,36.9488823,127.5813012
실크리버 컨트리클럽,충북 청주시,충청북도 청주시 서원구 남이면 문곡구절골길 235,36.5459996,127.3920412
노은지(대덕지),충북 충주시,충청북도 충주시 노은면 대덕길 122,37.0584231,127.7121401
제천시 청소년수련원,충북 제천시,충청북도 제천시 송학면 의림대로 730,37.1899484,128.2053194
사랑의자전거 옥천사랑복지센터,충북 옥천군,충청북도 옥천군 옥천읍 옥천로 1624,36.2982103,127.5656818
나인밸리 청소년수련원,충북 보은군,충청북도 보은군 마로면 임곡길 66-80,36.4311723,127.8603108
이븐데일 컨트리클럽,충북 청주시,충청북도 청주시 상당구 미원면 대신2길 31,36.6840968,127.6048494
추평지,충북 충주시,충청북도 충주시 엄정면 가춘리길,37.1374097,127.9438449
천룡컨트리클럽,충북 진천군,충청북도 진천군 이월면 진안로 347-123,36.9466254,127.3896256
조터골(남한강 샛강),충북 충주시,충청북도 충주시 앙성면 남한강변길,37.1233236,127.7966493
백야낚시터,충북 음성군,충청북도 음성군 금왕읍 백야로 320,36.9676776,127.6032866
세조길,충북 보은군,충청북도 보은군 속리산면 법주사로 405,36.5420409,127.833111
