name,region,address,Latitude,Longitude
백수해안도로,전남 영광군,전라남도 영광군 백수읍 대신리,35.3390142,126.3980528
담양 메타세쿼이아길,전남 담양군,전라남도 담양군 담양읍 메타세쿼이아로 19,35.3238118,127.0041195
"순천만습지 (구, 순천만자연생태공원)",전남 순천시,전라남도 순천시 순천만길 513-25,34.885971,127.5090298
오동도,전남 여수시,전라남도 여수시 오동도로 222,34.7443435,127.7641302
여수 해상케이블카,전남 여수시,전라남도 여수시 돌산읍 돌산로 3600-1,34.73056,127.741572
향일암(여수),전남 여수시,전라남도 여수시 돌산읍 향일암로 60,34.593206,127.803032
가우도,전남 강진군,전라남도 강진군 도암면 월곶로 473,34.5285575,126.7723232
죽녹원,전남 담양군,전라남도 담양군 담양읍 죽녹원로 119,35.3258488,126.9863188
광양 매화마을,전남 광양시,전라남도 광양시 다압면 섬진강매화로 1563-1,35.0803988,127.7153417
대한다원,전남 보성군,전라남도 보성군 보성읍 녹차로 763-67,34.7156568,127.0788675
순천 낙안읍성,전남 순천시,전라남도 순천시 낙안면 충민길 30,34.9062615,127.3418512
섬진강기차마을,전남 곡성군,전라남도 곡성군 오곡면 기차마을로 232,35.2780945,127.3074651
미황사,전남 해남군,전라남도 해남군 송지면 미황사길 164,34.3827629,126.5776828
사성암(구례),전남 구례군,전라남도 구례군 문척면 사성암길 303,35.1798591,127.4807873
돌산공원,전남 여수시,전라남도 여수시 돌산읍 돌산로 3600-1,34.73056,127.741572
순천만 국가정원,전남 순천시,전라남도 순천시 국가정원1호길 47,34.9289309,127.4988865
천사섬 분재공원,전남 신안군,전라남도 신안군 압해읍 수락길 330,34.8436019,126.2521601
반월도·박지도,전남 신안군,전라남도 신안군 안좌면,34.7560627,126.1246383
목포 서산동 보리마당&시화마을,전남 목포시,전라남도 목포시 해안로127번길 14-2,34.7817268,126.3773656
외달도,전남 목포시,전라남도 목포시 외달도길 72,34.7814053,126.2966428
엑스포해양공원,전남 여수시,전라남도 여수시 박람회길 1,34.7502973,127.7472057
담양 소쇄원,전남 담양군,전라남도 담양군 가사문학면 소쇄원길 17,35.1842148,127.0122122
구례 산수유마을,전남 구례군,전라남도 구례군 산동면 위안월계길 6-12,35.3362651,127.4850768
고흥우주발사전망대,전남 고흥군,전라남도 고흥군 영남면 해맞이로 840,34.59818,127.4866751
정남진 편백숲 우드랜드,전남 장흥군,전라남도 장흥군 장흥읍 우드랜드길 180,34.66765,126.9341757
함평해수찜,전남 함평군,전라남도 함평군 손불면 석산로 69,35.1005591,126.4647688
선암사[유네스코 세계문화유산],전남 순천시,전라남도 순천시 승주읍 선암사길 450,34.9967199,127.3305972
청산도,전남 완도군,전라남도 완도군 청산면 도청3길 30-1,34.1797839,126.8587632
목포 갓바위,전남 목포시,전라남도 목포시 남농로 149,34.7938433,126.4226369
곡성 메타세쿼이아길,전남 곡성군,전라남도 곡성군 곡성읍 읍내리,35.2836783,127.2974548
증도(신안),전남 신안군,전라남도 신안군 증도면 문준경길 188,35.0028526,126.1398352
춤추는 바다분수,전남 목포시,전라남도 목포시 미항로 115,34.7967765,126.4322293
강진 백련사 동백나무 숲,전남 강진군,전라남도 강진군 도암면 백련사길 145,34.5880354,126.7476576
진도 신비의 바닷길,전남 진도군,전라남도 진도군 고군면 신비의바닷길 148,34.4272106,126.3509199
증도 우전해수욕장,전남 신안군,전라남도 신안군 증도면 지도증도로 1684,34.9714482,126.1378685
홍도,전남 신안군,전라남도 신안군 흑산면 홍도1길 9-8,34.6820318,125.1920145
순천 오픈세트장,전남 순천시,전라남도 순천시 비례골길 24,34.9570037,127.5375471
백양사,전남 장성군,전라남도 장성군 북하면 백양로 1239,35.4392036,126.8832322
보길도,전남 완도군,전라남도 완도군 보길면,34.1690772,126.5676334
목포 관광특구,전남 목포시,전남 목포시,34.8118351,126.3921664
힐링파크 쑥섬쑥섬 (애도),전남 고흥군,전라남도 고흥군 봉래면 애도길 41,34.4639044,127.4489874
도리포,전남 무안군,전라남도 무안군 해제면,35.1104334,126.2945565
목포 해상케이블카,전남 목포시,전라남도 목포시 해양대학로 240,34.7954321,126.3681082
지리산온천랜드,전남 구례군,전라남도 구례군 산동면 지리산온천로 261,35.3184937,127.4577881
성불계곡,전남 광양시,전라남도 광양시 봉강면 성불로 1150-14,35.08037,127.5666475
두륜산케이블카,전남 해남군,전라남도 해남군 삼산면 대흥사길 88-45,34.496726,126.6253727
삼학도,전남 목포시,전라남도 목포시 삼학로92번길,34.783963,126.3928515
기점·소악도,전남 신안군,전라남도 신안군 증도면,35.002795,126.1397376
연홍도,전남 고흥군,전라남도 고흥군 금산면 신전리,34.4535442,127.1127317
광양 옥룡사 동백나무 숲,전남 광양시,전라남도 광양시 옥룡면 운암길 83,35.0466242,127.6079069
자은도,전남 신안군,전라남도 신안군 자은면 구영1길 8,34.8843367,126.0474085
가우도 출렁다리,전남 강진군,전라남도 강진군 도암면 신기리,34.527168,126.7535976
완도 정도리 구계등,전남 완도군,전라남도 완도군 완도읍 구계등길 47-1,34.2983518,126.7092079
대나무골 테마공원,전남 담양군,전라남도 담양군 금성면 비내동길 148,35.3363105,127.0480254
땅끝관광지,전남 해남군,전라남도 해남군 송지면 땅끝마을길 42,34.2997332,126.52741
거문도,전남 여수시,전라남도 여수시 삼산면 거문길 103,34.0279164,127.308999
보해매실농원,전남 해남군,전라남도 해남군 산이면 예덕길 125-89,34.6243948,126.463392
유달산,전남 목포시,전남 목포시 죽교동 산27-3,34.7941602,126.3711562
세방낙조 전망대,전남 진도군,전라남도 진도군 지산면 가학리,34.4275819,126.1053471
여수 진남관,전남 여수시,전라남도 여수시 동문로 11,34.7413383,127.7366025
플라타너스 별빛 달빛 길,전남 담양군,전라남도 담양군 담양읍 죽녹원로 130,35.3203789,126.9861812
돌산도,전남 여수시,전라남도 여수시 돌산읍,34.6171756,127.7216946
금오도,전남 여수시,전라남도 여수시 남면,34.5094653,127.766585
제암산자연휴양림,전남 보성군,전라남도 보성군 웅치면 대산길 330,34.6994712,126.9874331
남열해돋이해수욕장,전남 고흥군,전라남도 고흥군 고흥읍 고흥군청로 1,34.611201,127.2850462
지리산치즈랜드,전남 구례군,전라남도 구례군 산동면 산업로 1590-62,35.3034427,127.4283128
천은사(구례),전남 구례군,전라남도 구례군 광의면 노고단로 209,35.2737355,127.4762418
장성 축령산 편백숲 (장성 치유의 숲),전남 장성군,전라남도 장성군 서삼면 추암로 716,35.3688434,126.7315215
일제강점기 건축물들,전남 목포시,전라남도 목포시 영산로29번길 6,34.7875251,126.3821609
임자도,전남 신안군,전라남도 신안군 임자면 대광해수욕장길 179,35.1026817,126.0724741
송광사(순천),전남 순천시,전라남도 순천시 송광면 송광사안길 100,35.0032944,127.2753863
담양 명옥헌 원림,전남 담양군,전라남도 담양군 고서면 후산길 103,35.2195491,126.9963076
선학동 마을,전남 장흥군,전라남도 장흥군 회진면 가학회진로 1212,34.4622343,126.9404894
대흥사[유네스코 세계문화유산],전남 해남군,전라남도 해남군 삼산면 대흥사길 400,34.4763245,126.6168261
관매도,전남 진도군,전라남도 진도군 조도면,34.2965705,126.0475147
국립 방장산자연휴양림,전남 장성군,전라남도 장성군 북이면 방장로 353,35.4440054,126.7514256
다산초당(다산 정약용 유적지),전남 강진군,전라남도 강진군 도암면 다산초당길 68-35,34.5806738,126.7451609
외달도 해수욕장,전남 목포시,전라남도 목포시 외달도길 47-17,34.7806128,126.2940525
땅끝모노레일,전남 해남군,전라남도 해남군 송지면 땅끝마을길 42,34.2997332,126.52741
여수 선소유적,전남 여수시,전라남도 여수시 시전동,34.7604397,127.6738118
나로우주센터 우주과학관,전남 고흥군,전라남도 고흥군 봉래면 하반로 490,34.4536915,127.5180502
지리산국립공원(지리산 노고단),전남 구례군,전라남도 구례군 산동면 노고단로,35.3053244,127.5194678
백운산자연휴양림,전남 광양시,전라남도 광양시 옥룡면 백계로 337,35.05205,127.5985511
광양 형제의병장마을,전남 광양시,전라남도 광양시 봉강면 신촌길 21-6,35.0586454,127.5624286
보성 벌교 홍교,전남 보성군,전라남도 보성군 벌교읍 벌교리,34.8454492,127.3396877
전남 담양 창평 [슬로시티],전남 담양군,전라남도 담양군 창평면 돌담길 56-24,35.2350638,127.017967
순천만 용산전망대 (S자 물길),전남 순천시,전라남도 순천시 순천만길 513-25,34.885971,127.5090298
낭만포차,전남 여수시,전라남도 여수시 하멜로 102,34.7396764,127.7447962
천사대교,전남 신안군,전라남도 신안군 암태면 신석리,34.8611142,126.1241857
하늘빛수목원,전남 장흥군,전라남도 장흥군 용산면 장흥대로 2746,34.6352948,126.9037605
화엄사,전남 구례군,전라남도 구례군 마산면 화엄사로 539,35.256556,127.4976237
나주 금성관,전남 나주시,전라남도 나주시 금성관길 8,35.0328694,126.7166816
영취산(여수),전남 여수시,전라남도 여수시 상암동,34.8285736,127.7371445
관방제림,전남 담양군,전남 담양군 담양읍 객사리1,35.3239092,126.9859052
진도 운림산방,전남 진도군,전라남도 진도군 의신면 운림산방로 315,34.4664904,126.3081234
곡성섬진강천문대,전남 구례군,전라남도 구례군 구례읍 섬진강로 1234,35.2266359,127.3691761
무안황토갯벌랜드(구 무안생태갯벌센터),전남 무안군,전라남도 무안군 해제면 만송로 36,35.0989084,126.3348337
스카이큐브,전남 순천시,전라남도 순천시 강변로 435,34.9475607,127.4943805
강진 백운동별서정원,전남 강진군,전라남도 강진군 성전면 월하안운길 100-63,34.7419353,126.6997872
낭도,전남 여수시,전라남도 여수시 화정면,34.6209539,127.6394242
보성 강골마을,전남 보성군,전라남도 보성군 득량면 역전길 15-9,34.7627107,127.1691349
도림사 계곡,전남 곡성군,전라남도 곡성군 곡성읍 월봉리,35.2726984,127.2488747
비금도,전남 신안군,전라남도 신안군 비금면 죽림리,34.736717,125.9223713
낙안온천,전남 순천시,전라남도 순천시 낙안면 조정래길 933,34.9194319,127.3380667
고흥 유자공원,전남 고흥군,전라남도 고흥군 풍양면 대청길 33-11,34.5724069,127.235372
진도타워,전남 진도군,전라남도 진도군 군내면 만금길 112-41,34.5659583,126.3024816
피아골계곡,전남 구례군,전라남도 구례군 토지면 피아골로,35.2206018,127.5980189
사도,전남 여수시,전라남도 여수시 화정면 사도길 8-1,34.5927009,127.5556022
완도수목원,전남 완도군,전라남도 완도군 군외면 초평1길 156,34.3606378,126.6644261
짱뚱어다리,전남 신안군,전라남도 신안군 증도면 대초리,34.9822525,126.1570462
장도,전남 보성군,전라남도 보성군 벌교읍 장도리,34.7972038,127.4640499
고소동 천사벽화마을,전남 여수시,전라남도 여수시 종화동,34.7388856,127.7496095
암태도,전남 신안군,전라남도 신안군 암태면 장단고길 7-63,34.8267592,126.1123451
디오션리조트 워터파크,전남 여수시,전라남도 여수시 소호로 295,34.7318405,127.6438729
율포해수욕장(솔밭해변),전남 보성군,전라남도 보성군 회천면 우암길 24,34.6701079,127.0891309
담양 창평 삼지내마을[슬로시티],전남 담양군,전라남도 담양군 창평면 돌담길 9-22,35.2380672,127.0190768
안마도,전남 영광군,전라남도 영광군 낙월면 안마도,35.3446841,126.023959
다도해 해상국립공원(완도),전남 완도군,전남 완도군 완도읍,34.3167159,126.7455808
웅치관광농원,전남 보성군,전라남도 보성군 웅치면 서동길 227,34.7214878,127.0042085
성륜사(곡성),전남 곡성군,전라남도 곡성군 옥과면 미술관로 287,35.2970498,127.1207106
홍쌍리 청매실농원,전남 광양시,전라남도 광양시 다압면 지막1길 55,35.0755479,127.7166651
담양 금성산성,전남 담양군,전라남도 담양군 용면 도림리,35.3873595,127.014335
이순신공원(여수),전남 여수시,전라남도 여수시 웅천동,34.7471249,127.6840325
군학마을,전남 보성군,전라남도 보성군 회천면 군학길,34.6509861,127.0576865
완도타워,전남 완도군,전라남도 완도군 완도읍 장보고대로 330,34.3118294,126.7645011
생일도,전남 완도군,전라남도 완도군 생일면,34.3330926,126.9976272
백제불교최초도래지,전남 영광군,전라남도 영광군 법성면 백제문화로 203,35.3618569,126.4310922
청산도 느림보마을(느린섬 여행학교),전남 완도군,전라남도 완도군 청산면 청산로 541,34.1808842,126.8954405
내장산 국립공원(백암),전남 장성군,전라남도 장성군 북하면 백양로 1116,35.4261446,126.8793028
고산 윤선도 유적지,전남 해남군,전라남도 해남군 해남읍 녹우당길 135,34.5512302,126.6226127
월출산국립공원,전남 영암군,전라남도 영암군 영암읍 천황사로 280-43,34.7750486,126.7218085
전남 강진다원,전남 강진군,전라남도 강진군 성전면 백운로 93-25,34.7408101,126.7061942
지리산 10경,전남 구례군,전남 구례군 산동면,35.3158318,127.439444
순천전통야생차체험관,전남 순천시,전라남도 순천시 승주읍 선암사길 450,34.9967199,127.3305972
한국차박물관,전남 보성군,전라남도 보성군 보성읍 녹차로 775,34.7198297,127.0819753
고흥 해창만 간척지 공원,전남 고흥군,전라남도 고흥군 포두면 팔영로 405,34.5658255,127.3944791
유치자연휴양림,전남 장흥군,전라남도 장흥군 유치면 휴양림길 154,34.7692599,126.8330445
두륜산도립공원,전남 해남군,전라남도 해남군 삼산면 대흥사길 400,34.4763245,126.6168261
순천 향매실마을,전남 순천시,전라남도 순천시 월등면 계월길 138,35.0620845,127.4045195
소록도,전남 고흥군,전라남도 고흥군 도양읍 소록리,34.5130554,127.1269187
백련사(강진),전남 강진군,전라남도 강진군 도암면 백련사길 145,34.5880354,126.7476576
신지명사십리해수욕장,전남 완도군,전라남도 완도군 신지면 명사십리길 85-105,34.3272954,126.8089998
보길도 세연정,전남 완도군,전라남도 완도군 보길면 부황길 57,34.1624477,126.5559923
한국차문화공원,전남 보성군,전라남도 보성군 보성읍 녹차로 775,34.7198297,127.0819753
율포해수녹차센터,전남 보성군,전라남도 보성군 회천면 우암길 21,34.6704268,127.0887324
팔영산자연휴양림,전남 고흥군,전라남도 고흥군 영남면 팔영로 1347-418,34.6215956,127.4402471
순천 용오름마을 [농촌전통테마마을],전남 순천시,전라남도 순천시 주암면 운룡2길 17,35.0921171,127.202188
여수예술랜드,전남 여수시,전라남도 여수시 돌산읍 무술목길 142-1,34.6943489,127.7772002
도리산전망대,전남 진도군,전라남도 진도군 조도면 여미리,34.3292495,126.0093108
장수풍뎅이마을,전남 장흥군,전라남도 장흥군 유치면 반월리,34.8139205,126.814486
국립 낙안민속자연휴양림,전남 순천시,전라남도 순천시 낙안면 민속마을길 1600,34.9133407,127.3534562
불갑사(영광),전남 영광군,전라남도 영광군 불갑면 불갑사로 450,35.2014413,126.548957
우이도,전남 신안군,전라남도 신안군 도초면 우이진리길 47-9,34.6179653,125.8532079
함평 고막천 석교,전남 함평군,전라남도 함평군 학교면 고막천로,35.0300168,126.5878116
심청한옥마을,전남 곡성군,전라남도 곡성군 오곡면 심청로 178,35.231059,127.3572416
나주 목사내아,전남 나주시,전라남도 나주시 금성관길 13-10,35.0324031,126.7152883
노적봉,전남 목포시,전라남도 목포시 대의동,34.7874329,126.3824836
구봉산 전망대,전남 광양시,전라남도 광양시 구봉산전망대길 155,34.9365767,127.6426219
완도 청산도,전남 완도군,전라남도 완도군 청산면 도청길 일대,34.1808532,126.8595855
오동도 등대,전남 여수시,전라남도 여수시 오동도로 238-32,34.7443638,127.7676075
여수 낭도리 공룡발자국화석 산지,전남 여수시,전라남도 여수시 화정면 여산길,34.6023768,127.5435271
태평염전,전남 신안군,전라남도 신안군 증도면 지도증도로 1053-11,34.9967442,126.1772999
금당도,전남 완도군,전라남도 완도군 금당면 금당로 50-1,34.4299155,127.0713034
거금도,전남 고흥군,전라남도 고흥군 금산면 일원,34.4588747,127.12501
세량지,전남 화순군,전라남도 화순군 화순읍 세량리 97,35.0786696,126.9199475
녹동항,전남 고흥군,전라남도 고흥군 도양읍 목넘가는길 19,34.5273777,127.1329138
필암서원 [유네스코 세계문화유산],전남 장성군,전라남도 장성군 황룡면 필암서원로 184,35.3106967,126.7517337
구례 운조루 고택,전남 구례군,전라남도 구례군 토지면 운조루길 59,35.2061305,127.5154805
오시아노 관광단지,전남 해남군,전라남도 해남군 화원면 시아로 552,34.6681524,126.2596757
담양 음식테마거리,전남 담양군,전라남도 담양군 담양읍 객사3길,35.3237006,126.9828429
갓바위 문화타운,전남 목포시,전라남도 목포시 남농로 135,34.7936555,126.4210867
유달산 조각공원,전남 목포시,전라남도 목포시 유달로 221,34.7944777,126.3738652
달마산,전남 해남군,전라남도 해남군 송지면 미황사길 164,34.3827629,126.5776828
주암호와 상사호,전남 순천시,전라남도 순천시 송광면,34.9741016,127.2639392
안도해변,전남 여수시,전라남도 여수시 남면 안도해수욕장길 105,34.4904646,127.8125517
무위사,전남 강진군,전라남도 강진군 성전면 무위사로 308,34.7384596,126.6868637
가거도(소흑산도),전남 신안군,전라남도 신안군 흑산면 가거도길 38-2,34.0524042,125.1268773
나주 황포돛배,전남 나주시,전라남도 나주시 등대길 80,34.999717,126.7095796
여수 율촌역,전남 여수시,전라남도 여수시 율촌면 당머리길 18,34.8835097,127.5799325
모암마을 [산촌체험마을],전남 장성군,전라남도 장성군 서삼면,35.3341468,126.7672129
목포역(철도체험학습장),전남 목포시,전라남도 목포시 영산로 98,34.7925552,126.3881726
만성리 검은모래해변,전남 여수시,전라남도 여수시 만성리길 15-1,34.7758476,127.7446357
가마골생태공원,전남 담양군,전라남도 담양군 용면 용소길 261,35.4450376,127.0227788
담양리조트 온천,전남 담양군,전라남도 담양군 금성면 금성산성길 202,35.3656407,127.0244717
"슬로시티, 신안군 증도",전남 신안군,전라남도 신안군 증도면 문준경길 188,35.0028526,126.1398352
해남 동해김치마을,전남 해남군,전라남도 해남군 북평면 동해길 97,34.4365266,126.6359382
거문도 등대,전남 여수시,전라남도 여수시 삼산면 거문도등대길 299,34.0075655,127.3222156
갈두마을(땅끝마을),전남 해남군,전라남도 해남군 송지면 땅끝마을길 82,34.2997572,126.5285849
태안사,전남 곡성군,전라남도 곡성군 죽곡면 태안로 622-215,35.1322481,127.384809
월출산 기찬랜드,전남 영암군,전라남도 영암군 영암읍 기찬랜드로 19-3,34.7922651,126.6859479
화순 고인돌군 유적 [유네스코 세계문화유산],전남 화순군,전라남도 화순군 도곡면 고인돌1로,34.9907973,126.9115705
보길도 뾰쪽산과 보옥리 공룡알해변,전남 완도군,전남 완도군 보길면 보옥리,34.1543815,126.5406825
장성호관광지,전남 장성군,전라남도 장성군 북하면 쌍웅리,35.4167096,126.8467007
소등섬,전남 장흥군,전라남도 장흥군 용산면 상발리 산225,34.6046577,127.0043885
여수 백도,전남 여수시,전남 여수시 삼산면 거문리,34.027104,127.31632
신안 가거도 등대,전남 신안군,전라남도 신안군 흑산면 대풍리길 2-21,34.0870171,125.1218
국립장성숲체원,전남 장성군,전라남도 장성군 북이면 방장로 353,35.4440054,126.7514256
태평염생식물원,전남 신안군,전남 신안군 증도면 증동리,35.0063567,126.150116
빛가람 전망대,전남 나주시,전라남도 나주시 호수로 77,35.0170633,126.7905867
봇재다원,전남 보성군,전라남도 보성군 회천면 녹차로 745-4,34.7128907,127.0857593
농업기술센터 자연생태학습장,전남 구례군,전라남도 구례군 구례읍 동산1길 32,35.1967797,127.4603848
영산포 홍어거리,전남 나주시,전라남도 나주시 영산포로 205-7,34.9994538,126.7100055
순천만 화포포구,전남 순천시,전라남도 순천시 별량면 학산리,34.8607041,127.483775
광양 옥룡사지,전남 광양시,전라남도 광양시 옥룡면 백계1길 71,35.0471187,127.6058559
안좌도,전남 신안군,전라남도 신안군 안좌면 중부로 872,34.756094,126.124899
고하도이충무공유적,전남 목포시,전라남도 목포시 고하도길 175,34.7662295,126.3725014
신리어촌체험마을,전남 장흥군,전라남도 장흥군 대덕읍 신리옹암로 294,34.4440617,126.8808445
송재 서재필선생 생가와 기념공원,전남 보성군,전라남도 보성군 문덕면 용암길 8,34.9582434,127.1955197
구 보성여관,전남 보성군,전라남도 보성군 벌교읍 태백산맥길 19,34.8438848,127.3433312
가마골계곡,전남 담양군,전라남도 담양군 용면 용소길 261,35.4450376,127.0227788
향원당,전남 담양군,전라남도 담양군 남면 가사문학로 1939,35.1309937,127.0815102
섬진강 도깨비마을,전남 곡성군,전라남도 곡성군 고달면 호곡도깨비길 119-97,35.2537765,127.3623998
오거리문화센터(구 동본원사 목포별원),전남 목포시,전라남도 목포시 영산로75번길 5,34.7896731,126.3843358
흥국사(여수),전남 여수시,전라남도 여수시 흥국사길 160,34.8210752,127.7003341
운주사,전남 화순군,전라남도 화순군 도암면 천태로 91-44,34.925825,126.8800984
모도,전남 진도군,전라남도 진도군 의신면 모도길 12-3,34.4073919,126.3555951
마복산 목재문화체험장,전남 고흥군,전라남도 고흥군 포두면 우주로 1306,34.5502172,127.376241
거문도 신선바위,전남 여수시,전라남도 여수시 삼산면 거문리,34.027104,127.31632
정남진 전망대,전남 장흥군,전라남도 장흥군 관산읍 정남진해안로 242-58,34.5118195,126.974722
해남 목포구 등대,전남 해남군,전라남도 해남군 화원면 매봉길 582,34.7617113,126.2983013
이충무공자당기거지,전남 여수시,전라남도 여수시 신월로 195,34.7334762,127.7078715
하화도,전남 여수시,전라남도 여수시 화정면 아래꽃섬1길,34.5949211,127.620697
이순신대교,전남 여수시,전라남도 여수시 묘도7길 110,34.8886144,127.7010376
장흥 회령진성,전남 장흥군,전라남도 장흥군 회진면 회진리,34.4800806,126.9316921
불회사(나주),전남 나주시,전라남도 나주시 다도면 다도로 1224-142,34.9084081,126.8229434
보성강,전남 곡성군,전라남도 곡성군 목사동면,35.1207433,127.2999574
대마도,전남 진도군,전라남도 진도군 조도면 대마도길,34.2669073,125.9936356
송이도,전남 영광군,전라남도 영광군 낙월면 송이리,35.2828165,126.1460729
구례 관광특구,전남 구례군,전라남도 구례군 마산면 화엄사로 539,35.256556,127.4976237
주작산자연휴양림,전남 강진군,전라남도 강진군 신전면 주작산길 398,34.5210038,126.6866623
강진영랑생가,전남 강진군,전라남도 강진군 강진읍 영랑생가길 15,34.6420738,126.7653823
완도 청해진 유적,전남 완도군,전라남도 완도군 완도읍 청해진로 1380-138,34.3537084,126.7173033
여수 유월드 루지 테마파크,전남 여수시,전라남도 여수시 소라면 안심산길 155,34.7477947,127.6412509
영암 왕인박사마을,전남 영암군,전라남도 영암군 군서면 구림로 43-14,34.7608205,126.6276405
홍도 등대,전남 신안군,전라남도 신안군 흑산면 홍도2길 5,34.7111641,125.2038343
대원사(보성),전남 보성군,전라남도 보성군 문덕면 죽산길 506-8,34.9614871,127.1334532
나주 배마을,전남 나주시,전라남도 나주시 금천면 촌곡신가길 26-7,35.036347,126.7673783
진도대교,전남 진도군,전라남도 진도군 고군면 녹진리,34.5634896,126.282317
규봉암(화순),전남 화순군,전라남도 화순군 이서면 도원길 40-28,35.1182835,127.0160135
연도(소리도),전남 여수시,전라남도 여수시 남면 연도길,34.434291,127.79933
무안회산백련지,전남 무안군,전라남도 무안군 일로읍 백련로 333,34.8692148,126.5150619
흑산도,전남 신안군,전라남도 신안군 흑산면 진마을길 11,34.6829905,125.4272727
돌머리어촌체험마을,전남 함평군,전라남도 함평군 함평읍 주포로 600-29,35.0863281,126.4402822
함평 양재리의 이팝나무,전남 함평군,전라남도 함평군 손불면 양재리,35.167362,126.4077728
소안도,전남 완도군,전라남도 완도군 소안면,34.174664,126.6509363
거북선대교,전남 여수시,전라남도 여수시 하멜로,34.7396764,127.7447962
쌍봉사(화순),전남 화순군,전라남도 화순군 이양면 쌍산의로 459,34.8874904,127.0605946
보성 비봉리 공룡알화석 산지,전남 보성군,전남 보성군 득량면 비봉리,34.7169709,127.1893472
송이도마을,전남 영광군,전라남도 영광군 낙월면 송이리,35.2828165,126.1460729
돌머리해변,전남 함평군,전라남도 함평군 함평읍 주포로 614,35.0865709,126.4419235
오산(구례),전남 구례군,전라남도 구례군 문척면 사성암길,35.1758333,127.4757193
마량미항(마량항),전남 강진군,전라남도 강진군 마량면 마량리,34.4569463,126.8249982
금둔사,전남 순천시,전라남도 순천시 낙안면 조정래길 1000,34.9253115,127.3394445
죽림어촌체험마을,전남 진도군,전라남도 진도군 임회면 헌복동길,34.3831137,126.2517196
중흥사(광양),전남 광양시,전라남도 광양시 옥룡면 중흥로 263-100,35.0245534,127.6077427
우항리 공룡화석자연사유적지,전남 해남군,전라남도 해남군 황산면 공룡박물관길 234,34.589965,126.4368019
신흥사(완도),전남 완도군,전라남도 완도군 완도읍 청해진남로 101-1,34.3074135,126.7551916
유달산 달성공원,전남 목포시,전라남도 목포시 유달로 174-2,34.7909948,126.3766323
초도(여수),전남 여수시,전라남도 여수시 경호동 산232,34.692773,127.712768
가계해변,전남 진도군,전라남도 진도군 고군면 신비의바닷길 47,34.4376091,126.3549228
불갑사 관광지,전남 영광군,전라남도 영광군 불갑면 불갑사로 450,35.2014413,126.548957
남도한옥민박마을,전남 해남군,전라남도 해남군 삼산면 민박촌길 44,34.5093455,126.6058279
담양 송강정,전남 담양군,전라남도 담양군 고서면 송강정로 232,35.2518501,126.9536403
진도 남도진성,전남 진도군,전라남도 진도군 임회면 남동리,34.3632439,126.1702759
함평 자연생태공원,전남 함평군,전라남도 함평군 대동면 학동로 1398-77,35.1356236,126.5030859
금릉경포대,전남 강진군,전라남도 강진군 성전면 백운로 148-9,34.7461782,126.7086779
정혜사(순천),전남 순천시,전라남도 순천시 서면 정혜사길 32,35.0618985,127.5140527
강진 나이트 드림,전남 강진군,전라남도 강진군 강진읍 보은로4길 5,34.6384073,126.7736602
돌산갓 장터마을,전남 여수시,전라남도 여수시 돌산읍 향일암로 359,34.6049703,127.7876963
백아산자연휴양림,전남 화순군,전라남도 화순군 백아면 수양로 353,35.1521797,127.1681978
장성 입암산성,전남 장성군,전라남도 장성군 북하면 신성리,35.4451119,126.8486041
담양호,전남 담양군,전라남도 담양군 금성면 금성산성길,35.3617588,127.0250165
거금생태숲,전남 고흥군,전라남도 고흥군 금산면 거금일주로 1809-27,34.4577081,127.158696
법성포,전남 영광군,전라남도 영광군 법성면 법성리,35.3659653,126.4481861
강성서원,전남 장흥군,전라남도 장흥군 유치면 유치로 70,34.801069,126.8340269
송계 어촌체험마을,전남 무안군,전라남도 무안군 해제면 만송로 916,35.1528015,126.3396569
금탑사(고흥),전남 고흥군,전라남도 고흥군 포두면 금탑로 842,34.5427726,127.2875107
강진 병영마을 옛 담장,전남 강진군,전라남도 강진군 병영면 동삼인길 20,34.7148323,126.8180982
구례 석주관성,전남 구례군,전라남도 구례군 토지면 섬진강대로 4638-8,35.197382,127.56605
완도 청해포구촬영장,전남 완도군,전라남도 완도군 완도읍 청해진서로 1161-8,34.3242384,126.6706633
스파리조트 안단테,전남 장흥군,전라남도 장흥군 안양면 수문용곡로 270,34.6381187,127.0428175
순천만 자연생태공원,전남 순천시,전라남도 순천시 순천만길 513-25,34.885971,127.5090298
지리산 남부 국립공원,전남 구례군,전라남도 구례군 마산면 화엄사로 356,35.2411032,127.4879786
화순적벽,전남 화순군,전라남도 화순군 백아면 옥리길 14-21,35.1638207,127.084242
자은 백길해수욕장,전남 신안군,전라남도 신안군 자은면 자은서부1길 163-119,34.8497303,126.0401208
임포마을,전남 여수시,전라남도 여수시 돌산읍 율림리,34.6074242,127.7819101
천황사(영암),전남 영암군,전라남도 영암군 영암읍 천황사로 280-82,34.7715575,126.7162518
팔금도,전남 신안군,전라남도 신안군 팔금면 삼층석탑길 161,34.7849251,126.1425532
여수밤바다 낭만버스킹,전남 여수시,전라남도 여수시 중앙동,34.7399174,127.7361151
임자 대광해수욕장,전남 신안군,전라남도 신안군 임자면 대광해수욕장길 178,35.1028855,126.0731603
담양 식영정,전남 담양군,전라남도 담양군 가사문학면 지곡리,35.1898308,127.0124281
해남윤씨 녹우당 일원,전남 해남군,전라남도 해남군 해남읍 녹우당길 135,34.5512302,126.6226127
나주향교,전남 나주시,전라남도 나주시 향교길 38,35.0335556,126.7115136
모평마을,전남 함평군,전라남도 함평군 해보면 상모길 80,35.1603505,126.5944642
진도 용장성,전남 진도군,전라남도 진도군 군내면 용장산성길 92,34.5160938,126.3380223
이훈동 정원,전남 목포시,전라남도 목포시 유동로 63,34.7876783,126.3800558
돌산대교,전남 여수시,전라남도 여수시 돌산읍 돌산로 3617-7,34.665556,127.7529493
왕인박사유적지,전남 영암군,전라남도 영암군 군서면 왕인로 440,34.7555659,126.6299326
신안해저유물 발굴 기념비,전남 신안군,전남 신안군 증도면 방축리,35.0102765,126.1231593
운암산(고흥),전남 고흥군,전라남도 고흥군 포두면 송산리,34.6062257,127.3655625
담양대나무숲(담양습지),전남 담양군,전라남도 담양군 대전면 태목리 656-2,35.2543134,126.8960001
순천 고인돌 공원,전남 순천시,전라남도 순천시 송광면 고인돌길 543,34.9793819,127.2255771
나주 구진포 장어거리,전남 나주시,전라남도 나주시 다시면 가운리,35.0204859,126.6596507
월출산국립공원,전남 영암군,전라남도 영암군 영암읍 천황사로 280-43,34.7750486,126.7218085
자산공원,전남 여수시,전라남도 여수시 자산공원길 54,34.7390252,127.7481509
김대중 대통령 생가,전남 신안군,전라남도 신안군 하의면 후광길 255,34.6316453,126.0296516
보길도 윤선도 원림,전남 완도군,전라남도 완도군 보길면 부황길 57,34.1624477,126.5559923
망끝전망대,전남 완도군,전남 완도군 보길면 정자리,34.1625732,126.521793
안악해수욕장,전남 함평군,전라남도 함평군 손불면 월천리 1140,35.14005,126.390509
백야도 등대,전남 여수시,전라남도 여수시 화정면 백야등대길 48,34.6092535,127.6540948
용화사(담양),전남 담양군,전라남도 담양군 담양읍 남촌길 77,35.313194,126.9901375
초의선사 유적지,전남 무안군,전라남도 무안군 삼향읍 초의길 30,34.8541988,126.4161091
도곡원네스 리조트,전남 화순군,전라남도 화순군 도곡면 온천1길 45,35.0289633,126.9029181
탐진강 생태습지원,전남 장흥군,전라남도 장흥군 장흥읍 건산리,34.6763132,126.9107115
명량해협 울돌목,전남 진도군,전라남도 진도군 군내면 녹진리,34.5634896,126.282317
동천석실,전남 완도군,전라남도 완도군 보길면 부황리,34.1535985,126.5440524
자산서원,전남 함평군,전라남도 함평군 엄다면 곤재로 688,35.0013479,126.516352
백운산 어치계곡,전남 광양시,전라남도 광양시 진상면 백학로 531,35.0630786,127.690433
나주 영산나루마을,전남 나주시,전라남도 나주시 공산면 덕음로 548-7,34.9842403,126.5938481
별나로마을,전남 고흥군,전라남도 고흥군 포두면 상오길 65,34.574248,127.4045251
무등산편백자연휴양림(안양산자연휴양림),전남 화순군,전라남도 화순군 이서면 안양산로 685,35.0928526,127.0282371
선암사계곡,전남 순천시,전라남도 순천시 승주읍 선암사길 450,34.9967199,127.3305972
무월마을,전남 담양군,전라남도 담양군 대덕면 무월길 42,35.2664259,127.0399236
정남진(장흥),전남 장흥군,전라남도 장흥군 관산읍,34.5615493,126.9389392
섬진강 다무락마을 [녹색관광마을],전남 구례군,전라남도 구례군 구례읍 중유길 64,35.1991003,127.4070574
파도목장,전남 무안군,전라남도 무안군 현경면 해운로 185,35.0651597,126.4512814
용천사(함평),전남 함평군,전라남도 함평군 해보면 용천사길 209,35.1836127,126.5448913
무등산 양떼목장,전남 화순군,전라남도 화순군 화순읍 안양산로 537,35.0948162,127.0123352
태도,전남 신안군,전라남도 신안군 흑산면 상태도길 25,34.4365681,125.2872615
국립 천관산자연휴양림,전남 장흥군,전라남도 장흥군 관산읍 칠관로 842-1150,34.5464546,126.8999556
쌍계사(진도),전남 진도군,전라남도 진도군 의신면 운림산방로 299-30,34.4676015,126.3080314
다도해해상국립공원(고흥),전남 고흥군,전라남도 고흥군 봉래면 신금길 20-5,34.4680497,127.4671024
진도 의신사천마을 [농촌체험휴양마을],전남 진도군,전라남도 진도군 의신면 의신사천길 26,34.4660902,126.2983855
화순 정암 조광조선생 적려 유허비,전남 화순군,전라남도 기념물 제41호(1979.08.03 지정),34.8679,126.991
여수 타루비,전남 여수시,전라남도 여수시 고소3길 13,34.7401512,127.7387675
모사금해수욕장,전남 여수시,전라남도 여수시 오천동,34.7960528,127.7391026
영광 용암마을,전남 영광군,전라남도 영광군 군남면 육창로1길 50-1,35.1965208,126.4344857
강진 고려청자 요지,전남 강진군,전라남도 강진군 대구면 사당리,34.5108134,126.7993712
무안 발산마을미륵당산,전남 무안군,전라남도 무안군 해제면 광산리,35.1030418,126.2845629
도초도,전남 신안군,전라남도 신안군 도초면 수항리,34.691953,125.9617597
송지 대죽리 조개잡이 체험장,전남 해남군,전라남도 해남군 송지면 소죽리 807-1,34.3496396,126.5220295
톱머리 해수욕장,전남 무안군,전라남도 무안군 망운면 피서리,34.9898597,126.3894174
목포 오포대,전남 목포시,전라남도 목포시 유달로 180,34.7913294,126.3766487
이순신광장,전남 여수시,전라남도 여수시 중앙동,34.7399174,127.7361151
압록유원지,전남 곡성군,전라남도 곡성군 죽곡면 섬진강로 1012,35.1919932,127.3775366
남고문(나주읍성 남문),전남 나주시,전라남도 나주시 남내동 2-20,35.0295791,126.7204994
겸천서원,전남 순천시,전라남도 순천시 주암면 죽림리,35.0774426,127.2536035
가산서원,전남 장성군,전라남도 장성군 삼서면 영장로 2015,35.2311386,126.6931977
영광 법성진 숲쟁이,전남 영광군,전라남도 영광군 법성면 법성리 821-1,35.3652521,126.4441234
배알도 수변공원,전남 광양시,전라남도 광양시 명당길 160-16,34.9591441,127.7594585
다도해해상국립공원(팔영산지구),전남 고흥군,전라남도 고흥군 영남면 팔영로,34.6152054,127.4529897
자은 분계해수욕장,전남 신안군,전라남도 신안군 자은면 자은서부2길 669,34.8720376,125.9822322
해남 간척지 담수호 주변 철새도래지,전남 해남군,전남 해남군 화산면,34.4913014,126.5153317
접도,전남 진도군,전라남도 진도군 의신면 황모길 81,34.3887602,126.300561
원갑사,전남 무안군,전라남도 무안군 해제면 산길로 266-27,35.0905332,126.2622893
연흥사,전남 영광군,전라남도 영광군 군남면 육창로 2,35.1801965,126.4272131
도갑사,전남 영암군,전라남도 영암군 군서면 도갑사로 306,34.7535665,126.6621056
국립공원공단 종복원기술원,전남 구례군,전라남도 구례군 마산면 화엄사로 402-31,35.2428712,127.4903881
여서도(완도),전남 완도군,전라남도 완도군 청산면 여서도길 15,33.9867414,126.9231411
순천 송광사 천자암 쌍향수(곱향나무),전남 순천시,전라남도 순천시 송광면 천자암길 105,34.9812916,127.2899422
나주 반남 고분군,전남 나주시,전라남도 나주시 반남면 대안리 103,34.9077142,126.6466304
영산도,전남 신안군,전라남도 신안군 흑산면 영산길 21,34.6527634,125.4672254
여수 안도어촌체험마을,전남 여수시,전라남도 여수시 남면 안도해변길 45,34.4872414,127.8043582
망금산 강강술래터,전남 진도군,전라남도 진도군 군내면 명량대첩로 101,34.5628247,126.309401
홀통유원지·홀통해변,전남 무안군,전라남도 무안군 현경면 오류리,35.056585,126.3577358
무안 유교리고가,전남 무안군,전라남도 무안군 삼향읍 유교길 53-5,34.8471762,126.4379151
대죽마을,전남 해남군,전남 해남군 송지면 대죽리,34.3585518,126.5356227
백운산 구시폭포,전남 광양시,전라남도 광양시 옥룡면 동곡리,35.08885,127.6112577
달성사(목포),전남 목포시,전라남도 목포시 유달로 173,34.7900729,126.3753655
동악산 (곡성),전남 곡성군,전라남도 곡성군 곡성읍 학정리,35.2901309,127.2647414
우암 송시열 글쓴바위,전남 완도군,전남 완도군 보길면 중통리 1-1,34.1573683,126.6217385
담양 도래수마을,전남 담양군,전라남도 담양군 용면 분통길,35.4204751,127.030876
월선체험 휴양마을,전남 무안군,전라남도 무안군 청계면 예술촌길 148,34.8919145,126.4562533
이사부크루즈,전남 여수시,전라남도 여수시 돌산읍 돌산로 3617-18,34.665556,127.7529493
고흥 신기거북이마을,전남 고흥군,전라남도 고흥군 대서면 동서로 925,34.7409208,127.2648266
성기동국민관광지,전남 영암군,전라남도 영암군 군서면 왕인로 440,34.7555659,126.6299326
조금나루해수욕장,전남 무안군,전라남도 무안군 망운면 송현리 1070-3,34.9958363,126.3359717
불갑산도립공원,전남 영광군,전라남도 영광군 불갑면 불갑사로 450,35.2014413,126.548957
조계산도립공원,전남 순천시,전라남도 순천시 승주읍 승주괴목1길,34.992039,127.3489559
화순광산이씨승지공비,전남 화순군,전라남도 화순군 화순읍 앵남리,35.0526483,126.9161186
흑산도 해상관광유람선,전남 신안군,전라남도 신안군 흑산면 예리2길 4,34.6849172,125.4451236
느랭이골 자연 리조트,전남 광양시,전라남도 광양시 다압면 토끼재길 119-32,35.0596944,127.7106736
월출산온천,전남 영암군,전라남도 영암군 군서면 마한로 331,34.8159253,126.656241
정남진(편백숲우드랜드),전남 장흥군,전라남도 장흥군 장흥읍 우드랜드길 180,34.66765,126.9341757
남산공원(화순),전남 화순군,전라남도 화순군 화순읍 진각로 87,35.0592594,126.9851444
지리해수욕장,전남 완도군,전라남도 완도군 청산면 청산로 1462-58,34.1948489,126.8621192
곡성 하늘나리마을,전남 곡성군,전라남도 곡성군 죽곡면 하한리,35.1677277,127.4000831
해남 해바라기농장,전남 해남군,전라남도 해남군 마산면 노하리,34.6242324,126.5496571
보림사(장흥),전남 장흥군,전라남도 장흥군 유치면 보림사로 224,34.8079075,126.8961114
가마미해수욕장,전남 영광군,전라남도 영광군 홍농읍 가마미로 355,35.3982456,126.4091011
운흥사(나주),전남 나주시,전라남도 나주시 다도면 암정로 398,34.9084381,126.8019765
고흥발포만호성,전남 고흥군,전라남도 고흥군 도화면 발포성촌길 3,34.4839756,127.3364172
여수 충민사,전남 여수시,전라남도 여수시 충민사길 52-23,34.758244,127.7348732
여수갯벌노을마을,전남 여수시,소라면 사곡리 1198-7번지 1층 장척마을회관 여수시 전라남도 KR,34.7902433,127.5680089
신광수 다원,전남 순천시,전라남도 순천시 승주읍 선암사길 386,34.990934,127.3517721
강진 전라병영성,전남 강진군,전라남도 강진군 병영면 병영성로 175,34.7186225,126.8154678
제암산,전남 장흥군,전라남도 장흥군 장흥읍 금산신기길 131,34.6990903,126.9545905
배중손 사당,전남 진도군,전라남도 진도군 임회면 진도대로 4212,34.3694033,126.1998092
이난영의 목포의 눈물 노래비,전남 목포시,전라남도 목포시 죽교동,34.7966426,126.368521
땅끝송호마을,전남 해남군,전라남도 해남군 송지면 송호길 35,34.3172033,126.5217846
"여수 석보(구, 석창성지)",전남 여수시,전라남도 여수시 여천동,34.7701054,127.6615897
노화도,전남 완도군,전라남도 완도군 노화읍 노화로 813,34.177649,126.5757128
나빌레라 문화센터,전남 나주시,전라남도 나주시 나주천1길 93,35.0301989,126.7158543
한천자연휴양림,전남 화순군,전라남도 화순군 한천면 죽헌로 719,34.9873034,127.0409199
완도 묘당도 이충무공 유적,전남 완도군,전라남도 완도군 고금면 세동84번길 86-31,34.4004387,126.8597502
빅오쇼,전남 여수시,전라남도 여수시 수정동 351-1,34.7484417,127.7501068
봉하산촌마을,전남 화순군,전라남도 화순군 도암면 봉수길 77,34.8864999,126.8737633
연곡사(구례),전남 구례군,전라남도 구례군 토지면 피아골로 774,35.2545905,127.5892647
하멜 체류지와 강진 성동리 은행나무,전남 강진군,전라남도 강진군 병영면 성동리,34.7217217,126.8137688
증도 모실길,전남 신안군,전라남도 신안군 증도면 증도 모실길,35.002795,126.1397376
현대삼호중공업,전남 영암군,전라남도 영암군 삼호읍 대불로 93,34.7412261,126.3861773
품바발상지,전남 무안군,전라남도 무안군 일로읍 의산리,34.8389184,126.5175707
한마음공원,전남 영광군,전라남도 영광군 홍농읍 홍농로7길 24,35.4157388,126.4315753
신도해변,전남 신안군,전라남도 신안군 하의면 신도길 163,34.5881364,125.9749976
영암 영보마을,전남 영암군,전라남도 영암군 덕진면 백룡로 418,34.8288487,126.7316382
장흥 키조개마을,전남 장흥군,전라남도 장흥군 안양면 수문용곡로 107,34.631236,127.0286751
성불사(광양),전남 광양시,전라남도 광양시 봉강면 성불로 1150-183,35.0927224,127.5714627
억불산명품테마길,전남 장흥군,전라남도 장흥군 장흥읍 우드랜드길 142,34.6720593,126.9320341
물염정,전남 화순군,전라남도 화순군 이서면 물염로 161,35.1320488,127.1063245
여수향교,전남 여수시,전라남도 여수시 군자길 46,34.7427701,127.7338076
수문해수욕장,전남 장흥군,전라남도 장흥군 안양면 수문용곡로 194,34.6356346,127.0355321
고하도 전망대 및 해안데크,전남 목포시,전라남도 목포시 고하도안길 234,34.767863,126.3669815
외나로도,전남 고흥군,전라남도 고흥군 고흥읍 우주로,34.5997964,127.301546
압해도,전남 신안군,전라남도 신안군 압해읍 천사로 1004,34.8333863,126.3511946
익금해수욕장,전남 고흥군,전라남도 고흥군 금산면 익금해변길 32,34.4302878,127.1461337
화순 복조리마을,전남 화순군,전라남도 화순군 백아면 복조리길 27,35.1898219,127.1578289
우이도 돈목해수욕장,전남 신안군,전라남도 신안군 도초면 돈목길 33-1,34.6015839,125.8242413
만연폭포,전남 화순군,전라남도 화순군 화순읍 안양산로,35.0824953,127.0061174
용흥사(담양),전남 담양군,전라남도 담양군 월산면 용흥사길 442,35.3410238,126.8890444
면앙정,전남 담양군,전라남도 담양군 봉산면 면앙정로 382-11,35.2843595,126.9630124
남평역(나주),전남 나주시,전라남도 나주시 남평읍 동촌로 313,35.0568444,126.8715651
삼화관광농원,전남 곡성군,전라남도 곡성군 입면 삼오삼응길 68,35.2890641,127.1762249
추월산,전남 담양군,전라남도 담양군 용면 추월산로 981,35.4023161,126.9996585
영광정유재란열부순절지,전남 영광군,전라남도 영광군 백수읍 해안로 847-8,35.3348581,126.403065
낙안읍성,전남 순천시,전라남도 순천시 낙안면 충민길 30,34.9062615,127.3418512
향림사(순천),전남 순천시,전라남도 순천시 조비길 36,34.9725947,127.4786477
황룡강,전남 장성군,전라남도 장성군 황룡면 일산2길,35.2879263,126.7671486
능가사,전남 고흥군,전라남도 고흥군 점암면 팔봉길 21,34.6384948,127.4144305
청계동계곡,전남 곡성군,전라남도 곡성군 곡성읍 신기길 49-4,35.3071784,127.2881135
고흥 안남어촌체험마을,전남 고흥군,전라남도 고흥군 대서면 동서로 923,34.7411349,127.2647548
여자만갯벌,전남 여수시,전라남도 여수시 소라면 해넘이길 205,34.791899,127.5663786
"섬진강두꺼비, 여행자카페 1933오후(관광두레 주민사업체)",전남 곡성군,전라남도 곡성군 곡성읍 읍내18길 6,35.2824468,127.2985985
읍리지석묘와 하마비,전남 완도군,전라남도 완도군 청산면 읍리,34.1696997,126.8771148
병풍산,전남 담양군,전남 담양군 대전면 평장리 142,35.2860656,126.8758193
완도 울모래마을,전남 완도군,전라남도 완도군 신지면 신지로582번길 84,34.3268293,126.8303226
순천역 (철도체험학습장),전남 순천시,전라남도 순천시 팔마로 135,34.9459141,127.5031036
화순 야사리 은행나무,전남 화순군,전라남도 화순군 이서면 야사은행나무길 7,35.1108012,127.0778402
홍길동 생가,전남 장성군,전라남도 장성군 황룡면 홍길동로 431,35.3192032,126.7267205
수락폭포,전남 구례군,전라남도 구례군 산동면 수락길,35.3480993,127.4576375
보성 벌교 갯벌,전남 보성군,전라남도 보성군 벌교읍 장호길 368,34.8274031,127.3943752
죽도(고흥),전남 고흥군,전라남도 고흥군 도화면,34.5101075,127.3174203
강진 백사어촌체험마을,전남 강진군,전라남도 강진군 대구면 청자해안길 253,34.4928813,126.7938726
만연산,전남 화순군,전라남도 화순군 화순읍 진각로,35.0623017,126.9863222
톱머리마을,전남 무안군,전남 무안군 망운면 피서리,34.9898597,126.3894174
자연드림파크(구례),전남 구례군,전라남도 구례군 용방면 용산로 107-73,35.2750575,127.4123763
하조도,전남 진도군,전라남도 진도군 조도면 창리길 47,34.2965871,126.0475212
우도(고흥),전남 고흥군,전라남도 고흥군 남양면 우도길,34.7213363,127.3123996
이충무공 벽파진 전첩비,전남 진도군,전라남도 진도군 고군면 벽파길 90,34.5369726,126.3445319
정응민예적지(판소리공원),전남 보성군,전라남도 보성군 회천면 영천길 9,34.6979089,127.0755957
철마공원,전남 진도군,전라남도 진도군 진도읍 철마길 17,34.4853445,126.2637543
방죽포해변,전남 여수시,전라남도 여수시 돌산읍 향일암로 804-6,34.6308684,127.7924935
주도,전남 완도군,전라남도 완도군 완도읍 군내리,34.3108342,126.7628683
신안 비금도 대동염전,전남 신안군,전라남도 신안군 비금면 서남문로 200,34.7693636,125.981501
나대용생가및묘소,전남 나주시,전라남도 나주시 문평면 오륜길 28-5,35.0551283,126.6135024
중대리계곡,전남 구례군,전라남도 구례군 간전면 남도대교로,35.1916364,127.5993278
옥련사(강진),전남 강진군,전라남도 강진군 강진읍 옥련사길 86,34.6061148,126.7514397
흑석산 자연휴양림,전남 해남군,전라남도 해남군 계곡면 산골길 306,34.671543,126.6161037
화엄사계곡,전남 구례군,전라남도 구례군 마산면 화엄사로 539,35.256556,127.4976237
염포해수욕장,전남 고흥군,전남 고흥군 봉래면 외초리,34.4298142,127.4992001
시호도,전남 고흥군,전라남도 고흥군 동일면 덕흥리,34.5339119,127.4558637
들풀미술학교,전남 보성군,전라남도 보성군 웅치면 대산길 265-6,34.6999747,126.9941255
순천 검단산성,전남 순천시,전라남도 순천시 해룡면 성산리,34.9143702,127.5498772
영산포 등대,전남 나주시,전라남도 나주시 등대길 80,34.999717,126.7095796
중흥 골드스파&리조트 워터락,전남 나주시,전라남도 나주시 다도면 나주호로 558-314,34.9613912,126.8542257
운흥정,전남 구례군,전라남도 구례군 산동면 구만제로 973-54,35.3067586,127.4323165
순천시생태관광체험학습센터,전남 순천시,전라남도 순천시 국가정원1호길 47,34.9289309,127.4988865
백바위해수욕장,전남 영광군,전라남도 영광군 염산면 칠산로 836,35.2376799,126.3039602
만덕산,전남 강진군,전라남도 강진군 강진읍 덕남리,34.5990077,126.7589669
구례향교,전남 구례군,전라남도 구례군 구례읍 향교길 36,35.2010455,127.4540156
손죽도,전남 여수시,전라남도 여수시 삼산면 손죽길 7,34.2904995,127.3635906
용문사(여수),전남 여수시,전라남도 여수시 화양면 용문사길 91,34.7259246,127.6127531
백암산(장성),전남 장성군,전라남도 장성군 북하면 신성리,35.4451119,126.8486041
강진 월남사지 삼층석탑,전남 강진군,전라남도 강진군 성전면 월남1길 100,34.7426507,126.7116299
억불산,전남 장흥군,전라남도 장흥군 용산면,34.614923,126.9141086
백학동마을,전남 광양시,전라남도 광양시 진상면 신황길 66,35.0525472,127.6868812
화순 수만리들국화마을,전남 화순군,전라남도 화순군 화순읍 만수길 42,35.0983348,127.0036797
구례오픈스튜디오 (관광두레 주민사업체),전남 구례군,전라남도 구례군 광의면 예술인길 57,35.2753546,127.4498702
통리해수욕장,전남 완도군,전라남도 완도군 보길면 보길동로 219,34.158125,126.5781478
고천암호(철새도래지),전남 해남군,전라남도 해남군 황산면 고천암로,34.5400501,126.4540765
웅천친수공원,전남 여수시,전라남도 여수시 예울마루로 37-40,34.7465311,127.6700414
장성 자라뫼마을 [농촌전통테마],전남 장성군,전라남도 장성군 북이면 백양로 26,35.4287446,126.8085668
담양 시목마을,전남 담양군,전라남도 담양군 대덕면 시목길 29,35.2676317,127.0353582
어룡도 등대,전남 완도군,전라남도 완도군 노화읍 어룡도길 24,34.2871306,126.4749974
영암향교,전남 영암군,전라남도 영암군 영암읍 교동로 73,34.7971856,126.6937135
두레아트(관광두레 주민사업체),전남 순천시,전라남도 순천시 삼산로 157,34.9720702,127.4889304
상조도,전남 진도군,전라남도 진도군 조도면 조도대로 1298,34.3207705,126.0385592
고흥 남성어촌체험마을,전남 고흥군,전라남도 고흥군 포두면 남성3길 14-1,34.5251738,127.4053713
해남 명량대첩비,전남 해남군,전라남도 해남군 문내면 우수영안길 34,34.5925035,126.3104915
백운산(광양),전남 광양시,전라남도 광양시 옥룡면,35.0169412,127.61933
은적사(여수),전남 여수시,전라남도 여수시 돌산읍 돌산로 1168-58,34.6190051,127.7345046
하조도 등대,전남 진도군,전라남도 진도군 조도면 조도등대길 429,34.3108601,126.0877185
도림사(곡성),전남 곡성군,전라남도 곡성군 곡성읍 도림로 175,35.2670616,127.2576332
암태 추포해수욕장,전남 신안군,전라남도 신안군 암태면 추엽길 58-59,34.8080944,126.0653884
순천생태마을,전남 순천시,전라남도 순천시 승주읍 고산도목길 9,35.0665271,127.3603168
장성 가인마을 한봉단지,전남 장성군,전라남도 장성군 북하면 약수리,35.4363094,126.8745481
고흥 존심당 및 아문,전남 고흥군,전라남도 고흥군 고흥읍 후동길 4,34.6107363,127.2855927
염포마을,전남 고흥군,전라남도 고흥군 봉래면 우주로 3949,34.4223063,127.4930514
영암호(철새도래지),전남 영암군,전라남도 영암군 삼호읍 용앙리,34.7517019,126.4585328
관음사(곡성),전남 곡성군,전라남도 곡성군 오산면 성덕관음길 453,35.2145122,127.1649978
무등산,전남 화순군,전남 화순군 이서면,35.1104259,127.0711087
진도읍성,전남 진도군,전라남도 진도군 진도읍 성내리,34.4854566,126.2655395
흥양읍성터 및 고흥옥하리홍교,전남 고흥군,전라남도 고흥군 고흥읍,34.6063835,127.2805008
진도 소포검정쌀마을,전남 진도군,전라남도 진도군 지산면 소포길 119-4,34.4829043,126.2024746
순천시승주읍순천생태마을,전남 순천시,전라남도 순천시 승주읍 고산도목길 9,35.0665271,127.3603168
목포대교,전남 목포시,전라남도 목포시 고하대로597번길 73,34.798436,126.3600566
송호해수욕장,전남 해남군,전라남도 해남군 송지면 땅끝해안로 1827,34.306393,126.523026
죽도봉공원,전남 순천시,전라남도 순천시 죽도봉길,34.9546876,127.4954905
순천왜성,전남 순천시,전라남도 순천시 해룡면 신성리,34.9123393,127.5750766
용추폭포계곡,전남 보성군,전라남도 보성군 웅치면 용추덕림길 89-84,34.6944932,127.0113414
담양군 창평,전남 담양군,전라남도 담양군 창평면 돌담길 56-24,35.2350638,127.017967
백아산 관광목장,전남 화순군,전라남도 화순군 백아면 백아로 1310-56,35.1761024,127.1406124
맹골도,전남 진도군,전라남도 진도군 조도면 맹골도길 14-4,34.2164449,125.853733
일본인지주가옥,전남 나주시,전라남도 나주시 예향로 3871-4,34.9995121,126.7132076
곡성향교,전남 곡성군,전라남도 곡성군 곡성읍 교촌길 85,35.2849276,127.2817223
만재도,전남 신안군,전라남도 신안군 흑산면 만재도길 36-8,34.208614,125.4708083
방산서원,전남 구례군,전라남도 구례군 산동면 둔사길 36-13,35.2850238,127.4159958
임대정원림,전남 화순군,전라남도 화순군 사평면 상사1길 48,34.9994766,127.0950991
수도암(곡성),전남 곡성군,전라남도 곡성군 옥과면 설옥길 81-158,35.2962989,127.1041224
화순 서유리 공룡발자국화석 산지,전남 화순군,전라남도 화순군 백아면 백아로 2080,35.1667803,127.1117671
남창계곡,전남 장성군,전라남도 장성군 북하면 남창로,35.4426971,126.8451383
무안 하늘백련마을(백련지마을),전남 무안군,전라남도 무안군 일로읍 백련로 339-2,34.8593817,126.5300262
죽화경,전남 담양군,전라남도 담양군 봉산면 유산길 11-7,35.2553031,126.9585343
학포당,전남 화순군,전라남도 화순군 이양면 쌍봉길 74-3,34.8732304,127.0411626
순천향교,전남 순천시,전라남도 순천시 향교길 60,34.9541844,127.4793052
강진 서중어촌체험마을,전남 강진군,전라남도 강진군 마량면 까막섬로 75-7,34.4536398,126.8075974
발포해수욕장,전남 고흥군,전라남도 고흥군 도화면 천마로 2743,34.4925254,127.3569696
하화도(고흥),전남 고흥군,전라남도 고흥군 도양읍 하화도길,34.4967741,127.1474189
병영성홍교,전남 강진군,전라남도 강진군 병영면 성동리,34.7217217,126.8137688
월남사지,전남 강진군,전라남도 강진군 성전면 월남1길 100,34.7426507,126.7116299
신지명사십리 해수욕장,전남 완도군,전라남도 완도군 신지면 명사십리길 85-105,34.3272954,126.8089998
섬진강변 유원지,전남 곡성군,전라남도 곡성군 고달면 두가리,35.2527786,127.3842354
득량역 추억의 거리,전남 보성군,전라남도 보성군 득량면 역전길 28,34.7614657,127.1701829
중리해수욕장,전남 완도군,전라남도 완도군 보길면 중통리,34.1636817,126.5810706
금갑해변,전남 진도군,전라남도 진도군 의신면 금갑길 206-6,34.3950392,126.2783009
강진만,전남 강진군,전라남도 강진군 신전면 벌정리,34.5003263,126.7466636
여수구항 해양공원,전남 여수시,전라남도 여수시 중앙동,34.7399174,127.7361151
비금도 내촌마을 옛 담장,전남 신안군,전라남도 신안군 비금면 효자촌길 16,34.7406938,125.9017756
세방마을,전남 진도군,전라남도 진도군 지산면 세방길 6,34.4424625,126.1089437
장등해변,전남 여수시,전라남도 여수시 화양면 장수리,34.6558924,127.585786
담양 개선사지 석등,전남 담양군,전라남도 담양군 가사문학면 학선리,35.1918648,126.9868137
무등암,전남 광양시,전라남도 광양시 다압면 백운3로 635-18,35.0557223,127.743807
여수 흥국사 홍교,전남 여수시,전라남도 여수시 흥국사길 160,34.8210752,127.7003341
시산도,전남 고흥군,전라남도 고흥군 도양읍 시산석금길,34.3964778,127.2564398
고흥 쌍충사,전남 고흥군,전라남도 고흥군 도양읍 목넘가는길 34,34.5279684,127.1319382
천관산도립공원,전남 장흥군,전라남도 장흥군 관산읍 옥당리 산22-3,34.5484972,126.9319199
수암서원,전남 강진군,전라남도 강진군 성전면 동령길 51,34.6923065,126.7382006
범바위,전남 완도군,전라남도 완도군 청산면 청계리,34.161174,126.9033584
환산정,전남 화순군,전라남도 화순군 동면 백천로 236-1,35.0539174,127.0358315
당사도 등대,전남 완도군,전라남도 완도군 소안면 당사도길 17-239,34.0980278,126.6020696
나로우주해수욕장,전남 고흥군,전라남도 고흥군 봉래면 신금길 30-23,34.4675893,127.4686107
용천사 꽃무릇공원,전남 함평군,전라남도 함평군 해보면 용천사길 209,35.1836127,126.5448913
주암댐 물 문화관,전남 순천시,전라남도 순천시 상사면 상사호길 555,34.9492937,127.4146707
다도해 국립공원(서부),전남 목포시,전라남도 목포시 통일대로 102-1,34.8011824,126.4353544
영암 왕인촌마을 [농촌체험휴양마을],전남 영암군,전라남도 영암군 군서면 구림로 43-14,34.7608205,126.6276405
죽림서원,전남 장성군,전라남도 장성군 북이면 만무부동길 3-14,35.4269913,126.7842209
진도 접도어촌체험마을,전남 진도군,전라남도 진도군 의신면 황모길 81,34.3887602,126.300561
나주 완사천,전남 나주시,전라남도 나주시 송월동,35.019498,126.7154008
장성호 출렁다리(장성호 수변길),전남 장성군,전라남도 장성군 장성읍 봉덕리,35.3624542,126.8237106
목포시사,전남 목포시,전라남도 목포시 유달로 165,34.7900816,126.3772314
봉강사,전남 나주시,전라남도 나주시 문평면 오룡리,35.0534902,126.6130097
장흥다목적댐 물 문화관,전남 장흥군,전라남도 장흥군 유치면 지천길 52-227,34.7535138,126.8839293
마한문화공원,전남 영암군,전라남도 영암군 시종면 남해당로 65,34.8954066,126.584196
대한조선 홍보관 및 YARD,전남 해남군,전라남도 해남군 화원면 조선소길 498,34.7428711,126.3176289
백운사(광양),전남 광양시,전라남도 광양시 옥룡면 백운사길 352,35.0918055,127.6169276
보성 골망태다원,전남 보성군,전라남도 보성군 보성읍 노산길 5-56,34.7362399,127.0922027
순천자연휴양림,전남 순천시,전라남도 순천시 서면 청소년수련원길 170,35.0462597,127.4772736
비금 원평/하누넘해수욕장,전남 신안군,전라남도 신안군 비금면 하누넘해수욕장길 246,34.7506912,125.8968884
마천목장군과 도깨비살,전남 곡성군,전라남도 곡성군 석곡면 방주마천목길 135-2,35.1329909,127.254162
예송해수욕장,전남 완도군,전라남도 완도군 보길면 예송리,34.1386422,126.5521925
조도(조도6군도),전남 진도군,전라남도 진도군 조도면,34.2965705,126.0475147
함평곤충생태관,전남 함평군,전라남도 함평군 함평읍 운교리 500-1번지,35.1356236,126.5030859
보성향교,전남 보성군,전라남도 보성군 보성읍 중앙로 58-23,34.7686746,127.0840325
시가문화유적지,전남 담양군,전라남도 담양군 가사문학면 가사문학로 877,35.1606144,127.0432613
송석정,전남 화순군,전라남도 화순군 이양면 강정길 68,34.9361572,126.9898298
나주 순교성지,전남 나주시,전라남도 나주시 박정길 7-40,35.0373796,126.7152006
구례 석주관 칠의사묘,전남 구례군,전라남도 구례군 토지면 송정리,35.2120844,127.5672027
오봉산,전남 보성군,전남 보성군 득량면 해평리,34.7422056,127.1937883
운암사(광양),전남 광양시,전라남도 광양시 옥룡면 운암길 83,35.0466242,127.6079069
당사도,전남 완도군,전라남도 완도군 소안면 당사도길 17-19,34.1046528,126.5955861
담양향교,전남 담양군,전라남도 담양군 담양읍 향교길 19,35.3261796,126.9854611
불갑저수지 수변공원,전남 영광군,전라남도 영광군 불갑면 방마로 151,35.2214751,126.5142509
화순향교,전남 화순군,전라남도 화순군 화순읍 교동2길 14,35.0650128,126.9828476
백운산 동곡계곡,전남 광양시,전라남도 광양시 옥룡면 약수제단길 154,35.0693957,127.6315175
순천만백리길,전남 순천시,전라남도 순천시 해룡면 와온길 133,34.8458532,127.5259534
무안 감풀마을 [농촌전통테마],전남 무안군,전라남도 무안군 현경면 외반리,35.0161152,126.41396
금곡사(강진),전남 강진군,전라남도 강진군 군동면 까치내로 261-21,34.6664118,126.7775572
남희정,전남 담양군,전라남도 담양군 담양읍,35.3204254,126.9818638
해남 송호리 해송림,전남 해남군,전라남도 해남군 송지면 땅끝해안로 1827,34.306393,126.523026
땅끝길,전남 해남군,전라남도 해남군 송지면 땅끝마을길 42,34.2997332,126.52741
외동어촌체험마을,전남 여수시,전라남도 여수시 대경도4길 41-1,34.7178651,127.7279743
담양 메타프로방스,전남 담양군,전라남도 담양군 담양읍 깊은실길 2-17,35.322849,127.0032295
도선국사마을,전남 광양시,전라남도 광양시 옥룡면 상산길 48,35.0443893,127.5933568
기독교인 순교지,전남 영광군,전라남도 영광군 염산면 향화로5길 34-30,35.2130505,126.3763538
영암 학계리석불입상,전남 영암군,전라남도 영암군 학산면 학계리,34.6895252,126.6310754
백운산자연휴양림,전남 광양시,전라남도 광양시 옥룡면 백계로 337,35.05205,127.5985511
충무사(고흥),전남 고흥군,전라남도 고흥군 도화면 충무사길 150,34.4849886,127.335033
나주 복암리 고분군,전남 나주시,전라남도 나주시 다시면 백호로 287,35.0013639,126.6572353
대전해수욕장,전남 고흥군,전라남도 고흥군 두원면 두원로 1306-30,34.7135142,127.2724993
화순 오지호 생가,전남 화순군,전라남도 화순군 동복면 독상1길 48-1,35.0692057,127.1303273
장성 황룡 전적,전남 장성군,전라남도 장성군 황룡면 내황길 50-8,35.2882905,126.7492393
무안 용월리 백로와 왜가리 번식지,전남 무안군,전라남도 무안군 무안읍 백로로 266-1,35.0132812,126.4870961
상화도(고흥),전남 고흥군,전라남도 고흥군 도양읍 상화도길,34.5028033,127.1482648
영보정,전남 영암군,전라남도 영암군 덕진면 영보정길 10-8,34.8297012,126.7323073
구암사(진도군),전남 진도군,전라남도 진도군 임회면 상만길 58,34.3837964,126.2140689
다도해 국립공원(완도),전남 완도군,전라남도 완도군 완도읍 개포로62번길 17-12,34.3179052,126.7466392
송평해변,전남 해남군,전라남도 해남군 화산면 평호길 450,34.4355072,126.4716333
영산강,전남 담양군,전라남도 담양군 수북면 개동신기길,35.280678,126.9410159
완도 맹선리 상록수림,전남 완도군,전라남도 완도군 소안면 소안로 1107,34.1505516,126.636544
사구미해변,전남 해남군,전라남도 해남군 송지면 사구미길 20,34.321453,126.5807096
충의사(최경회장군),전남 화순군,전라남도 화순군 동면 충의로 409,35.0383465,127.0109767
일월사(보성),전남 보성군,전라남도 보성군 율어면 유신길 195,34.8677057,127.2300173
노화 북고어촌체험마을,전남 완도군,전라남도 완도군 노화읍 북고길 82,34.1778181,126.5758484
장흥 상선약수마을,전남 장흥군,전남 장흥군 장흥읍 평화리,34.66211,126.9125123
녹동서원,전남 영암군,전라남도 영암군 영암읍 교동로 73,34.7971856,126.6937135
완도향교,전남 완도군,전라남도 완도군 완도읍 죽청길 94-73,34.3459635,126.7278116
이충무공승전공원,전남 진도군,전라남도 진도군 군내면 진도대로 8439-19,34.5715488,126.2995706
원불교영산성지,전남 영광군,전라남도 영광군 백수읍 성지로 1345,35.32563,126.441108
득량도,전남 고흥군,전라남도 고흥군 도양읍 득량관선길 91,34.6003088,127.1034274
흥륜사(순천),전남 순천시,전라남도 순천시 장대길 102,34.9524703,127.4943498
창평 남극루,전남 담양군,전라남도 담양군 창평면 삼천리,35.2381676,127.0250649
무안 식영정,전남 무안군,전라남도 무안군 몽탄면 호반로 562-15,34.9286479,126.5162339
계마항,전남 영광군,전라남도 영광군 홍농읍 계마리,35.4065088,126.4199107
천관산 문학공원,전남 장흥군,전라남도 장흥군 대덕읍 연지리,34.5192507,126.9035333
용바위터,전남 고흥군,전라남도 고흥군 영남면 우천리,34.6163737,127.490814
선소어촌체험마을,전남 보성군,전라남도 보성군 득량면 공룡로 806-32,34.7046037,127.1910894
송광사 포교당(보성),전남 보성군,전라남도 보성군 벌교읍 태백산맥길 93-10,34.8487929,127.3382708
나주호,전남 나주시,전라남도 나주시 다도면 방산리,34.9385209,126.8600877
수도암(고흥),전남 고흥군,전라남도 고흥군 두원면 운곡길 204,34.6254775,127.330226
무안갯벌,전남 무안군,전라남도 무안군 해제면 용산길 140,35.1037694,126.3321981
목포시 특정자생식물원,전남 목포시,전라남도 목포시 유달로 203,34.7906962,126.3743841
소호동동다리,전남 여수시,전라남도 여수시 소호로 392,34.7382226,127.6502351
주암댐지석묘군,전남 순천시,전라남도 순천시 송광면 우산리,34.9655001,127.2280673
송천서원,전남 순천시,전라남도 순천시 별량면 송천1길 59,34.8673998,127.4528591
나산솟대장승공원,전남 함평군,전라남도 함평군 체암로,35.1277114,126.6249851
선학동마을,전남 장흥군,전라남도 장흥군 회진면 회진리 200,34.4595644,126.9359553
나주 회진성,전남 나주시,전라남도 나주시 다시면 회진리,34.9963929,126.6653431
무안 박봉기 가옥,전남 무안군,전라남도 무안군 무안읍 수양길 104-13,35.0142032,126.4513609
진도 상만리 오층석탑과 비자나무,전남 진도군,전라남도 진도군 임회면 상만길 58,34.3837964,126.2140689
옥천서원(순천),전남 순천시,전라남도 순천시 임청대길 18,34.9521889,127.4787364
만연사(화순),전남 화순군,전라남도 화순군 화순읍 진각로 367,35.0829623,126.9849879
석천사(여수),전남 여수시,전라남도 여수시 충민사길 52-21,34.758244,127.7348732
나주 이슬촌마을,전남 나주시,전라남도 나주시 노안면 이슬촌길 119,35.1030459,126.6760251
법천사·목우암,전남 무안군,전라남도 무안군 몽탄면 법천길 529,34.9146495,126.4563847
한산사(여수),전남 여수시,전라남도 여수시 구봉산길 114,34.7399637,127.7123693
구례 섬진강 벚꽃길,전남 구례군,전라남도 구례군 간전면 운천리 426-1,35.1999418,127.5935056
완도 개매기마을,전남 완도군,전라남도 완도군 소안면 월항길 32,34.174664,126.6509363
지리산 만복대,전남 구례군,전라남도 구례군 산동면,35.3158318,127.439444
낙월도,전남 영광군,전라남도 영광군 낙월면 상낙월리,35.2035371,126.1410368
하의도,전남 신안군,전라남도 신안군 하의면 곰실길 20,34.6063175,126.0364998
진도,전남 진도군,전라남도 진도군 진도읍,34.4807356,126.262934
정남진해양낚시공원,전남 장흥군,전라남도 장흥군 회진면 해양낚시길 137,34.4701055,126.9768207
섬진강 생태탐방로,전남 구례군,전라남도 구례군 문척면 죽마리 838,35.1733592,127.4698327
강진 갯들소리마을,전남 강진군,전라남도 강진군 신전면 논정길 10-3,34.498416,126.7458504
노력도,전남 장흥군,전라남도 장흥군 회진면 노력도1길 215,34.4629915,126.9636823
김남주 생가,전남 해남군,전라남도 해남군 삼산면 봉학리,34.5316726,126.5587131
무안향교,전남 무안군,전라남도 무안군 무안읍 향교길 20,34.989621,126.4677228
천축사(순천),전남 순천시,전라남도 순천시 서면 정혜사길 32,35.0618985,127.5140527
해평리석장승,전남 보성군,전라남도 보성군 득량면 해평리,34.7422056,127.1937883
탐진강-강진만생태탐방로,전남 장흥군,전라남도 장흥군 장흥읍 건산리 일대,34.6763132,126.9107115
장흥 삼산리 후박나무,전남 장흥군,전라남도 장흥군 관산읍 산서1길 13,34.5233052,126.9562951
곡성섬진강물따라300리나들길1,전남 곡성군,전라남도 곡성군 오곡면 기차마을로 232,35.2780945,127.3074651
금일명사십리해수욕장,전남 완도군,전라남도 완도군 금일읍 금일로 886,34.3418701,127.0407963
영벽정,전남 화순군,전라남도 화순군 능주면 학포로 1922-53,34.9931822,126.9650412
장흥 어산리 푸조나무,전남 장흥군,전라남도 장흥군 용산면,34.614923,126.9141086
사산사,전남 함평군,전라남도 함평군 나산면 사산길 38-35,35.1362948,126.6030775
장흥 방촌리 석장승,전남 장흥군,전라남도 장흥군 관산읍 장흥대로 1674,34.5538439,126.9435362
가정녹색농촌체험마을,전남 곡성군,전라남도 곡성군 고달면 가정마을길 120,35.2258539,127.3750855
순천시낙안면꽃마차마을,전남 순천시,전라남도 순천시 낙안면 금산리,34.9355401,127.3558971
주작산,전남 강진군,전라남도 강진군 신전면 수양리,34.5210149,126.7017758
광양만권 경제자유구역 홍보관,전남 광양시,전라남도 광양시 광양읍 인덕로 1100,34.9808166,127.5831163
천등산(고흥),전남 고흥군,전라남도 고흥군 풍양면,34.5755446,127.2419989
무안 청천리 팽나무와 개서어나무 숲,전남 무안군,전라남도 무안군 청계면 청천길 71-6,34.9674862,126.4599349
장보고 동상,전남 완도군,전라남도 완도군 완도읍 청해진로 1565-2,34.3437121,126.7316875
서남문대교,전남 신안군,전라남도 신안군 비금면,34.7554486,125.9267163
복암사(나주),전남 나주시,전라남도 나주시 다시면 가운길 145,35.0241841,126.6623836
영화 곡성 촬영지,전남 곡성군,전라남도 곡성군 석곡면 연반여운길 285,35.1713549,127.2228435
율도,전남 신안군,전라남도 신안군 지도읍 누동길 30-40,35.0332893,126.2717699
정안사(장흥),전남 장흥군,전라남도 장흥군 관산읍 당동길 6-25,34.5538233,126.9310129
고흥 무열사,전남 고흥군,전라남도 고흥군 두원면 동신안길 21-6,34.6440968,127.2840174
할미꽃 한재공원,전남 장흥군,전라남도 장흥군 회진면 덕산리 793-6,34.4877684,126.9473242
곡성 함허정,전남 곡성군,전라남도 곡성군 입면 제월리,35.3219051,127.2292907
주지도(손가락섬),전남 진도군,전라남도 진도군 조도면 가사주지도길,34.488823,126.0821559
진원리오층석탑,전남 장성군,전라남도 장성군 진원면 장성군,35.2731425,126.8334473
대계서원,전남 보성군,전라남도 보성군 보성읍 동암2길 100,34.7532898,127.0839622
금성산(전남),전남 나주시,전라남도 나주시 다시면 신광리,35.0372243,126.6736545
나주 철천리 마애칠불상과 석조여래입상,전남 나주시,전라남도 나주시 봉황면 철천리 산124-11,34.9379422,126.7809764
영광법성진성,전남 영광군,전라남도 영광군 법성면 진내리,35.3672144,126.4375451
다보사(나주),전남 나주시,전라남도 나주시 금성산길 83,35.0471088,126.698433
용산재,전남 곡성군,전라남도 곡성군 목사동면 신숭겸로 226,35.1311395,127.3208549
목포평화광장,전남 목포시,전라남도 목포시 평화로 82,34.7962418,126.4330296
보광사(함평),전남 함평군,전라남도 함평군 함평읍 한재골길 26-32,35.0651917,126.5083459
영암최성호가옥,전남 영암군,전라남도 영암군 덕진면 영보정길 10-14,34.8297274,126.7330109
풍류해수욕장,전남 고흥군,전남 고흥군 두원면 풍류리,34.666488,127.235277
충무사,전남 순천시,전라남도 순천시 해룡면 신성2길 145,34.916164,127.5774363
곡성군섬진강 자연학습원,전남 곡성군,전라남도 곡성군 옥과면 합강리 499-1번지,35.3169841,127.1697162
무한의다리,전남 신안군,전라남도 신안군 자은면 한운리 산231-1,34.9203271,126.0590128
광양향교,전남 광양시,전라남도 광양시 광양읍 향교길 67,34.9824449,127.5882044
도초 시목해수욕장,전남 신안군,전라남도 신안군 도초면 시목길 219-30,34.673278,125.9510914
미륵사(나주),전남 나주시,전라남도 나주시 봉황면 세남로 408-64,34.9384189,126.7810449
순천시월등면향매실마을,전남 순천시,전라남도 순천시 월등면 계월길 138,35.0620845,127.4045195
가사도,전남 진도군,전라남도 진도군 조도면 가사도길 106,34.4788635,126.0510268
장군도(수중성),전남 여수시,전라남도 여수시 고소1길 58,34.7393799,127.7385046
용지동계곡,전남 구례군,전라남도 구례군 간전면 용지동길 226,35.1132367,127.545303
무열사(나주),전남 나주시,전라남도 나주시 다시면 무숙로 637-31,35.0038109,126.6337849
하태도,전남 신안군,전라남도 신안군 흑산면 장굴길 49-1,34.4285767,125.2870315
옴천사(강진),전남 강진군,전라남도 강진군 옴천면 장강로 1445-14,34.7370856,126.7928738
영암내동리쌍무덤,전남 영암군,전라남도 영암군 시종면 내동리,34.8680621,126.6041254
서산사(곡성),전남 곡성군,전라남도 곡성군 곡성읍 교촌길 71,35.2835821,127.2814693
순천시주암면순천용오름마을,전남 순천시,전라남도 순천시 주암면 운룡1길 41-2,35.0888518,127.2013763
하저어촌체험마을,전남 강진군,전라남도 강진군 대구면 저두바닷길 19,34.527244,126.791297
뾰족산(보죽산),전남 완도군,전라남도 완도군 보길면 부황리,34.1535985,126.5440524
탐진강,전남 장흥군,전라남도 장흥군 유치면,34.802265,126.8392246
충절사(보성),전남 보성군,전라남도 보성군 득량면 삼정리,34.7780282,127.1398686
장좌마을,전남 완도군,전라남도 완도군 완도읍 청해진로1369번길,34.35887,126.7307801
학서암,전남 완도군,전라남도 완도군 생일면 생일로601번길 23-230,34.3268109,126.9869782
장보고공원,전남 완도군,전라남도 완도군 완도읍 청해진로 1380-138,34.3537084,126.7173033
승달산,전남 무안군,전라남도 무안군 청계면 월선리,34.8912053,126.4563118
이흥서원,전남 영광군,전라남도 영광군 영광읍 영광로7길 46-79,35.2533904,126.5230305
무안 백련흑콩마을(두레미마을),전남 무안군,전라남도 무안군 일로읍 백련로 365,34.8577072,126.531986
해남 용두리 고분,전남 해남군,전라남도 해남군 삼산면 창리길 173,34.5333478,126.5902544
화순성화명도로수축시주목록암각기문,전남 화순군,전라남도 화순군 능주면 잠정리,34.9809365,126.9586888
곡성 단군전,전남 곡성군,전라남도 곡성군 곡성읍 영운1길 33,35.2875588,127.2932204
죽정서원,전남 영암군,전라남도 영암군 군서면 죽정서원길 19,34.7629254,126.6228619
일심사(신안),전남 신안군,전라남도 신안군 지도읍 읍내길 67-13,35.0616194,126.208109
곡수서원,전남 순천시,전라남도 순천시 순광로 105-17,34.960241,127.5312469
곡성섬진강물따라300리나들길2,전남 곡성군,전라남도 곡성군 오곡면 기차마을로 233,35.2768226,127.307299
죽림사(나주),전남 나주시,전라남도 나주시 남평읍 풍림죽림길 255,35.0405214,126.8836834
순천 용줄다리기마을,전남 순천시,전라남도 순천시 해룡면 해창길 3,34.8939334,127.531591
마복산,전남 고흥군,전라남도 고흥군 포두면 남성리,34.524243,127.3996075
보광사(광양),전남 광양시,전라남도 광양시 광양읍 서북4길 30,34.9732326,127.5776296
용강서원,전남 순천시,전라남도 순천시 공마당1길 64,34.9555832,127.4762985
나주 영모정,전남 나주시,전라남도 나주시 다시면 회진길 14-22,34.9974725,126.6668714
지도,전남 신안군,전라남도 신안군 지도읍 읍내길 67-5,35.0612672,126.207573
영광 성산리지석묘군,전남 영광군,전라남도 영광군 홍농읍 홍농로 708-28,35.4150493,126.4439714
내나로도,전남 고흥군,전라남도 고흥군 고흥읍 우주로,34.5997964,127.301546
순천시별량면거차뻘배체험마을,전남 순천시,전라남도 순천시 별량면 거차길 57-16,34.8369274,127.4485255
장성향교,전남 장성군,전라남도 장성군 장성읍 성산2길 102,35.3242469,126.8139986
삼수마을,전남 보성군,전라남도 보성군 웅치면 유봉길 55,34.706369,127.0520736
무령서원,전남 영광군,전라남도 영광군 영광읍 와룡로2길 16,35.2895799,126.5037173
진도 고니류 도래지,전남 진도군,전라남도 진도군 진도읍 서부해안로,34.5183824,126.214622
두계외갓집체험마을,전남 곡성군,전라남도 곡성군 고달면 두계길 126,35.2435269,127.3791088
적대봉,전남 고흥군,전라남도 고흥군 금산면,34.4588747,127.12501
개매기체험,전남 장흥군,전라남도 장흥군 대덕읍 신리옹암로 344,34.4398057,126.8814203
낙안향교,전남 순천시,전라남도 순천시 낙안면 교촌길 59,34.9005403,127.3457615
함평 향교리 느티나무·팽나무·개서어나무 숲,전남 함평군,전라남도 함평군 대동면 향교길 38-8,35.0654986,126.5341763
신전해변,전남 진도군,전라남도 진도군 조도면 조도대로 115-19,34.3090827,126.0494976
위안 산촌마을,전남 구례군,전라남도 구례군 산동면 산수유꽃길로 227,35.3304046,127.4879342
돌산 평사리 고니도래지,전남 여수시,전라남도 여수시 돌산읍 안굴전길,34.6952463,127.7714362
대둔도,전남 신안군,전라남도 신안군 흑산면 김이수길 57,34.7307158,125.4632776
진지도,전남 고흥군,전라남도 고흥군 과역면 백일리,34.6940957,127.4350332
신재서원,전남 광양시,전라남도 광양시 광양읍 신재로 110,34.9808694,127.5904302
진도향교,전남 진도군,전라남도 진도군 진도읍 진도향교길 68-5,34.490892,126.2610549
첨찰산,전남 진도군,전라남도 진도군 의신면 사천리,34.4669722,126.3020412
죽도 등대,전남 진도군,전라남도 진도군 조도면 맹골죽도길 9-37,34.2240118,125.846643
천일염전,전남 영광군,전라남도 영광군 백수읍 백수로3길 361,35.2834724,126.3348849
화정마을,전남 구례군,전라남도 구례군 문척면 금정리,35.1754782,127.5158353
고흥향교,전남 고흥군,전라남도 고흥군 고흥읍 흥양길 90-29,34.6139191,127.2807644
옥계서원(순천),전남 순천시,전라남도 순천시 명말2길 20,34.9378719,127.514631
화순능주삼충각,전남 화순군,전라남도 화순군 능주면,34.9898628,126.9579661
부춘정원림,전남 장흥군,전라남도 장흥군 부산면 부춘길 79,34.7116035,126.9088559
띠밭넘어해변,전남 신안군,전라남도 신안군 도초면 우이도리,34.6102599,125.8421653
소리도 등대,전남 여수시,전라남도 여수시 남면 덕포길 133,34.4115673,127.8007752
보리암(담양),전남 담양군,전라남도 담양군 용면 월계길 37-17,35.4048312,126.9926542
하낙월도,전남 영광군,전라남도 영광군 낙월면 하낙월리,35.1994792,126.1259655
지리산 생태탐방연수원,전남 구례군,전라남도 구례군 마산면 화엄사로 402-25,35.2404581,127.4897484
강진마도진만호성지,전남 강진군,전라남도 강진군 마량면 마량리,34.4569463,126.8249982
화순양동호가옥,전남 화순군,전라남도 화순군 도곡면 달아실길 24,34.9843733,126.9116127
미강서원,전남 순천시,전라남도 순천시 해룡면 해광로 175,34.9244592,127.5549524
모래미 해변,전남 영광군,전라남도 영광군 백수읍 해안로 1389,35.363262,126.4157932
유마사,전남 화순군,전라남도 화순군 사평면 유마로 603,35.0187952,127.1715001
김완장군묘소 및 신도비,전남 영암군,전라남도 영암군 시종면 만수리,34.8719334,126.6188825
해남향교,전남 해남군,전라남도 해남군 해남읍 향교길 20,34.5750126,126.6022247
천관사(장흥),전남 장흥군,전라남도 장흥군 관산읍 칠관로 1272-473,34.5511833,126.9049216
신지동고해수욕장,전남 완도군,전라남도 완도군 신지면 신지로 1259-1,34.3296292,126.8799702
함평 용월리 지석묘군,전남 함평군,전라남도 함평군 월야면 용월리,35.160881,126.62432
송석마을,전남 무안군,전라남도 무안군 해제면 송석리,35.1433615,126.3377629
송평마을,전남 해남군,전라남도 해남군 화산면 평호리,34.4394388,126.475728
덕흥해수욕장,전남 고흥군,전라남도 고흥군 동일면 덕흥양쪽길 118,34.5289413,127.4584949
영암 장천리 선사주거지,전남 영암군,전라남도 영암군 서호면 선사주거로 308,34.7510628,126.5837907
무안 도요지,전남 무안군,전라남도 무안군 몽탄면 몽탄로 940-1,34.9236732,126.4995728
방호정(구례),전남 구례군,전라남도 구례군 산동면 좌사리,35.3117831,127.5184875
옥과향교,전남 곡성군,전라남도 곡성군 옥과면 옥과7길 13,35.2785097,127.1335159
고산서원,전남 장성군,전라남도 장성군 진원면 고산로 68,35.2726466,126.8415662
용산서원(보성),전남 보성군,전라남도 보성군 미력면 덕림리,34.7980396,127.1060836
도원서원,전남 화순군,전라남도 화순군 동복면 연곡길 137,35.0812719,127.120544
송석정유원지,전남 화순군,전라남도 화순군 이양면 강정길 68,34.9361572,126.9898298
해남윤씨 추원당,전남 강진군,전라남도 강진군 도암면 강성길 77,34.5883825,126.679426
대황강출렁다리,전남 곡성군,전라남도 곡성군 죽곡면 대황강로 802,35.1504925,127.319283
영귀서원,전남 곡성군,전라남도 곡성군 겸면 현정길 49-23,35.2534664,127.1653161
해남 방춘정,전남 해남군,전라남도 해남군 계곡면 방춘길 123-4,34.6564067,126.6321043
곽도,전남 진도군,전라남도 진도군 조도면 맹골곽도길 23,34.2965705,126.0475147
미라리해수욕장,전남 완도군,전남 완도군 소안면 미라리,34.1480951,126.6558301
표충사(전남),전남 해남군,전라남도 해남군 삼산면 대흥사길 400,34.4763245,126.6168261
미천서원,전남 나주시,전라남도 나주시 미천서원길 14-11,35.0045725,126.6876121
동학농민혁명기념탑,전남 장흥군,전라남도 장흥군 장흥읍 읍성로 2,34.6767888,126.9028125
지도향교,전남 신안군,전라남도 신안군 지도읍 서촌길 54-11,35.063526,126.2063025
율봉서원,전남 순천시,전라남도 순천시 별량면 우산리,34.8799043,127.475366
섬진강,전남 곡성군,전남 곡성군 옥과면,35.2768147,127.1356374
강진 삼인리 비자나무,전남 강진군,전라남도 강진군 병영면 동삼인길 28-10,34.7147606,126.8190697
가학산,전남 완도군,전남 완도군 소안면 미라리,34.1480951,126.6558301
정송강 유적(식영정·송강정),전남 담양군,전라남도 담양군 남면 가사문학로 859,35.1606144,127.0432613
오산어촌체험마을,전남 해남군,전라남도 해남군 북평면 오산길 88,34.4134018,126.6430956
백일도,전남 고흥군,전라남도 고흥군 과역면 백일길 315-4,34.6989018,127.4293576
수인산과 수인산성,전남 강진군,전라남도 강진군 병영면 지로리 산 26-8,34.7171307,126.8430492
개천사,전남 화순군,전라남도 화순군 춘양면 변천길 389,34.9045846,126.9154392
장성원덕리미륵석불,전남 장성군,전라남도 장성군 북이면 원덕리,35.4596377,126.7981517
해남윤씨 영모당,전남 강진군,전라남도 강진군 도암면 해강로 577-36,34.5776467,126.7056259
강진 청자골달마지마을,전남 강진군,전라남도 강진군 성전면 달마지길 2,34.7054782,126.6989422
봉래산,전남 고흥군,전라남도 고흥군 봉래면 외초리,34.4298142,127.4992001
재동서원,전남 고흥군,전라남도 고흥군 대서면 동서로 243-51,34.7771095,127.3039269
최경회사당,전남 화순군,전라남도 화순군 화순읍 다산길 55,35.051439,126.9974117
봉조농촌체험학교,전남 곡성군,전라남도 곡성군 오곡면 봉조길 114,35.2144175,127.3603791
광대도,전남 진도군,전라남도 진도군 조도면 가사도길 42-365,34.5170278,126.0812134
장흥 오헌고택 (구 위성탁 가옥),전남 장흥군,전라남도 장흥군 관산읍 방촌1길 44,34.548988,126.939622
강덕사,전남 강진군,전라남도 강진군 군동면 호라길 199-39,34.6544431,126.8026006
장흥 위성룡가옥,전남 장흥군,전라남도 장흥군 관산읍 방촌길 101,34.5488905,126.9499267
덕양서원(고흥),전남 고흥군,전라남도 고흥군 동일면 성두구룡길 132,34.5283512,127.4429534
하의도 토지항쟁비와 덕봉강당,전남 신안군,전라남도 신안군 하의면 웅곡리,34.5982134,126.0440284
돌산향교,전남 여수시,전라남도 여수시 돌산읍 돌산로 1196-3,34.665556,127.7529493
강진 월남사지 진각국사비,전남 강진군,전라남도 강진군 성전면 월남1길 106-1,34.7428676,126.7107442
금곡해수욕장,전남 완도군,전라남도 완도군 생일면 생일로 1228,34.3122886,126.962651
사평폭포,전남 화순군,전라남도 화순군 사평면 사호로,35.0101645,127.0891224
삼우당충선공강성군부민후 문익점 부조묘,전남 보성군,전라남도 보성군 미력면 도개2길 21,34.8055614,127.0870618
심향사(나주),전남 나주시,전라남도 나주시 건재로 41-1,35.0395513,126.7122568
‘서편제’ 촬영지,전남 완도군,전라남도 완도군 청산면 당락리,34.1687393,126.8629873
영광향교,전남 영광군,전라남도 영광군 영광읍 향교길 32,35.2737553,126.5199737
봉암서원,전남 장성군,전라남도 장성군 장성읍 화차길 159,35.3220453,126.7880376
물염적벽,전남 화순군,전라남도 화순군 이서면 물염로,35.129887,127.1009625
신도,전남 신안군,전라남도 신안군 하의면 신도길 34,34.5987331,125.9762969
삼문산,전남 완도군,전남 완도군 약산면,34.3936302,126.8981937
문성암,전남 나주시,전라남도 나주시 다도면 암정로 325-37,34.9149881,126.8076965
당몰샘,전남 구례군,전남 구례군 마산면 사도리,35.2161067,127.5051234
해남 민정기 가옥,전남 해남군,전라남도 해남군 해남읍 백야길 36,34.5427585,126.5685391
금강사(강진),전남 강진군,전라남도 강진군 강진읍 효자길 38-24,34.614849,126.736744
신의도,전남 신안군,전라남도 신안군 신의면 신의로 661,34.5847473,126.0884124
산이반도,전남 해남군,전남 해남군 산이면,34.6447037,126.4479239
장촌마을,전남 여수시,전라남도 여수시 삼산면 서도리,34.0452665,127.2885507
신흥해수욕장,전남 완도군,전라남도 완도군 청산면 청산로672번길 4,34.1836031,126.9070069
무안망운면의곰솔,전남 무안군,전라남도 무안군 망운면 두모길 35,35.0076499,126.3681149
장흥 사인정,전남 장흥군,전라남도 장흥군 장흥읍 진흥로 891,34.6531998,126.8729379
국립 종복원기술센터,전남 구례군,전라남도 구례군 마산면 화엄사로 402-31,35.2428712,127.4903881
함평죽암리고분,전남 함평군,전라남도 함평군 손불면 죽암리,35.1224584,126.4760362
법흥사(영암),전남 영암군,전라남도 영암군 금정면 연지길 121,34.8898617,126.7710831
깃대봉,전남 신안군,전라남도 신안군 흑산면,34.6829748,125.4275194
장도,전남 진도군,전라남도 진도군 지산면 가학장도길 1,34.4559726,126.1006152
첨도,전남 고흥군,전라남도 고흥군 포두면 오취길 709,34.5721543,127.4473871
장산도,전남 신안군,전라남도 신안군 장산면 장산중앙길 2,34.6429651,126.148876
광양 윤동주 유고보존 정병욱 가옥,전남 광양시,전라남도 광양시 진월면 망덕길 249,34.9708272,127.7590793
지죽도,전남 고흥군,전라남도 고흥군 도화면 지호길 27-38,34.4392745,127.3063521
겸면목화공원,전남 곡성군,전라남도 곡성군 겸면 곡순로 1864,35.2563331,127.1729693
고산사(장흥),전남 장흥군,전라남도 장흥군 장평면 하탑동길 120,34.7652622,126.9687768
청용어촌체험마을,전남 진도군,전라남도 진도군 진도읍 청룡안길 130-12,34.524899,126.2159049
남강서원(강진),전남 강진군,전라남도 강진군 강진읍 향교로 128-2,34.6498588,126.7731665
용호정원림,전남 장흥군,전라남도 장흥군 부산면 용반1길 213-34,34.7506853,126.8994083
옹성산,전남 화순군,전라남도 화순군 이서면,35.1104259,127.0711087
용천사 석등,전남 함평군,전라남도 함평군 해보면 용천사길 209,35.1836127,126.5448913
매천사,전남 구례군,전라남도 구례군 광의면 월곡길 22-3,35.2528277,127.4621521
덕양사,전남 곡성군,전라남도 곡성군 오곡면 덕양서원길 42,35.2634377,127.3106056
남평향교,전남 나주시,전라남도 나주시 남평읍 남평향교길 45-12,35.0372785,126.8471852
대초마을,전남 영광군,전라남도 영광군 백수읍 대신길3길 33-7,35.3622889,126.4037203
태평사,전남 나주시,전라남도 나주시 노안면 금성산길 387-83,35.059437,126.7054363
강진 금곡사 삼층석탑,전남 강진군,전라남도 강진군 군동면 까치내로 261-21,34.6664118,126.7775572
죽수서원,전남 화순군,전라남도 화순군 한천면 학포로 1786-45,34.9853251,126.9728551
장흥향교,전남 장흥군,전라남도 장흥군 장흥읍 교촌남외길 33,34.6744202,126.8934315
봄의 왈츠 드라마 촬영지,전남 완도군,전라남도 완도군 청산면 청산로 136,34.1696831,126.8624148
남열마을,전남 고흥군,전라남도 고흥군 영남면 남열메뚝길 24,34.5807059,127.4799809
영팔정,전남 영암군,전라남도 영암군 신북면 하정길 8,34.8884434,126.7046291
정수사(강진),전남 강진군,전라남도 강진군 대구면 정수사길 403,34.5332124,126.838753
창평향교,전남 담양군,전라남도 담양군 고서면 교촌길 43-11,35.2166996,126.9845011
청자골엄지마을,전남 강진군,전라남도 강진군 옴천면 옴천로 760-23,34.7597155,126.7734332
나주 영상테마파크,전남 나주시,전라남도 나주시 공산면 덕음로 450,34.9797307,126.5999233
적자봉(격자봉),전남 완도군,전남 완도군 보길면 부용리,34.1511875,126.5447378
진산리해수욕장,전남 완도군,전라남도 완도군 소안면 소안남로,34.1273098,126.6502909
화순 쌍봉사 철감선사탑,전남 화순군,전라남도 화순군 이양면 쌍산의로 459,34.8874904,127.0605946
완도 미라리 상록수림,전남 완도군,전라남도 완도군 소안면 미라리 472,34.1452249,126.669434
도장사(해남),전남 해남군,전라남도 해남군 황산면 내산길 143,34.6097862,126.3833592
금산원,전남 강진군,전라남도 강진군 군동면 동관덕길 81,34.6213342,126.80769
대둔사계곡,전남 해남군,전라남도 해남군 삼산면 구림큰길 50,34.5026414,126.6187544
내산서원,전남 영광군,전라남도 영광군 불갑면 강항로 101,35.2135922,126.5172699
팔열부정각,전남 함평군,전라남도 함평군 월야면 월야리,35.1826814,126.6291367
대리칠충각,전남 화순군,전라남도 화순군 화순읍 한고을길 16,35.0555638,126.9749811
함평예덕리고분군,전남 함평군,전라남도 함평군 월야면 예덕리,35.2236032,126.6119784
지곡서원,전남 화순군,전라남도 화순군 화순읍 서당길 58-16,35.0360218,126.9936656
보은산,전남 강진군,전남 강진군 강진읍 동성리,34.6431739,126.7725775
예술의 섬 장도,전남 여수시,전라남도 여수시 웅천동,34.7471249,127.6840325
백아산,전남 화순군,전라남도 화순군 백아면 용촌길,35.1606006,127.1484305
덕양서원(곡성),전남 곡성군,전라남도 곡성군 오곡면 덕양서원길 42,35.2634377,127.3106056
양덕도(발가락섬),전남 진도군,전라남도 진도군 조도면 가사도길 42-204,34.5172098,126.082357
도룡마을,전남 강진군,전라남도 강진군 병영면 도룡길 2,34.6987933,126.8278373
구고사 및 김완장군부조묘,전남 영암군,전라남도 영암군 서호면 화소길 20,34.7341721,126.6039984
정수루,전남 나주시,전라남도 나주시 금계동 13-18,35.032271,126.7160969
강진향교,전남 강진군,전라남도 강진군 강진읍 향교로 140,34.6500852,126.7715706
퍼플교,전남 신안군,전라남도 신안군 안좌면 소곡두리길 257-35,34.7184934,126.1202326
광양와인동굴,전남 광양시,전라남도 광양시 광양읍 강정길 33,34.96135,127.6086935
중산리계곡,전남 구례군,경상남도 산청군 시천면 지리산대로,35.2888009,127.7739882
서산사(신안),전남 신안군,전라남도 신안군 비금면 서산길 260,34.7517607,125.9043926
설재서원,전남 나주시,전라남도 나주시 노안면 영안길 60,35.0667227,126.7028973
장흥 방촌리 지석묘군,전남 장흥군,전라남도 장흥군 관산읍 방촌리,34.5459341,126.9437986
해촌서원,전남 해남군,전라남도 해남군 해남읍 해리2길 50,34.5750059,126.6137321
고마리마을,전남 장흥군,전라남도 장흥군 관산읍 고마리,34.5668059,126.985042
서유리 공룡화석지 (무등산권 국가지질공원),전남 화순군,전라남도 화순군 백아면 백아로 2080,35.1667803,127.1117671
만연사 선캄브리아기 화강편마암 (무등산권 국가지질공원),전남 화순군,전라남도 화순군 화순읍 동구리,35.0859073,126.9870344
화순동복남덕원비,전남 화순군,전라남도 화순군 동복면 독상리,35.0657796,127.1390967
송도,전남 진도군,전라남도 진도군 조도면 가사도리,34.4815801,126.0486598
연곡서원,전남 장흥군,전라남도 장흥군 장흥읍 연곡길 31,34.6830902,126.9199419
함평 기각리 붉가시나무 자생북한지,전남 함평군,전라남도 함평군 함평읍 기각리,35.0708861,126.5224377
흥덕사,전남 고흥군,전라남도 고흥군 동강면 고흥로 4603-53,34.8114778,127.3443032
함평향교,전남 함평군,전라남도 함평군 대동면 대동길 45,35.0686,126.5350637
금전산,전남 순천시,전라남도 순천시 낙안면 상송리,34.9222364,127.338271
정열사비,전남 나주시,전라남도 나주시 정렬사길 43,35.0457791,126.7114269
한산사지삼층석탑,전남 화순군,전라남도 화순군 동복면 탑동길 21-23,35.0851175,127.1283173
묘장영당,전남 영광군,전라남도 영광군 묘량면 동삼로1길 21,35.2597805,126.5475012
이천서원,전남 순천시,전라남도 순천시 상사면 동백길 56,34.9499937,127.4475122
성도암(해남),전남 해남군,전라남도 해남군 북평면 동촌길 42-82,34.441184,126.6363869
박산서원,전남 강진군,전라남도 강진군 작천면 박산죽현길 107-56,34.7036695,126.7488243
함평 예덕리 신덕 고분군,전남 함평군,전라남도 함평군 월야면 예덕리,35.2236032,126.6119784
미라마을,전남 완도군,전라남도 완도군 소안면 소안로549번길,34.1466288,126.6727104
능주향교,전남 화순군,전라남도 화순군 능주면 교촌길 36,34.9895974,126.9515042
의마총,전남 곡성군,전라남도 곡성군 입면 송전종방길 222,35.3194369,127.1865717
보산정사,전남 나주시,전라남도 나주시 다시면 무숙로 647-6,35.0040143,126.6352002
도선암(순천),전남 순천시,전라남도 순천시 상사면 도선길 202-160,34.9095907,127.4271465
군지촌정사,전남 곡성군,전라남도 곡성군 입면 제월군촌길 53,35.3220685,127.2225457
덕룡산,전남 강진군,전라남도 강진군 도암면 봉황리,34.5447827,126.6933119
여귀산,전남 진도군,전라남도 진도군 임회면 상만리,34.3799998,126.2203568
혈도(활목섬),전남 진도군,전라남도 진도군 조도면 가사도길 42-359,34.5157923,126.0878711
서동사(해남),전남 해남군,전라남도 해남군 화원면 절골길 244,34.689377,126.3101567
모후산,전남 화순군,전라남도 화순군 사평면 유마로,35.0021819,127.1683505
군자서원,전남 강진군,전라남도 강진군 작천면 행정길 65-1,34.7176923,126.7548216
장암정,전남 영암군,전라남도 영암군 영암읍 무덕정길 63,34.8056113,126.7303496
경현서원,전남 나주시,전라남도 나주시 노안면 영평리,35.0646187,126.7031402
성도사,전남 해남군,전라남도 해남군 북평면 백도로 543-134,34.4511865,126.6436764
현부자네 집,전남 보성군,전라남도 보성군 벌교읍 홍암로 89-28,34.8496963,127.3530358
계송서원,전남 영광군,전라남도 영광군 영광읍 청보리로3길 31,35.3020466,126.5190749
약사사(무안),전남 무안군,	전라남도 무안군 무안읍 대사동길 15,34.9879171,126.4805239
장흥 옥당리 효자송,전남 장흥군,전라남도 장흥군 관산읍 효자송길 124,34.5533615,126.9340794
해망서원,전남 화순군,전라남도 화순군 춘양면 섶메길 37-1,34.9590215,126.9404026
예양서원,전남 장흥군,전라남도 장흥군 장흥읍 예양4길 15-7,34.6763491,126.8999758
고성사(강진),전남 강진군,전라남도 강진군 강진읍 고성길 260,34.6589806,126.7642555
소안항,전남 완도군,전라남도 완도군 소안면 소안로 6,34.1799596,126.6349647
신흥사(장흥),전남 장흥군,전라남도 장흥군 장흥읍 연산리 89,34.6831549,126.8894293
서거차도,전남 진도군,전라남도 진도군 조도면 서거차도1길,34.2551876,125.9137864
주봉서원,전남 강진군,전라남도 강진군 옴천면 장강로 1785-3,34.7592533,126.7698749
화순대리석불입상,전남 화순군,전라남도 화순군 화순읍 벽라리,35.0560163,126.9639159
독상리석등,전남 화순군,전라남도 화순군 동복면 석등길 1,35.0709352,127.1280153
야생화테마랜드,전남 구례군,전라남도 구례군 광의면 온당리,35.2814179,127.4479202
각흘도,전남 진도군,전라남도 진도군 조도면 관매작흘도길 6,34.2578476,126.0511971
정도마을,전남 완도군,전남 완도군 완도읍 정도리,34.304429,126.6940976
명곡서원,전남 강진군,전라남도 강진군 군동면 신기길 63,34.6572122,126.8493906
개구리생태공원,전남 담양군,전라남도 담양군 담양읍 메타세쿼이아로 47,35.3275689,127.0133599
수락도,전남 고흥군,전라남도 고흥군 봉래면 모래금길 375-3,34.4806468,127.4027686
취도,전남 고흥군,전라남도 고흥군 포두면 오취안길 43-14,34.5645828,127.4104352
판소리성지,전남 보성군,전라남도 보성군 회천면 영천길 9,34.6979089,127.0755957
보광사(담양),전남 담양군,전라남도 담양군 금성면 매곡길 49-15,35.3172456,127.0169371
가사도 등대,전남 진도군,전라남도 진도군 조도면 가사도돌목길,34.4684007,126.0454909
총지사지석장승,전남 무안군,전라남도 무안군 몽탄면 대치리,34.9495257,126.4763986
추도,전남 여수시,전라남도 여수시 화정면 낭도리,34.6089984,127.5543849
봉래사,전남 고흥군,전라남도 고흥군 봉래면 우주로 3159-32,34.4649638,127.4638152
상왕산,전남 완도군,전남 완도군 군외면,34.3894023,126.6474354
은적사(해남),전남 해남군,전라남도 해남군 마산면 은적사길 404,34.5976101,126.6014778
도덕사(무안),전남 무안군,전라남도 무안군 무안읍 몽탄로 385-35,34.9716773,126.5129923
죽수절제아문,전남 화순군,전라남도 화순군 능주면 죽수길 73,34.98976,126.9582417
장등마을,전남 여수시,전라남도 여수시 화양면,34.7081585,127.613556
해남 윤두서고택,전남 해남군,전라남도 해남군 현산면 백포길 122,34.440579,126.5184605
사양도,전남 고흥군,전라남도 고흥군 봉래면 사양선창길 63,34.4766369,127.4450532
율포해수풀장,전남 보성군,전라남도 보성군 회천면 우암길 8,34.6701945,127.0872085
거차뻘배마을,전남 순천시,전라남도 순천시 별량면 거차길 130,34.8375993,127.4475425
화방사(강진),전남 강진군,전라남도 강진군 군동면 금천로 328-103,34.6688443,126.8280793
동복향교,전남 화순군,전라남도 화순군 동복면 월송길 62-30,35.0753986,127.1197211
송광암,전남 고흥군,전라남도 고흥군 금산면 금산중촌길 266,34.4546951,127.1427641
화학산,전남 화순군,전라남도 화순군 청풍면 화산길,34.8728406,126.9409616
내병도,전남 진도군,전라남도 진도군 조도면 내병도길 14-2,34.3747249,125.9690537
상하죽도,전남 진도군,전라남도 진도군 조도면 서거차대섬길,34.2509147,125.9253797
독거도,전남 진도군,전라남도 진도군 조도면 독거도길 26-4,34.2540276,126.180963
원주도,전남 고흥군,전라남도 고흥군 과역면 원당길 106,34.6714645,127.4712622
가사해수욕장,전남 완도군,전라남도 완도군 약산면 가사길,34.3936302,126.8981937
여수 가사리 갈대밭,전남 여수시,전라남도 여수시 소라면 관기길 327,34.7461108,127.5987842
봉대산,전남 강진군,전라남도 강진군 강진읍 덕남리,34.5990077,126.7589669
금골산,전남 진도군,전라남도 진도군 군내면 금골길,34.5374222,126.2948344
부용산(장흥),전남 장흥군,전라남도 장흥군 관산읍 남송성산길,34.5795783,126.8946302
진흥사(해남),전남 해남군,전라남도 해남군 현산면 입제길 442,34.4455835,126.6150937
미덕도,전남 고흥군,전라남도 고흥군 과역면 백일길 63-118,34.7117478,127.414668
월정서원,전남 나주시,전라남도 나주시 노안면,35.0759336,126.7322183
보성싱싱농원,전남 보성군,전라남도 보성군 조성면 봉능리,34.7988119,127.2197745
태영사,전남 해남군,전라남도 해남군 북평면 천태산길 191,34.4219855,126.6159061
상서마을 옛 돌담길,전남 완도군,전라남도 완도군 청산면 상동길 91-1,34.1758955,126.9070532
천태산,전남 강진군,전라남도 강진군 대구면 용운리,34.5287382,126.8349482
동거차도,전남 진도군,전라남도 진도군 조도면 동거차동육길 50,34.2386196,125.9397098
성남도,전남 진도군,전라남도 진도군 조도면 성남도길,34.3978021,126.0464143
갈목도,전남 진도군,전라남도 진도군 조도면 진목도갈목길 10,34.306171,125.9471261
금호도,전남 진도군,전라남도 진도군 고군면 금호도길 16,34.4139112,126.3656981
관사도,전남 진도군,전라남도 진도군 조도면 관사도길 20-10,34.3094776,125.9753603
녹동항 바다정원,전남 고흥군,전라남도 고흥군 도양읍 봉암리 3953,34.5254804,127.1339726
여계산,전남 강진군,전라남도 강진군 대구면 사당리,34.5108134,126.7993712
섬진강문화학교,전남 곡성군,전라남도 곡성군 죽곡면 태안로 793,35.148348,127.3603367
반달가슴곰생태학습장,전남 구례군,전라남도 구례군 마산면 화엄사로 402-31,35.2428712,127.4903881
라배도(나배도),전남 진도군,전라남도 진도군 조도면 나배도길,34.3126229,126.0117667
용암산,전남 화순군,전라남도 화순군 한천면 용암길,34.9675606,126.9985614
눌옥도,전남 진도군,전라남도 진도군 조도면 눌옥도길 2-1,34.3481969,125.9577658
상구자도,전남 진도군,전라남도 진도군 의신면 구자도1길 17,34.3287338,126.2998829
하구자도,전남 진도군,전라남도 진도군 의신면 구자도2길 6,34.3218277,126.3007654
해달별천문대,전남 광양시,전라남도 광양시 봉강면 하조길 91-20,35.0733055,127.5594823
녹향월촌마을,전남 강진군,전라남도 강진군 성전면 백운로 95-5,34.7414655,126.7090035
낭도대교(여수),전남 여수시,전라남도 여수시 화정면 조발리,34.6332598,127.5629646
여수 국가산업단지,전남 여수시,전라남도 여수시 해산동,34.8021599,127.639683
태평염전 해양힐링스파,전남 신안군,전라남도 신안군 증도면 지도증도로 1083-4,34.9935923,126.1757379
땅끝황토나라테마촌,전남 해남군,전라남도 해남군 송지면 땅끝해안로 1730,34.3706011,126.5315651
조화대교(여수),전남 여수시,전라남도 여수시 화양면,34.7081585,127.613556
적금대교(여수),전남 여수시,전라남도 여수시 화정면 적금리 117,34.6202336,127.5230295
신안튤립공원,전남 신안군,전남 신안군 임자면 대기리 산327-2,35.1034735,126.0752247
둔병대교(여수),전남 여수시,전라남도 여수시 화정면 조발리 산70,34.6294659,127.5547323
사의재저잣거리,전남 강진군,전라남도 강진군 강진읍 탐진로 155,34.6438537,126.7713233
한국트로트가요센터,전남 영암군,전라남도 영암군 영암읍 기찬랜드로 19-10,34.7922651,126.6859479
농부네 텃밭도서관,전남 광양시,전라남도 광양시 진상면 청도길 19,35.0143624,127.7259356
전남권 환경성질환 예방관리센터,전남 보성군,전라남도 보성군 웅치면 대산길 329-126,34.7060349,127.0042896