name,region,address,lat,lon
국립중앙박물관,서울 용산구,서울특별시 용산구 서빙고로 137,37.52470224,126.9777402
롯데월드타워 서울스카이,서울 송파구,서울특별시 송파구 올림픽로 300,37.51375196,127.1044469
청와대사랑채,서울 종로구,서울특별시 종로구 효자로13길 45,37.58254488,126.9730593
서대문형무소역사관,서울 서대문구,서울특별시 서대문구 통일로 251,37.57460851,126.9556118
챔피언1250,서울 용산구,서울특별시 용산구 한강대로21나길 17,37.5288539,126.9640447
서울 트릭아이뮤지엄,서울 마포구,서울특별시 마포구 홍익로3길 20,37.55351606,126.9217154
롯데월드타워&롯데월드몰,서울 송파구,서울특별시 송파구 올림픽로 300,37.51375196,127.1044469
한국종합무역센터(코엑스),서울 강남구,서울특별시 강남구 영동대로 513,37.51182391,127.059159
국립어린이과학관,서울 종로구,서울특별시 종로구 창경궁로 215,37.58203191,126.9970157
전쟁기념관,서울 용산구,서울특별시 용산구 이태원로 29,37.53731405,126.9784661
롯데월드 아쿠아리움,서울 송파구,서울특별시 송파구 올림픽로 300 롯데월드 몰 B1,37.51375196,127.1044469
아쿠아플라넷 63,서울 영등포구,서울특별시 영등포구 63로 50,37.51966416,126.9399093
서울특별시교육청 과학전시관,서울 관악구,서울특별시 관악구 낙성대로 101,37.46881648,126.9594109
다이나믹 메이즈 (서울 인사동점),서울 종로구,서울특별시 종로구 인사동길 12,37.57189615,126.9872306
국립고궁박물관,서울 종로구,서울특별시 종로구 효자로 12,37.57659162,126.9749748
VR스테이션,서울 강남구,서울특별시 강남구 강남대로 364,37.49554987,127.0292939
대한민국역사박물관,서울 종로구,서울특별시 종로구 세종대로 198,37.57371361,126.9783394
안중근의사기념관,서울 중구,서울특별시 중구 소월로 91,37.55346849,126.9804043
코엑스 아쿠아리움,서울 강남구,서울특별시 강남구 영동대로 513,37.51182391,127.059159
백범김구기념관,서울 용산구,서울특별시 용산구 임정로 26,37.54427794,126.959253
박물관은 살아있다(인사동점),서울 종로구,서울특별시 종로구 인사동길 12,37.57189615,126.9872306
키자니아 서울,서울 송파구,서울특별시 송파구 올림픽로 240,37.51130961,127.0981418
보라매안전체험관,서울 동작구,서울특별시 동작구 여의대방로20길 33,37.49538106,126.9189142
삼성미술관 리움,서울 용산구,서울특별시 용산구 이태원로55길 60-16,37.53846127,126.9992941
국립현대미술관(덕수궁관),서울 중구,서울특별시 중구 세종대로 99,37.56616815,126.9739838
브이센터 (브이센터 더라이브뮤지엄),서울 강동구,서울특별시 강동구 아리수로61길 103,37.56539313,127.1477152
실로암사우나찜질방,서울 중구,서울특별시 중구 중림로 49,37.55774361,126.968629
종이나라박물관,서울 중구,서울특별시 중구 장충단로 166,37.55964972,127.0061539
중랑구립정보도서관,서울 중랑구,서울특별시 중랑구 신내로15길 197,37.61517057,127.0869064
서울대학교 박물관,서울 관악구,서울특별시 관악구 관악로 1,37.46803806,126.9592943
청계천박물관,서울 성동구,서울특별시 성동구 청계천로 530,37.57126617,127.0350432
예술의전당,서울 서초구,서울특별시 서초구 남부순환로 2406,37.4802402,127.0142152
세라믹 팔레스 홀,서울 강남구,서울특별시 강남구 일원로 90,37.48578186,127.0820718
매헌 윤봉길의사 기념관,서울 서초구,서울특별시 서초구 매헌로 99,37.4730498,127.0369771
도산안창호기념관,서울 강남구,서울특별시 강남구 도산대로45길 20,37.52395086,127.0356032
세종대왕기념관,서울 동대문구,서울특별시 동대문구 회기로 56,37.59099289,127.0427032
아트리움,서울 영등포구,서울특별시 영등포구 영중로 15,37.51723326,126.903716
자생식물학습장,서울 종로구,서울특별시 종로구 창경궁로 185,37.57762395,126.9938414
63아트,서울 영등포구,서울특별시 영등포구 63로 50,37.51966416,126.9399093
광진교 8번가,서울 강동구,서울특별시 강동구 구천면로 77,37.54448808,127.1141891
롯데월드 가든스테이지,서울 송파구,서울특별시 송파구 올림픽로 240,37.51130961,127.0981418
서울특별시교육청 과학전시관 (남산분관),서울 중구,서울특별시 중구 소파로 46,37.5545492,126.9812833
고려대학교박물관,서울 성북구,서울특별시 성북구 안암로 145,37.58870342,127.0316983
마포아트센터,서울 마포구,서울특별시 마포구 대흥로20길 28,37.54990609,126.9455338
우표박물관 (구.우표문화누리),서울 중구,서울특별시 중구 소공로 70,37.56159874,126.9821691
호림박물관,서울 관악구,서울특별시 관악구 남부순환로152길 53,37.4808823,126.9182364
밀알미술관,서울 강남구,서울특별시 강남구 일원로 90,37.48578186,127.0820718
박을복자수박물관,서울 강북구,서울특별시 강북구 삼양로149가길 53,37.65381553,127.0084886
유니버설아트센터,서울 광진구,서울특별시 광진구 천호대로 664,37.5509798,127.0870952
서울대학교 규장각,서울 관악구,서울특별시 관악구 관악로 1,37.46803806,126.9592943
VRZONE 용산 아이파크몰점,서울 용산구,서울특별시 용산구 한강대로23길 55,37.5297718,126.9647415
VRZONE CINEMA(브이알존 시네마),서울 강남구,서울특별시 강남구 도산대로11길 18,37.51863417,127.0227009
홍대난타전용관,서울 마포구,서울특별시 마포구 양화로16길 29,37.55319621,126.9211754
갤러리 라메르,서울 종로구,서울특별시 종로구 인사동5길 26,37.57258198,126.9848681
성균관대학교 박물관,서울 종로구,서울특별시 종로구 성균관로 25-2,37.58722841,126.9931151
주한 프랑스문화원,서울 중구,서울특별시 중구 칠패로 42,37.55947437,126.9735598
국립국악원,서울 서초구,서울특별시 서초구 남부순환로 2364,37.47771881,127.0098185
이리자 한복전시관,서울 종로구,서울특별시 종로구 삼청로 20,37.57761565,126.97997
브이알존 큐브 강남점,서울 서초구,서울특별시 서초구 서초대로77길 25,37.49993836,127.0255892
세종문화회관,서울 종로구,서울특별시 종로구 세종대로 175,37.57218604,126.9768172
금천구립금나래도서관,서울 금천구,서울특별시 금천구 시흥대로73길 70,37.45706565,126.8960369
김대중도서관,서울 마포구,서울특별시 마포구 신촌로4길 5-26,37.55698238,126.92959
서울시립대학교박물관,서울 동대문구,서울특별시 동대문구 서울시립대로 163,37.58257758,127.0599881
주한이탈리아문화원,서울 용산구,서울특별시 용산구 한남대로 98,37.53716704,127.0055166
가나아트센터,서울 종로구,서울특별시 종로구 평창30길 28,37.61218939,126.975179
덕성여자대학교박물관,서울 도봉구,서울특별시 도봉구 삼양로144길 33,37.64950908,127.0163952
서울대학교 치의학박물관,서울 종로구,서울특별시 종로구 대학로 101,37.58045239,126.9971964
조선일보미술관,서울 중구,서울특별시 중구 세종대로21길 61,37.56912031,126.9758862
국제갤러리,서울 종로구,서울특별시 종로구 삼청로 54,37.58072067,126.9805739
시간을 담다,서울 중구,서울특별시 중구 삼일대로8길 20-1,37.56267222,126.9901235
MoA 서울대학교미술관,서울 관악구,서울특별시 관악구 관악로 1,37.46803806,126.9592943
세계골프역사박물관,서울 강남구,서울특별시 강남구 테헤란로 528,37.50809527,127.062
이스라엘문화원,서울 서초구,서울특별시 서초구 서초대로74길 23,37.49561193,127.027091
동국대학교 박물관,서울 중구,서울특별시 중구 필동로1길 30,37.55893664,126.9987376
주한독일문화원,서울 용산구,서울특별시 용산구 소월로 132,37.55071315,126.9827115
경희대학교 중앙박물관,서울 동대문구,서울특별시 동대문구 경희대로 26,37.59394914,127.054891
축구전시관,서울 종로구,서울특별시 종로구 경희궁길 46,37.57349432,126.9691037
경희대학교 자연사박물관,서울 동대문구,서울특별시 동대문구 경희대로 26,37.59394914,127.054891
한국천주교순교자박물관,서울 마포구,서울특별시 마포구 토정로 6,37.54413544,126.9117936
두산아트센터,서울 종로구,서울특별시 종로구 종로33길 15,37.57181233,127.0010001
숙명여자대학교 박물관,서울 용산구,서울특별시 용산구 청파로47길 100,37.54547408,126.9650744
갤러리 현대,서울 종로구,서울특별시 종로구 삼청로 14,37.57730568,126.9798233
동덕여자대학교 박물관,서울 성북구,서울특별시 성북구 화랑로13길 60,37.60681483,127.0411763
성신여자대학교박물관,서울 성북구,서울특별시 성북구 보문로34다길 2,37.59165248,127.0221456
갤러리 시몬,서울 종로구,서울특별시 종로구 자하문로6길 20,37.57805383,126.9732515
동산방화랑,서울 종로구,서울특별시 종로구 인사동9길 35,37.57292776,126.9833776
이화여자대학교박물관,서울 서대문구,서울특별시 서대문구 이화여대길 52,37.56446452,126.9502888
성곡미술관,서울 종로구,서울특별시 종로구 경희궁길 42,37.57351051,126.9697036
상명대학교 박물관,서울 종로구,서울특별시 종로구 평창문화로 151,37.61058458,126.9757624
영동 예맥화랑,서울 강남구,서울특별시 강남구 강남대로 546,37.51086226,127.0218892
갤러리미,서울 강남구,서울특별시 강남구 압구정로 461,37.52525477,127.0472324
청작화랑,서울 강남구,서울특별시 강남구 압구정로 134,37.52435015,127.0235131
상원미술관,서울 종로구,서울특별시 종로구 평창31길 27,37.61162836,126.9765689
모인화랑,서울 종로구,서울특별시 종로구 인사동10길 13,37.57434335,126.9857216
