name,region,tel,keyword,photo,address,lat,lon
168계단,부산 동구,051-253-8253,"['168계단', '168계단모노레일', '경상권', '관광지', '부산여행', '역사공부', '역사를품은곳']",https://cdn.visitkorea.or.kr/img/call?cmd=VIEW&id=8c675227-b40a-49b7-af7a-6d0987706f50&thumb,부산광역시 동구 영초길191번길,35.11709239,129.0357869
25의용단,부산 수영구,051-752-2947,"['25의용단', '경상권', '관광지', '교과서속여행', '아이와함께', '역사', '역사공부']",https://cdn.visitkorea.or.kr/img/call?cmd=VIEW&id=11e28eb4-70a7-47e1-84db-e4af0344a7f0&thumb,부산광역시 수영구 연수로379번길 42,35.17155247,129.1135886
40계단 문화관광테마거리,부산 중구,051-600-4041,"['40계단문화관광테마거리', '걷기길', '관광지', '문화공간', '아이와함께', '역사공부']",https://cdn.visitkorea.or.kr/img/call?cmd=VIEW&id=fe5d21b4-67e7-4766-9342-3e8b756d58e3&thumb,부산광역시 중구 40계단길 일대,35.104979,129.034887
75광장,부산 영도구,051-419-4044,"['75광장', '걷기길', '경상권', '관광지', '바다전망', '산책길', '산책하기', '산책하기좋은곳']",https://cdn.visitkorea.or.kr/img/call?cmd=VIEW&id=12234de8-e9ea-466c-9a02-2af1c9a029eb&thumb,부산광역시 영도구 절영로 370,35.07158363,129.0578297
BIFF 광장,부산 중구,051-253-8523,"['BIFF광장', '걷기길', '경상권', '관광지', '남녀노소', '도심여행', '문화콘텐츠산업']",https://cdn.visitkorea.or.kr/img/call?cmd=VIEW&id=2b3e6cd9-870e-48f5-b791-2d524b7851f5&thumb,부산광역시 중구 남포길 4,35.09882664,129.029195
F1963,부산 수영구,051-756-1963,"['F1963', '경상권', '공연', '관광지', '문화콘텐츠산업', '복합문화공간', '산업관광']",https://cdn.visitkorea.or.kr/img/call?cmd=VIEW&id=b2276f83-7dc1-4fb9-b021-a02ae637145b&thumb,부산광역시 수영구 구락로123번길 20,35.17623459,129.1155671
가덕도 등대,부산 강서구,051-971-9710,"['가덕도등대', '가족여행', '경상권', '관광지', '부산광역시유형문화재', '자연']",https://cdn.visitkorea.or.kr/img/call?cmd=VIEW&id=bc0fb862-d2a2-4cad-b037-e19cf7f5acbb&thumb,부산광역시 강서구 대항동 가덕해안로 1237,35.0101775,128.826416
감천사(부산),부산 연제구,051-852-6904,"['관광지', '불교', '불교문화', '사찰', '사찰여행', '역사', '자연속으로', '자연환경']",https://cdn.visitkorea.or.kr/img/call?cmd=VIEW&id=ea9ec7f8-3319-4df8-a531-be9273ad68f7&thumb,부산광역시 연제구 묘봉산로 40,35.18341745,129.0909288
공수어촌체험마을,부산 기장군,051-723-1919,"['경상권', '공수어촌체험마을', '관광지', '바다낚시', '바다체험', '아이와함께']",https://cdn.visitkorea.or.kr/img/call?cmd=VIEW&id=cfbaf573-6e9b-45ab-8c8c-ab4e4f597dda&thumb,부산광역시 기장군 기장읍 공수해안길 13-2,35.18440352,129.2111952
관수옥과 초량왜관 터,부산 중구,051-600-4066,"['경상권', '관광지', '관수옥', '교과서속여행', '역사', '역사공부', '역사관광지']",https://cdn.visitkorea.or.kr/img/call?cmd=VIEW&id=14a6b951-5591-44ec-b8da-5a2a3a9cae43&thumb,부산광역시 중구 용두산길 37-55,35.1009303,129.0324433
광명사(부산),부산 부산진구,051-646-0843,"['관광지', '불교', '불교문화', '사찰', '사찰여행', '역사', '자연속으로', '자연환경']",https://cdn.visitkorea.or.kr/img/call?cmd=VIEW&id=null&thumb,부산광역시 부산진구 안창로14번길 46,35.14619836,129.0449436
광복로문화패션거리,부산 중구,051-253-8253,"['경상권', '관광지', '광복로문화패션거리', '도심여행', '복합문화공간', '산업관광']",https://cdn.visitkorea.or.kr/img/call?cmd=VIEW&id=19829fd9-3be6-4893-a973-5439433904f2&thumb,부산광역시 중구 광복동,35.09932,129.029681
광안리해변 테마거리,부산 수영구,051-610-4211,"['경치좋은곳', '관광지', '광안리해변', '광안리해수욕장', '바다경치', '산책길']",https://cdn.visitkorea.or.kr/img/call?cmd=VIEW&id=aa608f16-128a-4df5-9214-75e769d2b083&thumb,부산광역시 수영구 민락동,35.15726484,129.1254459
광안리해수욕장,부산 수영구,051-622-4251,"['가족여행', '관광지', '광안리해수욕장', '바다풍경', '아이와함께', '여름방학가볼만한곳']",https://cdn.visitkorea.or.kr/img/call?cmd=VIEW&id=c01f9332-0459-4452-ad1a-9fec058f34a9&thumb,부산광역시 수영구 광안해변로 219,35.1537736,129.1185205
구상반려암명소,부산 부산진구,051-888-3636,"['관광지', '부산지질공원', '생태관광', '생태관광지', '역사유적지', '체험학습']",https://cdn.visitkorea.or.kr/img/call?cmd=VIEW&id=59502124-0acf-4332-9329-b139f4815d13&thumb,부산광역시 부산진구 전포동 일대,35.16359065,129.0707501
구포만세거리,부산 북구,,"['관광지', '구포만세거리', '구포시장', '역사관광지', '이색거리']",https://cdn.visitkorea.or.kr/img/call?cmd=VIEW&id=a0f5df37-1ac8-4caa-9508-e51e5228fbdf&thumb,부산광역시 북구 구포동,35.20792928,129.0001514
국립 달음산자연휴양림,부산 기장군,051-722-3023,"['가족과함께', '관광지', '연인과함께', '자연', '자연관광지', '자연속으로', '자연여행']",https://cdn.visitkorea.or.kr/img/call?cmd=VIEW&id=592b7628-0800-4cd5-985e-bb8028c55028&thumb,부산광역시 기장군 일광면 화용길 299-106,35.30261054,129.1853042
국제시장 먹자골목,부산 중구,051-245-7389,"['가족여행', '경상권', '관광지', '국제시장먹자골목', '남녀노소', '맛집탐방', '먹거리']",https://cdn.visitkorea.or.kr/img/call?cmd=VIEW&id=aa87ee91-3dd3-461a-be3a-4e00c0ca4ea4&thumb,부산광역시 중구 중구로 36,35.10111637,129.0280599
국청사(부산),부산 금정구,051-517-5003,"['경상권', '관광지', '국청사', '불교', '불교문화', '사찰', '사찰여행', '역사', '연중무휴']",https://cdn.visitkorea.or.kr/img/call?cmd=VIEW&id=844d85b7-1dfd-41d9-b26d-c47931ba1db4&thumb,부산광역시 금정구 북문로 42,35.25353569,129.0546857
금강공원,부산 동래구,051-860-7880,"['가족과함께', '걷기길', '경상권', '관광지', '금강공원', '남녀노소', '박물관', '아이와함께']",https://cdn.visitkorea.or.kr/img/call?cmd=VIEW&id=b0e43311-902b-4f84-81fb-0df461f32a04&thumb,부산광역시 동래구 우장춘로 155,35.21963572,129.0757693
금강사(부산),부산 동래구,051-555-1383,"['경상권', '관광지', '금강사', '불교', '불교문화', '불교사찰', '사찰', '사찰여행']",https://cdn.visitkorea.or.kr/img/call?cmd=VIEW&id=e562a3de-7b3b-4057-b60a-4fe00ec0ae44&thumb,부산광역시 동래구 우장춘로 211,35.2249686,129.0771579
금강식물원,부산 금정구,051-582-3284,"['관광지', '자연']",https://cdn.visitkorea.or.kr/img/call?cmd=VIEW&id=e4a88435-d822-464e-888d-384b2c9bae3c&thumb,부산광역시 금정구 장전동 산 43-1,35.22644765,129.077112
금강암(부산),부산 금정구,051-519-4092,"['관광지', '역사', '역사공부', '역사관광지', '역사를품은곳', '역사문화재', '역사속']",https://cdn.visitkorea.or.kr/img/call?cmd=VIEW&id=87cfd4d8-6478-4a84-bbb8-010d838d84c5&thumb,부산광역시 금정구 범어사로 254,35.28158794,129.0651491
금련산,부산 수영구,051-253-8253,"['관광지', '자연']",https://cdn.visitkorea.or.kr/img/call?cmd=VIEW&id=eefd1222-fe7b-44ae-b7af-de5db7e2e8ed&thumb,부산광역시 수영구 광안동,35.161676,129.096103
금수사(부산),부산 동구,051-467-3316,"['관광지', '불교', '불교문화', '사찰', '사찰여행', '역사', '자연속으로', '자연환경']",https://cdn.visitkorea.or.kr/img/call?cmd=VIEW&id=null&thumb,부산광역시 동구 망양로 533-1,35.12004765,129.0294394
금용암(부산),부산 연제구,051-501-6300,"['관광지', '불교', '불교문화', '사찰', '사찰여행', '역사', '자연속으로', '자연환경']",https://cdn.visitkorea.or.kr/img/call?cmd=VIEW&id=8069a624-13f5-409d-a8b3-3e1887163b21&thumb,부산광역시 연제구 성지곡로 111,35.19159362,129.0496414
금정산 (부산 국가지질공원),부산 금정구,051-888-3636,"['경북_동해안_국가지질공원', '경치좋은곳', '관광지', '국가지질공원', '자연']",https://cdn.visitkorea.or.kr/img/call?cmd=VIEW&id=770d9819-30fb-4860-916e-f8fdbcd494cf&thumb,부산광역시 금정구 금성동,35.17992599,129.0750952
금정산명소,부산 금정구,051-888-3636,"['걷기길', '경상권', '관광지', '금정산', '금정산명소', '산성막걸리', '생태관광']",https://cdn.visitkorea.or.kr/img/call?cmd=VIEW&id=14030a57-c0a8-4b5d-9121-c6a9235eb36b&thumb,부산광역시 금정구 청룡동 일대,35.28318,129.055517
금정산성,부산 금정구,051-519-4092,"['가족여행', '관광지', '교과서속여행', '금정산성', '아이와함께', '역사', '역사공부']",https://cdn.visitkorea.or.kr/img/call?cmd=VIEW&id=387a8c61-1f7f-4958-9f8e-452d6e3cba4a&thumb,부산광역시 금정구 금성동,35.275666,129.057472
금정산성마을 먹거리촌,부산 금정구,,"['가족과함께', '관광지', '금정산성', '남녀노소', '맛집골목', '맛집탐방', '부산가볼만한곳']",https://cdn.visitkorea.or.kr/img/call?cmd=VIEW&id=28acb782-8707-4a7c-b493-578709ee5ff0&thumb,부산광역시 금정구 금성동,35.275684,129.057504
금정선원,부산 동래구,051-555-1208,"['관광지', '불교', '불교문화', '사찰', '사찰여행', '역사', '자연속으로', '자연환경']",https://cdn.visitkorea.or.kr/img/call?cmd=VIEW&id=c15ccaca-155c-49e5-bb6a-ea247ee402d1&thumb,부산광역시 동래구 우장춘로 157-59,35.22175312,129.0742307
기장향교,부산 기장군,051-709-4061,"['경상권', '관광지', '교과서속여행', '기장향교', '역사', '역사공부', '역사관광지']",https://cdn.visitkorea.or.kr/img/call?cmd=VIEW&id=caf0ac8b-5447-423d-a9f5-d985cb6a12a6&thumb,부산광역시 기장군 기장읍 차성로417번길 35,35.25736086,129.2160733
김민부전망대,부산 동구,051-253-8253,"['감성사진', '경치좋은곳', '관광지', '부산가볼만한곳', '부산데이트', '부산데이트']",https://cdn.visitkorea.or.kr/img/call?cmd=VIEW&id=ae7a5f88-f35c-402c-bf74-0cf5aa82b02a&thumb,부산광역시 동구 영초윗길26번길 14,35.11765406,129.0353063
깡깡이 예술마을,부산 영도구,051-418-1863,"['문화공간', '가족과함께', '관광지', '문화예술', '문화예술공간', '부산가볼만한곳']",https://cdn.visitkorea.or.kr/img/call?cmd=VIEW&id=f7e7a2e8-3084-49f7-973d-8bba4ab517f2&thumb,부산광역시 영도구 대평로27번길 8-8,35.0912404,129.0339417
낙동강문화관,부산 사하구,051-292-1042,"['가족여행', '경상권', '관광지', '교육장', '교육프로그램', '낙동강', '낙동강문화관']",https://cdn.visitkorea.or.kr/img/call?cmd=VIEW&id=3cfb747c-231d-4cdc-94d8-3b657633b598&thumb,부산광역시 사하구 낙동남로1233번길 1,35.10825308,128.9474192
낙동강하구명소,부산 사하구,051-888-3636,"['걷기길', '걷기여행', '경상권', '관광지', '낙동강', '생태관광', '생태관광지', '전망대']",https://cdn.visitkorea.or.kr/img/call?cmd=VIEW&id=afc4ed96-afbd-46a4-bee8-715783a9c78f&thumb,부산광역시 사하구 낙동남로 1240,35.10449124,128.9459812
낙동강하구에코센터,부산 사하구,051-209-2000,"['걷기길', '겨울방학가볼만한곳', '관광지', '교육여행', '낙동강하구에코센터']",https://cdn.visitkorea.or.kr/img/call?cmd=VIEW&id=23ee0695-6374-4ece-81b3-1bcc244de6a2&thumb,부산광역시 사하구 낙동남로 1240,35.10449124,128.9459812
남도해양관광열차 S-트레인(S-train),부산 동구,1544-7788,"['관광지', '남도바다', '바다열차', '부산', '부산여행', '연인과함께', '체험', '친구와함께']",https://cdn.visitkorea.or.kr/img/call?cmd=VIEW&id=407da3da-b83b-44e9-8d9f-a33fe2f06d31&thumb,부산광역시 동구 중앙대로 206,35.11811178,129.0448725
남선창고터,부산 동구,051-440-4064,"['경상권', '관광지', '남선창고터', '명태고방', '역사', '역사공부', '역사관광지']",https://cdn.visitkorea.or.kr/img/call?cmd=VIEW&id=28e8943b-7a51-462f-a8eb-3ec585dca5fe&thumb,부산광역시 동구 초량로13번길 53,35.11680616,129.039515
내원정사(부산),부산 서구,051-242-0691,"['관광지', '불교', '불교문화', '역사', '역사관광지', '자연좋은곳', '자연환경', '종교']",https://cdn.visitkorea.or.kr/img/call?cmd=VIEW&id=0b07b840-21eb-4708-b2d9-4d80fe7435ea&thumb,부산광역시 서구 엄광산로40번길 121-22,35.1281422,129.011539
다대포 꿈의 낙조분수,부산 사하구,051-220-5893,"['가족여행', '경상권', '관광지', '다대포꿈의낙조분수', '사진찍기좋은곳', '야간관광100선']",https://cdn.visitkorea.or.kr/img/call?cmd=VIEW&id=667d5cf7-5fa4-482c-9769-fe3742b7f2e5&thumb,부산광역시 사하구 몰운대1길 14,35.04637785,128.9680031
다대포해수욕장,부산 사하구,051-207-6041,"['가족여행', '관광지', '다대포해수욕장', '바다풍경', '아이와함께', '언택트관광지_100선']",https://cdn.visitkorea.or.kr/img/call?cmd=VIEW&id=48999eca-2b44-48c3-85d1-050a6358769f&thumb,부산광역시 사하구 몰운대1길 14,35.04637785,128.9680031
닥터 아난티 의원,부산 기장군,051-604-7241,"['건강여행', '관광지', '남녀노소', '부모님과함께', '뷰티의원', '이색체험', '체험프로그램']",https://cdn.visitkorea.or.kr/img/call?cmd=VIEW&id=9e066787-9fa6-4e33-b3db-b81ddbf7201f&thumb,부산광역시 기장군 기장읍 기장해안로 268-32,35.19819289,129.2285845
당산,부산 동구,051-440-4064,"['관광지', '역사', '역사공부', '역사관광지', '역사를품은곳', '역사문화재', '역사속']",https://cdn.visitkorea.or.kr/img/call?cmd=VIEW&id=c47e116f-f826-4fd4-8f1f-14db44a5ef46&thumb,부산광역시 동구 망양로478번길 13,35.1172242,129.0343642
대각사(부산),부산 중구,051-245-8781,"['관광지', '불교', '불교문화', '사찰', '사찰여행', '역사', '자연속으로', '자연환경']",https://cdn.visitkorea.or.kr/img/call?cmd=VIEW&id=bd124b12-5354-46ec-b9ed-04806950858d&thumb,부산광역시 중구 광복중앙로 21,35.10130797,129.0306539
대변마을,부산 기장군,051-253-8253,"['경상권', '관광지', '대변마을', '어촌마을', '자연']",https://cdn.visitkorea.or.kr/img/call?cmd=VIEW&id=76b1219d-cbe8-405d-a4ed-299d7df5f011&thumb,부산 기장군 기장읍 대변리,35.22597052,129.2292721
대저생태공원,부산 강서구,051-971-6011,"['4월추천가볼만한곳', '가족여행', '경상권', '관광지', '꽃여행', '나들이', '대저생태공원']",https://cdn.visitkorea.or.kr/img/call?cmd=VIEW&id=92c374c5-a440-4604-8d3c-6097d87d3999&thumb,부산광역시 강서구 공항로 1246,35.20985007,128.9845569
대천천,부산 북구,051-309-4382,"['관광지', '자연']",https://cdn.visitkorea.or.kr/img/call?cmd=VIEW&id=1661d829-0946-48de-8a99-2497db33e2c1&thumb,부산 북구 화명동 172,35.2437653,129.0278901
대항 어촌체험 휴양마을,부산 강서구,010-3570-1036,"['관광지', '바다낚시', '바다내음', '바다전망', '바다체험', '바다향기로', '아이와함께']",https://cdn.visitkorea.or.kr/img/call?cmd=VIEW&id=84baf98c-0bb2-4aef-9e01-c3e5dfdca047&thumb,부산광역시 강서구 가덕해안로1207번길 9-2,35.01166067,128.8276549
더베이101,부산 해운대구,051-726-8888,"['경상권', '관광지', '더베이101', '데이트장소추천', '문화예술공간', '아이와함께']",https://cdn.visitkorea.or.kr/img/call?cmd=VIEW&id=6dd3374c-45a5-457f-b294-becfca495f6e&thumb,부산광역시 해운대구 동백로 52,35.15658328,129.1520691
동래온천 노천족탕,부산 동래구,051-550-6602,"['가족여행', '경상권', '관광지', '남녀노소', '동래온천노천족탕', '부산가볼만한곳']",https://cdn.visitkorea.or.kr/img/call?cmd=VIEW&id=ac9961b9-b0b6-4e78-95b3-af9e4e59db9f&thumb,부산광역시 동래구 금강공원로26번길 21,35.22001138,129.0814402
동래읍성지,부산 동래구,051-550-4084,"['관광지', '부산야경', '야간관광100선', '야경명소', '야경여행', '야경좋은곳']",https://cdn.visitkorea.or.kr/img/call?cmd=VIEW&id=fa095ad4-6d48-4e7e-aaeb-73964e06d411&thumb,부산광역시 동래구 칠산동,35.210097,129.090175
동래향교,부산 동래구,051-552-4160,"['경상권', '관광지', '교과서속여행', '동래향교', '문화재', '역사', '역사공부', '역사관광지']",https://cdn.visitkorea.or.kr/img/call?cmd=VIEW&id=2ac2feb8-3ea0-4b4c-ad0c-017f8ac14633&thumb,부산광역시 동래구 동래로 103,35.20770139,129.0840987
동백공원,부산 해운대구,051-749-4491,"['걷기길', '관광지', '동백공원', '바다풍경', '연인과함께', '연중무휴', '자연좋은곳']",https://cdn.visitkorea.or.kr/img/call?cmd=VIEW&id=689c5a8c-bc24-4c87-9f3f-2cde5375a6d8&thumb,부산광역시 해운대구 우동,35.153556,129.15195
두송반도명소,부산 사하구,051-888-3636,"['걷기길', '경상권', '관광지', '두송반도', '생태관광', '생태관광지', '역사유적지']",https://cdn.visitkorea.or.kr/img/call?cmd=VIEW&id=de4ef13c-e73e-4242-addf-74d730800477&thumb,부산광역시 사하구 다대동 일대,35.17992599,129.0750952
마린시티,부산 해운대구,051-749-5700,"['관광지', '데이트명소', '마린시티', '부산야경', '부산야경좋은곳', '부산야경포인트']",https://cdn.visitkorea.or.kr/img/call?cmd=VIEW&id=97e99fcc-387c-4e41-a84b-e6fae5eebfe7&thumb,부산광역시 해운대구 우동,35.155378,129.145921
마하사(부산),부산 연제구,051-852-2436,"['경상권', '관광지', '마하사', '불교', '불교문화', '사찰', '사찰여행', '역사', '자연속으로']",https://cdn.visitkorea.or.kr/img/call?cmd=VIEW&id=308fdc88-f88d-4b84-9ec3-fb4ddb3836c7&thumb,부산광역시 연제구 봉수로 138,35.16387048,129.0872597
맥도생태공원,부산 강서구,051-941-9728,"['걷기길', '경상권', '관광지', '꽃여행', '나들이', '맥도생태공원', '봄꽃여행', '생태관광']",https://cdn.visitkorea.or.kr/img/call?cmd=VIEW&id=d16687bf-55a0-407a-a658-3151f898a280&thumb,부산광역시 강서구 공항로 500,35.15231936,128.9549081
메이커스튜디오,부산 부산진구,051-622-0515,"['경상권', '관광지', '메이커스튜디오', '산업관광', '산업관광지', '이색체험', '체험여행']",https://cdn.visitkorea.or.kr/img/call?cmd=VIEW&id=9d56d5b2-a51a-49b8-94f8-76988a931bd9&thumb,부산광역시 부산진구 동천로 116,35.15905721,129.0626345
몰운대 (부산 국가지질공원),부산 사하구,051-888-3636,"['관광지', '국가지질공원', '명승지', '몰운도', '부산_국가지질공원', '사진찍기']",https://cdn.visitkorea.or.kr/img/call?cmd=VIEW&id=a0e96b1b-84f2-4f6a-9cfd-b689899d6b47&thumb,부산광역시 사하구 다대동,35.17992599,129.0750952
몰운대명소,부산 사하구,051-888-3636,"['걷기길', '관광지', '몰운대', '생태관광', '생태관광지', '힐링&휴양여행']",https://cdn.visitkorea.or.kr/img/call?cmd=VIEW&id=75d0bf70-e269-4a5d-9a7e-edd91209817b&thumb,부산광역시 사하구 다대동 일대,35.0442995,128.9694173
묘심사(부산),부산 동구,051-467-2390,"['관광지', '불교', '불교문화', '사찰', '사찰여행', '역사', '자연속으로', '자연환경']",https://cdn.visitkorea.or.kr/img/call?cmd=VIEW&id=null&thumb,부산광역시 동구 망양로 671,35.12667824,129.0393785
무민사,부산 남구,051-607-4064,"['관광지', '역사', '역사공부', '역사관광지', '역사를품은곳', '역사문화재', '역사속']",https://cdn.visitkorea.or.kr/img/call?cmd=VIEW&id=a825a2e3-8bcb-452b-8add-49534c301718&thumb,부산광역시 남구 무민사로33번길 11-15,35.11296278,129.0804206
미륵사(부산),부산 금정구,051-508-4707,"['관광지', '불교', '불교문화', '사찰', '사찰여행', '역사', '자연속으로', '자연환경']",https://cdn.visitkorea.or.kr/img/call?cmd=VIEW&id=undefined&thumb,부산광역시 금정구 북문로 126,35.2741519,129.0493159
민락수변공원,부산 수영구,051-441-6565,"['가족여행', '걷기길', '경상권', '관광지', '민락수변공원', '바다풍경', '연인과함께']",https://cdn.visitkorea.or.kr/img/call?cmd=VIEW&id=07187b91-9bbe-4f44-b686-2204ea699096&thumb,부산광역시 수영구 광안해변로 361,35.15635378,129.1313378
민주공원,부산 중구,051-790-7400,"['걷기길', '경상권', '관광지', '교과서속여행', '기념관', '문화행사', '민주공원']",https://cdn.visitkorea.or.kr/img/call?cmd=VIEW&id=a8c90977-4415-4e8c-befc-4e860e68516d&thumb,부산광역시 중구 민주공원길 19,35.1096845,129.0280278
백양산명소,부산 부산진구,051-888-3636,"['경상권', '관광지', '백양산', '백양산명소', '생태관광', '생태관광지', '트레킹']",https://cdn.visitkorea.or.kr/img/call?cmd=VIEW&id=d6d07b65-7fc7-46c2-9970-1479f9071e76&thumb,부산광역시 부산진구 초읍동 일대,35.183299,129.026496
범어사(부산),부산 금정구,051-508-3122,"['가족여행', '관광지', '범어사', '사찰&산사', '아이와함께', '역사', '역사유적지']",https://cdn.visitkorea.or.kr/img/call?cmd=VIEW&id=e0efca66-4e8d-41fc-ac68-363d548a6974&thumb,부산광역시 금정구 범어사로 250,35.2841102,129.0692288
법륜사(부산),부산 동래구,051-553-7771,"['경상권', '관광지', '법륜사', '불교', '불교문화', '사찰', '사찰여행', '역사', '연중무휴']",https://cdn.visitkorea.or.kr/img/call?cmd=VIEW&id=9f0cab64-c352-4104-9e84-e65f8f56a3e5&thumb,부산광역시 동래구 동래로 162,35.20381239,129.0884651
보광사(부산),부산 동구,051-646-6461,"['관광지', '불교', '불교문화', '사찰', '사찰여행', '역사', '자연속으로', '자연환경']",https://cdn.visitkorea.or.kr/img/call?cmd=VIEW&id=0408a4ab-6559-4205-b8fb-708311a0c431&thumb,부산광역시 동구 범상로1번길 35,35.14096282,129.0468423
봉래산(부산),부산 영도구,051-253-8253,"['관광지', '자연']",https://cdn.visitkorea.or.kr/img/call?cmd=VIEW&id=null&thumb,부산광역시 영도구 청학동,35.082037,129.055223
부산 가톨릭 특성화 거리,부산 금정구,051-515-5811,"['가톨릭', '관광지', '역사를품은곳', '역사속으로', '역사이야기', '역사탐방', '역사탐험']",https://cdn.visitkorea.or.kr/img/call?cmd=VIEW&id=39e3be13-5177-4e31-b647-aa9a98acffc0&thumb,부산광역시 금정구 오륜대로 57,35.24426588,129.0974455
부산 감천문화마을,부산 사하구,051-204-1444,"['15_16한국관광100선', '17_18한국관광100선', '19_20한국관광100선', '가족여행']",https://cdn.visitkorea.or.kr/img/call?cmd=VIEW&id=c891faae-3ba3-4f74-81a5-2174fe0a2019&thumb,부산광역시 사하구 감내2로 203,35.0974697,129.0105927
부산 복천동 고분군,부산 동래구,051-554-4263,"['경상권', '관광지', '교과서속여행', '복천동고분군', '역사', '역사유적지']",https://cdn.visitkorea.or.kr/img/call?cmd=VIEW&id=b2f799d6-e030-4c9e-acad-0b7f7266ad2e&thumb,부산광역시 동래구 복천로 66,35.20731614,129.0917341
부산 부평 족발 골목,부산 중구,051-441-3121,"['경상권', '관광지', '부평족발골목', '음식테마거리', '체험']",https://cdn.visitkorea.or.kr/img/call?cmd=VIEW&id=eed58e24-1b0c-4b01-ad21-da00d8fae63b&thumb,부산광역시 중구 광복로12번길 3,35.09919519,129.0264223
부산 송도해상케이블카,부산 서구,051-247-9900,"['경상권', '관광지', '바다', '송도해상케이블카', '송도해수욕장', '야간관광100선']",https://cdn.visitkorea.or.kr/img/call?cmd=VIEW&id=c07403bc-2f2a-4247-92e8-f402ac3c6a7e&thumb,부산광역시 서구 송도해변로 171,35.07664309,129.0233986
부산 송도해수욕장,부산 서구,051-240-4126,"['가족여행', '관광지', '바다풍경', '부산송도해수욕장', '아이와함께', '여름방학가볼만한곳']",https://cdn.visitkorea.or.kr/img/call?cmd=VIEW&id=91340335-522d-4be8-9529-70d7ade17000&thumb,부산광역시 서구 송도해변로 50,35.07415957,129.0161688
부산 수정동 일본식 가옥,부산 동구,051-440-4064,"['경상권', '관광지', '부산수정동일본식가옥', '역사', '역사공부', '역사관광지']",https://cdn.visitkorea.or.kr/img/call?cmd=VIEW&id=f45945df-7327-4603-b57f-481a822c3592&thumb,부산광역시 동구 홍곡로 75,35.12546792,129.0425684
부산 암남공원,부산 서구,051-240-4538,"['걷기길', '관광지', '바다풍경', '부산암남공원', '산책길', '산책하기', '산책하기좋은곳']",https://cdn.visitkorea.or.kr/img/call?cmd=VIEW&id=69640e80-c702-4815-9bb9-92366d78e28e&thumb,부산광역시 서구 암남공원로 185,35.06151288,129.013125
부산 에덴공원,부산 사하구,051-220-4525,"['공원', '관광지', '산책길', '산책코스', '산책하기', '산책하기좋은곳', '아침운동']",https://cdn.visitkorea.or.kr/img/call?cmd=VIEW&id=7d5a1920-e9e8-48bc-939d-086f5640a1c8&thumb,부산광역시 사하구 하단동,35.109089,128.96329
부산 영화의 전당,부산 해운대구,051-780-6000,"['견학', '경상권', '공연', '공연장', '관광지', '복합문화공간', '부산영화의전당']",https://cdn.visitkorea.or.kr/img/call?cmd=VIEW&id=58af7f4b-4df1-4fbf-bd41-621d566bc5b2&thumb,부산광역시 해운대구 수영강변대로 120,35.17103715,129.127084
부산 올림픽동산,부산 해운대구,051-749-5600,"['걷기길', '관광지', '데이트코스', '복합문화공간', '부산올림픽동산', '산책길']",https://cdn.visitkorea.or.kr/img/call?cmd=VIEW&id=c6ae4670-d718-425f-b826-72b29b730d85&thumb,부산광역시 해운대구 APEC로 58,35.16668703,129.1370271
부산 자갈치 양곱창 골목,부산 중구,,"['곱창골목', '곱창전골', '관광지', '맛집', '맛집투어', '먹자골목', '부산가볼만한곳']",https://cdn.visitkorea.or.kr/img/call?cmd=VIEW&id=ad190d01-0772-4f4d-97bb-7e8999f43fe5&thumb,부산광역시 중구 구덕로 73,35.09713705,129.0271532
부산 중앙공원,부산 서구,051-860-7800,"['걷기길', '경상권', '관광지', '기념관', '대청공원', '부산중앙공원', '산책하기좋은곳']",https://cdn.visitkorea.or.kr/img/call?cmd=VIEW&id=1851d823-4893-4edc-892e-60c9992504a9&thumb,부산광역시 서구 망양로193번길 187,35.11229547,129.0279654
부산 진지성,부산 동구,051-441-6565,"['관광지', '역사', '역사공부', '역사관광지', '역사를품은곳', '역사문화재', '역사속']",https://cdn.visitkorea.or.kr/img/call?cmd=VIEW&id=bfd3ca97-32b6-49a1-a100-cd931c21eb86&thumb,부산광역시 동구 자성로 99 (범일동),35.13574252,129.0604498
부산 차이나타운특구(상해문.상해거리),부산 동구,051-749-5700,"['가족과함께', '걷기길', '경상권', '관광지', '맛집투어', '부산차이나타운특구']",https://cdn.visitkorea.or.kr/img/call?cmd=VIEW&id=72632413-30cb-4d6e-81d2-61147334e134&thumb,부산광역시 동구 중앙대로179번길 1,35.11339245,129.038536
부산 치유의 숲,부산 기장군,051-976-2831,"['가족과함께', '관광지', '국내힐링여행', '부산여행', '언택트관광지_100선', '자연속으로']",https://cdn.visitkorea.or.kr/img/call?cmd=VIEW&id=587fb26f-3e83-4b6f-b366-5824ce1d2764&thumb,부산광역시 기장군 철마면 철마천로 101,35.26947858,129.1295656
부산 티파니21 크루즈 유람선,부산 해운대구,051-743-2500,"['가족여행', '경상권', '관광지', '유람선', '자연여행', '자연풍경', '자연환경', '티파니21크루즈유람선']",https://cdn.visitkorea.or.kr/img/call?cmd=VIEW&id=b50c9cb0-39ee-48c3-9ffe-d0c65aae45bc&thumb,부산광역시 해운대구 마린시티1로 168,35.15700846,129.1500659
부산 해운대 관광 유람선(오륙도),부산 해운대구,1688-3353,"['경치좋은곳', '관광지', '바다경치', '부산여행', '오륙도', '유람선', '자연속으로']",https://cdn.visitkorea.or.kr/img/call?cmd=VIEW&id=258c921c-970f-49a7-a861-217085826b4b&thumb,부산광역시 해운대구 달맞이길62번길 33-1,35.158439,129.170655
부산광안대교,부산 수영구,051-780-0077,"['경상권', '경치좋은곳', '관광지', '데이트장소', '데이트코스', '부산광안대교']",https://cdn.visitkorea.or.kr/img/call?cmd=VIEW&id=6b393ecc-23d1-4824-ac26-9b8bf3704d87&thumb,부산광역시 해운대구 수영강변대로 203,35.17716312,129.1205557
부산대교,부산 영도구,051-600-4000,"['가족여행', '경상권', '경치좋은곳', '관광지', '드라이브여행', '바다', '부산대교']",https://cdn.visitkorea.or.kr/img/call?cmd=VIEW&id=71b10d41-6250-4d49-945e-57bd5b61a7ef&thumb,부산광역시 영도구 남항로9번길 41,35.09162347,129.0385752
부산동명불원,부산 남구,051-626-4337,"['가족여행', '관광지', '부산동명불원', '불교', '불교문화', '불교사찰', '사찰', '사찰&산사']",https://cdn.visitkorea.or.kr/img/call?cmd=VIEW&id=3df57c64-45a2-476d-9041-8a825d4f5903&thumb,부산광역시 남구 동명로 57,35.11908338,129.1034316
부산시민공원,부산 부산진구,051-850-6000,"['가족과함께', '공원', '관광지', '나들이(피크닉)', '아이와함께', '휴양관광지']",https://cdn.visitkorea.or.kr/img/call?cmd=VIEW&id=4c388e17-403d-44c6-8407-9b08bae32ae3&thumb,부산광역시 부산진구 시민공원로 73,35.16814819,129.0540094
부산어린이대공원,부산 부산진구,051-860-7848,"['가족여행', '걷기여행', '관광지', '나들이', '부산어린이대공원', '사계절', '아이와함께']",https://cdn.visitkorea.or.kr/img/call?cmd=VIEW&id=d9e8e896-91d1-4f32-b05d-d383d8f61783&thumb,부산광역시 부산진구 새싹로 295,35.18847007,129.0423059
부산엑스더스카이,부산 해운대구,051-731-0098,"['가족과함께', '경치좋은곳', '관광지', '남녀노소', '부산가볼만한곳', '연인과함께']",https://cdn.visitkorea.or.kr/img/call?cmd=VIEW&id=f0a766ff-84f5-4862-a0cb-99834907a272&thumb,부산광역시 해운대구 달맞이길 30,35.15993488,129.1697478
부산영화체험박물관,부산 중구,051-715-4200,"['경상권', '관광지', '박물관', '복합문화공간', '부산영화체험박물관', '산업관광']",https://cdn.visitkorea.or.kr/img/call?cmd=VIEW&id=2a594b3e-2219-47de-8076-95b89895f92f&thumb,부산광역시 중구 대청로126번길 12,35.10169117,129.0335916
부산영화촬영스튜디오,부산 해운대구,051-720-0323,"['가족과함께', '견학프로그램', '경상권', '관광지', '교육여행', '문화콘텐츠산업']",https://cdn.visitkorea.or.kr/img/call?cmd=VIEW&id=05a146d1-9ff2-4532-96df-f10755cecd67&thumb,부산광역시 해운대구 해운대해변로 52,35.16190706,129.1380593
부산진일신여학교,부산 동구,051-635-7113,"['경상권', '관광지', '교과서속여행', '부산진일신여학교', '역사', '역사공부', '역사를품은곳']",https://cdn.visitkorea.or.kr/img/call?cmd=VIEW&id=184dc1e3-890d-4bde-9101-37e288f07b7f&thumb,부산광역시 동구 정공단로17번길 17,35.13491784,129.0529839
부산차량융합기술단(부산철도차량정비단),부산 부산진구,051-895-3780,"['경상권', '관광지', '부산차량융합기술단', '산업관광', '산업관광지', '안전교육']",https://cdn.visitkorea.or.kr/img/call?cmd=VIEW&id=093339b1-fabc-42b4-a6e0-2be92e79539f&thumb,부산광역시 부산진구 신천대로 215,35.16003525,129.0423357
부산타워,부산 중구,051-661-9393,"['경치좋은곳', '관광지', '부산경치', '부산데이트', '부산여행', '부산타워', '연인과함께']",https://cdn.visitkorea.or.kr/img/call?cmd=VIEW&id=2930593d-fa66-431a-ac3d-3b3d204176b3&thumb,부산광역시 중구 용두산길 37-55,35.1009303,129.0324433
북맛골,부산 금정구,051-519-4423,"['골목여행', '관광지', '남녀노소', '맛골목', '맛집골목', '맛집투어', '먹자골목']",https://cdn.visitkorea.or.kr/img/call?cmd=VIEW&id=fb6183be-1561-48e1-acff-839497e5bb80&thumb,부산광역시 금정구 명서로85번길 6,35.21408898,129.099459
브이알존 엘큐브 광복점,부산 중구,070-4106-3348,"['VR체험', '관광지', '남녀노소', '실내관광지', '실내데이트', '실내레포츠', '아이가_좋아하는_여행']",https://cdn.visitkorea.or.kr/img/call?cmd=VIEW&id=9229daaf-abe0-4007-8713-bd67b61f71a5&thumb,부산광역시 중구 광복로 79-1,35.09867838,129.0337012
산복도로,부산 중구,051-749-5700,"['경치좋은곳', '관광지', '데이트명소', '부산야경', '부산야경좋은곳', '산책코스']",https://cdn.visitkorea.or.kr/img/call?cmd=VIEW&id=e69eb9a2-c0f0-47e2-a67c-a3a3d4e5c325&thumb,부산광역시 중구,35.11454435,129.0330508
삼광사,부산 부산진구,051-808-7111,"['관광지', '불교문화', '사찰여행', '역사', '전통사찰', '종교', '한국불교', '휴식하기좋은곳']",https://cdn.visitkorea.or.kr/img/call?cmd=VIEW&id=a266dfb4-f814-4370-9bd2-278bfe25ab72&thumb,부산광역시 부산진구 초읍천로43번길 77,35.17557198,129.0434156
삼락생태공원,부산 사상구,051-303-0048,"['가족여행', '걷기길', '걷기여행', '경상권', '공원', '관광지', '사계절', '삼락생태공원']",https://cdn.visitkorea.or.kr/img/call?cmd=VIEW&id=35fa127e-d1d8-4247-8aac-c84730a3c470&thumb,부산광역시 사상구 삼락동,35.1770248,128.9776229
삼진어묵체험·역사관,부산 영도구,051-412-5468,"['가족과함께', '경상권', '관광지', '산업관광', '산업관광지', '삼진어묵', '삼진어묵체험관']",https://cdn.visitkorea.or.kr/img/call?cmd=VIEW&id=e08da6a3-b8af-47a5-8e5b-2ea909a49007&thumb,부산광역시 영도구 태종로99번길 36,35.09295509,129.0427812
서면1번가,부산 부산진구,051-605-4091,"['경상권', '관광지', '도심여행', '먹거리', '문화행사', '미식여행', '서면1번가', '주류']",https://cdn.visitkorea.or.kr/img/call?cmd=VIEW&id=01eb9823-8048-4a9d-b6e2-27d4bf472b9f&thumb,부산광역시 부산진구 신천대로62번길 61,35.15355491,129.0582795
선광사(부산),부산 사상구,051-302-5657,"['관광지', '불교', '불교문화', '사찰', '사찰여행', '역사', '자연속으로', '자연환경']",https://cdn.visitkorea.or.kr/img/call?cmd=VIEW&id=undefined&thumb,부산광역시 사상구 백양대로804번길 42-123,35.17724631,128.995387
선암사(부산),부산 부산진구,051-803-7573,"['관광지', '나홀로여행', '불교', '불교문화', '사찰', '산사', '선암사(부산)', '역사']",https://cdn.visitkorea.or.kr/img/call?cmd=VIEW&id=8335c2c1-5aee-4543-84b3-351961f08475&thumb,부산광역시 부산진구 백양산로 138,35.17565903,129.0271258
성암사(부산),부산 남구,051-635-3744,"['경상권', '관광지', '불교', '불교문화', '불교문화', '사찰', '사찰여행', '성암사']",https://cdn.visitkorea.or.kr/img/call?cmd=VIEW&id=b202d89b-0997-4c04-a7f9-4cdcaa223f80&thumb,부산광역시 남구 진남로210번길 58-15,35.14572883,129.0797779
소름요,부산 기장군,051-722-0018,"['가족과함께', '공예체험', '관광지', '도자기만들기체험', '도자기체험', '아이와함께']",https://cdn.visitkorea.or.kr/img/call?cmd=VIEW&id=2542a7b9-b05f-4c42-a83c-1d814ec5a58a&thumb,부산광역시 기장군 기장읍 기장해안로 1014,35.24338274,129.2414945
소림사(부산),부산 동구,051-253-8253,"['관광지', '불교', '불교문화', '사찰', '사찰여행', '역사', '자연속으로', '자연환경']",https://cdn.visitkorea.or.kr/img/call?cmd=VIEW&id=92f90f9a-f47c-4585-931d-260bfe17971d&thumb,부산광역시 동구 초량상로65번길 7,35.11761053,129.0373177
송도마을,부산 서구,051-240-6661,"['경상권', '관광지', '송도마을', '송도해수욕장', '어촌마을', '자연']",https://cdn.visitkorea.or.kr/img/call?cmd=VIEW&id=6abded51-7e0d-446a-b3ec-eb30cc3b193c&thumb,부산 서구 암남동,35.07992309,129.0209682
송도반도 (부산 국가지질공원),부산 서구,051-888-3636,"['경치좋은곳', '관광지', '국가지질공원', '바다경치', '바다내음', '부산_국가지질공원']",https://cdn.visitkorea.or.kr/img/call?cmd=VIEW&id=0d11ed06-6810-445a-a180-534040608924&thumb,부산광역시 서구 암남동,35.06994167,129.020083
송도반도명소,부산 서구,051-888-3636,"['걷기길', '관광지', '생태관광', '생태관광지', '송도반도', '송도해수욕장', '암남공원']",https://cdn.visitkorea.or.kr/img/call?cmd=VIEW&id=020aae3a-d839-425b-8348-a0366ee51e5e&thumb,부산광역시 서구 암남동 일대,35.06994167,129.020083
송정 죽도공원,부산 해운대구,051-749-5800,"['가족여행', '관광지', '나들이', '데이트코스', '바다풍경', '송정죽도공원', '아이와함께']",https://cdn.visitkorea.or.kr/img/call?cmd=VIEW&id=0deef10d-5bb9-4e35-b068-83ec75cab0fa&thumb,부산광역시 해운대구 송정동,35.180242,129.205155
송정해수욕장,부산 해운대구,051-749-7612,"['가족과함께', '경상권', '관광지', '바다경치', '바다풍경', '송정해수욕장', '여름피서지']",https://cdn.visitkorea.or.kr/img/call?cmd=VIEW&id=e599214b-56d9-4cf7-b028-924f663e37c1&thumb,부산광역시 해운대구 송정해변로 62,35.17941032,129.199478
수리조선소길,부산 영도구,,"['가족과함께', '경상권', '관광지', '남녀노소', '수리조선소길', '아이와함께', '역사속']",https://cdn.visitkorea.or.kr/img/call?cmd=VIEW&id=496f259d-554f-414f-ae32-cbabab06135b&thumb,부산광역시 영도구 대평로 42,35.09234996,129.0334551
수미르공원,부산 중구,051-609-6310,"['경상권', '관광지', '도심여행', '문화행사', '바다풍경', '산책하기', '산책하기좋은곳']",https://cdn.visitkorea.or.kr/img/call?cmd=VIEW&id=89e4f5a7-4c46-4d44-9e58-92d14c979461&thumb,부산광역시 중구 대교로 122,35.10095838,129.038597
수영사적공원,부산 수영구,051-610-4067,"['가족여행', '걷기길', '관광지', '산책길', '산책하기', '수영사적공원', '자연속으로']",https://cdn.visitkorea.or.kr/img/call?cmd=VIEW&id=3a8adc42-61e4-4e3b-98c8-98d823cc19e1&thumb,부산광역시 수영구 수영성로 43,35.17121167,129.1139538
스파랜드 센텀시티,부산 해운대구,1668-2850,"['가족과함께', '경상권', '관광지', '뷰티&스파', '스파랜드센텀시티', '실내여행지']",https://cdn.visitkorea.or.kr/img/call?cmd=VIEW&id=bd1d19be-25d4-46bf-a0c3-b8a9fec29242&thumb,부산광역시 해운대구 센텀남대로 35,35.16881799,129.1295226
스포원파크,부산 금정구,1577-0880,"['가족여행', '관광지', '남녀노소', '레포츠여행', '레포츠체험', '복합레포츠', '산책하기']",https://cdn.visitkorea.or.kr/img/call?cmd=VIEW&id=25182122-dcc6-4cd4-8e08-c526068635e2&thumb,부산광역시 금정구 체육공원로399번길 324,35.29297614,129.1060572
신선대(부산),부산 남구,051-253-8253,"['경상권', '관광지', '바다풍경', '신선대', '야경투어', '자연', '자연좋은곳', '피서여행']",https://cdn.visitkorea.or.kr/img/call?cmd=VIEW&id=26149896-17f7-45e5-9ba9-9fea59858466&thumb,부산광역시 남구 신선로303번길 6,35.1132751,129.0953806
신세계 센텀시티,부산 해운대구,1588-1234,"['가족여행', '경상권', '관광지', '남녀노소', '부산가볼만한곳', '신세계센텀시티']",https://cdn.visitkorea.or.kr/img/call?cmd=VIEW&id=b4e33095-3a70-4353-8af8-5b45c87e7027&thumb,부산광역시 해운대구 센텀남대로 35,35.16881799,129.1295226
아미르공원,부산 영도구,051-419-4531,"['관광지', '남녀노소', '도심속공원', '산책코스', '아미르공원', '아이와함께', '언택트관광지_100선']",https://cdn.visitkorea.or.kr/img/call?cmd=VIEW&id=d875dcc9-5df0-4e67-9769-8e1dfb133fff&thumb,부산광역시 영도구 동삼동,35.075671,129.075936
아홉산숲,부산 기장군,051-721-9183,"['가족여행', '경상권', '경치좋은곳', '관광지', '숲속체험', '아홉산숲', '자연', '해설']",https://cdn.visitkorea.or.kr/img/call?cmd=VIEW&id=e6e94b81-3122-4093-9edc-e0d61a94a550&thumb,부산광역시 기장군 철마면 미동길 37-1,35.28704129,129.1715172
안데르센 동화마을,부산 기장군,051-709-4000,"['관광지', '기장가볼만한곳', '기장여행코스', '놀이시설', '동화마을', '아이가_좋아하는_여행']",https://cdn.visitkorea.or.kr/img/call?cmd=VIEW&id=45967d42-f048-42c0-b55a-ca0614319890&thumb,부산광역시 기장군 장안읍 장안로 211,35.35992182,129.2402399
안적사(부산),부산 기장군,051-543-9408,"['관광지', '불교', '불교문화', '사찰', '사찰여행', '역사', '자연속으로', '자연환경']",https://cdn.visitkorea.or.kr/img/call?cmd=VIEW&id=null&thumb,부산광역시 기장군 기장읍 내리길 461-16,35.21410884,129.1700835
약수암(부산),부산 사상구,051-303-7586,"['관광지', '불교', '불교문화', '불교사찰', '사찰여행', '역사', '자연속으로', '자연환경']",https://cdn.visitkorea.or.kr/img/call?cmd=VIEW&id=undefined&thumb,부산광역시 사상구 백양대로804번길 42-57,35.17803409,128.9965736
역사의 디오라마,부산 중구,051-253-8253,"['86번버스', '관광지', '부산가볼만한곳', '부산전망대']",https://cdn.visitkorea.or.kr/img/call?cmd=VIEW&id=ba50f724-77c5-48f4-ab50-e62aabdf2c64&thumb,부산광역시 중구 영주로 93,35.11462683,129.0330811
연등사(부산),부산 동구,051-632-0546,"['경상권', '관광지', '불교', '불교문화', '사찰', '사찰여행', '역사', '연등사', '연중무휴']",https://cdn.visitkorea.or.kr/img/call?cmd=VIEW&id=c3e26635-bfbe-4d23-91ed-cfc5d48e5f71&thumb,부산광역시 동구 좌천동로 17-3,35.13307333,129.0490747
영도 등대,부산 영도구,051-405-1201,"['경상권', '관광지', '등대', '영도등대', '자연', '전시관']",https://cdn.visitkorea.or.kr/img/call?cmd=VIEW&id=598e203e-1cf6-40a7-bb18-ffa86162485e&thumb,부산광역시 영도구 전망로 181,35.05191937,129.0913397
영도 흰여울해안터널,부산 영도구,051-419-4044,"['관광지', '남녀노소', '부산가볼만한곳', '산책하기좋은곳', '시원한곳', '여름피서지']",https://cdn.visitkorea.or.kr/img/call?cmd=VIEW&id=7031387f-a714-44c5-8828-985dcfb7efa2&thumb,부산 영도구 영선동4가 1044-6,35.07793084,129.0453039
영도대교,부산 영도구,1670-8114,"['가족여행', '경상권', '관광지', '도개교', '바다', '부산광역시', '약속의장소', '역사공부']",https://cdn.visitkorea.or.kr/img/call?cmd=VIEW&id=f8c3fdbb-c9eb-4bce-8dd1-106a0adec3b8&thumb,부산광역시 영도구 태종로 46,35.09378919,129.036832
영주암(부산),부산 수영구,051-754-2210,"['경상권', '관광지', '불교', '불교문화', '사찰', '사찰여행', '역사', '영주암', '자연속으로']",https://cdn.visitkorea.or.kr/img/call?cmd=VIEW&id=e7b97bb6-e847-4647-a94b-967f27b07e3e&thumb,부산광역시 수영구 망미배산로76번나길 15,35.17663171,129.0986397
옛백제병원,부산 동구,051-440-4064,"['관광지', '역사', '역사공부', '역사관광지', '역사를품은곳', '역사문화재', '역사속']",https://cdn.visitkorea.or.kr/img/call?cmd=VIEW&id=804911f3-a439-4a27-a184-c6820e68750d&thumb,부산광역시 동구 중앙대로209번길 16,35.11633971,129.0391428
오륙도 (부산 국가지질공원),부산 남구,051-888-3636,"['관광지', '국가지질공원', '명승', '부산_국가지질공원', '부산오륙도', '섬', '자연']",https://cdn.visitkorea.or.kr/img/call?cmd=VIEW&id=6c138c03-78e1-4368-8cf4-c4016d559424&thumb,부산광역시 남구 용호동,35.093815,129.126416
오륙도 등대,부산 남구,051-607-6395,"['관광지', '자연']",https://cdn.visitkorea.or.kr/img/call?cmd=VIEW&id=cc3644c0-d8bd-4db7-a340-786b6974bf53&thumb,부산광역시 남구 오륙도로 130,35.09119339,129.1268467
오륙도 스카이워크,부산 남구,051-607-6395,"['경상권', '관광지', '바다풍경', '스카이워크', '오륙도스카이워크']",https://cdn.visitkorea.or.kr/img/call?cmd=VIEW&id=49830f25-ee1b-4daa-a986-0522ad7ebf26&thumb,부산광역시 남구 오륙도로 137,35.10143738,129.1231049
오륙도명소,부산 남구,051-888-3636,"['걷기길', '경상권', '관광지', '생태관광', '생태관광지', '오륙도', '이기대', '이기대해안산책로']",https://cdn.visitkorea.or.kr/img/call?cmd=VIEW&id=23afb0f2-8493-41d1-bb57-40093a73d35b&thumb,부산광역시 남구 용호동 일대,35.0980402,129.1239318
옥련선원,부산 수영구,051-610-4067,"['경상권', '관광지', '불교', '역사', '역사공부', '역사관광지', '역사를품은곳', '역사문화재']",https://cdn.visitkorea.or.kr/img/call?cmd=VIEW&id=0036a23b-141e-4e46-8ac8-5d2eec56c9d7&thumb,부산광역시 수영구 광남로257번길 58,35.16285449,129.1262142
온정개건비,부산 동래구,051-550-4081,"['관광지', '역사', '역사공부', '역사를품은곳', '역사문화재', '역사속', '역사속으로']",https://cdn.visitkorea.or.kr/img/call?cmd=VIEW&id=8789fc5a-c466-47bf-a7e7-f9fb90ea73cd&thumb,부산광역시 동래구 금강로124번길 23-17,35.22008429,129.0812974
외양포 포진지,부산 강서구,051-970-4066,"['관광지', '역사공부', '역사를품은곳', '역사속', '역사속으로', '역사여행', '역사유적']",https://cdn.visitkorea.or.kr/img/call?cmd=VIEW&id=dbf24c66-8e09-46f5-960c-1804d8bed876&thumb,부산광역시 강서구 대항동,35.00553146,128.8254366
용두산 자갈치 관광특구,부산 중구,051-600-4082,"['경상권', '관광지', '근대문화유산', '남녀노소', '부산가볼만한곳', '야경투어']",https://cdn.visitkorea.or.kr/img/call?cmd=VIEW&id=7bc45225-0719-4389-a2b2-894f7fc20a80&thumb,부산광역시 중구 자갈치해안로 52,35.09661367,129.0305839
용두산공원,부산 중구,051-860-7820,"['가족여행', '걷기여행', '관광지', '나들이', '아이와함께', '연인과함께', '용두산공원']",https://cdn.visitkorea.or.kr/img/call?cmd=VIEW&id=c6f3a7b9-8e36-4eb6-8c18-d5573cf77027&thumb,부산광역시 중구 용두산길 37-55,35.1009303,129.0324433
운수사(부산),부산 사상구,051-313-3300,"['가족여행', '경상권', '관광지', '불교', '불교문화', '사찰', '사찰&산사', '사찰여행']",https://cdn.visitkorea.or.kr/img/call?cmd=VIEW&id=null&thumb,부산광역시 사상구 모라로219번길 173,35.1837722,129.0127785
월명사(부산),부산 기장군,051-721-0123,"['관광지', '불교', '불교문화', '불교사찰', '사찰여행', '역사', '자연속으로', '자연환경']",https://cdn.visitkorea.or.kr/img/call?cmd=VIEW&id=undefined&thumb,부산광역시 기장군 일광면 참샘길 124,35.26982805,129.2160972
유치환 우체통 전망대,부산 동구,051-469-9818,"['SNS감성사진', '경치좋은곳', '관광지', '남녀노소', '부산가볼만한곳', '사진여행']",https://cdn.visitkorea.or.kr/img/call?cmd=VIEW&id=f8306fd7-9a02-4996-b6a9-bc5dfacd7ecf&thumb,부산광역시 동구 망양로580번길 2,35.12210736,129.0338509
을숙도 공원,부산 사하구,051-209-2031,"['경상권', '관광지', '을숙도공원', '을숙도생태공원', '을숙도철새공원', '자연']",https://cdn.visitkorea.or.kr/img/call?cmd=VIEW&id=61ef9a5f-0781-4b48-89e2-1142378a5013&thumb,부산광역시 사하구 낙동남로 1240,35.10449124,128.9459812
이기대 (부산 국가지질공원),부산 남구,051-888-3636,"['걷기길', '경상권', '관광지', '생태관광지', '역사유적지', '이기대도시자연공원']",https://cdn.visitkorea.or.kr/img/call?cmd=VIEW&id=0553f0e9-d30c-4a39-bf84-35d7a4ef1906&thumb,부산광역시 연제구 용호동,35.1155121,129.115598
이기대명소,부산 남구,051-888-3636,"['걷기길', '경상권', '관광지', '바다풍경', '생태관광', '생태관광지', '오륙도', '이기대명소']",https://cdn.visitkorea.or.kr/img/call?cmd=VIEW&id=8aece046-90bc-4b10-a163-af2f146523a5&thumb,부산광역시 남구 용호동 일대,35.1226423,129.1234174
일광해수욕장,부산 기장군,051-709-4000,"['가족여행', '관광지', '바다풍경', '아이와함께', '여름방학가볼만한곳', '여름여행']",https://cdn.visitkorea.or.kr/img/call?cmd=VIEW&id=03b60830-6e44-42b3-89df-dbfb5b0b6dcf&thumb,부산광역시 기장군 일광면 삼성리,35.26638202,129.2313239
임랑해수욕장,부산 기장군,051-709-4084,"['가족여행', '경상권', '관광지', '미식여행', '바다풍경', '여름방학가볼만한곳']",https://cdn.visitkorea.or.kr/img/call?cmd=VIEW&id=93873193-cd9e-42b3-8920-69b8bc8cb15e&thumb,부산광역시 기장군 장안읍 임랑리,35.31953879,129.2576094
자성대공원,부산 동구,051-440-4064,"['걷기길', '경상권', '관광지', '도심여행', '산책길', '산책하기', '산책하기좋은곳']",https://cdn.visitkorea.or.kr/img/call?cmd=VIEW&id=b101cda9-a2de-44c8-a41c-1a54de585537&thumb,부산광역시 동구 자성로 99,35.13574487,129.060452
장림포구,부산 사하구,051-220-4502,"['SNS감성사진', '가족과함께', '경치좋은곳', '관광지', '남녀노소', '부산가볼만한곳']",https://cdn.visitkorea.or.kr/img/call?cmd=VIEW&id=bb6d82b7-df62-4600-8224-3c383067d774&thumb,부산광역시 사하구 장림로93번길 72,35.07913004,128.9513987
장산 (부산 국가지질공원),부산 해운대구,051-851-7851,"['경치좋은곳', '관광지', '국가지질공원', '바다경치', '부산_국가지질공원', '사진찍기좋은곳']",https://cdn.visitkorea.or.kr/img/call?cmd=VIEW&id=9b87cff8-9127-41bb-b19a-e6fcb0185796&thumb,부산광역시 해운대구 좌동 1390,35.18108261,129.168181
장산명소,부산 해운대구,051-888-3636,"['걷기길', '걷기여행', '경상권', '관광지', '생태관광', '생태관광지', '장산', '트레킹']",https://cdn.visitkorea.or.kr/img/call?cmd=VIEW&id=daada931-8283-4b15-85ae-0be207d08741&thumb,부산광역시 해운대구 반어동,35.194527,129.14469
장안사(부산),부산 기장군,051-727-2393,"['경상권', '관광지', '부산장안사', '불교', '불교문화', '불교사찰', '사찰', '사찰여행']",https://cdn.visitkorea.or.kr/img/call?cmd=VIEW&id=368a09b5-4b9a-4c8d-8e23-41d41e595e2f&thumb,부산광역시 기장군 장안읍 장안로 482,35.37480506,129.2328844
재난안전체험관,부산 금정구,1577-0880,"['겨울방학가볼만한곳', '경상권', '관광지', '아이와함께', '여름방학가볼만한곳']",https://cdn.visitkorea.or.kr/img/call?cmd=VIEW&id=80130c01-844a-461e-b5ee-ac080d6ab3a4&thumb,부산광역시 금정구 체육공원로399번길 324,35.29297614,129.1060572
재한유엔기념공원 (UN기념공원),부산 남구,051-625-0625,"['UN기념공원', '가족여행', '걷기여행', '관광지', '근대문화유산', '나들이', '아이와함께']",https://cdn.visitkorea.or.kr/img/call?cmd=VIEW&id=596cb1f3-c99b-4e3b-a3c4-bc04931a78b3&thumb,부산광역시 남구 대연동,35.128128,129.096767
전포카페거리,부산 부산진구,051-441-3121,"['관광지', '데이트장소추천', '데이트코스', '서면카페거리', '이색카페', '체험']",https://cdn.visitkorea.or.kr/img/call?cmd=VIEW&id=ceaee40e-02a8-4ad0-965b-11123f27d1a2&thumb,부산광역시 부산진구 전포대로209번길 26,35.15629452,129.0630949
절영해안산책로,부산 영도구,051-419-4064,"['걷기길', '경상권', '경치좋은곳', '관광지', '바다경치', '바다전망', '자연', '전망좋은곳']",https://cdn.visitkorea.or.kr/img/call?cmd=VIEW&id=d08b4749-4e08-4567-9d8a-a22ce20eb0e5&thumb,부산광역시 영도구 해안산책길 52,35.08114476,129.0412082
정수암(부산),부산 금정구,051-517-5300,"['관광지', '불교', '불교문화', '사찰', '사찰여행', '역사', '자연속으로', '자연환경']",https://cdn.visitkorea.or.kr/img/call?cmd=VIEW&id=null&thumb,부산광역시 금정구 북문로 160,35.26024498,129.048599
조방해수탕,부산 부산진구,051-645-0005,"['경상권', '관광지', '남녀노소', '사우나', '연인과함께', '조방해수탕', '찜질방']",https://cdn.visitkorea.or.kr/img/call?cmd=VIEW&id=7ae2902c-6863-44f9-8f9e-dcb0aab9d665&thumb,부산광역시 부산진구 자유평화로37번길 15-19,35.14185426,129.0625648
좌수영성지,부산 수영구,051-610-4067,"['경상권', '관광지', '교과서속여행', '문화재', '역사', '역사공부', '역사관광지']",https://cdn.visitkorea.or.kr/img/call?cmd=VIEW&id=7bd94e05-7bea-4c83-9f96-a664d11744d9&thumb,부산광역시 수영구 수영성로 43,35.17121167,129.1139538
죽성성당(드림세트장),부산 기장군,1330,"['관광지', '드라마촬영지', '드라이브코스', '사진찍기좋은곳', '죽성성당', '체험관광지']",https://cdn.visitkorea.or.kr/img/call?cmd=VIEW&id=37125dbf-d6a2-4111-ae80-1b4e7c06dec7&thumb,부산광역시 기장군 기장읍 죽성리 134-7,35.2411728,129.2479102
중앙해수랜드,부산 남구,051-622-8899,"['가족과함께', '건강', '관광지', '목욕탕', '연인과함께', '온천', '중앙해수랜드']",https://cdn.visitkorea.or.kr/img/call?cmd=VIEW&id=60a4531d-c4e2-4673-ad23-bf5b31dde64c&thumb,부산광역시 남구 용호로 64,35.12560901,129.1106323
척판암(부산),부산 기장군,051-727-3547,"['가족여행', '경상권', '관광지', '불교문화', '사찰&산사', '사찰여행', '역사', '자연속으로']",https://cdn.visitkorea.or.kr/img/call?cmd=VIEW&id=aa192d7f-dde9-4073-81c2-ff4e70be2f56&thumb,부산광역시 기장군 장안읍 장안로 490-156,35.37445109,129.2239952
청량사(부산),부산 강서구,051-271-2774,"['경상권', '관광지', '불교', '불교문화', '사찰', '사찰여행', '역사', '연중무휴', '자연속으로']",https://cdn.visitkorea.or.kr/img/call?cmd=VIEW&id=78707bec-d5d1-47d5-b47d-0cdf4e78a182&thumb,부산광역시 기장군 철마면 임밖길 12,35.23878444,129.1758381
청사포,부산 해운대구,051-253-8253,"['경상권', '관광지', '바다경치', '바다낚시', '바다내음', '산책하기좋은곳', '연인과함께']",https://cdn.visitkorea.or.kr/img/call?cmd=VIEW&id=887617c4-1982-4bf0-9b63-348c27057316&thumb,부산광역시 해운대구 중동,35.16069,129.19277
청사포 다릿돌전망대,부산 해운대구,051-749-5700,"['가족과함께', '경치여행', '경치좋은곳', '관광지', '바다경치', '바다내음', '부산가볼만한곳']",https://cdn.visitkorea.or.kr/img/call?cmd=VIEW&id=dd8d946b-9c20-431f-9bf9-9077f95442db&thumb,부산광역시 해운대구 청사포로 167,35.164095,129.196738
초량 이바구길,부산 동구,051-441-3121,"['골목투어', '관광지', '근대문화거리', '부산여행', '부산여행가볼만한곳', '사진찍기좋은곳']",https://cdn.visitkorea.or.kr/img/call?cmd=VIEW&id=4c6e93bc-715a-4f37-ad59-7cad56852e24&thumb,부산광역시 동구 초량상로 49,35.11609917,129.0359012
초량교회,부산 동구,051-465-0533,"['관광지', '기독교', '부산', '역사', '역사공부', '역사관광지', '역사문화', '역사문화재']",https://cdn.visitkorea.or.kr/img/call?cmd=VIEW&id=558faa46-ace8-4762-aead-525564688d69&thumb,부산광역시 동구 초량상로 53,35.11700288,129.0365327
충렬사,부산 동래구,051-888-7211,"['가족여행', '관광지', '아이와함께', '역사', '역사유적지', '자연좋은곳', '전통&역사문화체험']",https://cdn.visitkorea.or.kr/img/call?cmd=VIEW&id=64921696-ab87-4c76-bf10-06cfd6e4f7fc&thumb,부산광역시 동래구 충렬대로 345,35.20109052,129.0961107
충렬탑(부산 충렬사),부산 동래구,051-888-7211,"['경상권', '관광지', '사계절', '아이와함께', '역사를품은곳', '역사속', '역사속으로']",https://cdn.visitkorea.or.kr/img/call?cmd=VIEW&id=aa240a05-6a7f-4d3d-8fde-14c691b83830&thumb,부산광역시 동래구 충렬대로 345,35.20109052,129.0961107
친환경 스카이웨이 전망대(이바구길),부산 동구,051-441-3121,"['가족과함께', '경치여행', '경치좋은곳', '관광지', '부산야경', '부산여행', '산책길']",https://cdn.visitkorea.or.kr/img/call?cmd=VIEW&id=4e8d0ab2-495d-4058-8381-56fd1ac0a7ad&thumb,부산광역시 동구 초량동,35.11571241,129.0363325
키자니아 부산,부산 해운대구,1544-5110,"['경상권', '관광지', '미세먼지_피하는_실내여행', '실내관광지', '실내놀이터']",https://cdn.visitkorea.or.kr/img/call?cmd=VIEW&id=c269f453-fa02-47d0-9799-6af06071eeb6&thumb,부산광역시 해운대구 센텀4로 15,35.16986121,129.1282903
태종대 (부산 국가지질공원),부산 영도구,051-888-3636,"['가족여행', '겨울방학가볼만한곳', '관광지', '국가지질공원', '나홀로여행', '바다풍경']",https://cdn.visitkorea.or.kr/img/call?cmd=VIEW&id=c6515854-12cc-477a-b2c4-8f1d8aa7fba6&thumb,부산광역시 영도구 전망로 24,35.05969281,129.0797564
태종대 곤포유람선,부산 영도구,051-405-2900,"['경치좋은곳', '관광지', '데이트장소', '바다경치', '바다내음', '바다향기로', '유람선']",https://cdn.visitkorea.or.kr/img/call?cmd=VIEW&id=undefined&thumb,부산광역시 영도구 전망로 24,35.05969281,129.0797564
태종대 전망대,부산 영도구,051-403-7775,"['가족여행', '경상권', '경치좋은곳', '관광지', '데이트코스', '바다풍경', '사계절']",https://cdn.visitkorea.or.kr/img/call?cmd=VIEW&id=58f8df41-c2be-49e7-b30a-cef73ec3ab88&thumb,부산광역시 영도구 전망로 24,35.05969281,129.0797564
태종대명소,부산 영도구,051-888-3636,"['걷기길', '걷기여행', '관광지', '생태관광', '생태관광지', '영도해양문화공간']",https://cdn.visitkorea.or.kr/img/call?cmd=VIEW&id=4c0fa931-d1df-4ff8-94d1-b66c4b6d48f6&thumb,부산광역시 영도구 동삼동 일대,35.05969496,129.0798057
태종대온천찜질방,부산 영도구,051-404-9001,"['가족여행', '관광지', '목욕탕', '스파', '온천', '찜질방', '추천가볼만한곳', '태종대온천찜질방']",https://cdn.visitkorea.or.kr/img/call?cmd=VIEW&id=cc105f0c-b431-4722-8440-e0eaf95e365b&thumb,부산광역시 영도구 태종로 808,35.06465461,129.0803152
태종사,부산 영도구,051-405-2626,"['관광지', '불교', '불교문화', '사찰', '사찰여행', '역사', '자연속으로', '자연환경']",https://cdn.visitkorea.or.kr/img/call?cmd=VIEW&id=507e7de1-4e0c-4a86-bc08-a76c04a105de&thumb,부산광역시 영도구 전망로 119,35.05636598,129.0888081
토암도자기공원,부산 기장군,051-721-2231,"['가족여행', '경상권', '관광지', '도자기공방', '도자기수강', '도자기체험', '산림욕장']",https://cdn.visitkorea.or.kr/img/call?cmd=VIEW&id=e5cbadc1-9b02-4287-b63f-a21c14fdd8b7&thumb,부산광역시 기장군 기장읍 대변로 107-27,35.22873295,129.2250802
팬스타부산주말원나잇크루즈,부산 동구,1577-9996,"['관광지', '남녀노소', '부산가볼만한곳', '야경좋은곳', '연안과함께', '이색체험']",https://cdn.visitkorea.or.kr/img/call?cmd=VIEW&id=afe3abac-c833-4ebe-854a-bbed3bae43bc&thumb,부산광역시 동구 충장대로 206,35.11774735,129.0491451
평화공원,부산 남구,051-607-4542,"['관광지', '산책길', '산책코스', '산책하기', '산책하기좋은곳', '아이와함께', '언택트관광지_100선']",https://cdn.visitkorea.or.kr/img/call?cmd=VIEW&id=59b86656-13d6-4e8a-84b6-27ea6e1d975d&thumb,부산광역시 남구 신선로447번길 10,35.1252813,129.0995489
해동 용궁사(부산),부산 기장군,051-722-7744,"['경상권', '경치좋은곳', '관광지', '바다경치', '불교', '불교문화', '사찰', '사찰여행']",https://cdn.visitkorea.or.kr/img/call?cmd=VIEW&id=af8e846b-d48e-45ef-8181-9453ba131074&thumb,부산광역시 기장군 기장읍 용궁길 86,35.18835523,129.2235452
해운대 관광특구,부산 해운대구,051-749-5700,"['가족과함께', '걷기길', '경상권', '관광지', '미술관', '바다풍경', '스파', '아쿠아리움']",https://cdn.visitkorea.or.kr/img/call?cmd=VIEW&id=e49e356b-5427-4d07-bc26-fbe7b0786b1a&thumb,부산 해운대구,35.16306667,129.1635961
해운대 달맞이길,부산 해운대구,051-749-5700,"['걷기길', '경상권', '관광지', '드라이브여행', '바다풍경', '산책길', '산책하기']",https://cdn.visitkorea.or.kr/img/call?cmd=VIEW&id=46dc348d-ed0e-471a-822b-65bed90c2d93&thumb,부산광역시 해운대구 달맞이길 190,35.15765518,129.1825196
해운대 동백섬,부산 해운대구,051-749-7621,"['걷기길', '관광지', '꽃여행', '연인과함께', '자연', '전망좋은곳', '해운대동백섬']",https://cdn.visitkorea.or.kr/img/call?cmd=VIEW&id=b0a762f0-308f-4e0a-b783-d4f423f6f4d9&thumb,부산광역시 해운대구 동백로 67,35.15599285,129.1540428
해운대레저찜질방,부산 해운대구,051-701-0391,"['경상권', '관광지', '스파', '스포츠센터', '연인과함께', '온천', '친구와함께', '해운대레저찜질방']",https://cdn.visitkorea.or.kr/img/call?cmd=VIEW&id=b2fadc14-b140-412c-ab37-79f153a3d23f&thumb,부산광역시 해운대구 해운대로 814,35.16957715,129.1776775
해운대온천센터,부산 해운대구,051-740-7000,"['가족여행', '가족체험여행', '관광지', '아이와함께', '연인과함께', '온천&스파']",https://cdn.visitkorea.or.kr/img/call?cmd=VIEW&id=6dc8d537-1008-4d0a-8e91-45ea7a9505ef&thumb,부산광역시 해운대구 중동2로 16,35.17065911,129.1703273
해운대해수욕장,부산 해운대구,051-749-7611,"['15_16한국관광100선', '19_20한국관광100선', '가족여행', '경상권', '경상권']",https://cdn.visitkorea.or.kr/img/call?cmd=VIEW&id=806d3a5c-f4bf-4ad3-8c52-59ae5a988689&thumb,부산광역시 해운대구 해운대해변로 264,35.15910703,129.160284
해월정,부산 해운대구,051-749-5700,"['경상권', '관광지', '대한팔경', '산책코스', '산책하기좋은곳', '역사공부', '역사관광지']",https://cdn.visitkorea.or.kr/img/call?cmd=VIEW&id=ceb71f31-f6bb-4fa7-a04b-594b56fca2d8&thumb,부산광역시 해운대구 중동,35.156818,129.181651
허브랑야생화,부산 금정구,051-515-0130,"['경상권', '관광지', '꽃여행', '이색카페', '자연', '자연&숲치유', '자연좋은곳']",https://cdn.visitkorea.or.kr/img/call?cmd=VIEW&id=e22ad0fc-f8cc-448b-b4fe-e4832548f795&thumb,부산광역시 금정구 북문로 73,35.25422952,129.0519071
허심청,부산 동래구,051-550-2200,"['가족여행', '경상권', '관광지', '남녀노소', '스파', '온천', '한방', '허심청', '휴식공간']",https://cdn.visitkorea.or.kr/img/call?cmd=VIEW&id=7cf1729f-a4fc-48a7-84fb-01e0119a533f&thumb,부산광역시 동래구 금강공원로20번길 23,35.21946372,129.0818704
혜원정사,부산 연제구,051-866-7771,"['경상권', '관광지', '불교', '불교문화', '사찰', '사찰여행', '역사', '연중무휴', '자연속으로']",https://cdn.visitkorea.or.kr/img/call?cmd=VIEW&id=4c11a6e9-82a5-451c-a870-0ebbf1e73d0d&thumb,부산광역시 연제구 고분로68번길 47,35.18356819,129.0912996
호천마을,부산 부산진구,,"['경치좋은곳', '관광지', '드라마촬영지', '부산당일치기여행', '부산데이트', '부산야경명소']",https://cdn.visitkorea.or.kr/img/call?cmd=VIEW&id=5f0e7e8e-f8c1-48f6-bad8-9d92003487aa&thumb,부산광역시 부산진구 엄광로 491,35.14421584,129.0512136
홍법사(부산),부산 금정구,051-508-0345,"['관광지', '불교', '불교문화', '사찰', '사찰여행', '산사', '역사', '연중무휴', '자연좋은곳']",https://cdn.visitkorea.or.kr/img/call?cmd=VIEW&id=bb72f3bf-f6f1-4b0e-bb8d-fa8dfa990126&thumb,부산광역시 금정구 두구로33번길 202,35.30406263,129.1095881
화명생태공원,부산 북구,051-364-4127,"['걷기길', '경상권', '경상권아이와함께', '관광지', '산책길', '산책하기', '산책하기좋은곳']",https://cdn.visitkorea.or.kr/img/call?cmd=VIEW&id=674a7625-b1ba-4944-bc5f-e2d24d3db295&thumb,부산광역시 북구 화명동,35.226687,129.0035
황령산,부산 남구,051-851-7851,"['관광지', '야간관광100선', '언택트관광지_100선', '역사를품은곳', '역사문화재']",https://cdn.visitkorea.or.kr/img/call?cmd=VIEW&id=77a9c6d2-8c0d-4ae7-bc92-5fcbf2b20be2&thumb,부산광역시 남구 황령산로 391-39,35.1578872,129.0826959
회동수원지,부산 금정구,051-519-4637,"['경치좋은곳', '관광지', '남녀노소', '산책로', '산책코스', '언택트관광지_100선']",https://cdn.visitkorea.or.kr/img/call?cmd=VIEW&id=78076499-1afa-4960-ac85-f6274a704fec&thumb,부산광역시 금정구 개좌로 147,35.22520416,129.1166143
금수동,부산 기장군,051-727-5679,"['가족과함께', '가족체험', '가족체험여행', '문화시설', '연인과함께', '체험', '체험관광']",https://cdn.visitkorea.or.kr/img/call?cmd=VIEW&id=1c278af5-1f73-48d2-bd54-213e9dcb6f27&thumb,부산광역시 기장군 장안읍 장안로 49-10,35.3447459,129.2531309
부산자유회관(부산통일관),부산 부산진구,051-808-7960,"['경상권', '교과서속여행', '문화시설', '부산자유회관', '부산통일관', '실내여행지']",https://cdn.visitkorea.or.kr/img/call?cmd=VIEW&id=e354aa1e-2a73-4af6-ac32-306e025edecf&thumb,부산광역시 부산진구 초읍천로 113-10,35.1822629,129.0457142
백산기념관,부산 중구,051-600-4067,"['독립운동', '문화시설', '백산기념관', '백산안희제선생', '역사']",https://cdn.visitkorea.or.kr/img/call?cmd=VIEW&id=7caa1c8e-02d1-4703-8d8d-2ec26df20ad0&thumb,부산광역시 중구 백산길 11,35.1019607,129.0345836
오륜대 한국순교자박물관,부산 금정구,051-583-2923,"['문화시설', '박물관', '순교자', '아이와함께', '아이와함께', '역사', '종교', '천주교회']",https://cdn.visitkorea.or.kr/img/call?cmd=VIEW&id=408b2449-ab9c-43c6-8e40-d135ac6223ea&thumb,부산광역시 금정구 오륜대로 106-1,35.246003,129.1011063
두송반도 (부산 국가지질공원),부산 사하구,051-888-3636,"['국가지질공원', '부산_국가지질공원', '사진찍기좋은곳', '자연', '자연관광지']",https://cdn.visitkorea.or.kr/img/call?cmd=VIEW&id=874de30d-c1ff-4267-92e6-2e5c36befcfd&thumb,부산광역시 사하구 다대동,35.0556365,128.9674986
백양산 (부산 국가지질공원),부산 부산진구,051-888-3636,"['국가지질공원', '부산_국가지질공원', '석회동굴', '자연', '자연관광지', '자연동굴']",https://cdn.visitkorea.or.kr/img/call?cmd=VIEW&id=1ddddb60-f403-4f6d-b8ed-5ff50afb8927&thumb,부산광역시 부산진구 새싹로 295,35.1829938,129.0463494
구상반려암 (부산 국가지질공원),부산 부산진구,051-888-3636,"['경치좋은곳', '광물', '국가지질공원', '도심속', '부산_국가지질공원', '부산가볼만한곳']",https://cdn.visitkorea.or.kr/img/call?cmd=VIEW&id=3aba0339-ac24-4d84-9e6a-af5dad56fbc1&thumb,부산광역시 부산진구 전포동,35.157532,129.071468
낙동강하구 (부산 국가지질공원),부산 사하구,051-888-3636,"['경치좋은곳', '국가지질공원', '낙동강하구', '부산_국가지질공원', '사진찍기']",https://cdn.visitkorea.or.kr/img/call?cmd=VIEW&id=d9842a24-20da-47b4-832d-23b12f75526e&thumb,부산광역시 사하구 낙동남로 1240,35.104497,128.9459942
두도 (부산 국가지질공원),부산 서구,051-888-3636,"['경치좋은곳', '국가지질공원', '바다낚시', '바다내음', '부산_국가지질공원', '사진찍기좋은곳']",https://cdn.visitkorea.or.kr/img/call?cmd=VIEW&id=a93595d5-e75d-429b-8417-38dc0e3d7be7&thumb,부산광역시 서구 암남동,35.0799261,129.0212884
