name,region,tel,keyword,photo,address,lat,lon
(구)인천일본제58은행지점,인천 중구,032-760-6474,"['관광지', '교과서속여행', '구인천일본제58은행지점', '문화재', '수도권', '역사']",https://cdn.visitkorea.or.kr/img/call?cmd=VIEW&id=7e62f852-bb74-41d6-a527-df82341d62d6&thumb,인천광역시 중구 신포로23번길 77,37.4728595,126.6211542
BMW 드라이빙센터,인천 중구,080-269-3300,"['BMW', 'BMW드라이빙센터', '관광지', '드라이빙센터', '산업관광', '산업관광지']",https://cdn.visitkorea.or.kr/img/call?cmd=VIEW&id=8b2a0953-0424-46a4-938f-08383dfe16f6&thumb,인천광역시 중구 공항동로 136,37.471794,126.4748636
갑곶돈대,인천 강화군,032-930-7077,"['가족여행', '갑곶돈대', '관광지', '나들이', '당일치기여행', '문화재', '서울근교여행']",https://cdn.visitkorea.or.kr/img/call?cmd=VIEW&id=9dda5aa9-5bc1-4c0e-9c03-f124150e0868&thumb,인천광역시 강화군 강화읍 해안동로1366번길 18,37.7345234,126.5160972
강화 갑곶리 탱자나무,인천 강화군,032-930-3124,"['갑곶리탱자나무', '관광지', '수도권', '자연', '천연기념물']",https://cdn.visitkorea.or.kr/img/call?cmd=VIEW&id=59c816dc-27ee-49a2-877e-a4d919281653&thumb,인천광역시 강화군 강화읍 동문로 119,37.7549436,126.4942049
강화 고인돌 유적 [유네스코 세계문화유산],인천 강화군,032-930-3625,"['가족여행', '강화고인돌유적', '관광지', '교과서속여행', '나들이', '당일치기여행']",https://cdn.visitkorea.or.kr/img/call?cmd=VIEW&id=d76a9195-ae55-42ab-ba55-8d83b08156fa&thumb,인천 강화군 하점면 부근리,37.7624839,126.4373772
강화 달빛동화마을,인천 강화군,032-937-9960,"['가족과함께', '가족체험', '관광지', '농촌', '농촌체험', '농촌체험마을', '농촌체험여행']",https://cdn.visitkorea.or.kr/img/call?cmd=VIEW&id=5bf002ba-5bce-4a7d-bc2f-73bd640bd2cb&thumb,인천광역시 강화군 양도면 강화남로921번길 10-6,37.6808071,126.4164735
강화 덕진진,인천 강화군,032-930-7074,"['강화덕진진', '관광지', '덕진진', '바다풍경', '수도권', '아이와함께', '역사', '역사공부']",https://cdn.visitkorea.or.kr/img/call?cmd=VIEW&id=045dd90b-d8ae-4bdb-9c9a-c11cc5fbdbbe&thumb,인천광역시 강화군 불은면 덕진로 34,37.6506824,126.5238763
강화 동막해변,인천 강화군,032-937-4445,"['강화동막해변', '관광지', '동막해변', '바다풍경', '수도권', '자연', '체험학습']",https://cdn.visitkorea.or.kr/img/call?cmd=VIEW&id=bd65a320-7f82-4f31-9b80-8a2f196d66ed&thumb,인천광역시 강화군 화도면 해안남로 1481,37.5925761,126.4581875
강화 사기리 탱자나무,인천 강화군,032-934-7500,"['강화사기리탱자나무', '관광지', '수도권', '자연', '천연기념물']",https://cdn.visitkorea.or.kr/img/call?cmd=VIEW&id=411caaad-97da-4a0e-a435-ef4f7d714162&thumb,인천광역시 강화군 화도면 해안남로1114번길 6,37.6169938,126.4571289
강화 서도 중앙교회,인천 강화군,032-760-6474,"['강화서도중앙교회', '관광지', '교과서속여행', '문화재', '수도권', '역사', '역사공부']",https://cdn.visitkorea.or.kr/img/call?cmd=VIEW&id=de6efa6c-631f-4d4d-848f-d649ce968082&thumb,인천광역시 강화군 서도면 주문도길 256-1,37.6435442,126.2442596
강화 석수문,인천 강화군,032-930-4571,"['강화석수문', '관광지', '서울근교여행', '아이와함께', '역사', '역사공부', '역사관광지']",https://cdn.visitkorea.or.kr/img/call?cmd=VIEW&id=9fef4dee-6d7e-4095-acd7-f7af9ee85813&thumb,인천광역시 강화군 강화읍 국화리,37.7418929,126.4581332
강화 선원사지,인천 강화군,032-933-8234,"['관광지', '사적', '선원사지', '수도권', '역사', '역사공부', '역사관광지', '역사를품은곳']",https://cdn.visitkorea.or.kr/img/call?cmd=VIEW&id=250673c9-a846-4cd8-ae9f-01f67dfe66b1&thumb,인천광역시 강화군 선원면 선원사지로 222,37.7197978,126.4921605
강화 아르미애월드,인천 강화군,032-930-4124,"['가족과함께', '가족여행', '강화아르미애월드', '관광지', '미세먼지_피하는_실내여행']",https://cdn.visitkorea.or.kr/img/call?cmd=VIEW&id=91a6eabb-5087-4f61-98ec-8f6cad928101&thumb,인천광역시 강화군 불은면 중앙로 742-2,37.7047062,126.4343515
강화 용두레마을,인천 강화군,032-933-5711,"['관광지', '농촌마을', '농촌여행', '자연관광지', '자연마을', '자연여행', '자연체험']",https://cdn.visitkorea.or.kr/img/call?cmd=VIEW&id=70843658-3f50-4d9f-9794-cfd26df368f3&thumb,인천광역시 강화군 내가면 황청포구로385번길 8,37.7186657,126.3600707
강화 장정리 석조여래입상,인천 강화군,032-930-4571,"['강화장정리석조여래입상', '관광지', '보물', '수도권', '역사', '역사공부', '역사관광지']",https://cdn.visitkorea.or.kr/img/call?cmd=VIEW&id=0cf0aa61-77b2-44f0-aa84-0305944e5d18&thumb,인천광역시 강화군 하점면 장정리,37.781112,126.4280737
강화 장정리 오층석탑,인천 강화군,032-930-4571,"['강화장정리오층석탑', '관광지', '보물', '수도권', '역사', '역사공부', '역사관광지']",https://cdn.visitkorea.or.kr/img/call?cmd=VIEW&id=4decd22a-ca79-45e2-a619-9cd9ae13f997&thumb,인천광역시 강화군 하점면 장정리,37.781112,126.4280737
강화 참성단,인천 강화군,032-930-4571,"['관광지', '사적', '수도권', '역사', '역사공부', '역사관광', '역사관광지', '역사를품은곳']",https://cdn.visitkorea.or.kr/img/call?cmd=VIEW&id=a7696f99-08c3-45a4-82ee-9600569c2940&thumb,인천광역시 강화군 화도면 흥왕리,37.6052058,126.422212
강화 초지진,인천 강화군,032-930-7072,"['강화초지진', '관광지', '교과서속여행', '서울근교여행', '아이와함께', '역사']",https://cdn.visitkorea.or.kr/img/call?cmd=VIEW&id=26d3ed14-1c19-491b-abf2-b3a9ee095e4e&thumb,인천광역시 강화군 길상면 해안동로 58,37.6334878,126.5323089
강화 홍릉,인천 강화군,032-930-4571,"['관광지', '교과서속여행', '문화재', '수도권', '역사', '역사공부', '역사관광지']",https://cdn.visitkorea.or.kr/img/call?cmd=VIEW&id=469d4375-ecc4-4d92-ac1e-7b78ef41d749&thumb,인천 강화군 강화읍 국화리,37.7418929,126.4581332
강화 화문석마을,인천 강화군,032-934-2290,"['가족체험', '관광지', '농촌', '농촌체험', '농촌체험마을', '농촌체험학습', '산책하기좋은곳']",https://cdn.visitkorea.or.kr/img/call?cmd=VIEW&id=4ead57e5-d031-4293-b9aa-601e59ddf039&thumb,인천광역시 강화군 송해면 전망대로468번길 11,37.8026813,126.4573875
강화갯벌 및 저어새번식지,인천 강화군,032-930-3124,"['강화갯벌', '관광지', '수도권', '자연', '저어새번식지', '천연기념물']",https://cdn.visitkorea.or.kr/img/call?cmd=VIEW&id=6264f833-9be4-49b9-b713-e540a66902f9&thumb,인천광역시 강화군 화도면 해안남로,37.617115,126.4127838
강화갯벌센터,인천 강화군,032-930-7064,"['강화갯벌센터', '관광지', '동검리', '동막리', '바다경치', '생태관광', '생태관광지']",https://cdn.visitkorea.or.kr/img/call?cmd=VIEW&id=0508e0bd-526c-471b-9865-b866436eef72&thumb,인천광역시 강화군 화도면 해안남로 2293-37,37.617115,126.4127838
강화관광플랫폼,인천 강화군,032-934-7500,"['VR체험', '가족과함께', '강화가볼만한곳', '관광안내', '관광안내소', '관광지']",https://cdn.visitkorea.or.kr/img/call?cmd=VIEW&id=323b83ce-647c-4bea-bc17-ea1f953217f6&thumb,인천광역시 강화군 강화읍 강화대로 430,37.7483601,126.4834376
강화도,인천 강화군,032-934-7500,"['강화도', '관광지', '섬여행', '수도권', '역사유적지', '자연']",https://cdn.visitkorea.or.kr/img/call?cmd=VIEW&id=371462ef-3879-4bf1-bc1c-df9916e1896f&thumb,인천광역시 강화군 강화읍 강화대로,37.7437371,126.4956434
"강화도 남단(여차리, 선두리 해안)",인천 강화군,032-934-7500,"['갯벌체험', '겨울방학가볼만한곳', '관광지', '교동도', '볼음도', '생태관광', '생태관광지']",https://cdn.visitkorea.or.kr/img/call?cmd=VIEW&id=72c91c61-26a1-47e0-97c5-dbd60794d9ed&thumb,인천광역시 강화군 일대,37.7467263,126.4878731
강화도령화문석,인천 강화군,032-934-6859,"['가족과함께', '강화가볼만한곳', '공예품', '관광지', '남녀노소', '산업관광', '산업관광지']",https://cdn.visitkorea.or.kr/img/call?cmd=VIEW&id=670d42f0-b410-420c-bab9-d5e53908afb8&thumb,인천광역시 강화군 송해면 강화대로 891-10,37.7684169,126.4447661
강화도제적봉 평화전망대,인천 강화군,032-930-7062,"['강화도제적봉평화전망대', '관광지', '교육여행', '수도권', '아이와함께', '안보관광']",https://cdn.visitkorea.or.kr/img/call?cmd=VIEW&id=7c7845e4-6fa2-4e8c-b6ea-9e4ab7a00b1a&thumb,인천광역시 강화군 양사면 전망대로 797,37.8269784,126.4316191
강화산성,인천 강화군,032-932-5464,"['가족여행', '강화산성', '관광지', '나들이', '당일치기여행', '드라이브여행', '문화재']",https://cdn.visitkorea.or.kr/img/call?cmd=VIEW&id=948a2052-4443-45ad-a7f3-663725728849&thumb,인천 강화군 강화읍 국화리 산3번지,37.7562982,126.476224
강화씨사이드리조트 루지,인천 강화군,032-930-9000,"['가족과함께', '관광지', '남녀노소', '레포츠여행', '레포츠체험', '루지', '복합레포츠']",https://cdn.visitkorea.or.kr/img/call?cmd=VIEW&id=06a5027a-a8af-4921-861a-6c45fa41bd63&thumb,인천광역시 강화군 길상면 장흥로 223-3,37.6199189,126.5010626
강화유수부동헌,인천 강화군,032-930-4571,"['강화유수부동헌', '관광지', '수도권', '역사', '역사공부', '역사관광지', '역사를품은곳']",https://cdn.visitkorea.or.kr/img/call?cmd=VIEW&id=5a201cd3-192a-47c5-89c1-133ae8dde544&thumb,인천광역시 강화군 강화읍 북문길 42,37.7516196,126.485242
강화유수부이방청,인천 강화군,032-930-4571,"['강화유수부이방청', '관광지', '수도권', '역사', '역사공부', '역사관광지', '역사를품은곳']",https://cdn.visitkorea.or.kr/img/call?cmd=VIEW&id=841785f1-b1ca-4709-990d-e62c3cfd1f22&thumb,인천광역시 강화군 강화읍 북문길 42,37.7516196,126.485242
강화전적지,인천 강화군,032-930-7077,"['가족여행', '강화전적지', '관광지', '나들이', '당일치기여행', '드라이브여행']",https://cdn.visitkorea.or.kr/img/call?cmd=VIEW&id=37adde0f-2b13-40ba-bd39-26d52d48767d&thumb,인천광역시 강화군 강화읍 해안동로1366번길 18,37.7345234,126.5160972
강화해수랜드,인천 강화군,032-937-9721,"['가족과함께', '강화해수랜드', '관광지', '목욕탕', '불한증막', '해수탕', '휴식여행']",https://cdn.visitkorea.or.kr/img/call?cmd=VIEW&id=975b0f32-6f3f-495a-a8c1-ea2b7d1e10a0&thumb,"인천광역시 강화군 길상면 해안남로 13-12
",37.6270964,126.5340636
강화향교,인천 강화군,032-930-4571,"['강화향교', '관광지', '수도권', '역사', '역사공부', '역사관광', '역사관광지', '역사를품은곳']",https://cdn.visitkorea.or.kr/img/call?cmd=VIEW&id=b67ab17b-b9fd-41da-8d0d-13503407c2a5&thumb,인천광역시 강화군 강화읍 향교길 58,37.7545031,126.4779403
개항장 거리,인천 중구,032-773-7511,"['건축', '건축여행', '관광지', '근대건축', '근대건축물', '역사', '역사공부', '역사를품은곳']",https://cdn.visitkorea.or.kr/img/call?cmd=VIEW&id=ac1f2dc4-1f78-47e5-83cb-fde4b9826b27&thumb,인천광역시 중구 제물량로232번안길 27,37.4728442,126.6209985
거잠포해변,인천 중구,032-760-7532,"['가족여행', '거잠포해변', '관광지', '바다풍경', '사계절', '서울근교여행', '수도권']",https://cdn.visitkorea.or.kr/img/call?cmd=VIEW&id=59936d2f-6e3b-4229-b3d5-682c5788c994&thumb,인천광역시 중구 잠진도길 11,37.4221521,126.4232075
경인 아라뱃길,인천 서구,1899-3650,"['경인아라뱃길', '관광지', '교과서속여행', '레포츠체험', '산업관광', '수도권']",https://cdn.visitkorea.or.kr/img/call?cmd=VIEW&id=618c258b-78d7-46eb-bca8-f890f2043e5e&thumb,인천광역시 서구 정서진1로 41,37.5569312,126.604845
계룡돈대,인천 강화군,032-930-4571,"['계룡돈대', '관광지', '기념물', '수도권', '역사', '역사공부', '역사관광지', '역사를품은곳']",https://cdn.visitkorea.or.kr/img/call?cmd=VIEW&id=22715925-9ca7-48dc-9be1-092e2b20d0c2&thumb,인천광역시 강화군 내가면 황청리,37.7151674,126.3639478
계양공원,인천 계양구,032-450-5663,"['걷기길', '계양공원', '관광지', '당일치기여행', '등산', '등산로', '서울근교여행']",https://cdn.visitkorea.or.kr/img/call?cmd=VIEW&id=47358b7d-4d29-438a-82a7-0c8d31f1fbdb&thumb,인천광역시 계양구 계양산로75번길 26,37.5500265,126.723612
계양산,인천 계양구,032-450-5654,"['걷기길', '계양산', '관광지', '당일치기여행', '등산', '등산로', '서울근교여행']",https://cdn.visitkorea.or.kr/img/call?cmd=VIEW&id=b4577a13-1994-4cd8-a846-1ab2c5196490&thumb,인천광역시 계양구 계양산로75번길 26,37.5500265,126.723612
계양산 산림욕장,인천 계양구,032-450-5655,"['걷기길', '계양산산림욕장', '관광지', '단풍여행', '당일치기여행', '등산', '등산로']",https://cdn.visitkorea.or.kr/img/call?cmd=VIEW&id=bda32b3a-3b07-4688-b13f-83276993ad21&thumb,인천광역시 계양구 경명대로955번길 17,37.5470052,126.7128836
고려궁지,인천 강화군,032-930-7078,"['고려궁지', '관광지', '교과서속여행', '수도권', '아이와함께', '역사', '역사공부']",https://cdn.visitkorea.or.kr/img/call?cmd=VIEW&id=9fa3f47c-3fcb-4818-be1a-b03c266d5d61&thumb,인천광역시 강화군 강화읍 강화대로 394,37.747172,126.487179
고려산,인천 강화군,032-930-3515,"['고려산', '관광지', '등산', '사진찍기', '사진찍기좋은곳', '수도권', '자연', '자연관광지']",https://cdn.visitkorea.or.kr/img/call?cmd=VIEW&id=25ca072c-115d-40d1-b7c9-3f4665aad70e&thumb,인천광역시 강화군 내가면 고천리,37.7256645,126.4171552
광성보,인천 강화군,032-930-7070,"['관광지', '광성보', '수도권', '역사', '역사공부', '역사관광지', '역사를품은곳']",https://cdn.visitkorea.or.kr/img/call?cmd=VIEW&id=0043136a-cc74-47ae-92cd-d2a2f3ea8eae&thumb,인천광역시 강화군 불은면 해안동로466번길 27,37.6657656,126.5294146
교동도(강화),인천 강화군,032-934-1000,"['2020_휴가철찾아가고싶은_33섬', '가족과함께', '강화도여행', '관광지', '아이와함께']",https://cdn.visitkorea.or.kr/img/call?cmd=VIEW&id=cb4bd0b6-bf91-406f-bbf9-5ca5fbb68a41&thumb,인천광역시 강화군 교동면 교동남로 35,37.7821086,126.2795601
교동제비집,인천 강화군,032-934-1000,"['VR체험', '강화가볼만한곳', '관광지', '남녀노소', '아이와함께', '연인과함께']",https://cdn.visitkorea.or.kr/img/call?cmd=VIEW&id=76dd6960-5162-49ae-ab61-8b1ce1eb6cc0&thumb,인천광역시 강화군 교동면 교동남로 20-1,37.7821086,126.2795601
교동향교,인천 강화군,032-932-6931,"['관광지', '교동향교', '수도권', '역사', '역사공부', '역사관광지', '역사를품은곳']",https://cdn.visitkorea.or.kr/img/call?cmd=VIEW&id=fda7df87-a17f-482b-aaf8-14690b30c82d&thumb,인천광역시 강화군 교동면 교동남로 229-49,37.7751023,126.2969543
구 일본우선(郵船)주식회사 인천지점,인천 중구,032-760-6474,"['건축물', '건축사', '건축여행', '관광지', '국내건축물', '근대건축물', '역사공부']",https://cdn.visitkorea.or.kr/img/call?cmd=VIEW&id=29930048-647e-4b9b-ad91-4466c420c7ba&thumb,인천광역시 중구 제물량로218번길 3,37.4729295,126.6200473
국사봉(인천),인천 중구,032-777-1330,"['관광지', '자연']",https://cdn.visitkorea.or.kr/img/call?cmd=VIEW&id=91b68ada-5435-4397-bfa4-f5d03771d808&thumb,인천광역시 중구 하나개로,37.3855277,126.4177482
국자와 주걱,인천 강화군,010-2598-3947,"['관광지', '국내힐링여행', '북스테이', '연인과함께', '이색체험', '휴식공간', '휴식여행']",https://cdn.visitkorea.or.kr/img/call?cmd=VIEW&id=283cb14c-e2c6-4ed5-81d3-1c7fe7c9fed3&thumb,인천광역시 강화군 양도면 강화남로428번길 46-27,37.6539322,126.4450575
굴업도,인천 옹진군,032-899-3711,"['경치좋은곳', '관광지', '굴업도', '바다낚시', '서울근교여행', '섬', '수도권', '언택트관광지_100선']",https://cdn.visitkorea.or.kr/img/call?cmd=VIEW&id=36c678bf-990a-4261-b620-7ad01bcf91e8&thumb,인천 옹진군 덕적면 굴업리,37.1905072,125.9779614
굴포천 생태하천,인천 부평구,032-504-2114,"['관광지', '자연']",https://cdn.visitkorea.or.kr/img/call?cmd=VIEW&id=86075ac5-b030-4aea-97f9-d20a66403c5c&thumb,인천광역시 부평구 굴포로 141,37.5118136,126.7366226
김상용순절비,인천 강화군,032-930-4571,"['관광지', '김상용순절비', '수도권', '역사', '역사공부', '역사관광지', '역사를품은곳']",https://cdn.visitkorea.or.kr/img/call?cmd=VIEW&id=42b67901-f0d3-49a3-848b-997d8b38ae24&thumb,인천광역시 강화군 강화읍 관청리,37.7505815,126.4847126
논현포대,인천 남동구,032-440-4053,"['관광지', '논현포대', '문화재', '수도권', '역사', '역사공부', '역사관광지', '역사를품은곳']",https://cdn.visitkorea.or.kr/img/call?cmd=VIEW&id=7890970f-b2d6-4a02-92f6-903f662e5300&thumb,인천광역시 남동구 호구포로 203-31,37.4184349,126.7116593
능허대지,인천 연수구,032-749-7312,"['가족여행', '관광지', '능허대지', '도심여행', '사계절', '산책길', '산책하기', '산책하기좋은곳']",https://cdn.visitkorea.or.kr/img/call?cmd=VIEW&id=ea15425b-b7ce-4e37-99ab-afddb65cffd6&thumb,인천광역시 연수구 옥련동,37.4232577,126.6479221
대이작도,인천 옹진군,032-851-888,"['경치좋은곳', '관광지', '대이작도', '바다낚시', '서울근교여행', '섬', '수도권']",https://cdn.visitkorea.or.kr/img/call?cmd=VIEW&id=66b66ed1-3a9b-4ee5-8b9a-ad1fa74a2c08&thumb,인천광역시 옹진군 자월면 이작리,37.175244,126.2594459
대청도,인천 옹진군,032-899-3610,"['경치좋은곳', '관광지', '대청도', '바다낚시', '생태관광지', '서울근교여행', '섬']",https://cdn.visitkorea.or.kr/img/call?cmd=VIEW&id=a240499c-2763-4fd2-b82b-065cd5dd8e0a&thumb,인천광역시 옹진군 대청면,37.8237659,124.7118314
대청도 농여해변,인천 옹진군,032-832-3031,"['관광지', '바다내음', '자연관광지', '자연좋은곳', '자연풍경', '자연환경', '휴식공간']",https://cdn.visitkorea.or.kr/img/call?cmd=VIEW&id=71f5ca63-8007-43e0-875a-561781879109&thumb,인천광역시 옹진군 대청면,37.8237659,124.7118314
대한민국 수준원점,인천 미추홀구,032-880-4667,"['관광지', '역사', '역사관광지']",https://cdn.visitkorea.or.kr/img/call?cmd=VIEW&id=ab3f3261-7936-4764-8592-73e0c68bd0f8&thumb,인천광역시 미추홀구 인하로 100,37.4500221,126.653488
대한성공회 강화성당,인천 강화군,032-930-4571,"['관광지', '대한성공회강화성당', '사적', '성당', '수도권', '역사', '역사공부', '역사관광지']",https://cdn.visitkorea.or.kr/img/call?cmd=VIEW&id=4c534b04-e323-4ef8-96b7-f3ac9cfaaa8c&thumb,인천광역시 강화군 강화읍 관청길27번길 10,37.7493319,126.4854489
덕적군도,인천 옹진군,032-899-2114,"['관광지', '남녀노소', '섬여행', '섬여행지추천', '여름가볼만한곳', '여름피서지']",https://cdn.visitkorea.or.kr/img/call?cmd=VIEW&id=7231959d-df8b-4c6a-b480-7ba53a4e5820&thumb,인천광역시 옹진군 덕적면 문갑리,37.1778643,126.0954371
덕적도,인천 옹진군,032-899-2114,"['갯벌체험', '경치좋은곳', '관광지', '낙조명소', '당일치기여행', '덕적도', '등산']",https://cdn.visitkorea.or.kr/img/call?cmd=VIEW&id=848be087-edd5-437a-9eaf-967d76c34342&thumb,인천광역시 옹진군 덕적면 덕적북로 130,37.2275961,126.1447008
덕적도 능동자갈마당,인천 옹진군,032-832-3031,"['관광지', '자연관광지', '자연발생', '자연여행', '자연좋은곳', '자연풍경', '자연환경']",https://cdn.visitkorea.or.kr/img/call?cmd=VIEW&id=93db194a-68dc-4ca2-942d-bf536d3f0dbe&thumb,인천광역시 옹진군 덕적면,37.2264075,126.1467791
덕적도 비조봉,인천 옹진군,032-832-3031,"['경치여행', '경치좋은곳', '관광지', '자연관광지', '자연발생', '자연속으로', '자연여행']",https://cdn.visitkorea.or.kr/img/call?cmd=VIEW&id=2b5f5f19-d6c6-4062-9844-3bb47dce6048&thumb,인천광역시 옹진군 덕적면,37.2264075,126.1467791
도래미마을,인천 강화군,032-934-4994,"['가족과함께', '관광지', '농촌', '농촌마을', '농촌여행', '농촌체험', '농촌체험여행']",https://cdn.visitkorea.or.kr/img/call?cmd=VIEW&id=f3d16501-1bbb-4fe5-8451-09cb7dac6ef0&thumb,인천광역시 강화군 선원면 해안동로 1129-19,37.7161619,126.5086979
"동검도(나들길,캠핑,예술극장)",인천 강화군,032-934-7500,"['관광지', '국내힐링여행', '남녀노소', '언택트관광지_100선', '자연마을', '자연여행']",https://cdn.visitkorea.or.kr/img/call?cmd=VIEW&id=24e91286-aade-48e5-8594-e55aa68dc116&thumb,인천광역시 강화군 길상면 동검길63번길 60,37.5926635,126.5183517
동인천 삼치거리,인천 중구,032-760-6477,"['가족과함께', '관광지', '남녀노소', '동인천삼치거리', '먹자골목', '삼치', '삼치구이']",https://cdn.visitkorea.or.kr/img/call?cmd=VIEW&id=49fddaa8-9b7f-4a33-9797-e08403bba280&thumb,인천광역시 중구 우현로67번길 57,37.4756952,126.6286801
드림파크,인천 서구,032-560-9911,"['가족여행', '관광지', '남녀노소', '데이트코스', '드림파크', '사진찍기좋은곳']",https://cdn.visitkorea.or.kr/img/call?cmd=VIEW&id=ff9bdf93-9034-4b6d-80c0-f0b6b6d29f06&thumb,인천광역시 서구 거월로 61,37.5762792,126.6616801
마니산(강화),인천 강화군,032-930-7068,"['강화가볼만한곳', '강화여행', '경치좋은곳', '관광지', '등산여행', '마니산', '자연']",https://cdn.visitkorea.or.kr/img/call?cmd=VIEW&id=044faa98-3076-494b-a752-54ab8b8ffb4f&thumb,인천광역시 강화군 화도면 마니산로675번길 18,37.6329848,126.4240371
망양돈대,인천 강화군,032-832-3031,"['관광지', '망양돈대', '수도권', '역사', '역사공부', '역사관광지', '역사를품은곳']",https://cdn.visitkorea.or.kr/img/call?cmd=VIEW&id=dd015b96-ac89-4169-bb0d-6e2b261671f2&thumb,인천광역시 강화군 내가면 해안서로,37.7062178,126.3656204
망향대,인천 강화군,032-930-3124,"['강화군', '관광지', '교육여행', '망향대', '아이와함께', '안보교육', '역사', '역사공부']",https://cdn.visitkorea.or.kr/img/call?cmd=VIEW&id=dfac0149-70af-4ede-a558-d6e44444f602&thumb,인천광역시 강화군 교동면,37.7838437,126.283172
무덕정,인천 미추홀구,032-875-3921,"['관광지', '무덕정', '서울근교여행', '수도권', '역사', '역사유적지', '유적지', '활터']",https://cdn.visitkorea.or.kr/img/call?cmd=VIEW&id=d9bd1bcb-6577-4187-9846-7cf220040453&thumb,인천광역시 미추홀구 수봉로95번길 32,37.4599619,126.6614706
무의 까치놀섬마을,인천 중구,070-7759-5422,"['관광지', '농촌마을', '농촌여행', '농촌체험여행', '자연마을', '자연속으로', '자연좋은곳']",https://cdn.visitkorea.or.kr/img/call?cmd=VIEW&id=906a282d-1087-495a-8229-7080cbe4eabc&thumb,인천광역시 중구 대무의로301번길 19-16,37.3903164,126.4288724
무의도,인천 중구,032-832-3031,"['관광지', '자연']",https://cdn.visitkorea.or.kr/img/call?cmd=VIEW&id=e2f6b2dd-6650-4b63-ac0d-edb2f8ec7526&thumb,인천광역시 중구 대무의로 310-11,37.3893458,126.4249302
무태돈대,인천 강화군,032-930-4571,"['관광지', '무태돈대', '수도권', '역사', '역사공부', '역사관광지', '역사를품은곳']",https://cdn.visitkorea.or.kr/img/call?cmd=VIEW&id=59ca2e85-fab1-4465-89d6-9fb0329b1882&thumb,인천광역시 강화군 하점면 창후로,37.7663238,126.3678137
민머루해변,인천 강화군,032-934-7500,"['가족여행', '관광지', '민머루해변', '바다풍경', '생태관광', '서울근교여행', '연중무휴']",https://cdn.visitkorea.or.kr/img/call?cmd=VIEW&id=d00a36d3-7074-4a4f-8fd3-417255f8c549&thumb,인천광역시 강화군 삼산면 어류정길212번길,37.6539128,126.3308399
밧지름해변,인천 옹진군,032-832-3031,"['가족여행', '경치좋은곳', '관광지', '등산', '바다낚시', '바다풍경', '밧지름해변']",https://cdn.visitkorea.or.kr/img/call?cmd=VIEW&id=7aac7028-80f4-496c-942c-cb0c46a03f85&thumb,인천광역시 옹진군 덕적면 덕적남로 209-1,37.2151967,126.1393728
배다리 헌책방 골목,인천 동구,032-770-6100,"['관광지', '도깨비', '드라마촬영지', '배다리헌책방골목', '벽화거리', '산업관광']",https://cdn.visitkorea.or.kr/img/call?cmd=VIEW&id=71833b6f-2dc0-4686-b8f0-a9c14b8163de&thumb,인천광역시 동구 금곡로 3,37.4726818,126.6361196
백련사(강화),인천 강화군,032-933-5082,"['관광지', '불교', '불교문화', '불교사찰', '사찰', '사찰여행', '역사', '자연속으로']",https://cdn.visitkorea.or.kr/img/call?cmd=VIEW&id=014fdc2f-c654-44a0-a7a0-06652dd3b1c6&thumb,인천광역시 강화군 하점면 고려산로61번길 270,37.751583,126.4376545
백령도,인천 옹진군,032-899-3510,"['가족여행', '경치좋은곳', '관광지', '교과서속여행', '백령도', '생태관광지', '서울근교여행']",https://cdn.visitkorea.or.kr/img/call?cmd=VIEW&id=d8eb1e89-93fe-4a3c-b8b8-1e730c9c1da1&thumb,인천광역시 옹진군 백령면 백령로,37.9625097,124.7005611
백령도 끝섬전망대,인천 옹진군,032-899-2114,"['가족과함께', '경치여행', '경치좋은곳', '관광지', '아이와함께', '연인과함께']",https://cdn.visitkorea.or.kr/img/call?cmd=VIEW&id=89625d8d-5594-4f35-9462-9a81130d637d&thumb,인천광역시 옹진군 백령면,37.9728415,124.718271
백령도 콩돌해변,인천 옹진군,032-899-3087,"['경치좋은곳', '관광지', '바다풍경', '서울근교여행', '수도권', '자연', '자연유산']",https://cdn.visitkorea.or.kr/img/call?cmd=VIEW&id=a4de4432-5471-4dd8-b588-698c896c9740&thumb,인천광역시 옹진군 백령면,37.9728415,124.718271
보문사(강화),인천 강화군,032-933-8271,"['관광지', '역사']",https://cdn.visitkorea.or.kr/img/call?cmd=VIEW&id=e4bee13a-aef7-4596-8a4c-6691bef90f96&thumb,인천광역시 강화군 삼산면 삼산남로828번길 44,37.6885353,126.3215585
볼음도(저어새 생태마을),인천 강화군,010-3366-4591,"['관광지', '볼음도', '섬', '수도권', '어촌체험', '어촌체험마을', '이색체험', '자연']",https://cdn.visitkorea.or.kr/img/call?cmd=VIEW&id=5d079db1-5e67-4e5d-bad8-f13bf5c78954&thumb,인천광역시 강화군 서도면,37.6506578,126.2416656
봉일사지삼층석탑,인천 계양구,032-543-1842,"['관광지', '역사', '역사공부', '역사관광지', '역사를품은곳', '역사문화재', '역사속']",https://cdn.visitkorea.or.kr/img/call?cmd=VIEW&id=c2004510-00b2-4603-8eda-903f6ef08df7&thumb,인천광역시 계양구 계양산로75번길 7-13,37.5491406,126.7232525
부도 등대,인천 옹진군,032-833-3926,"['관광지', '자연']",https://cdn.visitkorea.or.kr/img/call?cmd=VIEW&id=d8baefa6-aeec-49ea-bab9-64dc92db44ef&thumb,인천광역시 옹진군 영흥면 선미로 142-1,37.255991,126.483866
부아산 구름다리,인천 옹진군,032-899-2210,"['가족과함께', '경치좋은곳', '관광지', '남녀노소', '다리', '부아산구름다리', '사진찍기']",https://cdn.visitkorea.or.kr/img/call?cmd=VIEW&id=57ba5115-6f5d-494d-a30c-d58e6c19fc03&thumb,인천 옹진군 자월면 이작리,37.175244,126.2594459
부평 해물탕거리,인천 부평구,032-832-3031,"['가족과함께', '관광지', '맛집탐방', '숨은맛집', '음식테마거리', '이색거리', '인천']",https://cdn.visitkorea.or.kr/img/call?cmd=VIEW&id=cf598c6c-91b5-480c-95e4-40598796def3&thumb,인천광역시 부평구 부평문화로 113,37.4942679,126.7289752
부평공원,인천 부평구,032-832-3031,"['걷기길', '관광지', '나들이', '부평공원', '산책길', '산책하기', '산책하기좋은곳']",https://cdn.visitkorea.or.kr/img/call?cmd=VIEW&id=343c5bd0-c978-4ab0-9976-cee7c0215636&thumb,인천광역시 부평구 부평공원로,37.4880078,126.7114323
부평도호부청사,인천 계양구,032-450-5822,"['관광지', '역사', '역사공부', '역사관광지', '역사를품은곳', '역사문화재', '역사속']",https://cdn.visitkorea.or.kr/img/call?cmd=VIEW&id=3b6bc92a-b344-4b52-9eb2-0d6b44390257&thumb,인천광역시 계양구 어사대로 20,37.5420331,126.7237336
부평향교,인천 계양구,032-541-2924,"['관광지', '역사', '역사공부', '역사관광지', '역사를품은곳', '역사문화재', '역사속']",https://cdn.visitkorea.or.kr/img/call?cmd=VIEW&id=c744801c-124c-495c-b6ba-9527ecb2c0ed&thumb,인천광역시 계양구 향교로 19,37.5399606,126.7200552
분오리돈대,인천 강화군,032-930-4571,"['관광지', '역사', '역사공부', '역사관광지', '역사를품은곳', '역사문화재', '역사속']",https://cdn.visitkorea.or.kr/img/call?cmd=VIEW&id=e0bb8798-829d-4827-8bb8-4ace3c5756b7&thumb,인천광역시 강화군 화도면,37.6318251,126.4197314
사곶해변,인천 옹진군,032-899-3087,"['관광지', '바다낚시', '바다풍경', '사곶해변', '서울근교여행', '수도권', '여름여행']",https://cdn.visitkorea.or.kr/img/call?cmd=VIEW&id=4d8f4936-36cd-4da8-bfd4-9384bdddda13&thumb,인천광역시 옹진군 백령면 사곶로 139,37.9521352,124.7236026
삼랑성(정족산성),인천 강화군,032-930-4571,"['관광지', '삼랑성(정족산성)', '서울근교여행', '아이와함께', '역사', '역사공부']",https://cdn.visitkorea.or.kr/img/call?cmd=VIEW&id=65640c27-b2a5-4f45-aef4-150c024dbeb1&thumb,인천광역시 강화군 길상면 온수리,37.6419834,126.4839019
삼산저수지,인천 강화군,032-932-8265,"['관광지', '삼산저수지', '수도권', '자연', '저수지']",https://cdn.visitkorea.or.kr/img/call?cmd=VIEW&id=1da25ee5-a725-4321-99c4-a5c9387d6c6a&thumb,인천 강화군 삼산면 석모리,37.6955531,126.3335311
서어나무(소사나무)군락지,인천 옹진군,032-751-2628,"['가족여행', '관광지', '산책로', '서어나무군락지', '서울근교여행', '수도권', '여름여행']",https://cdn.visitkorea.or.kr/img/call?cmd=VIEW&id=464c201c-096f-40ec-9cff-586db8c5a6d7&thumb,인천광역시 옹진군 영흥면 내리,37.2688539,126.4708583
서포리해변,인천 옹진군,032-899-2214,"['가족여행', '걷기길', '걷기여행', '관광지', '당일치기여행', '바다풍경', '서포리해변']",https://cdn.visitkorea.or.kr/img/call?cmd=VIEW&id=d321526e-a473-4877-ba8d-c7996ef92197&thumb,인천광역시 옹진군 덕적면 덕적남로587번길 15,37.222418,126.1141303
서포마을,인천 옹진군,032-899-3710,"['경치좋은곳', '관광지', '바다낚시', '바다풍경', '서울근교여행', '서포마을', '수도권']",https://cdn.visitkorea.or.kr/img/call?cmd=VIEW&id=a6c78082-bafa-4b6a-a13d-8631a6ac12f1&thumb,인천광역시 옹진군 덕적면 덕적남로,37.2312983,126.1271883
석모도,인천 강화군,032-932-8988,"['관광지', '석모도', '섬', '수도권', '언택트관광지_100선', '자연']",https://cdn.visitkorea.or.kr/img/call?cmd=VIEW&id=c8b6f562-6440-4a4a-a118-992c07c1f05e&thumb,인천광역시 강화군 삼산면 삼산북로 9,37.6931085,126.3669707
석모도 미네랄 온천,인천 강화군,032-930-7051,"['가족휴양지', '관광지', '미네랄', '석모도미네랄온천', '연인과함께', '온천', '온천수']",https://cdn.visitkorea.or.kr/img/call?cmd=VIEW&id=13108661-1e25-4754-87e9-ac928308f3ce&thumb,인천광역시 강화군 삼산면 삼산남로 865-17,37.6867691,126.3137634
석모도 수목원,인천 강화군,032-932-5432,"['가족여행', '걷기길', '관광지', '당일치기여행', '서울근교여행', '석모도수목원']",https://cdn.visitkorea.or.kr/img/call?cmd=VIEW&id=260606c2-7627-4302-b4fa-f7b99a3b18f6&thumb,인천광역시 강화군 삼산면 삼산북로449번길 161,37.6905879,126.3258795
석모도 자연휴양림,인천 강화군,032-932-1882,"['가족여행', '관광지', '서울근교여행', '석모도자연휴양림', '수도권', '자연', '자연&숲']",https://cdn.visitkorea.or.kr/img/call?cmd=VIEW&id=dc3de7a8-c87a-455b-91f5-0c52cb5957fb&thumb,인천광역시 강화군 삼산면 삼산서로 39-75,37.6970362,126.3138188
선녀바위,인천 중구,032-760-7532,"['관광지', '기암괴석', '선녀바위', '수도권', '언택트관광지_100선', '자연']",https://cdn.visitkorea.or.kr/img/call?cmd=VIEW&id=8fec8a08-6dfc-4747-b69c-574f7424577f&thumb,인천광역시 중구 을왕동,37.4516407,126.3829845
선녀바위해수욕장,인천 중구,032-760-7532,"['경치여행', '경치좋은곳', '관광지', '바다경치', '바다내음', '선녀바위', '선녀바위해변']",https://cdn.visitkorea.or.kr/img/call?cmd=VIEW&id=651d7cdd-d976-4d7b-a5a9-74e32908e629&thumb,인천광역시 중구 선녀바위로 60,37.4397893,126.3788734
선미도 등대,인천 옹진군,032-831-4927,"['관광지', '자연']",https://cdn.visitkorea.or.kr/img/call?cmd=VIEW&id=undefined&thumb,인천광역시 옹진군 덕적면 선미로 91,37.2264075,126.1467791
선재도(선재도 어촌체험마을),인천 옹진군,032-899-3810,"['가족여행', '갯벌체험', '경치좋은곳', '관광지', '서울근교여행', '선재도', '섬']",https://cdn.visitkorea.or.kr/img/call?cmd=VIEW&id=6099e7e0-7a82-4a95-ad71-c2c0426758c9&thumb,인천광역시 옹진군 영흥면,37.255991,126.483866
세어도,인천 서구,010-8895-9748,"['가족여행', '관광지', '섬', '세어도', '수도권', '자연']",https://cdn.visitkorea.or.kr/img/call?cmd=VIEW&id=b40c0990-bb93-4745-8080-d7815d47fb4e&thumb,인천광역시 서구 세어로 29,37.572447,126.5666605
소래습지생태공원,인천 남동구,032-435-7076,"['가족과함께', '관광지', '바다풍경', '사계절', '서울근교여행', '소래습지생태공원']",https://cdn.visitkorea.or.kr/img/call?cmd=VIEW&id=210f60ac-5818-4a85-823b-c47c90b5c6b8&thumb,인천광역시 남동구 소래로154번길 77,37.4230206,126.7432113
소래습지생태공원,인천 남동구,032-435-7076,"['걷기길', '관광지', '생태관광', '생태관광지', '소래습지생태공원', '전시관', '체험학습']",https://cdn.visitkorea.or.kr/img/call?cmd=VIEW&id=b2387b04-bc31-4a1f-a73d-4654d88950c8&thumb,인천광역시 남동구 소래로154번길 77,37.4230206,126.7432113
소래포구,인천 남동구,032-442-6887,"['가족여행', '관광지', '당일치기여행', '먹거리', '미식여행', '바다풍경', '생태관광지']",https://cdn.visitkorea.or.kr/img/call?cmd=VIEW&id=2f3e6379-8c86-4f41-8639-0c68f979d50c&thumb,인천광역시 남동구 포구로 2-6,37.3988308,126.7402023
소야도 떼뿌리 해변,인천 옹진군,032-832-3031,"['관광지', '바다내음', '여름피서지', '자연관광지', '자연여행', '자연좋은곳', '자연풍경']",https://cdn.visitkorea.or.kr/img/call?cmd=VIEW&id=6ecfbfcd-99d3-48cc-bdf5-79a5a0fad087&thumb,인천광역시 옹진군 덕적면,37.2264075,126.1467791
소이작도,인천 옹진군,,"['관광지', '소이작도', '언택트관광지_100선', '이작도', '자연']",https://cdn.visitkorea.or.kr/img/call?cmd=VIEW&id=8a3fa509-6b94-4aa2-b4cd-e72687b0c762&thumb,인천광역시 옹진군 자월면 이작리,37.175244,126.2594459
소창체험관,인천 강화군,032-934-2500,"['가족과함께', '가족이색체험', '관광지', '남녀노소', '다도체험', '복합문화공간']",https://cdn.visitkorea.or.kr/img/call?cmd=VIEW&id=a69c649c-a777-49c2-ade9-9ccdfcd8ec27&thumb,인천광역시 강화군 강화읍 남문안길20번길 8,37.7465345,126.4842635
소청도,인천 옹진군,032-836-3301,"['경치좋은곳', '관광지', '바다낚시', '바다풍경', '서울근교여행', '섬', '소청도']",https://cdn.visitkorea.or.kr/img/call?cmd=VIEW&id=dc822513-8427-4906-8ef0-a564d9dc4789&thumb,인천광역시 옹진군 대청면 소청리,37.7729184,124.752398
소청도 등대,인천 옹진군,032-836-3104,"['관광지', '자연']",https://cdn.visitkorea.or.kr/img/call?cmd=VIEW&id=9d3352ba-9bae-4554-9830-a46e7cb7f59b&thumb,인천광역시 옹진군 대청면 소청서로 279,37.76021,124.7319816
송도 센트럴파크,인천 연수구,032-837-4753,"['19_20한국관광100선', '가족여행', '걷기여행', '공원', '관광지', '나들이', '데이트장소추천']",https://cdn.visitkorea.or.kr/img/call?cmd=VIEW&id=5af73175-2f6c-4b3b-9e36-742cb0bede1e&thumb,인천광역시 연수구 컨벤시아대로 160,37.3921637,126.6391971
송월동 동화마을,인천 중구,032-760-6480,"['SNS감성사진', '감성사진', '걷기여행', '관광지', '데이트장소', '사진찍기좋은곳']",https://cdn.visitkorea.or.kr/img/call?cmd=VIEW&id=a597265e-fe4b-40a4-91ed-16fe69621441&thumb,인천광역시 중구 동화마을길 38,37.4776611,126.6205827
송현근린공원,인천 동구,032-770-6205,"['걷기길', '걷기여행', '관광지', '나들이', '사계절', '송현근린공원', '수도권', '아이와함께']",https://cdn.visitkorea.or.kr/img/call?cmd=VIEW&id=43cb5983-2c89-4584-968d-1b6584284eb2&thumb,인천광역시 동구 솔빛로 51,37.4771943,126.6391014
송현배수지 제수변실과 수도국산 달동네박물관,인천 동구,032-770-6131,"['관광지', '달동네박물관', '당일치기여행', '박물관', '봄방학', '산업관광', '산업관광지']",https://cdn.visitkorea.or.kr/img/call?cmd=VIEW&id=0866719e-04dc-4b7e-936d-361fa473acfa&thumb,인천광역시 동구 솔빛로 51,37.4771943,126.6391014
송현배수지제수변실,인천 동구,032-770-6104,"['관광지', '역사', '역사공부', '역사관광지', '역사를품은곳', '역사문화재', '역사속']",https://cdn.visitkorea.or.kr/img/call?cmd=VIEW&id=fe41d773-e735-4607-bd69-628ffee8b612&thumb,인천광역시 동구 송현공원로 75-21,37.4790112,126.639532
수기해변,인천 옹진군,032-751-2628,"['경치좋은곳', '관광지', '드라마촬영지', '바다풍경', '서울근교여행', '수기해변']",https://cdn.visitkorea.or.kr/img/call?cmd=VIEW&id=7e70b40a-0613-4e9a-8197-8f01e50a90ae&thumb,인천광역시 옹진군 북도면 시도로86번길 291-48,37.544194,126.4318163
수봉공원,인천 미추홀구,032-880-4502,"['걷기길', '관광지', '나들이', '서울근교여행', '수도권', '수봉공원']",https://cdn.visitkorea.or.kr/img/call?cmd=VIEW&id=f55d422b-435e-4036-8c86-e702a75aec38&thumb,인천광역시 미추홀구 수봉안길 84,37.4597895,126.6632754
스파시스,인천 미추홀구,032-866-4545,"['가족여행', '관광지', '사일온천', '수도권', '실내여행지', '아이와함께', '온천&스파']",https://cdn.visitkorea.or.kr/img/call?cmd=VIEW&id=2851acbc-51d0-4b79-b2fe-d439e1107eb6&thumb,인천광역시 미추홀구 경인로 263,37.4627654,126.6719668
승봉도,인천 옹진군,032-899-3750,"['관광지', '자연']",https://cdn.visitkorea.or.kr/img/call?cmd=VIEW&id=759b4151-b88a-40af-8f02-3a51b9793d1a&thumb,인천광역시 옹진군 자월면 승봉리,37.0913104,126.0766829
승봉도 이일레 해변,인천 옹진군,032-899-3750,"['가족여행', '관광지', '바다풍경', '서울근교여행', '수도권', '아이와함께', '여름여행']",https://cdn.visitkorea.or.kr/img/call?cmd=VIEW&id=c1bf407f-6768-4633-bad8-fe2315ad2fe1&thumb,인천광역시 옹진군 자월면 승봉로116번길,37.1656565,126.3020506
신시모도 (신도ㆍ시도ㆍ모도),인천 옹진군,032-899-3411,"['가족여행', '경치좋은곳', '관광지', '등산로', '모도', '바다풍경', '봄꽃여행', '섬']",https://cdn.visitkorea.or.kr/img/call?cmd=VIEW&id=b6990f37-d409-4a16-91a8-d7ec71598397&thumb,인천광역시 옹진군 북도면,37.5323923,126.4271269
신트리공원,인천 부평구,032-509-6972,"['가족여행', '걷기여행', '관광지', '나들이(피크닉)', '당일치기여행', '사계절']",https://cdn.visitkorea.or.kr/img/call?cmd=VIEW&id=e427fefc-3ca3-468c-a921-23ee26ad7662&thumb,인천광역시 부평구 신트리로 21,37.506554,126.723355
실감콘텐츠체험관 탐,인천 동구,032-766-4700,"['관광지', '산업관광', '산업관광지', '수도권', '실감콘텐츠체험관', '실감콘텐츠체험관탐']",https://cdn.visitkorea.or.kr/img/call?cmd=VIEW&id=659db65e-3145-4145-8cab-4e3e28739898&thumb,인천광역시 동구 서해대로520번길 12,37.4718146,126.6386609
실미원농장,인천 중구,032-752-7600,"['가족체험', '관광지', '교육여행', '교육프로그램', '농촌', '농촌여행코스', '농촌체험학습']",https://cdn.visitkorea.or.kr/img/call?cmd=VIEW&id=c23ce8e7-fd4a-4434-9770-caeef8267921&thumb,인천광역시 중구 큰무리로 23,37.4696793,126.6254511
실미해수욕장,인천 중구,032-752-4466,"['관광지', '자연']",https://cdn.visitkorea.or.kr/img/call?cmd=VIEW&id=15fb61a6-1926-4c6a-a90d-89c55c2a34da&thumb,인천광역시 중구 큰무리로 99,37.4696793,126.6254511
심청각,인천 옹진군,032-899-3518,"['경치좋은곳', '관광지', '남녀노소', '산책하기', '산책하기좋은곳', '심청각', '심청전']",https://cdn.visitkorea.or.kr/img/call?cmd=VIEW&id=3d6fdca4-08aa-4791-97b4-a42b58583a59&thumb,인천광역시 옹진군 백령면 백령로316번길 109-117,37.9796193,124.7167236
아암도해안공원,인천 연수구,032-817-1011,"['가족여행', '관광지', '데이트코스', '바다풍경', '사계절', '아암도해안공원', '연인과함께']",https://cdn.visitkorea.or.kr/img/call?cmd=VIEW&id=ae8ceca8-e4b0-4661-a06d-d7e376750e95&thumb,인천광역시 연수구 능허대로 192,37.416787,126.6478239
약사사(인천),인천 남동구,032-429-4449,"['관광지', '불교', '불교문화', '불교사찰', '사찰', '사찰여행', '역사', '자연속으로']",https://cdn.visitkorea.or.kr/img/call?cmd=VIEW&id=6319947d-6b4b-4bd3-9b56-01dca0bac931&thumb,인천광역시 남동구 풀무로 48,37.4716894,126.7122861
양헌수승전비,인천 강화군,032-930-4571,"['관광지', '문화재', '수도권', '양헌수승전비', '역사', '역사공부', '역사관광지']",https://cdn.visitkorea.or.kr/img/call?cmd=VIEW&id=e0c04a18-27ff-4bbc-8c4e-c74fa65eea8e&thumb,인천광역시 강화군 길상면 온수리,37.6419834,126.4839019
연등국제선원,인천 강화군,032-937-7033,"['관광지', '불교', '불교문화', '사찰', '사찰여행', '역사', '역사관광지', '자연속으로']",https://cdn.visitkorea.or.kr/img/call?cmd=VIEW&id=95a56939-64da-4d81-bdbe-eee07c5bc8b9&thumb,인천광역시 강화군 길상면 강화동로 349-60,37.6719903,126.483444
연무당 옛터,인천 강화군,032-930-4571,"['관광지', '수도권', '역사', '역사공부', '역사관광지', '역사를품은곳', '역사문화재']",https://cdn.visitkorea.or.kr/img/call?cmd=VIEW&id=b8891c5d-6680-47a6-9ae6-27a3a1420f94&thumb,인천광역시 강화군 강화읍 국화리,37.7418929,126.4581332
연미정,인천 강화군,032-930-3124,"['관광지', '교과서속여행', '문화재', '수도권', '역사', '역사공부', '역사관광지']",https://cdn.visitkorea.or.kr/img/call?cmd=VIEW&id=e5e56af3-70bc-4f2d-92f7-5d4019e453b8&thumb,인천광역시 강화군 강화읍,37.7483209,126.4835663
연안부두,인천 중구,032-777-1330,"['경치좋은곳', '관광지', '남녀노소', '바다낚시', '바다풍경', '산책길', '산책하기']",https://cdn.visitkorea.or.kr/img/call?cmd=VIEW&id=7328f8b5-2fc6-4f9e-b0bd-d10899303767&thumb,인천광역시 중구 연안부두로 70,37.4539687,126.5984075
연안부두 밴댕이회무침거리,인천 중구,032-765-4169,"['가족과함께', '관광지', '남녀노소', '맛집탐방', '물회', '바다경치', '바다내음']",https://cdn.visitkorea.or.kr/img/call?cmd=VIEW&id=d7b4f6df-6015-417c-b4b0-bc0805466bb8&thumb,인천광역시 중구 연안부두로 24-1,37.4562368,126.6029144
연평도 안보교육장,인천 옹진군,032-899-2114,"['가족과함께', '관광지', '교육여행', '아이와함께', '안보교욱장', '안보교육', '역사공부']",https://cdn.visitkorea.or.kr/img/call?cmd=VIEW&id=f2b3610d-391f-41e8-8886-37c82da3bf05&thumb,인천광역시 옹진군 연평면 연평중앙로12번길 25,37.6638697,125.7076246
연평도(대/소 연평도),인천 옹진군,032-899-3450,"['관광지', '섬', '수도권', '안보체험', '연평도', '자연']",https://cdn.visitkorea.or.kr/img/call?cmd=VIEW&id=b617f8de-e325-457c-b9f5-5c8a1aa1ef92&thumb,인천광역시 옹진군 연평면 연평중앙로24번길 3,37.6646337,125.7050762
영종대교,인천 서구,032-832-3031,"['건축물', '관광지', '대교', '드라이브여행', '드라이브코스', '야간드라이브', '야경명소']",https://cdn.visitkorea.or.kr/img/call?cmd=VIEW&id=566407c5-7d89-4917-a2a6-fcdd2498349a&thumb,인천광역시 서구 경서동(장도),37.553391,126.609006
영종도,인천 중구,032-760-6482,"['관광지', '드라이브여행', '마시안해수욕장', '생태관광', '생태관광지', '수도권']",https://cdn.visitkorea.or.kr/img/call?cmd=VIEW&id=f6b2500a-a192-4762-8489-1c37f871868c&thumb,인천광역시 중구 운남서로 100,37.4938542,126.5313043
영종도,인천 중구,032-745-0211,"['관광지', '자연']",https://cdn.visitkorea.or.kr/img/call?cmd=VIEW&id=26f1379c-49ac-4552-ac02-4aa568e3c8c4&thumb,인천광역시 중구 운남서로 100,37.4938542,126.5313043
영창뮤직,인천 서구,032-570-1045,"['가족과함께', '견학', '견학프로그램', '관광지', '남녀노소', '산업관광', '수도권']",https://cdn.visitkorea.or.kr/img/call?cmd=VIEW&id=d156eb32-1055-4eae-a91d-a4b85df6763c&thumb,인천광역시 서구 봉수대로 196,37.5556036,126.6578199
영화초등학교본관동,인천 동구,032-764-5131,"['관광지', '역사', '역사공부', '역사관광지', '역사를품은곳', '역사문화재', '역사속']",https://cdn.visitkorea.or.kr/img/call?cmd=VIEW&id=8af01102-6929-4e52-9bdb-dee2ef04ab1f&thumb,인천광역시 동구 우각로 39,37.4711916,126.6404233
영흥대교,인천 옹진군,032-899-2210,"['건축물', '경치좋은곳', '관광지', '대교', '드라이브', '바다경치', '바다낚시', '바다내음']",https://cdn.visitkorea.or.kr/img/call?cmd=VIEW&id=e51b31c8-2756-4657-9243-041912b78259&thumb,인천광역시 옹진군 영흥면,37.255991,126.483866
영흥도,인천 옹진군,032-886-7800,"['2020_휴가철찾아가고싶은_33섬', '경치좋은곳', '관광지', '연인과함께', '일몰명소']",https://cdn.visitkorea.or.kr/img/call?cmd=VIEW&id=b87a9676-b500-4080-8978-489716655baf&thumb,인천광역시 옹진군 영흥면,37.255991,126.483866
영흥도 십리포해변,인천 옹진군,032-899-2214,"['가족여행', '관광지', '바다풍경', '수도권', '여름방학가볼만한곳', '여름여행']",https://cdn.visitkorea.or.kr/img/call?cmd=VIEW&id=e81d3d83-3fae-4250-b732-c6697344c853&thumb,인천광역시 옹진군 영흥면 영흥북로 420-26,37.2807995,126.4828107
오읍약수터,인천 강화군,032-934-7500,"['관광지', '자연']",https://cdn.visitkorea.or.kr/img/call?cmd=VIEW&id=undefined&thumb,인천광역시 강화군 강화읍 북문길 110,37.7560171,126.4836252
옥토끼우주센터,인천 강화군,032-937-6917,"['가족체험여행', '겨울방학가볼만한곳', '관광지', '서울근교여행', '수도권', '아이와함께']",https://cdn.visitkorea.or.kr/img/call?cmd=VIEW&id=c6902ede-ddc9-4706-89c2-4d08cbe541d9&thumb,인천광역시 강화군 불은면 강화동로 403,37.6749694,126.4872045
옹진 백령도 두무진,인천 옹진군,032-899-3515,"['경치좋은곳', '관광지', '두무진', '명승', '서울근교여행', '수도권', '자연', '자연발생']",https://cdn.visitkorea.or.kr/img/call?cmd=VIEW&id=282f6c97-7ada-4416-8479-1bdc16255584&thumb,인천광역시 옹진군 백령면 두무진로 559-3,37.9747666,124.6215347
옹진군 신도,인천 옹진군,032-899-2114,"['관광지', '구봉정', '모도', '생태관광', '생태관광지', '수기해수욕장', '시도', '신도']",https://cdn.visitkorea.or.kr/img/call?cmd=VIEW&id=5c08aca1-67e1-4314-a7ad-2ed5d940ca26&thumb,인천광역시 옹진군 북도면 신도리,37.5273686,126.4525008
왕산해수욕장,인천 중구,032-777-1330,"['가족과함께', '관광지', '남녀노소', '바다경치', '바다내음', '아이와함께', '여름피서지']",https://cdn.visitkorea.or.kr/img/call?cmd=VIEW&id=d07c512e-50b8-441a-8ad5-6c43e125afd0&thumb,인천광역시 중구 을왕동,37.4516407,126.3829845
용궁사(인천),인천 중구,032-746-1361,"['관광지', '불교', '불교사찰', '사찰', '사찰여행', '역사', '자연속으로', '자연좋은곳']",https://cdn.visitkorea.or.kr/img/call?cmd=VIEW&id=f7b496c9-4c29-4eaf-bf22-f9d011e3f607&thumb,인천광역시 중구 운남로 199-1,37.4973091,126.5279425
용동큰우물,인천 중구,032-760-6474,"['관광지', '역사', '역사공부', '역사관광지', '역사를품은곳', '역사문화재', '역사속']",https://cdn.visitkorea.or.kr/img/call?cmd=VIEW&id=5f40c359-6d98-491c-9c06-be3797a56e6e&thumb,인천광역시 중구 우현로90번길 19-13,37.4742855,126.6313536
용유도,인천 중구,032-745-0211,"['관광지', '자연']",https://cdn.visitkorea.or.kr/img/call?cmd=VIEW&id=e261bb7c-5a82-46c8-9d30-65ecb4c0c529&thumb,인천광역시 중구 마시란로 308-13,37.4440385,126.4025667
용유도 마시안해변,인천 중구,02-6105-7111,"['경치여행', '경치좋은곳', '관광지', '바다명소', '바다풍경', '수도권', '여름피서지']",https://cdn.visitkorea.or.kr/img/call?cmd=VIEW&id=3d56a8cd-32cb-469e-8ba0-0c5f55bbb9b8&thumb,인천광역시 중구 마시란로 118,37.4325093,126.4175689
용진진,인천 강화군,061-430-3363,"['관광지', '수도권', '역사', '역사공부', '역사관광지', '역사를품은곳', '역사문화재']",https://cdn.visitkorea.or.kr/img/call?cmd=VIEW&id=5e559076-c67c-4d8d-b6f3-0c62402b44c1&thumb,인천광역시 강화군 선원면 연리,37.70197,126.5117054
용화선원,인천 미추홀구,032-872-6061,"['관광지', '불교', '불교문화', '사찰', '사찰여행', '역사', '역사관광지', '역사속으로']",https://cdn.visitkorea.or.kr/img/call?cmd=VIEW&id=1583d1a3-8075-428f-a615-3b9614d40df8&thumb,인천광역시 미추홀구 염전로 372,37.4757602,126.6660883
용흥궁,인천 강화군,032-930-4571,"['강원권', '관광지', '교과서속여행', '역사', '역사공부', '역사관광지', '역사를품은곳']",https://cdn.visitkorea.or.kr/img/call?cmd=VIEW&id=2e10d027-4c8d-408a-a57b-1662f807d016&thumb,인천광역시 강화군 강화읍 동문안길21번길 16-1,37.7487417,126.485091
우공책방,인천 강화군,032-463-0989,"['가족과함께', '관광지', '남녀노소', '북스테이', '우공책방', '이색체험', '책방']",https://cdn.visitkorea.or.kr/img/call?cmd=VIEW&id=5cab8542-fbc0-4edf-a3d7-f976e8ec4222&thumb,인천광역시 강화군 내가면 연촌길 77-10,37.7333103,126.4186816
울도,인천 옹진군,032-899-3710,"['관광지', '자연']",https://cdn.visitkorea.or.kr/img/call?cmd=VIEW&id=b3a2d70a-ce45-4f35-a134-a4e036a2c6f0&thumb,인천광역시 옹진군 덕적면 울도로182번길 4,37.0266839,125.9978905
원인재,인천 연수구,032-749-7312,"['관광지', '역사', '역사공부', '역사관광지', '역사를품은곳', '역사문화재', '역사속']",https://cdn.visitkorea.or.kr/img/call?cmd=VIEW&id=11d740d5-1785-472e-94ec-c57ee46054e6&thumb,인천광역시 연수구 경원대로 322,37.4143589,126.6911502
월미 관광특구,인천 중구,032-760-6481,"['가족과함께', '관광지', '박물관', '산업관광', '산책하기', '산책하기좋은곳', '수도권']",https://cdn.visitkorea.or.kr/img/call?cmd=VIEW&id=67eea819-64e3-47b3-9b0c-b665c8394314&thumb,인천광역시 중구 월미문화로 81,37.4713611,126.5962819
월미공원,인천 중구,032-765-4133,"['가족여행', '걷기길', '관광지', '산책코스', '산책하기좋은곳', '서울근교여행']",https://cdn.visitkorea.or.kr/img/call?cmd=VIEW&id=dd0db176-bcea-4ff6-9116-a01d7bc992f8&thumb,인천광역시 중구 월미로 131-22,37.4763692,126.6039121
월미도,인천 중구,032-765-4169,"['19_20한국관광100선', '가족여행', '관광지', '바다풍경', '섬여행', '수도권']",https://cdn.visitkorea.or.kr/img/call?cmd=VIEW&id=0aecf3e7-7eac-495e-bf6c-61769cb71a78&thumb,인천광역시 중구 월미문화로 36,37.471318,126.596287
월미테마파크,인천 중구,032-761-0997,"['관광지', '남녀노소', '놀이기구', '당일치기여행', '데이트장소', '수도권', '연인과함께']",https://cdn.visitkorea.or.kr/img/call?cmd=VIEW&id=77d8f86f-05c4-4ad2-810f-371d58510459&thumb,인천광역시 중구 월미문화로 81,37.4713611,126.5962819
을왕리해수욕장,인천 중구,032-832-3031,"['관광지', '바다풍경', '서울근교여행', '연인과함께', '연중무휴', '을왕리해수욕장']",https://cdn.visitkorea.or.kr/img/call?cmd=VIEW&id=ce0286b7-391e-4ca8-9cc7-50ad5447a419&thumb,인천광역시 중구 을왕로13번길 15,37.4450739,126.372986
이건창 생가,인천 강화군,032-930-4571,"['관광지', '생가', '수도권', '역사', '역사공부', '역사관광지', '역사를품은곳', '역사문화재']",https://cdn.visitkorea.or.kr/img/call?cmd=VIEW&id=56b1603b-0df3-43a8-9f2f-6cfc061eb3d3&thumb,인천광역시 강화군 화도면 해안남로1114번길 6,37.6169938,126.4571289
이섭정,인천 강화군,032-930-4571,"['관광지', '수도권', '역사', '역사공부', '역사관광지', '역사를품은곳', '역사문화재']",https://cdn.visitkorea.or.kr/img/call?cmd=VIEW&id=397bc3c9-a18d-4a9d-a968-4925d2155ab6&thumb,인천광역시 강화군 강화읍 갑곳리,37.7386664,126.5031085
인천 경서동 녹청자 요지,인천 서구,032-440-4063,"['가족여행', '관광지', '서울근교여행', '역사', '역사공부', '역사를품은곳', '역사문화재']",https://cdn.visitkorea.or.kr/img/call?cmd=VIEW&id=c978e61a-7255-44bb-8a81-a4d84f483d9d&thumb,인천광역시 서구 도요지로 54,37.5581275,126.6564523
인천 답동성당,인천 중구,032-762-7613,"['가족여행', '관광지', '나들이', '데이트코스', '사적지', '서울근교여행', '아이와함께']",https://cdn.visitkorea.or.kr/img/call?cmd=VIEW&id=b51fa53b-872e-4bc9-8c5e-4c3d14b79847&thumb,인천광역시 중구 우현로50번길 2,37.471334,126.6295071
인천 신현동 회화나무,인천 서구,032-560-4343,"['관광지', '사계절', '수도권', '인천신현동회화나무']",https://cdn.visitkorea.or.kr/img/call?cmd=VIEW&id=45776d0e-c987-429b-a6fd-68806c495011&thumb,인천광역시 서구 새오개로68번길 15-47,37.5167405,126.6672825
인천 차이나타운,인천 중구,032-777-1330,"['19_20한국관광100선', '관광지', '당일치기여행', '맛집', '먹거리', '미식여행']",https://cdn.visitkorea.or.kr/img/call?cmd=VIEW&id=c97d3d84-ff9e-4165-a18d-bd85142f2a6e&thumb,인천광역시 중구 차이나타운로59번길 20,37.4737405,126.6191302
인천 푸른벗말,인천 옹진군,032-899-3410,"['관광지', '농촌체험', '농촌체험마을', '농촌체험여행', '농촌체험학습', '산책길']",https://cdn.visitkorea.or.kr/img/call?cmd=VIEW&id=946c2450-5f4c-4513-be0c-a3ee3d62ecdf&thumb,인천광역시 옹진군 북도면 신도로 577,37.5286635,126.4600771
인천 화평동 세숫대야 냉면 거리,인천 동구,032-777-1330,"['가족과함께', '관광지', '냉면맛집', '맛집탐방', '비빔냉면', '숨은맛집', '음식거리']",https://cdn.visitkorea.or.kr/img/call?cmd=VIEW&id=8890e3a1-e296-4011-b23a-026c2a2d4f8d&thumb,인천광역시 동구 화평로,37.4785689,126.629497
인천경제자유구역(새아침/달빛/솔찬공원),인천 연수구,032-453-7912,"['걷기길', '관광지', '달빛공원', '새아침공원', '생태관광', '생태관광지', '생태체험관']",https://cdn.visitkorea.or.kr/img/call?cmd=VIEW&id=334fcd51-37a7-4553-aba1-0843163a0beb&thumb,인천광역시 연수구 신송로118번길 35,37.3970268,126.6548818
인천국제공항 제2여객터미널,인천 중구,1577-2600,"['가족과함께', '관광지', '국제공항', '나홀로여행', '남녀노소', '배낭여행', '수도권']",https://cdn.visitkorea.or.kr/img/call?cmd=VIEW&id=01f0bdd4-97cb-4104-9ccc-da5b2eba0369&thumb,인천광역시 중구 제2터미널대로 446,37.4848155,126.4396163
"인천기독교사회복지관(현,창영사회복지관)",인천 동구,053-662-2362,"['관광지', '문화재', '수도권', '역사', '역사공부', '역사관광지', '역사를품은곳']",https://cdn.visitkorea.or.kr/img/call?cmd=VIEW&id=dce1cb1a-69ee-4256-af44-8ccb3d98c3bf&thumb,인천광역시 동구 우각로 57,37.4707278,126.6409969
인천나비공원,인천 부평구,032-509-8820,"['가족체험여행', '관광지', '나들이', '박물관', '산책길', '산책하기', '산책하기좋은곳']",https://cdn.visitkorea.or.kr/img/call?cmd=VIEW&id=c6bf05ec-7944-4312-8910-9175e1030226&thumb,인천광역시 부평구 평천로 26-47,37.52021,126.6926415
인천내동성공회성당,인천 중구,032-765-9004,"['관광지', '수도권', '역사', '역사공부', '역사관광지', '역사를품은곳', '역사문화재']",https://cdn.visitkorea.or.kr/img/call?cmd=VIEW&id=fad787ef-c271-4299-bc84-b3d2e75772c0&thumb,인천광역시 중구 개항로45번길 21-32,37.473894,126.6274299
인천대공원,인천 남동구,032-466-7282,"['관광지', '동물원', '서울근교여행', '수목원', '아이와함께', '인천대공원']",https://cdn.visitkorea.or.kr/img/call?cmd=VIEW&id=88a715ac-9daf-4c00-98b1-59c6c7dd596e&thumb,인천광역시 남동구 무네미로 236,37.457694,126.7494785
인천대공원 반려동물 놀이터,인천 남동구,070-8877-2500,"['가족과함께', '관광지', '반려견동반여행지', '산책하기', '산책하기좋은곳', '아이와함께']",https://cdn.visitkorea.or.kr/img/call?cmd=VIEW&id=b9e64bae-c518-4dd8-9814-e8f543842712&thumb,인천광역시 남동구 무네미로 236,37.457694,126.7494785
인천대교,인천 중구,032-745-8000,"['관광지', '드라마촬영지', '드라이브여행', '드라이브코스', '바다풍경', '수도권']",https://cdn.visitkorea.or.kr/img/call?cmd=VIEW&id=7dc91b3d-9bfe-4247-821a-9a2c2db43095&thumb,인천광역시 중구 인천대교고속도로 3,37.4136591,126.5665207
인천도호부청사,인천 미추홀구,032-422-3492,"['가족여행', '관광지', '드라이브여행', '서울근교여행', '수도권', '아이와함께']",https://cdn.visitkorea.or.kr/img/call?cmd=VIEW&id=51a326f7-3c47-4dc4-a5c2-b677069129be&thumb,인천광역시 미추홀구 매소홀로 589,37.439185,126.6873279
인천우체국,인천 중구,032-773-2106,"['관광지', '사계절', '수도권', '실내여행지', '역사', '역사공부', '역사를품은곳']",https://cdn.visitkorea.or.kr/img/call?cmd=VIEW&id=eb8fc466-01dd-4602-8197-b7aa16bd3443&thumb,인천광역시 중구 제물량로 183,37.4702026,126.6230264
인천중구청(구 인천부 청사),인천 중구,032-760-6475,"['관광지', '교과서속여행', '구인천부청사', '근대문화유산', '근대역사', '수도권']",https://cdn.visitkorea.or.kr/img/call?cmd=VIEW&id=2abac7fe-21f4-41bf-8a08-23fd4ce53dcb&thumb,인천광역시 중구 신포로27번길 80,37.4737135,126.6216823
인천항 갑문,인천 중구,032-890-8000,"['관광지', '바다풍경', '사계절', '수도권', '인천항갑문', '자연', '전망좋은곳']",https://cdn.visitkorea.or.kr/img/call?cmd=VIEW&id=9770b0de-4e80-4c48-92b5-50cc2fa355e6&thumb,인천광역시 중구 월미로 376,37.4670253,126.6041854
인천항 갑문홍보관,인천 중구,032-770-4519,"['가족여행', '갑문홍보관', '관광지', '박물관', '산업관광', '산업관광지', '수도권']",https://cdn.visitkorea.or.kr/img/call?cmd=VIEW&id=44b39059-2088-4fbc-8299-6ceafb6d355c&thumb,인천광역시 중구 월미로 376,37.4670253,126.6041854
인천항크루즈터미널,인천 연수구,032-837-0600,"['관광지', '남녀노소', '바다경치', '바다내음', '불꽃축제', '인천여행', '크루즈']",https://cdn.visitkorea.or.kr/img/call?cmd=VIEW&id=1686dc93-a8e4-4d0f-958e-1c5b1d0277d7&thumb,인천광역시 연수구 국제항만대로 438,37.4094099,126.6783088
인천향교,인천 미추홀구,032-876-7041,"['관광지', '문화재', '수도권', '역사', '인천향교', '향교']",https://cdn.visitkorea.or.kr/img/call?cmd=VIEW&id=c659e211-dcba-4b1f-9ba7-9fd782ab19fa&thumb,인천광역시 미추홀구 매소홀로 589,37.439185,126.6873279
인하대후문먹거리타운,인천 미추홀구,032-880-7998,"['관광지', '맛집', '맛집골목', '맛집탐방', '먹거리투어', '먹자골목', '인하대', '지역특화먹거리']",https://cdn.visitkorea.or.kr/img/call?cmd=VIEW&id=aa7c3de8-3c7a-4cca-b0cf-bef78901e627&thumb,인천광역시 미추홀구 경인남길30번길 45-1,37.4519402,126.6570375
자월도 장골해변,인천 옹진군,032-899-3750,"['경치좋은곳', '관광지', '바다풍경', '서울근교여행', '수도권', '여름여행', '자연']",https://cdn.visitkorea.or.kr/img/call?cmd=VIEW&id=73823593-e72d-4bb4-b4c2-3072e610a70d&thumb,인천광역시 옹진군 자월면 자월서로,37.257687,126.2991815
자유공원(인천),인천 중구,032-761-4774,"['가족여행', '관광지', '나들이', '당일치기여행', '드라이브여행', '서울근교여행']",https://cdn.visitkorea.or.kr/img/call?cmd=VIEW&id=cb3f1250-be3b-4363-9a0b-7a5dcc7efd00&thumb,인천광역시 중구 자유공원남로 25,37.4745802,126.6221322
작은풀안 해변,인천 옹진군,032-832-3031,"['가족여행', '관광지', '바다풍경', '방송촬영지', '서울근교여행', '수도권', '아이와함께']",https://cdn.visitkorea.or.kr/img/call?cmd=VIEW&id=53080efa-1768-4763-9698-e60230437436&thumb,인천광역시 옹진군 자월면 대이작로,37.1672808,126.2674528
잠진도,인천 중구,032-832-3031,"['관광지', '자연']",https://cdn.visitkorea.or.kr/img/call?cmd=VIEW&id=a63411ab-875c-4624-9a79-3ff9d9eb5647&thumb,인천광역시 중구 잠진도길 144,37.4181865,126.4155139
장경리해수욕장,인천 옹진군,032-899-2214,"['관광지', '바다풍경', '자연', '자연속으로', '자연좋은곳', '자연풍경', '자연환경']",https://cdn.visitkorea.or.kr/img/call?cmd=VIEW&id=e84302c6-32b0-4666-8dd7-954eabba0478&thumb,인천광역시 옹진군 영흥면 영흥로757번길 6,37.2726225,126.4499759
장곶돈대,인천 강화군,032-934-5565,"['관광지', '수도권', '역사', '역사공부', '역사관광지', '역사를품은곳', '역사문화재']",https://cdn.visitkorea.or.kr/img/call?cmd=VIEW&id=6e884607-1058-408e-97e7-bd65abeedf25&thumb,인천광역시 강화군 화도면 장화리,37.6203442,126.3909265
장봉도,인천 옹진군,032-832-3031,"['관광지', '섬', '수도권', '자연', '장봉도', '트레킹', '풍경여행']",https://cdn.visitkorea.or.kr/img/call?cmd=VIEW&id=66e8a010-3536-4861-a939-4993c0ff069b&thumb,인천광역시 옹진군 북도면 장봉리,37.5475475,126.3278712
장봉도 옹암해변,인천 옹진군,032-899-3414,"['가족여행', '갯벌체험', '관광지', '바다낚시', '바다풍경', '서울근교여행', '수도권']",https://cdn.visitkorea.or.kr/img/call?cmd=VIEW&id=9d349657-d26f-4121-9fdf-f288fc78c498&thumb,인천광역시 옹진군 북도면 장봉로 227,37.5310228,126.3685387
장봉도 진촌해변,인천 옹진군,032-751-2628,"['경치좋은곳', '관광지', '바다풍경', '서울근교여행', '수도권', '자연', '자연좋은곳']",https://cdn.visitkorea.or.kr/img/call?cmd=VIEW&id=4315f273-e7f2-4a4e-a988-8a51919dfeec&thumb,인천광역시 옹진군 북도면 장봉로 740-71,37.5502845,126.3343816
장봉도 한들해수욕장,인천 옹진군,032-899-3414,"['가족여행', '관광지', '바다낚시', '바다풍경', '서울근교여행', '수도권', '연인과함께']",https://cdn.visitkorea.or.kr/img/call?cmd=VIEW&id=252c52b5-551f-45fd-b114-3a56fc216f0d&thumb,인천광역시 옹진군 북도면 장봉로465번길 70,37.5289112,126.3464077
장봉마을,인천 옹진군,032-746-8003,"['관광지', '농촌', '농촌마을', '농촌여행', '농촌체험마을', '농촌체험여행', '시골']",https://cdn.visitkorea.or.kr/img/call?cmd=VIEW&id=5277e4be-c193-4b6b-9a9e-163cab2105ac&thumb,인천광역시 옹진군 북도면 장봉로26번길 68-15,37.5368016,126.3807013
적석사,인천 강화군,032-932-6191,"['관광지', '불교', '불교문화', '사찰', '사찰여행', '역사', '자연속으로', '자연환경']",https://cdn.visitkorea.or.kr/img/call?cmd=VIEW&id=8ee6395a-4ae9-4e9e-927d-a596b936cd0f&thumb,인천광역시 강화군 내가면 연촌길 181,37.7373319,126.4099901
전등사(강화),인천 강화군,032-937-0125,"['가족여행', '관광지', '나들이', '당일치기여행', '드라이브여행', '사찰&산사']",https://cdn.visitkorea.or.kr/img/call?cmd=VIEW&id=b4f8fa10-f48c-4217-8f06-99a9fc1f7b38&thumb,인천광역시 강화군 길상면 전등사로 37-41,37.6326092,126.4849766
정서진,인천 계양구,032-560-5930,"['관광지', '서해', '서해여행', '인천여행', '일몰명소', '정서진']",https://cdn.visitkorea.or.kr/img/call?cmd=VIEW&id=24f827c3-610e-429c-8308-2e7f8c8d7107&thumb,인천광역시 서구 오류동 아라인천여객터미널,37.5580193,126.6060768
정수사(강화),인천 강화군,032-937-3611,"['강화도', '관광지', '불교', '불교문화', '불교사찰', '사찰', '사찰여행', '아이와함께']",https://cdn.visitkorea.or.kr/img/call?cmd=VIEW&id=ddd1b55d-7127-426b-9e8e-dc8c5294fc0c&thumb,인천광역시 강화군 화도면 해안남로1258번길 142,37.6086285,126.4455483
정족산,인천 강화군,032-930-7500,"['관광지', '등산', '수도권', '자연', '정족산', '트레킹']",https://cdn.visitkorea.or.kr/img/call?cmd=VIEW&id=3eacb3bf-615e-40b0-a543-5fa54ae0636c&thumb,인천광역시 강화군 길상면 전등사로,37.6345726,126.4915986
제물포고등학교 강당,인천 중구,032-760-6474,"['관광지', '등록문화재', '수도권', '역사', '역사공부', '역사를품은곳', '역사문화재']",https://cdn.visitkorea.or.kr/img/call?cmd=VIEW&id=bda19158-b3c0-4ccc-8053-d5d40d4c90b3&thumb,인천광역시 중구 자유공원로 58-9,37.4766308,126.6239769
제물포구락부,인천 중구,032-760-6474,"['건축사', '건축여행', '관광지', '교과서속여행', '근대건축', '근대건축물', '문화재']",https://cdn.visitkorea.or.kr/img/call?cmd=VIEW&id=ba01aa2f-efca-4496-bbd8-45de8aef5677&thumb,인천광역시 중구 자유공원남로 25,37.4745802,126.6221322
조병수 가옥,인천 중구,032-760-6474,"['관광지', '역사', '역사공부', '역사관광지', '역사를품은곳', '역사문화재', '역사속']",https://cdn.visitkorea.or.kr/img/call?cmd=VIEW&id=1b745886-3a59-425f-8d8a-1da84ad1d3f4&thumb,인천광역시 중구 용유로380번길 21,37.4520859,126.4100207
종해루,인천 강화군,032-930-4572,"['관광지', '역사', '역사공부', '역사관광지', '역사를품은곳', '역사문화재', '역사속']",https://cdn.visitkorea.or.kr/img/call?cmd=VIEW&id=09bab00c-4253-47d5-89f7-4fa8cf420268&thumb,인천광역시 강화군 길상면 전등사로 37-41,37.6326092,126.4849766
주문도,인천 강화군,032-932-9819,"['관광지', '섬', '수도권', '자연', '주문도']",https://cdn.visitkorea.or.kr/img/call?cmd=VIEW&id=c8145d34-bfb3-4d62-8cc0-4bec602133fd&thumb,인천광역시 강화군 서도면 주문도1길 16,37.650348,126.2392915
주인근린공원,인천 미추홀구,031-880-4502,"['관광지', '미추홀구공원', '주인근린공원', '주인선']",https://cdn.visitkorea.or.kr/img/call?cmd=VIEW&id=8761d067-41fa-42a3-86b2-997b1dfa512d&thumb,인천광역시 미추홀구 숭의동 33-18,37.4621873,126.6550377
지선사,인천 계양구,032-545-7835,"['관광지', '불교', '불교문화', '사찰', '사찰여행', '수도권', '역사', '전통사찰', '종교']",https://cdn.visitkorea.or.kr/img/call?cmd=VIEW&id=60543f81-5698-404b-95d2-97ba2fc20b21&thumb,인천광역시 계양구 경명대로955번길 13-12,37.5459694,126.711763
창영초등학교(구)교사,인천 동구,032-770-6923,"['관광지', '역사', '역사공부', '역사관광지', '역사를품은곳', '역사문화재', '역사속']",https://cdn.visitkorea.or.kr/img/call?cmd=VIEW&id=69761f26-7f10-4828-9204-c7a3cb4564f6&thumb,인천광역시 동구 우각로15번길 16,37.4718064,126.6394354
책방시점,인천 강화군,010-9931-0301,"['관광지', '국내힐링여행', '북스테이', '이색체험', '휴식공간', '휴식여행', '휴식하기좋은곳']",https://cdn.visitkorea.or.kr/img/call?cmd=VIEW&id=21890b82-2a1d-4c0f-ae83-2d77391b71ae&thumb,인천광역시 강화군 길상면 마니산로 101-16,37.6372284,126.4826904
천상병 귀천(歸天) 공원,인천 강화군,032-930-3114,"['관광지', '시인공원', '천상병시인']",https://cdn.visitkorea.or.kr/img/call?cmd=VIEW&id=1f0c731b-d214-4f32-9d53-9073f67ce11d&thumb,인천광역시 강화군 양도면 건평리 889,37.6818177,126.3959207
철종외가,인천 강화군,032-930-4571,"['고택', '관광지', '수도권', '역사', '역사공부', '역사관광지', '역사를품은곳', '역사문화재']",https://cdn.visitkorea.or.kr/img/call?cmd=VIEW&id=0b21c180-87e7-476a-9a6c-42ab441878dc&thumb,인천광역시 강화군 선원면 철종외가길 46-1,37.7056693,126.4769903
청라 스파렉스,인천 서구,032-561-2244,"['가족과함께', '관광지', '목욕탕', '아이와함께', '열린문화공간', '이색체험', '인천가볼만한곳']",https://cdn.visitkorea.or.kr/img/call?cmd=VIEW&id=3f6a6e24-bdcd-49f6-9c98-79ee49985f03&thumb,인천광역시 서구 청라커낼로260번길 15,37.5319301,126.6460618
청라호수공원,인천 서구,032-715-6430,"['관광지', '산책코스', '산책하기좋은곳', '자연관광지', '자연좋은곳', '자연환경']",https://cdn.visitkorea.or.kr/img/call?cmd=VIEW&id=3d4e4456-1cb3-4b0c-843e-ed34f3f4b1f8&thumb,인천광역시 서구 크리스탈로 59,37.5521188,126.6441068
청련사(강화),인천 강화군,032-933-3887,"['강화청련사', '관광지', '불교', '불교문화', '사찰', '수도권', '역사', '연중무휴']",https://cdn.visitkorea.or.kr/img/call?cmd=VIEW&id=69285e1c-4e51-4e7b-b1b6-f7cd91ff4b00&thumb,인천광역시 강화군 강화읍 고비고개로188번길 112,37.7466718,126.447814
청수암(인천),인천 강화군,032-934-2661,"['가족여행', '관광지', '불교', '불교문화', '사찰', '사찰&산사', '사찰여행', '수도권']",https://cdn.visitkorea.or.kr/img/call?cmd=VIEW&id=undefined&thumb,인천광역시 강화군 강화읍 청하동길36번길 62,37.7429729,126.475036
청학동외국인묘지,인천 연수구,032-749-7312,"['공동묘지', '관광지', '역사', '역사속으로', '역사이야기', '외국인묘지', '인천시']",https://cdn.visitkorea.or.kr/img/call?cmd=VIEW&id=bc5b91a8-e1f6-4054-b4c3-913a39f8b298&thumb,인천광역시 연수구 비류대로232번길,37.4250271,126.6612639
초지대교,인천 강화군,032-832-3031,"['강화대교', '경치좋은곳', '관광지', '대교', '드라이브', '드라이브여행', '바다경치']",https://cdn.visitkorea.or.kr/img/call?cmd=VIEW&id=a2854c1b-ba2a-4cc7-9c55-678a8f3ed51d&thumb,인천광역시 강화군 길상면,37.6405809,126.4911751
충렬사,인천 강화군,032-930-4571,"['관광지', '수도권', '역사', '역사공부', '역사관광지', '역사를품은곳', '역사문화재']",https://cdn.visitkorea.or.kr/img/call?cmd=VIEW&id=8e7c1890-a9f8-46dc-91a1-280910da46fb&thumb,인천광역시 강화군 선원면 충렬사로 232,37.7270584,126.4658124
큰무리어촌체험마을,인천 중구,032-751-0310,"['관광지', '농어촌체험', '아이와함께', '어촌체험', '이색체험', '자연마을', '자연좋은곳']",https://cdn.visitkorea.or.kr/img/call?cmd=VIEW&id=0e92de5d-5a57-423b-ae4d-a4721c7e47e9&thumb,인천광역시 중구 대무의로 26-9,37.4089786,126.4136658
큰풀안 해변,인천 옹진군,032-832-3031,"['가족여행', '경치좋은곳', '관광지', '바다풍경', '서울근교여행', '수도권', '아이와함께']",https://cdn.visitkorea.or.kr/img/call?cmd=VIEW&id=7e50f684-7ad9-4455-bb36-7a78e779f200&thumb,인천광역시 옹진군 자월면 대이작로160번길,37.1701173,126.2608144
파라다이스 씨티 씨메르(인천),인천 중구,032-729-7700,"['관광지', '스파', '실내데이트', '실내수영장', '실외수영장', '열린문화공간', '이색체험']",https://cdn.visitkorea.or.kr/img/call?cmd=VIEW&id=f0cbe08a-b727-4b7c-9834-f4d4e84f3467&thumb,인천광역시 중구 영종해안남로321번길 186,37.4400798,126.4533903
팔미도 유람선,인천 중구,032-885-0001,"['가족과함께', '가족여행', '관광지', '바다경치', '바다내음', '바다풍경', '바다향기로']",https://cdn.visitkorea.or.kr/img/call?cmd=VIEW&id=ad4cd639-c823-4732-933e-e447f69d1310&thumb,인천광역시 중구 연안부두로 36,37.4548948,126.6012056
팔미도등대,인천 중구,032-831-4925,"['관광지', '자연']",https://cdn.visitkorea.or.kr/img/call?cmd=VIEW&id=f68d6a43-0069-457c-a474-a88e118ce0e4&thumb,인천광역시 중구 팔미로 15,37.3583358,126.5106153
하나개해수욕장,인천 중구,032-751-8833,"['가족여행', '관광지', '나들이', '데이트코스', '바다풍경', '서울근교여행', '수도권']",https://cdn.visitkorea.or.kr/img/call?cmd=VIEW&id=75cdb247-2a6f-4a2e-a9d9-cf56092d8ac2&thumb,인천광역시 중구 무의동 산189번지,37.3851838,126.4186286
해군영흥도 전적비,인천 옹진군,032-899-3810,"['관광지', '교과서속여행', '기념탑', '서울근교여행', '수도권', '아이와함께', '안보여행']",https://cdn.visitkorea.or.kr/img/call?cmd=VIEW&id=70273b17-b0da-4205-a3f3-e119b9365466&thumb,인천광역시 옹진군 영흥면 영흥로251번길 24,37.2574549,126.4846678
해수워터피아,인천 서구,032-577-3600,"['가족과함께', '관광지', '뷰티&스파', '수도권', '연인과함께', '온천&스파', '친구와함께']",https://cdn.visitkorea.or.kr/img/call?cmd=VIEW&id=undefined&thumb,인천광역시 서구 봉수대로 257,37.5556036,126.6578199
호룡곡산,인천 중구,032-751-2628,"['관광지', '등산객', '등산여행', '등산코스', '자연', '자연관광지', '자연속으로']",https://cdn.visitkorea.or.kr/img/call?cmd=VIEW&id=3763bccd-8fdb-4e38-935c-3b5ec13e9bd6&thumb,인천광역시 중구 대무의로 464,37.3770948,126.4308271
호명사,인천 부평구,032-522-4805,"['관광지', '불교', '불교문화', '사찰', '사찰여행', '수도권', '역사', '자연속으로']",https://cdn.visitkorea.or.kr/img/call?cmd=VIEW&id=4aea20b8-65ad-4194-89ff-f91cb4626e52&thumb,인천광역시 부평구 경인로 847,37.4839839,126.7146836
호불사,인천 연수구,032-834-8904,"['관광지', '불교', '불교문화', '사찰여행', '수도권', '역사', '역사유적지', '연중무휴']",https://cdn.visitkorea.or.kr/img/call?cmd=VIEW&id=010732cb-2228-4a06-a3fa-caf7bcf57e10&thumb,인천광역시 연수구 청룡로 80,37.4215325,126.6583253
홍예문,인천 중구,032-760-6474,"['건축물', '건축사', '건축여행', '관광지', '근대건축', '역사', '역사공부', '역사관광지']",https://cdn.visitkorea.or.kr/img/call?cmd=VIEW&id=4ca0adad-3be2-4d76-9c8e-ac8ea97c9d9d&thumb,인천광역시 중구 송학동,37.4731843,126.6258195
화도진공원,인천 동구,032-770-6205,"['관광지', '산책길', '산책하기', '산책하기좋은곳', '수도권', '아이와함께', '역사유적지']",https://cdn.visitkorea.or.kr/img/call?cmd=VIEW&id=e53f7dc5-cc77-470c-8bf3-f111b6ceadcd&thumb,인천광역시 동구 화도진로 114,37.4821054,126.6287902
화도진지,인천 동구,032-440-4063,"['관광지', '역사', '역사공부', '역사관광지', '역사를품은곳', '역사문화재', '역사속']",https://cdn.visitkorea.or.kr/img/call?cmd=VIEW&id=7ddfe985-0dfc-410b-80d2-a132e2c3b4e6&thumb,인천광역시 동구 화도진로 114,37.4821054,126.6287902
후애돈대,인천 강화군,032-930-4571,"['관광지', '역사', '역사공부', '역사관광지', '역사를품은곳', '역사문화재', '역사속']",https://cdn.visitkorea.or.kr/img/call?cmd=VIEW&id=undefined&thumb,인천광역시 강화군 길상면 선두리,37.6161603,126.487347
후포항 선수포구,인천 강화군,032-934-7500,"['관광지', '선수포구', '수도권', '자연', '포구', '후포항']",https://cdn.visitkorea.or.kr/img/call?cmd=VIEW&id=b8761816-471c-4d76-9a84-2d309b34d8c7&thumb,인천광역시 강화군 화도면 해안남로2903번길,37.639679,126.3941782
흥륜사(인천),인천 연수구,032-832-1133,"['관광지', '불교', '불교문화', '사찰', '사찰여행', '수도권', '역사', '연중무휴', '인천흥륜사']",https://cdn.visitkorea.or.kr/img/call?cmd=VIEW&id=6a345241-6f57-49e8-aaef-b1896f5289aa&thumb,인천광역시 연수구 청량로46번길 38,37.41507,126.6594889
[인천 개항 누리길] 1시간 코스,인천 중구,032-440-4055,"['누리길', '레포츠', '산책코스', '산책하기좋은곳', '아이와함께', '역사', '역사공부']",https://cdn.visitkorea.or.kr/img/call?cmd=VIEW&id=fbb381f4-36ee-4d8e-9256-29bb89d556b8&thumb,인천광역시 중구 제물량로 269,37.4779641,126.6177128
[인천 개항 누리길] 3시간 코스,인천 중구,032-440-4055,"['걷기길', '레포츠', '산책코스', '산책하기좋은곳', '수도권', '아이와함께', '역사']",https://cdn.visitkorea.or.kr/img/call?cmd=VIEW&id=8d5de004-2e13-4ab1-bfdf-957c9ac66760&thumb,인천광역시 중구 제물량로 269,37.4779641,126.6177128
인천통일관,인천 미추홀구,032-868-0113,"['문화시설', '북한생활', '수도권', '역사', '인천통일관', '전시관', '체험학습', '평화통일']",https://cdn.visitkorea.or.kr/img/call?cmd=VIEW&id=4b9cb0ff-777a-4a15-9e87-5c2ee708f1cd&thumb,인천광역시 미추홀구 수봉안길 84,37.4597895,126.6632754
[인천 개항 누리길] 2시간 코스,인천 중구,032-440-4055,"['누리길', '레포츠', '산책길', '산책코스', '산책하기좋은곳', '아이와함께', '역사']",https://cdn.visitkorea.or.kr/img/call?cmd=VIEW&id=c1ae9b42-7903-45bd-b5ef-125bb6cd29fe&thumb,인천광역시 중구 제물량로 269,37.4779641,126.6177128
대청도 옥죽동 해안사구,인천 옹진군,032-899-3610,"['경치좋은곳', '대청도', '사진찍기', '사진찍기좋은곳', '사진촬영', '옥죽포모래사막']",https://cdn.visitkorea.or.kr/img/call?cmd=VIEW&id=dcad20cb-c82c-43d8-8ac0-c9429a4160cf&thumb,인천광역시 옹진군 대청면,37.8237659,124.7118314
