name,region,tel,keyword,photo,address,lat,lon
3.1동산,전북 임실군,063-640-2114,"['3·1운동', '3·1운동_100주년_여행지추천', '관광지', '독립운동', '만세운동']",https://cdn.visitkorea.or.kr/img/call?cmd=VIEW&id=95726bc6-b612-484a-8ba1-05b91cf8db46&thumb,전라북도 임실군 임실읍 이도리,35.617628,127.2857628
가마소계곡,전북 부안군,063-580-3702,"['관광지', '자연']",https://cdn.visitkorea.or.kr/img/call?cmd=VIEW&id=74d1a680-a2fe-4357-b13d-0bdf64e19933&thumb,전라북도 부안군 상서면 청림리,35.6565133,126.6209965
가인 김병로 생가터,전북 순창군,063-650-1623,"['관광지', '역사', '역사관광지', '역사를품은곳', '역사문화재', '역사속', '역사속으로']",https://cdn.visitkorea.or.kr/img/call?cmd=VIEW&id=01d9d975-aa95-4c7e-a981-20ccfb643493&thumb,전라북도 순창군 복흥면 하리길 160,35.450595,126.9773621
간재선생유지,전북 부안군,063-580-4711,"['관광지', '역사', '역사공부', '역사관광지', '역사를품은곳', '역사문화재', '역사속']",https://cdn.visitkorea.or.kr/img/call?cmd=VIEW&id=9617c8b7-9d43-4dc2-98cc-dcdeec49147e&thumb,전라북도 부안군 계화면 양지길 12,35.7941363,126.6371601
갈거계곡,전북 진안군,063-430-2651,"['갈거계곡', '계곡', '관광지', '단풍여행', '자연', '전라권']",https://cdn.visitkorea.or.kr/img/call?cmd=VIEW&id=b9010ebb-c04b-44e8-95c3-5d18726a5341&thumb,전라북도 진안군 정천면 휴양림길 77,35.8947554,127.4257541
갑오동학혁명 100주년 기념탑,전북 정읍시,063-539-5773,"['관광지', '역사공부', '역사관광지', '역사를품은곳', '역사문화재', '역사속', '역사속으로']",https://cdn.visitkorea.or.kr/img/call?cmd=VIEW&id=6270bc25-99f1-4855-9477-2966797a1cb6&thumb,전라북도 정읍시 내장호반로 214,35.4996462,126.9170929
강증산 탄생지,전북 정읍시,063-539-5184,"['관광지', '역사', '역사공부', '역사관광지', '역사를품은곳', '역사문화재', '역사속']",https://cdn.visitkorea.or.kr/img/call?cmd=VIEW&id=32406678-ba5c-40b5-bcf8-40ea50a7d23c&thumb,전라북도 정읍시 덕천면 신송길 34-2,35.630694,126.8413401
강천사 모과나무,전북 순창군,063-652-5420,"['강천사모과나무', '관광지', '자연', '전라권', '전라북도기념물']",https://cdn.visitkorea.or.kr/img/call?cmd=VIEW&id=aa7e7365-4ac1-4c0e-b7a7-64ddd61007fb&thumb,전라북도 순창군 팔덕면 강천산길 270,35.398638,127.0556971
강천사(순창),전북 순창군,063-652-5420,"['가족여행', '강천사', '관광지', '교과서속여행', '불교', '불교사찰', '사찰', '사찰&산사']",https://cdn.visitkorea.or.kr/img/call?cmd=VIEW&id=4ad298ea-588c-4aeb-8b25-759043427b96&thumb,전라북도 순창군 팔덕면 강천산길 270,35.398638,127.0556971
강천사계곡,전북 순창군,063-650-1672,"['가족과함께', '강천사', '관광지', '순창가볼만한곳', '아이와함께', '여름피서지']",https://cdn.visitkorea.or.kr/img/call?cmd=VIEW&id=c56cd279-cfbf-4c98-adb4-556804d086b8&thumb,전북 순창군 팔덕면,35.391576,127.0971321
강천산 군립공원,전북 순창군,063-650-1672,"['가족여행', '강천산군립공원', '관광지', '꽃여행', '등산', '등산로', '아이와함께']",https://cdn.visitkorea.or.kr/img/call?cmd=VIEW&id=a2fa91a8-0913-43d7-9f80-2d7dcdbae6b3&thumb,전라북도 순창군 팔덕면 강천산길 97,35.4087639,127.0675247
강천산계곡,전북 순창군,063-650-1533,"['강천산계곡', '계곡', '관광지', '자연', '전라권', '피서']",https://cdn.visitkorea.or.kr/img/call?cmd=VIEW&id=4599c616-7399-44ab-897a-a799a344bcf7&thumb,전북 순창군 팔덕면 청계리,35.4071696,127.0687011
강천산휴양농원,전북 순창군,063-652-2552,"['가족여행', '강천산휴양농원', '관광지', '자연여행', '자연좋은곳', '자연풍경']",https://cdn.visitkorea.or.kr/img/call?cmd=VIEW&id=17ce28af-fafc-417c-84c8-1d0e610f9c3f&thumb,전라북도 순창군 구림면 강천로 854-23,35.4276018,127.0628025
개령암지 마애불상군,전북 남원시,063-620-6172,"['개령암지마애불상군', '관광지', '보물', '불상', '역사', '역사공부', '역사관광지']",https://cdn.visitkorea.or.kr/img/call?cmd=VIEW&id=ef4c1550-d4aa-4202-b475-b9aef9456416&thumb,전라북도 남원시 산내면 정령치로 1523,35.3638574,127.5220679
개암사,전북 부안군,063-583-3871,"['관광지', '불교문화', '불교사찰', '사찰', '사찰여행', '역사', '역사공부', '역사관광']",https://cdn.visitkorea.or.kr/img/call?cmd=VIEW&id=37722be7-4c74-4ce2-a400-4310eeef2398&thumb,전라북도 부안군 상서면 개암로 248,35.662564,126.6496961
격포마을,전북 부안군,063-582-8747,"['관광지', '자연']",https://cdn.visitkorea.or.kr/img/call?cmd=VIEW&id=a95b1552-7f0f-4402-92fe-fd8f2b018d11&thumb,전북 부안군 변산면 격포리,35.6126119,126.4699182
격포항,전북 부안군,063-580-4434,"['격포항', '관광지', '자연', '전라권', '풍경좋은곳']",https://cdn.visitkorea.or.kr/img/call?cmd=VIEW&id=df94d3a0-afae-4cef-afaa-de43fe54ba6c&thumb,전북 부안군 변산면 격포리,35.6126119,126.4699182
격포해변,전북 부안군,063-580-4739,"['가족여행', '격포해변', '관광지', '바다풍경', '아이와함께', '여름방학가볼만한곳']",https://cdn.visitkorea.or.kr/img/call?cmd=VIEW&id=56ddfb0f-41b8-4971-9db2-b9a0f75f07de&thumb,전라북도 부안군 변산면 변산해변로 29-14,35.6298706,126.4701193
견두산,전북 남원시,063-632-1330,"['견두산', '경치좋은곳', '관광지', '등산', '등산로', '봄꽃여행', '자연', '자연좋은곳']",https://cdn.visitkorea.or.kr/img/call?cmd=VIEW&id=2f07d825-2235-4895-b92c-dd6440e2b79a&thumb,전라북도 남원시 수지면 고평리,35.3473662,127.4004582
경각산,전북 완주군,063-290-3930,"['관광지', '자연']",https://cdn.visitkorea.or.kr/img/call?cmd=VIEW&id=undefined&thumb,전라북도 완주군 구이면 광곡리,35.7437151,127.1721739
경기전,전북 전주시,063-281-2790,"['가족여행', '가족체험여행', '경기전', '관광지', '사계절', '아이와함께', '역사']",https://cdn.visitkorea.or.kr/img/call?cmd=VIEW&id=5839426b-45a9-44e9-aa19-840024d9c427&thumb,전라북도 전주시 완산구 태조로 44,35.8153146,127.1497569
경암동 철길마을,전북 군산시,063-453-4986,"['가족과함께', '감성사진', '경암동철길마을', '관광지', '남녀노소', '부모님과함께']",https://cdn.visitkorea.or.kr/img/call?cmd=VIEW&id=dc206849-634d-4d7e-9a33-62526e3286c8&thumb,전라북도 군산시 경촌4길 14,35.9812798,126.7363759
경옥봉,전북 완주군,063-290-3935,"['관광지', '자연']",https://cdn.visitkorea.or.kr/img/call?cmd=VIEW&id=null&thumb,전라북도 완주군 동상면 대아수목로,35.9876651,127.31506
계산서원,전북 고창군,063-560-2943,"['계산서원', '관광지', '교과서속여행', '서원', '역사', '역사공부', '역사관광지']",https://cdn.visitkorea.or.kr/img/call?cmd=VIEW&id=a2717122-0eb3-4001-a287-108bb4b2ee25&thumb,전라북도 고창군 상하면 상라길 117,35.4561091,126.5043511
계양서원,전북 부안군,063-580-4711,"['관광지', '역사', '역사공부', '역사관광지', '역사를품은곳', '역사문화재', '역사속']",https://cdn.visitkorea.or.kr/img/call?cmd=VIEW&id=undefined&thumb,전라북도 부안군 계화면 양지길 12,35.7941363,126.6371601
계화도,전북 부안군,063-580-4434,"['관광지', '부안여행', '자연', '자연여행', '자연좋은곳', '자연풍경', '자연환경']",https://cdn.visitkorea.or.kr/img/call?cmd=VIEW&id=219244d4-e743-440f-8c92-754e27783972&thumb,전라북도 부안군 계화면,35.761668,126.6980969
고리봉,전북 남원시,055-972-7771,"['관광지', '자연']",https://cdn.visitkorea.or.kr/img/call?cmd=VIEW&id=null&thumb,전라북도 남원시 대강면 강석리,35.3624175,127.2293757
고림사,전북 진안군,063-432-0159,"['관광지', '불교', '불교문화', '사찰', '사찰여행', '역사', '자연속으로', '자연환경']",https://cdn.visitkorea.or.kr/img/call?cmd=VIEW&id=0c0512e2-bf38-4a75-beae-8b549cb070fe&thumb,전라북도 진안군 진안읍 상역로 174-96,35.8072332,127.404193
고부구읍성,전북 정읍시,063-539-5181,"['관광지', '역사', '역사공부', '역사관광지', '역사를품은곳', '역사문화재', '역사속']",https://cdn.visitkorea.or.kr/img/call?cmd=VIEW&id=65338a31-dc61-4663-a793-222cda60d084&thumb,전라북도 정읍시 고부면 고부리,35.6174244,126.7708889
고부향교,전북 정읍시,063-539-5184,"['고부향교', '관광지', '문화재', '역사', '역사공부', '역사관광지', '역사를품은곳']",https://cdn.visitkorea.or.kr/img/call?cmd=VIEW&id=57b6a0b0-4ed4-4dd8-b788-d75588e54399&thumb,전라북도 정읍시 고부면 교동4길 18,35.6215983,126.7710659
고사포해수욕장,전북 부안군,063-580-4413,"['가족과함께', '고사포해수욕장', '관광지', '바다풍경', '여름피서지', '자연', '자연속으로']",https://cdn.visitkorea.or.kr/img/call?cmd=VIEW&id=5d6c8c4b-b98f-4697-bdf1-a17754634061&thumb,전라북도 부안군 변산면 노루목길 8-8,35.6638923,126.5104403
고산,전북 고창군,063-560-2603,"['가족여행', '고산', '관광지', '남녀노소', '산', '산책하기좋은곳', '자연', '자연속으로']",https://cdn.visitkorea.or.kr/img/call?cmd=VIEW&id=ddd72553-8daf-4eb3-9b0e-942bc3c0987d&thumb,전라북도 고창군 대산면,35.3410363,126.603426
고산자연휴양림,전북 완주군,063-263-8680,"['가족여행', '고산자연휴양림', '관광지', '숲치유', '아이와함께', '연인과함께']",https://cdn.visitkorea.or.kr/img/call?cmd=VIEW&id=d77544f8-02a1-4285-882c-4cbc12af7957&thumb,전라북도 완주군 고산면 고산휴양림로 246,35.9596666,127.2355162
고산향교,전북 완주군,063-290-2605,"['고산향교', '고산향교대성전', '관광지', '역사', '역사공부', '역사관광지', '역사를품은곳']",https://cdn.visitkorea.or.kr/img/call?cmd=VIEW&id=683a1823-005d-4923-9894-fe5ae07fa3f9&thumb,전라북도 완주군 고산면 고산로 147-27,35.9760681,127.2138547
고산향교대성전,전북 완주군,063-290-2605,"['관광지', '역사', '역사공부', '역사관광지', '역사를품은곳', '역사문화재', '역사속']",https://cdn.visitkorea.or.kr/img/call?cmd=VIEW&id=d8080e26-651f-436d-9713-951d2e0b3315&thumb,전라북도 완주군 고산면 고산로 147-23,35.9760681,127.2138547
고스락,전북 익산시,063-861-2288,"['가족과함께', '가족체험', '관광지', '교육여행', '교육프로그램', '아이와함께']",https://cdn.visitkorea.or.kr/img/call?cmd=VIEW&id=abcd8d65-3764-4462-b25c-a41fae18805d&thumb,전라북도 익산시 함열읍 익산대로 1424-14,36.046271,126.9596013
고암서원,전북 정읍시,063-539-5184,"['관광지', '역사', '역사공부', '역사관광지', '역사를품은곳', '역사문화재', '역사속']",https://cdn.visitkorea.or.kr/img/call?cmd=VIEW&id=9e641f22-2ba7-4d2f-a3a2-5743a19688fe&thumb,전라북도 정읍시 모촌길 48-17,35.5710954,126.8231769
고창 고색창연마을 [농촌전통테마],전북 고창군,063-560-8481,"['관광지', '농촌마을', '농촌여행', '농촌체험', '자연여행', '자연좋은곳', '자연환경']",https://cdn.visitkorea.or.kr/img/call?cmd=VIEW&id=da97feb0-c54f-4572-b8c5-d78777fbb59e&thumb,전라북도 고창군 신림면 가평1길 65,35.4779383,126.7416927
고창 고인돌 유적 [유네스코 세계문화유산],전북 고창군,063-560-8666,"['가족여행', '고창가볼만한곳', '고창고인돌유적', '관광지', '교과서속여행', '아이와함께']",https://cdn.visitkorea.or.kr/img/call?cmd=VIEW&id=93dc7d20-29ef-4fbf-882f-5dda6f7a330b&thumb,전라북도 고창군 고창읍 고인돌공원길 74,35.4417204,126.6514473
고창 무장 동학농민혁명 기포지,전북 고창군,063-560-8055,"['관광지', '교과서속여행', '동학농민혁명기포지', '아이와함께', '역사', '역사공부']",https://cdn.visitkorea.or.kr/img/call?cmd=VIEW&id=9c63bf73-dbad-4880-a3ba-cb736f3cdecd&thumb,전라북도 고창군 공음면 구암리,35.4018391,126.506708
고창 무장객사,전북 고창군,063-560-2943,"['관광지', '교과서속여행', '무장객사', '역사', '역사공부', '역사관광지', '역사를품은곳']",https://cdn.visitkorea.or.kr/img/call?cmd=VIEW&id=0c5f8c3d-e20d-4589-848d-fba78182694d&thumb,전라북도 고창군 무장면 무장읍성길 45,35.4182327,126.5574379
고창 무장현 관아와 읍성,전북 고창군,063-560-2943,"['가족여행', '고창무장현관아와읍성', '관광지', '사적', '역사', '역사공부', '역사관광지']",https://cdn.visitkorea.or.kr/img/call?cmd=VIEW&id=328cc8bf-6b72-44cf-be73-45a0daa6212c&thumb,전라북도 고창군 무장면 무장읍성길 45,35.4182327,126.5574379
고창 분청사기요지,전북 고창군,063-560-2943,"['관광지', '역사', '역사공부', '역사를품은곳', '역사문화재', '역사속', '역사속으로']",https://cdn.visitkorea.or.kr/img/call?cmd=VIEW&id=278ec66c-cfb8-4ac7-b49c-1479adf59bd8&thumb,전라북도 고창군 부안면 수동리,35.5363629,126.6654178
고창갯벌 (전북 서해안권 국가지질공원),전북 고창군,063-560-2638,"['갯벌체험', '관광지', '국가지질공원', '바다내음', '이색체험', '자연', '자연관광지']",https://cdn.visitkorea.or.kr/img/call?cmd=VIEW&id=5d73ee74-d3a1-403a-bf2b-d81344930296&thumb,전라북도 고창군 심원면 만돌리,35.5269836,126.5191827
고창선사문화탐방로1,전북 고창군,063-560-2874,"['갯벌습지', '걷기길', '고인돌유적지', '고창갯벌습지', '고창고인돌유적지', '고창읍성']",https://cdn.visitkorea.or.kr/img/call?cmd=VIEW&id=7625c8ac-e2c1-4db0-ae9d-2ea0a101fc8a&thumb,전라북도 고창군 고창읍 고인돌공원길 74,35.4417204,126.6514473
고창선사문화탐방로2,전북 고창군,063-560-2875,"['걷기길', '고창갯벌습지', '고창읍성', '고창읍성', '고창인돌유적지', '관광지']",https://cdn.visitkorea.or.kr/img/call?cmd=VIEW&id=6707b06b-b073-4ce8-b91a-e2a88ba1cb7d&thumb,전라북도 고창군 고창읍 고인돌공원길 75,35.4417204,126.6514473
고창선사문화탐방로3,전북 고창군,063-560-2876,"['걷기길', '고창갯벌습지', '고창읍성', '고창인돌유적지', '관광지', '생태관광']",https://cdn.visitkorea.or.kr/img/call?cmd=VIEW&id=0d13f29b-f3f7-441d-a3d9-94fb5c66878b&thumb,전라북도 고창군 고창읍 고인돌공원길 75,35.4417204,126.6514473
고창신재효고택,전북 고창군,063-560-2943,"['가족여행', '관광지', '국가민속문화재', '신재효고택', '역사', '역사공부', '역사관광지']",https://cdn.visitkorea.or.kr/img/call?cmd=VIEW&id=e71f8f91-4ad6-4b44-b3b3-824698be82c9&thumb,전라북도 고창군 고창읍 동리로 100,35.4323678,126.7028072
고창오거리당산,전북 고창군,063-560-2943,"['고창오거리당산', '관광지', '교과서속여행', '문화재', '역사', '역사공부', '역사관광지']",https://cdn.visitkorea.or.kr/img/call?cmd=VIEW&id=97ebed54-55be-454c-9e82-959bfb407ec4&thumb,전라북도 고창군 고창읍 읍내리 584-6,35.433499,126.6961969
고창읍성,전북 고창군,063-560-8067,"['가족여행', '고창읍성', '관광지', '교과서속여행', '아이와함께', '역사', '역사공부']",https://cdn.visitkorea.or.kr/img/call?cmd=VIEW&id=f8bdd5ee-943c-4731-ae03-e1eca5a7072a&thumb,전라북도 고창군 고창읍 모양성로 1,35.4304606,126.704482
고창하전갯벌마을,전북 고창군,063-562-1978,"['가족여행', '고창하전갯벌마을', '관광지', '이색체험', '전라권', '체험', '체험학습']",https://cdn.visitkorea.or.kr/img/call?cmd=VIEW&id=300453a1-4818-4774-9a01-65e9b562c03e&thumb,전북 고창군 심원면 하전리,35.535014,126.570781
고창향교,전북 고창군,063-560-2943,"['관광지', '역사', '역사공부', '역사관광지', '역사를품은곳', '역사문화재', '역사속']",https://cdn.visitkorea.or.kr/img/call?cmd=VIEW&id=f239038b-75a7-4312-a371-3401508175d4&thumb,전라북도 고창군 고창읍 향교길 27-3,35.4375504,126.7026382
고홍건신도비,전북 부안군,063-580-4711,"['고홍건신도비', '관광지', '문화재', '역사', '역사공부', '역사관광지', '역사를품은곳']",https://cdn.visitkorea.or.kr/img/call?cmd=VIEW&id=67a7cb0b-9819-4dbe-9f70-a2247b4c9089&thumb,전라북도 부안군 하서면 석불산길 138,35.7266944,126.6418513
곰소염전,전북 부안군,063-581-5114,"['경치좋은곳', '곰소염전', '관광지', '교육여행', '바다내음', '부안군', '부안당일코스']",https://cdn.visitkorea.or.kr/img/call?cmd=VIEW&id=8b3fb225-5a82-486e-9e7d-ddb8620dfaf7&thumb,전라북도 부안군 진서면 진서리,35.605324,126.614309
곰소항,전북 부안군,063-580-4434,"['관광지', '자연']",https://cdn.visitkorea.or.kr/img/call?cmd=VIEW&id=cebb129d-9e8b-4390-807e-19ec704688a5&thumb,전라북도 부안군 진서면 곰소리,35.5931892,126.6087035
관곡서원,전북 임실군,063-640-2312,"['관광지', '역사', '역사공부', '역사관광지', '역사를품은곳', '역사문화재', '역사속']",https://cdn.visitkorea.or.kr/img/call?cmd=VIEW&id=0a8caee4-e63c-4023-943a-4431e436fec3&thumb,전라북도 임실군 지사면 관기1길 32-7,35.5970936,127.3598938
관곡서원 소장 전적 및 고문서,전북 임실군,063-640-2312,"['관곡서원소장전적및고문서', '관광지', '역사', '역사공부', '역사관광지', '역사를품은곳']",https://cdn.visitkorea.or.kr/img/call?cmd=VIEW&id=3cce54e2-44be-43bc-af56-dd854f52ed6a&thumb,전라북도 임실군 지사면 관기1길 32-7,35.5970936,127.3598938
관성묘,전북 전주시,063-281-5361,"['관광지', '관성묘', '역사', '역사공부', '역사관광지', '역사를품은곳', '역사문화재']",https://cdn.visitkorea.or.kr/img/call?cmd=VIEW&id=94ebb8ed-8cc7-4d63-b948-ef50940e7e7c&thumb,전라북도 전주시 완산구 남고산성1길 159-9,35.7966656,127.1601415
관음봉,전북 부안군,063-582-7808,"['관광지', '자연']",https://cdn.visitkorea.or.kr/img/call?cmd=VIEW&id=undefined&thumb,전라북도 부안군 진서면 원암길,35.6087767,126.5835545
관음사(남원),전북 남원시,063-620-9201,"['관광지', '불교', '불교문화', '사찰', '사찰여행', '역사', '자연속으로', '자연환경']",https://cdn.visitkorea.or.kr/img/call?cmd=VIEW&id=null&thumb,전라북도 남원시 보절면 관음사길 82,35.4778781,127.4102624
관음사(무주),전북 무주군,063-324-7083,"['가족여행', '관광지', '관음사', '불교', '불교문화', '사찰', '사찰여행', '역사', '역사관광지']",https://cdn.visitkorea.or.kr/img/call?cmd=VIEW&id=8a269163-4999-47b2-870d-89faf6720d7d&thumb,전라북도 무주군 설천면 양지길 92-38,36.0003596,127.7853975
관응사(김제),전북 김제시,063-546-0048,"['관광지', '불교', '불교문화', '사찰', '사찰여행', '역사', '자연속으로', '자연환경']",https://cdn.visitkorea.or.kr/img/call?cmd=VIEW&id=29165051-b04b-4de7-922c-7bf1be67e2a9&thumb,전라북도 김제시 금구면 선비로 1354-42,35.7896052,127.0574471
광제정,전북 임실군,063-640-2114,"['관광지', '역사', '역사공부', '역사관광지', '역사를품은곳', '역사문화재', '역사속']",https://cdn.visitkorea.or.kr/img/call?cmd=VIEW&id=fef9aa39-f7ea-4379-ad18-9212ffdef2f1&thumb,전라북도 임실군 삼계면 세심길 82,35.4935076,127.2444684
광한루,전북 남원시,063-620-6172,"['가족여행', '고궁', '관광지', '광한루', '교과서속여행', '사계절', '아이와함께']",https://cdn.visitkorea.or.kr/img/call?cmd=VIEW&id=8bf8fd58-5a47-4a86-8c60-d8134699b4f7&thumb,전라북도 남원시 요천로 1447,35.4032881,127.3794357
광한루원,전북 남원시,063-625-4861,"['가족여행', '관광지', '광한루원', '교과서속여행', '아이와함께', '역사', '역사유적지']",https://cdn.visitkorea.or.kr/img/call?cmd=VIEW&id=97d877ab-1ba4-46cd-9dbd-46a3ec2375dc&thumb,전라북도 남원시 요천로 1447,35.4032881,127.3794357
교룡산국민관광지,전북 남원시,063-633-5353,"['가족여행', '걷기길', '걷기여행', '관광지', '교룡산국민관광지', '등산', '등산로']",https://cdn.visitkorea.or.kr/img/call?cmd=VIEW&id=b694f0db-3fa4-43c2-9e6e-c79bb33433f5&thumb,전라북도 남원시 산성순환길 714,35.4279564,127.3643162
구 서도역,전북 남원시,063-634-8064,"['관광지', '남원가볼만한곳', '사진찍기', '사진찍기좋은곳', '사진촬영', '역사공부']",https://cdn.visitkorea.or.kr/img/call?cmd=VIEW&id=4f3b5aee-dba3-4c0e-9c95-5636b86fb2b3&thumb,전라북도 남원시 사매면 서도길 32,35.490728,127.3293058
구담마을,전북 임실군,063-644-9051,"['가족체험', '관광지', '농촌', '농촌체험', '농촌체험학습', '아이와함께', '자연마을']",https://cdn.visitkorea.or.kr/img/call?cmd=VIEW&id=88c08460-a350-48ce-bc84-4cfd89f3e0b6&thumb,전라북도 임실군 덕치면 천담1길 49,35.4924412,127.1911977
구룡계곡,전북 남원시,055-972-1000,"['관광지', '자연']",https://cdn.visitkorea.or.kr/img/call?cmd=VIEW&id=008be9ef-b6ea-4531-96a1-51e1285a20e5&thumb,전라북도 남원시 주천면 구룡폭포길,35.395277,127.4965724
구봉산(진안),전북 진안군,063-430-2443,"['관광지', '구봉산', '등산', '자연', '전라권', '트레킹']",https://cdn.visitkorea.or.kr/img/call?cmd=VIEW&id=1551a6c7-4acb-4640-beda-e5ec9cb694c6&thumb,전북 진안군 주천면 운봉리,35.9394856,127.4254251
구산서원,전북 진안군,063-430-2382,"['관광지', '역사', '역사공부', '역사관광지', '역사를품은곳', '역사문화재', '역사속']",https://cdn.visitkorea.or.kr/img/call?cmd=VIEW&id=null&thumb,전라북도 진안군 마령면 임진로 2361-82,35.7455298,127.3455308
구송정 유원지,전북 순창군,063-650-5721,"['가족과함께', '관광지', '구송정유원지', '산책길', '산책하기', '산책하기좋은곳']",https://cdn.visitkorea.or.kr/img/call?cmd=VIEW&id=83fa37ff-5689-4ac2-944c-3eea7c4be17b&thumb,전라북도 순창군 동계면 서호길 48-12,35.4308342,127.2379409
구시포 해수찜월드,전북 고창군,063-561-3324,"['관광지', '구시포 해수찜월드', '목욕탕', '사우나', '찜질', '찜질방', '친구와함께']",https://cdn.visitkorea.or.kr/img/call?cmd=VIEW&id=a2e178c2-7277-4732-9840-36b831f48c35&thumb,전라북도 고창군 상하면 진암구시포로 540,35.4459359,126.4366761
구시포마을,전북 고창군,063-564-8232,"['관광지', '자연']",https://cdn.visitkorea.or.kr/img/call?cmd=VIEW&id=ab2b3d6f-e2f6-426c-afb2-432143aaffe2&thumb,전라북도 고창군 상하면 구시포해변길 150,35.4451803,126.4427175
구시포해수욕장,전북 고창군,063-560-2646,"['가족여행', '관광지', '구시포해수욕장', '바다풍경', '아이와함께', '여름방학가볼만한곳']",https://cdn.visitkorea.or.kr/img/call?cmd=VIEW&id=f64db16d-3250-4d2a-b5fc-2a6bd3659e33&thumb,전라북도 고창군 상하면 자룡리,35.4403206,126.441601
구암동산,전북 군산시,063-453-4986,"['3·1운동', '관광지', '구암공원', '구암교회', '독립운동', '역사', '역사공부', '역사관광지']",https://cdn.visitkorea.or.kr/img/call?cmd=VIEW&id=undefined&thumb,전라북도 군산시 영명길 29,35.9863334,126.7420728
구암사(순창),전북 순창군,063-653-7641,"['관광지', '불교', '불교문화', '사찰', '사찰여행', '역사', '자연속으로', '자연환경']",https://cdn.visitkorea.or.kr/img/call?cmd=VIEW&id=f3234480-b564-42aa-928e-b2420dd57681&thumb,전라북도 순창군 복흥면 봉덕길 131-144,35.4554721,126.8859884
구암서원,전북 김제시,063-540-3882,"['관광지', '역사', '역사공부', '역사관광지', '역사를품은곳', '역사문화재', '역사속']",https://cdn.visitkorea.or.kr/img/call?cmd=VIEW&id=b75bcd59-ecc7-413a-9423-d2f27ab2f58e&thumb,전라북도 김제시 용지면 용지로 443-16,35.8528899,126.9541671
구암정,전북 순창군,063-650-1623,"['관광지', '역사', '역사공부', '역사관광지', '역사를품은곳', '역사문화재', '역사속']",https://cdn.visitkorea.or.kr/img/call?cmd=VIEW&id=a7632043-5336-4a8e-9810-048dc0bce530&thumb,전라북도 순창군 동계면 구미리,35.4450122,127.2146977
구장군폭포,전북 순창군,063-650-1672 063-650-1648,"['관광지', '자연']",https://cdn.visitkorea.or.kr/img/call?cmd=VIEW&id=02419641-759d-45e0-b679-bbb0c8f8d53d&thumb,전북 순창군 팔덕면 청계리,35.4071696,127.0687011
구천동계곡,전북 무주군,063-322-3174,"['겨울방학가볼만한곳', '관광지', '구천동계곡', '눈꽃&설경여행', '단풍여행']",https://cdn.visitkorea.or.kr/img/call?cmd=VIEW&id=90e4e809-4e0d-4056-95ea-b1faf6302bf7&thumb,전라북도 무주군 설천면 구천동1로 159,35.9006559,127.7751251
국립 덕유산자연휴양림,전북 무주군,063-322-1097,"['관광지', '자연', '자연관광지', '자연속으로', '자연여행', '자연좋은곳', '자연풍경']",https://cdn.visitkorea.or.kr/img/call?cmd=VIEW&id=77866397-fbb3-4f88-bd9b-dc97e05d8177&thumb,전라북도 무주군 무풍면 구천동로 530-62,35.9074907,127.814712
국립 운장산자연휴양림,전북 진안군,063-432-1193,"['관광지', '국립운장산자연휴양림', '등산', '자연', '자연좋은곳', '전라권', '휴양여행']",https://cdn.visitkorea.or.kr/img/call?cmd=VIEW&id=e4a0f693-ab49-4d4d-8a35-b26d09ec512e&thumb,전라북도 진안군 정천면 휴양림길 77,35.8947554,127.4257541
국립 회문산자연휴양림,전북 순창군,063-653-4779,"['관광지', '국립회문산자연휴양림', '아이와함께', '자연', '자연좋은곳', '전라권']",https://cdn.visitkorea.or.kr/img/call?cmd=VIEW&id=a091fbc0-af8d-4b64-b748-d8d94e28c30b&thumb,전라북도 순창군 구림면 안심길 249,35.4989182,127.1181029
국립임실호국원,전북 임실군,063-640-6081,"['관광지', '국립임실호국원', '기념관', '사계절', '아이와함께', '안보관광', '안보여행']",https://cdn.visitkorea.or.kr/img/call?cmd=VIEW&id=2f39c454-a7fa-4896-bd7d-0ff97c23b6f5&thumb,전라북도 임실군 강진면 호국로 420,35.5520602,127.1907559
국사봉(순창),전북 순창군,063-650-1648,"['관광지', '자연']",https://cdn.visitkorea.or.kr/img/call?cmd=VIEW&id=20b79117-50d9-4939-aab9-14ea0fd5a641&thumb,전라북도 순창군 쌍치면 국사봉로 308-75,35.525897,126.9811211
국사봉전망대,전북 임실군,,"['감성사진', '걷기', '경치좋은곳', '관광지', '사진찍기좋은곳', '산책코스', '산책하기좋은곳']",https://cdn.visitkorea.or.kr/img/call?cmd=VIEW&id=3e4132fe-2393-4570-aa31-68916fa445b1&thumb,전라북도 임실군 운암면 국사봉로 512,35.6402745,127.1379753
국악의 성지,전북 남원시,063-620-5743,"['가족과함께', '관광지', '교과서속여행', '국악의성지', '남원가볼만한곳', '무형문화재']",https://cdn.visitkorea.or.kr/img/call?cmd=VIEW&id=6fbffcdd-ef65-4b8f-a1ff-40e5b4949ea6&thumb,전라북도 남원시 운봉읍 비전길 69,35.4601672,127.5684388
군산 개정면 구 일본인농장 창고,전북 군산시,063-454-3923,"['건축', '건축여행', '관광지', '교과서속여행', '구일본인농장창고', '근대건축']",https://cdn.visitkorea.or.kr/img/call?cmd=VIEW&id=8b13a6bb-a136-4dd1-8968-24796757a66d&thumb,전라북도 군산시 개정면 바르메길 53-5,35.9591789,126.7975603
군산 발산리 석등,전북 군산시,063-454-3921,"['가족여행', '관광지', '군산발산리석등', '보물', '역사', '역사공부', '역사관광지']",https://cdn.visitkorea.or.kr/img/call?cmd=VIEW&id=a31f2889-982d-4c7b-8f3c-82b44dde53fa&thumb,전라북도 군산시 개정면 바르메길 43,35.9590303,126.7962178
군산 발산리 오층석탑,전북 군산시,063-454-3921,"['관광지', '역사', '역사공부', '역사관광지', '역사를품은곳', '역사문화재', '역사속']",https://cdn.visitkorea.or.kr/img/call?cmd=VIEW&id=5ad96d1a-ea2c-4731-be7b-9714ff11e900&thumb,전라북도 군산시 개정면 바르메길 43,35.9590303,126.7962178
군산 시간여행마을,전북 군산시,063-446-5114,"['관광지', '근대역사거리', '역사공부', '역사관광지', '역사를품은곳', '역사문화재']",https://cdn.visitkorea.or.kr/img/call?cmd=VIEW&id=1026babb-5d4f-4fbc-b2cf-93b84e4dc3a2&thumb,전라북도 군산시 내항1길 8,35.9886233,126.7181297
군산 신흥동 일본식가옥(히로쓰 가옥),전북 군산시,063-454-3921,"['관광지', '등록문화재', '신흥동일본식가옥', '역사', '역사관광지', '역사를품은곳']",https://cdn.visitkorea.or.kr/img/call?cmd=VIEW&id=1d68c6db-d83b-4929-a658-396b3d9c84b2&thumb,전라북도 군산시 구영1길 17,35.98622,126.7061525
군산 임피역사,전북 군산시,063-454-3923,"['관광지', '역사', '역사공부', '역사관광지', '역사를품은곳', '역사문화재', '역사속으로']",https://cdn.visitkorea.or.kr/img/call?cmd=VIEW&id=70e07f5a-17e7-4a04-82d0-c135cc3b0146&thumb,전라북도 군산시 임피면 서원석곡로 37,35.9540079,126.863921
군산 해망굴,전북 군산시,063-453-4986,"['가족여행', '관광지', '군산당일코스', '군산해망굴', '등록문화재', '여름피서지']",https://cdn.visitkorea.or.kr/img/call?cmd=VIEW&id=54dd3afd-f5b6-44c2-96ec-0ce02bdedb55&thumb,전라북도 군산시 군산창2길 48,35.9912502,126.7048504
군산곤충체험학습농장,전북 군산시,063-451-1973,"['가족체험', '곤충박물관', '곤충생태관', '곤충생태원', '곤충연구소', '곤충체험학습']",https://cdn.visitkorea.or.kr/img/call?cmd=VIEW&id=6dcac802-ce89-4dab-b5ea-d35f788d220e&thumb,전라북도 군산시 나포면 뜰아름길 70,36.0078954,126.8218262
군산항,전북 군산시,063-453-4986,"['관광지', '교과서속여행', '군산항', '바다풍경', '아이와함께', '역사', '연인과함께']",https://cdn.visitkorea.or.kr/img/call?cmd=VIEW&id=481a7c33-50fe-4de6-8852-76ef285ce6ea&thumb,전라북도 군산시 내항2길 45,35.9904032,126.7101385
권번문화예술원 예가인,전북 정읍시,063-532-1248,"['관광지', '전통', '전통&역사', '전통가옥', '전통고예', '전통공예', '전통놀이체험']",https://cdn.visitkorea.or.kr/img/call?cmd=VIEW&id=7131a8c8-e773-46d4-8e16-7f89c8338403&thumb,전라북도 정읍시 산외면 공동길 58,35.6173675,127.0199155
권희문가옥,전북 장수군,063-350-2326,"['관광지', '역사', '역사공부', '역사관광지', '역사를품은곳', '역사문화재', '역사속']",https://cdn.visitkorea.or.kr/img/call?cmd=VIEW&id=4f076f6a-d622-4da5-bd08-14f4b38606a8&thumb,전라북도 장수군 산서면 오메길 9,35.587531,127.3863888
귀래정(순창),전북 순창군,063-650-1623,"['관광지', '역사', '역사공부', '역사관광지', '역사를품은곳', '역사문화재', '역사속']",https://cdn.visitkorea.or.kr/img/call?cmd=VIEW&id=db51a697-81c3-4bc4-9489-a879a7401dda&thumb,전라북도 순창군 순창읍 가남리 산2-1,35.3643998,127.1387304
귀신사(김제),전북 김제시,063-548-0917,"['관광지', '불교', '불교문화', '불교사찰', '사찰', '사찰여행', '역사', '자연속으로']",https://cdn.visitkorea.or.kr/img/call?cmd=VIEW&id=7fb958ca-4511-4cbe-bb94-fc874e77d446&thumb,전라북도 김제시 금산면 청도6길 40,35.7455294,127.0470315
귀정사(남원),전북 남원시,063-626-0106,"['가족여행', '관광지', '귀정사', '불교', '불교문화', '사찰', '사찰&산사', '사찰여행']",https://cdn.visitkorea.or.kr/img/call?cmd=VIEW&id=56555cf0-04ce-4561-8493-ea0859f08f7c&thumb,전라북도 남원시 산동면 대상2길 246,35.5124009,127.4555792
근대건축관 (구)조선은행군산지점,전북 군산시,063-454-3274,"['관광지', '구조선은행군산지점', '근대건축관', '근대문화유산', '아이와함께']",https://cdn.visitkorea.or.kr/img/call?cmd=VIEW&id=5ada2c2d-b693-457e-9214-cf91d73e1431&thumb,전라북도 군산시 해망로 214,35.9893296,126.7141449
근대미술관 (구)일본 제 18은행 군산지점,전북 군산시,063-446-9812,"['관광지', '구일본18은행군산지점', '근대문화유산', '근대미술관', '미술관', '아이와함께']",https://cdn.visitkorea.or.kr/img/call?cmd=VIEW&id=e84a62e1-861b-4f2a-9600-0bad8a83eef0&thumb,전라북도 군산시 해망로 230,35.9899833,126.7128302
금강,전북 장수군,063-350-2521,"['관광지', '자연']",https://cdn.visitkorea.or.kr/img/call?cmd=VIEW&id=55fbf693-af36-4fe3-a396-e40a1f458a91&thumb,전라북도 장수군 천천면 오리골길,35.7845578,127.5256051
금강생태문화탐방로1,전북 군산시,063-467-9879,"['걷기길', '겨울방학가볼만한곳', '곰개나루관광지', '관광지', '군산', '금강유원지']",https://cdn.visitkorea.or.kr/img/call?cmd=VIEW&id=cfbbb340-78b2-4469-adc3-f480f5a5538d&thumb,전라북도 군산시 내흥2길 197,35.9985395,126.7595201
금강생태문화탐방로2,전북 군산시,063-467-9880,"['걷기길', '겨울방학가볼만한곳', '곰개나루관광지', '관광지', '군산', '금강유원지']",https://cdn.visitkorea.or.kr/img/call?cmd=VIEW&id=13084648-a15b-4f0f-ac79-bce84771a5e0&thumb,전라북도 군산시 나포면 철새로 987-1,36.0483722,126.8480648
금강철새조망대,전북 군산시,063-454-5680,"['가족여행', '가족체험여행', '관광지', '금강철새조망대', '아이와함께', '연인과함께']",https://cdn.visitkorea.or.kr/img/call?cmd=VIEW&id=584201e9-ef9e-453a-90e4-dbc0b670cb26&thumb,전라북도 군산시 성산면 철새로 120,36.0193906,126.7650964
금강하구둑(군산),전북 군산시,063-454-5683,"['가족과함께', '경치좋은곳', '관광지', '군산가볼만한곳', '금강', '금강하구둑']",https://cdn.visitkorea.or.kr/img/call?cmd=VIEW&id=ca2244ef-1fe0-46ae-b948-7ddf3d541b0c&thumb,전라북도 군산시 성산면 성덕리 411-1,36.0193906,126.7650964
금강호 관광지,전북 군산시,063-454-3337,"['가족여행', '걷기여행', '관광지', '금강호관광지', '남녀노소', '사계절', '아이가_좋아하는_여행']",https://cdn.visitkorea.or.kr/img/call?cmd=VIEW&id=4f3ef2a5-e24a-436e-9475-bf8159f0d8eb&thumb,전북 군산시 성산면 성덕리,36.0177549,126.7680125
금구원야외조각미술관,전북 부안군,063-584-6770,"['관광지', '금구원야외조각미술관', '남녀노소', '미술관', '복합문화공간', '아이와함께']",https://cdn.visitkorea.or.kr/img/call?cmd=VIEW&id=d36dd754-bdf7-4820-8ba4-a234189c374a&thumb,전라북도 부안군 변산면 조각공원길 31,35.6205083,126.4887532
금구향교,전북 김제시,063-540-3882,"['관광지', '금구향교', '금구향교대성전', '역사', '역사공부', '역사관광지', '역사를품은곳']",https://cdn.visitkorea.or.kr/img/call?cmd=VIEW&id=bd5b30a1-b28f-44ed-9fb9-ca64e5c37bc5&thumb,전라북도 김제시 금구면 금구3길 12,35.7728506,127.0112768
금당사(진안),전북 진안군,063-432-4441,"['가족여행', '관광지', '교과서속여행', '금당사', '마이산', '마이산탑사', '사찰&산사']",https://cdn.visitkorea.or.kr/img/call?cmd=VIEW&id=23b0fe02-4bba-4779-8e43-ed5fded22663&thumb,전라북도 진안군 마령면 마이산남로 217,35.7577274,127.3976135
금마저수지,전북 익산시,063-859-3825,"['관광지', '자연']",https://cdn.visitkorea.or.kr/img/call?cmd=VIEW&id=9675e79e-95df-48e5-9a23-13ecd9b464ae&thumb,전라북도 익산시 금마면 고도9길 41-64,36.0017938,127.0568451
금산교회,전북 김제시,063-548-4055,"['건축물', '건축사', '관광지', '금산교회', '역사', '역사공부', '역사를품은곳', '역사문화재']",https://cdn.visitkorea.or.kr/img/call?cmd=VIEW&id=e69cb6d6-96a1-4415-a8b3-a0109f76023a&thumb,전라북도 김제시 금산면 모악로 407,35.7193715,127.0352694
금산사(김제),전북 김제시,063-548-4441,"['가족여행', '관광지', '교과서속여행', '금산사', '사찰&산사', '아이와함께', '역사']",https://cdn.visitkorea.or.kr/img/call?cmd=VIEW&id=c13231ed-c333-4615-b626-b5b15ca4e48d&thumb,전라북도 김제시 금산면 모악15길 1,35.7232427,127.0537729
금선계곡,전북 정읍시,063-538-7876,"['관광지', '자연']",https://cdn.visitkorea.or.kr/img/call?cmd=VIEW&id=undefined&thumb,전라북도 정읍시 내장산로 1207,35.4878779,126.9074896
금선폭포,전북 정읍시,063-538-7875,"['관광지', '자연']",https://cdn.visitkorea.or.kr/img/call?cmd=VIEW&id=ae8deedf-cc3e-47e6-9c2f-daaaa09d48c8&thumb,전북 정읍시 내장동,35.4954377,126.9138423
금평저수지,전북 김제시,063-540-4862,"['관광지', '자연']",https://cdn.visitkorea.or.kr/img/call?cmd=VIEW&id=6c32c718-595e-465c-bffd-1a4ec8216dca&thumb,전북 김제시 금산면 청도리,35.7369164,127.0442558
기미3.1운동비,전북 장수군,063-350-2326,"['3.1운동', '관광지', '광복', '아픈과거', '역사', '역사공부', '역사관광', '역사관광지']",https://cdn.visitkorea.or.kr/img/call?cmd=VIEW&id=85291094-7260-4d94-9ed3-2c231fddab82&thumb,전북 장수군 산서면 동화리,35.5954867,127.3953936
김기서강학당,전북 고창군,063-560-2943,"['관광지', '역사', '역사공부', '역사관광지', '역사를품은곳', '역사문화재', '역사속']",https://cdn.visitkorea.or.kr/img/call?cmd=VIEW&id=45ef4f1e-0d5e-418f-bf49-8b769f49e94b&thumb,전라북도 고창군 고수면 사동길 40-160,35.3945801,126.706453
김남택신도비,전북 장수군,063-350-2326,"['관광지', '역사', '역사공부', '역사관광지', '역사를품은곳', '역사문화재', '역사속']",https://cdn.visitkorea.or.kr/img/call?cmd=VIEW&id=cbd797bd-3579-4608-85c0-cec1da06edae&thumb,전라북도 장수군 계남면 원호덕길 79,35.710628,127.5906018
김복규·김기종 효자 정려비 및 정판,전북 임실군,063-640-2312,"['관광지', '역사', '역사공부', '역사관광지', '역사를품은곳', '역사문화재', '역사속']",https://cdn.visitkorea.or.kr/img/call?cmd=VIEW&id=7f2ddc92-53bb-4728-b3c0-5fae30e30056&thumb,전라북도 임실군 임실읍 임삼로 1590-20,35.5946785,127.2632524
김안균가옥,전북 익산시,063-859-5792,"['관광지', '역사', '역사공부', '역사관광지', '역사를품은곳', '역사문화재', '역사속']",https://cdn.visitkorea.or.kr/img/call?cmd=VIEW&id=b38a8501-0ad0-4797-96ac-dd4c2268a178&thumb,전라북도 익산시 함라면 수동길 20,36.0608675,126.9094787
김육불망비,전북 익산시,063-859-5792,"['관광지', '교과서속여행', '김육불망비', '아이와함께', '역사', '역사공부', '역사를품은곳']",https://cdn.visitkorea.or.kr/img/call?cmd=VIEW&id=12a79e58-8dda-47a6-9f11-376c4aa67d0d&thumb,전라북도 익산시 함라면 천남1길 13,36.0603311,126.9102509
김정회고가,전북 고창군,063-564-4156,"['가족여행', '관광지', '김정회고가', '역사', '연중무휴', '전라권', '전라북도민속문화재']",https://cdn.visitkorea.or.kr/img/call?cmd=VIEW&id=c67a8c45-ac82-412b-8b17-c4200f5377cb&thumb,전라북도 고창군 고창읍 도산1길 16,35.4400786,126.6599805
김제 벽골제,전북 김제시,063-540-4094,"['관광지', '교과서속여행', '박물관', '벽골제', '산책하기', '산책하기좋은곳', '역사']",https://cdn.visitkorea.or.kr/img/call?cmd=VIEW&id=e389415f-f105-4a2a-a9ca-a169aa76475b&thumb,전라북도 김제시 부량면 벽골제로 442,35.7529497,126.852423
김제 외갓집마을,전북 김제시,063-547-0087,"['관광지', '농촌마을', '농촌여행', '농촌체험', '농촌체험마을', '아이와함께', '외갓집마을']",https://cdn.visitkorea.or.kr/img/call?cmd=VIEW&id=e50d07d4-1502-4952-9ab7-9f98fbd469fd&thumb,전라북도 김제시 금구면 사방길 110-5,35.8102031,126.9865951
김제동헌,전북 김제시,063-540-3882,"['관광지', '역사', '역사공부', '역사관광지', '역사를품은곳', '역사문화재', '역사속']",https://cdn.visitkorea.or.kr/img/call?cmd=VIEW&id=dd476710-171f-48ff-a0e2-3c948e030e82&thumb,전라북도 김제시 동헌4길 46-1,35.8007363,126.882103
김제평야,전북 김제시,063-540-3031,"['관광지', '자연']",https://cdn.visitkorea.or.kr/img/call?cmd=VIEW&id=a55cc1d6-dcba-4a10-b829-95d8416631e2&thumb,"전라북도 김제시 만경읍 화포리,소토리,청하면 동지산리 일대",35.9027779,126.8462648
김제향교,전북 김제시,063-540-3882,"['관광지', '역사', '역사관광지', '역사를품은곳', '역사문화재', '역사속', '역사속으로']",https://cdn.visitkorea.or.kr/img/call?cmd=VIEW&id=7c10605e-2b70-48d9-adfb-a083a178c217&thumb,전라북도 김제시 향교길 89-3,35.8004859,126.8794082
낙덕정,전북 순창군,063-650-1623,"['관광지', '역사', '역사공부', '역사관광지', '역사를품은곳', '역사문화재', '역사속']",https://cdn.visitkorea.or.kr/img/call?cmd=VIEW&id=a0076aa8-6cb7-42de-8b77-5db3ed6a3d31&thumb,전라북도 순창군 북픙면 상송리,35.4500952,126.9598845
낙양사,전북 김제시,063-540-3882,"['관광지', '역사', '역사공부', '역사관광지', '역사를품은곳', '역사문화재', '역사속']",https://cdn.visitkorea.or.kr/img/call?cmd=VIEW&id=ba7a124e-eb55-4b6e-b835-f4288774d53d&thumb,전라북도 김제시 금구면 청운4길 87-3,35.8115444,126.9801116
남계정,전북 완주군,063-290-2605,"['관광지', '역사', '역사공부', '역사관광지', '역사를품은곳', '역사문화재', '역사문화재']",https://cdn.visitkorea.or.kr/img/call?cmd=VIEW&id=e03a8deb-cc87-4fb4-8f1c-d79953d1dc8f&thumb,전라북도 완주군 구이면 원두현길 12-12,35.7432289,127.1229487
남고사(전주),전북 전주시,063-284-9640,"['관광지', '남고사', '불교', '불교문화', '사찰', '사찰여행', '역사', '연중무휴', '자연속으로']",https://cdn.visitkorea.or.kr/img/call?cmd=VIEW&id=e2d9abe9-80a3-4ffd-8a07-3ab4ee23758d&thumb,전라북도 전주시 완산구 남고산성1길 53-88,35.7996931,127.1589834
남고서원,전북 정읍시,063-539-5184,"['관광지', '역사', '역사공부', '역사관광지', '역사문화재', '역사문화체험', '역사속']",https://cdn.visitkorea.or.kr/img/call?cmd=VIEW&id=0b622d4f-02cc-43d7-815a-ade4cadd588e&thumb,전라북도 정읍시 북면 보림1길 392,35.5727886,126.9204027
남궁찬묘석상,전북 익산시,063-859-5792,"['관광지', '교과서속여행', '남궁찬묘석상', '아이와함께', '역사', '역사공부', '역사관광지']",https://cdn.visitkorea.or.kr/img/call?cmd=VIEW&id=03dbe9c3-65df-4b63-b6be-f6bfe10cfe0a&thumb,전라북도 익산시 성당면 목사동길 48,36.0908601,126.925936
남문안당산,전북 부안군,063-580-4711,"['관광지', '남문안당산', '역사', '역사공부', '역사관광지', '역사를품은곳', '역사문화재']",https://cdn.visitkorea.or.kr/img/call?cmd=VIEW&id=83889997-2e6c-44dc-9627-6e5465a0a7ff&thumb,전라북도 부안군 부안읍 남문안길 10,35.7307316,126.7348965
남복리오층석탑,전북 정읍시,063-539-5184,"['관광지', '역사', '역사공부', '역사관광지', '역사를품은곳', '역사문화재', '역사속']",https://cdn.visitkorea.or.kr/img/call?cmd=VIEW&id=475c809a-1ca5-471b-85b2-c0c75fa05810&thumb,전라북도 정읍시 고부면 영원로 596-31,35.6154144,126.778324
남산사(정읍),전북 정읍시,063-537-4418,"['관광지', '불교', '불교문화', '사찰', '사찰여행', '역사', '자연속으로', '자연환경']",https://cdn.visitkorea.or.kr/img/call?cmd=VIEW&id=18b42647-c0db-4443-a424-3eedbab4e9ed&thumb,전라북도 정읍시 북면 정신로 183-64,35.6087303,126.862275
남산서원(김제),전북 김제시,063-540-3882,"['관광지', '교과서속여행', '남산서원', '서원', '역사', '역사공부', '역사관광지']",https://cdn.visitkorea.or.kr/img/call?cmd=VIEW&id=d856f2f3-f8e5-4c09-a84a-e147fd55e0b3&thumb,전라북도 김제시 성덕면 만경로 600-92,35.8406221,126.8247155
남원 교룡산성,전북 남원시,063-620-6172,"['관광지', '교룡산성', '나들이', '역사', '역사공부', '역사를품은곳', '역사문화재']",https://cdn.visitkorea.or.kr/img/call?cmd=VIEW&id=8d9d1aab-ac9e-49df-97a0-ddbcf657a5d4&thumb,전라북도 남원시 산곡동,35.427073,127.3623996
남원 만복사지,전북 남원시,063-620-6172,"['경치좋은곳', '관광지', '교과서속여행', '만복사지', '사찰&산사', '아이와함께']",https://cdn.visitkorea.or.kr/img/call?cmd=VIEW&id=ab922770-3703-4270-b1fd-d9c697767190&thumb,전라북도 남원시 만복사길 10-3,35.4075102,127.3680605
남원 만인의총,전북 남원시,063-290-6600,"['가족여행', '관광지', '교과서속여행', '남원만인의총', '아이와함께', '역사', '역사공부']",https://cdn.visitkorea.or.kr/img/call?cmd=VIEW&id=11415a14-d951-47be-9dbf-b793347bc39a&thumb,전라북도 남원시 만인로 3,35.4204679,127.3773192
남원 신계리 마애여래좌상,전북 남원시,063-620-6172,"['관광지', '보물', '불상', '신계리마애여래좌상', '역사', '역사공부', '역사관광지']",https://cdn.visitkorea.or.kr/img/call?cmd=VIEW&id=46b7c640-98fb-4978-8cea-6b324baf328f&thumb,전라북도 남원시 대산면 신계리,35.4284016,127.3045089
남원 실상사 석장생,전북 남원시,063-620-6172,"['가족여행', '관광지', '실상사', '실상사석장생', '아이와함께', '역사', '역사공부']",https://cdn.visitkorea.or.kr/img/call?cmd=VIEW&id=78d46fbc-898c-411f-b5b9-d7611cbca3a0&thumb,전라북도 남원시 산내면 입석길 94-129,35.4167148,127.6351305
남원 아담원,전북 남원시,063-635-8342,"['가족나들이', '관광지', '남원가볼만한곳', '남원데이트', '남원수목원']",https://cdn.visitkorea.or.kr/img/call?cmd=VIEW&id=01f22263-504a-48d4-acd2-e32225d69f0b&thumb,전라북도 남원시 이백면 목가길 193,35.4403247,127.4765231
남원 진기리 느티나무,전북 남원시,063-620-6171,"['관광지', '남원진기리느티나무', '자연', '자연유산', '전라권', '천연기념물']",https://cdn.visitkorea.or.kr/img/call?cmd=VIEW&id=7106bf11-a7ba-434e-afc8-3436873af01f&thumb,전라북도 남원시 보절면 보절신기길 14-3,35.4958092,127.4220289
남원 추어마을,전북 남원시,063-634-4640,"['가족체험', '관광지', '농촌마을', '농촌체험', '농촌체험마을', '농촌체험여행']",https://cdn.visitkorea.or.kr/img/call?cmd=VIEW&id=18b5fbbf-2cdf-4efe-8c9c-ecf71320a37e&thumb,전라북도 남원시 보절면 용동길 47,35.5316456,127.4244151
남원 추어탕 거리,전북 남원시,063-632-1330,"['가족과함께', '관광지', '남녀노소', '맛집거리', '맛집탐방', '몸보신여행', '미꾸라지']",https://cdn.visitkorea.or.kr/img/call?cmd=VIEW&id=8e7e38eb-bec9-4b4e-826e-16580814d052&thumb,전라북도 남원시 천거동,35.4014557,127.3781881
남원 황산대첩비지,전북 남원시,063-620-6172,"['가족여행', '관광지', '교과서속여행', '남원황산대첩비지', '사적', '아이와함께']",https://cdn.visitkorea.or.kr/img/call?cmd=VIEW&id=5bfde68e-7e62-45b4-91f8-829a3b11f8c2&thumb,전라북도 남원시 운봉읍 가산화수길 84,35.4578893,127.5616965
남원 흥부마을,전북 남원시,063-620-6172,"['관광지', '교과서속여행', '남원5경', '아이와함께', '역사', '옛날이야기', '자연마을']",https://cdn.visitkorea.or.kr/img/call?cmd=VIEW&id=826b5d72-78fc-429b-8eb3-332d8bcd33d2&thumb,전라북도 남원시 아영면 흥부1길 48-1,35.5196474,127.5840722
남원관광단지,전북 남원시,063-620-6160,"['가족여행', '가족체험여행', '관광지', '남녀노소', '남원관광단지', '아이와함께']",https://cdn.visitkorea.or.kr/img/call?cmd=VIEW&id=281d33a0-645a-47bf-9260-a9eac11639a3&thumb,전라북도 남원시 양림길 43,35.4022413,127.3900991
남원몽심재,전북 남원시,063-620-6172,"['관광지', '교과서속여행', '남원몽심재', '문화재', '역사', '역사공부', '역사관광지']",https://cdn.visitkorea.or.kr/img/call?cmd=VIEW&id=d7a15e09-ab6d-4db8-8638-36a9fa3d5396&thumb,전라북도 남원시 수지면 내호곡2길 19,35.3379549,127.3747209
남원사(익산),전북 익산시,063-836-5344,"['관광지', '불교', '불교문화', '사찰', '사찰여행', '역사', '연중무휴', '익산남원사']",https://cdn.visitkorea.or.kr/img/call?cmd=VIEW&id=7564ffce-080e-4f34-8d8a-28f085e30dfa&thumb,전라북도 익산시 여산면 서촌1길 34-3,36.0556508,127.0827201
남원서천리당산,전북 남원시,063-620-6172,"['관광지', '교과서속여행', '남원서천리당산', '문화재', '역사', '역사공부', '역사관광지']",https://cdn.visitkorea.or.kr/img/call?cmd=VIEW&id=8c79fe70-5497-4de4-8894-147aeeb37d55&thumb,전라북도 남원시 운봉읍 서천리,35.4371308,127.5265807
남원성,전북 남원시,063-620-6172,"['관광지', '나들이', '남원성', '아이와함께', '역사', '역사공부', '역사문화재', '역사속']",https://cdn.visitkorea.or.kr/img/call?cmd=VIEW&id=cf75c821-9171-4f49-aaa0-d0572ec3304c&thumb,전라북도 남원시 동충동,35.4115453,127.3815747
남원시 옻칠공예관,전북 남원시,063-631-5725,"['가족과함께', '관광지', '아이와함께', '옻칠공예관', '이색체험']",https://cdn.visitkorea.or.kr/img/call?cmd=VIEW&id=1c3d22cf-6c1a-43ea-ae6e-a7c67db86966&thumb,전라북도 남원시 요천로 1234-5,35.4220847,127.3989478
남원자연휴양림,전북 남원시,063-633-5333,"['관광지', '자연']",https://cdn.visitkorea.or.kr/img/call?cmd=VIEW&id=61f75c43-5589-42c9-b93c-b578b6e2cb20&thumb,전라북도 남원시 보산로 228,35.4602539,127.4170303
남원항공우주천문대,전북 남원시,063-620-6900,"['관광지', '남원항공우주천문대', '이색체험', '자연', '전라권', '천문대', '체험']",https://cdn.visitkorea.or.kr/img/call?cmd=VIEW&id=3e3faaa3-69cf-47da-afc1-bc8a0000b043&thumb,전라북도 남원시 양림길 48-63,35.3990573,127.387361
남원향교,전북 남원시,063-620-6172,"['관광지', '교과서속여행', '남원향교', '아이와함께', '역사', '역사공부', '역사관광지']",https://cdn.visitkorea.or.kr/img/call?cmd=VIEW&id=43f4dfe2-2406-4711-9ced-86ef0250afac&thumb,전라북도 남원시 향교길 43,35.4218206,127.3830714
남중동 오층 석탑,전북 익산시,063-859-5792,"['관광지', '교과서속여행', '남중동오층석탑', '아이와함께', '역사', '역사공부']",https://cdn.visitkorea.or.kr/img/call?cmd=VIEW&id=884d28ec-d8c7-4149-8fbf-596e126ed153&thumb,전라북도 익산시 익산대로24길 8-5,35.9455434,126.9521162
남천교 청연루,전북 전주시,063-281-5361,"['경치좋은곳', '관광지', '사진찍기', '사진찍기좋은곳', '사진촬영', '야경명소']",https://cdn.visitkorea.or.kr/img/call?cmd=VIEW&id=22e7f054-8f26-4501-9aac-67a0ca8f7ec3&thumb,전라북도 전주시 완산구 천경로 40,35.8099856,127.1535172
남평문씨열녀비,전북 장수군,061-390-7226,"['관광지', '역사', '역사공부', '역사관광지', '역사를품은곳', '역사문화재', '역사속']",https://cdn.visitkorea.or.kr/img/call?cmd=VIEW&id=3873a619-cc0f-4338-b464-6524c7899652&thumb,전라북도 장수군 산서면 오산리,35.5967183,127.380924
내도리강변유원지,전북 무주군,1899-8687,"['가족과함께', '관광지', '아이와함께', '여름철휴가지', '여름휴가', '자연관광지']",https://cdn.visitkorea.or.kr/img/call?cmd=VIEW&id=4237d8a1-ed1c-4a03-a4c5-70553c65f6d3&thumb,전라북도 무주군 무주읍 내도로 126,36.0167105,127.6450692
내동산,전북 진안군,063-430-2443,"['관광지', '자연']",https://cdn.visitkorea.or.kr/img/call?cmd=VIEW&id=null&thumb,전라북도 진안군 백운면 덕현리,35.6891536,127.3779771
내변산,전북 부안군,063-582-7808,"['관광지', '자연']",https://cdn.visitkorea.or.kr/img/call?cmd=VIEW&id=8748b775-51ca-4043-b3df-25be0c20fb5d&thumb,전라북도 부안군 변산면 내변산로 232,35.6518559,126.5474748
내소사(부안),전북 부안군,063-583-2443,"['가족여행', '관광지', '교과서속여행', '내소사', '불교문화', '사찰&산사', '아이와함께']",https://cdn.visitkorea.or.kr/img/call?cmd=VIEW&id=cad06fce-7a82-402b-bbf5-d9eb48c9b2e9&thumb,전라북도 부안군 진서면 내소사로 243,35.6175898,126.5873648
내소사삼층석탑,전북 부안군,063-583-7281,"['관광지', '역사', '역사공부', '역사관광지', '역사를품은곳', '역사문화재', '역사속']",https://cdn.visitkorea.or.kr/img/call?cmd=VIEW&id=828d706f-55fc-4ebf-af14-99546e82ea3d&thumb,전라북도 부안군 진서면 내소사로 243,35.6175898,126.5873648
내원암,전북 부안군,063-581-3283,"['관광지', '불교', '불교문화', '사찰', '사찰여행', '역사', '자연속으로', '자연환경']",https://cdn.visitkorea.or.kr/img/call?cmd=VIEW&id=null&thumb,전라북도 부안군 위도면 내원암길 42,35.5878923,126.2729749
내장사(정읍),전북 정읍시,063-538-8741,"['가족여행', '관광지', '교과서속여행', '내장사', '불교', '불교사찰', '사찰', '사찰&산사']",https://cdn.visitkorea.or.kr/img/call?cmd=VIEW&id=cdc1c7db-23bf-4eef-8468-5234aad7add0&thumb,전라북도 정읍시 내장산로 1253,35.4896703,126.9018922
내장산 국립공원,전북 정읍시,063-538-7875,"['15_16한국관광100선', '19_20한국관광100선', '관광지', '내장산', '내장산']",https://cdn.visitkorea.or.kr/img/call?cmd=VIEW&id=f3e11387-a0ea-4745-a4f1-f5ed200d367b&thumb,전라북도 정읍시 내장산로 936,35.4933352,126.9278556
내장산 굴거리나무군락,전북 정읍시,063-539-5181,"['관광지', '굴거리나무군락', '내장산', '식물', '자연', '전라권', '천연기념물']",https://cdn.visitkorea.or.kr/img/call?cmd=VIEW&id=4d181d70-388a-4ce6-b763-37823f17578d&thumb,전라북도 정읍시 내장산로 987-30,35.4865305,126.9165026
내장산 케이블카,전북 정읍시,063-538-8120,"['관광지', '자연']",https://cdn.visitkorea.or.kr/img/call?cmd=VIEW&id=e66e5da5-dd35-41a7-a48e-d96389491988&thumb,전라북도 정읍시 내장산로 936,35.4933352,126.9278556
내장산국립공원,전북 순창군,063-538-7875,"['가족여행', '관광지', '꽃여행', '내장산', '내장산국립공원', '등산', '등산로', '아이와함께']",https://cdn.visitkorea.or.kr/img/call?cmd=VIEW&id=d547f886-a740-418f-9880-cda59fbae183&thumb,전라북도 순창군 복흥면,35.4321399,126.9297562
내장산수목원,전북 정읍시,063-536-4024,"['가족여행', '관광지', '내장산수목원', '단풍여행', '수목원', '자연', '자연&숲치유']",https://cdn.visitkorea.or.kr/img/call?cmd=VIEW&id=c844584e-b47d-4428-a4e4-a2d7ca29258c&thumb,전라북도 정읍시 내장호반로 194-28,35.5098904,126.8981853
내장산조각공원,전북 정읍시,063-537-1330,"['가족여행', '걷기길', '걷기여행', '관광지', '내장산조각공원', '사계절', '산책길']",https://cdn.visitkorea.or.kr/img/call?cmd=VIEW&id=46e19b3c-64f3-4d4e-9577-bbf0b49deca1&thumb,전라북도 정읍시 내장호반로 214,35.4996462,126.9170929
노동환가옥,전북 임실군,063-640-2312,"['관광지', '역사', '역사공부', '역사관광지', '역사를품은곳', '역사문화재', '역사속']",https://cdn.visitkorea.or.kr/img/call?cmd=VIEW&id=97b0f995-6b11-4cef-b707-61b876b6eff3&thumb,전라북도 임실군 삼계면 후천1길 19-20,35.4843856,127.2661987
노양서원,전북 정읍시,063-539-5184,"['관광지', '역사', '역사공부', '역사관광지', '역사를품은곳', '역사문화재', '역사속']",https://cdn.visitkorea.or.kr/img/call?cmd=VIEW&id=undefined&thumb,전라북도 정읍시 상흑길 44,35.5973287,126.8219477
노채마을,전북 진안군,063-432-4916,"['관광지', '교육여행', '농촌체험', '아이와함께', '이색체험', '자연속으로', '체험프로그램']",https://cdn.visitkorea.or.kr/img/call?cmd=VIEW&id=4611253c-291e-4e45-96b1-5a60f67d0ddf&thumb,전라북도 진안군 안천면 자노로 312-1,35.879817,127.5585901
논개사당(의암사),전북 장수군,063-350-2326,"['가족여행', '관광지', '교과서속여행', '논개사당', '사찰&산사', '아이와함께']",https://cdn.visitkorea.or.kr/img/call?cmd=VIEW&id=1605cc11-4228-4b15-8aa7-9e31d0040eb7&thumb,전라북도 장수군 장수읍 한누리로 393,35.6410294,127.5180878
논개생가,전북 장수군,063-350-1636,"['가족여행', '관광지', '논개생가', '아이와함께', '역사', '역사공부', '역사관광지']",https://cdn.visitkorea.or.kr/img/call?cmd=VIEW&id=9b8ecdfb-04c4-4da2-b20f-88cdd16e2a35&thumb,전라북도 장수군 장계면 의암로 558,35.6794934,127.6211233
다가공원,전북 전주시,063-241-6949,"['관광지', '남녀노소', '다가공원', '산책길', '산책하기', '산책하기좋은곳', '자연좋은곳']",https://cdn.visitkorea.or.kr/img/call?cmd=VIEW&id=3b2ce732-967f-484f-beea-e28629fd8563&thumb,전라북도 전주시 완산구 중화산동1가 150-3,35.81413,127.1378153
다천사(정읍),전북 정읍시,063-534-4103,"['관광지', '불교', '불교문화', '사찰', '사찰여행', '역사', '자연속으로', '자연환경']",https://cdn.visitkorea.or.kr/img/call?cmd=VIEW&id=fb9415d9-1e43-417e-be66-13c88fed0575&thumb,전라북도 정읍시 태인면 태흥1길 59,35.6524492,126.9530009
달궁계곡,전북 남원시,063-625-8911,"['관광지', '자연']",https://cdn.visitkorea.or.kr/img/call?cmd=VIEW&id=undefined&thumb,전라북도 남원시 산내면 지리산로,35.3851324,127.5881926
달오름마을,전북 남원시,063-635-2231,"['가족과함께', '가족체험', '관광지', '농촌마을', '농촌여행', '농촌체험', '농촌체험마을']",https://cdn.visitkorea.or.kr/img/call?cmd=VIEW&id=62590f90-2879-4aa4-a33b-270be66d02e7&thumb,전라북도 남원시 인월면 인월서길 42,35.4567719,127.5926244
대곡리암각화,전북 남원시,063-620-6172,"['관광지', '대곡리암각화', '역사', '역사공부', '역사관광지', '역사를품은곳', '역사속']",https://cdn.visitkorea.or.kr/img/call?cmd=VIEW&id=ad544b68-c6f2-4f7e-aee2-68888ad13bb6&thumb,전라북도 남원시 대산면 대곡리,35.4076927,127.3152025
대둔산도립공원(전북),전북 완주군,064-263-9949,"['가족여행', '관광지', '대둔산도립공원', '등산', '생태관광지', '자연', '자연속으로']",https://cdn.visitkorea.or.kr/img/call?cmd=VIEW&id=6bcac65c-6891-403f-b159-57d1f1593669&thumb,전북 완주군 운주면 산북리,36.109414,127.3329433
대모암(순창),전북 순창군,063-653-3549,"['관광지', '불교', '불교문화', '사찰', '사찰여행', '역사', '자연속으로', '자연환경']",https://cdn.visitkorea.or.kr/img/call?cmd=VIEW&id=eca56226-e01f-4023-9bfb-c454510048a4&thumb,전라북도 순창군 순창읍 장류로 197-22,35.3728763,127.1240598
대복사(남원),전북 남원시,063-631-1144,"['관광지', '불교', '불교문화', '사찰', '사찰여행', '역사', '자연속으로', '자연환경']",https://cdn.visitkorea.or.kr/img/call?cmd=VIEW&id=null&thumb,전라북도 남원시 대복사길 61,35.4167665,127.368574
대승서원,전북 완주군,063-290-2605,"['관광지', '역사', '역사공부', '역사관광지', '역사를품은곳', '역사문화재', '역사속']",https://cdn.visitkorea.or.kr/img/call?cmd=VIEW&id=undefined&thumb,전라북도 완주군 소양면 신원상리길 84-7,35.8598374,127.2971807
대아관광농원,전북 완주군,063-263-5005,"['가족과함께', '가족체험', '관광농원', '관광지', '아이와함께', '자연여행', '자연좋은곳']",https://cdn.visitkorea.or.kr/img/call?cmd=VIEW&id=undefined&thumb,전라북도 완주군 고산면 대아저수로 304,35.9827773,127.2516377
대아수목원,전북 완주군,063-243-1951,"['가족여행', '관광지', '기차여행', '나들이', '대아수목원', '데이트코스', '등산로']",https://cdn.visitkorea.or.kr/img/call?cmd=VIEW&id=d8fb4e52-d2dd-447e-affd-3592654a2bed&thumb,전라북도 완주군 동상면 대아수목로 94-34,35.9843467,127.3142561
대아저수지(대아호),전북 완주군,063-290-3930,"['관광지', '완주낚시터', '자연']",https://cdn.visitkorea.or.kr/img/call?cmd=VIEW&id=e74f864d-6b11-4a13-b613-6950cba41bf6&thumb,전라북도 완주군 동상면 대아리,35.9796908,127.296062
대원사 용각부도,전북 완주군,063-221-8502,"['관광지', '불교', '불교문화', '역사', '역사공부', '역사관광지', '역사를품은곳']",https://cdn.visitkorea.or.kr/img/call?cmd=VIEW&id=a3bfe1df-0794-499e-b0a9-2731e377bacc&thumb,전라북도 완주군 구이면 모악산길 243,35.7323698,127.0956688
대원사(완주),전북 완주군,063-221-8502,"['관광지', '불교', '불교문화', '사찰', '사찰여행', '역사', '자연속으로', '자연환경']",https://cdn.visitkorea.or.kr/img/call?cmd=VIEW&id=acea9eb0-f869-455c-9b0c-a8997c28b738&thumb,전라북도 완주군 구이면 모악산길 243,35.7323698,127.0956688
대제복구비,전북 김제시,063-540-3882,"['관광지', '역사', '역사공부', '역사관광지', '역사를품은곳', '역사문화재', '역사속']",https://cdn.visitkorea.or.kr/img/call?cmd=VIEW&id=73779288-c087-4ea2-ac0b-975c0e8e6216&thumb,전라북도 김제시 후신길 4-27,35.7991549,126.8665537
대항갯벌체험,전북 부안군,010-5405-3682,"['가족체험', '가족체험학습', '갯벌체험', '갯벌체험장', '관광지', '바다내음', '바다풍경']",https://cdn.visitkorea.or.kr/img/call?cmd=VIEW&id=db85f102-3e23-4ec2-84c0-c19eb2f237ad&thumb,전라북도 부안군 변산면 변산로 1906,35.6676998,126.5159933
덕산계곡,전북 장수군,063-350-2312,"['가족과함께', '걷기길', '관광지', '덕산계곡', '자연', '전라권', '풍경좋은곳']",https://cdn.visitkorea.or.kr/img/call?cmd=VIEW&id=ecc5efb8-1d14-4e31-bf4a-fb5d9ac288c3&thumb,전라북도 장수군 장수읍 덕산리 772,35.6021063,127.543392
덕암서원,전북 임실군,063-640-2312,"['관광지', '역사', '역사공부', '역사관광지', '역사를품은곳', '역사문화재', '역사속']",https://cdn.visitkorea.or.kr/img/call?cmd=VIEW&id=null&thumb,전라북도 임실군 지사면 원산3길 1-22,35.5872486,127.3593123
덕유산국립공원,전북 무주군,063-322-3174,"['관광지', '눈꽃&설경여행', '덕유산국립공원', '레포츠체험', '무주구천동', '무주리조트']",https://cdn.visitkorea.or.kr/img/call?cmd=VIEW&id=ba5c335c-84c8-4e33-9014-49835f64a986&thumb,전라북도 무주군 설천면 구천동1로 159,35.9006559,127.7751251
"덕유산국립공원(본소,적상분소)",전북 무주군,063-322-3174,"['가족여행', '관광지', '꽃여행', '덕유산국립공원', '등산', '등산로', '아이와함께']",https://cdn.visitkorea.or.kr/img/call?cmd=VIEW&id=7fbb4931-51a1-4313-9f32-d2f67eef2fb7&thumb,전라북도 무주군 설천면 구천동1로 159,35.9006559,127.7751251
덕음암(남원),전북 남원시,063-625-5333,"['관광지', '불교', '불교문화', '사찰', '사찰여행', '역사', '자연속으로', '자연환경']",https://cdn.visitkorea.or.kr/img/call?cmd=VIEW&id=null&thumb,전라북도 남원시 소리길 122-24,35.4057164,127.3914073
덕재산,전북 임실군,063-640-2474,"['관광지', '자연']",https://cdn.visitkorea.or.kr/img/call?cmd=VIEW&id=c3e3d050-b2bd-4487-bc88-b67bc45b143d&thumb,전라북도 임실군 성수면 봉강리,35.5948591,127.3298671
덕진공원,전북 전주시,063-239-2607,"['가족여행', '걷기여행', '관광지', '나들이', '덕진공원', '사계절', '아이와함께']",https://cdn.visitkorea.or.kr/img/call?cmd=VIEW&id=b69754bb-9bfa-4fbd-9e91-fe349a5b918f&thumb,전라북도 전주시 덕진구 권삼득로 390,35.8480368,127.1222124
덕천서원,전북 무주군,1899-8687,"['관광지', '덕천서원', '역사', '역사공부', '역사관광지', '역사를품은곳', '역사문화재']",https://cdn.visitkorea.or.kr/img/call?cmd=VIEW&id=b1a5019d-802c-4b8d-975f-6a9676a88cf7&thumb,전라북도 무주군 설천면 이남3길 18-5,35.9964941,127.8012265
덕태산,전북 진안군,063-430-2443,"['관광지', '자연']",https://cdn.visitkorea.or.kr/img/call?cmd=VIEW&id=null&thumb,전라북도 진안군 백운면 백운동로 401-109,35.6890439,127.4408328
데미샘,전북 진안군,063-290-6993,"['관광지', '자연발생', '자연속으로', '자연여행', '자연좋은곳', '자연풍경', '자연환경']",https://cdn.visitkorea.or.kr/img/call?cmd=VIEW&id=ecefb2a6-5aa4-4dce-ad6c-f436fa3b031d&thumb,전라북도 진안군 백운면 데미샘1길,35.6485938,127.4549625
도계서원,전북 정읍시,063-539-5184,"['관광지', '역사', '역사공부', '역사관광', '역사관광지', '역사를품은곳', '역사문화재']",https://cdn.visitkorea.or.kr/img/call?cmd=VIEW&id=d8b7af50-b28f-4ac7-80cf-3e444fa81d08&thumb,전라북도 정읍시 덕천면 도계1길 34-13,35.6383147,126.8123967
도덕폭포,전북 정읍시,063-538-7875,"['관광지', '자연']",https://cdn.visitkorea.or.kr/img/call?cmd=VIEW&id=283d9a1c-6c9f-4ff6-8756-d860b9c06e1f&thumb,전북 정읍시 내장동,35.4954377,126.9138423
도동서원(고창),전북 고창군,063-560-2943,"['관광지', '역사', '역사공부', '역사관광', '역사관광지', '역사를품은곳', '역사문화']",https://cdn.visitkorea.or.kr/img/call?cmd=VIEW&id=71d1b10a-3b4b-4288-91ae-11ccce9ad991&thumb,전라북도 고창군 신림면 가평1길 64,35.4780589,126.7420257
도산서당,전북 고창군,063-560-2943,"['관광지', '역사', '역사공부', '역사관광지', '역사를품은곳', '역사문화재', '역사속']",https://cdn.visitkorea.or.kr/img/call?cmd=VIEW&id=ee4c54e2-f99f-4694-a9dc-82c7cc7f08da&thumb,전라북도 고창군 고창읍 도산1길 4,35.4396874,126.6609484
도산서원,전북 무주군,1899-8687,"['관광지', '역사', '역사공부', '역사관광지', '역사를품은곳', '역사문화재', '역사속']",https://cdn.visitkorea.or.kr/img/call?cmd=VIEW&id=1448394b-63c3-4dc2-a104-9280adff5fb2&thumb,전라북도 무주군 안성면 사전1길 24-13,35.8718738,127.6684511
도솔계곡(선운산),전북 고창군,063-560-8681,"['가족여행', '관광지', '도솔계곡', '여름가볼만한곳', '여름여행', '자연', '전라권']",https://cdn.visitkorea.or.kr/img/call?cmd=VIEW&id=5fef2fdb-2c27-47ca-8927-be9624fe7b4e&thumb,전라북도 고창군 아산면 선운사로 250,35.4969385,126.5782255
도솔암(고창),전북 고창군,063-564-2861,"['가족여행', '관광지', '도솔암(고창)', '불교', '불교문화', '사찰', '사찰&산사', '사찰여행']",https://cdn.visitkorea.or.kr/img/call?cmd=VIEW&id=b80b0dcc-1e2a-4c2c-9f38-019fc13d7971&thumb,전라북도 고창군 아산면 도솔길 294,35.4811289,126.563993
도암서원,전북 장수군,063-350-2326,"['관광지', '역사', '역사공부', '역사관광지', '역사를품은곳', '역사문화재', '역사속']",https://cdn.visitkorea.or.kr/img/call?cmd=VIEW&id=28b1664e-d10e-4b02-a016-a71f6b6dfd0f&thumb,전라북도 장수군 장계면 서변길 49-27,35.7389527,127.5905586
도암서원,전북 고창군,063-560-2943,"['관광지', '교과서속여행', '도암서원', '서원', '역사', '역사공부', '역사관광지']",https://cdn.visitkorea.or.kr/img/call?cmd=VIEW&id=2c6072d2-e10e-449a-8e3f-ab570e460967&thumb,전라북도 고창군 공음면 갑촌길 20,35.3773494,126.5068471
동고사(전주),전북 전주시,063-288-1626,"['관광지', '동고사', '불교문화', '사찰', '사찰여행', '역사', '연중무휴', '자연속으로']",https://cdn.visitkorea.or.kr/img/call?cmd=VIEW&id=709ab9c5-15d2-4302-bd1c-cefde858cd0a&thumb,전라북도 전주시 완산구 낙수정2길 103-100,35.8097395,127.1678423
동고산성,전북 전주시,063-281-5361,"['관광지', '역사', '역사공부', '역사를품은곳', '역사문화재', '역사속', '역사속으로']",https://cdn.visitkorea.or.kr/img/call?cmd=VIEW&id=1ee87ffd-2dcb-4b31-acab-b3cd051ad321&thumb,전라북도 전주시 완산구 대성동,35.7930023,127.1749153
동국사(군산),전북 군산시,063-462-5366,"['가족여행', '관광지', '동국사', '등록문화재', '사찰&산사', '역사', '역사공부']",https://cdn.visitkorea.or.kr/img/call?cmd=VIEW&id=7e185aba-8bc8-4abf-a6f5-14050cb363c3&thumb,전라북도 군산시 동국사길 16,35.9827115,126.7076657
동락원,전북 전주시,063-285-3490,"['가족여행', '관광지', '동락원', '이색체험', '전라권', '전통공예', '전통한옥', '체험']",https://cdn.visitkorea.or.kr/img/call?cmd=VIEW&id=b466b9ff-200b-4ebb-89fe-6a94a51e19c4&thumb,전라북도 전주시 완산구 은행로 33-6,35.8168033,127.1527709
동림저수지,전북 고창군,063-560-2454,"['걷기길', '겨울방학가볼만한곳', '관광지', '동림저수지', '생태관광', '생태관광지']",https://cdn.visitkorea.or.kr/img/call?cmd=VIEW&id=f7b5f14f-8b4f-46ce-9d36-f4ad9520ff39&thumb,전라북도 고창군 성내면 신성리,35.5514831,126.7337211
동상운장산계곡,전북 완주군,063-290-2724,"['가족여행', '관광지', '동상운장산계곡', '아이와함께', '여름방학가볼만한곳']",https://cdn.visitkorea.or.kr/img/call?cmd=VIEW&id=310cd97b-f08f-4373-b702-c0a62ca467f4&thumb,전라북도 완주군 동상면 대아리,35.9796908,127.296062
동죽서원,전북 정읍시,063-539-5184,"['가족여행', '관광지', '교과서속여행', '동죽서원', '아이와함께', '역사', '역사공부']",https://cdn.visitkorea.or.kr/img/call?cmd=VIEW&id=5a810a62-5960-4e80-bbc3-e53c66b0618e&thumb,전라북도 정읍시 덕천면 학전길 32-57,35.6138571,126.8152572
동편제탯자리,전북 남원시,063-620-6172,"['가족과함께', '관광지', '교과서속여행', '동편제탯자리', '비전마을', '아이와함께']",https://cdn.visitkorea.or.kr/img/call?cmd=VIEW&id=4fcb49b5-705e-4d7c-9ad7-a1fb24fd000c&thumb,전라북도 남원시 운봉읍 비전길 7,35.4577767,127.5626788
동호해수욕장,전북 고창군,063-560-2646,"['가족여행', '관광지', '동호해수욕장', '여름가볼만한곳', '여름여행', '연중무휴']",https://cdn.visitkorea.or.kr/img/call?cmd=VIEW&id=07c52324-95d4-49a4-aa64-99506f3af6d4&thumb,전라북도 고창군 해리면 동호리,35.5090529,126.4889245
되재성당,전북 완주군,063-290-2114,"['관광지', '역사공부', '역사관광지', '역사를품은곳', '역사문화재', '역사속', '역사속으로']",https://cdn.visitkorea.or.kr/img/call?cmd=VIEW&id=c93f9657-fa6a-4a60-b3e1-719eb771a74f&thumb,전라북도 완주군 화산면 승치리,36.0719413,127.2174539
두곡서원(김제),전북 김제시,063-540-3882,"['관광지', '역사', '역사공부', '역사관광지', '역사를품은곳', '역사문화재', '역사속']",https://cdn.visitkorea.or.kr/img/call?cmd=VIEW&id=58d67bbf-9345-4489-9444-625b8bb168b6&thumb,전라북도 김제시 진봉면 심포9길 31,35.8565391,126.7159165
두남천,전북 진안군,063-430-8344,"['관광지', '자연']",https://cdn.visitkorea.or.kr/img/call?cmd=VIEW&id=94cdff72-244f-4d04-b24e-9d27ed764bfc&thumb,전북 진안군 부귀면 두남리 170,35.8429772,127.4170879
두동교회 구본당,전북 익산시,063-861-0348,"['가족여행', '관광지', '두동교회구본당', '역사', '역사공부', '역사관광지', '역사를품은곳']",https://cdn.visitkorea.or.kr/img/call?cmd=VIEW&id=6c0f5dff-fb46-447f-80f0-1c13edf4d600&thumb,전라북도 익산시 성당면 두동길 17-1,36.1035273,126.9206383
두동편백나무숲,전북 익산시,063-862-8600,"['관광지', '두동편백나무숲', '자연', '전라권', '휴양여행', '힐링']",https://cdn.visitkorea.or.kr/img/call?cmd=VIEW&id=cbd55416-6abb-45ba-bd00-604b69732016&thumb,전라북도 익산시 성당면 두동길 15,36.1037307,126.9214085
두승산,전북 정읍시,063-539-5231,"['관광지', '자연']",https://cdn.visitkorea.or.kr/img/call?cmd=VIEW&id=null&thumb,전라북도 정읍시 흑암신흥길 62-3,35.6028976,126.8076229
두암서원,전북 정읍시,063-539-5184,"['관광지', '역사', '역사공부', '역사관광지', '역사를품은곳', '역사문화재', '역사속']",https://cdn.visitkorea.or.kr/img/call?cmd=VIEW&id=undefined&thumb,전라북도 정읍시 소성면 보애길 368,35.5251239,126.7729178
두포갯벌체험장,전북 부안군,063-581-5114,"['가족체험', '갯벌', '갯벌체험', '갯벌체험장', '관광지', '생태학습', '아이와함께']",https://cdn.visitkorea.or.kr/img/call?cmd=VIEW&id=22777a92-5d8b-4ca3-b8d7-1527c7882c6b&thumb,전라북도 부안군 변산면 도청두포길 13,35.6042505,126.47996
뜬봉샘 생태관광지,전북 장수군,063-353-7002,"['가족과함께', '관광지', '교육여행', '뜬봉샘', '산책하기', '산책하기좋은곳', '생태여행']",https://cdn.visitkorea.or.kr/img/call?cmd=VIEW&id=cf45a8a9-ecd1-457a-bdb8-ae518cd96cf3&thumb,전라북도 장수군 장수읍 물뿌랭이길 10-18,35.5921239,127.5013603
라제통문,전북 무주군,063-322-2905,"['가족여행', '관광지', '라제통문', '역사관광지', '전라권', '통일문']",https://cdn.visitkorea.or.kr/img/call?cmd=VIEW&id=6bc76710-cc32-4555-97ac-210f00f220bc&thumb,전라북도 무주군 설천면 라제통문로,35.9926686,127.8106272
마이돈테마공원,전북 진안군,063-430-2651,"['관광지', '남녀노소', '사진찍기좋은곳', '산책하기좋은곳', '아이와함께', '이색체험']",https://cdn.visitkorea.or.kr/img/call?cmd=VIEW&id=11f987f7-3f96-41ec-b0e2-9113141c7717&thumb,전라북도 진안군 진안읍 마이산로 130,35.7735489,127.4165262
마이산 미로공원,전북 진안군,063-430-8751,['관광지'],https://cdn.visitkorea.or.kr/img/call?cmd=VIEW&id=d8e9fd64-9f7c-4fa9-8d2d-53d940f094b4&thumb,전라북도 진안군 진안읍 단양리,35.7712447,127.4211188
마이산 벚꽃길,전북 진안군,063-430-2114,"['관광지', '드라마촬영지', '마이산벚꽃길', '봄꽃여행', '산책로', '전라권']",https://cdn.visitkorea.or.kr/img/call?cmd=VIEW&id=7094c943-915f-4f96-8312-ad43f9d7856a&thumb,전라북도 진안군 마령면 동촌리,35.7476111,127.3909465
마이산 신제,전북 진안군,063-430-2114,"['관광지', '마이산', '역사', '역사공부', '역사를품은곳', '역사문화재', '역사속']",https://cdn.visitkorea.or.kr/img/call?cmd=VIEW&id=37008867-346f-4711-8a98-b1ea5beb553f&thumb,전라북도 진안군 마령면 마이산남로,35.7562203,127.4012561
마이산 타포니지형,전북 진안군,063-430-8751,"['관광지', '마이산', '자연발생', '자연속으로', '자연여행', '자연좋은곳', '자연풍경']",https://cdn.visitkorea.or.kr/img/call?cmd=VIEW&id=0e93f714-086a-4b76-9444-7468162d4051&thumb,전라북도 진안군 진안읍 마이산로 255,35.7663331,127.4151117
마이산 탑사,전북 진안군,063-433-0012,"['가족여행', '경치좋은곳', '관광지', '마이산탑사', '불교', '불교문화', '사찰여행']",https://cdn.visitkorea.or.kr/img/call?cmd=VIEW&id=b3cfe1cc-d6a9-4994-b7fe-b57a65a946eb&thumb,전라북도 진안군 마령면 마이산남로 367,35.7584764,127.411269
마이산 화엄굴,전북 진안군,063-430-8751,"['관광지', '동굴', '마이산화엄굴', '미세먼지탈출_이색동굴여행', '자연', '전라권']",https://cdn.visitkorea.or.kr/img/call?cmd=VIEW&id=d93a61b4-95b9-4cb0-8a81-ee9e11f83453&thumb,전라북도 진안군 마령면 마이산남로 367,35.7584764,127.411269
마이산도립공원,전북 진안군,063-430-8751,"['가족여행', '관광지', '꽃여행', '등산', '등산로', '마이산도립공원', '아이와함께']",https://cdn.visitkorea.or.kr/img/call?cmd=VIEW&id=89f4987f-ce6d-4160-a08b-b449d3d6a9db&thumb,전라북도 진안군 진안읍 마이산로 255,35.7663331,127.4151117
마이산홍삼족욕카페,전북 진안군,063-433-0643,"['건강여행', '관광지', '남녀노소', '마이산', '이색체험', '족욕체험', '진안홍삼']",https://cdn.visitkorea.or.kr/img/call?cmd=VIEW&id=64f58b97-f1da-4b69-8c79-16e387766faa&thumb,전라북도 진안군 진안읍 마이산로 130,35.7735489,127.4165262
만경강,전북 익산시,063-840-3221,"['관광지', '자연']",https://cdn.visitkorea.or.kr/img/call?cmd=VIEW&id=b8fb20f7-de54-40c5-85ef-c42bca2df545&thumb,전라북도 익산시 춘포면 만경강길 905,35.8989883,127.0258058
만경향교,전북 김제시,063-540-3882,"['관광지', '만경향교', '문화재', '역사', '역사공부', '역사관광지', '역사문화재']",https://cdn.visitkorea.or.kr/img/call?cmd=VIEW&id=4f307b4a-d976-48a0-964d-53785b5f8dd2&thumb,전라북도 김제시 만경읍 두내산1길 25-10,35.8541877,126.8208133
만덕산,전북 완주군,063-290-3930,"['관광지', '자연']",https://cdn.visitkorea.or.kr/img/call?cmd=VIEW&id=undefined&thumb,"전라북도 완주군 소양면 신촌, 상관면 마치리",35.8069182,127.2808321
만돌갯벌체험학습장,전북 고창군,063-561-0705,"['갯벌체험', '관광지', '만돌갯벌체험학습장', '아이와함께', '어촌', '어촌마을']",https://cdn.visitkorea.or.kr/img/call?cmd=VIEW&id=bd6e0d94-0b32-4479-8ecb-2368fd9a1b18&thumb,전라북도 고창군 심원면 애향갯벌로 320,35.5301843,126.5150781
만석보지,전북 정읍시,063-539-5184,"['관광지', '기념물', '만석보지', '역사', '역사공부', '역사관광지', '역사를품은곳']",https://cdn.visitkorea.or.kr/img/call?cmd=VIEW&id=d96e5b55-e354-4b05-9b5f-a2279702c8a8&thumb,전라북도 정읍시 이평면 하송리,35.6781952,126.8537888
만석보혁파비,전북 정읍시,063-539-5184,"['관광지', '만석보혁파비', '역사', '역사공부', '역사관광지', '역사를품은곳', '역사문화재']",https://cdn.visitkorea.or.kr/img/call?cmd=VIEW&id=51c52340-91d2-449a-b7e9-3438819298b3&thumb,전라북도 정읍시 이평면 하송리,35.6781952,126.8537888
만일사(순창),전북 순창군,063-653-5283,"['가족여행', '관광지', '만일사', '불교', '불교사찰', '사찰', '역사', '역사관광지']",https://cdn.visitkorea.or.kr/img/call?cmd=VIEW&id=251ca4cf-6bd3-4232-9044-3ea7d0e47320&thumb,전라북도 순창군 구림면 안심길 103-134,35.4860926,127.1178177
만취정,전북 임실군,063-640-2114,"['관광지', '역사', '역사공부', '역사관광지', '역사를품은곳', '역사문화재', '역사속']",https://cdn.visitkorea.or.kr/img/call?cmd=VIEW&id=6b636662-269d-4477-a213-a12bbebc17e2&thumb,전라북도 임실군 삼계면 산수1길 62,35.4798011,127.2791896
만화서원,전북 고창군,063-560-2943,"['관광지', '교과서속여행', '만화서원', '서원', '역사', '역사공부', '역사관광지']",https://cdn.visitkorea.or.kr/img/call?cmd=VIEW&id=98afc837-3be4-44ef-a5a6-ad2ec15b188c&thumb,전라북도 고창군 신림면 만화길 50,35.4934308,126.7087431
말도 등대,전북 군산시,063-453-4986,"['관광지', '자연']",https://cdn.visitkorea.or.kr/img/call?cmd=VIEW&id=null&thumb,전라북도 군산시 옥도면 말도2길 29,35.8581463,126.315164
말목장터와 감나무,전북 정읍시,063-539-5184,"['감나무', '관광지', '동학농민운동', '말목장터', '말목장터와감나무', '역사', '역사공부']",https://cdn.visitkorea.or.kr/img/call?cmd=VIEW&id=e853a02f-86f3-47e5-9c6f-137ec4498daf&thumb,전라북도 정읍시 이평면 두자리,35.657435,126.8382328
망모당,전북 익산시,063-859-5792,"['관광지', '역사', '역사공부', '역사관광지', '역사를품은곳', '역사문화재', '역사속']",https://cdn.visitkorea.or.kr/img/call?cmd=VIEW&id=eda8be9e-ea41-488e-b67c-34abba3dbda5&thumb,전라북도 익산시 왕궁면 장중길 105-8,35.9688027,127.0941887
망부상과 정읍사,전북 정읍시,063-539-5193,"['가요', '공원', '관광지', '망부상', '백제', '산책하기좋은곳', '아이와함께', '역사공부']",https://cdn.visitkorea.or.kr/img/call?cmd=VIEW&id=4163350f-95ca-4e28-a4b1-01758f9e9f70&thumb,전라북도 정읍시 정읍사로 541,35.5509297,126.8617092
망제동석불입상(대암석불),전북 정읍시,063-539-5184,"['관광지', '대암석불', '망제동석불입상', '역사', '역사관광지', '역사를품은곳']",https://cdn.visitkorea.or.kr/img/call?cmd=VIEW&id=c8d8294e-629d-4fda-873a-d3504397bd57&thumb,전라북도 정읍시 망제동 보화리,35.6059364,126.8427852
망해사(김제),전북 김제시,063-545-4356,"['관광지', '불교', '불교사찰', '사찰', '사찰여행', '역사', '자연속으로', '자연좋은곳']",https://cdn.visitkorea.or.kr/img/call?cmd=VIEW&id=268ee452-e1d9-4621-ab60-3be18f2be717&thumb,전라북도 김제시 진봉면 심포10길 94,35.8596191,126.7155369
매계서원,전북 남원시,063-620-6172,"['관광지', '역사', '역사공부', '역사관광지', '역사를품은곳', '역사문화재', '역사속']",https://cdn.visitkorea.or.kr/img/call?cmd=VIEW&id=undefined&thumb,전라북도 남원시 사매면 세동길 13-7,35.4824964,127.364221
매월당,전북 남원시,063-636-1278,"['가족과함께', '관광지', '녹차', '이색체험', '차문화', '차문화체험', '체험프로그램']",https://cdn.visitkorea.or.kr/img/call?cmd=VIEW&id=346e5d22-a268-477d-a57a-0ba83db65f09&thumb,전라북도 남원시 금지면 매촌길 47-34,35.3487386,127.2729395
매창공원,전북 부안군,063-580-4434,"['가족여행', '걷기길', '걷기여행', '관광지', '매창공원', '사계절', '산책코스', '산책하기좋은곳']",https://cdn.visitkorea.or.kr/img/call?cmd=VIEW&id=988c2401-85dd-43bf-971b-1c8ced3207c4&thumb,전라북도 부안군 부안읍 매창로 89,35.7193444,126.7287846
명사십리 및 구시포 (전북 서해안권 국가지질공원),전북 고창군,063-560-2699,"['관광지', '국가지질공원', '자연', '자연발생', '자연속으로', '자연여행', '자연좋은곳']",https://cdn.visitkorea.or.kr/img/call?cmd=VIEW&id=39d8002b-9abd-47be-b6e0-5252e155e08c&thumb,전라북도 고창군 상하면 진암구시포로 545,35.445517,126.4357139
모덕사(김제),전북 김제시,063-540-3882,"['관광지', '불교', '불교문화', '사찰', '사찰여행', '역사', '자연속으로', '자연환경']",https://cdn.visitkorea.or.kr/img/call?cmd=VIEW&id=null&thumb,전라북도 김제시 입석7길 73-21,35.7891203,126.8665833
모악산,전북 완주군,063-290-2752,"['관광지', '자연']",https://cdn.visitkorea.or.kr/img/call?cmd=VIEW&id=1923a923-d89b-4cb5-a856-581e6876050d&thumb,전라북도 완주군 구이면,35.7318915,127.1209314
모악산도립공원,전북 김제시,063-540-4194,"['가족여행', '관광지', '등산', '모악산도립공원', '생태관광', '자연', '자연좋은곳']",https://cdn.visitkorea.or.kr/img/call?cmd=VIEW&id=30154cb5-cbaa-4c6c-a478-21314f8faf80&thumb,전라북도 김제시 금산면 모악15길,35.7228416,127.067367
모항갯벌체험장,전북 부안군,063-584-7788,"['가족과함께', '가족휴양', '갯벌체험', '갯벌체험장', '관광지', '바다여행', '바다풍경']",https://cdn.visitkorea.or.kr/img/call?cmd=VIEW&id=962d97bc-b590-4242-9c6c-c6b808364f56&thumb,전라북도 부안군 변산면 모항길 107,35.5872168,126.5138679
모항어촌체험마을,전북 부안군,063-584-7788,"['가족여행', '경치좋은곳', '관광지', '모항어촌체험마을', '아이와함께', '어촌체험']",https://cdn.visitkorea.or.kr/img/call?cmd=VIEW&id=28076ff4-2e57-4a7b-a90b-0e0d6d449a0e&thumb,전라북도 부안군 변산면 모항길 107,35.5872168,126.5138679
모항해수욕장,전북 부안군,063-580-4413,"['관광지', '모항해수욕장', '바다풍경', '여름휴가', '자연', '전라권', '친구와함께']",https://cdn.visitkorea.or.kr/img/call?cmd=VIEW&id=dc743082-598f-49c7-b9ef-c45ed6f1f5a9&thumb,전라북도 부안군 변산면 모항길 23-1,35.5831428,126.5083087
모현동 부도,전북 익산시,063-859-5792,"['관광지', '역사', '역사공부', '역사를품은곳', '역사문화재', '역사속', '역사속으로']",https://cdn.visitkorea.or.kr/img/call?cmd=VIEW&id=null&thumb,전라북도 익산시 군익로11길 29-11,35.94433,126.936704
무녀도‧선유도,전북 군산시,063-454-7285,"['2020_휴가철찾아가고싶은_33섬', '가족과함께', '경치좋은곳', '관광지', '무녀도']",https://cdn.visitkorea.or.kr/img/call?cmd=VIEW&id=f524198f-8166-4a41-837b-bf87b9b4a433&thumb,전라북도 군산시 옥도면,35.6709622,126.4965411
무병장수마을,전북 장수군,063-352-1104,"['관광지', '산책길', '산책하기', '산책하기좋은곳', '자연경관', '자연마을', '자연좋은곳']",https://cdn.visitkorea.or.kr/img/call?cmd=VIEW&id=ae693ed8-e252-4249-be9e-e789737e5f57&thumb,전라북도 장수군 계북면 토옥동로 114,35.8065131,127.6397363
무성서원 [유네스코 세계문화유산],전북 정읍시,063-539-5184,"['가족여행', '관광지', '교과서속여행', '무성서원', '문화재', '아이와함께', '역사']",https://cdn.visitkorea.or.kr/img/call?cmd=VIEW&id=7b2f4e06-b062-4d34-8669-1a016ea5912d&thumb,전라북도 정읍시 칠보면 원촌1길 44-12,35.6017779,126.983951
무장향교,전북 고창군,063-560-2943,"['관광지', '교과서속여행', '무장향교', '역사', '역사공부', '역사관광지', '역사를품은곳']",https://cdn.visitkorea.or.kr/img/call?cmd=VIEW&id=1fc320a3-6c92-476d-a9d4-090717403756&thumb,전라북도 고창군 무장면 교흥교촌길 9,35.4276881,126.5661206
무장향교 대성전,전북 고창군,063-560-2943,"['관광지', '교과서속여행', '무장향교대성전', '역사', '역사공부', '역사관광지']",https://cdn.visitkorea.or.kr/img/call?cmd=VIEW&id=96afa51b-c3dc-4b00-9f2a-af371be086a4&thumb,전라북도 고창군 무장면 교흥교촌길 9,35.4276881,126.5661206
무주 구천동 33경,전북 무주군,063-320-2537,"['가을여행', '겨울여행', '관광지', '단풍여행', '무주구천동33경', '사계절', '여름여행']",https://cdn.visitkorea.or.kr/img/call?cmd=VIEW&id=e1623ca0-45cc-4112-924a-1ee04aec3b68&thumb,전라북도 무주군 설천면 백련사길 580,35.860082,127.7663099
무주 구천동 관광특구,전북 무주군,063-320-2114,"['가족여행', '걷기길', '걷기여행', '관광지', '무주구천동관광특구', '사계절', '아이와함께']",https://cdn.visitkorea.or.kr/img/call?cmd=VIEW&id=ef380e98-1ce3-4ea8-aef3-b6aecfd439a8&thumb,전북 무주군,36.0068191,127.6607805
무주 금척마을(금자마을),전북 무주군,063-324-4401,"['관광지', '농촌체험', '농촌체험여행', '시골여행', '자연마을', '자연풍경', '자연환경']",https://cdn.visitkorea.or.kr/img/call?cmd=VIEW&id=8d730772-f985-4858-83a3-ff25c3d02ed3&thumb,전라북도 무주군 무풍면 탄방로 181,35.9683464,127.8748032
무주 무풍승지마을,전북 무주군,063-324-5129,"['가족체험', '건강여행', '관광지', '농촌마을', '농촌여행', '농촌체험', '농촌체험마을']",https://cdn.visitkorea.or.kr/img/call?cmd=VIEW&id=7f986b8d-cb93-447b-8638-662f556244d1&thumb,전라북도 무주군 무풍면 철목길 61,35.9604931,127.8399671
무주 반디랜드,전북 무주군,063-324-1155,"['가족여행', '과학관', '관광지', '나들이', '데이트코스', '무주반디랜드', '박물관']",https://cdn.visitkorea.or.kr/img/call?cmd=VIEW&id=3637c231-4ee4-432f-a5cb-71448fe4eb39&thumb,전라북도 무주군 설천면 무설로 1324,36.0111137,127.758702
무주 삼공리 반송,전북 무주군,063-320-2542,"['관광지', '무주삼공리반송', '자연', '전라권', '천연기념물']",https://cdn.visitkorea.or.kr/img/call?cmd=VIEW&id=fde47c86-9d2d-4981-bee5-b3c09487efd1&thumb,전라북도 무주군 설천면 삼공리 산31,35.877476,127.778883
무주 신풍령약수터,전북 무주군,063-320-2570,"['관광지', '자연']",https://cdn.visitkorea.or.kr/img/call?cmd=VIEW&id=26acc357-3664-4f74-8b3e-8349c4233dbe&thumb,전라북도 무주군 무풍면 구천동로,35.8918153,127.8162145
무주 적상산성,전북 무주군,063-322-2905,"['관광지', '역사', '역사공부', '역사관광지', '역사를품은곳', '역사문화재', '역사속']",https://cdn.visitkorea.or.kr/img/call?cmd=VIEW&id=e9d21923-0705-42c4-9838-43c6116a75db&thumb,전라북도 무주군 적상면 괴목리,35.9155505,127.7178651
무주 지전마을 옛 담장,전북 무주군,1899-8687,"['가족여행', '관광지', '등록문화재', '무주지전마을옛담장', '역사', '역사공부']",https://cdn.visitkorea.or.kr/img/call?cmd=VIEW&id=931acb09-8473-40e6-b812-3a8aea198aea&thumb,전라북도 무주군 설천면,36.0081479,127.7896811
무주 트리스쿨,전북 무주군,063-324-3392,"['가족여행', '관광지', '기차여행', '나들이', '데이트코스', '목공체험', '무주트리스쿨']",https://cdn.visitkorea.or.kr/img/call?cmd=VIEW&id=efea2024-88fd-45a9-805a-ac9ac3836fb7&thumb,전라북도 무주군 무주읍 무주로 1788-9,35.9786521,127.6509771
무주 호롱불마을,전북 무주군,063-322-8001,"['가족여행', '관광지', '농촌체험휴양마을', '무주호롱불마을', '자연속으로', '자연여행']",https://cdn.visitkorea.or.kr/img/call?cmd=VIEW&id=496a5bb4-7600-45e8-bd4c-bc49266c685b&thumb,전라북도 무주군 설천면 무설로 682,36.0171069,127.7141802
무주국제화교육센터,전북 무주군,063-323-3345,"['가족과함께', '관광지', '교육', '무주국제화교육센터', '문화공간', '문화교실']",https://cdn.visitkorea.or.kr/img/call?cmd=VIEW&id=e726fc77-5c9c-4043-b960-b5d5058a879c&thumb,전라북도 무주군 무주읍 한풍루로 326-36,36.0022174,127.6641062
무주덕유산리조트,전북 무주군,063-322-9000,"['관광지', '무주숙소', '숙박']",https://cdn.visitkorea.or.kr/img/call?cmd=VIEW&id=ab771b70-cbd2-400b-9251-e122910a2be1&thumb,전라북도 무주군 설천면 만선로 185,35.8893667,127.7389493
무주덕유산리조트 야외노천탕&Pool,전북 무주군,063-322-9000,"['가족과함께', '가족힐링', '관광지', '노천탕', '무주덕유산', '무주덕유산리조트']",https://cdn.visitkorea.or.kr/img/call?cmd=VIEW&id=24ac0df5-d2fe-4927-88cd-ecaffbb19065&thumb,전라북도 무주군 설천면 만선로 185,35.8893667,127.7389493
무주리조트 관광곤도라,전북 무주군,063-320-7381,"['가족여행', '관광지', '나들이', '덕유산', '데이트코스', '등산', '무주리조트관광곤도라']",https://cdn.visitkorea.or.kr/img/call?cmd=VIEW&id=0a1d2b43-38c0-452f-b55a-ae4e26aab372&thumb,전라북도 무주군 설천면 만선로 185,35.8893667,127.7389493
무주머루와인동굴,전북 무주군,063-322-4720,"['가족여행', '가족체험여행', '관광지', '머루와인동굴', '무주머루와인동굴', '미세먼지탈출_이색동굴여행']",https://cdn.visitkorea.or.kr/img/call?cmd=VIEW&id=c9b3339d-7e2a-4366-8c21-98d2c87818d4&thumb,전라북도 무주군 적상면 산성로 359,35.9653618,127.6968881
무주반디랜드 반딧불이자연학교,전북 무주군,063-324-1155,"['관광지', '무주반디랜드', '무주반디별천문관', '박물관', '반딧불연구소', '생태관광']",https://cdn.visitkorea.or.kr/img/call?cmd=VIEW&id=3c11f3ef-66d0-458a-9051-35248e74358e&thumb,전라북도 무주군 설천면 무설로 1324,36.0111137,127.758702
무주한풍루,전북 무주군,1899-8687,"['가족여행', '관광지', '무주한풍루', '역사', '역사공부', '역사관광지', '역사를품은곳']",https://cdn.visitkorea.or.kr/img/call?cmd=VIEW&id=28d3eafc-2657-4a32-a100-ada33a76f0b5&thumb,전라북도 무주군 무주읍 한풍루로 326-5,36.0039619,127.6623673
무주향교,전북 무주군,1899-8687,"['관광지', '역사', '역사공부', '역사관광지', '역사를품은곳', '역사문화재', '역사속']",https://cdn.visitkorea.or.kr/img/call?cmd=VIEW&id=0eaf6602-cc0a-495f-95a1-7094059e9199&thumb,전라북도 무주군 무주읍 단천로 135,36.0081568,127.6659746
문덕봉,전북 남원시,063-620-3891,"['관광지', '자연']",https://cdn.visitkorea.or.kr/img/call?cmd=VIEW&id=undefined&thumb,전라북도 남원시 대강면 평촌2길,35.3811821,127.2429668
문수사 목조여래좌상,전북 익산시,063-836-9643,"['관광지', '교과서속여행', '문수사', '문수사목조여래좌상', '불교', '불교문화']",https://cdn.visitkorea.or.kr/img/call?cmd=VIEW&id=526f76f4-c45e-4d38-9fd6-f8b5ceb84bec&thumb,전라북도 익산시 여산면 천호산길 140,36.0425659,127.1178866
문수사(고창),전북 고창군,063-562-0502,"['관광지', '불교', '불교사찰', '사찰', '사찰여행', '역사', '자연속으로', '자연좋은곳']",https://cdn.visitkorea.or.kr/img/call?cmd=VIEW&id=db8aadd7-b923-4737-a8c4-1fcb39cc2168&thumb,전라북도 고창군 고수면 칠성길 135,35.3808119,126.7260064
문수사(김제),전북 김제시,063-547-0972,"['관광지', '불교', '불교문화', '사찰', '사찰여행', '역사', '자연속으로', '자연환경']",https://cdn.visitkorea.or.kr/img/call?cmd=VIEW&id=a600f64b-b72a-4695-a52f-6d00ceef71ce&thumb,전라북도 김제시 황산5길 158,35.780729,126.9318324
문수사(익산),전북 익산시,063-836-9643,"['관광지', '불교', '불교문화', '사찰', '사찰여행', '역사', '자연속으로', '자연환경']",https://cdn.visitkorea.or.kr/img/call?cmd=VIEW&id=ec1dd496-cd69-4ab5-8685-406b279b8f67&thumb,전라북도 익산시 여산면 천호산길 140,36.0425659,127.1178866
문창서원,전북 군산시,063-454-3921,"['관광지', '문창서원', '역사', '역사공부', '역사관광지', '역사를품은곳', '역사문화재']",https://cdn.visitkorea.or.kr/img/call?cmd=VIEW&id=3b32305c-ac2c-4a99-9429-6449df841588&thumb,전라북도 군산시 옥구읍 광월길 33-50,35.9305628,126.7071797
"문태서, 박춘실 의병대장 전적비",전북 장수군,063-350-2326,"['관광지', '역사', '역사공부', '역사관광지', '역사를품은곳', '역사문화재', '역사속']",https://cdn.visitkorea.or.kr/img/call?cmd=VIEW&id=e4223065-6007-46f6-a10e-45876abdb7d5&thumb,전라북도 장수군 계북면 양악길,35.8089674,127.635616
문팩토리매직 (관광두레 주민사업체),전북 군산시,1899-5968,"['관광두레', '관광두레_주민사업체', '관광지', '남녀노소', '마술공연', '무더위_피해_실내여행']",https://cdn.visitkorea.or.kr/img/call?cmd=VIEW&id=47bd6a1c-224a-418e-9a6f-0d3133e12e70&thumb,전라북도 군산시 동령길 33-1,35.9876333,126.7135404
문화공감 곳간(관광두레 주민사업체),전북 익산시,010-5917-3377,"['가족과함께', '관광두레', '관광두레_주민사업체', '관광지', '남녀노소', '아이와함께']",https://cdn.visitkorea.or.kr/img/call?cmd=VIEW&id=e2f317d2-a775-4727-b418-e06740a9a452&thumb,전라북도 익산시 고봉로 279,35.9569778,126.9703314
미당 서정주 생가,전북 고창군,063-580-4711,"['관광지', '역사', '역사공부', '역사관광지', '역사를품은곳', '역사문화재', '역사속']",https://cdn.visitkorea.or.kr/img/call?cmd=VIEW&id=97ee7d21-0ece-4953-8d06-a5ad5dea4604&thumb,전라북도 고창군 부안면 미당길 16,35.5354077,126.6080606
미륵사지 석등하대석,전북 익산시,063-859-5792,"['관광지', '교과서속여행', '미륵사지', '석등하대석', '아이와함께', '역사', '역사공부']",https://cdn.visitkorea.or.kr/img/call?cmd=VIEW&id=0f6ae91e-4cc7-4234-8649-547a4912c0e3&thumb,전라북도 익산시 금마면 기양리 미륵사지내,36.012325,127.0306222
미륵산(익산),전북 익산시,063-859-3825,"['관광지', '자연']",https://cdn.visitkorea.or.kr/img/call?cmd=VIEW&id=97f549cf-71d1-4467-879f-1201100392cb&thumb,전라북도 익산시 금마면 신용리,36.016237,127.0534563
미륵암(남원),전북 남원시,063-625-7791,"['관광지', '불교', '불교문화', '사찰', '사찰여행', '역사', '자연속으로', '자연환경']",https://cdn.visitkorea.or.kr/img/call?cmd=VIEW&id=47ead41f-dce4-4f46-95fb-f0535e099ae9&thumb,전라북도 남원시 시묘길 24-35,35.3891277,127.3719222
미륵암(장수),전북 장수군,063-351-3952,"['관광지', '불교', '불교문화', '사찰', '사찰여행', '역사', '자연속으로', '자연환경']",https://cdn.visitkorea.or.kr/img/call?cmd=VIEW&id=null&thumb,전라북도 장수군 산서면 초장길 51-54,35.6034479,127.3789809
미륵암석불,전북 남원시,063-620-6172,"['관광지', '미륵암석불', '불상', '역사', '역사공부', '역사를품은곳', '역사문화재']",https://cdn.visitkorea.or.kr/img/call?cmd=VIEW&id=9304cd4e-db55-4c8e-a943-477996e7d6c4&thumb,전라북도 남원시 시묘길 24-35,35.3891277,127.3719222
바래봉,전북 남원시,063-630-8900,"['경치좋은곳', '관광지', '등산객', '등산여행', '등산코스', '바래봉', '사진찍기좋은곳']",https://cdn.visitkorea.or.kr/img/call?cmd=VIEW&id=448d636a-bb3c-4c25-97cc-b89741f75bab&thumb,전라북도 남원시 운봉읍 바래봉길 196,35.4330709,127.5483153
반계선생유적지,전북 부안군,063-580-4711,"['관광지', '반계선생유적지', '역사', '역사공부', '역사관광지', '역사를품은곳']",https://cdn.visitkorea.or.kr/img/call?cmd=VIEW&id=258bf337-f3ab-4a2c-a4b2-f372da2d5bc2&thumb,전라북도 부안군 보안면 반계로 97-68,35.6195552,126.6306657
반곡서원(완주),전북 완주군,063-290-2605,"['관광지', '역사', '역사공부', '역사관광지', '역사를품은곳', '역사문화재', '역사속']",https://cdn.visitkorea.or.kr/img/call?cmd=VIEW&id=4214dd26-0602-44d6-9493-f40558b777b0&thumb,전라북도 완주군 비봉면 반곡서원길 52-29,36.0182931,127.1808221
반곡서원(진주),전북 전주시,063-281-2166,"['관광지', '반곡서원', '역사', '역사공부', '역사관광지', '역사를품은곳', '역사문화재']",https://cdn.visitkorea.or.kr/img/call?cmd=VIEW&id=9de13353-8376-4e0b-a24a-600f1969149b&thumb,전라북도 전주시 완산구 황학1길 11-24,35.8075662,127.1556518
발산리 육각부도,전북 군산시,063-454-3922,"['관광지', '발산리육각부도', '불교문화', '역사', '역사공부', '역사관광지', '역사문화재']",https://cdn.visitkorea.or.kr/img/call?cmd=VIEW&id=c88e0dba-ae67-441f-a10d-202daebecd0b&thumb,전라북도 군산시 개정면 바르메길 43,35.9590303,126.7962178
발효소스토굴,전북 순창군,063-650-5438,"['가족과함께', '관광지', '동굴', '순창가볼만한곳', '아이와함께', '이색체험', '자연관광지']",https://cdn.visitkorea.or.kr/img/call?cmd=VIEW&id=641fb2c6-be61-4dac-9cd5-491c773ddf9a&thumb,전라북도 순창군 순창읍 민속마을길 61-59,35.3663605,127.106363
방장산,전북 고창군,063-560-2603,"['관광지', '등산', '방장산', '산', '자연', '전라권', '전망좋은곳']",https://cdn.visitkorea.or.kr/img/call?cmd=VIEW&id=fa6bdb40-70c0-4348-8247-286299aa3840&thumb,전라북도 고창군 신림면 신평리,35.4640617,126.7445059
방축도,전북 군산시,063-454-7285,"['관광지', '낚시', '방축도', '섬', '자연', '전라권']",https://cdn.visitkorea.or.kr/img/call?cmd=VIEW&id=c46f48b0-1cc5-45c4-8450-3fafb46c0494&thumb,전라북도 군산시 옥도면 방축도1길 13-1,35.8505637,126.3752386
"방화동 자연휴양림,가족휴가촌",전북 장수군,063-350-2474,"['가족과함께', '가족여행', '관광지', '국립청태산자연휴양림', '방화동자연휴양림']",https://cdn.visitkorea.or.kr/img/call?cmd=VIEW&id=2f0ffd18-5fbd-4b53-b3fe-84b57cb2b0e4&thumb,전라북도 장수군 번암면 방화동로 778,35.5928311,127.5285956
백련사(무주),전북 무주군,063-322-3395,"['가족여행', '가족여행', '관광지', '백련사', '불교', '불교문화', '역사', '역사관광지']",https://cdn.visitkorea.or.kr/img/call?cmd=VIEW&id=2ab83fd9-9813-4791-8970-f1ff63fc042f&thumb,전라북도 무주군 설천면 백련사길 580,35.860082,127.7663099
백련산,전북 임실군,063-640-2474,"['관광지', '자연']",https://cdn.visitkorea.or.kr/img/call?cmd=VIEW&id=null&thumb,전라북도 임실군 강진면 강진방현길 65,35.5536672,127.1500004
백산서원,전북 김제시,063-540-3882,"['가족여행', '관광지', '교과서속여행', '백산서원', '아이와함께', '역사', '역사공부']",https://cdn.visitkorea.or.kr/img/call?cmd=VIEW&id=26814b29-d7d4-465e-8b0a-89b173c549b7&thumb,전라북도 김제시 백산면 하서3길 84,35.8256186,126.8718349
백산서원,전북 익산시,063-859-5792,"['관광지', '역사', '역사공부', '역사관광지', '역사를품은곳', '역사문화재', '역사속']",https://cdn.visitkorea.or.kr/img/call?cmd=VIEW&id=862ed610-59cd-48be-b5ac-cdd85a65e28c&thumb,전라북도 익산시 동서로3길 15,35.959933,126.9463401
백산서원,전북 무주군,1899-8687,"['관광지', '역사', '역사공부', '역사관광지', '역사를품은곳', '역사문화재', '역사속']",https://cdn.visitkorea.or.kr/img/call?cmd=VIEW&id=1caf7e24-dd3b-433a-a05b-c1ed85490eba&thumb,전라북도 무주군 무풍면 북리길 40,35.9718307,127.8489266
백산저수지,전북 김제시,063-540-3991,"['관광지', '자연']",https://cdn.visitkorea.or.kr/img/call?cmd=VIEW&id=6c8cb7ff-6360-43a8-9348-530f01b25a68&thumb,전북 김제시 백산면 하정리,35.8427978,126.8944789
백석서원,전북 김제시,063-540-3882,"['관광지', '백석서원', '사당', '서원', '역사', '역사공부', '역사관광지', '역사를품은곳']",https://cdn.visitkorea.or.kr/img/call?cmd=VIEW&id=c6a755e7-6647-4c00-961a-064e63341a76&thumb,전라북도 김제시 범득골길 187-22,35.8098226,126.8636968
백암리남근석,전북 정읍시,063-539-5184,"['관광지', '역사', '역사공부', '역사를품은곳', '역사문화재', '역사속', '역사속으로']",https://cdn.visitkorea.or.kr/img/call?cmd=VIEW&id=6aa474b6-0db7-43c7-bfb7-1e838d7af3b8&thumb,전라북도 정읍시 칠보면 백암리 1095,35.5994204,126.952104
백용성조사유허비,전북 장수군,063-350-2326,"['관광지', '역사']",https://cdn.visitkorea.or.kr/img/call?cmd=VIEW&id=d65c174b-ae79-4df3-b796-28258200c136&thumb,전라북도 장수군 번암면 죽림2길 31,35.5396266,127.5413698
백운관광농원,전북 진안군,063-432-4589,"['경치좋은곳', '관광지', '농촌마을', '농촌여행', '여름철', '여름철휴가지', '여름휴가']",https://cdn.visitkorea.or.kr/img/call?cmd=VIEW&id=e50fc3a6-6194-4b2c-8d71-626d6fea6094&thumb,전라북도 진안군 백운면 백운동로 426-5,35.6817646,127.435794
백운동계곡(진안),전북 진안군,063-432-4589,"['관광지', '자연']",https://cdn.visitkorea.or.kr/img/call?cmd=VIEW&id=ba8a48a9-1617-4c88-85e8-ce782540130c&thumb,전라북도 진안군 백운면 백운동로 325-8,35.681526,127.4278371
백운사(익산),전북 익산시,063-836-5984,"['관광지', '불교', '불교문화', '사찰', '사찰여행', '역사', '자연속으로', '자연환경']",https://cdn.visitkorea.or.kr/img/call?cmd=VIEW&id=1ba29d72-588f-4550-9745-fae65e7736eb&thumb,전라북도 익산시 여산면 천호산길 155-23,36.0433742,127.1221612
백장암 삼층석탑,전북 남원시,063-636-3598,"['관광지', '국보', '백장암삼층석탑', '역사', '역사공부', '역사를품은곳', '역사문화재']",https://cdn.visitkorea.or.kr/img/call?cmd=VIEW&id=85f156d6-19d0-470c-83ab-eeeb95716bc9&thumb,전라북도 남원시 산내면 천왕봉로 447-76,35.443001,127.6201473
백제도예원,전북 익산시,063-857-2848,"['공예체험', '공예품', '관광지', '도자기', '도자기공방', '도자기체험', '백제도예원']",https://cdn.visitkorea.or.kr/img/call?cmd=VIEW&id=13571b10-4d6d-4ec4-90c0-a4bcd9df1ff0&thumb,전라북도 익산시 하나로 685,35.9400674,126.9801655
백지사터,전북 익산시,063-859-5792,"['관광지', '교과서속여행', '백지사터', '역사', '역사공부', '역사관광지', '역사를품은곳']",https://cdn.visitkorea.or.kr/img/call?cmd=VIEW&id=cd1b60e2-8f15-46fe-a89f-3cddf451e808&thumb,전라북도 익산시 여산면 영전길 2-95,36.0590999,127.0851964
백학관광농원,전북 정읍시,063-535-9032,"['관광지', '농촌', '농촌여행코스', '농촌체험마을', '농촌체험여행', '농촌체험학습']",https://cdn.visitkorea.or.kr/img/call?cmd=VIEW&id=d2e03ec1-0f9f-4aec-9440-839692cf88b0&thumb,전라북도 정읍시 백학3길 81-30,35.4992075,126.8469403
백현서원,전북 완주군,063-290-2605,"['관광지', '역사', '역사공부', '역사관광지', '역사를품은곳', '역사문화재', '역사속']",https://cdn.visitkorea.or.kr/img/call?cmd=VIEW&id=23e9004e-cfe2-48fd-9a72-0c9f909f3c19&thumb,전라북도 완주군 고산면 눈기러기로 66-73,35.9857436,127.2121063
뱀사골 와운마을,전북 남원시,063-625-8911,"['가족과함께', '관광지', '뱀사골계곡', '아이와함께', '여름방학가기좋은곳', '여름여행']",https://cdn.visitkorea.or.kr/img/call?cmd=VIEW&id=3c4caa7b-037e-4af7-b962-2567c4c260e5&thumb,전라북도 남원시 산내면 와운길 249,35.3628538,127.5925994
뱀사골계곡,전북 남원시,063-630-8900,"['가족여행', '관광지', '뱀사골계곡', '여름방학가볼만한곳', '여름피서지', '자연']",https://cdn.visitkorea.or.kr/img/call?cmd=VIEW&id=588b8165-4789-4c0e-9d50-302338d0aef2&thumb,전라북도 남원시 산내면 부운리,35.3523613,127.5924722
법인사(정읍),전북 정읍시,063-531-0593,"['관광지', '불교', '불교문화', '사찰', '사찰여행', '역사', '자연속으로', '자연환경']",https://cdn.visitkorea.or.kr/img/call?cmd=VIEW&id=null&thumb,전라북도 정읍시 상신경1길 97,35.5586787,126.8811008
법인정사(김제),전북 김제시,063-540-3882,"['관광지', '불교', '불교문화', '사찰여행', '역사', '자연환경', '전통사찰', '종교']",https://cdn.visitkorea.or.kr/img/call?cmd=VIEW&id=23799fc7-3188-48b3-9144-22ef4f316273&thumb,전라북도 김제시 금구면 선비로 1126-26,35.7873596,127.0376974
벽련암(정읍),전북 정읍시,063-538-3303,"['관광지', '불교', '불교문화', '사찰', '사찰여행', '역사', '자연속으로', '자연좋은곳']",https://cdn.visitkorea.or.kr/img/call?cmd=VIEW&id=76f50a4a-e1e7-49e6-8ba8-3561f70d07d2&thumb,전라북도 정읍시 내장산로 1220-74,35.4932028,126.905286
벽성서원,전북 김제시,063-540-3882,"['관광지', '역사', '역사공부', '역사관광지', '역사를품은곳', '역사문화재', '역사속']",https://cdn.visitkorea.or.kr/img/call?cmd=VIEW&id=e6bfe557-26ec-4801-96fd-56a6bf1d4a57&thumb,전라북도 김제시 향교길 89-16,35.8011708,126.8796995
변산반도 국립공원,전북 부안군,063-582-7808,"['걷기길', '관광지', '변산반도', '생태관광', '생태관광지', '적벽강', '전라권', '채석강']",https://cdn.visitkorea.or.kr/img/call?cmd=VIEW&id=de838ea9-9912-48d3-ae09-bce27ce7a798&thumb,전라북도 부안군 변산면 방파제길 11,35.6258413,126.4712218
변산반도국립공원,전북 부안군,063-582-7808,"['가족여행', '관광지', '꽃여행', '등산', '등산로', '변산반도국립공원', '아이와함께']",https://cdn.visitkorea.or.kr/img/call?cmd=VIEW&id=fbec8b9b-65ac-4886-a38d-ae0602489765&thumb,전라북도 부안군 변산면 실상길,35.6407782,126.579428
변산자연휴양림,전북 부안군,063-581-9977,"['가족여행', '관광지', '문화행사', '변산자연휴양림', '사계절', '숲체험원', '자연']",https://cdn.visitkorea.or.kr/img/call?cmd=VIEW&id=e5fdfd3c-0c1b-4ff5-b3fc-9caf36876a15&thumb,전라북도 부안군 변산면 변산로 3768,35.5819221,126.5254029
변산해수욕장,전북 부안군,063-580-4413,"['가족과함께', '관광지', '바다', '변산해수욕장', '자연', '전라권']",https://cdn.visitkorea.or.kr/img/call?cmd=VIEW&id=217c74e4-e7c5-452a-8338-de26515c503d&thumb,전라북도 부안군 변산면 변산로 2076,35.6204812,126.5166241
병풍폭포,전북 순창군,063-650-1672,"['가족여행', '관광지', '등산', '병풍폭포', '여름휴가', '자연', '자연좋은곳', '전라권']",https://cdn.visitkorea.or.kr/img/call?cmd=VIEW&id=a74d9f89-896e-4b5a-9c08-64479b10fcb0&thumb,전라북도 순창군 팔덕면 강천산길 113,35.4080949,127.0665702
보령서원,전북 부안군,063-580-4711,"['관광지', '역사', '역사공부', '역사관광지', '역사를품은곳', '역사문화재', '역사속']",https://cdn.visitkorea.or.kr/img/call?cmd=VIEW&id=undefined&thumb,전라북도 부안군 상서면 봉은길 90-5,35.6574572,126.6645559
보리나라 학원농장,전북 고창군,063-564-9897,"['가족여행', '관광지', '기차여행', '나들이', '데이트코스', '무료입장', '보리나라학원농장']",https://cdn.visitkorea.or.kr/img/call?cmd=VIEW&id=2e990289-6947-4b73-8017-d50fd07ae7b4&thumb,전라북도 고창군 공음면 학원농장길 158-6,35.3763158,126.5428108
보림사(정읍),전북 정읍시,063-535-6800,"['관광지', '불교', '불교문화', '사찰', '사찰여행', '역사', '자연속으로', '자연환경']",https://cdn.visitkorea.or.kr/img/call?cmd=VIEW&id=null&thumb,전라북도 정읍시 북면 보림1길 497,35.5659254,126.9200491
보천사(군산),전북 군산시,063-453-2306,"['관광지', '역사', '역사관광지']",https://cdn.visitkorea.or.kr/img/call?cmd=VIEW&id=a163df03-05c4-4012-b0c6-bd3239b51f93&thumb,전라북도 군산시 서수면 내무장길 249,36.0120365,126.8535212
보흥사,전북 진안군,063-432-3079,"['관광지', '역사']",https://cdn.visitkorea.or.kr/img/call?cmd=VIEW&id=78a0aa50-9486-4a5f-93bd-ee09443f67c5&thumb,전라북도 진안군 마령면 원강정1길 16-133,35.7468557,127.3753901
봉강서원,전북 완주군,063-290-2605,"['관광지', '역사', '역사공부', '역사관광지', '역사를품은곳', '역사문화재', '역사속']",https://cdn.visitkorea.or.kr/img/call?cmd=VIEW&id=undefined&thumb,전라북도 완주군 봉동읍 봉강구만길 29,35.909693,127.1553026
봉래구곡,전북 부안군,063-584-7087,"['계곡', '관광지', '봉래구곡', '자연', '전라권']",https://cdn.visitkorea.or.kr/img/call?cmd=VIEW&id=6bd4db7a-0fa1-4810-a27c-3ae3d04968e9&thumb,전라북도 부안군 변산면 중계리,35.6568087,126.5757899
봉서사(완주),전북 완주군,063-243-0818,"['관광지', '불교', '불교문화', '불교사찰', '사찰', '사찰여행', '역사', '자연속으로']",https://cdn.visitkorea.or.kr/img/call?cmd=VIEW&id=null&thumb,전라북도 완주군 용진읍 봉서안길 313,35.9088271,127.219816
봉양서원,전북 완주군,063-290-2605,"['관광지', '역사', '역사공부', '역사관광지', '역사를품은곳', '역사문화재', '역사속']",https://cdn.visitkorea.or.kr/img/call?cmd=VIEW&id=undefined&thumb,전라북도 완주군 비봉면 장승길 28-11,36.0097512,127.1338145
봉황대(장수),전북 장수군,063-350-5557,"['관광지', '자연']",https://cdn.visitkorea.or.kr/img/call?cmd=VIEW&id=a3c089b3-fbbd-4770-b019-27e0eb11526a&thumb,전북 장수군 천천면 연평리,35.7974313,127.5307643
봉황사(김제),전북 김제시,063-547-8575,"['관광지', '불교', '불교문화', '사찰', '사찰여행', '역사', '자연속으로', '자연환경']",https://cdn.visitkorea.or.kr/img/call?cmd=VIEW&id=4441e79e-e7d8-4549-a7ee-af9f0f426a8d&thumb,전라북도 김제시 금구면 오봉2길 474,35.7747611,127.0714021
부귀 메타세쿼이아길,전북 진안군,063-430-2651,"['관광지', '드라이브여행', '드라이브코스', '산책하기좋은곳', '연인과함께', '영화촬영지']",https://cdn.visitkorea.or.kr/img/call?cmd=VIEW&id=ccd63541-792d-4adc-8d7a-69c90268d848&thumb,전라북도 진안군 부귀면 모래재로 841,35.8142757,127.3225357
부남강변 유원지,전북 무주군,063-324-2114,"['가족과함께', '강변', '관광지', '산책길', '산책하기', '산책하기좋은곳', '연인과함께']",https://cdn.visitkorea.or.kr/img/call?cmd=VIEW&id=0c1e9740-ace9-4208-b3ae-969d6414aaa2&thumb,전라북도 무주군 부남면 대소리,35.9673233,127.5613123
부안 격포리 후박나무군락,전북 부안군,063-580-4388,"['격포리후박나무군락', '관광지', '식물', '전라권', '천연기념물', '후박나무']",https://cdn.visitkorea.or.kr/img/call?cmd=VIEW&id=c8f5bd90-711b-40ec-8dab-0d7257b0e7b0&thumb,전라북도 부안군 변산면 격포리 산35-14,35.634992,126.4613785
부안 구암리 지석묘군,전북 부안군,063-580-4711,"['관광지', '역사', '역사공부', '역사관광지', '역사를품은곳', '역사문화재', '역사속']",https://cdn.visitkorea.or.kr/img/call?cmd=VIEW&id=3db3002b-4a61-4d40-9b0c-1dd412ca2c5f&thumb,전라북도 부안군 하서면 석상리,35.702116,126.6426584
부안 낙조대,전북 부안군,063-582-7808,"['관광지', '자연']",https://cdn.visitkorea.or.kr/img/call?cmd=VIEW&id=undefined&thumb,전라북도 부안군 변산면 운산로,35.6543877,126.530682
부안 도청리 호랑가시나무군락,전북 부안군,063-580-4388,"['관광지', '식물', '전라권', '천연기념물', '호랑가시나무', '호랑가시나무군락']",https://cdn.visitkorea.or.kr/img/call?cmd=VIEW&id=2064c526-e40c-4e0f-8473-131378d95bd5&thumb,전라북도 부안군 변산면 도청길 106,35.5861207,126.5112302
부안 솔섬,전북 부안군,063-581-5114,"['경치여행', '경치좋은곳', '관광지', '바다경치', '바다내음', '자연관광지', '자연속으로']",https://cdn.visitkorea.or.kr/img/call?cmd=VIEW&id=51915a1c-0027-4579-b066-8a63bef6bba0&thumb,전북 부안군 변산면 도청리,35.6038806,126.4947974
부안 우리밀마을,전북 부안군,063-581-9445,"['관광지', '남녀노소', '농촌', '농촌마을', '농촌여행', '농촌체험마을', '체험', '체험프로그램']",https://cdn.visitkorea.or.kr/img/call?cmd=VIEW&id=7d5b71bb-ac97-45f9-b020-f89226d6a33c&thumb,전라북도 부안군 보안면 반계로 14,35.6121302,126.63279
부안 원숭이학교 자연사박물관,전북 부안군,063-584-0708,"['가족과함께', '관광지', '나들이', '동물원', '무안원숭이학교자연사박물관', '부안가볼만한곳']",https://cdn.visitkorea.or.kr/img/call?cmd=VIEW&id=2092d26c-9dfc-4e69-a65a-ac2af893fd23&thumb,전라북도 부안군 상서면 부안로 1783,35.6683247,126.6716347
부안 유천리 요지,전북 부안군,063-580-4388,"['관광지', '역사', '역사공부', '역사관광지', '역사를품은곳', '역사문화재', '역사속']",https://cdn.visitkorea.or.kr/img/call?cmd=VIEW&id=7394a0bb-7fab-47d5-b41f-eb295a8438ca&thumb,전라북도 부안군 보안면 유천리,35.6012267,126.654236
부안김씨종중고문서,전북 부안군,063-580-4711,"['관광지', '역사', '역사공부', '역사관광지', '역사를품은곳', '역사문화재', '역사속']",https://cdn.visitkorea.or.kr/img/call?cmd=VIEW&id=3b93b995-d0b7-4b31-8ec0-954182e356b7&thumb,전라북도 부안군 보안면 우동길 47-20,35.6210974,126.6392659
부안다목적댐,전북 부안군,1577-0600,"['가족여행', '경치좋은곳', '관광지', '나들이', '부안다목적댐', '산책로', '아이와함께']",https://cdn.visitkorea.or.kr/img/call?cmd=VIEW&id=13ded822-eb62-4a18-bceb-01e610509f3b&thumb,전라북도 부안군 변산면 부안댐로 281,35.6728263,126.5644272
부안동문안당산,전북 부안군,063-580-4711,"['관광지', '교과서속여행', '당산', '문화재', '부안동문안당산', '역사', '역사공부']",https://cdn.visitkorea.or.kr/img/call?cmd=VIEW&id=dc191a26-19c8-4f6b-8bd6-9f9bd043542a&thumb,전라북도 부안군 부안읍 동중리,35.7328862,126.7354056
부안청림천문대,전북 부안군,063-580-3896,"['가족과함께', '관광지', '미세먼지_피하는_실내여행', '부안군', '숙박시설', '연인과함께']",https://cdn.visitkorea.or.kr/img/call?cmd=VIEW&id=da0d60d2-2b04-47f4-9434-44d8ce711cf8&thumb,전라북도 부안군 상서면 노적길 25,35.6577067,126.6152364
부안향교,전북 부안군,063-584-3497 063-580-4388,"['관광지', '역사', '역사공부', '역사관광지', '역사를품은곳', '역사문화재', '역사속']",https://cdn.visitkorea.or.kr/img/call?cmd=VIEW&id=3d076d5c-4d59-4c75-9c60-61150ea9e942&thumb,전라북도 부안군 부안읍 당간지주1길 15,35.730514,126.7287851
부용사,전북 김제시,063-542-2015,"['관광지', '불교', '불교문화', '불교사찰', '사찰', '사찰여행', '역사', '자연환경']",https://cdn.visitkorea.or.kr/img/call?cmd=VIEW&id=69e0ac58-c890-4938-b1b9-ef2ea65c28ad&thumb,전라북도 김제시 백구면 황토로 1074-30,35.8790118,126.9559235
북고사(무주),전북 무주군,063-322-3020,"['관광지', '불교', '불교문화', '사찰', '사찰여행', '역사', '자연속으로', '자연환경']",https://cdn.visitkorea.or.kr/img/call?cmd=VIEW&id=0416bcc4-be67-4eb7-839b-b6cfd03edd82&thumb,전라북도 무주군 무주읍 북고사길 67,36.0173274,127.6595034
분양서원,전북 무주군,1899-8687,"['관광지', '교과서속여행', '분양서원', '역사', '역사공부', '역사관광지', '역사를품은곳']",https://cdn.visitkorea.or.kr/img/call?cmd=VIEW&id=6dd7ee7a-584e-4b3e-8dd4-139cc4f24b47&thumb,전라북도 무주군 무풍면 지성길 119,35.9548461,127.8576356
분옥담과 선녀탕,전북 부안군,063-582-7808,"['관광지', '분옥담', '선녀탕', '자연', '전라권', '풍경여행']",https://cdn.visitkorea.or.kr/img/call?cmd=VIEW&id=2a27104a-f531-48ef-83a5-bbe30a42168d&thumb,전라북도 부안군 변산면 실상길 52,35.6417738,126.5798575
불명산,전북 완주군,063-290-3930,"['관광지', '자연']",https://cdn.visitkorea.or.kr/img/call?cmd=VIEW&id=undefined&thumb,전라북도 완주군 경천면 용복리,36.0513348,127.2547048
불정사(전주),전북 전주시,063-284-8025,"['관광지', '불교', '불교문화', '사찰', '사찰여행', '역사', '자연속으로', '자연환경']",https://cdn.visitkorea.or.kr/img/call?cmd=VIEW&id=209e81e4-aeb4-4ce0-9899-2b466310b3aa&thumb,전라북도 전주시 완산구 남고산성1길 53-140,35.8029171,127.1560196
불주사(불지사),전북 군산시,063-451-1518,"['관광지', '불교', '불교문화', '사찰', '사찰여행', '역사', '자연속으로', '자연풍경']",https://cdn.visitkorea.or.kr/img/call?cmd=VIEW&id=2f92b809-9edd-4ec3-a301-26ca90c0fea4&thumb,전라북도 군산시 나포면 군둔길 226,36.0246185,126.8468031
비비정예술열차,전북 완주군,063-211-7788,"['가족과함께', '경치좋은곳', '관광지', '근대문화유산', '아이와함께', '연인과함께']",https://cdn.visitkorea.or.kr/img/call?cmd=VIEW&id=987be497-49f9-4ff3-b937-4412c718ab98&thumb,전라북도 완주군 삼례읍 비비정길 73-21,35.8995493,127.0681123
비안도,전북 군산시,063-454-7280,"['관광지', '자연']",https://cdn.visitkorea.or.kr/img/call?cmd=VIEW&id=a1034f97-9494-455e-afff-02ab4d613443&thumb,전라북도 군산시 옥도면 비안도길 79-1,35.7369283,126.4579185
사곡리남근석,전북 임실군,063-640-2114,"['관광지', '역사', '역사공부', '역사관광지', '역사를품은곳', '역사문화재', '역사속']",https://cdn.visitkorea.or.kr/img/call?cmd=VIEW&id=6b40772c-be4f-4771-bd24-9f83959ea563&thumb,전라북도 임실군 덕치면 사곡리 1019,35.5168824,127.1778674
사동서원,전북 장수군,063-350-2326,"['관광지', '역사', '역사공부', '역사관광지', '역사를품은곳', '역사문화재', '역사속']",https://cdn.visitkorea.or.kr/img/call?cmd=VIEW&id=7b3fcdf0-4cce-4196-be4c-ed7cad5ffe81&thumb,전라북도 장수군 산서면 사창길 35,35.5649245,127.3785722
사산서원,전북 부안군,063-580-4711,"['관광지', '역사', '역사공부', '역사관광지', '역사를품은곳', '역사문화재', '역사속']",https://cdn.visitkorea.or.kr/img/call?cmd=VIEW&id=undefined&thumb,전라북도 부안군 주산면 세앙길 6,35.6667686,126.7035023
사선대관광지&조각공원,전북 임실군,063-640-2921,"['가족여행', '관광지', '사선대관광지&조각공원', '산책길', '산책하기', '산책하기좋은곳']",https://cdn.visitkorea.or.kr/img/call?cmd=VIEW&id=c8b27d99-e046-4e60-ab8d-fa313708d30b&thumb,전라북도 임실군 관촌면 사선2길 68-7,35.6723571,127.2745265
사자사(사자암),전북 익산시,063-836-9480,"['관광지', '불교', '불교문화', '사찰', '사찰여행', '역사', '자연속으로', '자연환경']",https://cdn.visitkorea.or.kr/img/call?cmd=VIEW&id=e9c068f4-6a6a-4a0d-b1e1-b9e850f856e0&thumb,전라북도 익산시 금마면 구룡길 57-125,36.0225758,127.0386287
사자사지,전북 익산시,063-859-5792,"['관광지', '교과서속여행', '사자사지', '사찰', '아이와함께', '역사', '역사공부']",https://cdn.visitkorea.or.kr/img/call?cmd=VIEW&id=e7b7af5e-8b7b-4013-b38d-4ef4399daec5&thumb,전라북도 익산시 금마면 구룡길 57-125,36.0225758,127.0386287
사현사,전북 김제시,063-540-3882,"['관광지', '역사', '역사공부', '역사관광지', '역사를품은곳', '역사문화재', '역사속']",https://cdn.visitkorea.or.kr/img/call?cmd=VIEW&id=83e99a7d-afe1-4aad-ac8a-14cc4bf026d2&thumb,전라북도 김제시 금구면 선비로 1017-27,35.7867192,127.0252264
산동리 남근석,전북 순창군,061-749-4465,"['관광지', '산동리남근석', '역사', '역사공부', '역사관광지', '역사를품은곳', '역사문화재']",https://cdn.visitkorea.or.kr/img/call?cmd=VIEW&id=1889ce8e-e303-4999-ac67-809263dd98f7&thumb,전라북도 순창군 팔덕면 팔왕길 77,35.3839893,127.0872793
산들강웅포마을,전북 익산시,063-861-6627,"['가족과함께', '관광지', '농촌', '농촌여행', '농촌체험', '농촌체험마을', '농촌체험여행']",https://cdn.visitkorea.or.kr/img/call?cmd=VIEW&id=3b97421f-c53c-42b1-b1bd-9333bf0314c3&thumb,전라북도 익산시 웅포면 강변로 284,36.0877331,126.8843412
산속등대 복합문화공간,전북 완주군,063-245-2456,"['관광지', '복합문화공간', '키즈존']",https://cdn.visitkorea.or.kr/img/call?cmd=VIEW&id=a2ea9f15-9a81-41a7-9927-ea8c1c5edd91&thumb,전라북도 완주군 소양면 원암로 82,35.869166,127.2525324
산외한우마을,전북 정읍시,063-539-7661,"['관광지', '남녀노소', '맛집골목', '산외한우마을', '유명맛집', '이색거리', '정읍가볼만한곳']",https://cdn.visitkorea.or.kr/img/call?cmd=VIEW&id=db6fd141-2e40-4c31-baf3-4cd71ccdec44&thumb,전라북도 정읍시 산외면 산외로 450,35.6259786,127.0473487
삼례책마을,전북 완주군,063-291-7820,"['가족과함께', '관광지', '남녀노소', '독서여행', '산책하기좋은곳', '아이와함께']",https://cdn.visitkorea.or.kr/img/call?cmd=VIEW&id=51be3bf6-4159-4dbc-ad16-c59bbab1c332&thumb,전라북도 완주군 삼례읍 삼례역로 68,35.9075865,127.065953
삼불암,전북 김제시,063-547-6380,"['관광지', '불교', '불교문화', '사찰', '사찰여행', '삼불암', '역사', '역사공부', '역사를품은곳']",https://cdn.visitkorea.or.kr/img/call?cmd=VIEW&id=6c03b87e-a83a-4084-9a17-871c28f64b2a&thumb,전라북도 김제시 죽산면 서포4길 443,35.7720322,126.7892175
삼성산,전북 정읍시,063-539-5231,"['관광지', '등산', '삼성산', '자연', '전라권', '트레킹']",https://cdn.visitkorea.or.kr/img/call?cmd=VIEW&id=eaaeffbd-f472-4412-97ea-32423cf830f1&thumb,전라북도 정읍시 신정동,35.4934581,126.8485871
삼세오충렬사,전북 익산시,063-859-5792,"['관광지', '교과서속여행', '사찰', '삼세오충렬사', '아이와함께', '역사', '역사공부']",https://cdn.visitkorea.or.kr/img/call?cmd=VIEW&id=0189f32e-7805-4f59-a0d1-bd545d9541c8&thumb,전라북도 익산시 용안면 현내로 468,36.1198845,126.9603238
삼현서원,전북 김제시,063-540-3882,"['관광지', '역사', '역사공부', '역사관광지', '역사를품은곳', '역사문화재', '역사속']",https://cdn.visitkorea.or.kr/img/call?cmd=VIEW&id=5d3d7306-a8f7-4e44-a46b-fdec540d852f&thumb,전라북도 김제시 백산면 하흥로 243-16,35.8291883,126.8864055
삼현서원,전북 완주군,063-290-2605,"['관광지', '역사', '역사공부', '역사관광지', '역사를품은곳', '역사문화재', '역사속']",https://cdn.visitkorea.or.kr/img/call?cmd=VIEW&id=undefined&thumb,전라북도 완주군 비봉면 장승길 34,36.0111497,127.1333921
상록해수욕장,전북 부안군,063-583-7865,"['가족여행', '관광지', '바다풍경', '상록해수욕장', '아이와함께', '여름방학가볼만한곳']",https://cdn.visitkorea.or.kr/img/call?cmd=VIEW&id=d32732a4-0427-434b-8db5-3b3e047ceaab&thumb,전라북도 부안군 변산면 변산로 3210-16,35.6204812,126.5166241
상원사(고창),전북 고창군,063-563-2594,"['고창상원사', '관광지', '불교', '불교문화', '사찰', '사찰여행', '상원사대웅전']",https://cdn.visitkorea.or.kr/img/call?cmd=VIEW&id=3a3a0f7c-6148-4cfc-97a5-7a12417df552&thumb,전라북도 고창군 고창읍 월곡리,35.4395856,126.7264944
상이암(임실),전북 임실군,063-642-6263,"['관광지', '불교', '불교문화', '사찰', '사찰여행', '역사', '자연속으로', '자연환경']",https://cdn.visitkorea.or.kr/img/call?cmd=VIEW&id=null&thumb,전라북도 임실군 성수면 성수산길 658,35.6371766,127.4237898
상주사,전북 군산시,063-453-7800,"['관광지', '불교', '불교문화', '사찰', '사찰여행', '역사', '자연여행', '자연환경']",https://cdn.visitkorea.or.kr/img/call?cmd=VIEW&id=f1509232-c57c-4c0f-80fb-a3766e2c4d35&thumb,전라북도 군산시 서수면 함안로 57-29,36.0008504,126.8523201
새만금,전북 부안군,063-540-5800,"['간척지', '걷기길', '걷기좋은곳', '관광지', '드라이브여행', '드라이브코스', '방조제']",https://cdn.visitkorea.or.kr/img/call?cmd=VIEW&id=ceca51fc-285f-409b-b007-65e85bcd949e&thumb,전라북도 부안군 변산면 새만금로 6,35.6971014,126.5591772
새만금유람선,전북 군산시,063-464-1919,"['가족과함께', '가족휴양', '관광지', '바다내음', '바다전망', '바다향기로', '유람선']",https://cdn.visitkorea.or.kr/img/call?cmd=VIEW&id=undefined&thumb,전라북도 군산시 옥도면 선유도3길 52-4,35.8106824,126.4162652
샤또무주,전북 무주군,063-322-8101,"['가족체험여행', '견학', '관광지', '산업관광', '샤또무주', '아이와함께', '연인과함께']",https://cdn.visitkorea.or.kr/img/call?cmd=VIEW&id=85109f34-9130-473e-b7aa-a7726426e824&thumb,전라북도 무주군 무풍면 오두재로 238-65,35.9003807,127.8395255
서강사,전북 김제시,063-540-3882,"['관광지', '역사', '역사공부', '역사관광지', '역사를품은곳', '역사문화재', '역사속']",https://cdn.visitkorea.or.kr/img/call?cmd=VIEW&id=f252b14a-4d40-4885-a8a3-c5eaedfa87b9&thumb,전라북도 김제시 금구면 양시로 125-27,35.7695565,127.0039841
서고사(전주),전북 전주시,063-212-7709,"['관광지', '불교', '불교문화', '사찰', '사찰여행', '역사', '자연속으로', '자연환경']",https://cdn.visitkorea.or.kr/img/call?cmd=VIEW&id=null&thumb,전라북도 전주시 덕진구 정여립로 1010-90,35.8352562,127.0849716
서동공원,전북 익산시,063-859-3818,"['가족여행', '걷기길', '관광지', '사계절', '산책길', '산책하기', '산책하기좋은곳']",https://cdn.visitkorea.or.kr/img/call?cmd=VIEW&id=1a8f7e20-0028-44ca-8c20-8feeb0aaf02b&thumb,전라북도 익산시 금마면 고도9길 41-14,36.0015063,127.0570781
서벽정,전북 무주군,1899-8687,"['관광지', '역사', '역사공부', '역사관광', '역사관광지', '역사를품은곳', '역사문화']",https://cdn.visitkorea.or.kr/img/call?cmd=VIEW&id=e3c0283c-aace-49fd-93ab-6c2cc3e6b365&thumb,전라북도 무주군 설천면 구천동로 1868-30,35.958618,127.7680111
서외리 당간지주,전북 부안군,063-580-4711,"['관광지', '역사', '역사공부', '역사를품은곳', '역사문화재', '역사속', '역사속으로']",https://cdn.visitkorea.or.kr/img/call?cmd=VIEW&id=aa8e1471-0e20-4009-8c81-6d061ef1bf77&thumb,전라북도 부안군 부안읍 서외리,35.725875,126.7288697
서해안 바람공원,전북 고창군,,"['고창가볼만한곳', '관광지', '남녀노소', '산책코스', '산책하기좋은곳', '아이와함께']",https://cdn.visitkorea.or.kr/img/call?cmd=VIEW&id=eb9699c8-1b7d-43fe-b7b9-fc4107dfa8ae&thumb,전라북도 고창군 심원면 애향갯벌로 311,35.5308548,126.5147868
석담사,전북 김제시,063-542-2790,"['관광지', '불교', '불교문화', '불교사찰', '사찰', '사찰여행', '역사', '자연속으로']",https://cdn.visitkorea.or.kr/img/call?cmd=VIEW&id=e260503f-f920-40b5-867e-ad79e2dc7170&thumb,전라북도 김제시 백구면 백구2길 3-3,35.89179,126.9505212
석불사(익산),전북 익산시,063-858-5895,"['관광지', '불교', '불교사찰', '사찰', '사찰여행', '역사', '자연속으로', '자연좋은곳']",https://cdn.visitkorea.or.kr/img/call?cmd=VIEW&id=e46bef65-2ca4-47ad-a384-940a84072d02&thumb,전라북도 익산시 삼기면 진북로 273,36.0297943,127.0075699
석산리 마애여래좌상,전북 순창군,063-650-1623,"['관광지', '불교', '불교문화', '역사', '역사공부', '역사를품은곳', '역사문화재']",https://cdn.visitkorea.or.kr/img/call?cmd=VIEW&id=b25582f7-0eb5-4c70-9780-ad83bb5f1222&thumb,전라북도 순창군 적성면 석산리 산130-1,35.4442701,127.194363
석상암(고창),전북 고창군,063-561-1422,"['관광지', '불교', '불교문화', '사찰', '사찰여행', '역사', '자연속으로', '자연환경']",https://cdn.visitkorea.or.kr/img/call?cmd=VIEW&id=undefined&thumb,전라북도 고창군 아산면 선운사로 250,35.4969385,126.5782255
석탄사(정읍),전북 정읍시,063-538-1268,"['관광지', '불교', '불교문화', '사찰', '사찰여행', '역사', '자연속으로', '자연환경']",https://cdn.visitkorea.or.kr/img/call?cmd=VIEW&id=0ddb69f1-d89f-4ee5-967b-0aa6b8035977&thumb,전라북도 정읍시 칠보면 허궁실2길 186-125,35.5640541,126.9862564
선계폭포,전북 부안군,063-582-7808,"['관광지', '자연']",https://cdn.visitkorea.or.kr/img/call?cmd=VIEW&id=874a123b-ebe3-442b-8de4-b86833adba4f&thumb,전북 부안군 보안면 우동리,35.6242479,126.6361572
선국사(남원),전북 남원시,063-625-7222,"['관광지', '불교', '불교문화', '사찰', '사찰여행', '선국사', '역사', '자연속으로']",https://cdn.visitkorea.or.kr/img/call?cmd=VIEW&id=783bfe82-a15b-4b5e-bb80-34e58cfb39a7&thumb,전라북도 남원시 산성길 239,35.4292728,127.3577477
선린사(전주),전북 전주시,063-242-4278,"['관광지', '불교', '불교문화', '사찰', '사찰여행', '역사', '자연속으로', '자연환경']",https://cdn.visitkorea.or.kr/img/call?cmd=VIEW&id=null&thumb,전라북도 전주시 덕진구 한배미6길 55,35.8197937,127.1690322
선비문화체험관 우리누리,전북 정읍시,063-538-1357,"['관광지', '문화체험관', '선비정신', '선비촌', '아이와함께', '우리누리', '유교']",https://cdn.visitkorea.or.kr/img/call?cmd=VIEW&id=d6a261ac-1512-48cd-8cec-939f3a94020a&thumb,전라북도 정읍시 산내면 청정로 1694,35.5763587,127.0650435
선운사 백파율사비,전북 고창군,063-560-2943,"['관광지', '역사', '역사공부', '역사관광지', '역사를품은곳', '역사문화재', '역사속']",https://cdn.visitkorea.or.kr/img/call?cmd=VIEW&id=fe1f8e60-a272-4bc0-b732-cd564d606cbd&thumb,전라북도 고창군 아산면 선운사로 250,35.4969385,126.5782255
선운사(고창),전북 고창군,063-561-1422,"['가족여행', '가족체험여행', '관광지', '불교', '불교문화', '사계절', '사찰', '사찰여행']",https://cdn.visitkorea.or.kr/img/call?cmd=VIEW&id=d2c57d05-b6f2-4ae1-969c-bc9d513bba67&thumb,전라북도 고창군 아산면 선운사로 250,35.4969385,126.5782255
선운산 (전북 서해안권 국가지질공원),전북 고창군,063-560-2699,"['가족여행', '관광지', '국가지질공원', '꽃여행', '등산', '등산로', '선운산도립공원']",https://cdn.visitkorea.or.kr/img/call?cmd=VIEW&id=30662404-71d8-485c-917d-f0ac9b66b158&thumb,전라북도 고창군 아산면 선운사로 158-6,35.502533,126.5866689
선운산 낙조대,전북 고창군,063-560-8681,"['가족과함께', '관광지', '선운산낙조대', '일몰명소', '자연', '전라권', '풍경좋은곳']",https://cdn.visitkorea.or.kr/img/call?cmd=VIEW&id=d798edfb-13e8-41bd-afa4-89e5b3b6c66a&thumb,전라북도 고창군 아산면 선운사로 158-6,35.502533,126.5866689
선운산 생태숲,전북 고창군,063-560-8683,"['관광지', '등산로', '미식여행', '사찰&산사', '생태관광지', '자연', '자연좋은곳']",https://cdn.visitkorea.or.kr/img/call?cmd=VIEW&id=537a3332-97b3-46bc-9c69-3421f79fa249&thumb,전라북도 고창군 아산면 선운사로 158-6,35.502533,126.5866689
선원사(남원),전북 남원시,063-631-0108,"['관광지', '불교', '불교문화', '사찰', '사찰여행', '선원사', '역사', '자연속으로']",https://cdn.visitkorea.or.kr/img/call?cmd=VIEW&id=a76ad9b2-94f7-4e92-9289-44a2fce0e074&thumb,전라북도 남원시 용성로 151,35.4125785,127.3913645
선유도,전북 군산시,063-454-7280,"['관광지', '미식여행', '바다풍경', '선유도', '섬여행', '자연', '전라권', '친환경여행']",https://cdn.visitkorea.or.kr/img/call?cmd=VIEW&id=4334c77b-6b78-4f3c-85ac-591b1267a527&thumb,전라북도 군산시 옥도면 선유남길 34-22,35.8100216,126.4122853
선유도 월명유람선,전북 군산시,063-445-2240,"['관광지', '선유도', '월명유람선', '유람선', '자연속으로', '자연풍경', '자연환경']",https://cdn.visitkorea.or.kr/img/call?cmd=VIEW&id=null&thumb,전라북도 군산시 비응로 6,35.9350927,126.5263803
선유도해수욕장 (명사십리 해수욕장),전북 군산시,063-454-3332,"['가족여행', '갯벌체험', '경치좋은곳', '관광지', '레포츠', '명사십리해수욕장']",https://cdn.visitkorea.or.kr/img/call?cmd=VIEW&id=bc46dd1a-5b82-4873-9cb8-c6de7254696d&thumb,전라북도 군산시 옥도면,35.6709622,126.4965411
설화공원,전북 완주군,063-290-3813,"['가족과함께', '관광지', '설화공원', '아이와함께']",https://cdn.visitkorea.or.kr/img/call?cmd=VIEW&id=179a1b8e-4d02-4f8e-b43e-becf938d8081&thumb,전라북도 완주군 이서면 농생명로 100,35.8340732,127.0319939
섬진강,전북 순창군,063-650-1648,"['강', '관광지', '섬진강', '자연', '전라권']",https://cdn.visitkorea.or.kr/img/call?cmd=VIEW&id=36c8c330-115d-4e37-a8b0-526c870ba561&thumb,전북 순창군 풍산면 대가리,35.3449202,127.1778449
"섬진강(천담,구담)",전북 임실군,063-640-2344,"['가족여행', '관광지', '섬진강', '자연', '전라권', '휴양여행']",https://cdn.visitkorea.or.kr/img/call?cmd=VIEW&id=b050c330-207c-401b-b9ed-45885f9d10e8&thumb,전라북도 임실군 덕치면 천담2길 104,35.4784027,127.1796153
섬진강댐,전북 임실군,063-640-6211,"['관광지', '댐', '섬진강댐', '자연', '전라권']",https://cdn.visitkorea.or.kr/img/call?cmd=VIEW&id=1a4fad21-ffb8-454c-9f6a-6336fca9853f&thumb,전라북도 임실군 강진면 옥정호로 608-13,35.5424882,127.1116699
섬진강댐 물 문화관,전북 임실군,063-642-6197,"['관광지', '물문화관', '산업관광', '섬진강댐', '섬진강댐물문화관', '신재생에너지']",https://cdn.visitkorea.or.kr/img/call?cmd=VIEW&id=54a7ef94-7bc0-4232-a360-a949faadcae8&thumb,전라북도 임실군 운암면 강운로 1239,35.6063984,127.1102863
성가리 백로마을,전북 임실군,063-640-2344,"['관광지', '자연']",https://cdn.visitkorea.or.kr/img/call?cmd=VIEW&id=7ffba700-6358-42a0-bad1-b4e8e39eebcc&thumb,전북 임실군 임실읍 성가리,35.6112662,127.2717782
성관사,전북 장수군,063-353-0396,"['관광지', '불교', '불교문화', '사찰', '사찰여행', '역사', '자연속으로', '자연환경']",https://cdn.visitkorea.or.kr/img/call?cmd=VIEW&id=b89c1bd0-c4a3-4545-84c8-228be03755ba&thumb,전라북도 장수군 장계면 장무로 492-83,35.7523542,127.6038539
성당포구마을,전북 익산시,063-862-3918,"['가족과함께', '가족여행', '가족체험', '관광지', '금강생태탐방', '농촌전통테마마을']",https://cdn.visitkorea.or.kr/img/call?cmd=VIEW&id=587055b4-917d-43fc-a407-a871df9e926c&thumb,전라북도 익산시 성당면 성당로 762,36.1094419,126.9269525
성모암(김제),전북 김제시,063-544-0416,"['관광지', '불교', '불교문화', '사찰', '사찰여행', '역사', '자연속으로', '자연환경']",https://cdn.visitkorea.or.kr/img/call?cmd=VIEW&id=6e46d50d-923a-46bf-927a-80fbed0e7625&thumb,전라북도 김제시 만경읍 화포3길 54-9,35.8872357,126.8050538
성산공원,전북 김제시,063-540-3826,"['가족과함께', '관광지', '산책길', '산책하기', '산책하기좋은곳', '아이와함께']",https://cdn.visitkorea.or.kr/img/call?cmd=VIEW&id=e93a3102-f487-4b5d-b979-91d7f9bd5052&thumb,전라북도 김제시 향교길 89-16,35.8011708,126.8796995
성수산,전북 임실군,063-640-2474,"['관광지', '자연']",https://cdn.visitkorea.or.kr/img/call?cmd=VIEW&id=null&thumb,전라북도 임실군 성수면 성수산길 373,35.6374133,127.4053533
성수산자연휴양림,전북 임실군,063-640-2475,"['관광지', '자연']",https://cdn.visitkorea.or.kr/img/call?cmd=VIEW&id=undefined&thumb,전라북도 임실군 성수면 성수산길 374,35.6377086,127.4052838
성황사(부안),전북 부안군,063-582-5844,"['관광지', '불교', '불교문화', '사찰', '사찰여행', '역사', '자연속으로', '자연환경']",https://cdn.visitkorea.or.kr/img/call?cmd=VIEW&id=a52d7132-d314-4303-8f4b-920e5704f909&thumb,전라북도 부안군 부안읍 서림공원길 92,35.7354101,126.7308728
성황산,전북 정읍시,063-539-5231,"['관광지', '자연']",https://cdn.visitkorea.or.kr/img/call?cmd=VIEW&id=4a7147a5-d9d7-4364-a2ba-4547a69109c8&thumb,전라북도 정읍시 수성동,35.5691905,126.8533688
성흥사(군산),전북 군산시,063-453-0050,"['관광지', '불교', '불교문화', '사찰', '사찰여행', '역사', '역사를 품은곳', '역사이야기']",https://cdn.visitkorea.or.kr/img/call?cmd=VIEW&id=undefined&thumb,전라북도 군산시 성산면 큰골길 32-65,36.0027024,126.7820294
세걸산,전북 남원시,063-630-8900,"['관광지', '자연']",https://cdn.visitkorea.or.kr/img/call?cmd=VIEW&id=undefined&thumb,전라북도 남원시 운봉읍 행정공안길,35.4071454,127.5325513
세심자연휴양림,전북 임실군,063-644-4611,"['관광지', '자연']",https://cdn.visitkorea.or.kr/img/call?cmd=VIEW&id=b3d94be3-9cd8-417a-864e-c9110d17ebaa&thumb,전라북도 임실군 삼계면 임삼로 485,35.5141541,127.2401519
소노벨 변산 오션플레이,전북 부안군,1588-4888,"['가족과함께', '관광지', '대명리조트', '실내수영장', '아쿠아월드', '연인과함께']",https://cdn.visitkorea.or.kr/img/call?cmd=VIEW&id=371c636a-cd60-492b-ac9b-6967566ddf8d&thumb,전라북도 부안군 변산면 변산해변로 51,35.6317103,126.4701361
소세양신도비,전북 익산시,063-859-5792,"['관광지', '역사', '역사공부', '역사관광지', '역사를품은곳', '역사문화재', '역사속']",https://cdn.visitkorea.or.kr/img/call?cmd=VIEW&id=7fad41c7-72e7-4e15-843d-4121e7d9d3aa&thumb,전라북도 익산시 왕궁면 용화리,36.0101908,127.0764093
소양 마수벽화마을,전북 완주군,063-290-3576,"['골목여행', '관광지', '벽화마을', '사진찍기', '사진찍기좋은곳', '사진촬영', '산책하기좋은곳']",https://cdn.visitkorea.or.kr/img/call?cmd=VIEW&id=84d12e85-9734-47f1-a167-3825008b5506&thumb,전라북도 완주군 소양면 황윤리,35.8496514,127.2405299
소자파묘비,전북 익산시,063-859-5792,"['관광지', '교과서속여행', '소자파묘비', '아이와함께', '역사', '역사공부', '역사를품은곳']",https://cdn.visitkorea.or.kr/img/call?cmd=VIEW&id=7d06465d-2255-4895-aae7-4ca2888d503f&thumb,전라북도 익산시 왕궁면 화곡1길 53-15,36.0050457,127.0823083
소충사,전북 임실군,063-640-4156,"['관광지', '교과서속여행', '소충사', '아이와함께', '역사', '역사공부', '역사를품은곳']",https://cdn.visitkorea.or.kr/img/call?cmd=VIEW&id=1f5f3c5c-6bba-4b0b-b27b-f9ca34e13cbc&thumb,전라북도 임실군 성수면 산성로 725-23,35.6232249,127.3470047
송광사(완주),전북 완주군,063-243-8091,"['관광지', '불교', '불교사찰', '사찰', '사찰여행', '역사', '자연속으로', '자연여행']",https://cdn.visitkorea.or.kr/img/call?cmd=VIEW&id=5beed448-0a8a-4ff8-8686-b5be116825a0&thumb,전라북도 완주군 소양면 송광수만로 255-16,35.8855945,127.2419582
송우암수명유허비,전북 정읍시,063-539-5184,"['관광지', '문화재', '송우암수명유허비', '역사', '역사관광지', '역사를품은곳']",https://cdn.visitkorea.or.kr/img/call?cmd=VIEW&id=e082d6b3-d5a0-4ac0-a1d5-79b03d0b632b&thumb,전라북도 정읍시 우암로 54-1,35.5663949,126.8569788
수덕정,전북 익산시,063-859-5792,"['관광지', '교과서속여행', '수덕정', '아이와함께', '역사', '역사공부', '역사를품은곳']",https://cdn.visitkorea.or.kr/img/call?cmd=VIEW&id=7e90840c-27e4-40a3-a788-e105ee007b1b&thumb,전라북도 익산시 여산면 태성1길 199,36.0703882,127.0993542
수만리마애석불,전북 완주군,063-290-2605,"['관광지', '불교', '역사', '역사공부', '역사관광지', '역사를품은곳', '역사문화재']",https://cdn.visitkorea.or.kr/img/call?cmd=VIEW&id=b52027fc-e02e-46e0-884d-108a0843be11&thumb,전라북도 완주군 동상면 수만리 4,35.9183209,127.2856289
수분마을,전북 장수군,063-350-2537,"['관광지', '금강', '새만금지방환경청', '생태관광', '생태관광지', '섬진강', '수분마을']",https://cdn.visitkorea.or.kr/img/call?cmd=VIEW&id=94a08092-adb6-424c-8bcc-1bf250014401&thumb,전라북도 장수군 장수읍 뜬봉샘길 50,35.5908971,127.5002578
수선루,전북 진안군,063-432-2594,"['관광지', '역사']",https://cdn.visitkorea.or.kr/img/call?cmd=VIEW&id=5a8e2b0d-2f68-45a3-8218-b07600abe774&thumb,전라북도 진안군 마령면 임진로,35.7400685,127.3629364
수성당,전북 부안군,063-580-4711,"['관광지', '수성당', '역사', '역사공부', '역사관광지', '역사를품은곳', '역사문화재']",https://cdn.visitkorea.or.kr/img/call?cmd=VIEW&id=683328cb-fa32-45f8-bcac-2793ef4d7fa6&thumb,전라북도 부안군 변산면 적벽강길 54,35.6346927,126.4603089
수열비,전북 장수군,063-350-2326,"['관광지', '역사', '역사공부', '역사관광지', '역사를품은곳', '역사문화재', '역사속']",https://cdn.visitkorea.or.kr/img/call?cmd=VIEW&id=a2c80fb9-156d-41e3-a4c0-6b039d72858b&thumb,전라북도 장수군 계남면 화음리,35.6989823,127.593001
수운정,전북 임실군,063-643-0302,"['관광지', '역사', '역사공부', '역사관광지', '역사를품은곳', '역사문화재', '역사속']",https://cdn.visitkorea.or.kr/img/call?cmd=VIEW&id=d9b0644c-107d-4e73-8edc-92b3dbce24be&thumb,전라북도 임실군 신덕면 금정길 62-4,35.668623,127.208859
순창 거북장수마을 [농촌전통테마],전북 순창군,063-650-5724,"['거북장수마을', '관광지', '농촌마을', '농촌여행', '농촌체험', '아이와함께', '자연마을']",https://cdn.visitkorea.or.kr/img/call?cmd=VIEW&id=b4e8c6b0-9105-4f75-92d5-0886eb498926&thumb,전라북도 순창군 동계면 귀미로 290,35.4438245,127.2115218
순창 남계리 석장승,전북 순창군,063-650-1623,"['관광지', '교과서속여행', '남계리석장승', '문화재', '역사', '역사공부', '역사관광지']",https://cdn.visitkorea.or.kr/img/call?cmd=VIEW&id=5ebe1ba2-7401-4738-b631-6af30d15567e&thumb,전라북도 순창군 순창읍 장류로 407-11,35.3771609,127.1480619
순창 충신리 석장승,전북 순창군,061-749-4465,"['관광지', '교과서속여행', '문화재', '역사', '역사공부', '역사관광지', '역사를품은곳']",https://cdn.visitkorea.or.kr/img/call?cmd=VIEW&id=9c9d15a3-e161-4f4a-bcc8-b1e088f3f741&thumb,전라북도 순창군 순창읍 장류로 407-11,35.3771609,127.1480619
순창 향가터널,전북 순창군,063-652-2378,"['가족과함께', '관광지', '교육여행', '아이와함께', '아픈역사', '여름여행', '여름여행지']",https://cdn.visitkorea.or.kr/img/call?cmd=VIEW&id=9e6a49c9-44ea-4052-b9ac-453e5e489ac4&thumb,전라북도 순창군 풍산면 대가리,35.3449202,127.1778449
순창건강장수체험과학관,전북 순창군,063-650-1538,"['가족과함께', '관광지', '순창가볼만한곳', '아이와함께', '이색체험', '체험관광지']",https://cdn.visitkorea.or.kr/img/call?cmd=VIEW&id=beebfc40-9052-4de3-b0d2-187d9fca78f7&thumb,전라북도 순창군 인계면 인덕로 427-127,35.4308002,127.1419083
순창고추장민속마을,전북 순창군,063-653-0277,"['가족여행', '관광지', '순창고추장민속마을', '역사', '연중무휴', '전라권']",https://cdn.visitkorea.or.kr/img/call?cmd=VIEW&id=fed5a3db-b7a2-41c9-8d8e-22dbc3035ad3&thumb,전라북도 순창군 순창읍 백야길 29,35.3667577,127.1033886
순창고추장익는마을,전북 순창군,063-653-7117,"['가족여행', '관광지', '녹색농촌체험마을', '농촌', '농촌마을', '농촌여행', '농촌체험']",https://cdn.visitkorea.or.kr/img/call?cmd=VIEW&id=12f892a6-e0c9-4ffa-8de2-7f86f2b8674d&thumb,전라북도 순창군 구림면 산내길 38,35.4831662,127.116633
순창군 채계산 출렁다리,전북 순창군,063-650-1642,"['가족과함께', '경치여행', '경치좋은곳', '관광지', '사진찍기좋은곳', '이색체험']",https://cdn.visitkorea.or.kr/img/call?cmd=VIEW&id=6e9628bc-c62c-48b7-a8ce-d998c21c42e4&thumb,전라북도 순창군 적성면,35.3974868,127.2086581
순창장류체험관,전북 순창군,063-653-9916,"['가족여행', '관광지', '기념품판매', '사계절', '순창장류체험관', '아이와함께']",https://cdn.visitkorea.or.kr/img/call?cmd=VIEW&id=46861fad-8bbb-456e-ad8a-93f3119bc5fe&thumb,전라북도 순창군 순창읍 민속마을길 55,35.3657696,127.1083601
순창향교,전북 순창군,063-650-1623,"['관광지', '역사', '역사공부', '역사관광지', '역사를품은곳', '역사문화재', '역사속']",https://cdn.visitkorea.or.kr/img/call?cmd=VIEW&id=4a7fc051-a427-458c-a003-6bbeb4208d54&thumb,전라북도 순창군 순창읍 교성1길 13,35.3734718,127.1343916
순평사금동여래좌상,전북 순창군,063-650-1623,"['관광지', '역사', '역사공부', '역사관광지', '역사를품은곳', '역사문화재', '역사속']",https://cdn.visitkorea.or.kr/img/call?cmd=VIEW&id=689bcb23-409b-418d-aaaa-e5b50dab1497&thumb,전라북도 순창군 순창읍 금산로 66,35.3809839,127.1318867
순화리삼층석탑,전북 순창군,063-650-1623,"['관광지', '역사', '역사공부', '역사관광지', '역사를품은곳', '역사문화재', '역사속']",https://cdn.visitkorea.or.kr/img/call?cmd=VIEW&id=19dadd96-5e86-4002-b6c3-23b07c99bdc8&thumb,전라북도 순창군 순창읍 장류로 295-11,35.3780812,127.1337304
숭림사(익산),전북 익산시,053-862-6394,"['가족여행', '관광지', '불교', '불교문화', '사찰', '사찰여행', '숭림사', '역사', '역사관광지']",https://cdn.visitkorea.or.kr/img/call?cmd=VIEW&id=cd306313-8f44-47c3-88ab-dccc8b77e11a&thumb,전라북도 익산시 웅포면 백제로 495-57,36.0816042,126.9156176
숭모서원,전북 부안군,063-580-4711,"['관광지', '역사', '역사공부', '역사관광지', '역사를품은곳', '역사문화재', '역사속']",https://cdn.visitkorea.or.kr/img/call?cmd=VIEW&id=undefined&thumb,전라북도 부안군 보안면 보안남로 367,35.6185048,126.708484
스파라쿠아 전주온천,전북 전주시,063-221-6090,"['가족과함께', '관광지', '목욕탕', '아이와함께', '전주가볼맛한곳', '전주여행']",https://cdn.visitkorea.or.kr/img/call?cmd=VIEW&id=a00bc957-ee58-45c9-aa75-5a44a19223f4&thumb,전라북도 전주시 완산구 신촌3길 24,35.8174308,127.1156332
승련사(남원),전북 남원시,063-626-7025,"['관광지', '불교', '불교문화', '사찰', '사찰여행', '역사', '자연속으로', '자연환경']",https://cdn.visitkorea.or.kr/img/call?cmd=VIEW&id=null&thumb,전라북도 남원시 산동면 요천로 2675-90,35.4901544,127.4530478
승방서원,전북 김제시,063-540-3882,"['관광지', '역사', '역사공부', '역사관광지', '역사를품은곳', '역사문화재', '역사속']",https://cdn.visitkorea.or.kr/img/call?cmd=VIEW&id=undefined&thumb,전라북도 김제시 아리랑로 1832-21,35.8158919,126.8967254
승방원,전북 김제시,063-540-3882,"['관광지', '역사', '역사공부', '역사관광지', '역사문화재', '역사속', '역사속으로']",https://cdn.visitkorea.or.kr/img/call?cmd=VIEW&id=fbcc0385-a8ac-4827-841b-c0a497658eed&thumb,전라북도 김제시 아리랑로 1832-21,35.8158919,126.8967254
승암사(전주),전북 전주시,063-284-9902,"['관광지', '불교', '불교문화', '사찰', '사찰여행', '역사', '자연속으로', '자연환경']",https://cdn.visitkorea.or.kr/img/call?cmd=VIEW&id=34d72d7a-49f8-45aa-b5f1-02f604eab622&thumb,전라북도 전주시 완산구 바람쐬는길 47-13,35.8091457,127.1642292
신광사 대웅전,전북 장수군,063-350-2326,"['관광지', '역사', '역사공부', '역사관광지', '역사를품은곳', '역사문화재', '역사속']",https://cdn.visitkorea.or.kr/img/call?cmd=VIEW&id=98a98ab9-8b12-43b3-976a-08a5bac34fe8&thumb,전라북도 장수군 천천면 신광길 31,35.7047943,127.4947199
신광사(장수),전북 장수군,063-353-0598,"['관광지', '불교', '불교문화', '불교사찰', '사찰', '사찰여행', '역사', '자연속으로']",https://cdn.visitkorea.or.kr/img/call?cmd=VIEW&id=0aae32f6-05d5-4878-85cf-173c1ca71f16&thumb,전라북도 장수군 천천면 신광길 31,35.7047943,127.4947199
신림저수지,전북 고창군,063-564-2121,"['관광지', '자연']",https://cdn.visitkorea.or.kr/img/call?cmd=VIEW&id=d7e1e75c-10e2-4eb5-979f-5585c970b807&thumb,전라북도 고창군 신림면 왕림로 130,35.4676999,126.7076331
신석정 고택,전북 부안군,063-580-4711,"['관광지', '신석정고택', '역사', '역사공부', '역사관광지', '역사를품은곳', '역사문화재']",https://cdn.visitkorea.or.kr/img/call?cmd=VIEW&id=7fd23496-08fa-4843-a36a-47619a686c5b&thumb,전라북도 부안군 부안읍 석정로 63,35.7403931,126.7346154
신시도 어촌체험마을,전북 군산시,063-463-7088,"['가족여행', '관광지', '바다풍경', '섬여행', '신시도어촌체험마을', '아이와함께']",https://cdn.visitkorea.or.kr/img/call?cmd=VIEW&id=d802f565-64df-44bb-a0c5-2005222b546a&thumb,전라북도 군산시 옥도면 신시도길 83-7,35.8176872,126.4533195
신안서원,전북 임실군,063-640-2312,"['관광지', '역사', '역사공부', '역사관광지', '역사를품은곳', '역사문화재', '역사속']",https://cdn.visitkorea.or.kr/img/call?cmd=VIEW&id=c2491e5e-f933-4e54-94ae-e65e31857101&thumb,전라북도 임실군 임실읍 신안1길 8-12,35.5998576,127.2393084
신의연효자각,전북 진안군,063-430-2382,"['관광지', '역사', '역사공부', '역사관광지', '역사를품은곳', '역사문화', '역사문화재']",https://cdn.visitkorea.or.kr/img/call?cmd=VIEW&id=109cf3b3-6300-46fe-9f93-45efba177cbb&thumb,전라북도 진안군 백운면 평노길 117,35.7122373,127.417271
신재생에너지 테마파크,전북 부안군,063-580-1400,"['관광지', '나들이', '산업관광', '신재생에너지', '신재생에너지테마파크', '아이와함께']",https://cdn.visitkorea.or.kr/img/call?cmd=VIEW&id=937c8a09-c7f5-46a5-9321-e776c956be51&thumb,전라북도 부안군 하서면 신재생에너지로 10,35.7104811,126.5975835
신흥계곡,전북 완주군,063-290-3930,"['관광지', '자연']",https://cdn.visitkorea.or.kr/img/call?cmd=VIEW&id=077b5b9a-fc7e-41e9-bd4f-b055bdb486ee&thumb,전라북도 완주군 경천면,36.0225245,127.2526153
신흥사(임실),전북 임실군,063-643-2178,"['관광지', '불교', '불교문화', '사찰', '사찰여행', '역사', '자연속으로', '자연환경']",https://cdn.visitkorea.or.kr/img/call?cmd=VIEW&id=undefined&thumb,전라북도 임실군 관촌면 상월로 889-19,35.7547521,127.259837
실상사(남원),전북 남원시,063-636-3031,"['가족여행', '관광지', '교과서속여행', '불교', '불교문화', '사찰', '사찰&산사']",https://cdn.visitkorea.or.kr/img/call?cmd=VIEW&id=3077c351-d4f4-4163-92ee-663ede851f6e&thumb,전라북도 남원시 산내면 입석길 94-129,35.4167148,127.6351305
실상사(전주),전북 전주시,063-253-7337,"['관광지', '불교', '불교문화', '사찰', '사찰여행', '역사', '자연속으로', '자연환경']",https://cdn.visitkorea.or.kr/img/call?cmd=VIEW&id=null&thumb,전라북도 전주시 덕진구 어은로 89-11,35.8204981,127.1287428
실상암,전북 순창군,063-650-3384,"['관광지', '불교', '불교문화', '사찰', '사찰여행', '역사', '자연속으로', '자연환경']",https://cdn.visitkorea.or.kr/img/call?cmd=VIEW&id=7d0eba0d-f91d-4a01-90e2-29d01a8aec76&thumb,전라북도 순창군 순창읍 금산로 56,35.3807753,127.1328476
심곡사(익산),전북 익산시,063-859-5792,"['관광지', '불교', '불교문화', '사찰', '사찰여행', '심곡사칠층석탑', '역사', '연중무휴']",https://cdn.visitkorea.or.kr/img/call?cmd=VIEW&id=29ad85a8-e14c-45f6-8b94-f82c485f26c9&thumb,전라북도 익산시 낭산면 장암길 113,36.0376452,127.0365169
심원계곡,전북 남원시,063-632-1330,"['경치좋은곳', '관광지', '등산', '등산로', '심원계곡', '여름피서지', '자연', '자연&숲']",https://cdn.visitkorea.or.kr/img/call?cmd=VIEW&id=0ca70b55-cd6b-476f-80ee-c415f42ce687&thumb,전라북도 남원시 산내면 지리산로 842-8,35.3851324,127.5881926
심포항,전북 김제시,,"['갯벌체험', '경치좋은곳', '관광지', '낙조명소', '심포항', '자연', '전라권', '체험학습']",https://cdn.visitkorea.or.kr/img/call?cmd=VIEW&id=448c7e24-f43f-45c7-9ace-2403ce74994e&thumb,전북 김제시 진봉면 심포리,35.858837,126.6998207
쌍용사(김제),전북 김제시,063-543-0104,"['관광지', '불교', '불교문화', '사찰', '사찰여행', '역사', '자연속으로', '자연환경']",https://cdn.visitkorea.or.kr/img/call?cmd=VIEW&id=86c464f0-5278-4bc2-9e1d-6d4fdc36cc00&thumb,전라북도 김제시 금산면 금산사1길 70-11,35.7213934,127.0049708
아석정,전북 익산시,063-859-5792,"['관광지', '교과서속여행', '아석정', '아이와함께', '역사', '역사공부', '역사관광지']",https://cdn.visitkorea.or.kr/img/call?cmd=VIEW&id=c1e40352-86dc-423e-ba2e-33a96b6726eb&thumb,전라북도 익산시 금마면 아리랑로 9-34,35.996921,127.0491294
안국사(무주),전북 무주군,063-322-6162,"['관광지', '역사']",https://cdn.visitkorea.or.kr/img/call?cmd=VIEW&id=8c3ebd84-1057-4620-a42c-daf9e5e07fb4&thumb,전라북도 무주군 적상면 산성로 1050,35.9447824,127.6917117
안심사(완주),전북 완주군,063-263-7475,"['관광지', '불교', '불교문화', '사찰', '사찰여행', '역사', '자연속으로', '자연환경']",https://cdn.visitkorea.or.kr/img/call?cmd=VIEW&id=ef3fb460-5851-4d54-9168-981cf3b2c54e&thumb,전라북도 완주군 운주면 안심길 372,36.1082627,127.3030323
안현돋음볕마을,전북 고창군,063-560-8511,"['가족여행', '가족체험', '가족힐링', '관광지', '농촌', '농촌체험', '농촌체험마을']",https://cdn.visitkorea.or.kr/img/call?cmd=VIEW&id=f7a4bcd2-4ca6-480f-979c-a706472905f8&thumb,전라북도 고창군 부안면 안현길 14,35.5389331,126.6116088
압계서원,전북 장수군,063-350-2326,"['관광지', '역사', '역사공부', '역사관광지', '역사를품은곳', '역사문화재', '역사속']",https://cdn.visitkorea.or.kr/img/call?cmd=VIEW&id=676ecc42-4519-428a-8ff2-8f36e4e23e02&thumb,전라북도 장수군 산서면 구암길 77-14,35.5979158,127.4038622
야미도,전북 군산시,063-454-7280,"['관광지', '자연']",https://cdn.visitkorea.or.kr/img/call?cmd=VIEW&id=f629aa5d-fbfe-48f1-afb2-b9d28d6e93e2&thumb,전라북도 군산시 옥도면 야미도3길 25-2,35.8415603,126.4903365
약수암(전주),전북 전주시,063-241-2423,"['관광지', '불교', '불교문화', '사찰', '사찰여행', '역사', '자연속으로', '자연환경']",https://cdn.visitkorea.or.kr/img/call?cmd=VIEW&id=26018fcc-8a84-4a81-9f8d-67f391a4260a&thumb,전라북도 전주시 덕진구 도당산로 46-10,35.8450654,127.1583995
어은정,전북 순창군,063-650-1623,"['관광지', '역사', '역사공부', '역사관광지', '역사를품은곳', '역사문화재', '역사속']",https://cdn.visitkorea.or.kr/img/call?cmd=VIEW&id=0f79af1b-9c21-4758-8402-85f7ea95d926&thumb,전라북도 순창군 적성면 평남길 107-32,35.4237872,127.2174996
어청도,전북 군산시,063-454-7280,"['관광지', '자연']",https://cdn.visitkorea.or.kr/img/call?cmd=VIEW&id=de18ce5c-e37f-4f3b-b680-504a70cb0182&thumb,전라북도 군산시 옥도면 어청도길 95-7,36.120295,125.9792351
어청도 등대,전북 군산시,063-453-4986,"['관광지', '자연']",https://cdn.visitkorea.or.kr/img/call?cmd=VIEW&id=1e9f9fc8-6acf-40d0-a457-c4f2b7d65176&thumb,전라북도 군산시 옥도면 어청도길 240,36.1251864,125.9685378
여산동헌,전북 익산시,063-859-5792,"['관광지', '역사', '역사공부', '역사관광지', '역사를품은곳', '역사문화재', '역사속']",https://cdn.visitkorea.or.kr/img/call?cmd=VIEW&id=b134b6f6-5c9e-47ef-a5c1-d06772c77c36&thumb,전라북도 익산시 여산면 동헌길 13,36.0592319,127.0857288
여산숲정이순교성지,전북 익산시,063-859-5792,"['관광지', '성지순례', '여산숲정이순교성지', '역사', '역사공부', '역사관광지']",https://cdn.visitkorea.or.kr/img/call?cmd=VIEW&id=f5d1eb95-4d20-4aa8-a2a7-d4932b2444d0&thumb,전라북도 익산시 여산면 여산리,36.0569181,127.090249
여산척화비,전북 익산시,063-859-5792,"['관광지', '교과서속여행', '아이와함께', '여산척화비', '역사', '역사공부', '역사관광지']",https://cdn.visitkorea.or.kr/img/call?cmd=VIEW&id=926524af-3be7-4fb5-89d0-3625d0b48f9c&thumb,전라북도 익산시 여산면 동헌길 13,36.0592319,127.0857288
여산향교,전북 익산시,063-859-5792,"['관광지', '역사', '역사공부', '역사관광지', '역사를품은곳', '역사문화재', '역사속']",https://cdn.visitkorea.or.kr/img/call?cmd=VIEW&id=520089d9-95c9-4352-ab8f-f38684b8cb72&thumb,전라북도 익산시 여산면 여산교동길 23-2,36.0549686,127.0904209
여산향교대성전,전북 익산시,063-859-5792,"['관광지', '여산향교', '여산향교대성전', '역사', '역사공부', '역사관광지', '역사를품은곳']",https://cdn.visitkorea.or.kr/img/call?cmd=VIEW&id=f3ef87ab-4da2-4ab0-90d4-ed927dd28eb4&thumb,전라북도 익산시 여산면 여산교동길 23-2,36.0549686,127.0904209
여원재(여원치),전북 남원시,063-620-4049,"['관광지', '자연']",https://cdn.visitkorea.or.kr/img/call?cmd=VIEW&id=undefined&thumb,전라북도 남원시 운봉읍 황산로 767,35.4468395,127.5022007
여원치마애불상,전북 남원시,063-620-6172,"['관광지', '불상', '여원치마애불상', '역사', '역사공부', '역사관광지', '역사를품은곳']",https://cdn.visitkorea.or.kr/img/call?cmd=VIEW&id=b7b0c1d1-ff51-44dc-8842-5069621bc6ab&thumb,전라북도 남원시 이백면 양가리,35.4430758,127.4812836
연도,전북 군산시,063-454-7280,"['관광지', '자연']",https://cdn.visitkorea.or.kr/img/call?cmd=VIEW&id=null&thumb,전라북도 군산시 옥도면 연도1길 18-3,36.0813913,126.4412127
연석산,전북 완주군,063-290-3930,"['관광지', '자연']",https://cdn.visitkorea.or.kr/img/call?cmd=VIEW&id=undefined&thumb,전라북도 완주군 동상면 사봉리 연동마을,35.907307,127.331667
연자봉,전북 정읍시,063-538-7875,"['관광지', '자연']",https://cdn.visitkorea.or.kr/img/call?cmd=VIEW&id=dab51aae-3968-4b41-8bf4-d29ae0137a27&thumb,전라북도 정읍시 내장산로 936,35.4933352,126.9278556
연화사(남원),전북 남원시,063-635-2708,"['관광지', '불교', '불교문화', '사찰', '사찰여행', '역사', '자연속으로', '자연환경']",https://cdn.visitkorea.or.kr/img/call?cmd=VIEW&id=null&thumb,전라북도 남원시 이백면 응령길 168,35.4188063,127.4675338
염의서원,전북 군산시,063-454-3922,"['관광지', '역사', '역사공부', '역사관광지', '역사를품은곳', '역사문화재', '역사속']",https://cdn.visitkorea.or.kr/img/call?cmd=VIEW&id=0b9245c1-49db-4bd1-a5bf-23d3eff0ec95&thumb,전라북도 군산시 옥산면 염의서원길 156-9,35.9401145,126.7141636
영계서원,전북 진안군,063-430-2382,"['관광지', '역사', '역사공부', '역사관광지', '역사를품은곳', '역사문화재', '역사속']",https://cdn.visitkorea.or.kr/img/call?cmd=VIEW&id=null&thumb,전라북도 진안군 마령면 원강정1길 42,35.7392556,127.3633382
영광정,전북 순창군,063-650-1623,"['관광지', '역사', '역사공부', '역사관광지', '역사를품은곳', '역사문화재', '역사속']",https://cdn.visitkorea.or.kr/img/call?cmd=VIEW&id=479f128a-7dbf-4d04-b3ee-e47bd6118344&thumb,전북 순창군 쌍치면 둔전리,35.4749142,126.9712281
영등동 유적,전북 익산시,063-859-5792,"['관광지', '역사', '역사공부', '역사관광지', '역사를품은곳', '역사문화재', '역사속']",https://cdn.visitkorea.or.kr/img/call?cmd=VIEW&id=b4682a11-f6e5-43b3-9d7c-b336f464a58e&thumb,전라북도 익산시 궁동로 57,35.9626723,126.9777362
영모정,전북 진안군,063-430-2114,"['관광지', '역사', '역사공부', '역사관광지', '역사를품은곳', '역사문화재', '역사속']",https://cdn.visitkorea.or.kr/img/call?cmd=VIEW&id=5ebd02bb-0671-4b11-9ae1-372cea01246e&thumb,전라북도 진안군 백운면 노촌리 676,35.7119115,127.417374
영선사(전북),전북 남원시,063-636-2195,"['관광지', '불교', '불교문화', '사찰', '사찰여행', '역사', '자연속으로', '자연환경']",https://cdn.visitkorea.or.kr/img/call?cmd=VIEW&id=null&thumb,전라북도 남원시 인월면 황산로 1987-51,35.4684208,127.6212299
영월암(장수),전북 장수군,063-351-1148,"['관광지', '불교', '불교문화', '사찰', '사찰여행', '역사', '영월암', '자연속으로']",https://cdn.visitkorea.or.kr/img/call?cmd=VIEW&id=378e3d4e-be36-4c99-82ff-edefc3c4b973&thumb,전라북도 장수군 산서면 봉서로 182-135,35.5468555,127.3859036
영천사,전북 김제시,063-546-4371,"['관광지', '불교', '불교문화', '불교사찰', '사찰', '사찰여행', '역사', '자연환경']",https://cdn.visitkorea.or.kr/img/call?cmd=VIEW&id=63fb4ba1-582b-4a04-9c17-543377d55ec7&thumb,전라북도 김제시 황산5길 106-28,35.7783763,126.9338238
영천서원,전북 임실군,063-640-2312,"['관광지', '역사', '역사공부', '역사관광지', '역사를품은곳', '역사문화재', '역사속']",https://cdn.visitkorea.or.kr/img/call?cmd=VIEW&id=d960f321-480f-4a12-88ec-834c9cf89107&thumb,전라북도 임실군 지사면 영천3길 33,35.5752981,127.3747045
예종대왕태실 및 비,전북 전주시,063-281-5361,"['관광지', '역사', '역사공부', '역사관광지', '역사를품은곳', '역사문화재', '역사속']",https://cdn.visitkorea.or.kr/img/call?cmd=VIEW&id=f8867cee-98ac-481f-9a3b-dab181b83843&thumb,전라북도 전주시 완산구 풍남동3가 102,35.815133,127.1501926
오강서원,전북 익산시,063-859-5792,"['관광지', '역사']",https://cdn.visitkorea.or.kr/img/call?cmd=VIEW&id=null&thumb,전라북도 익산시 석암로,35.9443709,127.006202
오괴정,전북 임실군,063-640-2312,"['관광지', '역사', '역사공부', '역사관광지', '역사를품은곳', '역사문화재', '역사속']",https://cdn.visitkorea.or.kr/img/call?cmd=VIEW&id=5939e071-0a81-4179-8bd3-503f2f1277ee&thumb,전라북도 임실군 삼계면 삼은2길 22-31,35.5108125,127.3027938
오리정,전북 남원시,063-620-6172,"['가족여행', '관광지', '나들이', '역사', '역사를품은곳', '역사문화재', '역사속']",https://cdn.visitkorea.or.kr/img/call?cmd=VIEW&id=cdd8d9ca-1db5-495d-a93b-865e3e23c1da&thumb,전라북도 남원시 사매면 월평리,35.4909316,127.3491828
오목대와 이목대,전북 전주시,063-281-2114,"['가족여행', '가족체험여행', '관광지', '교과서속여행', '아이와함께', '역사', '역사공부']",https://cdn.visitkorea.or.kr/img/call?cmd=VIEW&id=ffc36149-7139-4da3-93a8-c31c4fc5eb75&thumb,전라북도 전주시 완산구 기린대로 55,35.8138103,127.1540973
오복마을,전북 완주군,063-263-5555,"['관광지', '농촌', '농촌마을', '농촌여행', '농촌체험', '농촌체험마을', '농촌체험여행']",https://cdn.visitkorea.or.kr/img/call?cmd=VIEW&id=66e49b7a-e73d-426f-804d-7ea6e6841271&thumb,전라북도 완주군 경천면 오복대석길 45,36.0165911,127.2533164
오봉산,전북 완주군,063-290-3930,"['관광지', '자연']",https://cdn.visitkorea.or.kr/img/call?cmd=VIEW&id=353cc950-f7be-4994-910a-a1fd03002964&thumb,전라북도 완주군 구이면 백여리 소모마을 일원,35.65245,127.105771
오송제,전북 전주시,,"['관광지', '생태호수공원', '오송제', '자연', '전라권', '힐링']",https://cdn.visitkorea.or.kr/img/call?cmd=VIEW&id=d291fa87-b02a-4620-b702-56f150cc8de9&thumb,전라북도 전주시 덕진구 송천동 1가,35.860772,127.1287357
오수리석불,전북 임실군,063-640-2312,"['관광지', '역사', '역사공부', '역사관광지', '역사를품은곳', '역사문화재', '역사속']",https://cdn.visitkorea.or.kr/img/call?cmd=VIEW&id=490133c8-074a-4a75-ab98-5e5d3acabab1&thumb,전라북도 임실군 오수면 오수10길 24-22,35.5342805,127.3254898
오수의견공원,전북 임실군,063-640-2906,"['가족여행', '걷기길', '걷기여행', '관광지', '나들이', '사계절', '아이와함께', '오수의견공원']",https://cdn.visitkorea.or.kr/img/call?cmd=VIEW&id=b8c83531-4397-47dc-9c70-5659636fc4c6&thumb,전라북도 임실군 오수면 충효로 2096-16,35.5453263,127.3330391
오수휴게소 펫펨레스토랑,전북 임실군,063-644-5115,"['가족과함께', '관광지', '반려견동반여행지', '아이와함께', '애견놀이터', '애견동반']",https://cdn.visitkorea.or.kr/img/call?cmd=VIEW&id=cf1ea027-9229-4fda-a6fa-e97bc3e7d6a6&thumb,전라북도 임실군 오수면 순천완주고속도로 74,35.5409253,127.3092351
옥계천,전북 완주군,063-290-3930,"['관광지', '자연']",https://cdn.visitkorea.or.kr/img/call?cmd=VIEW&id=411de52a-1f76-406a-b2ed-dafcb24175ae&thumb,전라북도 완주군 운주면 산북리 평촌,36.109414,127.3329433
옥구향교,전북 군산시,063-454-3922,"['가족여행', '관광지', '역사', '역사공부', '역사관광지', '역사를품은곳', '역사문화재']",https://cdn.visitkorea.or.kr/img/call?cmd=VIEW&id=123fe2e1-44a9-42c0-b77d-9929e867eb93&thumb,전라북도 군산시 옥구읍 광월길 33-50,35.9305628,126.7071797
옥산서원,전북 정읍시,063-539-5184,"['관광지', '아이와함께', '역사', '역사공부', '역사관광지', '역사를품은곳', '역사문화재']",https://cdn.visitkorea.or.kr/img/call?cmd=VIEW&id=78d0a155-4a31-471b-be47-cf5a56d76785&thumb,전라북도 정읍시 소성면 애당모촌길 9,35.5298925,126.7799029
옥산서원,전북 군산시,063-454-3922,"['관광지', '역사', '역사공부', '역사관광지', '역사를품은곳', '역사문화재', '역사속']",https://cdn.visitkorea.or.kr/img/call?cmd=VIEW&id=f8ea13cb-481e-4f91-b365-5a79a62f0f2b&thumb,전라북도 군산시 옥구읍 광월길 33-50,35.9305628,126.7071797
옥정호 구절초테마공원,전북 정읍시,063-537-1330,"['가족여행', '걷기여행', '관광지', '구절초테마파크', '데이트코스', '사계절', '산책길']",https://cdn.visitkorea.or.kr/img/call?cmd=VIEW&id=bfc08b62-b743-449b-88b1-16e7fa6453ba&thumb,전라북도 정읍시 산내면 청정로 926-79,35.5539212,127.019369
옥정호(물안개길),전북 임실군,063-640-4082,"['가족여행', '걷기여행', '관광지', '사계절', '아이와함께', '연인과함께', '옥정호(물안개길)']",https://cdn.visitkorea.or.kr/img/call?cmd=VIEW&id=350c4ec9-f907-4a91-bb90-46ee797189aa&thumb,전라북도 임실군 운암면 입석리 마암리 374-8(물안개길)낚시터,35.6251915,127.1447483
옥천사(진안),전북 진안군,063-430-2382,"['관광지', '역사', '역사공부', '역사관광지', '역사를품은곳', '역사문화재', '역사속']",https://cdn.visitkorea.or.kr/img/call?cmd=VIEW&id=null&thumb,전라북도 진안군 동향면,35.8381336,127.5678709
옥천암(진안),전북 진안군,063-432-2165,"['관광지', '불교', '불교문화', '사찰', '사찰여행', '역사', '자연좋은곳', '자연환경']",https://cdn.visitkorea.or.kr/img/call?cmd=VIEW&id=a175a6b7-bf5e-4a7e-b8fb-7da0aad0a98e&thumb,전라북도 진안군 용담면 주용로 227-164,35.9656472,127.4758398
와룡소계곡,전북 부안군,063-598-0951,"['관광지', '자연']",https://cdn.visitkorea.or.kr/img/call?cmd=VIEW&id=f0cceada-ae20-4287-85f6-c60698e3a345&thumb,전라북도 부안군 변산면 실상길 60,35.6417738,126.5798575
와룡암,전북 진안군,063-430-2322,"['경치좋은곳', '관광지', '역사', '역사공부', '역사관광지', '역사문화재', '역사속']",https://cdn.visitkorea.or.kr/img/call?cmd=VIEW&id=69907141-2e79-4202-b459-b8421ad50c2b&thumb,전라북도 진안군 주천면 금평1길 10-8,35.9755778,127.4294161
와룡자연휴양림,전북 장수군,063-350-2477,"['관광지', '와룡자연휴양림', '자연', '전라권', '휴양여행', '힐링']",https://cdn.visitkorea.or.kr/img/call?cmd=VIEW&id=06d3cc87-2d9c-43cb-b618-f32fe35a6946&thumb,전라북도 장수군 천천면 비룡로 362,35.697773,127.498846
완산칠봉(완산공원),전북 전주시,063-222-1000,"['관광지', '사진찍기좋은곳', '사진촬영', '산책하기좋은곳', '연인과함께', '자연관광지']",https://cdn.visitkorea.or.kr/img/call?cmd=VIEW&id=1cec3431-a622-4921-bd8d-9750d724cf85&thumb,전라북도 전주시 완산구 서서학동,35.8057232,127.1486396
완주 고산 놀토피아,전북 완주군,070-4100-1100,"['가족과함께', '관광지', '놀이기구', '미세먼지_피하는_실내여행', '실내관광지']",https://cdn.visitkorea.or.kr/img/call?cmd=VIEW&id=c076558a-511f-4302-b53b-492614310c05&thumb,전라북도 완주군 고산면 대아저수로 416,35.988448,127.2419804
완주 대승한지마을,전북 완주군,063-242-1001,"['관광지', '대승한지마을', '산업관광', '아이와함께', '완주대승한지마을', '전라권']",https://cdn.visitkorea.or.kr/img/call?cmd=VIEW&id=aff7c149-66ce-4352-9620-d21b9cd8705c&thumb,전라북도 완주군 소양면 복은길 18,35.8543208,127.2944615
완주 두억마을 [농촌체험휴양마을],전북 완주군,063-247-0050,"['관광지', '농촌', '농촌체험', '농촌체험마을', '농촌체험여행', '농촌체험학습']",https://cdn.visitkorea.or.kr/img/call?cmd=VIEW&id=28349eed-77c9-4c23-9e01-5469cee66afd&thumb,전라북도 완주군 용진읍 두억길 13-12,35.8955824,127.1913175
완주 삼례문화예술촌,전북 완주군,070-8915-8121,"['관광지', '미술관', '박물관', '삼례문화예술촌', '예술', '전라권', '전시관']",https://cdn.visitkorea.or.kr/img/call?cmd=VIEW&id=54cb5468-7c0e-4d82-b22f-cb0b5ab86055&thumb,전라북도 완주군 삼례읍 삼례역로 81-13,35.9060596,127.0661671
완주 안덕마을,전북 완주군,063-227-1000,"['관광지', '이색체험', '자연마을', '자연속으로', '자연여행', '자연좋은곳', '자연풍경']",https://cdn.visitkorea.or.kr/img/call?cmd=VIEW&id=77e3c7c6-5fbc-48a5-9dd3-9893ac0a3be9&thumb,전라북도 완주군 구이면 장파길 72,35.6950703,127.0998489
완주 인덕마을[농촌체험휴양마을],전북 완주군,063-241-7887,"['가족과함께', '관광지', '농촌마을', '농촌여행코스', '농촌체험', '농촌체험마을']",https://cdn.visitkorea.or.kr/img/call?cmd=VIEW&id=4a64b72c-37b2-4f70-a322-a7a04a2dd7c4&thumb,전라북도 완주군 소양면 인덕길 245-17,35.8802263,127.2338493
완주상관편백숲,전북 완주군,063-290-2114,"['관광지', '자연관광지', '자연속으로', '자연여행', '자연좋은곳', '자연풍경', '자연환경']",https://cdn.visitkorea.or.kr/img/call?cmd=VIEW&id=f3570dc6-eee4-4ae7-b875-f75efbee4c9c&thumb,전라북도 완주군 상관면 죽림리,35.7407044,127.2198943
왕궁온천,전북 익산시,063-291-5000,"['가족여행', '가족체험여행', '관광지', '아이와함께', '연인과함께', '온천&스파']",https://cdn.visitkorea.or.kr/img/call?cmd=VIEW&id=d9f8574c-c0e6-40e0-aef0-8179ca792a43&thumb,전라북도 익산시 왕궁면 온천길 38,35.9240894,127.0579238
왜가리서식지,전북 임실군,063-640-2345,"['관광지', '자연']",https://cdn.visitkorea.or.kr/img/call?cmd=VIEW&id=6d3f0bdc-c999-4ae4-899b-b6b96b4c7f1c&thumb,전북 임실군 임실읍 성가리,35.6112662,127.2717782
용강서원,전북 전주시,063-281-5361,"['관광지', '역사', '역사공부', '역사관광지', '역사를품은곳', '역사문화재', '역사속']",https://cdn.visitkorea.or.kr/img/call?cmd=VIEW&id=undefined&thumb,전라북도 전주시 덕진구 원동회룡길 59-3,35.8552143,127.0402304
용계서원,전북 정읍시,063-539-5184,"['관광지', '역사', '역사공부', '역사관광지', '역사를품은곳', '역사문화재', '역사속']",https://cdn.visitkorea.or.kr/img/call?cmd=VIEW&id=undefined&thumb,전라북도 정읍시 칠보면 동편길 41-3,35.6017914,126.9884514
용굴,전북 정읍시,063-538-7875,"['관광지', '등산', '역사', '용굴', '자연', '전라권']",https://cdn.visitkorea.or.kr/img/call?cmd=VIEW&id=7bc55467-8245-4b76-9939-c1765ac1191b&thumb,전라북도 정읍시 내장산로 936,35.4933352,126.9278556
용담댐 물 문화관,전북 진안군,063-430-4209,"['관광지', '물문화관', '산업관광', '신재생에너지', '아이와함께', '연인과함께']",https://cdn.visitkorea.or.kr/img/call?cmd=VIEW&id=ab363b27-31da-4150-b63a-96c56e689361&thumb,전라북도 진안군 안천면 안용로 747,35.9451629,127.5285936
용담사(남원),전북 남원시,063-632-9911,"['관광지', '역사']",https://cdn.visitkorea.or.kr/img/call?cmd=VIEW&id=8afef1b0-6108-4a66-a007-fd14603bbea4&thumb,전라북도 남원시 주천면 원천로 165-12,35.409618,127.4111248
용담향교,전북 진안군,063-432-8007,"['관광지', '역사', '역사공부', '역사관광지', '역사를품은곳', '역사문화재', '역사속']",https://cdn.visitkorea.or.kr/img/call?cmd=VIEW&id=a09cf4e7-4aaf-47c3-ba10-bc228df56b46&thumb,전라북도 진안군 동향면 진성로 1697,35.842103,127.5758798
용담호,전북 진안군,063-430-4262,"['관광지', '자연']",https://cdn.visitkorea.or.kr/img/call?cmd=VIEW&id=d2c91ec6-b2b8-4270-baaf-e179cfd30433&thumb,전라북도 진안군 안천면 안용로 747,35.9451629,127.5285936
용문굴,전북 고창군,063-560-8681,"['관광지', '역사', '용문굴', '자연', '전라권', '풍경좋은곳']",https://cdn.visitkorea.or.kr/img/call?cmd=VIEW&id=c392ebc9-873e-4653-b3db-be9cc9f1fe5d&thumb,전라북도 고창군 아산면 선운사로 250,35.4969385,126.5782255
용봉사(김제),전북 김제시,063-542-1885,"['관광지', '사찰', '역사', '용봉사', '전라권']",https://cdn.visitkorea.or.kr/img/call?cmd=VIEW&id=023e6d21-83f0-4560-af1f-33c3b2f83947&thumb,전라북도 김제시 용지면 봉의로 205,35.8749512,126.9651626
용산저수지,전북 정읍시,063-539-7840,"['관광지', '자연']",https://cdn.visitkorea.or.kr/img/call?cmd=VIEW&id=112d64b7-e506-4d62-a9f4-b5f587b918a9&thumb,전북 정읍시 용산동,35.5110388,126.862645
용안생태습지공원,전북 익산시,063-861-9908,"['걷기길', '걷기여행', '관광지', '생태관광지', '용안생태습지공원', '자연', '자연좋은곳']",https://cdn.visitkorea.or.kr/img/call?cmd=VIEW&id=a2ea942a-c79c-4f74-baec-e32ede50f26f&thumb,전라북도 익산시 용안면 강변로,36.1270096,126.941631
용안향교,전북 익산시,063-859-5792,"['관광지', '역사', '역사공부', '역사관광지', '역사를품은곳', '역사문화재', '역사속']",https://cdn.visitkorea.or.kr/img/call?cmd=VIEW&id=e035c39c-f101-48a3-b492-98add39386da&thumb,전라북도 익산시 용안면 용안교동1길 34-11,36.1215946,126.9543783
용안향교 대성전,전북 익산시,063-859-5792,"['관광지', '역사']",https://cdn.visitkorea.or.kr/img/call?cmd=VIEW&id=69aebb01-39af-4e70-9c11-31c407ca83fb&thumb,전라북도 익산시 용안면 용안교동1길 34-11,36.1215946,126.9543783
용암사,전북 장수군,063-350-2326,"['관광지', '역사', '역사공부', '역사관광지', '역사를품은곳', '역사문화재', '역사속']",https://cdn.visitkorea.or.kr/img/call?cmd=VIEW&id=daf85244-9c00-4ead-9720-5d82e57ed864&thumb,전라북도 장수군 천천면 춘송리,35.728098,127.5470387
용암서원(김제),전북 김제시,063-540-3882,"['관광지', '역사', '역사공부', '역사관광지', '역사를품은곳', '역사문화재', '역사속']",https://cdn.visitkorea.or.kr/img/call?cmd=VIEW&id=935769c4-b8ae-4ed3-ac86-3c24c1997263&thumb,전라북도 김제시 향교길 89-22,35.8011027,126.8792579
용암서원(장수),전북 장수군,063-350-2326,"['관광지', '역사', '역사공부', '역사관광지', '역사를품은곳', '역사문화재', '역사속']",https://cdn.visitkorea.or.kr/img/call?cmd=VIEW&id=null&thumb,전라북도 장수군 천천면 천천로 45-19,35.7395849,127.5327712
용연정,전북 장수군,063-350-2326,"['관광지', '역사', '역사공부', '역사관광지', '역사를품은곳', '역사문화재', '역사속']",https://cdn.visitkorea.or.kr/img/call?cmd=VIEW&id=22b4f71b-ef22-47c9-9a4a-1b7e9d00bbab&thumb,전라북도 장수군 계북면 양악길 156-12,35.8037727,127.6423411
용장서원,전북 남원시,063-620-6172,"['관광지', '역사', '역사공부', '역사관광지', '역사를품은곳', '역사문화재', '역사속']",https://cdn.visitkorea.or.kr/img/call?cmd=VIEW&id=94d7f127-a244-4672-bce2-b798487a6234&thumb,전라북도 남원시 주생면 상동길 7-1,35.3976083,127.3408717
용추계곡,전북 임실군,063-640-2344,"['가족여행', '계곡', '관광지', '용추계곡', '자연', '전라권', '피서']",https://cdn.visitkorea.or.kr/img/call?cmd=VIEW&id=a37b334c-b163-4997-b013-679b6ace0391&thumb,전라북도 임실군 청웅면 두복리,35.5784673,127.177379
용추폭포(고창),전북 고창군,063-560-2603,"['관광지', '자연']",https://cdn.visitkorea.or.kr/img/call?cmd=VIEW&id=a53c2916-16dc-4e28-a997-c20d67730196&thumb,전북 고창군 신림면 가평리,35.4740833,126.7597912
용추폭포(무주),전북 무주군,063-322-3174,"['관광지', '자연']",https://cdn.visitkorea.or.kr/img/call?cmd=VIEW&id=d94f89b4-f286-4c3b-a22d-df411e3696de&thumb,전라북도 무주군 안성면 칠연로,35.8550286,127.6699634
용호서원,전북 남원시,063-620-6172,"['관광지', '아이와함께', '역사', '역사공부', '역사관광지', '역사를품은곳', '역사문화재']",https://cdn.visitkorea.or.kr/img/call?cmd=VIEW&id=7c77f5d7-c2d8-49cd-bd9f-0ef5f5b6b29d&thumb,전라북도 남원시 주천면 정령치로 269,35.3885854,127.4624478
용화사(고창),전북 고창군,063-562-8531,"['관광지', '불교', '불교문화', '사찰', '사찰여행', '역사', '자연속으로', '자연환경']",https://cdn.visitkorea.or.kr/img/call?cmd=VIEW&id=0f9a0b9b-85d9-483f-a3d7-de72268435ff&thumb,전라북도 고창군 대산면 연화길 88-56,35.3286023,126.5489722
용화사(부안),전북 부안군,063-584-4919,"['관광지', '불교', '불교문화', '불교사찰', '사찰', '사찰여행', '역사', '자연속으로']",https://cdn.visitkorea.or.kr/img/call?cmd=VIEW&id=null&thumb,전라북도 부안군 행안면 미륵골길 43,35.732711,126.7145913
용흥리 해정사지 석탑,전북 정읍시,063-539-5184,"['관광지', '역사', '역사공부', '역사관광지', '역사를품은곳', '역사문화재', '역사속']",https://cdn.visitkorea.or.kr/img/call?cmd=VIEW&id=362ef848-cf46-487d-a8ae-9e09cb2cc44d&thumb,전라북도 정읍시 고부면 해정길 56-48,35.624356,126.762676
우금산성,전북 부안군,063-580-4434,"['관광지', '역사', '역사공부', '역사관광지', '역사를품은곳', '역사문화재', '역사속']",https://cdn.visitkorea.or.kr/img/call?cmd=VIEW&id=b2130f6c-f617-4654-b2d7-974e789eb8e3&thumb,전라북도 부안군 상서면 감교리,35.6630326,126.6609193
우동리당산,전북 부안군,063-580-4711,"['관광지', '역사', '역사공부', '역사관광지', '역사를품은곳', '역사문화재', '역사속']",https://cdn.visitkorea.or.kr/img/call?cmd=VIEW&id=f6499936-8d73-48d2-8578-5531dd68244a&thumb,전라북도 부안군 보안면 우동길 41,35.619688,126.6383272
우화정(내장산),전북 정읍시,063-538-7875,"['관광지', '내장산', '방태산자연휴양림', '연인과함께', '우화정', '자연', '자연관광지']",https://cdn.visitkorea.or.kr/img/call?cmd=VIEW&id=cfd40d75-93b7-4f9e-8cb5-50182d87d151&thumb,전라북도 정읍시 내장산로 936,35.4933352,126.9278556
운곡서원,전북 고창군,063-560-2943,"['관광지', '서원', '역사', '역사공부', '역사관광지', '역사를품은곳', '역사문화재']",https://cdn.visitkorea.or.kr/img/call?cmd=VIEW&id=af90b120-f10f-4754-96a8-afaa907fa416&thumb,전라북도 고창군 아산면 운곡서원길 337,35.4696776,126.6517155
운곡습지,전북 고창군,063-564-7076,"['걷기길', '고창', '고창운곡람사르습지', '관광지', '생태관광', '생태관광지', '운곡람사르습지']",https://cdn.visitkorea.or.kr/img/call?cmd=VIEW&id=bd8a12ec-18a8-4c96-9d34-17461f14449b&thumb,전라북도 고창군 아산면 용계리 212번지,35.4754448,126.6326236
운봉향교,전북 남원시,063-620-6172,"['관광지', '역사', '역사공부', '역사관광지', '역사를품은곳', '역사문화재', '역사속']",https://cdn.visitkorea.or.kr/img/call?cmd=VIEW&id=7df53261-d4c4-43b5-ad5f-3bbc3416e431&thumb,전라북도 남원시 운봉읍 운봉남길 217-28,35.4212927,127.5308787
운서정,전북 임실군,063-640-2311,"['관광지', '역사', '역사공부', '역사관광지', '역사를품은곳', '역사문화재', '역사속']",https://cdn.visitkorea.or.kr/img/call?cmd=VIEW&id=368ee48a-3018-4b2f-aad6-ab960bcbcfaa&thumb,전라북도 임실군 관촌면 관진로 61-20,35.6701441,127.2765944
운수사(임실),전북 임실군,063-642-2405,"['관광지', '불교', '불교문화', '사찰', '사찰여행', '역사', '연중무휴', '임실운수사']",https://cdn.visitkorea.or.kr/img/call?cmd=VIEW&id=b3aaf58d-e8ab-4006-b5cd-5d6dea06041e&thumb,전라북도 임실군 임실읍 봉황10길 109,35.6178712,127.2855817
운심사(군산),전북 군산시,063-451-4258,"['관광지', '불교문화', '불교사찰', '사찰', '사찰여행', '역사', '역사이야기', '자연환경']",https://cdn.visitkorea.or.kr/img/call?cmd=VIEW&id=f887f65f-f35e-4d04-b239-926058e19032&thumb,전라북도 군산시 대야면 오동길 30-28,35.9465774,126.8116919
운암산,전북 완주군,063-290-3930,"['관광지', '자연']",https://cdn.visitkorea.or.kr/img/call?cmd=VIEW&id=undefined&thumb,전라북도 완주군 동상면 대아리,35.9796908,127.296062
운일암 반일암 계곡,전북 진안군,063-430-8382,"['관광지', '국내힐링여행', '등산', '여름여행', '여름피서지', '운일암반일암계곡']",https://cdn.visitkorea.or.kr/img/call?cmd=VIEW&id=faa47663-4eec-4c48-a5be-ee36f9cf6864&thumb,전라북도 진안군 주천면 동상주천로 1926,35.978507,127.4013022
운장산,전북 완주군,063-290-3930,"['관광지', '등산', '산', '운장산', '자연', '전라권', '전망좋은곳']",https://cdn.visitkorea.or.kr/img/call?cmd=VIEW&id=cb776c73-50a7-449b-b2c6-65fd6241bcd6&thumb,전라북도 완주군 동상면,35.9368622,127.2967783
운장산(진안),전북 진안군,063-430-2443,"['관광지', '자연']",https://cdn.visitkorea.or.kr/img/call?cmd=VIEW&id=f523765b-acf4-4d58-9f34-e353d3b34c11&thumb,전북 진안군 주천면,35.9751599,127.4257385
원각사(김제),전북 김제시,063-547-2577,"['관광지', '불교', '불교문화', '사찰', '사찰여행', '역사', '자연속으로', '자연환경']",https://cdn.visitkorea.or.kr/img/call?cmd=VIEW&id=3fda01c7-bf96-4a78-aa18-b90a44f7ddf7&thumb,전라북도 김제시 사정거리1길 20,35.8017309,126.8838106
원등사(완주),전북 완주군,063-244-9430,"['관광지', '불교', '불교문화', '사찰', '사찰여행', '역사', '자연속으로', '자연환경']",https://cdn.visitkorea.or.kr/img/call?cmd=VIEW&id=null&thumb,전라북도 완주군 소양면 원등산길 386,35.881739,127.2925306
원등산,전북 완주군,063-290-3930,"['관광지', '자연']",https://cdn.visitkorea.or.kr/img/call?cmd=VIEW&id=8ac9fba8-0a43-4da1-863b-d02bec387274&thumb,전라북도 완주군 소양면 해월리 다리목마을 일원,35.884568,127.260458
원불교중앙총부,전북 익산시,063-850-3333,"['가족여행', '관광지', '불교', '불교문화', '불교사찰', '사찰여행', '아이와함께']",https://cdn.visitkorea.or.kr/img/call?cmd=VIEW&id=fabeee30-c7dc-497f-b3a2-7b25efdf9fa2&thumb,전라북도 익산시 익산대로 501,35.9713303,126.9521791
원연장 꽃잔디마을,전북 진안군,,"['관광지', '남녀노소', '아이와함께', '연인과함께', '이색체험', '자연마을', '자연좋은곳']",https://cdn.visitkorea.or.kr/img/call?cmd=VIEW&id=45746152-b8ff-4e1d-9f6f-0e834c2c2e14&thumb,전라북도 진안군 진안읍 정곡길 5-7,35.7808564,127.3909826
원적계곡,전북 정읍시,063-538-7875,"['관광지', '자연']",https://cdn.visitkorea.or.kr/img/call?cmd=VIEW&id=undefined&thumb,전북 정읍시 내장동,35.4954377,126.9138423
원적암(정읍),전북 정읍시,063-538-7190,"['관광지', '불교', '불교문화', '사찰', '사찰여행', '역사', '자연속으로', '자연좋은곳']",https://cdn.visitkorea.or.kr/img/call?cmd=VIEW&id=null&thumb,전라북도 정읍시 내장산로 1253,35.4896703,126.9018922
원통사(무주),전북 무주군,063-323-2100,"['관광지', '불교', '불교문화', '사찰', '사찰여행', '역사', '원통사', '자연속으로']",https://cdn.visitkorea.or.kr/img/call?cmd=VIEW&id=2cf5bd9c-114a-4f41-a540-cd7cfef5ef2c&thumb,전라북도 무주군 안성면 원통사로 676,35.8189326,127.6990592
원통사지,전북 무주군,063-323-2100,"['관광지', '불교', '불교문화', '사찰', '사찰여행', '산사', '역사', '역사유적지', '원통사지']",https://cdn.visitkorea.or.kr/img/call?cmd=VIEW&id=e16fcb19-678c-4ef9-8e5d-245bc0929f89&thumb,전라북도 무주군 안성면 원통사로 676,35.8189326,127.6990592
원흥사(장수),전북 장수군,063-351-3922,"['관광지', '불교', '불교문화', '사찰', '사찰여행', '역사', '자연속으로', '자연환경']",https://cdn.visitkorea.or.kr/img/call?cmd=VIEW&id=55b627ff-f4d1-46b4-8900-951f0bfcc187&thumb,전라북도 장수군 산서면 원흥길 102-6,35.5893405,127.4209183
원흥석불입상,전북 장수군,063-350-2326,"['관광지', '역사', '역사공부', '역사관광지', '역사를품은곳', '역사문화재', '역사속']",https://cdn.visitkorea.or.kr/img/call?cmd=VIEW&id=1d11d738-8f6f-4a2c-a4a3-4d195be6c52e&thumb,전라북도 장수군 산서면 원흥길 102-6,35.5893405,127.4209183
월강사,전북 장수군,063-350-2224,"['관광지', '역사', '역사공부', '역사관광지', '역사를품은곳', '역사문화재', '역사속']",https://cdn.visitkorea.or.kr/img/call?cmd=VIEW&id=f677e003-5bcd-412b-84dc-57329844d0cf&thumb,전라북도 장수군 장계면 도장골길 37-8,35.731962,127.5962035
월강서원,전북 장수군,063-350-2326,"['관광지', '역사', '역사공부', '역사관광지', '역사를품은곳', '역사문화재', '역사속']",https://cdn.visitkorea.or.kr/img/call?cmd=VIEW&id=0578a5ce-f7a6-435d-ba6e-6669c2a57123&thumb,전라북도 장수군 장계면 도장골길 37-8,35.731962,127.5962035
월명공원,전북 군산시,063-450-4000,"['가족여행', '관광지', '남녀노소', '산책길', '산책하기', '산책하기좋은곳', '아이와함께']",https://cdn.visitkorea.or.kr/img/call?cmd=VIEW&id=0ba34115-c515-4631-850c-ec635c451fa9&thumb,전라북도 군산시 월명공원1길 26-3,35.9894702,126.7026794
월명공원 채만식문학비,전북 군산시,063-454-3305,"['관광지', '문학기념관', '문학기행', '문학여행', '산책길', '산책하기', '산책하기좋은곳']",https://cdn.visitkorea.or.kr/img/call?cmd=VIEW&id=undefined&thumb,전라북도 군산시 강변로 449,36.0085755,126.7579253
월명사(김제),전북 김제시,063-543-0826,"['관광지', '불교', '불교문화', '사찰', '사찰여행', '역사', '자연환경', '전통사찰']",https://cdn.visitkorea.or.kr/img/call?cmd=VIEW&id=460fc41d-4483-4745-b1cc-2fb822b871a3&thumb,전라북도 김제시 금산면 모악7길 128-27,35.7254396,127.0257038
월명암(부안),전북 부안군,063-582-7890,"['관광지', '불교', '불교문화', '사찰', '사찰여행', '역사', '자연속으로', '자연환경']",https://cdn.visitkorea.or.kr/img/call?cmd=VIEW&id=null&thumb,전라북도 부안군 변산면 내변산로 236-180,35.6408083,126.5582122
월명호수,전북 군산시,063-453-4986,"['가족여행', '관광지', '월명호수', '전라권']",https://cdn.visitkorea.or.kr/img/call?cmd=VIEW&id=9bba8865-073a-4b13-9a78-893c519e4f23&thumb,전북 군산시 소룡동 1071-3,35.9742779,126.6792641
월암서원,전북 고창군,063-560-2943,"['관광지', '교과서속여행', '서원', '역사', '역사공부', '역사관광지', '역사를품은곳']",https://cdn.visitkorea.or.kr/img/call?cmd=VIEW&id=c9d7da9f-867a-425e-9daa-68ac378f6f74&thumb,전라북도 고창군 고창읍 월암길 75,35.4320826,126.7307595
위도 (전북 서해안권 국가지질공원),전북 부안군,063-580-4331,"['관광지', '국가지질공원', '섬', '위도', '자연', '자연관광지', '자연발생', '자연속으로']",https://cdn.visitkorea.or.kr/img/call?cmd=VIEW&id=fac7c505-d4bc-4aad-8948-caf254bb526e&thumb,전라북도 부안군 위도면 치도리,35.5914313,126.2811307
위도 치도리마을,전북 부안군,063-580-4434,"['관광지', '자연']",https://cdn.visitkorea.or.kr/img/call?cmd=VIEW&id=null&thumb,전라북도 부안군 위도면 날마통길,35.5946422,126.262395
위도해수욕장,전북 부안군,063-580-4413,"['가족여행', '관광지', '바다풍경', '여름방학가볼만한곳', '여름여행', '연인과함께']",https://cdn.visitkorea.or.kr/img/call?cmd=VIEW&id=undefined&thumb,전라북도 부안군 위도면 위도로 366,35.6054565,126.2850191
위봉사(완주),전북 완주군,063-243-7657,"['관광지', '불교', '불교사찰', '사찰', '사찰여행', '역사', '자연속으로', '자연좋은곳']",https://cdn.visitkorea.or.kr/img/call?cmd=VIEW&id=398e872f-197c-432b-a516-795cba2f3b49&thumb,전라북도 완주군 소양면 위봉길 53,35.9101456,127.256735
위봉산성군립공원,전북 완주군,063-240-4224,"['관광지', '자연']",https://cdn.visitkorea.or.kr/img/call?cmd=VIEW&id=75e7c363-bd0c-4d0b-abab-98c6f7d4a55f&thumb,전라북도 완주군 소양면 원대흥길 136-3,35.8835912,127.2438623
위봉폭포,전북 완주군,063-290-3930,"['관광지', '자연']",https://cdn.visitkorea.or.kr/img/call?cmd=VIEW&id=8aac243a-9bf6-4818-9bb2-369e81e92281&thumb,전라북도 완주군 소양면 대흥리,35.9037773,127.2396811
유선사(정읍),전북 정읍시,063-536-9666,"['관광지', '불교', '불교문화', '사찰', '사찰여행', '역사', '자연속으로', '자연환경']",https://cdn.visitkorea.or.kr/img/call?cmd=VIEW&id=null&thumb,전라북도 정읍시 고부면 영원로 644-224,35.6107413,126.7910259
유천서원,전북 남원시,063-620-6172,"['관광지', '역사', '역사공부', '역사관광지', '역사를품은곳', '역사문화재', '역사속']",https://cdn.visitkorea.or.kr/img/call?cmd=VIEW&id=55329973-1b4a-439e-8c10-739375a8bf23&thumb,전라북도 남원시 주생면 유매길 37,35.3838757,127.3160511
유천서원,전북 부안군,063-580-4711,"['관광지', '아이와함께', '역사', '역사공부', '역사관광지', '역사를품은곳', '역사문화재']",https://cdn.visitkorea.or.kr/img/call?cmd=VIEW&id=b013fb37-07ab-4985-8b31-a8699c685c0e&thumb,전라북도 부안군 보안면,35.6121319,126.6713092
육송사,전북 김제시,063-540-3882,"['관광지', '역사', '역사공부', '역사관광지', '역사를품은곳', '역사문화재', '역사속']",https://cdn.visitkorea.or.kr/img/call?cmd=VIEW&id=9c314411-a71f-4138-8573-6fcf64bea69a&thumb,전라북도 김제시 금산면 삼봉길 203-7,35.7314499,127.0067791
율산서원,전북 김제시,063-540-3882,"['관광지', '역사', '역사공부', '역사관광지', '역사를품은곳', '역사문화재', '역사속']",https://cdn.visitkorea.or.kr/img/call?cmd=VIEW&id=14c8f1d2-4186-4caf-92b2-353479bcf55c&thumb,전라북도 김제시 명덕1길 240-8,35.795059,126.8381742
은수사,전북 진안군,063-433-2502,"['관광지', '불교', '불교문화', '사찰', '사찰여행', '역사', '자연속으로', '자연환경']",https://cdn.visitkorea.or.kr/img/call?cmd=VIEW&id=3cda0ebb-c76b-4e3d-b38b-fed11476ffa6&thumb,전라북도 진안군 마령면 마이산남로 406,35.7594881,127.4144972
은적사(군산),전북 군산시,063-466-4525,"['관광지', '불교', '불교문화', '사찰', '사찰여행', '역사', '역사관광지', '은적사']",https://cdn.visitkorea.or.kr/img/call?cmd=VIEW&id=ac2185db-4a5a-4ef6-a5a0-a10a1a81adac&thumb,전라북도 군산시 설림3길 49,35.9748858,126.6854098
은적사(김제),전북 김제시,063-542-6308,"['관광지', '불교', '불교문화', '불교사찰', '사찰', '사찰여행', '역사', '자연환경']",https://cdn.visitkorea.or.kr/img/call?cmd=VIEW&id=debdc64d-9498-4cad-bf1a-5c65f2cd71dc&thumb,전라북도 김제시 금산면 구성3길 126-20,35.738546,127.0100716
은천계곡,전북 완주군,063-290-3930,"['관광지', '자연']",https://cdn.visitkorea.or.kr/img/call?cmd=VIEW&id=undefined&thumb,전라북도 완주군 동상면 대아리,35.9796908,127.296062
은파 물빛다리,전북 군산시,063-454-3362,"['가족여행', '관광지', '기차여행', '나들이', '데이트코스', '아이와함께', '연인과함께']",https://cdn.visitkorea.or.kr/img/call?cmd=VIEW&id=f20c10dc-d1ee-46a5-a77b-d99c7f795faf&thumb,전라북도 군산시 미룡동,35.9483234,126.6862517
은파호수공원 음악분수,전북 군산시,063-454-4896,"['가족여행', '관광지', '기차여행', '나들이', '데이트코스', '아이와함께', '연인과함께']",https://cdn.visitkorea.or.kr/img/call?cmd=VIEW&id=a9e9d448-06bb-44f7-8db6-035a72e6a74c&thumb,전라북도 군산시 미룡동,35.9483234,126.6862517
은파호수공원(은파국민관광지),전북 군산시,063-454-4896,"['가족여행', '관광지', '아이와함께', '연인과함께', '은파국민관광지', '은파호수공원']",https://cdn.visitkorea.or.kr/img/call?cmd=VIEW&id=26f5fc20-be59-4304-b1bd-9ab599701c48&thumb,전라북도 군산시 미룡동,35.9483234,126.6862517
의견비,전북 임실군,063-640-2312,"['관광지', '동상', '산책길', '산책하기', '산책하기좋은곳', '옛날이야기', '원동산 공원']",https://cdn.visitkorea.or.kr/img/call?cmd=VIEW&id=e1285149-2ad1-495b-99e3-04fbb320f71e&thumb,전라북도 임실군 오수면 오수3길 5,35.5372293,127.3292752
의사전해산 추모비,전북 장수군,063-351-2141,"['관광지', '역사', '역사공부', '역사관광지', '역사를품은곳', '역사문화재', '역사속']",https://cdn.visitkorea.or.kr/img/call?cmd=VIEW&id=ffa8109a-4996-4abd-a1c8-f2534fb30536&thumb,전라북도 장수군 번암면,35.5320003,127.5438587
이매창묘,전북 부안군,063-580-4711,"['관광지', '역사', '역사공부', '역사관광지', '역사를품은곳', '역사문화재', '역사속']",https://cdn.visitkorea.or.kr/img/call?cmd=VIEW&id=cab5307d-349d-4b63-903e-83e4566a2159&thumb,전라북도 부안군 부안읍 매창로 89,35.7193444,126.7287846
이배원 가옥,전북 익산시,063-859-5792,"['관광지', '역사', '역사공부', '역사관광지', '역사를품은곳', '역사문화재', '역사속']",https://cdn.visitkorea.or.kr/img/call?cmd=VIEW&id=ae226178-efb3-44c1-85dc-24015b2ef1c0&thumb,전라북도 익산시 함라면 천남1길 13,36.0603311,126.9102509
이병기선생 생가,전북 익산시,063-859-5792,"['관광지', '역사', '역사공부', '역사관광지', '역사를품은곳', '역사문화재', '역사속']",https://cdn.visitkorea.or.kr/img/call?cmd=VIEW&id=1ea4af29-7768-4606-95b2-1b339843eb37&thumb,전라북도 익산시 여산면 가람1길 64-8,36.0359339,127.0847586
이영춘가옥,전북 군산시,063-454-3922,"['가족여행', '관광지', '드라마촬영지', '역사', '역사공부', '역사관광지', '역사를품은곳']",https://cdn.visitkorea.or.kr/img/call?cmd=VIEW&id=8606232c-f681-4b28-9f5b-eed9dc685e22&thumb,전라북도 군산시 동개정길 7,35.9706234,126.7602242
이웅재고가,전북 임실군,063-640-2312,"['관광지', '역사', '역사공부', '역사관광지', '역사를품은곳', '역사문화재', '역사속']",https://cdn.visitkorea.or.kr/img/call?cmd=VIEW&id=204ee6b8-9fcd-4eb9-99c4-716c502a4a39&thumb,전라북도 임실군 오수면 둔덕2길 55,35.5043642,127.3168312
이임간유허비,전북 장수군,063-350-2326,"['관광지', '역사', '역사공부', '역사를품은곳', '역사문화재', '역사속', '역사속으로']",https://cdn.visitkorea.or.kr/img/call?cmd=VIEW&id=05a2397e-198d-4972-b03f-5aa5ace0d9ea&thumb,전라북도 장수군 천천면 월곡리,35.6958997,127.5332123
익산 고도리 석조여래입상,전북 익산시,063-859-5792,"['가족여행', '관광지', '보물', '역사', '역사관광지', '익산고도리석조여래입상']",https://cdn.visitkorea.or.kr/img/call?cmd=VIEW&id=20a7f98b-a5c9-4508-8f78-da53c0319a0e&thumb,전라북도 익산시 금마면 동고도리,35.9928331,127.05943
익산 구 익옥수리조합 사무실 및 창고,전북 익산시,063-859-5792,"['관광지', '역사', '역사공부', '역사를품은곳', '역사문화재', '역사속', '역사속으로']",https://cdn.visitkorea.or.kr/img/call?cmd=VIEW&id=c50f9128-1c94-49e0-ae6f-dd1e3ea88a3d&thumb,전라북도 익산시 평동로1길 28-4,35.9352692,126.9465833
익산 낭산산성,전북 익산시,063-850-4174,"['관광지', '역사', '역사공부', '역사관광지', '역사를품은곳', '역사문화재', '역사속']",https://cdn.visitkorea.or.kr/img/call?cmd=VIEW&id=2839289e-210d-46c5-9521-db2876c84a06&thumb,전라북도 익산시 낭산면 낭산리 산48,36.0569718,127.037519
익산 두여마을,전북 익산시,080-725-1100,"['가족과함께', '관광지', '농촌마을', '농촌여행', '농촌체험', '농촌체험마을', '자연마을']",https://cdn.visitkorea.or.kr/img/call?cmd=VIEW&id=91adc2ea-c9e9-45e0-be97-063af786f68a&thumb,전라북도 익산시 여산면 용기길 66,36.0761275,127.0689189
익산 미륵사지 [유네스코 세계유산],전북 익산시,063-859-3873,"['관광지', '교과서속여행', '아이와함께', '역사', '역사공부', '역사관광지', '역사를품은곳']",https://cdn.visitkorea.or.kr/img/call?cmd=VIEW&id=d34b9fd3-9abc-425d-9152-6a83b0676683&thumb,전라북도 익산시 금마면 미륵사지로 362,36.0108304,127.0282197
익산 미륵사지 당간지주,전북 익산시,063-859-5792,"['관광지', '역사', '역사공부', '역사관광지', '역사를품은곳', '역사문화재', '역사속']",https://cdn.visitkorea.or.kr/img/call?cmd=VIEW&id=cb600f27-feb3-4497-8e1a-60b19f86c187&thumb,전라북도 익산시 금마면 기양리,36.0143805,127.0235436
익산 미륵산성,전북 익산시,063-859-5792,"['관광지', '역사', '역사공부', '역사관광지', '역사를품은곳', '역사문화재', '역사속']",https://cdn.visitkorea.or.kr/img/call?cmd=VIEW&id=c9725e0b-5ea2-43b3-bf20-7451ef431799&thumb,전북 익산시 금마면 신용리,36.016237,127.0534563
익산 백제토기도요지,전북 익산시,063-859-5797,"['관광지', '역사', '역사공부', '역사관광지', '역사를품은곳', '역사문화재', '역사속']",https://cdn.visitkorea.or.kr/img/call?cmd=VIEW&id=e93f7aba-1a9b-45e8-a160-a6aa5e8acf5b&thumb,전라북도 익산시 금마면 신용리 92-2,36.0158808,127.0566262
익산 붕새언덕마을,전북 익산시,063-862-6119,"['관광지', '농촌', '농촌체험', '농촌체험학습', '농촌체험휴양마을', '시골', '시골여행']",https://cdn.visitkorea.or.kr/img/call?cmd=VIEW&id=3e5cc998-80e7-4470-baed-c8c42e063074&thumb,전라북도 익산시 웅포면 붕새1길 29-6,36.1282276,126.8982505
익산 쌍릉,전북 익산시,063-859-5792,"['관광지', '사적', '역사', '역사공부', '역사관광지', '역사를품은곳', '역사문화재']",https://cdn.visitkorea.or.kr/img/call?cmd=VIEW&id=a4d8c91a-913e-4511-82f4-363eb108e6a7&thumb,전라북도 익산시 석왕동,35.9760752,127.0238417
익산 아홉마디풀향기마을,전북 익산시,063-859-3610,"['가족체험', '관광지', '농촌', '농촌체험', '농촌체험마을', '농촌체험학습', '시골여행']",https://cdn.visitkorea.or.kr/img/call?cmd=VIEW&id=20364a1f-0b8b-42f6-9027-8f48e08741b5&thumb,전라북도 익산시 함라면 소룡길 15-14,36.0340139,126.8746724
익산 액션하우스,전북 익산시,063-861-0976,"['관광지', '동물농장', '동물체험', '액션하우스', '연인과함께', '연중무휴', '이색체험']",https://cdn.visitkorea.or.kr/img/call?cmd=VIEW&id=e76d9b05-e6cd-43c5-9057-0cd074767b1d&thumb,전라북도 익산시 금마면 금마호수길 37,36.0072752,127.0556408
익산 연동리 석조여래좌상,전북 익산시,063-859-5792,"['관광지', '불교', '불교문화', '역사', '역사공부', '역사관광지', '역사를품은곳']",https://cdn.visitkorea.or.kr/img/call?cmd=VIEW&id=28da8990-b462-4270-8d39-3ba747d33f29&thumb,전라북도 익산시 삼기면 진북로 273,36.0297943,127.0075699
익산 왕궁리 오층석탑,전북 익산시,063-859-5792,"['관광지', '국보', '역사', '역사공부', '역사관광', '역사관광지', '역사를품은곳']",https://cdn.visitkorea.or.kr/img/call?cmd=VIEW&id=440aed8f-a808-4e78-abcb-ae1a5b9f285c&thumb,전라북도 익산시 왕궁면 왕궁리,35.974286,127.0639906
익산 왕궁리유적 [유네스코 세계유산],전북 익산시,063-859-4631,"['겨울방학가볼만한곳', '관광지', '교과서속여행', '아이와함께', '여름방학가볼만한곳']",https://cdn.visitkorea.or.kr/img/call?cmd=VIEW&id=43731a66-2e65-4d2d-8530-d9c2f6f2e0e3&thumb,전라북도 익산시 왕궁면 궁성로 666,35.9713015,127.0550935
익산 입점리 고분,전북 익산시,063-859-5875,"['관광지', '사적', '역사', '역사공부', '역사관광지', '역사를품은곳', '역사속', '역사속으로']",https://cdn.visitkorea.or.kr/img/call?cmd=VIEW&id=10b00ddd-48ab-46d4-91a2-4af949ce211d&thumb,전라북도 익산시 웅포면 입점고분길 80,36.0475955,126.8732051
익산 주현동 구 일본인 농장 사무실,전북 익산시,063-859-5792,"['관광지', '교과서속여행', '구일본인농장사무실', '아이와함께', '역사', '역사공부']",https://cdn.visitkorea.or.kr/img/call?cmd=VIEW&id=13e375aa-40d8-4585-b8b2-06a4855f23bf&thumb,전라북도 익산시 중앙로4길 59,35.933228,126.9533039
익산 중앙동 구 삼산의원,전북 익산시,063-859-5792,"['관광지', '근대건축물', '근대문화예술', '근대문화유산', '역사', '역사공부', '역사를품은곳']",https://cdn.visitkorea.or.kr/img/call?cmd=VIEW&id=42d8134c-a46b-48f8-8ca5-e086eeb9d9a8&thumb,전라북도 익산시 중앙로 22-253,35.937781,126.9492563
익산 춘포리 구 일본인 농장 가옥,전북 익산시,063-0211-6964,"['관광지', '교과서속여행', '아이와함께', '역사', '역사공부', '역사관광지', '역사를품은곳']",https://cdn.visitkorea.or.kr/img/call?cmd=VIEW&id=c87dffb4-1899-422d-ae9a-a6c69c3855b5&thumb,전라북도 익산시 춘포면 춘포4길 48,35.898797,127.0059854
익산 춘포역사,전북 익산시,063-859-5792,"['관광지', '교과서속여행', '아이와함께', '역사', '역사공부', '역사문화재', '역사속']",https://cdn.visitkorea.or.kr/img/call?cmd=VIEW&id=c9c10872-5a3a-4d5a-b62b-468fbc8d7e40&thumb,전라북도 익산시 춘포면 춘포1길 17-1,35.9037922,127.0049325
익산 토성,전북 익산시,063-859-5792,"['관광지', '역사', '역사공부', '역사관광지', '역사를품은곳', '역사문화재', '역사속']",https://cdn.visitkorea.or.kr/img/call?cmd=VIEW&id=ab121462-6feb-4512-a18e-50105077e628&thumb,전북 익산시 금마면 서고도리,35.9915083,127.0422877
익산 함라마을 옛 담장,전북 익산시,063-859-5792,"['걷기좋은길', '관광지', '산책로', '산책하기', '산책하기좋은곳', '역사', '역사를품은곳']",https://cdn.visitkorea.or.kr/img/call?cmd=VIEW&id=2de91bac-ca46-4ec2-8acb-95d1157376d2&thumb,전라북도 익산시 함라면 천남1길,36.0602469,126.9104869
익산교도소세트장,전북 익산시,063-859-3836,"['가족과함께', '관광지', '남녀노소', '드라마세트장', '드라마촬영지', '사진찍기좋은곳']",https://cdn.visitkorea.or.kr/img/call?cmd=VIEW&id=5eab8c8e-64ee-4288-b49b-14ad3a29314a&thumb,전라북도 익산시 성당면 함낭로 207,36.0697958,126.9313457
익산역 (철도체험학습장),전북 익산시,063-850-2216,"['견학', '관광지', '산업관광', '안전교육', '이색체험', '익산역', '전라권', '직업체험']",https://cdn.visitkorea.or.kr/img/call?cmd=VIEW&id=57047d28-03c4-47fb-801f-7a6b5d699c6d&thumb,전라북도 익산시 익산대로 153,35.9406663,126.945799
익산제석사지,전북 익산시,063-859-5792,"['관광지', '역사', '역사공부', '역사관광지', '역사를품은곳', '역사문화재', '역사속']",https://cdn.visitkorea.or.kr/img/call?cmd=VIEW&id=e1a7710a-fa2a-4b81-8808-b79f45770e82&thumb,전라북도 익산시 왕궁면 왕궁리,35.974286,127.0639906
익산향교,전북 익산시,063-859-5792,"['관광지', '사계절', '역사', '역사공부', '역사관광지', '역사를품은곳', '역사문화재']",https://cdn.visitkorea.or.kr/img/call?cmd=VIEW&id=b481879b-c9da-4e59-ad54-a76e432ace1f&thumb,전라북도 익산시 금마면 고도7길 11-3,35.9968892,127.0585904
일광사(정읍),전북 정읍시,063-535-3380,"['관광지', '불교', '불교문화', '사찰', '사찰여행', '역사', '자연속으로', '자연환경']",https://cdn.visitkorea.or.kr/img/call?cmd=VIEW&id=null&thumb,전라북도 정읍시 성황산길 50,35.5735192,126.8566326
일제강점기 군산역사관,전북 군산시,063-467-0815,"['관광지', '역사관광지', '일제강점기 군산역사관']",https://cdn.visitkorea.or.kr/img/call?cmd=VIEW&id=e10eb479-578c-4325-9e90-bc1afbd6118c&thumb,전라북도 군산시 동국사길 21,35.9828611,126.7075107
임병찬 창의유적지,전북 정읍시,033-640-5119,"['관광지', '역사', '역사공부', '역사관광지', '역사를품은곳', '역사문화재', '역사속']",https://cdn.visitkorea.or.kr/img/call?cmd=VIEW&id=e733e062-f668-49f1-9762-e441eddac549&thumb,전라북도 정읍시 산내면 종성리,35.5274475,127.0833941
임실 대말방죽 숲(가시연꽃 자생지),전북 임실군,063-640-2312,"['관광지', '자연']",https://cdn.visitkorea.or.kr/img/call?cmd=VIEW&id=03bfd4c0-bccc-45b0-a2d2-446bddf23cd0&thumb,전북 임실군 오수면 대정리,35.5105209,127.3466848
임실 오수망루,전북 임실군,063-640-2312,"['관광지', '역사', '역사공부', '역사관광지', '역사를품은곳', '역사문화재', '역사속']",https://cdn.visitkorea.or.kr/img/call?cmd=VIEW&id=8ff93a20-9102-4aec-8e4a-f638e11e55f3&thumb,전라북도 임실군 오수면 오수로 146,35.5381001,127.3288103
임실 진구사지 석등,전북 임실군,063-640-2311,"['관광지', '역사', '역사공부', '역사관광지', '역사를품은곳', '역사문화재', '역사속']",https://cdn.visitkorea.or.kr/img/call?cmd=VIEW&id=d2ad6280-8f01-4bfc-93f8-ffda156cfc5f&thumb,전라북도 임실군 신평면 용암리,35.6428513,127.2015029
임실 치즈마을,전북 임실군,063-643-3700,"['가족과함께', '관광지', '교육여행', '아이가_좋아하는_여행', '아이와함께', '이색체험']",https://cdn.visitkorea.or.kr/img/call?cmd=VIEW&id=d5fc7992-5aea-4df4-ac47-a6bbea82e9c5&thumb,전라북도 임실군 임실읍 치즈마을1길 4,35.6362644,127.2948218
임실향교,전북 임실군,063-640-2312,"['관광지', '문화재', '역사', '역사공부', '역사관광지', '역사를품은곳', '역사문화재']",https://cdn.visitkorea.or.kr/img/call?cmd=VIEW&id=1000f160-a498-47dd-9865-2204016309fd&thumb,전라북도 임실군 임실읍 봉황7길 23,35.617095,127.2793507
임실향교 대성전,전북 임실군,063-640-2312,"['관광지', '역사', '역사공부', '역사관광지', '역사를품은곳', '역사문화재', '역사속']",https://cdn.visitkorea.or.kr/img/call?cmd=VIEW&id=3f2ba7c1-f953-413d-826c-fd4e4a0ec602&thumb,전라북도 임실군 임실읍 봉황7길 23,35.617095,127.2793507
임옥산효자비,전북 장수군,063-350-2326,"['관광지', '역사', '역사공부', '역사관광지', '역사를품은곳', '역사문화재', '역사속']",https://cdn.visitkorea.or.kr/img/call?cmd=VIEW&id=972e632c-8080-47d3-a2fd-10d1a2e3a917&thumb,전라북도 장수군 산서면 오산리,35.5967183,127.380924
임피향교,전북 군산시,063-454-3922,"['관광지', '역사', '역사관광지', '역사를품은곳', '역사문화재', '역사속', '역사속으로']",https://cdn.visitkorea.or.kr/img/call?cmd=VIEW&id=f31bb146-be08-454f-b4ec-13a76ba27617&thumb,전라북도 군산시 임피면 임피향교길 46,35.988094,126.8482753
입암산,전북 정읍시,063-538-7875,"['관광지', '자연']",https://cdn.visitkorea.or.kr/img/call?cmd=VIEW&id=undefined&thumb,전라북도 정읍시 입암면 입암로,35.4881881,126.8013002
자락정,전북 장수군,063-350-2326,"['경치좋은곳', '관광지', '역사', '역사공부', '역사관광지', '역사를품은곳', '역사문화재']",https://cdn.visitkorea.or.kr/img/call?cmd=VIEW&id=4897b443-4fbd-4977-ba5d-c1c637be266c&thumb,전라북도 장수군 장계면 삼봉리,35.7202021,127.6084611
자만마을 벽화갤러리,전북 전주시,063-282-1330,"['감성사진', '골목투어', '관광지', '남녀노소', '데이트장소추천', '사진찍기좋은곳']",https://cdn.visitkorea.or.kr/img/call?cmd=VIEW&id=4bafb84e-27ca-45ed-9756-87a54227e3ea&thumb,전라북도 전주시 완산구 교동,35.8120258,127.1659307
자명사(익산),전북 익산시,063-861-3542,"['관광지', '불교', '불교문화', '사찰', '사찰여행', '역사', '자명사', '자연속으로']",https://cdn.visitkorea.or.kr/img/call?cmd=VIEW&id=e9238784-48dd-4ef7-a093-d5e218e5fd4a&thumb,전라북도 익산시 용안면 을동길 76-12,36.1299143,126.9541002
자천대,전북 군산시,063-454-3922,"['관광지', '역사', '역사공부', '역사관광지', '역사를품은곳', '역사문화재', '역사속']",https://cdn.visitkorea.or.kr/img/call?cmd=VIEW&id=fb5e02fd-14bf-4e4b-9d1b-169aa138b35c&thumb,전라북도 군산시 옥구읍 광월길 33-50,35.9305628,126.7071797
장군목유원지,전북 순창군,063-650-1648,"['관광지', '요강바위', '자연', '장군목유원지', '전라권']",https://cdn.visitkorea.or.kr/img/call?cmd=VIEW&id=d9412f16-652b-4976-8198-d6e6423536e9&thumb,전라북도 순창군 동계면 장군목길 686-1,35.469734,127.1903663
장문리오층석탑,전북 정읍시,063-539-5184,"['관광지', '역사', '역사공부', '역사관광지', '역사를품은곳', '역사문화재', '역사속']",https://cdn.visitkorea.or.kr/img/call?cmd=VIEW&id=9ae44c42-81eb-4c0d-b8cd-f262d7f6f4a1&thumb,전라북도 정읍시 고부면 장문리,35.625447,126.783763
장선천,전북 완주군,063-290-3930,"['관광지', '자연']",https://cdn.visitkorea.or.kr/img/call?cmd=VIEW&id=a9402681-97cf-4c8e-b7f4-6ee5756c3ae4&thumb,전라북도 완주군 운주면 장성리 577,36.0924359,127.27745
장수 논개생가마을 [농촌전통테마],전북 장수군,063-353-3533,"['가족과함께', '가족체험', '관광지', '농촌체험', '농촌체험마을', '농촌체험여행']",https://cdn.visitkorea.or.kr/img/call?cmd=VIEW&id=0b35a1ef-7400-4209-9184-d42893551034&thumb,전라북도 장수군 장계면 논개생가길 21-5,35.6782997,127.6204639
장수 봉덕리 느티나무,전북 장수군,063-350-5561,"['관광지', '자연', '장수봉덕리느티나무', '전라권', '천연기념물']",https://cdn.visitkorea.or.kr/img/call?cmd=VIEW&id=79a39bd8-25b4-4e1e-b2f1-c78ba5779ef1&thumb,전라북도 장수군 천천면 고금길 48,35.7353108,127.5286263
장수 장수리 의암송,전북 장수군,063-350-5562,"['관광지', '소나무', '식물', '장수리의암송', '전라권', '천연기념물']",https://cdn.visitkorea.or.kr/img/call?cmd=VIEW&id=f60ee4e5-7aa1-4923-9ec8-59c3667c270c&thumb,전라북도 장수군 장수읍 호비로 10,35.6476851,127.521269
장수누리파크,전북 장수군,063-352-5660,"['가족과함께', '관광지', '남녀노소', '산책하기좋은곳', '아이와함께', '언택트관광지_100선']",https://cdn.visitkorea.or.kr/img/call?cmd=VIEW&id=0274187a-b66e-41d0-8ac4-20de19fd4a07&thumb,전라북도 장수군 장수읍 논개사당길 65,35.6417779,127.5284198
장수양악탑,전북 장수군,061-390-7226,"['관광지', '역사', '역사공부', '역사관광지', '역사를품은곳', '역사문화재', '역사속']",https://cdn.visitkorea.or.kr/img/call?cmd=VIEW&id=73b290ea-9f82-4e8a-9ef5-7d5ca6b525a9&thumb,전라북도 장수군 계북면 양악길 156-12,35.8037727,127.6423411
장수향교,전북 장수군,063-350-2326,"['관광지', '보물', '역사', '역사공부', '역사관광지', '역사를품은곳', '역사문화재']",https://cdn.visitkorea.or.kr/img/call?cmd=VIEW&id=7f998659-81b8-48ec-8b6c-b78c5cdb8533&thumb,전라북도 장수군 장수읍 향교길 31-14,35.6481872,127.5230959
장안산관광농원,전북 장수군,063-352-0308,"['가족과함께', '가족휴양', '관광농원', '관광지', '단체관광', '단체모임', '숙박시설']",https://cdn.visitkorea.or.kr/img/call?cmd=VIEW&id=f103c7a0-2945-488f-b776-87a22054dc16&thumb,전라북도 장수군 계남면 지소골길 126-11,35.6547961,127.5910404
장안산군립공원,전북 장수군,063-350-2445,"['가족여행', '관광지', '꽃여행', '등산', '등산로', '아이와함께', '연인과함께', '자연']",https://cdn.visitkorea.or.kr/img/call?cmd=VIEW&id=undefined&thumb,전북 장수군 계남면 장안리,35.6507086,127.593617
장원목장,전북 익산시,063-862-6693,"['가족과함께', '관광지', '교육프로그램', '낙농체험', '남녀노소', '목장체험', '목장치즈']",https://cdn.visitkorea.or.kr/img/call?cmd=VIEW&id=c267d582-69bc-4eae-b383-95ae1ef6a8d4&thumb,전라북도 익산시 웅포면 용골길 25,36.1308801,126.9093942
장자도,전북 군산시,063-454-4000,"['경치좋은곳', '관광지', '섬', '자연', '자연관광지', '자연마을', '자연발생', '자연속으로']",https://cdn.visitkorea.or.kr/img/call?cmd=VIEW&id=b559d825-766b-4957-8770-8913cbff9ae4&thumb,전라북도 군산시 옥도면 장자도1길 26-2,35.8099032,126.3965768
장자도 어촌체험마을,전북 군산시,063-445-0228,"['관광지', '바다낚시', '바다내음', '바다체험', '바다풍경', '아이와함께', '어촌']",https://cdn.visitkorea.or.kr/img/call?cmd=VIEW&id=14c989c1-4033-4b53-98f0-a922f000e9b1&thumb,전라북도 군산시 옥도면 장자도1길 26-2,35.8099032,126.3965768
장재영가옥,전북 장수군,063-350-2326,"['관광지', '역사', '역사공부', '역사관광지', '역사를품은곳', '역사문화재', '역사속']",https://cdn.visitkorea.or.kr/img/call?cmd=VIEW&id=dd44d098-a769-4356-b0a4-71b5f031a54b&thumb,전라북도 장수군 번암면 원노단길 15,35.532431,127.5427947
장철성고택,전북 김제시,063-540-3882,"['관광지', '역사', '역사공부', '역사관광지', '역사를품은곳', '역사문화재', '역사속']",https://cdn.visitkorea.or.kr/img/call?cmd=VIEW&id=8b146db0-094b-4af8-8caa-e8890eeac1da&thumb,전라북도 김제시 금구면 서도길 69,35.7704031,127.0026044
장현식고택,전북 전주시,063-281-5361,"['관광지', '역사', '역사공부', '역사관광지', '역사를품은곳', '역사문화재', '역사속']",https://cdn.visitkorea.or.kr/img/call?cmd=VIEW&id=e79b92cc-c148-4696-8eac-b55896db1ea2&thumb,전라북도 전주시 완산구 향교길 119-6,35.8124684,127.1565548
잼버리 공원,전북 부안군,063-580-4010,"['공원', '관광지', '부안군', '세계스카우트잼버리', '세계잼버리', '스카우트', '야영대회']",https://cdn.visitkorea.or.kr/img/call?cmd=VIEW&id=681bcb38-978a-4d42-8342-147eef3acccf&thumb,전라북도 부안군 하서면 백련리,35.6975486,126.6014391
저산서원(김제),전북 김제시,063-540-3882,"['관광지', '역사', '역사공부', '역사관광지', '역사를품은곳', '역사문화재', '역사속']",https://cdn.visitkorea.or.kr/img/call?cmd=VIEW&id=54c2fa32-58f5-4988-a5bb-5e21ed49254f&thumb,전라북도 김제시 공덕면 회룡길 423-6,35.8984105,126.8818865
적벽강 (전북 서해안권 국가지질공원),전북 부안군,063-580-4331,"['관광지', '교육여행', '바다경치', '바다내음', '아이와함께', '자연', '자연속으로']",https://cdn.visitkorea.or.kr/img/call?cmd=VIEW&id=03870dbc-7577-4658-aa49-5d91ceb09605&thumb,전라북도 부안군 변산면 격포리,35.6126119,126.4699182
적상산,전북 무주군,063-322-3174,"['가족여행', '걷기길', '관광지', '등산', '생태관광지', '자연', '자연좋은곳', '적상산']",https://cdn.visitkorea.or.kr/img/call?cmd=VIEW&id=9d22d6c2-d79d-4b8c-9acd-b43d6392a12f&thumb,전라북도 무주군 적상면 괴목리,35.9155505,127.7178651
적상산사고지,전북 무주군,1899-8687,"['가족여행', '관광지', '역사', '역사공부', '역사관광지', '역사를품은곳', '역사문화재']",https://cdn.visitkorea.or.kr/img/call?cmd=VIEW&id=151b62fd-f3a1-4a53-b527-6c7535971175&thumb,전라북도 무주군 적상면 산성로 960,35.9484745,127.694678
적상산성 호국사비,전북 무주군,1899-8687,"['관광지', '역사', '역사공부', '역사관광지', '역사를품은곳', '역사문화재', '역사속']",https://cdn.visitkorea.or.kr/img/call?cmd=VIEW&id=6dca2f3d-e093-4a63-867e-3aca2e1973ef&thumb,전라북도 무주군 적상면 산성로 1050,35.9447824,127.6917117
전라좌수영세트장,전북 부안군,063-580-4361,"['가족과함께', '관광지', '드라마세트장', '아이와함께', '자연친화적', '자연환경']",https://cdn.visitkorea.or.kr/img/call?cmd=VIEW&id=57cb1a07-b260-4e28-a428-9d237def980a&thumb,전라북도 부안군 변산면 궁항영상길 91,35.6097893,126.4655662
전봉준 장군 생가터,전북 고창군,063-560-2943,"['관광지', '역사', '역사공부', '역사관광지', '역사를품은곳', '역사문화재', '역사속']",https://cdn.visitkorea.or.kr/img/call?cmd=VIEW&id=f2a3cec9-27b2-4059-ab1e-026ea0b8f588&thumb,전라북도 고창군 고창읍 당촌길 41-8,35.4487098,126.6683859
전설의 쌍화차 거리,전북 정읍시,063-537-1330,"['건강식', '건강여행', '건강차', '관광지', '쌍화차거리', '음식테마거리', '전라권']",https://cdn.visitkorea.or.kr/img/call?cmd=VIEW&id=fa9f61a9-54a3-4595-93d9-20fd580b89ff&thumb,전라북도 정읍시 중앙1길 147,35.5675575,126.8566876
전주 남고산성,전북 전주시,063-222-1000,"['관광지', '역사', '역사공부', '역사관광지', '역사를품은곳', '역사문화재', '역사속']",https://cdn.visitkorea.or.kr/img/call?cmd=VIEW&id=09cae087-82e7-4c71-bb92-6eeb1ff70713&thumb,전라북도 전주시 완산구 동서학동,35.8028173,127.1575622
전주 동문예술거리,전북 전주시,063-287-2012,"['관광지', '데이트장소추천', '문화예술공간', '복합문화공간', '연인과함께', '열린문화공간']",https://cdn.visitkorea.or.kr/img/call?cmd=VIEW&id=c3050f6e-b96e-440a-8241-e4e67499e402&thumb,전라북도 전주시 완산구 현무2길 38,35.8210166,127.1497935
전주 초코파이 체험장,전북 전주시,063-287-1575,"['관광지', '산업관광', '산업관광지']",https://cdn.visitkorea.or.kr/img/call?cmd=VIEW&id=ab502417-71aa-43f6-b818-44722df0f4fa&thumb,전라북도 전주시 완산구 간납로 1,35.8173732,127.1577844
전주 풍남문,전북 전주시,063-287-6008,"['가족여행', '가족체험여행', '관광지', '교과서속여행', '아이와함께', '역사', '역사유적지']",https://cdn.visitkorea.or.kr/img/call?cmd=VIEW&id=5387012d-3ee9-470f-ae80-9e3dcac6f7c9&thumb,전라북도 전주시 완산구 풍남문3길 1,35.813494,127.1475931
전주 풍패지관,전북 전주시,063-281-5127,"['가족여행', '관광지', '보물', '역사', '전라권', '전주풍패지관']",https://cdn.visitkorea.or.kr/img/call?cmd=VIEW&id=e0666419-1487-49f1-b506-40d24b1fa4f0&thumb,전라북도 전주시 완산구 충경로 59,35.8183209,127.1452331
전주 한옥마을,전북 전주시,063-282-1330,"['관광지', '교동', '미식여행', '생태관광', '생태관광지', '슬로시티', '역사유적지']",https://cdn.visitkorea.or.kr/img/call?cmd=VIEW&id=0b21eba5-d9da-4101-bb15-9a56496e9fba&thumb,전라북도 전주시 완산구 기린대로 99,35.81859,127.153967
전주동물원,전북 전주시,063-281-6759,"['가족여행', '가족체험여행', '관광지', '당일치기여행', '동물원', '아이와함께']",https://cdn.visitkorea.or.kr/img/call?cmd=VIEW&id=a126003b-ebcb-4c59-999b-65f2f4eac4a2&thumb,전라북도 전주시 덕진구 소리로 68,35.8561158,127.1446737
전주동헌,전북 전주시,063-281-5361,"['관광지', '역사', '역사공부', '역사관광지', '역사를품은곳', '역사문화재', '역사속']",https://cdn.visitkorea.or.kr/img/call?cmd=VIEW&id=8fd16584-93d3-4f18-a9ce-a8730a6246c9&thumb,전라북도 전주시 완산구 향교길 119-6,35.8124684,127.1565548
전주목판서화체험관,전북 전주시,063-231-5694,"['가족과함께', '가족여행', '가족체험', '관광지', '목판', '아이와함께', '이색체험']",https://cdn.visitkorea.or.kr/img/call?cmd=VIEW&id=d5845f4f-70c8-48ba-ada1-4d74e0dd6e97&thumb,전라북도 전주시 완산구 전주천동로 46,35.8114477,127.1555863
전주자연생태 체험센터,전북 전주시,063-281-2676,"['관광지', '생태관광', '생태관광지', '승암산', '전라권', '전주자연생태관', '체험학습']",https://cdn.visitkorea.or.kr/img/call?cmd=VIEW&id=fe687345-921c-4edc-b47c-2054470b9ded&thumb,전라북도 전주시 완산구 바람쐬는길 21,35.8116361,127.1625488
전주전동성당,전북 전주시,063-284-3222,"['가족과함께', '관광지', '교과서속여행', '근대문화유산', '성당', '역사', '역사공부']",https://cdn.visitkorea.or.kr/img/call?cmd=VIEW&id=9f39683a-c7f6-44b2-99a8-9e3ee06e131c&thumb,전라북도 전주시 완산구 태조로 51,35.8134083,127.149495
전주전통한지원,전북 전주시,010-8959-7757,"['가족과함께', '공예', '공예체험', '공예체험', '관광지', '아이와함께', '이색체험']",https://cdn.visitkorea.or.kr/img/call?cmd=VIEW&id=df4586c7-8a35-407d-9de5-d7cac662f630&thumb,전라북도 전주시 완산구 한지길 100-10,35.8159226,127.1535239
전주한옥마을 [슬로시티],전북 전주시,063-282-1330,"['19_20한국관광100선', '2010', '가족여행', '관광시설 부문', '관광지', '미식여행']",https://cdn.visitkorea.or.kr/img/call?cmd=VIEW&id=2ec20025-d663-48eb-8f59-e77092144b69&thumb,전라북도 전주시 완산구 어진길 29,35.8175162,127.1530223
전주한옥마을 임실치즈체험장,전북 전주시,063-288-4849,"['가족과함께', '가족체험', '관광지', '아이가_좋아하는_여행', '아이와함께', '이색체험']",https://cdn.visitkorea.or.kr/img/call?cmd=VIEW&id=a0baf9a6-9ef7-4481-b05b-e819b83d7ae3&thumb,전라북도 전주시 완산구 은행로 12,35.8187827,127.1516488
전주한옥마을 전주김치문화관,전북 전주시,063-287-6300,"['가족과함께', '관광지', '교육여행', '김치', '김치박물관', '아이와함께', '이색체험']",https://cdn.visitkorea.or.kr/img/call?cmd=VIEW&id=bf9c2ada-a5c6-47ab-a639-39005ce476ec&thumb,전라북도 전주시 완산구 어진길 29,35.8175162,127.1530223
전주향교,전북 전주시,063-288-4548,"['가족여행', '관광지', '사적', '역사', '역사관광지', '역사문화재', '역사속', '역사속으로']",https://cdn.visitkorea.or.kr/img/call?cmd=VIEW&id=1b0af22d-9a14-41b9-b30f-917c6c828980&thumb,전라북도 전주시 완산구 향교길 139,35.8128303,127.1571308
정구례고가(정구례옛집),전북 김제시,063-540-3882,"['관광지', '역사', '역사공부', '역사관광지', '역사를품은곳', '역사문화재', '역사속']",https://cdn.visitkorea.or.kr/img/call?cmd=VIEW&id=0e585a10-ef09-448f-b747-7090a77dc7ed&thumb,전라북도 김제시 장화2길 150-5,35.7739497,126.8585735
정령치,전북 남원시,055-972-7771,"['관광지', '자연']",https://cdn.visitkorea.or.kr/img/call?cmd=VIEW&id=df7f73d5-748a-4bbc-adc2-cd03527f59b0&thumb,전라북도 남원시 산내면 정령치로 1523,35.3638574,127.5220679
정산사,전북 고창군,063-560-2943,"['관광지', '사당', '역사', '역사공부', '역사관광지', '역사를품은곳', '역사문화재']",https://cdn.visitkorea.or.kr/img/call?cmd=VIEW&id=615d14b9-a93d-47db-912f-caf88a6f46a1&thumb,전라북도 고창군 고창읍 월암안길 8,35.428219,126.7303676
정수사(완주),전북 완주군,063-282-5215,"['관광지', '불교', '불교문화', '사찰', '사찰여행', '역사', '자연속으로', '자연환경']",https://cdn.visitkorea.or.kr/img/call?cmd=VIEW&id=6cc6c6e1-113e-46df-8105-37eb5f410c25&thumb,전라북도 완주군 상관면 정수사길 18,35.7831895,127.2533857
정읍 내장산 관광특구,전북 정읍시,063-539-5193,"['가족여행', '관광지', '관광특구', '자연', '자연관광지', '자연좋은곳', '자연환경']",https://cdn.visitkorea.or.kr/img/call?cmd=VIEW&id=4f30d7e7-d027-4652-b519-d6cb25f13ec2&thumb,전라북도 정읍시 내장동,35.4954377,126.9138423
정읍 보화리 석조이불입상,전북 정읍시,063-539-5184,"['관광지', '보물', '석불입상', '역사', '역사공부', '역사관광지', '역사를품은곳']",https://cdn.visitkorea.or.kr/img/call?cmd=VIEW&id=bee09d40-d9ef-4edb-a633-af32f5332db3&thumb,전라북도 정읍시 소성면 보화리 116,35.5592362,126.7772921
정읍 은선리 삼층석탑,전북 정읍시,063-539-5184,"['관광지', '역사', '역사관광지']",https://cdn.visitkorea.or.kr/img/call?cmd=VIEW&id=a6a4e80e-2326-438e-8f75-0f2cfd1de090&thumb,전라북도 정읍시 영원면 은선리 43,35.6436278,126.793704
정읍 전봉준 유적,전북 정읍시,063-539-5189,"['관광지', '문화재', '역사', '역사공부', '역사관광지', '역사를품은곳', '역사문화재']",https://cdn.visitkorea.or.kr/img/call?cmd=VIEW&id=541452c7-8e16-40fb-ada6-55d135bd4a28&thumb,전라북도 정읍시 이평면 조소1길 20,35.670958,126.8145863
정읍 피향정,전북 정읍시,063-539-5184,"['가족여행', '관광지', '문화재', '보물', '역사', '역사공부', '역사관광지', '역사를품은곳']",https://cdn.visitkorea.or.kr/img/call?cmd=VIEW&id=e17fca91-6b5d-48c4-a4e7-b24783e35de2&thumb,전라북도 정읍시 태인면 태산로 2951,35.6511974,126.9431007
정읍 황토현 전적,전북 정읍시,063-536-2310,"['가족여행', '관광지', '교과서속여행', '아이와함께', '역사', '역사공부', '역사관광지']",https://cdn.visitkorea.or.kr/img/call?cmd=VIEW&id=e11f47e8-f8d1-4508-91c6-61e8caf5fa35&thumb,전라북도 정읍시 덕천면 하학리,35.6226116,126.8043021
정읍김동수씨가옥,전북 정읍시,063-539-5184,"['관광지', '교과서속여행', '김동수씨가옥', '문화재', '역사', '역사공부', '역사관광지']",https://cdn.visitkorea.or.kr/img/call?cmd=VIEW&id=acac49cd-4c52-483c-ad3c-05d5c26539ac&thumb,전라북도 정읍시 산외면 공동길 72-10,35.615856,127.0194492
정읍사문화공원,전북 정읍시,063-536-6776,"['공원', '관광지', '산책길', '산책하기', '산책하기좋은곳', '아이와함께', '자연좋은곳']",https://cdn.visitkorea.or.kr/img/call?cmd=VIEW&id=96c4ca57-6682-41fc-8c33-a30822071959&thumb,전라북도 정읍시 시기동,35.5563834,126.8555354
정읍어린이교통공원,전북 정읍시,063-531-7870,"['관광지', '교과서속여행', '교육여행', '교육프로그램', '교통안전', '사계절', '아이와함께']",https://cdn.visitkorea.or.kr/img/call?cmd=VIEW&id=adaaccd4-7d95-46f9-ac7c-d0e10c07b969&thumb,전라북도 정읍시 벚꽃로 537,35.5559628,126.8694779
정읍향교,전북 정읍시,063-539-5184,"['가족여행', '관광지', '교과서속여행', '아이와함께', '역사', '역사공부', '역사관광지']",https://cdn.visitkorea.or.kr/img/call?cmd=VIEW&id=0687f251-ff93-4687-8dd9-7a99e0bdcdbb&thumb,전라북도 정읍시 충정로 184,35.5669259,126.8605133
정인승유허비,전북 장수군,063-352-3077,"['관광지', '역사', '역사공부', '역사를품은곳', '역사속', '역사속으로', '역사유적']",https://cdn.visitkorea.or.kr/img/call?cmd=VIEW&id=e7e88110-1aa4-418a-86e5-f2fc803e2f39&thumb,전라북도 장수군 계북면 양악길 119,35.805556,127.6382557
정토사(정읍),전북 정읍시,063-537-9222,"['관광지', '불교', '불교문화', '사찰', '사찰여행', '역사', '자연속으로', '자연환경']",https://cdn.visitkorea.or.kr/img/call?cmd=VIEW&id=f3bb9b7a-3a69-4814-94fc-a25a3eddbedd&thumb,전라북도 정읍시 정우면 정신로 832-20,35.658413,126.8883099
정혜사(전주),전북 전주시,063-284-3732,"['관광지', '불교', '불교문화', '사찰', '사찰여행', '역사', '연중무휴', '자연속으로']",https://cdn.visitkorea.or.kr/img/call?cmd=VIEW&id=fe00bc27-b66b-479f-a2a1-b819c58b500f&thumb,전라북도 전주시 완산구 외칠봉1길 36,35.8045157,127.1390721
정혜사(정읍),전북 정읍시,063-535-0988,"['관광지', '불교', '불교문화', '사찰', '사찰여행', '역사', '자연속으로', '자연환경']",https://cdn.visitkorea.or.kr/img/call?cmd=VIEW&id=null&thumb,전라북도 정읍시 죽림2길 28,35.564658,126.8452467
조경단,전북 전주시,063-281-5361,"['관광지', '역사', '역사공부', '역사관광지', '역사를품은곳', '역사문화재', '역사속']",https://cdn.visitkorea.or.kr/img/call?cmd=VIEW&id=854bdf24-fe22-4e18-b7ba-e2586c506f41&thumb,전라북도 전주시 덕진구 덕진동,35.845357,127.1207252
조앙사,전북 김제시,063-542-5585,"['관광지', '불교', '불교문화', '사찰', '사찰여행', '역사', '자연속으로', '자연환경']",https://cdn.visitkorea.or.kr/img/call?cmd=VIEW&id=71916236-9b0b-4dd4-ac08-c2e6fabf12e2&thumb,전라북도 김제시 만경읍 화포3길 63-12,35.8864242,126.8036539
조해영가옥,전북 익산시,063-859-5792,"['관광지', '역사', '역사공부', '역사관광지', '역사를품은곳', '역사문화재', '역사속']",https://cdn.visitkorea.or.kr/img/call?cmd=VIEW&id=588bfdd0-2e14-4e6c-a18e-0ecab2074771&thumb,전라북도 익산시 함라면 수동길 8,36.0612814,126.9105952
종남산,전북 완주군,063-290-3930,"['관광지', '자연']",https://cdn.visitkorea.or.kr/img/call?cmd=VIEW&id=undefined&thumb,전라북도 완주군 소양면 대흥리,35.9037773,127.2396811
주암서원,전북 임실군,063-640-2312,"['관광지', '역사', '역사공부', '역사관광지', '역사를품은곳', '역사문화재', '역사속']",https://cdn.visitkorea.or.kr/img/call?cmd=VIEW&id=4dde9463-4eb0-4a92-a6a0-3103573060d6&thumb,전라북도 임실군 지사면 방계3길 46-1,35.5656131,127.3545436
주진천,전북 고창군,063-560-5957,"['관광지', '자연']",https://cdn.visitkorea.or.kr/img/call?cmd=VIEW&id=cc9f5211-527a-49a8-9170-d326247547c1&thumb,전라북도 고창군 아산면 주진리,35.434515,126.6159377
주천서원,전북 진안군,063-430-2382,"['관광지', '역사', '역사공부', '역사관광지', '역사를품은곳', '역사문화재', '역사속']",https://cdn.visitkorea.or.kr/img/call?cmd=VIEW&id=c0da9fdf-87d1-4dee-ba23-a61eaeccf963&thumb,전라북도 진안군 주천면 금평1길 30-7,35.9747629,127.4303345
죽계서원(무주),전북 무주군,063-320-2542,"['관광지', '역사', '역사공부', '역사관광지', '역사를품은곳', '역사문화재', '역사속']",https://cdn.visitkorea.or.kr/img/call?cmd=VIEW&id=288baff5-064c-4260-92c2-eeb380cab7d8&thumb,전라북도 무주군 안성면 평장길 79,35.8455917,127.6450239
죽도(진안),전북 진안군,063-430-2605,"['관광지', '자연', '전라권', '진안죽도', '풍경여행']",https://cdn.visitkorea.or.kr/img/call?cmd=VIEW&id=b6941692-ce9d-42ce-9f52-f6954d45fca8&thumb,전라북도 진안군 상전면 죽도길,35.830336,127.5103121
죽도마을,전북 고창군,063-563-8531,"['관광지', '자연']",https://cdn.visitkorea.or.kr/img/call?cmd=VIEW&id=feaa005d-58e5-42a6-947e-b45557c026ab&thumb,전라북도 고창군 부안면 봉암리 683,35.5714795,126.5888576
죽림암(임실),전북 임실군,063-642-3270,"['관광지', '불교', '불교문화', '사찰', '사찰여행', '역사', '자연속으로', '자연환경']",https://cdn.visitkorea.or.kr/img/call?cmd=VIEW&id=0481b7ce-b073-479d-8db8-2f5107be58a3&thumb,전라북도 임실군 임실읍 호반로 79-53,35.6167794,127.2697435
죽림정사(백용성 조사 탄생성지),전북 장수군,063-353-0109,"['관광지', '불교', '불교사찰', '사찰', '사찰여행', '역사', '자연속으로', '자연좋은곳']",https://cdn.visitkorea.or.kr/img/call?cmd=VIEW&id=70ae27bd-9b31-4650-bb72-18355e943525&thumb,전라북도 장수군 번암면 죽림2길 31,35.5396266,127.5413698
죽림폭포공원,전북 정읍시,063-539-5772,"['걷기길', '경치좋은곳', '공원', '관광지', '등산', '등산로', '산책길', '산책코스']",https://cdn.visitkorea.or.kr/img/call?cmd=VIEW&id=dd54d2d5-aab7-4117-aa3a-bb33a0bd1b80&thumb,전라북도 정읍시 천변로 176,35.5603566,126.8519352
줄포만 갯벌생태공원,전북 부안군,063-580-3171,"['가족과함께', '걷기길', '관광지', '데이트코스', '생태관광', '연인과함께', '자연']",https://cdn.visitkorea.or.kr/img/call?cmd=VIEW&id=8ea3cf94-c905-40ca-95f4-b2f807630c0e&thumb,전라북도 부안군 줄포면 생태공원로 38,35.5795477,126.6664971
줄포만갯벌생태공원,전북 부안군,063-580-3175,"['갯벌생태공원', '걷기길', '관광지', '부안줄포만', '생태관광', '생태관광지', '전라권']",https://cdn.visitkorea.or.kr/img/call?cmd=VIEW&id=82891ea0-0996-430c-af65-be05d2d19169&thumb,전라북도 부안군 줄포면 생태공원로 38,35.5795477,126.6664971
지리산 매동마을,전북 남원시,063-636-6300,"['관광지', '농촌체험', '둘레길', '산책하기좋은곳', '이색체험', '자연마을', '자연속으로']",https://cdn.visitkorea.or.kr/img/call?cmd=VIEW&id=cf7556d5-9e57-4df5-8639-0ee28b4712f5&thumb,전라북도 남원시 산내면 매동길 16-4,35.4246266,127.6260911
지리산 반야봉,전북 남원시,063-630-8900,"['관광지', '자연']",https://cdn.visitkorea.or.kr/img/call?cmd=VIEW&id=28ef2bf8-853d-43d2-85c0-03945500c60e&thumb,전라북도 남원시 산내면,35.4191955,127.6232065
지리산 북부 국립공원,전북 남원시,063-630-8901,"['걷기길', '걷기길', '관광지', '구례', '국립공원', '남원', '노고단', '반야봉', '산청']",https://cdn.visitkorea.or.kr/img/call?cmd=VIEW&id=8d1a5125-8a3c-46bf-8a53-a4a6ea4600f5&thumb,전라북도 남원시 주천면 정령치로 255,35.3894042,127.4615046
지리산 원천마을(남원),전북 남원시,063-636-2032,"['관광지', '원천마을', '자연마을', '자연속으로', '자연여행', '자연좋은곳', '자연풍경']",https://cdn.visitkorea.or.kr/img/call?cmd=VIEW&id=a02efa5c-3ddd-45f6-979b-b667488edea2&thumb,전라북도 남원시 산내면 산내원천길 33,35.4121331,127.6162667
지리산 천년송,전북 남원시,063-620-6171,"['관광지', '역사', '자연', '자연유산', '전라권', '지리산천년송', '천연기념물']",https://cdn.visitkorea.or.kr/img/call?cmd=VIEW&id=b16b0514-9798-45e0-8133-3ba2419a85d7&thumb,전라북도 남원시 산내면 와운길 255,35.3628538,127.5925994
지리산 허브밸리,전북 남원시,063-625-0625,"['감성사진', '관광지', '남녀노소', '데이트장소추천', '사진찍기', '사진찍기좋은곳']",https://cdn.visitkorea.or.kr/img/call?cmd=VIEW&id=900039c9-2262-4f80-baf9-05244dcdee43&thumb,전라북도 남원시 운봉읍 바래봉길 214,35.4349278,127.5485758
지리산국립공원(남원),전북 남원시,063-630-8900,"['가족여행', '관광지', '등산', '생태관광지', '자연', '전라권', '지리산국립공원(남원)']",https://cdn.visitkorea.or.kr/img/call?cmd=VIEW&id=6ec44801-68ce-4166-82e5-97d0c6cc2174&thumb,전라북도 남원시 산내면 와운길 10,35.3715532,127.5786649
지사면 고인돌군,전북 임실군,063-640-2315,"['관광지', '역사', '역사공부', '역사를품은곳', '역사문화재', '역사속', '역사속으로']",https://cdn.visitkorea.or.kr/img/call?cmd=VIEW&id=f66ab28a-49e0-47fb-a610-3188ebc9eb23&thumb,전라북도 임실군 지사면 계산리,35.5594898,127.3422342
지선당,전북 진안군,063-430-2382,"['관광지', '역사', '역사공부', '역사관광지', '역사를품은곳', '역사문화재', '역사속']",https://cdn.visitkorea.or.kr/img/call?cmd=VIEW&id=06520d47-9440-4c59-ad2c-42a63d2c531d&thumb,전라북도 진안군 동향면 내금2길 70,35.8475744,127.590797
지음서원,전북 김제시,063-540-3882,"['관광지', '역사', '역사공부', '역사관광', '역사관광지', '역사를품은곳', '역사문화재']",https://cdn.visitkorea.or.kr/img/call?cmd=VIEW&id=4b44b9a1-be8a-4059-a1bd-022e85bcf727&thumb,전라북도 김제시 진멀길 134-7,35.8176795,126.8834524
지지계곡,전북 장수군,063-350-2511,"['관광지', '자연']",https://cdn.visitkorea.or.kr/img/call?cmd=VIEW&id=undefined&thumb,전북 장수군 번암면 지지리 438-3,35.5987321,127.5946904
직소폭포 (전북 서해안권 국가지질공원),전북 부안군,063-580-4331,"['관광지', '자연']",https://cdn.visitkorea.or.kr/img/call?cmd=VIEW&id=0583aa5f-d6fb-44ae-8806-4c4412b73db1&thumb,전라북도 부안군 변산면 실상길 62,35.6409776,126.5802845
진안 감동마을,전북 진안군,063-433-2652,"['경치좋은곳', '관광지', '산책길', '산책하기', '산책하기좋은곳', '자연마을', '자연좋은곳']",https://cdn.visitkorea.or.kr/img/call?cmd=VIEW&id=b0281c63-8ca2-4fe7-8f11-a5d468685330&thumb,전라북도 진안군 용담면,35.9660576,127.5203765
진안 능길마을,전북 진안군,063-432-0367,"['관광지', '농촌마을', '농촌여행', '농촌체험', '농촌체험마을', '농촌체험여행']",https://cdn.visitkorea.or.kr/img/call?cmd=VIEW&id=95d32f07-4900-49f3-b627-6d956c0914b3&thumb,전라북도 진안군 동향면 능금로 193,35.8596254,127.590889
진안 마이산 줄사철나무 군락,전북 진안군,063-430-2651,"['관광지', '마이산줄사철나무군락', '자연', '전라권', '천연기념물']",https://cdn.visitkorea.or.kr/img/call?cmd=VIEW&id=ec1cfefd-899d-4acc-a9bd-c0d346e38d18&thumb,전라북도 진안군 마령면 마이산남로 367,35.7584764,127.411269
진안 배넘실마을,전북 진안군,063-430-8261,"['경치좋은곳', '관광지', '농촌마을', '농촌여행', '자연관광지', '자연마을', '자연좋은곳']",https://cdn.visitkorea.or.kr/img/call?cmd=VIEW&id=3e3b8099-2f1f-4436-a62e-ea0ec4825e5c&thumb,전라북도 진안군 상전면 금지2길 4-3,35.8605251,127.4754011
진안 웅치골마을,전북 진안군,063-430-8341,"['관광지', '농촌', '농촌길', '농촌여행코스', '농촌체험', '농촌체험마을', '농촌체험여행']",https://cdn.visitkorea.or.kr/img/call?cmd=VIEW&id=2b5177a1-8149-4f6c-a092-90e8a5784815&thumb,전라북도 진안군 부귀면 옛웅치길 42,35.8096905,127.3155438
진안 원촌마을,전북 진안군,063-652-6301,"['가족여행', '간판', '관광지', '농촌마을', '농촌여행', '산책하기좋은곳', '시골여행']",https://cdn.visitkorea.or.kr/img/call?cmd=VIEW&id=8bf2caa4-0b7d-459a-a193-2ec4dca84f5e&thumb,전라북도 진안군 백운면 임진로 1326-13,35.6907531,127.3982489
진안 은수사 청실배나무,전북 진안군,063-430-2651,"['관광지', '은수사', '자연', '전라권', '진안은수사청실배나무', '천연기념물']",https://cdn.visitkorea.or.kr/img/call?cmd=VIEW&id=2f011f57-5460-4150-a609-464d16c51f08&thumb,전라북도 진안군 마령면 마이산남로 406,35.7594881,127.4144972
진안 평지리 이팝나무 군,전북 진안군,063-430-2321,"['관광지', '자연', '전라권', '진안평지리이팝나무', '천연기념물']",https://cdn.visitkorea.or.kr/img/call?cmd=VIEW&id=0030fd8c-f6d6-48a1-833c-f5ce21ba2e69&thumb,전라북도 진안군 마령면 임진로 2122,35.7354689,127.3699825
진안 홍삼스파,전북 진안군,1588-7597,"['가족과함께', '관광지', '스파', '아이와함께', '진안가볼만한곳', '진안홍삼', '진안홍삼스파']",https://cdn.visitkorea.or.kr/img/call?cmd=VIEW&id=52f7afc2-f448-47ef-957f-6877a54f09bb&thumb,전라북도 진안군 진안읍 외사양길 16-10,35.7767445,127.4168063
진안향교,전북 진안군,063-430-2382,"['관광지', '역사', '역사공부', '역사관광지', '역사를품은곳', '역사문화재', '역사속']",https://cdn.visitkorea.or.kr/img/call?cmd=VIEW&id=53ecdf3a-dfdc-43f7-87a1-91f8e8912fb7&thumb,전라북도 진안군 진안읍 향교길 13-6,35.7939633,127.4268762
진포대첩 기념탑,전북 군산시,063-453-4986,"['관광지', '교과서속여행', '아이와함께', '역사공부', '역사를품은곳', '역사속']",https://cdn.visitkorea.or.kr/img/call?cmd=VIEW&id=4df91247-9f92-493e-8974-be1e3a89745e&thumb,전라북도 군산시 성산면 강변로 477,36.0112627,126.756237
진포시비공원,전북 군산시,063-454-2985,"['걷기길', '관광지', '교과서속여행', '산책길', '산책하기', '산책하기좋은곳', '아이와함께']",https://cdn.visitkorea.or.kr/img/call?cmd=VIEW&id=4d2d00c8-4241-439f-97e1-20087b02feb9&thumb,전라북도 군산시 내흥동,35.9973381,126.7586379
진포해양테마공원,전북 군산시,063-454-7873,"['관광지', '교과서속여행', '산책하기좋은곳', '아이와함께', '역사공부', '역사속']",https://cdn.visitkorea.or.kr/img/call?cmd=VIEW&id=352d2eb7-4428-4664-baac-c81cb3a08528&thumb,전라북도 군산시 내항1길 12,35.9902016,126.7152852
진흥굴,전북 고창군,063-560-8681,"['관광지', '역사', '자연', '전라권', '진흥굴']",https://cdn.visitkorea.or.kr/img/call?cmd=VIEW&id=12f7a219-8b23-4173-a82f-d52b348fbba3&thumb,전라북도 고창군 아산면 선운사로 250,35.4969385,126.5782255
참당암(고창),전북 고창군,063-563-3440,"['관광지', '불교', '불교문화', '사찰', '사찰여행', '역사', '연중무휴', '자연속으로']",https://cdn.visitkorea.or.kr/img/call?cmd=VIEW&id=610ce427-4331-424a-a4d8-7a2b48129d94&thumb,전라북도 고창군 아산면 도솔길 194-77,35.492878,126.5637497
창계서원,전북 장수군,061-390-7226,"['관광지', '역사', '역사공부', '역사관광지', '역사를품은곳', '역사문화재', '역사속']",https://cdn.visitkorea.or.kr/img/call?cmd=VIEW&id=841849ef-290d-41b6-98c9-2c197ff582dc&thumb,전라북도 장수군 장수읍 양선길 33-6,35.6635517,127.5237865
창덕리 남근석,전북 순창군,061-749-4465,"['관광지', '역사', '역사공부', '역사관광지', '역사를품은곳', '역사문화재', '역사속']",https://cdn.visitkorea.or.kr/img/call?cmd=VIEW&id=7b7cb723-0f37-4b02-bf7b-f577fec01fc2&thumb,전라북도 순창군 팔덕면 창덕리,35.3713299,127.0740691
창덕암(남원),전북 남원시,063-626-2217,"['관광지', '불교', '불교문화', '사찰', '사찰여행', '역사', '자연속으로', '자연환경']",https://cdn.visitkorea.or.kr/img/call?cmd=VIEW&id=null&thumb,전라북도 남원시 산동면 중절길,35.482182,127.4816485
창동서원,전북 정읍시,063-539-5184,"['관광지', '역사', '역사공부', '역사관광지', '역사를품은곳', '역사문화재', '역사속']",https://cdn.visitkorea.or.kr/img/call?cmd=VIEW&id=11a18cfa-0812-4a8f-904e-59f5467d3025&thumb,전라북도 정읍시 이평면 창골길 38-27,35.6551488,126.8113458
창원정씨종가,전북 장수군,063-350-5542,"['관광지', '역사', '역사공부', '역사관광지', '역사를품은곳', '역사문화재', '역사속']",https://cdn.visitkorea.or.kr/img/call?cmd=VIEW&id=43218ece-465a-4804-9942-d481acaeac95&thumb,전라북도 장수군 산서면 서원길 16,35.5655512,127.39529
창주서원,전북 남원시,063-620-6172,"['관광지', '역사', '역사공부', '역사관광지', '역사를품은곳', '역사문화재', '역사속']",https://cdn.visitkorea.or.kr/img/call?cmd=VIEW&id=893a9ada-e7bf-4152-9e42-8ab5d8448177&thumb,전라북도 남원시 춘향로 64,35.4209267,127.3952418
창포마을,전북 완주군,063-261-7373,"['가족과함께', '관광지', '농촌', '농촌마을', '농촌여행', '농촌체험', '농촌체험마을']",https://cdn.visitkorea.or.kr/img/call?cmd=VIEW&id=b51f62ef-8b94-4d03-9491-1a1019947d87&thumb,전라북도 완주군 고산면 대아저수로 385,35.9872433,127.2589071
채계산,전북 순창군,063-650-1648,"['관광지', '자연']",https://cdn.visitkorea.or.kr/img/call?cmd=VIEW&id=10d949c7-87e3-464d-8d4c-3d3cd8e4f2c5&thumb,전라북도 순창군 적성면 담순로 2172-33,35.4012244,127.226091
채석강 (전북 서해안권 국가지질공원),전북 부안군,063-580-4331,"['가족여행', '관광지', '국가지질공원', '바다풍경', '부안채석강', '연중무휴', '자연']",https://cdn.visitkorea.or.kr/img/call?cmd=VIEW&id=46799820-b787-4014-bf62-32b460095b85&thumb,전라북도 부안군 변산면 격포리,35.6126119,126.4699182
천곡사지 칠층석탑,전북 정읍시,063-539-5184,"['관광지', '역사', '역사공부', '역사관광지', '역사를품은곳', '역사문화재', '역사속']",https://cdn.visitkorea.or.kr/img/call?cmd=VIEW&id=26f147c0-ee4f-4e67-b88d-b3039579d74a&thumb,전라북도 정읍시 망제천곡길,35.6173595,126.8302112
천곡서원,전북 완주군,063-290-2605,"['관광지', '역사', '역사공부', '역사관광지', '역사를품은곳', '역사문화재', '역사속']",https://cdn.visitkorea.or.kr/img/call?cmd=VIEW&id=ada404e9-76a2-4aea-8303-1a1a7de2ac99&thumb,전라북도 완주군 화산면 화산남로 52-32,36.0036914,127.227144
천국사(김제),전북 김제시,063-548-0875,"['관광지', '불교', '불교문화', '사찰', '사찰여행', '역사', '자연속으로', '자연좋은곳']",https://cdn.visitkorea.or.kr/img/call?cmd=VIEW&id=b2acf354-3110-4c71-95d1-e8ef111aa717&thumb,전라북도 김제시 금산면 청도4길 143-28,35.7358597,127.0550917
천등산,전북 완주군,063-290-3930,"['관광지', '자연']",https://cdn.visitkorea.or.kr/img/call?cmd=VIEW&id=undefined&thumb,전라북도 완주군 운주면 산복리,36.109414,127.3329433
천마봉,전북 고창군,063-560-8681,"['관광지', '산', '자연', '전라권', '전망좋은곳', '천마봉', '풍경좋은곳']",https://cdn.visitkorea.or.kr/img/call?cmd=VIEW&id=665ca76a-2954-4eb7-aec5-df5989f5705f&thumb,전라북도 고창군 아산면 삼인리,35.4808027,126.5703443
천반산,전북 장수군,063-350-2413,"['관광지', '자연']",https://cdn.visitkorea.or.kr/img/call?cmd=VIEW&id=4cd1cc27-ae3f-480d-8d73-a37512253321&thumb,전라북도 장수군 천천면 연평리,35.7974313,127.5307643
천양정,전북 전주시,063-281-5361,"['관광지', '역사', '역사를품은곳', '역사문화재', '역사속', '역사속으로', '역사유적']",https://cdn.visitkorea.or.kr/img/call?cmd=VIEW&id=6412acb6-f6b3-44cd-a8fa-233fb49d6d1f&thumb,전라북도 전주시 완산구 전주천서로 237,35.8154323,127.1379263
천일폭포,전북 무주군,063-322-3174,"['관광지', '자연']",https://cdn.visitkorea.or.kr/img/call?cmd=VIEW&id=ca1b5ac5-4792-48f9-9936-47f01306c3f0&thumb,전라북도 무주군 적상면 산성로,35.9716333,127.6932819
천호성지,전북 완주군,063-263-1004,"['관광지', '역사', '역사공부', '역사를품은곳', '역사문화재', '역사속', '역사속으로']",https://cdn.visitkorea.or.kr/img/call?cmd=VIEW&id=null&thumb,전라북도 완주군 비봉면 천호성지길 124,36.0380317,127.1304799
천황사(진안),전북 진안군,063-432-6161,"['관광지', '역사', '역사공부', '역사관광지', '역사를품은곳', '역사문화재', '역사속']",https://cdn.visitkorea.or.kr/img/call?cmd=VIEW&id=1d8fa387-67d4-4c82-a692-8a958a58a70d&thumb,전라북도 진안군 정천면 수암길 54,35.905173,127.4318584
천황산(만행산),전북 남원시,063-620-4009,"['관광지', '자연']",https://cdn.visitkorea.or.kr/img/call?cmd=VIEW&id=undefined&thumb,전라북도 남원시 산동면 만행산길,35.5287629,127.4704665
청계서원(부안),전북 부안군,063-580-4711,"['관광지', '역사', '역사공부', '역사관광지', '역사문화재', '역사속', '역사속으로']",https://cdn.visitkorea.or.kr/img/call?cmd=VIEW&id=fc81cb3e-38bd-41ca-8071-3d0c683e413e&thumb,전라북도 부안군 상서면 구청등길 49,35.6713082,126.6807192
청룡사(김제),전북 김제시,063-548-7735,"['관광지', '불교', '불교문화', '사찰', '사찰여행', '역사', '자연속으로', '자연환경']",https://cdn.visitkorea.or.kr/img/call?cmd=VIEW&id=c2d5ffe0-178e-4dd5-a0cd-34e8376f3bf0&thumb,전라북도 김제시 금산면 모악15길 80-122,35.7196985,127.0653922
청림리 석불좌상,전북 부안군,053-538-3871,"['관광지', '불교문화', '역사', '역사를품은곳', '역사문화재', '역사속', '역사속으로']",https://cdn.visitkorea.or.kr/img/call?cmd=VIEW&id=af91785b-1ab6-4f7a-a897-26b9f16b7eb9&thumb,전라북도 부안군 상서면 개암로 248,35.662564,126.6496961
청메골 선산마을,전북 고창군,063-560-8055,"['고창청보리밭', '고창청보리밭축제', '관광지', '농촌체험학습', '연인과함께']",https://cdn.visitkorea.or.kr/img/call?cmd=VIEW&id=8c058e91-afcb-46ff-b10f-3f5de7003a87&thumb,전라북도 고창군 공음면 학원농장길 158-6,35.3763158,126.5428108
청소년 문화의거리,전북 전주시,063-241-6949,"['가족여행', '관광지', '전라권', '청소년문화의거리', '체험']",https://cdn.visitkorea.or.kr/img/call?cmd=VIEW&id=f044bacb-5c0f-4d22-bf50-8fe786838596&thumb,전라북도 전주시 완산구 전주객사5길 일대,35.8184408,127.1453629
청운사(김제),전북 김제시,063-543-1248,"['관광지', '불교', '불교문화', '사찰', '사찰여행', '역사', '자연속으로', '자연환경']",https://cdn.visitkorea.or.kr/img/call?cmd=VIEW&id=116ca757-1525-4f8c-8efd-16f4eb43b846&thumb,전라북도 김제시 청하면 청공로 185-80,35.8928755,126.8471583
청하서원,전북 전주시,063-281-5361,"['가족여행', '관광지', '아이와함께', '역사', '역사공부', '역사관광지', '역사를품은곳']",https://cdn.visitkorea.or.kr/img/call?cmd=VIEW&id=8216baaa-95ce-49b1-a8cf-9c618b203daf&thumb,전라북도 전주시 완산구 중인1길 272,35.7573812,127.0850557
청호저수지,전북 부안군,063-580-8617,"['경치좋은곳', '관광지', '낚시', '자연', '자연좋은곳', '전라권', '철새도래지', '청호저수지']",https://cdn.visitkorea.or.kr/img/call?cmd=VIEW&id=e231db4a-5c70-4e6a-bbb3-48d14072ff9b&thumb,전북 부안군 하서면 청호리,35.7334217,126.6525107
초원사진관,전북 군산시,063-453-4986,"['8월의크리스마스', 'SNS감성사진', '감성사진', '관광지', '군산가볼만한곳']",https://cdn.visitkorea.or.kr/img/call?cmd=VIEW&id=7acf5453-148d-4b4e-a053-df3ab7a6697b&thumb,전라북도 군산시 구영2길 12-1,35.9877131,126.7083936
최호장군유지,전북 군산시,063-454-3922,"['관광지', '아이와함께', '역사', '역사공부', '역사관광지', '역사를품은곳', '역사문화재']",https://cdn.visitkorea.or.kr/img/call?cmd=VIEW&id=5a45eaac-1713-4e9f-ab5b-26b84dce7741&thumb,전라북도 군산시 개정면 원발산길 33-2,35.9684217,126.795266
추령천,전북 순창군,063-650-1648,"['관광지', '자연', '전라권', '추령천', '풍경여행']",https://cdn.visitkorea.or.kr/img/call?cmd=VIEW&id=af15c649-7a1b-46b3-9cfc-5a0adc5df587&thumb,전라북도 순창군 복흥면 석보리,35.4651644,126.9885887
추수경장군묘역,전북 완주군,063-290-2605,"['관광지', '역사', '역사공부', '역사관광지', '역사를품은곳', '역사문화재', '역사속']",https://cdn.visitkorea.or.kr/img/call?cmd=VIEW&id=0aecf9db-3da5-4d1d-adeb-6caf06230168&thumb,전라북도 완주군 봉동읍 추동안길 14-7,35.9596649,127.1523363
춘향사당,전북 남원시,063-625-4861,"['가족여행', '관광지', '교과서속여행', '아이와함께', '역사', '역사공부', '역사관광지']",https://cdn.visitkorea.or.kr/img/call?cmd=VIEW&id=6f82a949-8b83-4972-8f23-0c079ba8f7eb&thumb,전라북도 남원시 요천로 1447,35.4032881,127.3794357
춘향테마파크,전북 남원시,063-620-5799,"['가족과함께', '관광지', '남녀노소', '남원가볼만한곳', '드라마세트장', '아이와함께']",https://cdn.visitkorea.or.kr/img/call?cmd=VIEW&id=a05af5ac-4fae-408b-829f-4cd1ed46d829&thumb,전라북도 남원시 양림길 14-9,35.4016267,127.3867338
춘향허브마을,전북 남원시,063-626-2111,"['가족체험', '관광지', '농촌마을', '농촌체험', '농촌체험마을', '아이와함께', '자연마을']",https://cdn.visitkorea.or.kr/img/call?cmd=VIEW&id=982844d6-e953-4f1d-9f06-2e6d27ed0b6e&thumb,전라북도 남원시 운봉읍 바래봉길 139,35.4326946,127.5422159
충경사,전북 전주시,063-281-5361,"['관광지', '역사', '역사공부', '역사관광지', '역사를품은곳', '역사문화재', '역사속']",https://cdn.visitkorea.or.kr/img/call?cmd=VIEW&id=cba544a4-304d-411c-a17d-d78c6b439d56&thumb,전라북도 전주시 완산구 남고산성1길 31,35.8050989,127.1568872
충렬사,전북 정읍시,063-539-5184,"['가족여행', '관광지', '교과서속여행', '나들이', '아이와함께', '역사', '역사공부']",https://cdn.visitkorea.or.kr/img/call?cmd=VIEW&id=8c08e221-3761-4ba4-88bf-2fa4071bd46b&thumb,전라북도 정읍시 충정로 228-13,35.5698862,126.8574101
충무공원,전북 정읍시,063-539-5184,"['관광지', '역사관광지', '역사문화', '역사속', '역사속으로', '역사이야기', '역사탐방']",https://cdn.visitkorea.or.kr/img/call?cmd=VIEW&id=ef1d0ce2-189b-4779-9d14-3f966d3e1e59&thumb,전라북도 정읍시 충정로 214-3,35.5689651,126.8577034
치동서원,전북 군산시,063-446-5114,"['관광지', '역사', '역사공부', '역사관광지', '역사를품은곳', '역사문화재', '역사속']",https://cdn.visitkorea.or.kr/img/call?cmd=VIEW&id=6f737e32-2c8b-4915-a0d4-71ea01aff33f&thumb,전라북도 군산시 옥구읍 오곡길 29-13,35.9149989,126.6913494
치명자산성지,전북 전주시,063-285-5755,"['관광지', '성지', '역사', '역사공부', '역사관광지', '역사를품은곳', '역사문화재']",https://cdn.visitkorea.or.kr/img/call?cmd=VIEW&id=0ae4e3a6-eda8-4078-8e13-24617f41fcf1&thumb,전라북도 전주시 완산구 바람쐬는길 89,35.8072184,127.1662654
치목삼베마을,전북 무주군,010-8626-3875,"['공예', '공예체험', '관광지', '농촌체험학습', '삼베', '아이와함께', '자연좋은곳']",https://cdn.visitkorea.or.kr/img/call?cmd=VIEW&id=c17838ca-b743-4c52-9327-6cd972ce168e&thumb,전라북도 무주군 적상면 치목길 83,35.9308565,127.7095948
칠보물테마유원지,전북 정읍시,063-538-9388,"['가족과함께', '관광지', '아이와함께', '여름방학가볼만한곳', '여름여행', '여름휴가']",https://cdn.visitkorea.or.kr/img/call?cmd=VIEW&id=47fb3497-8d10-45a4-b65f-0f9bff7c1ee7&thumb,전라북도 정읍시 칠보면 칠보산로 1555,35.5732404,126.9500947
칠보산,전북 정읍시,063-539-5231,"['관광지', '자연']",https://cdn.visitkorea.or.kr/img/call?cmd=VIEW&id=3c57f493-5c01-4e47-8837-1a0db7bc5e2d&thumb,전라북도 정읍시 칠보면 축현리,35.5769115,126.9449885
칠연계곡,전북 무주군,063-323-0577,"['가족여행', '계곡', '관광지', '연중무휴', '자연', '전라권', '칠연계곡', '피서']",https://cdn.visitkorea.or.kr/img/call?cmd=VIEW&id=dc638cdd-5229-4901-a14c-6eb693794d03&thumb,전라북도 무주군 안성면 칠연로 608,35.8377505,127.7000862
칠연의총,전북 무주군,1899-8687,"['관광지', '역사', '역사공부', '역사관광지', '역사를품은곳', '역사문화재', '역사속']",https://cdn.visitkorea.or.kr/img/call?cmd=VIEW&id=ff6eaedf-59d3-4c5c-b766-4027dbe5780e&thumb,전라북도 무주군 안성면 칠연로 608,35.8377505,127.7000862
타관산,전북 장수군,063-350-2413,"['관광지', '자연']",https://cdn.visitkorea.or.kr/img/call?cmd=VIEW&id=27160368-3901-4436-aa29-d2eeee8ef893&thumb,전라북도 장수군 장수읍 팔공로 50-19,35.6245986,127.4921946
타루각,전북 장수군,063-351-2141,"['관광지', '역사', '역사공부', '역사관광지', '역사를품은곳', '역사문화재', '역사속']",https://cdn.visitkorea.or.kr/img/call?cmd=VIEW&id=4571248c-31fd-42a3-a931-9cd3feb50846&thumb,전라북도 장수군 천천면 장자울로 4,35.6847852,127.5170868
타루비(장수),전북 장수군,063-350-2326,"['관광지', '역사', '역사공부', '역사관광지', '역사를품은곳', '역사문화재', '역사속']",https://cdn.visitkorea.or.kr/img/call?cmd=VIEW&id=7ef91a1e-1a26-4fab-90f3-46536f1ad022&thumb,전라북도 장수군 천천면 장자울로 4,35.6847852,127.5170868
태권도공원 전망대,전북 무주군,063-320-0114,"['가족과함께', '관광지', '모노레일', '전망대', '친구와함께', '태권도공원', '태권도문화']",https://cdn.visitkorea.or.kr/img/call?cmd=VIEW&id=398cb989-84b9-455b-89b9-d57869bd8b67&thumb,전라북도 무주군 설천면 무설로 1482,36.0105237,127.7779884
태봉사(익산),전북 익산시,063-858-7733,"['관광지', '불교', '불교문화', '사찰', '사찰여행', '역사', '연중무휴', '익산태봉사']",https://cdn.visitkorea.or.kr/img/call?cmd=VIEW&id=06bb0954-bc93-4d85-b5e6-9f4e696b5f8f&thumb,전라북도 익산시 삼기면 연동리 150,36.0330864,127.0193747
태인동헌,전북 정읍시,063-539-5184,"['관광지', '역사']",https://cdn.visitkorea.or.kr/img/call?cmd=VIEW&id=f87eb237-7ce3-4567-8152-78473b25b45e&thumb,전라북도 정읍시 태인면 동헌길 24,35.6537311,126.946102
태인향교,전북 정읍시,063-539-5184,"['관광지', '역사', '역사공부', '역사관광지', '역사를품은곳', '역사문화재', '역사속']",https://cdn.visitkorea.or.kr/img/call?cmd=VIEW&id=072d750a-2bbe-464f-bb74-fa6e505b7fb8&thumb,전라북도 정읍시 태인면 향교2길 45,35.6540323,126.9405698
토옥동계곡,전북 장수군,063-350-2312,"['가족여행', '계곡', '관광지', '자연', '전라권', '토옥동계곡', '피서']",https://cdn.visitkorea.or.kr/img/call?cmd=VIEW&id=b02cf4a4-bdbd-42ca-8de4-55023e7a7070&thumb,전라북도 장수군 계북면 양악리,35.7949685,127.6693978
팔공산(성적산),전북 장수군,063-350-2472,"['관광지', '자연']",https://cdn.visitkorea.or.kr/img/call?cmd=VIEW&id=undefined&thumb,전북 장수군 장수읍 대성리 산 258-2,35.6187385,127.4599926
팔성사(전북),전북 장수군,063-351-2110,"['관광지', '불교', '불교문화', '불교사찰', '사찰', '사찰여행', '역사', '자연속으로']",https://cdn.visitkorea.or.kr/img/call?cmd=VIEW&id=null&thumb,전라북도 장수군 장수읍 비행로 1455-94,35.6208439,127.479414
팔효사,전북 김제시,063-540-3882,"['관광지', '역사', '역사공부', '역사관광지', '역사를품은곳', '역사문화재', '역사속']",https://cdn.visitkorea.or.kr/img/call?cmd=VIEW&id=383bec0c-4f5b-416e-9544-9441ed4a4dc2&thumb,전라북도 김제시 효자로 109-2,35.7924006,126.8890419
풍계서원,전북 남원시,063-620-6172,"['관광지', '역사', '역사공부', '역사관광지', '역사를품은곳', '역사문화재', '역사속']",https://cdn.visitkorea.or.kr/img/call?cmd=VIEW&id=95849f7b-5201-4d04-9941-d743bcc75959&thumb,전라북도 남원시 대강면 대강산촌길 35-18,35.4185604,127.2671044
풍혈냉천,전북 진안군,063-430-2229,['관광지'],https://cdn.visitkorea.or.kr/img/call?cmd=VIEW&id=7653c4c4-c619-419c-ac23-4fe966ed4d5f&thumb,전라북도 진안군 성수면 양화안길,35.7343451,127.302521
하곡마을,전북 진안군,063-430-2333,"['걷기길', '관광지', '생태관광', '생태관광지', '진안', '피서여행', '하곡마을']",https://cdn.visitkorea.or.kr/img/call?cmd=VIEW&id=6bd9a1fe-a59a-4c42-82c9-5d25c7b56dae&thumb,전라북도 진안군 부귀면 하수항길 9-20,35.8521669,127.3933816
하늘내들꽃마을 [녹색농촌체험],전북 장수군,063-353-5185,"['가족과함께', '관광지', '농촌', '농촌마을', '농촌체험', '농촌체험마을', '농촌체험여행']",https://cdn.visitkorea.or.kr/img/call?cmd=VIEW&id=9cb1f2b2-1d6a-4b38-b308-2b3e18b26914&thumb,전라북도 장수군 천천면 천천북로 554,35.7904147,127.5427842
하섬,전북 부안군,063-582-7808,"['관광지', '섬', '자연', '전라권', '하섬']",https://cdn.visitkorea.or.kr/img/call?cmd=VIEW&id=877ec244-9159-49b1-be6c-d09ae7ab16db&thumb,전북 부안군 변산면 마포리 하섬,35.6624203,126.4860136
하이트진로 전주공장,전북 완주군,063-240-61296154,"['견학', '관광지', '산업관광', '수도권', '이색체험', '체험학습', '하이트진로', '하이트진로전주공장']",https://cdn.visitkorea.or.kr/img/call?cmd=VIEW&id=2edf1158-0c31-499f-97aa-ee86f336e433&thumb,전라북도 완주군 용진읍 신지송광로 25-33,35.9189129,127.1769207
학당서원,전북 김제시,063-540-3882,"['관광지', '역사', '역사공부', '역사관광지', '역사를품은곳', '역사문화재', '역사속']",https://cdn.visitkorea.or.kr/img/call?cmd=VIEW&id=66aa5b88-657e-4c8a-bd3b-747bf92bb02d&thumb,전라북도 김제시 백산면 생건길 48,35.8317492,126.8902424
학선암,전북 김제시,063-543-4233,"['관광지', '불교', '불교문화', '사찰', '사찰여행', '역사', '자연속으로', '자연환경']",https://cdn.visitkorea.or.kr/img/call?cmd=VIEW&id=1163523c-a74d-4776-bb00-0912e0a9029d&thumb,전라북도 김제시 금산면 구성3길 522,35.7440231,127.0216333
학소암(전주),전북 전주시,063-222-2776,"['관광지', '불교', '불교문화', '사찰', '사찰여행', '역사', '자연속으로', '자연환경']",https://cdn.visitkorea.or.kr/img/call?cmd=VIEW&id=597858f0-9baf-4ebd-9222-1df343a47d37&thumb,전라북도 전주시 완산구 평화7길 49-67,35.7865515,127.1322782
학정리석불,전북 임실군,063-640-2312,"['관광지', '역사', '역사공부', '역사관광지', '역사를품은곳', '역사문화재', '역사속']",https://cdn.visitkorea.or.kr/img/call?cmd=VIEW&id=9ff3866c-32e8-47f9-8d45-0c39d18e75a8&thumb,전라북도 임실군 삼계면 학정2길 117-8,35.505827,127.2307084
학정서원,전북 임실군,063-640-2312,"['관광지', '역사', '역사공부', '역사관광지', '역사를품은곳', '역사문화재', '역사속']",https://cdn.visitkorea.or.kr/img/call?cmd=VIEW&id=5146c0cf-1528-4f66-bade-9302dc3ff79a&thumb,전라북도 임실군 청웅면 구고8길 35-3,35.5760473,127.2013633
학천서원,전북 완주군,063-290-2605,"['관광지', '역사', '역사공부', '역사관광지', '역사를품은곳', '역사문화재', '역사속']",https://cdn.visitkorea.or.kr/img/call?cmd=VIEW&id=80e036f6-7999-43ad-893d-3cd5308e9f85&thumb,전라북도 완주군 구이면 상학길 50-8,35.7340216,127.1102619
한국과학기술연구원(KIST) 전북분원,전북 완주군,063-219-8417,"['kist', '견학', '관광지', '아이와함께', '이색체험', '전라권', '체험여행', '체험학습']",https://cdn.visitkorea.or.kr/img/call?cmd=VIEW&id=a1c3732d-5d87-4b66-bf1f-1fecaa4bbe97&thumb,전라북도 완주군 봉동읍 추동로 92,35.9627339,127.1566443
한국도로공사수목원,전북 전주시,063-212-0652,"['가족여행', '관광지', '꽃여행', '생태관광지', '수목원', '아이와함께', '자연', '전라권']",https://cdn.visitkorea.or.kr/img/call?cmd=VIEW&id=891dc0d0-4aab-4eb5-9018-f62756f73bef&thumb,전라북도 전주시 덕진구 번영로 462-45,35.8704513,127.0537178
한벽당,전북 전주시,063-281-2166,"['관광지', '역사', '역사공부', '역사관광지', '역사를품은곳', '역사문화재', '역사속']",https://cdn.visitkorea.or.kr/img/call?cmd=VIEW&id=65a219e3-5dfe-4ebd-bd15-953e94b91171&thumb,전라북도 전주시 완산구 기린대로 2,35.8118759,127.1608821
함벽정,전북 익산시,063-859-5792,"['관광지', '역사', '역사공부', '역사관광지', '역사문화재', '역사속', '역사속으로']",https://cdn.visitkorea.or.kr/img/call?cmd=VIEW&id=eb3fc081-8afd-4f34-bf04-58669cc67609&thumb,전라북도 익산시 왕궁면 호반로 30-21,35.9931429,127.1022439
함열향교,전북 익산시,063-859-5792,"['관광지', '역사', '역사공부', '역사관광지', '역사를품은곳', '역사문화재', '역사속']",https://cdn.visitkorea.or.kr/img/call?cmd=VIEW&id=c061e772-6577-4398-b6cc-7f64befb8092&thumb,전라북도 익산시 함라면 함라교동길 27-4,36.0638124,126.9095413
합미성(장수),전북 장수군,063-350-2326,"['관광지', '역사', '역사공부', '역사관광지', '역사를품은곳', '역사문화재', '역사속']",https://cdn.visitkorea.or.kr/img/call?cmd=VIEW&id=2478d2cb-5988-4913-b742-c23ae8675563&thumb,전라북도 장수군 장수읍 석천리,35.5761486,127.4695279
해리마을,전북 고창군,063-560-8301,"['관광지', '자연']",https://cdn.visitkorea.or.kr/img/call?cmd=VIEW&id=710c203d-2ba6-449d-b17e-f531ddcd2ace&thumb,전북 고창군 해리면 동호리,35.5090529,126.4889245
해월암(임실),전북 임실군,063-642-6161,"['관광지', '불교', '불교문화', '사찰', '사찰여행', '역사', '자연속으로', '자연환경']",https://cdn.visitkorea.or.kr/img/call?cmd=VIEW&id=4a3d983f-782d-4719-8807-9a07f9d8cb18&thumb,전라북도 임실군 오수면 오수8길 49-30,35.5370027,127.3229351
향가유원지,전북 순창군,063-650-1648,"['관광지', '순창', '순창군', '유원지', '자연관광지', '자연발생', '자연체험', '자연환경']",https://cdn.visitkorea.or.kr/img/call?cmd=VIEW&id=e5ac0cd8-43c0-4455-88a4-d7e8dd73cf33&thumb,전라북도 순창군 풍산면 향가로 575,35.3424563,127.1804313
향산사(무주),전북 무주군,063-322-2794,"['가족여행', '관광지', '불교', '불교문화', '사찰', '사찰여행', '역사', '역사관광지']",https://cdn.visitkorea.or.kr/img/call?cmd=VIEW&id=da077f17-9667-4a64-ac68-e4c533935f07&thumb,전라북도 무주군 무주읍 향한로 27-7,36.0100686,127.6586572
향적봉(덕유산),전북 무주군,063-322-3174,"['경치좋은곳', '관광지', '덕유산', '자연', '자연관광지', '자연속으로', '자연여행']",https://cdn.visitkorea.or.kr/img/call?cmd=VIEW&id=9beb27c8-9694-4030-a2e1-a5d9f0a85262&thumb,전라북도 무주군 설천면,36.0081479,127.7896811
현동사,전북 익산시,063-859-5792,"['관광지', '역사', '역사공부', '역사관광지', '역사를품은곳', '역사문화재', '역사속']",https://cdn.visitkorea.or.kr/img/call?cmd=VIEW&id=90a7ca96-fbb5-482b-92da-3cd12cd1150b&thumb,전라북도 익산시 삼기면 현동1길 3,36.0252106,127.0162326
현주서원,전북 임실군,063-640-2312,"['관광지', '역사', '역사공부', '역사관광지', '역사를품은곳', '역사문화재', '역사속']",https://cdn.visitkorea.or.kr/img/call?cmd=VIEW&id=2c601f71-6a3f-4c80-8d3d-2a033c0422b3&thumb,전라북도 임실군 지사면 계산4길 89,35.5543952,127.3497583
혜봉사,전북 김제시,063-546-5130,"['관광지', '불교', '불교문화', '사찰', '사찰여행', '역사', '자연속으로', '자연환경']",https://cdn.visitkorea.or.kr/img/call?cmd=VIEW&id=b86ed395-2156-4bbe-bcc5-b58c0cb923b7&thumb,전라북도 김제시 금구면 양시로 142-13,35.7693785,127.0065399
호산서원,전북 완주군,063-290-2605,"['관광지', '역사', '역사공부', '역사관광지', '역사를품은곳', '역사문화재', '역사속']",https://cdn.visitkorea.or.kr/img/call?cmd=VIEW&id=b3a35147-fa9e-4529-9e87-1f3e0f52a1a3&thumb,전라북도 완주군 삼례읍 비비정길 73-16,35.8996126,127.0683674
호암서원,전북 남원시,063-620-6172,"['관광지', '역사', '역사공부', '역사관광지', '역사를품은곳', '역사문화재', '역사속']",https://cdn.visitkorea.or.kr/img/call?cmd=VIEW&id=17694df3-6cbd-44f4-abbd-38f340215d34&thumb,전라북도 남원시 덕과면 덕과도촌길 67-8,35.5057577,127.3899888
혼불문학관,전북 남원시,063-620-6788,"['가족과함께', '관광지', '교육여행', '교육프로그램', '남녀노소', '남원가볼만한곳']",https://cdn.visitkorea.or.kr/img/call?cmd=VIEW&id=452baa2b-8681-4acf-8769-0671edb901a8&thumb,전라북도 남원시 사매면 노봉안길 52,35.4808692,127.3200286
홀어머니산성,전북 순창군,063-650-1623,"['관광지', '역사', '역사관광지', '역사를품은곳', '역사문화재', '역사속', '역사속으로']",https://cdn.visitkorea.or.kr/img/call?cmd=VIEW&id=022dd9b7-3742-4c54-9166-b1c82d4266ca&thumb,전라북도 순창군 순창읍 백산리,35.3656296,127.1137774
화강서원,전북 고창군,063-560-2943,"['관광지', '교과서속여행', '서원', '역사', '역사공부', '역사관광지', '역사를품은곳']",https://cdn.visitkorea.or.kr/img/call?cmd=VIEW&id=40e46d9a-8b50-4ec8-9a0c-ec5abffab50a&thumb,전라북도 고창군 고창읍 주곡1길 68-34,35.432676,126.672206
화동서원,전북 고창군,063-560-2943,"['관광지', '교과서속여행', '서원', '역사', '역사공부', '역사관광지', '역사를품은곳']",https://cdn.visitkorea.or.kr/img/call?cmd=VIEW&id=98558150-15d7-418f-b108-b0b62f0a8969&thumb,전라북도 고창군 대산면 교동길 24,35.3443515,126.5862075
화동서원,전북 김제시,063-540-3882,"['관광지', '역사', '역사공부', '역사관광지', '역사를품은곳', '역사문화재', '역사속']",https://cdn.visitkorea.or.kr/img/call?cmd=VIEW&id=94b1b721-8246-48b2-aa4c-e2beb4ea1cda&thumb,전라북도 김제시 장화동,35.7713231,126.8586337
화산사,전북 장수군,063-350-2326,"['관광지', '역사', '역사공부', '역사관광지', '역사를품은곳', '역사문화재', '역사속']",https://cdn.visitkorea.or.kr/img/call?cmd=VIEW&id=9b5c94d2-7cb9-4544-b27a-10e9ed85cfea&thumb,전라북도 장수군 계남면 화산길 24-21,35.6931185,127.5872086
화산서원,전북 완주군,063-290-2605,"['관광지', '역사', '역사공부', '역사관광지', '역사를품은곳', '역사문화재', '역사속']",https://cdn.visitkorea.or.kr/img/call?cmd=VIEW&id=a3a9e301-06b8-4723-a792-fb0a062ed87f&thumb,전라북도 완주군 소양면 소양신원길 186,35.8389402,127.3005319
화산서원(익산),전북 익산시,063-859-5792,"['관광지', '교과서속여행', '서원', '역사', '역사공부', '역사관광지', '역사를품은곳']",https://cdn.visitkorea.or.kr/img/call?cmd=VIEW&id=0e422723-1b93-4071-9531-0aaefff5bd45&thumb,전라북도 익산시 금마면 용순신기길 44-76,36.0143978,127.0378572
화산서원(장수),전북 장수군,063-350-2326,"['관광지', '교과서속여행', '서원', '역사', '역사공부', '역사관광지', '역사를품은곳']",https://cdn.visitkorea.or.kr/img/call?cmd=VIEW&id=055c0969-ee4e-4bc0-9878-a5dde0ca5b08&thumb,전라북도 장수군 계남면 화산길 24-21,35.6931185,127.5872086
화산서원(진안),전북 진안군,063-430-2382,"['관광지', '역사', '역사공부', '역사관광지', '역사를품은곳', '역사문화재', '역사속']",https://cdn.visitkorea.or.kr/img/call?cmd=VIEW&id=af4bcdc0-d9b1-4ac9-9230-c5d7f67bd022&thumb,전라북도 진안군 안천면 백삼로 30-1,35.9033245,127.5603385
화산서원비,전북 전주시,063-281-5361,"['관광지', '기록유산', '역사', '역사공부', '역사관광지', '역사를품은곳', '역사문화재']",https://cdn.visitkorea.or.kr/img/call?cmd=VIEW&id=82cf9958-d99d-4d39-a812-6251f219681d&thumb,전라북도 전주시 완산구 중화산동,35.8195981,127.120609
화산천주교회(나바위 성당),전북 익산시,063-861-9210,"['관광지', '근대문화유산', '나바위성당', '역사', '역사공부', '역사관광지', '역사를품은곳']",https://cdn.visitkorea.or.kr/img/call?cmd=VIEW&id=dbf4d69b-a2a7-424d-9830-631406978397&thumb,전라북도 익산시 망성면 나바위1길 146,36.1385381,126.9991079
화암사 우화루,전북 완주군,063-261-7576,"['관광지', '역사', '역사공부', '역사관광지', '역사를품은곳', '역사문화재', '역사속']",https://cdn.visitkorea.or.kr/img/call?cmd=VIEW&id=db3d71c8-b29e-485b-86d6-628609654e9f&thumb,전라북도 완주군 경천면 화암사길 271,36.0663134,127.2870608
화암사(완주),전북 완주군,063-261-7576,"['관광지', '역사', '역사공부', '역사관광지', '역사를품은곳', '역사문화재', '역사속']",https://cdn.visitkorea.or.kr/img/call?cmd=VIEW&id=16396e36-68d1-4505-a067-edbee1ec012b&thumb,전라북도 완주군 경천면 화암사길 271,36.0663134,127.2870608
환봉서원,전북 남원시,063-620-6172,"['관광지', '역사', '역사공부', '역사관광지', '역사를품은곳', '역사문화재', '역사속']",https://cdn.visitkorea.or.kr/img/call?cmd=VIEW&id=cf74ccc2-c813-4772-990d-b78f007be765&thumb,전라북도 남원시 금지면 금지순환길 269,35.3391553,127.2847651
황강서원,전북 전주시,063-281-5361,"['관광지', '역사', '역사공부', '역사관광', '역사관광지', '역사를품은곳', '역사문화']",https://cdn.visitkorea.or.kr/img/call?cmd=VIEW&id=a2efae68-e41f-4425-99f7-2e6651fb549f&thumb,전라북도 전주시 완산구 황강서원5길 8-7,35.829055,127.1032346
황윤석 생가,전북 고창군,063-560-2943,"['관광지', '교과서속여행', '역사', '역사공부', '역사관광지', '역사를품은곳', '역사문화재']",https://cdn.visitkorea.or.kr/img/call?cmd=VIEW&id=d89656ea-99e9-4860-9d09-02d6a8fb819c&thumb,전라북도 고창군 성내면 조동길 33,35.5602853,126.7551849
회문산,전북 순창군,063-650-1648,"['관광지', '자연']",https://cdn.visitkorea.or.kr/img/call?cmd=VIEW&id=0db73d96-3ad2-4b63-8db6-4916568636d5&thumb,전라북도 순창군 구림면 안심길 249,35.4989182,127.1181029
효충사,전북 부안군,063-580-4711,"['관광지', '역사', '역사공부', '역사관광지', '역사문화재', '역사속', '역사속으로']",https://cdn.visitkorea.or.kr/img/call?cmd=VIEW&id=undefined&thumb,전라북도 부안군 하서면 석불산길 156-8,35.72793,126.6402497
효충서원,전북 부안군,063-580-4711,"['관광지', '역사', '역사관광지', '역사를품은곳', '역사문화재', '역사속', '역사속으로']",https://cdn.visitkorea.or.kr/img/call?cmd=VIEW&id=ac50690b-fd3b-470d-be83-7558291e974c&thumb,전라북도 부안군 하서면,35.7155507,126.6620352
효충서원,전북 임실군,063-640-2312,"['관광지', '역사', '역사공부', '역사관광지', '역사를품은곳', '역사문화재', '역사속']",https://cdn.visitkorea.or.kr/img/call?cmd=VIEW&id=bff8c1a6-06f9-4aab-914f-b0fd76276321&thumb,전라북도 임실군 임실읍 임삼로 1590-20,35.5946785,127.2632524
후지리탑동석불,전북 정읍시,063-539-5184,"['관광지', '역사', '역사공부', '역사관광지', '역사를품은곳', '역사문화재', '역사속']",https://cdn.visitkorea.or.kr/img/call?cmd=VIEW&id=0eadaf91-7bb1-4e3b-ab71-8b08694abe3d&thumb,전라북도 정읍시 영원면 후지리,35.6379544,126.7717649
훈몽재 유지,전북 순창군,063-650-1623,"['가족체험', '관광지', '아이와함께', '역사', '역사공부', '역사관광지', '역사를품은곳']",https://cdn.visitkorea.or.kr/img/call?cmd=VIEW&id=87ffdab1-0021-445f-b9bb-b700aeca2319&thumb,전라북도 순창군 쌍치면 둔전2길 83,35.472234,126.968398
흥덕향교,전북 고창군,063-560-2943,"['관광지', '교과서속여행', '역사', '역사공부', '역사관광지', '역사를품은곳', '역사문화재']",https://cdn.visitkorea.or.kr/img/call?cmd=VIEW&id=e019a7f3-2278-4239-b5f9-f311d8271004&thumb,전라북도 고창군 흥덕면 흥덕향교길 28-12,35.5260884,126.6933844
흥복사(김제),전북 김제시,063-547-7364,"['관광지', '김제흥복사', '불교', '불교문화', '사찰', '사찰여행', '역사', '자연속으로']",https://cdn.visitkorea.or.kr/img/call?cmd=VIEW&id=c21a01d2-35e9-4446-9cce-c6da3204caea&thumb,전라북도 김제시 승반길 103,35.8290198,126.9062352
흥성동헌,전북 고창군,054-950-63,"['관광지', '역사', '역사공부', '역사관광지', '역사를품은곳', '역사문화재', '역사속']",https://cdn.visitkorea.or.kr/img/call?cmd=VIEW&id=221208ba-29d7-4ad3-ad05-4b542d906349&thumb,전라북도 고창군 흥덕면 동헌길 4,35.522572,126.700182
온고을공예방,전북 전주시,010-9977-1617,"['공방', '생활용품', '쇼핑', '전주한옥마을', '체험']",https://cdn.visitkorea.or.kr/img/call?cmd=VIEW&id=39e0d50f-a48c-4a22-be41-318b91705712&thumb,전라북도 전주시 완산구 향교길 51-9,35.8120164,127.1525196
순창장류박물관,전북 순창군,063-650-1627,"['가족여행', '문화시설', '박물관', '순창가볼만한곳', '순창장류박물관', '실내여행지']",https://cdn.visitkorea.or.kr/img/call?cmd=VIEW&id=659235ec-23f5-4718-accd-4054e61abde3&thumb,전라북도 순창군 순창읍 장류로 43,35.3696752,127.1111717
소양고택,전북 완주군,063-290-2605,"['소양고택', '역사', '역사공부', '역사관광지', '역사를품은곳', '역사문화재', '역사속']",https://cdn.visitkorea.or.kr/img/call?cmd=VIEW&id=ddc405b7-c046-4745-bb53-ae5b39471526&thumb,전라북도 완주군 소양면 송광수만로 472-23,35.9021764,127.2420416
서어나무 숲,전북 남원시,063-634-0939,"['가족과함께', '산책길', '산책로', '산책하기', '산책하기좋은곳', '아이와함께']",https://cdn.visitkorea.or.kr/img/call?cmd=VIEW&id=4d53bbad-55a1-4cf9-af6a-9372a6c09cbc&thumb,전라북도 남원시 운봉읍 운봉행정길 8-9,35.4216491,127.5213315
사양제,전북 진안군,,"['경치좋은곳', '산책로', '산책하기좋은곳', '생태공원', '수변산책로', '연인과함께']",https://cdn.visitkorea.or.kr/img/call?cmd=VIEW&id=f7b98cce-7aed-4cf5-b85e-669e7b29c7ef&thumb,전라북도 진안군 진안읍 마이산로 228-10,35.7681699,127.4119419
부귀 편백숲 삼림욕장,전북 진안군,063-430-2651,"['경치좋은곳', '자연', '자연관광지', '자연속으로', '자연여행', '자연좋은곳', '자연체험']",https://cdn.visitkorea.or.kr/img/call?cmd=VIEW&id=71151dda-b61b-4cd3-b30a-b0b0423792c6&thumb,전라북도 진안군 부귀면 전진로 1935-15,35.8404077,127.3480035
운곡습지 및 고인돌군 (전북 서해안권 국가지질공원),전북 고창군,063-560-2699,"['경치좋은곳', '고인돌유적지', '국가지질공원', '자연', '자연발생', '자연속으로']",https://cdn.visitkorea.or.kr/img/call?cmd=VIEW&id=d712c719-086c-4fb7-ae6c-a05dd043233c&thumb,전라북도 고창군 고창읍 고인돌공원길 74,35.4417204,126.6514473
병바위 (전북 서해안권 국가지질공원),전북 고창군,063-560-2699,"['경치좋은곳', '국가지질공원', '자연', '자연관광지', '자연발생', '자연속으로']",https://cdn.visitkorea.or.kr/img/call?cmd=VIEW&id=67a9f3eb-28be-4d47-a542-bced330285d0&thumb,전라북도 고창군 아산면 반암리,35.4938568,126.615045
소요산 (전북 서해안권 국가지질공원),전북 고창군,063-560-2699,"['경치좋은곳', '국가지질공원', '자연', '자연관광지', '자연발생', '자연속으로']",https://cdn.visitkorea.or.kr/img/call?cmd=VIEW&id=9df0b3f5-0db0-44c2-84b3-d31df921e96b&thumb,전라북도 고창군 부안면 용산리,35.5085461,126.6360731
운주계곡,전북 완주군,063-290-2114,"['경치좋은곳', '아이와함께', '여름피서지', '자연', '자연관광지', '자연발생', '자연속으로']",https://cdn.visitkorea.or.kr/img/call?cmd=VIEW&id=0090ffaf-75bd-4893-8e17-b6a27974f79d&thumb,전라북도 완주군 운주면 장선리,36.0865929,127.2817581
