name,region,tel,keyword,photo,address,lat,lon
DGB 대구은행파크,대구 북구,053-222-3600,['레포츠'],https://cdn.visitkorea.or.kr/img/call?cmd=VIEW&id=0bce0470-12f3-40e4-9580-f300f136d0ed&thumb,대구 북구 고성로 191,35.8822438,128.5873807
EBS 리틀소시움,대구 북구,1899-7337,"['EBS리틀소시움', '겨울방학가볼만한곳', '경상권', '관광지', '놀이동산&테마파크']",https://cdn.visitkorea.or.kr/img/call?cmd=VIEW&id=42bc6488-fffc-4bf0-bf83-79d842ebafd9&thumb,대구광역시 북구 유통단지로 90,35.90928476,128.61153529999999
FM테마,대구 중구,053-421-5581,"['레포츠', '여행레저', '종합레저']",https://cdn.visitkorea.or.kr/img/call?cmd=VIEW&id=undefined&thumb,대구광역시 중구 동덕로 55,35.8670408,128.6069034
[대구올레 팔공산 1코스] 북지장사 가는 길,대구 수성구,053-985-8030,['레포츠'],https://cdn.visitkorea.or.kr/img/call?cmd=VIEW&id=41f3d5a2-0cc2-46aa-b09d-8a76220e4d96&thumb,대구광역시 동구 도장길 10,35.9639625,128.6990934
[대구올레 팔공산 2코스] 한실골 가는 길,대구 수성구,053-985-8030,['레포츠'],https://cdn.visitkorea.or.kr/img/call?cmd=VIEW&id=157583b8-193e-40fe-9589-e0c0f1bb5f2b&thumb,대구광역시 수성구 신천동로86안길 10,35.8619989,128.6122086
[대구올레 팔공산 3코스] 부인사 도보길,대구 수성구,053-985-8030,['레포츠'],https://cdn.visitkorea.or.kr/img/call?cmd=VIEW&id=7afcda8e-8e85-455f-accf-6f170f1959aa&thumb,대구광역시 수성구 신천동로86안길 14-6,35.8619027,128.61234620000002
[대구올레 팔공산 4코스] 평광동 왕건길,대구 수성구,053-985-8030,['레포츠'],https://cdn.visitkorea.or.kr/img/call?cmd=VIEW&id=a51954a6-19d3-430a-9379-0f6fb5e7c5d9&thumb,대구광역시 수성구 신천동로86안길 14-6,35.8619027,128.61234620000002
[대구올레 팔공산 5코스] 구암마을 가는 길,대구 수성구,053-985-8030,['레포츠'],https://cdn.visitkorea.or.kr/img/call?cmd=VIEW&id=d0bde173-5f91-4569-861f-ecb95cd4a7ca&thumb,대구광역시 수성구 신천동로86안길 14-6,35.8619027,128.61234620000002
[대구올레 팔공산 6코스] 단산지 가는 길,대구 수성구,053-985-8030,['레포츠'],https://cdn.visitkorea.or.kr/img/call?cmd=VIEW&id=9c23c517-84c4-4e98-a0c0-821be8495a9c&thumb,대구광역시 수성구 신천동로86안길 14-6,35.8619027,128.61234620000002
[대구올레 팔공산 7코스] 폭포골 가는 길,대구 동구,053-985-8030,['레포츠'],https://cdn.visitkorea.or.kr/img/call?cmd=VIEW&id=48eacb2c-4dba-4d3d-9073-c60e75fed26c&thumb,대구광역시 동구 팔공산로237길 147,35.9873344,128.7097684
[대구올레 팔공산 8코스] 수태지 계곡길,대구 동구,053-985-8030,"['걷기길', '레포츠', '산책길', '산책로', '산책코스', '산책하기좋은곳', '친구와함께']",https://cdn.visitkorea.or.kr/img/call?cmd=VIEW&id=7a195d54-d989-45ed-9438-24550cbf2fed&thumb,대구광역시 동구 동화사1길 1,35.9929105,128.7039968
가창 찐빵 골목,대구 달성군,,"['가창찐빵골목', '경상권', '관광지', '남녀노소', '맛집골목', '먹거리', '미식여행']",https://cdn.visitkorea.or.kr/img/call?cmd=VIEW&id=d93d3b56-6575-413a-bf3b-5b2a3b4176ae&thumb,대구광역시 달성군 가창면 가창로 1099,35.80267191,128.6221749
가창창작스튜디오&스페이스 가창,대구 달성군,053-430-1266,"['가창창작스튜디오&스페이스가창', '기차여행', '기획전시', '단체관람', '문화시설']",https://cdn.visitkorea.or.kr/img/call?cmd=VIEW&id=051249c1-3917-49f3-9436-d48463238bd8&thumb,대구광역시 달성군 가창면 가창로57길 46,35.73770881,128.6583175
감삼못공원,대구 서구,053-663-2867,"['공원', '관광지', '노인', '산책', '산책길', '산책하기', '산책하기좋은곳', '쉼터']",https://cdn.visitkorea.or.kr/img/call?cmd=VIEW&id=74e89b6f-d93d-426d-b597-dd9bee42026c&thumb,대구광역시 서구 서대구로3길 43,35.85864905,128.5521815
갤러리소헌,대구 중구,053-426-0621,"['문화공간', '문화시설', '문화예술', '복합문화공간', '열린문화공간', '전시', '현대미술']",https://cdn.visitkorea.or.kr/img/call?cmd=VIEW&id=84f317f6-b39e-4ae6-930a-2b866bba696b&thumb,대구광역시 중구 봉산문화길 34,35.86165399999999,128.5980819
경북대학교박물관,대구 북구,053-950-6536,"['경북대학교박물관', '경상권', '문화시설', '박물관', '아이와함께', '예술', '전시회']",https://cdn.visitkorea.or.kr/img/call?cmd=VIEW&id=c3644099-9526-490c-9877-3885d98507a3&thumb,대구광역시 북구 대학로 80,35.88909749,128.6143223
경북동해안지질공원(영덕),대구 북구,053-950-7996,"['걷기길', '경북동해안지질공원', '경상권', '관광지', '생태관광', '생태관광지']",https://cdn.visitkorea.or.kr/img/call?cmd=VIEW&id=14c8a59c-cc8a-4bab-808a-a7f8fe636d6a&thumb,대구광역시 북구 대학로 80,35.88556134,128.6091029
경상감영공원,대구 중구,053-254-9404,"['가족여행', '걷기여행', '경상감영공원', '관광지', '나들이', '아이와함께', '역사유적지']",https://cdn.visitkorea.or.kr/img/call?cmd=VIEW&id=7d28b52b-cae6-4f75-b569-dcd5a820b2ea&thumb,대구광역시 중구 경상감영길 99,35.87198212,128.59282579999999
계명대학교 행소박물관,대구 달서구,053-580-6992,"['계명대학교행소박물관', '무료관람', '문화시설', '박물관', '수도권', '실내여행지']",https://cdn.visitkorea.or.kr/img/call?cmd=VIEW&id=4abc27a3-441e-43f8-872b-218a2fc3c2c2&thumb,대구광역시 달서구 달구벌대로 1095,35.85355435,128.4814938
계명아트센터,대구 달서구,053-580-6600,"['경상권', '계명아트센터', '데이트코스', '문화공간', '문화시설', '문화행사', '복합문화공간']",https://cdn.visitkorea.or.kr/img/call?cmd=VIEW&id=3cd1ae3b-1a89-41fa-b780-4e9bef2810f2&thumb,대구광역시 달서구 달구벌대로 1095,35.85355435,128.4814938
고모역복합문화공간,대구 수성구,053-791-3334,"['고모역', '고모역복합문화공간', '대구', '문화시설', '복합문화공간']",https://cdn.visitkorea.or.kr/img/call?cmd=VIEW&id=4a0d9a79-a997-4d8f-8ccb-93c29f82726a&thumb,대구광역시 수성구 고모로 208,35.85823431,128.6786155
고산골,대구 남구,053-664-2852,"['가족여행', '경상권', '경치여행', '경치좋은곳', '고산골', '관광지', '데이트코스']",https://cdn.visitkorea.or.kr/img/call?cmd=VIEW&id=cb08d367-ce06-4a6d-994a-61739829a46d&thumb,대구광역시 남구 고산3길 95-1,35.82485275,128.6027016
고산골 메타쉐콰이어길,대구 남구,053-664-2852,"['걷기코스', '고산골메타쉐콰이어길', '관광지', '대구', '등산', '자연', '트레킹']",https://cdn.visitkorea.or.kr/img/call?cmd=VIEW&id=40b8ca96-162e-458d-a3da-ef6b9bf1155b&thumb,대구광역시 남구 용두2길 43,35.82992771,128.6034043
고산서당,대구 수성구,053-666-4927,"['경상권', '고산서당', '관광지', '대구광역시문화재자료', '역사', '역사공부', '역사관광지']",https://cdn.visitkorea.or.kr/img/call?cmd=VIEW&id=56525b36-d224-4f82-adfe-7444dd931d08&thumb,대구광역시 수성구 성동로37길 39-3,35.85227454,128.71857930000002
공룡공원,대구 남구,053-664-2174,"['가족과함께', '가족나들이', '고산골', '공룡공원', '관광지', '산책길', '산책하기']",https://cdn.visitkorea.or.kr/img/call?cmd=VIEW&id=a672b82e-71bd-42f7-b712-183d268e6570&thumb,대구광역시 남구 용두2길 43,35.82992771,128.6034043
공항교강변공원,대구 북구,053-627-1337,"['관광지', '도심산책', '산책길', '산책코스', '산책하기', '산책하기좋은곳', '자연좋은곳']",https://cdn.visitkorea.or.kr/img/call?cmd=VIEW&id=16805a5e-b5d4-429f-978c-232aff6ec4c4&thumb,대구광역시 북구 복현동,35.900334,128.62762
관덕정,대구 남구,053-606-8240,"['관광지', '역사공부', '역사관광지', '역사를품은곳', '역사문화', '역사문화재']",https://cdn.visitkorea.or.kr/img/call?cmd=VIEW&id=1b7c1bb0-d0ae-4742-9196-beb5ea17b640&thumb,대구광역시 남구 앞산순환로 306,35.82567843,128.5630961
관덕정 순교기념관,대구 중구,053-254-0151,"['가족과함께', '관덕정순교기념관', '문화시설', '아이와함께']",https://cdn.visitkorea.or.kr/img/call?cmd=VIEW&id=dc4d83c3-c592-4491-bdde-4766cbf1edcb&thumb,대구광역시 중구 관덕정길 11,35.86516311,128.5911199
관문시장,대구 남구,053-627-2610,"['가족여행', '경상권', '관문시장', '기차여행', '나들이', '나홀로여행', '데이트코스']",https://cdn.visitkorea.or.kr/img/call?cmd=VIEW&id=00201d40-943a-4b04-b589-0938a716cdb5&thumb,대구광역시 남구 대명서7길 24-3,35.83561144,128.5579765
관암사(대구),대구 동구,053-982-0505,"['경상권', '관광지', '관암사', '불교', '불교문화', '사찰', '사찰여행', '역사', '역사유적지']",https://cdn.visitkorea.or.kr/img/call?cmd=VIEW&id=11c786eb-2806-40a6-8fc7-0d6c0b3d1c12&thumb,대구광역시 동구 갓바위로 350,35.97806398,128.73396709999997
관음사(대구),대구 동구,053-984-9940,"['경상권', '관광지', '관음사', '불교', '불교문화', '사찰', '사찰여행', '역사', '연중무휴']",https://cdn.visitkorea.or.kr/img/call?cmd=VIEW&id=5b0451db-0349-4073-b580-8071f3326133&thumb,대구광역시 동구 둔산로 535,35.91863463,128.6644795
구암동 고분군,대구 북구,053-325-2344,['관광지'],https://cdn.visitkorea.or.kr/img/call?cmd=VIEW&id=78331191-2e13-4680-bf95-eafe9ad9b2ec&thumb,대구광역시 북구 구암동,35.92954411,128.5643933
구암서원,대구 북구,053-665-4326,"['경상권', '관광지', '교과서속여행', '구암서원', '서원', '역사', '역사공부', '역사관광지']",https://cdn.visitkorea.or.kr/img/call?cmd=VIEW&id=5a524226-d6a9-4212-a1bf-e9087837e639&thumb,대구광역시 북구 연암공원로17길 20,35.89845438,128.5989778
구암팜스테이마을,대구 동구,053-984-5273,"['가족체험', '관광지', '농촌', '농촌체험', '농촌체험여행', '농촌체험학습', '농촌테마파크']",https://cdn.visitkorea.or.kr/img/call?cmd=VIEW&id=4004e3c3-88fa-448e-a7ab-b534a83c7eb5&thumb,대구광역시 동구 구암길 8,35.95366733,128.67961880000001
구천서원(대구),대구 북구,053-665-4326,"['경상권', '관광지', '교과서속여행', '구천서원', '서원', '역사', '역사공부', '역사관광지']",https://cdn.visitkorea.or.kr/img/call?cmd=VIEW&id=7a6cba2e-53f5-45bd-bfa4-097455c72119&thumb,대구광역시 북구 구암로21길 41,35.9358866,128.5527457
국립대구과학관,대구 달성군,053-670-6114,"['경상권', '교과서속여행', '교육여행', '교육프로그램', '국립대구과학관', '무더위_피해_실내놀이']",https://cdn.visitkorea.or.kr/img/call?cmd=VIEW&id=a8003bb2-fdaa-481d-98df-4a51f93ce076&thumb,대구광역시 달성군 유가면 테크노대로6길 20,35.68662166,128.4652247
국립대구기상과학관,대구 동구,053-953-0365,"['경상권', '교육여행', '국립대구기상과학관', '대구가볼만한곳', '문화시설', '미세먼지_피하는_실내여행']",https://cdn.visitkorea.or.kr/img/call?cmd=VIEW&id=b2947c1e-7695-44a4-b5f9-43369bad0e8c&thumb,대구광역시 동구 효동로2길 10,35.87910949,128.6508435
국립대구박물관,대구 수성구,053-768-6051,"['국립대구박물관', '데이트코스', '무료관람', '문화시설', '미세먼지_피하는_실내여행']",https://cdn.visitkorea.or.kr/img/call?cmd=VIEW&id=2a57aaa4-d3b8-4829-9ec9-2fb0353dc5b1&thumb,대구광역시 수성구 청호로 321,35.84557453,128.6383419
국우동 탱자나무,대구 북구,053-627-8906,"['경상권', '관광지', '국우동탱자나무', '대구광역시기념물', '자연']",https://cdn.visitkorea.or.kr/img/call?cmd=VIEW&id=d53aeffe-7501-4587-9ad5-87a41f0041fa&thumb,대구광역시 북구 도남길 45-7,35.95304335,128.5803611
국채보상운동기념공원,대구 중구,053-745-6753,"['가족여행', '걷기길', '경상권', '관광지', '교과서속여행', '국채보상운동기념공원']",https://cdn.visitkorea.or.kr/img/call?cmd=VIEW&id=899393ff-7896-470a-bea6-211a3f97f868&thumb,대구광역시 중구 국채보상로 670,35.86889771,128.60341680000002
그랜드면세점(대구시내점),대구 수성구,053-251-2000,"['대구', '대구가볼만한곳', '면세점', '쇼핑']",https://cdn.visitkorea.or.kr/img/call?cmd=VIEW&id=436bee7e-8b8f-48d1-b965-3fa343a2eaa9&thumb,대구광역시 수성구 동대구로 305,35.85767615,128.6249847
근대문화체험관 계산예가,대구 중구,053-661-3323,"['가족과함께', '문화공간', '문화시설', '아이와함께', '역사공부', '역사속', '역사속으로']",https://cdn.visitkorea.or.kr/img/call?cmd=VIEW&id=aaf88cfb-d307-44c8-ad92-f5aaf55c709f&thumb,대구광역시 중구 서성로 6-1,35.86720726,128.5878652
금용사(대구),대구 달서구,053-628-5404,"['관광지', '불교', '불교문화', '사찰', '사찰여행', '역사', '자연속으로', '자연환경']",https://cdn.visitkorea.or.kr/img/call?cmd=VIEW&id=e8748dfa-a6ff-4041-b199-654e18f80259&thumb,대구광역시 달서구 공원순환로 213,35.84753564,128.5608201
김광석 길 (김광석다시그리기길),대구 중구,053-661-3328,"['19_20한국관광100선', '가족여행', '감성사진', '걷기여행', '경상권', '관광지']",https://cdn.visitkorea.or.kr/img/call?cmd=VIEW&id=5ca63ef0-7de0-407d-a146-210bf156bb5c&thumb,대구광역시 중구 달구벌대로450길,35.862944799999994,128.57436189999999
나불지 생태공원,대구 동구,053-662-3146,"['관광지', '나불지', '생태공원', '자연관광지']",https://cdn.visitkorea.or.kr/img/call?cmd=VIEW&id=18956835-dc7d-41a1-ae84-aee33d67cb00&thumb,대구광역시 동구 각산동 134,35.87997563,128.7197317
낙동강승전기념관,대구 남구,053-621-9880,"['기차여행', '낙동강승전기념관', '대구 남구', '대구광역시', '문화시설', '아이와함께']",https://cdn.visitkorea.or.kr/img/call?cmd=VIEW&id=7cbb4eb9-5a6d-46ce-ae55-c87b0bf3877a&thumb,대구광역시 남구 앞산순환로 574-110,35.82717061,128.5887885
낙동서원,대구 달서구,053-667-2194,"['경상권', '관광지', '교과서속여행', '낙동서원', '서원', '역사', '역사공부', '역사관광지']",https://cdn.visitkorea.or.kr/img/call?cmd=VIEW&id=82f67858-5de0-4967-abbd-c2b5523b06fb&thumb,대구광역시 달서구 송현로7길 32,35.81999771,128.54544860000001
낙빈서원,대구 달성군,053-668-3162,"['관광지', '역사', '역사공부', '역사관광지', '역사를품은곳', '역사문화재', '역사속']",https://cdn.visitkorea.or.kr/img/call?cmd=VIEW&id=d6ca98e3-571c-443e-a638-214af6858d23&thumb,대구광역시 달성군 하빈면 묘동4길 21,35.90796181,128.412421
남산동 가톨릭타운(대구),대구 중구,053-250-3000,"['관광지', '체험']",https://cdn.visitkorea.or.kr/img/call?cmd=VIEW&id=2388a6d6-aa02-4117-af2b-6f4ef42f975e&thumb,대구광역시 중구 남산로4길 112,35.85985471,128.5882514
남지장사(대구),대구 달성군,053-768-9920,"['경상권', '관광지', '남지장사', '불교', '불교문화', '사찰', '사찰여행', '역사', '연중무휴']",https://cdn.visitkorea.or.kr/img/call?cmd=VIEW&id=dbf5f456-80a8-449e-ad74-349635776909&thumb,대구광역시 달성군 가창면 남지장사길 127,35.73494145,128.63093519999998
남평문씨본리세거지,대구 달성군,053-668-3162,"['관광지', '역사', '역사공부', '역사관광지', '역사를품은곳', '역사문화재', '역사속']",https://cdn.visitkorea.or.kr/img/call?cmd=VIEW&id=5476afa0-88e7-4e79-9e28-9ce540d4d014&thumb,대구광역시 달성군 화원읍 인흥3길 16,35.79240479999999,128.5178996
내곡 모감주나무군락,대구 동구,053-662-4103,"['관광지', '대구광역시기념물', '모감주나무군락', '자연관광지']",https://cdn.visitkorea.or.kr/img/call?cmd=VIEW&id=70965a44-225a-4c82-9e82-1de16da662f0&thumb,"대구광역시 동구 내곡동 221, 산91",35.88429499,128.7544477
녹동서원,대구 달성군,053-668-3162,"['가족여행', '경상권', '관광지', '녹동서원', '역사', '역사공부', '역사관광지', '역사를품은곳']",https://cdn.visitkorea.or.kr/img/call?cmd=VIEW&id=4e5a3b25-005d-45fd-84fe-1cb36f1d15b3&thumb,대구광역시 달성군 가창면 우록길 218,35.72320923,128.6463378
능성세가,대구 북구,053-665-4326,"['경상권', '고택', '관광지', '능성세가', '역사', '역사공부', '역사관광지', '역사를품은곳']",https://cdn.visitkorea.or.kr/img/call?cmd=VIEW&id=28bb0ce9-96c9-44f7-bd05-c69329f84c33&thumb,대구광역시 북구 서변로3길 47-12,35.92128331,128.593616
단산 저수지,대구 동구,053-627-1337,"['걷기길', '경치좋은곳', '관광지', '산책코스', '산책하기좋은곳', '자연', '자연관광지']",https://cdn.visitkorea.or.kr/img/call?cmd=VIEW&id=019a7a19-3515-4018-99ae-6d9b93384ce9&thumb,대구광역시 동구 팔공로50길 66,35.91921875,128.65171170000002
달서구청소년수련관,대구 달서구,053-639-7101,"['경상권', '달서구청소년수련관', '레포츠', '청소년수련관']",https://cdn.visitkorea.or.kr/img/call?cmd=VIEW&id=b4cba9db-963a-41ca-bb5a-e83ab1503890&thumb,대구광역시 달서구 상화로 420,35.80719879999999,128.55944879999998
달성 삼가헌 고택,대구 달성군,053-668-3162,"['가족여행', '경상권', '관광지', '달성삼가헌고택', '문화재', '역사', '역사공부']",https://cdn.visitkorea.or.kr/img/call?cmd=VIEW&id=be0f0fd4-2475-4362-8a88-9748a3972924&thumb,대구광역시 달성군 하빈면 묘동4길 15,35.90659553,128.4124731
달성 조길방가옥,대구 달성군,053-668-3162,"['경상권', '고택', '관광지', '교과서속여행', '문화재', '역사', '역사공부', '역사관광지']",https://cdn.visitkorea.or.kr/img/call?cmd=VIEW&id=6e157c16-c95f-42dd-8770-c79b7d428435&thumb,대구광역시 달성군 가창면 조길방길 92-1,35.75578003,128.5817112
달성 태고정,대구 달성군,053-668-3162,"['관광지', '역사', '역사공부', '역사관광지', '역사를품은곳', '역사를품은곳', '역사문화재']",https://cdn.visitkorea.or.kr/img/call?cmd=VIEW&id=1dfcc29a-0ff4-45de-bf88-f3acd7c58e3e&thumb,대구광역시 달성군 하빈면 육신사길 64,35.91137567,128.41653300000002
달성 한일우호관,대구 달성군,053-659-4490,"['경상권', '교과서속여행', '달성한일우호관', '문화시설', '박물관', '사계절', '아이와함께']",https://cdn.visitkorea.or.kr/img/call?cmd=VIEW&id=6e732473-2d38-444f-8284-4daaad55d2c4&thumb,대구광역시 달성군 가창면 우록길 206,35.72334111,128.6471646
달성(현풍)사직단,대구 달성군,053-668-3162,"['관광지', '역사', '역사공부', '역사관광지', '역사를품은곳', '역사문화재', '역사속']",https://cdn.visitkorea.or.kr/img/call?cmd=VIEW&id=3929cb2e-efe8-423d-b3b3-003351840cf0&thumb,대구광역시 달성군 현풍면 상리,35.69859,128.452363
달성습지생태학습관,대구 달성군,053-631-0105,"['관광지', '달성습지', '생태학습관']",https://cdn.visitkorea.or.kr/img/call?cmd=VIEW&id=21a1253b-403d-4a58-8e61-976635c35e74&thumb,대구광역시 달성군 화원읍 구라1길 88,35.8166846,128.4870564
달성하목정,대구 달성군,053-668-3162,"['경상권', '경상북도유형문화재', '관광지', '달성하목정', '역사', '역사공부', '역사관광지']",https://cdn.visitkorea.or.kr/img/call?cmd=VIEW&id=9599f6a3-7235-46e0-a591-5be13275d9b3&thumb,대구광역시 달성군 하빈면 하목정길 56-10,35.88169561,128.3979101
달성하천습지,대구 달성군,053-592-8852,"['걷기길', '경상권', '관광지', '낙동강', '달성습지', '달성하천습지', '대명천', '생태관광']",https://cdn.visitkorea.or.kr/img/call?cmd=VIEW&id=06c19891-dd3a-44d8-83f2-6eb6e7189f17&thumb,대구광역시 달성군 다사읍 죽곡리,35.826962,128.482121
대견사,대구 달성군,053-746-0020,"['관광지', '역사', '역사공부', '역사관광지', '역사를품은곳', '역사를품은곳', '역사문화재']",https://cdn.visitkorea.or.kr/img/call?cmd=VIEW&id=d06da3ad-9645-46d7-bfc7-13e789b1a122&thumb,대구광역시 달성군 유가읍 일연선사길 177,35.69638979,128.5298678
대구 계산동성당,대구 중구,053-254-2300,"['경상권', '관광지', '교과서속여행', '근대문화유산', '대구계산동성당', '역사']",https://cdn.visitkorea.or.kr/img/call?cmd=VIEW&id=a06b3fea-6108-46b4-93ec-cb8668461639&thumb,대구광역시 중구 서성로 10,35.86804277,128.5883053
대구 고모령비,대구 수성구,053-666-4922,"['걷기', '고모역', '관광지', '산책코스', '산책하기좋은곳', '아이와함께', '역사공부']",https://cdn.visitkorea.or.kr/img/call?cmd=VIEW&id=d4a9699e-f00f-4022-95f8-38dc8830ac84&thumb,대구광역시 동구 효목동,35.873424,128.65774299999998
대구 구 동촌역사,대구 동구,053-662-2361,"['건축물여행', '관광지', '사진찍기', '사진찍기좋은곳', '사진촬영', '사진촬영명소']",https://cdn.visitkorea.or.kr/img/call?cmd=VIEW&id=3bfd6872-b584-4ee5-b86c-0da8d0814ef9&thumb,대구광역시 동구 동촌역사로3길 35,35.890150399999996,128.6498294
대구 근대골목(근대로의 여행),대구 중구,053-661-3327,"['19_20한국관광100선', '가족여행', '경상권', '관광지', '근대문화거리', '근대문화예술']",https://cdn.visitkorea.or.kr/img/call?cmd=VIEW&id=31193e56-3a6c-45e6-a7a9-4f1a72c1994d&thumb,대구광역시 중구 경상감영길 99,35.87198212,128.59282579999999
대구 남구문화원,대구 남구,053-652-4450,"['남구문화원', '대구', '문화시설', '복합문화공간', '열린문화공간']",https://cdn.visitkorea.or.kr/img/call?cmd=VIEW&id=186ce4db-bf44-400f-935d-05bf26f33afb&thumb,대구광역시 남구 앞산순환로 478,35.83129333,128.57697040000002
대구 녹색에너지체험관,대구 달서구,053-580-7939,"['관광지', '대구녹색에너지체험관', '박물관', '산업관광', '신재생에너지', '아이와함께']",https://cdn.visitkorea.or.kr/img/call?cmd=VIEW&id=870d57ad-0e9b-47e6-b3d8-978bab3e003f&thumb,대구광역시 달서구 성서공단로 52,35.83460331,128.4881723
대구 달서문화원,대구 달서구,053-554-4800,"['달서문화원', '대구', '문화시설', '복합문화공간', '열린문화공간']",https://cdn.visitkorea.or.kr/img/call?cmd=VIEW&id=4be59fe6-4ec0-4ad9-b1dc-c48e4359e226&thumb,대구광역시 달서구 문화회관길 160,35.84342236,128.5228263
대구 달성공원,대구 중구,053-803-7361,"['가족여행', '걷기길', '걷기여행', '관광지', '나들이', '대구달성공원', '동물원']",https://cdn.visitkorea.or.kr/img/call?cmd=VIEW&id=b48e96ef-da61-43e4-8ca4-4bc7478384b6&thumb,대구광역시 중구 달성공원로 35,35.87324298,128.5791311
대구 달성습지,대구 달성군,053-592-8852,"['경상권', '관광지', '달성습지', '습지', '자연']",https://cdn.visitkorea.or.kr/img/call?cmd=VIEW&id=dd9c5ac9-361a-4a67-b548-d46551e41830&thumb,대구광역시 달성군 다사읍 죽곡리,35.826901,128.48214199999998
대구 도동 측백나무 숲,대구 동구,053-662-2363,"['관광지', '자연']",https://cdn.visitkorea.or.kr/img/call?cmd=VIEW&id=c73fe71e-5b0f-47dd-8874-7ec6659520cf&thumb,대구광역시 동구 도평로,35.918339,128.663222
대구 동성로거리,대구 중구,053-627-1337,"['관광지', '남녀노소', '대구가볼만한곳', '대구당일코스', '대구여행', '동성로']",https://cdn.visitkorea.or.kr/img/call?cmd=VIEW&id=11645cc5-31f9-45ed-8d27-73e6d5d38351&thumb,대구광역시 중구 동성로2길 27,35.8671833,128.5963071
대구 봉덕시장,대구 남구,053-471-2849,"['가족여행', '경상권', '기차여행', '나들이', '나홀로여행', '대구봉덕시장', '데이트코스']",https://cdn.visitkorea.or.kr/img/call?cmd=VIEW&id=c2787551-b61e-488e-87ef-cf30b3243daa&thumb,대구광역시 남구 봉덕로 115,35.84513894,128.6033943
대구 북구문화원,대구 북구,053-326-2553,"['경상권', '대구북구문화원', '무장애', '문화시설', '문화원', '지역문화']",https://cdn.visitkorea.or.kr/img/call?cmd=VIEW&id=5cbc1a15-96b1-4a53-bca0-0c27a2327c05&thumb,대구광역시 북구 구암로 47,35.93586735,128.5451287
대구 불로동 고분군,대구 동구,053-662-4103,"['가족여행', '경상권', '관광지', '대구불로동고분군', '사적', '역사', '역사공부']",https://cdn.visitkorea.or.kr/img/call?cmd=VIEW&id=bc14e26e-ad3b-4892-ad35-d770cbe09177&thumb,대구광역시 동구 불로동,35.9118092,128.6371544
대구 서구문화원,대구 서구,053-663-3081,"['대구', '문화시설', '복합문화공간', '서구문화원', '열린문화공간']",https://cdn.visitkorea.or.kr/img/call?cmd=VIEW&id=fa0ebf03-b3a1-47ef-a298-a2dd7b0c50d6&thumb,대구광역시 서구 당산로 403,35.87278996,128.5455378
대구 서문시장 & 서문시장 야시장,대구 중구,053-256-6341,"['가족여행', '경상권', '기차여행', '나들이', '나홀로여행', '대구서문시장', '먹거리']",https://cdn.visitkorea.or.kr/img/call?cmd=VIEW&id=f77259df-8bf1-4250-b49f-fa2175012858&thumb,대구광역시 중구 큰장로26길 45,35.86890721,128.58077179999998
대구 스파밸리,대구 달성군,1688-8511,"['경상권', '관광지', '남녀노소', '사우나', '스파', '스파밸리', '아이와함께', '연인과함께']",https://cdn.visitkorea.or.kr/img/call?cmd=VIEW&id=d4d19271-e006-4862-ac70-763eb9e6e18d&thumb,대구광역시 달성군 가창면 가창로 891,35.78801109,128.6361169
대구 아쿠아리움,대구 동구,053-247-8899,"['경상권', '대구가볼만한곳', '문화시설', '미세먼지_피하는_실내여행', '아이가_좋아하는_여행']",https://cdn.visitkorea.or.kr/img/call?cmd=VIEW&id=87d96143-f0ca-4091-9e7e-d65ae2f81cea&thumb,대구광역시 동구 동부로 149,35.87794067,128.62919
대구 안지랑시장,대구 남구,053-652-6569,"['가족여행', '나들이', '데이트코스', '먹거리', '쇼핑', '시장맛집', '아이와함께']",https://cdn.visitkorea.or.kr/img/call?cmd=VIEW&id=8f5ce47d-09cf-4a6f-a32c-9a195490e64c&thumb,대구광역시 남구 대명로36길 19,35.83808854,128.5760507
대구 약령시 한의약박물관,대구 중구,053-253-3359,"['경상권', '관광지', '대구약령시한의약박물관', '박물관', '산업관광', '산업관광지']",https://cdn.visitkorea.or.kr/img/call?cmd=VIEW&id=5c46d076-8bf0-44f4-90fd-b799e2e100b7&thumb,대구광역시 중구 달구벌대로415길 49,35.86851616,128.5899081
대구 오토바이골목,대구 중구,053-627-1337,"['골목여행', '골목투어', '관광지', '남녀노소', '대구가볼만한곳', '대구거리', '대구광역시']",https://cdn.visitkorea.or.kr/img/call?cmd=VIEW&id=212e0282-74e0-4665-b1a8-2ed7f7b1f6d3&thumb,대구광역시 중구 인교동,35.872767700000004,128.5838899
대구 옻골마을,대구 동구,053-627-8906,"['가족여행', '걷기길', '경상권', '관광지', '농촌체험', '대구옻골마을', '역사', '자연마을']",https://cdn.visitkorea.or.kr/img/call?cmd=VIEW&id=503cdaeb-3e05-4284-a13b-faba1927ae8a&thumb,대구광역시 동구 둔산동,35.90639829999999,128.6872189
대구 중구 골목투어버스 (청라버스),대구 중구,053-255-0531,"['가족과함께', '골목투어', '관광지', '대구근대골목투어', '데이트코스', '버스여행']",https://cdn.visitkorea.or.kr/img/call?cmd=VIEW&id=a6d5b438-9262-47f7-b2e7-f9db9a8646f8&thumb,대구광역시 북구 태평로 161,35.87588495,128.5961292
대구 중구문화원,대구 중구,053-255-5123,"['경상권', '대구중구문화원', '문화', '문화시설', '문화원', '사계절', '실내여행지']",https://cdn.visitkorea.or.kr/img/call?cmd=VIEW&id=9c9c3df3-48c1-42ca-ae84-86160f0351f8&thumb,대구광역시 중구 봉산문화길 77,35.86339725,128.59656470000002
대구 진골목,대구 중구,053-661-2624,"['관광지', '대구가볼만한곳', '산책하기', '산책하기좋은곳', '역사공부', '역사를품은곳']",https://cdn.visitkorea.or.kr/img/call?cmd=VIEW&id=c64e1194-27a5-49d7-8ea3-cf09f2a53bdd&thumb,대구광역시 중구 진골목길 26,35.86863623,128.5928173
대구 칠성시장,대구 북구,053-423-3480,"['가족여행', '나들이', '대구칠성시장', '데이트코스', '먹거리', '쇼핑', '시장맛집']",https://cdn.visitkorea.or.kr/img/call?cmd=VIEW&id=8d717338-1ecb-4be0-93d0-ad5ee7f73db3&thumb,대구광역시 북구 칠성시장로 28,35.87697957,128.604501
대구 코오롱 야외음악당,대구 달서구,053-606-6450,"['공연장', '대구', '무장애', '문화시설', '야외공연장', '음악당']",https://cdn.visitkorea.or.kr/img/call?cmd=VIEW&id=79ec803a-fa02-4ff2-9346-479c290c0107&thumb,대구광역시 달서구 야외음악당로 180,35.85114987,128.5561992
대구 평화시장,대구 동구,053-956-8413,"['가족여행', '나들이', '닭똥집골목', '대구평화시장', '데이트코스', '먹거리', '쇼핑']",https://cdn.visitkorea.or.kr/img/call?cmd=VIEW&id=e5030e24-ea34-437c-b2e5-7caafec8e485&thumb,대구광역시 동구 아양로9길 10,35.88300569,128.6192564
대구 평화시장 닭똥집 골목,대구 동구,,"['가족여행', '걷기좋은길', '경상권', '관광지', '대구평화시장닭똥집골목', '데이트코스']",https://cdn.visitkorea.or.kr/img/call?cmd=VIEW&id=02bed4a9-0dde-43ba-8e5b-e772c261eaea&thumb,대구광역시 동구 아양로9길 10,35.88313196,128.6192722
대구 하중도,대구 북구,053-627-1337,"['관광지', '자연']",https://cdn.visitkorea.or.kr/img/call?cmd=VIEW&id=f4e4270e-3a5d-483a-ad70-d4d934a6b7ca&thumb,대구광역시 북구 노곡동 665,35.9004496,128.5600939
대구 한약재 도매시장,대구 중구,053-257-0545,"['가족여행', '경상권', '나들이', '나홀로여행', '대구한약재도매시장', '먹거리']",https://cdn.visitkorea.or.kr/img/call?cmd=VIEW&id=35337bb0-057a-4e24-b8e3-a0b29dbc6d9c&thumb,대구광역시 중구 남성로 51-1,35.86728197,128.5923712
대구경북디자인센터,대구 동구,053-740-0016,"['견학', '경상권', '관광지', '교육여행', '교육프로그램', '대구경북디자인센터']",https://cdn.visitkorea.or.kr/img/call?cmd=VIEW&id=d9531f84-c531-419b-bf12-8855f6ccd12f&thumb,대구광역시 동구 동대구로 461,35.87141949,128.6248369
대구광역시립남부도서관,대구 남구,053-231-2300,"['남부도서관', '대구광역시립남부도서관', '대구권', '문화시설', '아이와함께']",https://cdn.visitkorea.or.kr/img/call?cmd=VIEW&id=6f5ddff5-6c37-470f-a71d-6cca1c875c0e&thumb,대구광역시 남구 앞산순환로 512,35.83205667,128.5807514
대구광역시립중앙도서관,대구 중구,053-231-2000,"['가족과함께', '대구광역시립중앙도서관', '대구권', '문화시설', '아이와함께']",https://cdn.visitkorea.or.kr/img/call?cmd=VIEW&id=727586d4-73ca-4972-ae1a-4d80b4102b35&thumb,대구광역시 중구 공평로10길 25,35.86844035,128.6017133
대구광역시어린이회관,대구 수성구,053-803-7930,"['대구광역시어린이회관', '대구권', '문화시설', '아이와함께', '어린이회관']",https://cdn.visitkorea.or.kr/img/call?cmd=VIEW&id=1127798d-cd6a-448f-8a67-82b490cc3d50&thumb,대구광역시 수성구 동대구로 176,35.84663547,128.6277931
대구광역시청소년수련원,대구 달서구,053-656-6655,['레포츠'],https://cdn.visitkorea.or.kr/img/call?cmd=VIEW&id=37c5e893-1af3-4593-aa55-76377c032f58&thumb,대구광역시 달서구 앞산순환로 180,35.8204704,128.55330690000002
대구교육대학교 교육박물관,대구 남구,053-620-1471,"['경상권', '대구교육대학교교육박물관', '문화시설', '박물관']",https://cdn.visitkorea.or.kr/img/call?cmd=VIEW&id=5bab020b-9db4-49e4-8318-ce11802050af&thumb,대구광역시 남구 중앙대로 219,35.85143158,128.5877392
대구교육박물관,대구 북구,053-231-1790,"['가족과함께', '교육여행', '교육프로그램', '대구가볼만한곳', '문화시설', '미세먼지_피하는_실내여행']",https://cdn.visitkorea.or.kr/img/call?cmd=VIEW&id=f0b881f6-8f5d-453b-afcf-ef5e42ea5086&thumb,대구광역시 북구 대동로1길 40,35.8973687,128.6118383
대구국제공항 면세점,대구 동구,1800-1160,"['공항', '대구', '면세점', '쇼핑']",https://cdn.visitkorea.or.kr/img/call?cmd=VIEW&id=f36b4dc3-d803-49e2-a2e3-5bf948a82fcc&thumb,대구광역시 동구 공항로 221,35.89910868,128.6392615
대구근대역사관,대구 중구,053-606-6430,"['경상권', '교과서속여행', '근대문화유산', '기념관', '나홀로여행', '대구근대역사관']",https://cdn.visitkorea.or.kr/img/call?cmd=VIEW&id=6d9bdfb0-66cc-4127-b2ed-412e4f45322f&thumb,대구광역시 중구 경상감영길 67,35.87179779,128.5911599
대구두류공원,대구 달서구,053-803-7481,"['가족여행', '관광지', '나들이', '대구두류공원', '아이와함께', '야경투어', '연인과함께']",https://cdn.visitkorea.or.kr/img/call?cmd=VIEW&id=ae9c46d7-7dc4-4e39-8c98-151bba439a53&thumb,대구광역시 달서구 두류공원로 161,35.850003,128.5637018
대구문화예술회관,대구 달서구,053-606-6114,"['기차여행', '대구문화예술회관', '문화시설', '아이와함께', '여행', '연인과함께']",https://cdn.visitkorea.or.kr/img/call?cmd=VIEW&id=fbb856d1-bd65-4821-9ac1-96e01f45cc89&thumb,대구광역시 달서구 공원순환로 201,35.84476741,128.5581018
대구미술관,대구 수성구,053-803-7900,"['경상권', '대구미술관', '데이트코스', '문화공간', '문화시설', '복합문화공간']",https://cdn.visitkorea.or.kr/img/call?cmd=VIEW&id=8422e8c5-28d1-4387-852c-d69508d1bf24&thumb,대구광역시 수성구 미술관로 40,35.82702862,128.6743408
대구부수성비,대구 수성구,053-666-4923,"['관광지', '역사', '역사공부', '역사관광지', '역사를품은곳', '역사문화재', '역사속']",https://cdn.visitkorea.or.kr/img/call?cmd=VIEW&id=7c77a7f5-37f7-4ebe-ad70-ccfbac6a12b6&thumb,대구광역시 수성구 팔현길 248,35.87526816,128.65826570000002
대구북구청소년회관 아트홀,대구 북구,053-383-1300,"['경상권', '대구북구청소년회관아트홀', '문화시설', '상설공연']",https://cdn.visitkorea.or.kr/img/call?cmd=VIEW&id=17d0b930-cd04-4d4d-b7f0-94d037a9f56b&thumb,대구광역시 북구 검단로 71-17,35.90578013,128.61605120000002
대구사격장,대구 북구,053-312-0000,"['대구북구', '레포츠', '사격장', '실내레포츠', '실내스크린사격', '친구와함께']",https://cdn.visitkorea.or.kr/img/call?cmd=VIEW&id=a52dd52c-3af1-4964-b511-d6cce142f010&thumb,대구광역시 북구 문주길 170,35.91129570000001,128.5243312
대구서구문화회관,대구 서구,053-663-3081,"['경상권', '대구서구문화회관', '문화시설', '상설공연', '예술', '전시회', '체험학습']",https://cdn.visitkorea.or.kr/img/call?cmd=VIEW&id=aa5770a0-63f5-496f-9727-53b3065ca295&thumb,대구광역시 서구 당산로 403,35.87278996,128.5455378
대구섬유박물관,대구 동구,053-980-1004,"['관광지', '대구섬유박물관', '박물관', '산업관광', '산업관광지', '섬유박물관']",https://cdn.visitkorea.or.kr/img/call?cmd=VIEW&id=ad1785ac-a450-4f56-bc72-f58139d5bf4d&thumb,대구광역시 동구 팔공로 227,35.9191,128.6402955
대구수목원,대구 달서구,053-803-7270,"['가족여행', '걷기길', '관광지', '대구수목원', '데이트코스', '산책로', '산책하기좋은곳']",https://cdn.visitkorea.or.kr/img/call?cmd=VIEW&id=f29cc23e-a445-4b26-94df-39fe27f8f998&thumb,대구광역시 달서구 화암로 342,35.80033131,128.52062220000002
대구수성구청소년수련관,대구 수성구,053-761-9400,['레포츠'],https://cdn.visitkorea.or.kr/img/call?cmd=VIEW&id=d27b18e7-e99e-4cbf-9b1c-4275cb0f30ad&thumb,대구광역시 수성구 청수로45길 100,35.84484310000001,128.6319043
대구스타디움,대구 수성구,053-602-2033,"['경상권', '대구스타디움', '레포츠', '스포츠체험', '실내경기장']",https://cdn.visitkorea.or.kr/img/call?cmd=VIEW&id=907fb7d3-a35a-4b3a-88dd-d37ef221edaf&thumb,대구광역시 수성구 유니버시아드로 180,35.8298301,128.690203
대구시민안전테마파크,대구 동구,053-980-7777,"['경상권', '관광지', '대구시민안전테마파크', '미세먼지_피하는_실내여행', '아이와함께']",https://cdn.visitkorea.or.kr/img/call?cmd=VIEW&id=429e9391-c220-40a5-ba11-c6cbde70bb10&thumb,대구광역시 동구 팔공산로 1155,35.98920551,128.69198
대구시민운동장,대구 북구,053-606-8200,"['대구북구', '대구시민운동장', '레포츠', '축구경기장']",https://cdn.visitkorea.or.kr/img/call?cmd=VIEW&id=9b007f3d-2b8e-4472-989a-5eb54cd2a37b&thumb,대구광역시 북구 고성로35길 12-1,35.8816223,128.5850924
대구실내빙상장,대구 북구,053-357-6021,"['경상권', '대구실내빙상장', '레포츠', '실내빙상장']",https://cdn.visitkorea.or.kr/img/call?cmd=VIEW&id=e981feb5-f730-459a-ab8a-43b7dafd7ab2&thumb,대구광역시 북구 고성로 191,35.8822438,128.5873807
대구앞산공원,대구 남구,053-625-0967,"['가족여행', '관광지', '나들이', '대구앞산공원', '아이와함께', '야간관광100선']",https://cdn.visitkorea.or.kr/img/call?cmd=VIEW&id=a2e42eb7-055e-4ae0-849b-72ef04ec6057&thumb,대구광역시 남구 앞산순환로 574-87,35.82896236,128.58902790000002
대구예술발전소,대구 중구,053-430-1225,"['경상권', '기념품판매', '대구예술발전소', '문화시설', '문화행사', '예술', '음악회']",https://cdn.visitkorea.or.kr/img/call?cmd=VIEW&id=e887c324-5a2e-4899-aa0c-2ade809b7d53&thumb,대구광역시 중구 달성로22길 31-12,35.87543672,128.5844989
대구오페라하우스,대구 북구,053-666-6000,"['대구오페라하우스', '도심여행', '문화시설', '실내여행지', '연인과함께', '음악회']",https://cdn.visitkorea.or.kr/img/call?cmd=VIEW&id=3989e948-b7b0-4d3d-a682-cd94db1df0a0&thumb,대구광역시 북구 호암로 15,35.88346535,128.5922331
대구제일교회,대구 중구,053-253-2615,"['경상권', '관광지', '교과서속여행', '근대문화유산', '대구제일교회', '역사', '역사공부']",https://cdn.visitkorea.or.kr/img/call?cmd=VIEW&id=4d294a4d-9392-42e9-8b78-8011ea5453ca&thumb,대구광역시 중구 국채보상로102길 50,35.86783389,128.58635149999998
대구종합유통단지관리공단,대구 북구,053-381-3690,"['대구산업', '대구쇼핑', '쇼핑', '테마상가']",https://cdn.visitkorea.or.kr/img/call?cmd=VIEW&id=af7123cd-4696-42f6-9a1d-30e141adf895&thumb,대구광역시 북구 유통단지로13길 9,35.90821539,128.60912539999998
대구콘서트하우스 (구.대구시민회관),대구 중구,053-250-1400,"['가족여행', '공연장', '기차여행', '나들이', '대구시민회관', '대구콘서트하우스']",https://cdn.visitkorea.or.kr/img/call?cmd=VIEW&id=8e916593-20c8-44d1-a86d-6d1f356b74a3&thumb,대구광역시 중구 태평로 141,35.87605900000001,128.5936972
대구향교,대구 중구,053-422-8700,"['관광지', '대구향교', '아이와함께', '역사', '역사공부', '역사관광지', '역사를품은곳']",https://cdn.visitkorea.or.kr/img/call?cmd=VIEW&id=48476d1d-d945-4448-b71b-36d16cc75738&thumb,대구광역시 중구 명륜로 112,35.85968624,128.5960031
대덕승마장,대구 달서구,053-656-0467,['레포츠'],https://cdn.visitkorea.or.kr/img/call?cmd=VIEW&id=a719d501-e4f7-4a5f-88df-12ac478d62de&thumb,대구광역시 달서구 앞산순환로 206,35.8216975,128.5544088
대림목공예,대구 동구,053-982-3455,"['경상권', '대림목공예', '목공예', '쇼핑']",https://cdn.visitkorea.or.kr/img/call?cmd=VIEW&id=abc36915-5db7-4150-b5cd-a1c89455f5f4&thumb,대구광역시 동구 공항로33길 21,35.90292460000001,128.6331256
대명공연문화거리,대구 남구,053-664-3263,"['거리공연', '관광지', '국악공연', '남녀노소', '데이트', '문화거리', '야외공연']",https://cdn.visitkorea.or.kr/img/call?cmd=VIEW&id=41c6cacd-afab-4f71-b413-135de30e377c&thumb,대구광역시 남구 계명중앙1길 54,35.85571708,128.5825829
대백프라자갤러리,대구 중구,053-420-8015,"['가족여행', '기차여행', '대백프라자갤러리', '문화시설', '미술관', '실내여행지']",https://cdn.visitkorea.or.kr/img/call?cmd=VIEW&id=2868aa31-8b4f-49da-846e-a575dc0d9222&thumb,대구광역시 중구 명덕로 333,35.85571704,128.6063616
대성사(대구),대구 중구,053-256-9651,"['관광지', '불교', '불교문화', '사찰', '사찰여행', '역사', '자연속으로', '자연환경']",https://cdn.visitkorea.or.kr/img/call?cmd=VIEW&id=null&thumb,대구광역시 중구 북성로 19-1,35.87375605,128.5844787
덕산서원(대구),대구 수성구,053-666-4927,"['관광지', '역사', '역사공부', '역사관광지', '역사를품은곳', '역사문화재', '역사속']",https://cdn.visitkorea.or.kr/img/call?cmd=VIEW&id=4d00e2f5-f247-4952-9917-7887ca27f0ef&thumb,대구광역시 수성구 청호로46길 5-3,35.83897757,128.640414
도곡재,대구 달성군,053-668-3162,"['관광지', '역사', '역사공부', '역사관광지', '역사를품은곳', '역사문화재', '역사속']",https://cdn.visitkorea.or.kr/img/call?cmd=VIEW&id=03171616-42e4-4a34-893b-c4ce0fedf90d&thumb,대구광역시 달성군 하빈면 육신사길 60,35.910452,128.4164752
도동서원 [유네스코 세계문화유산],대구 달성군,053-668-3162,"['관광지', '역사', '역사공부', '역사관광지', '역사를품은곳', '역사문화재', '역사속']",https://cdn.visitkorea.or.kr/img/call?cmd=VIEW&id=a45b667f-8b66-463d-acaf-9a91ea490862&thumb,대구광역시 달성군 구지면 구지서로 726,35.7016989,128.37183100000001
도성암,대구 달성군,053-614-9167,"['관광지', '불교', '불교문화', '사찰', '사찰여행', '역사', '자연속으로', '자연환경']",https://cdn.visitkorea.or.kr/img/call?cmd=VIEW&id=57d06af7-5c00-41ca-b61a-32fe9ee83601&thumb,대구광역시 달성군 유가읍 도성길 180,35.71766194,128.51672140000002
도성암 3층석탑,대구 달성군,053-614-9167,"['관광지', '불교', '불교문화', '사찰여행', '역사', '역사공부', '역사를품은곳', '역사속']",https://cdn.visitkorea.or.kr/img/call?cmd=VIEW&id=9a2d1ecd-8eee-4ab4-abef-301a3ff59ccd&thumb,대구광역시 달성군 유가읍 도성길 180,35.71766194,128.51672140000002
독무재,대구 수성구,053-666-4927,"['관광지', '역사', '역사공부', '역사관광지', '역사를품은곳', '역사문화재', '역사속']",https://cdn.visitkorea.or.kr/img/call?cmd=VIEW&id=b2cad45a-1a7c-4013-a2a9-2a8ff0b41b6a&thumb,대구광역시 수성구 화랑로42길 31,35.87749061,128.64850829999997
동산청라언덕,대구 중구,053-627-1337,"['관광지', '대구가볼만한곳', '대구근대골목', '대구근대골목투어', '대구여행']",https://cdn.visitkorea.or.kr/img/call?cmd=VIEW&id=973d3e95-d09f-49b1-af21-8d4e201ac9bd&thumb,대구광역시 중구 달성로 56,35.87017531,128.5825192
동아아울렛 (본점),대구 중구,1577-0111,"['대구아울렛', '쇼핑', '아울렛', '유명브랜드']",https://cdn.visitkorea.or.kr/img/call?cmd=VIEW&id=5d3be21b-65f9-416e-a7be-4356c711cf79&thumb,대구광역시 중구 경상감영길 171,35.87261511,128.5968916
동원화랑,대구 중구,053-423-1300,"['기차여행', '나들이', '데이트코스', '동원화랑', '문화시설', '미술관', '실내여행지']",https://cdn.visitkorea.or.kr/img/call?cmd=VIEW&id=46963259-4611-4a0e-8492-71963901dc6d&thumb,대구광역시 중구 봉산문화길 42,35.86200474,128.5981419
동인찜갈비골목,대구 중구,053-627-1337,"['관광지', '남녀노소', '돼지갈비찜', '맛집투어', '먹자골목', '숨은맛집', '왕갈비']",https://cdn.visitkorea.or.kr/img/call?cmd=VIEW&id=76e51cf7-8587-4244-8e09-dd1996a56d63&thumb,대구광역시 중구 동덕로36길 9-12,35.87096462,128.6051236
동촌유원지,대구 동구,053-662-2865,"['가족과함께', '관광지', '대구시민', '드라이브코스', '산책코스', '산책하기좋은곳']",https://cdn.visitkorea.or.kr/img/call?cmd=VIEW&id=187dd0d4-c016-44c3-9b55-51eede791bc7&thumb,대구광역시 동구 효동로2길 72,35.87822891,128.6546088
동화사(대구),대구 동구,053-980-7900,"['가족여행', '관광지', '교과서속여행', '동화사', '사찰&산사', '아이와함께', '역사']",https://cdn.visitkorea.or.kr/img/call?cmd=VIEW&id=a1255055-bd4d-4ef2-a951-26972998d2c9&thumb,대구광역시 동구 동화사1길 1,35.99210775,128.7058059
두류수영장(실내),대구 달서구,053-623-2156,['레포츠'],https://cdn.visitkorea.or.kr/img/call?cmd=VIEW&id=f135d60e-fa71-4565-943e-ec8796cf0c4f&thumb,대구광역시 달서구 공원순환로 237,35.8466284,128.5621046
들안길먹거리타운,대구 수성구,053-627-1337,"['겨울음식', '관광지', '대구가볼만한곳', '맛집골목', '맛집탐방', '먹자골목', '수제음식']",https://cdn.visitkorea.or.kr/img/call?cmd=VIEW&id=4768c6f1-f66f-4133-8795-c3b8fb4f5314&thumb,대구광역시 수성구 들안로 109-1,35.83967351,128.6162254
디아크문화관,대구 달성군,053-585-0916,"['경상권', '관광지', '디아크문화관', '산업관광', '아이와함께', '연인과함께', '이색체험']",https://cdn.visitkorea.or.kr/img/call?cmd=VIEW&id=06481de7-f3d9-441d-afc0-d46df051e14d&thumb,대구광역시 달성군 다사읍 강정본길 57,35.84116416,128.46505630000001
땅땅랜드(대구 봉무동),대구 동구,053-721-7599,"['가족과함께', '가족체험', '관광지', '남녀노소', '대구치맥페스티벌', '복합문화공간']",https://cdn.visitkorea.or.kr/img/call?cmd=VIEW&id=e5e458e0-adb6-4620-a83b-731de6b1235e&thumb,대구광역시 동구 팔공로 220-2,35.91752055,128.64167350000002
리조트 스파밸리,대구 달성군,1688-8511,"['가족과함께', '관광지', '국내힐링여행', '스파밸리', '연인과함께', '휴식공간']",https://cdn.visitkorea.or.kr/img/call?cmd=VIEW&id=bfa186fc-e57d-4dee-9da7-e57e07395b22&thumb,대구광역시 달성군 가창면 가창로 891,35.78801109,128.6361169
마비정 벽화마을,대구 달성군,053-633-6407,"['가족여행', '경상권', '관광지', '마비정벽화마을', '사진찍기좋은곳', '산책하기좋은곳']",https://cdn.visitkorea.or.kr/img/call?cmd=VIEW&id=fd1df497-a53a-4021-a177-09f9c92168ed&thumb,대구광역시 달성군 화원읍 마비정길 259,35.77931798,128.5422756
망우당공원,대구 동구,053-662-2861,"['가족여행', '관광지', '교과서속여행', '기념관', '나들이', '망우당공원', '아이와함께']",https://cdn.visitkorea.or.kr/img/call?cmd=VIEW&id=35d86778-6d15-447d-a97e-a9a9271756fc&thumb,대구광역시 동구 효목동,35.877028,128.65741699999998
매양서원,대구 북구,053-665-4326,"['경상권', '관광지', '교과서속여행', '매양서원', '서원', '역사', '역사공부', '역사관광지']",https://cdn.visitkorea.or.kr/img/call?cmd=VIEW&id=452f2dff-938c-4726-b651-20014ef71e5e&thumb,대구광역시 북구 매천로37길 48,35.91531262,128.5380304
맥향화랑,대구 중구,053-421-2005,"['공연', '문화공간', '문화시설', '문화예술', '미술품', '복합문화공간', '전시', '전시/공연']",https://cdn.visitkorea.or.kr/img/call?cmd=VIEW&id=3e26e796-bb2e-40d3-96c6-aa588a01f683&thumb,대구광역시 중구 동덕로 74,35.86145989,128.603849
모명재,대구 수성구,053-666-4927,"['경상권', '관광지', '모명재', '역사', '역사공부', '역사관광지', '역사를품은곳']",https://cdn.visitkorea.or.kr/img/call?cmd=VIEW&id=b8e94bd1-a12b-494c-97f4-af2b03e65876&thumb,대구광역시 수성구 달구벌대로525길 14-21,35.85839969,128.651493
묘골마을,대구 달성군,053-668-2482,"['가족여행', '경상권', '관광지', '묘골마을', '역사', '역사공부', '역사관광지', '역사를품은곳']",https://cdn.visitkorea.or.kr/img/call?cmd=VIEW&id=6666c874-eccc-4352-acaa-744c4bec2f78&thumb,대구광역시 달성군 하빈면 육신사길 39-4,35.90907267,128.415721
문창공영당,대구 동구,053-662-2362,"['관광지', '역사', '역사공부', '역사관광지', '역사를품은곳', '역사문화재', '역사속']",https://cdn.visitkorea.or.kr/img/call?cmd=VIEW&id=72dfb42a-c3fe-4c9c-9b55-9d044873193e&thumb,대구광역시 동구 도평로38길 51,35.915204200000005,128.663321
물레책방,대구 수성구,053-753-0423,"['관광지', '남녀노소', '독서공간', '독서여행', '독서회', '문화공간', '복합문화공간']",https://cdn.visitkorea.or.kr/img/call?cmd=VIEW&id=8820a68d-bc0e-41c8-ae82-d4197f414062&thumb,대구광역시 수성구 달구벌대로492길 15,35.85738613,128.63222199999998
바운스 트램폴린파크(대구신세계점),대구 동구,053-661-1780,"['관광지', '레포츠체험', '미세먼지_피하는_실내여행', '바운스트램폴린파크']",https://cdn.visitkorea.or.kr/img/call?cmd=VIEW&id=d01a85d3-2063-4ec5-9210-b7f1a1059ab0&thumb,대구광역시 동구 효신로 88,35.87967705,128.63319009999998
박곡서당,대구 달성군,053-668-3162,"['경상권', '관광지', '교과서속여행', '박곡서당', '역사', '역사공부', '역사관광지']",https://cdn.visitkorea.or.kr/img/call?cmd=VIEW&id=f3c8608a-3314-4030-97d2-8b756a3a04ba&thumb,대구광역시 달성군 가창면 가창동로 219-5,35.77809659,128.6652684
박물관 수,대구 수성구,053-744-5500,"['경상권', '교육체험', '남녀노소', '문화시설', '민화', '박물관', '박물관수', '복합문화공간']",https://cdn.visitkorea.or.kr/img/call?cmd=VIEW&id=0ffa00d9-294d-484f-8fb7-83bce68a5bfc&thumb,대구광역시 수성구 국채보상로186길 79,35.8648602,128.6341714
반고개 무침회 골목,대구 서구,053-663-2752,"['골목식당', '관광지', '맛집탐방', '먹자골목', '먹자골목', '먹자골목', '숨은맛집']",https://cdn.visitkorea.or.kr/img/call?cmd=VIEW&id=700536b3-a63f-45b7-a7bb-cfaf4e246413&thumb,대구광역시 서구 달구벌대로375길 14-1,35.86227584,128.5701386
반야월역사작은도서관,대구 동구,053-662-4110,"['문화시설', '반야월역', '반야월역사작은도서관']",https://cdn.visitkorea.or.kr/img/call?cmd=VIEW&id=8e58a386-8664-4e38-8750-15cf626bfc50&thumb,대구광역시 동구 신서로 50,35.87250383,128.7249556
방천시장,대구 중구,,"['대구', '쇼핑', '시장', '재래시장']",https://cdn.visitkorea.or.kr/img/call?cmd=VIEW&id=fb37536f-7fcc-4de6-a4a2-bcf8dc57081b&thumb,대구광역시 중구 달구벌대로446길,35.86166702,128.6058217
백련사(대구),대구 달서구,053-653-4324,"['경상권', '관광지', '백련사', '불교', '불교문화', '불교사찰', '사찰', '사찰여행']",https://cdn.visitkorea.or.kr/img/call?cmd=VIEW&id=da22af0f-3723-4551-bfd6-538a9eecca20&thumb,대구광역시 달서구 중흥로 67,35.82903201,128.5595526
백원서원,대구 동구,042-662-2363,"['경상권', '관광지', '교과서속여행', '백원서원', '서원', '역사', '역사공부', '역사관광지']",https://cdn.visitkorea.or.kr/img/call?cmd=VIEW&id=f1c1b512-0bde-4cf5-9ca9-4bf7bf99f72a&thumb,대구광역시 동구 도평로51길 18,35.92079012,128.66300230000002
법장사(대구),대구 남구,053-471-0414,"['관광지', '불교', '불교문화', '사찰', '사찰여행', '역사', '자연속으로', '자연환경']",https://cdn.visitkorea.or.kr/img/call?cmd=VIEW&id=5f68b3f5-b4c8-4785-991b-23ddc85db10f&thumb,대구광역시 남구 고산3길 96-4,35.82338911,128.59983219999998
별빛캠프 캠핑장,대구 달서구,053-667-3191,"['가족과함께', '남녀노소', '레포츠', '아이와함께', '오토캠핑장', '자연환경', '캠핑장']",https://cdn.visitkorea.or.kr/img/call?cmd=VIEW&id=3d330c1e-dc66-4b7c-8e1c-51f178fd3543&thumb,대구광역시 달서구 앞산순환로 248,35.8211005,128.5574352
병암서원,대구 달서구,053-581-4129,"['관광지', '역사', '역사공부', '역사관광지', '역사를품은곳', '역사문화', '역사문화재']",https://cdn.visitkorea.or.kr/img/call?cmd=VIEW&id=a1206821-87f3-4097-bac2-77b569fdeeff&thumb,대구광역시 달서구 새방로 21,35.86132483,128.5206615
봉무정,대구 동구,053-662-2362,"['경상권', '관광지', '교과서속여행', '문화재', '봉무정', '역사', '역사공부', '역사관광지']",https://cdn.visitkorea.or.kr/img/call?cmd=VIEW&id=8f99e047-9d9e-475f-b7dc-710e7fd9dc99&thumb,대구광역시 동구 팔공로 327-7,35.92805563,128.6405515
봉산문화거리,대구 중구,053-425-6845,"['관광지', '남녀노소', '문화거리', '문화예술', '문화예술공간', '문화예술활동']",https://cdn.visitkorea.or.kr/img/call?cmd=VIEW&id=369a3660-3efa-4ee6-b0b3-861dc1e6ff2b&thumb,대구광역시 중구 봉산문화길 38,35.86180679,128.5980189
봉산문화회관,대구 중구,053-661-3500,"['경상권', '데이트코스', '문화공간', '문화시설', '문화행사', '복합문화공간', '봉산문화회관']",https://cdn.visitkorea.or.kr/img/call?cmd=VIEW&id=7e8f9488-aff1-4529-bdcf-766c61cdb516&thumb,대구광역시 중구 봉산문화길 77,35.86339725,128.59656470000002
봉산서원(대구),대구 수성구,053-666-4927,"['관광지', '역사', '역사공부', '역사관광지', '역사를품은곳', '역사문화재', '역사속']",https://cdn.visitkorea.or.kr/img/call?cmd=VIEW&id=e2ed0d88-c085-434c-9d16-16da0a3adce8&thumb,대구광역시 수성구 수성로12길 70,35.83305897,128.6122716
부인사(대구),대구 동구,053-982-5006,"['가족여행', '경상권', '관광지', '부인사(대구)', '불교', '불교문화', '사찰', '사찰&산사']",https://cdn.visitkorea.or.kr/img/call?cmd=VIEW&id=da6e6d59-d61b-4e85-8b99-d2ca096b71db&thumb,대구광역시 동구 팔공산로 967-28,35.99479567,128.6739796
북지장사(대구),대구 동구,053-985-5217,"['경상권', '관광지', '북지장사', '불교문화', '사찰', '사찰여행', '역사', '연중무휴']",https://cdn.visitkorea.or.kr/img/call?cmd=VIEW&id=f4629734-812a-4988-85b7-3bca033f8a60&thumb,대구광역시 동구 도장길 243,35.976444799999996,128.7148455
"불로장 / 불로전통시장 (5, 10일)",대구 동구,053-982-8588,"['가족여행', '경상권', '기차여행', '나들이', '나홀로여행', '먹거리', '불로장', '불로전통시장']",https://cdn.visitkorea.or.kr/img/call?cmd=VIEW&id=bd1c4a8d-e4de-447e-a529-641f02d05f15&thumb,대구광역시 동구 팔공로26길 9-1,35.91040108,128.6419422
비슬산 군립공원,대구 달성군,053-614-5481,"['관광지', '자연']",https://cdn.visitkorea.or.kr/img/call?cmd=VIEW&id=e0221a01-87bf-4b20-8376-b8caa57d9127&thumb,대구광역시 달성군 유가면 휴양림길 230,35.716884,128.52488400000001
비슬산 유가사,대구 달성군,053-614-5115,"['가족여행', '경상권', '관광지', '불교', '불교사찰', '비슬산유가사', '사찰', '사찰여행']",https://cdn.visitkorea.or.kr/img/call?cmd=VIEW&id=c09faea2-9e88-4bec-bc1c-b31d0d56e7df&thumb,대구광역시 달성군 유가읍 유가사길 161,35.71426861,128.5074722
비슬산자연휴양림,대구 달성군,053-659-4400,"['가족여행', '걷기길', '경상권', '관광지', '등산', '등산로', '비슬산', '비슬산자연휴양림']",https://cdn.visitkorea.or.kr/img/call?cmd=VIEW&id=369872d5-0aac-4649-b6e4-24b8d7583e2e&thumb,대구광역시 달성군 유가면 휴양림길 230,35.689999,128.5128966
사문진 주막촌,대구 달성군,053-659-4465,"['경상권', '관광지', '사문진주막촌', '시티투어', '언택트관광지_100선', '영화&드라마촬영지']",https://cdn.visitkorea.or.kr/img/call?cmd=VIEW&id=7ddba106-5dcc-4479-b767-d12f8cf07307&thumb,대구광역시 달성군 화원읍 사문진로1길 40-12,35.81090234,128.4779211
사효자굴,대구 달성군,053-668-3162,"['관광지', '사효굴', '사효자굴', '사효자비', '역사', '역사공부', '역사관광지', '역사를품은곳']",https://cdn.visitkorea.or.kr/img/call?cmd=VIEW&id=9369e7d5-0802-45ae-ae3b-17835b0e10e0&thumb,대구광역시 달성군 유가읍 양리,35.703697999999996,128.483471
상리공원,대구 서구,053-663-2867,"['경상권', '공원', '관광지', '산책길', '산책로', '산책하기', '산책하기좋은곳', '상리공원']",https://cdn.visitkorea.or.kr/img/call?cmd=VIEW&id=76e3bec6-2367-4ec5-aeb0-c9db773f2bdd&thumb,대구광역시 서구 중리동,35.862077,128.530666
서계서원,대구 북구,053-665-4326,"['경상권', '관광지', '교과서속여행', '서계서원', '서원', '역사', '역사공부', '역사관광지']",https://cdn.visitkorea.or.kr/img/call?cmd=VIEW&id=5dcb54eb-4bce-4aa9-81ff-e8b450705eca&thumb,대구광역시 북구 호국로51길 45-17,35.9251745,128.59327050000002
서구어린이도서관,대구 서구,053-663-3701,"['경상권', '도서관', '문화시설', '서구어린이도서관', '아이와함께', '주말추천여행지']",https://cdn.visitkorea.or.kr/img/call?cmd=VIEW&id=c845422d-c595-4c17-b417-a284287e4356&thumb,대구광역시 서구 문화로 123,35.87427925,128.5463811
서봉사,대구 남구,053-472-4814,"['관광지', '불교', '불교문화', '사찰', '사찰여행', '역사', '자연속으로', '자연환경']",https://cdn.visitkorea.or.kr/img/call?cmd=VIEW&id=e41872e1-1c67-4f0c-bd5b-15aa16929973&thumb,대구광역시 남구 명덕로54길 31,35.85487145,128.597533
서부 오미(味)가미(味)거리,대구 서구,053-567-5888,"['가족과함께', '가족여행', '경상권', '관광지', '맛집여행', '서부시장프랜차이즈특화거리']",https://cdn.visitkorea.or.kr/img/call?cmd=VIEW&id=b5d99a63-2677-4930-85bb-0202e70a89e6&thumb,대구광역시 서구 국채보상로75길 25-1,35.87468683,128.57218590000002
서상돈 고택,대구 중구,053-256-3762,"['경상권', '관광지', '서상돈고택', '역사', '역사공부', '역사관광지', '역사를품은곳']",https://cdn.visitkorea.or.kr/img/call?cmd=VIEW&id=4dce5789-67b1-4da1-86c2-a609abfbab5b&thumb,대구광역시 중구 서성로 6-1,35.86726435,128.58801770000002
석조부도,대구 북구,053-665-4326,"['경상권', '관광지', '교과서속여행', '문화재', '석조부도', '역사', '역사관광지']",https://cdn.visitkorea.or.kr/img/call?cmd=VIEW&id=be10dea1-878e-4e70-99c5-2a5abb47788a&thumb,대구광역시 북구 대학로 80,35.88556134,128.6091029
선교사블레어주택,대구 중구,053-661-2193,"['가족과함께', '관광지', '선교사', '아이와함께', '역사', '역사공부', '역사관광지']",https://cdn.visitkorea.or.kr/img/call?cmd=VIEW&id=c6208cf4-b7e4-46d5-8342-988c1e9c6462&thumb,대구광역시 중구 달구벌대로 2029,35.86628089,128.5857392
선교사스윗즈주택,대구 중구,053-661-2193,"['가족여행', '경상권', '관광지', '대구광역시유형문화재', '선교사스윗즈주택']",https://cdn.visitkorea.or.kr/img/call?cmd=VIEW&id=490df03a-6d48-4ba5-ae2f-036ce140e27c&thumb,대구광역시 중구 달구벌대로 2029,35.86628089,128.5857392
선교사챔니스주택,대구 중구,053-661-2193,"['관광지', '역사', '역사공부', '역사관광지', '역사를품은곳', '역사문화재', '역사속']",https://cdn.visitkorea.or.kr/img/call?cmd=VIEW&id=2698302f-0143-4c01-9d8c-52831467fe6a&thumb,대구광역시 중구 달구벌대로 2029,35.86628089,128.5857392
선사시대로 거리박물관,대구 달서구,053-667-2191,"['거리박물관', '문화시설', '선사시대로', '선사유물', '이색전시']",https://cdn.visitkorea.or.kr/img/call?cmd=VIEW&id=d105dc01-e864-4490-8acd-6a98945abaca&thumb,대구광역시 달서구 진천동 470-38,35.81014099999999,128.522085
성재서당,대구 동구,053-662-2362,"['경상권', '관광지', '교과서속여행', '문화재', '성재서당', '역사', '역사공부', '역사관광지']",https://cdn.visitkorea.or.kr/img/call?cmd=VIEW&id=f8863980-43cb-4103-9d3e-b7d9c4a84efd&thumb,대구광역시 동구 미대길 120,35.96652460000001,128.6683181
성화사,대구 달서구,053-625-9030,"['경상권', '관광지', '불교', '불교문화', '사찰여행', '성화사', '역사', '연중무휴']",https://cdn.visitkorea.or.kr/img/call?cmd=VIEW&id=d8d7990d-c461-46f3-bb67-eea6cc97c8f6&thumb,대구광역시 달서구 장기로12길 10,35.84365032,128.5552624
소계정,대구 달성군,053-668-3162,"['경상권', '관광지', '대구광역시문화재자료', '소계정', '역사', '역사유적지']",https://cdn.visitkorea.or.kr/img/call?cmd=VIEW&id=2ef58918-f9fb-4785-b3fb-cc967b7dcab8&thumb,대구광역시 달성군 옥포면 옥포로57길 25-14,35.77032969,128.49172520000002
소재사(대구),대구 달성군,053-614-6637,"['경상권', '관광지', '불교', '불교문화', '사찰', '사찰여행', '소재사', '역사', '역사유적지']",https://cdn.visitkorea.or.kr/img/call?cmd=VIEW&id=0dd8b3e2-574e-4148-b463-3d41247d7f59&thumb,대구광역시 달성군 유가면 휴양림길 228,35.691365000000005,128.510255
송계당,대구 북구,053-665-4326,"['경상권', '관광지', '교과서속여행', '송계당', '역사', '역사공부', '역사관광지']",https://cdn.visitkorea.or.kr/img/call?cmd=VIEW&id=e7e3f79d-b974-456b-8479-c2f05a177d75&thumb,대구광역시 북구 서변로3길 47-19,35.92134592,128.59330500000002
송담서원(대구),대구 달성군,053-668-3162,"['관광지', '역사', '역사공부', '역사관광지', '역사를품은곳', '역사문화재', '역사속']",https://cdn.visitkorea.or.kr/img/call?cmd=VIEW&id=f3622a76-96f1-4da0-9efd-57441ec252fb&thumb,대구광역시 달성군 구지면 구지서로 530-47,35.69643922,128.35960590000002
수도암(대구),대구 달성군,053-614-5116,"['관광지', '불교', '불교문화', '사찰', '사찰여행', '역사', '자연속으로', '자연환경']",https://cdn.visitkorea.or.kr/img/call?cmd=VIEW&id=e2fa8041-d222-4696-843c-abf06e536faa&thumb,대구광역시 달성군 유가면 유가사길 161,35.71472809,128.5073687
수봉정사,대구 달성군,053-668-3162,"['관광지', '역사', '역사공부', '역사관광지', '역사를품은곳', '역사문화재', '역사속']",https://cdn.visitkorea.or.kr/img/call?cmd=VIEW&id=80f563cb-62f9-4b68-a2f8-6bd43f950dfa&thumb,대구광역시 달성군 화원읍 인흥3길 16,35.79240479999999,128.5178996
수성구 관광정보체험센터,대구 수성구,053-666-4881,"['관광지', '교육여행', '교육프로그램', '남녀노소', '아이와함께', '이색체험', '체험']",https://cdn.visitkorea.or.kr/img/call?cmd=VIEW&id=cd515b01-cd1b-49a2-8a02-c5965ecc0d9e&thumb,대구광역시 수성구 유니버시아드로 140,35.83166017,128.6873258
수성구립 고산도서관,대구 수성구,053-668-1900,"['경상권', '독서여행', '문화시설', '수성구립고산도서관', '실내여행지', '아이와함께']",https://cdn.visitkorea.or.kr/img/call?cmd=VIEW&id=2c1aa1c2-4e8b-4327-a60f-999905677391&thumb,대구광역시 수성구 달구벌대로650길 6,35.83790532,128.7106325
수성구립 범어도서관,대구 수성구,053-668-1600,"['독서여행', '문화공간', '문화시설', '복합문화공간', '실내관광지', '아이와함께']",https://cdn.visitkorea.or.kr/img/call?cmd=VIEW&id=213aaedc-0959-4c32-b5c4-635a686757e2&thumb,대구광역시 수성구 달구벌대로 2451,35.85937462,128.6306765
수성구립 용학도서관,대구 수성구,053-668-1700,"['독서여행', '문화공간', '문화시설', '복합문화공간', '실내여행지', '아이와함께']",https://cdn.visitkorea.or.kr/img/call?cmd=VIEW&id=03fa11f7-a40a-44dd-a7b5-382ea7470f9c&thumb,대구광역시 수성구 지범로41길 36,35.82120889999999,128.6461307
수성구민운동장,대구 수성구,053-666-3182,['레포츠'],https://cdn.visitkorea.or.kr/img/call?cmd=VIEW&id=6aa0aec4-ffa9-4e26-8314-c8e173226c23&thumb,대구 수성구 범어동 633-1,35.84993520000001,128.6297427
수성못 유원지,대구 수성구,053-666-2863,"['걷기길', '경상권', '관광지', '나들이', '데이트코스', '수성못유원지', '아이와함께']",https://cdn.visitkorea.or.kr/img/call?cmd=VIEW&id=0ecd6717-7733-48e9-a197-8a4530c58789&thumb,대구광역시 수성구 용학로 35-5,35.82675922,128.6136118
수성아트피아,대구 수성구,053-668-1800,"['경상권', '문화시설', '상설공연', '수성아트피아', '예술']",https://cdn.visitkorea.or.kr/img/call?cmd=VIEW&id=cd34c55e-293a-4cb2-8d87-b5d07eef314e&thumb,대구광역시 수성구 무학로 180,35.82928322,128.6282735
수창청춘맨숀,대구 중구,053-252-2566,"['문화시설', '문화예술창작공간', '복합문화공간', '복합문화시설', '실내데이트']",https://cdn.visitkorea.or.kr/img/call?cmd=VIEW&id=fff8ceae-c086-4b86-97ac-6ed04c927dfe&thumb,대구광역시 중구 달성로22길 27,35.87532215,128.58321740000002
신무동마애불좌상,대구 동구,053-662-2362,"['경상권', '관광지', '교과서속여행', '문화재', '신무동마애불좌상', '역사', '역사공부']",https://cdn.visitkorea.or.kr/img/call?cmd=VIEW&id=ea42f4a9-5994-490e-a453-5f77747d2a57&thumb,대구광역시 동구 용천로 427,35.98771298,128.6716686
신미화랑,대구 중구,053-424-1442,"['문화공간', '문화시설', '미술작품', '복합문화공간', '예술거리', '예술품', '전시']",https://cdn.visitkorea.or.kr/img/call?cmd=VIEW&id=528294cc-1468-47ce-b65c-91a5b39aa7af&thumb,대구 중구 봉산문화길 34,35.86165399999999,128.5980819
신숭겸장군유적,대구 동구,053-981-6407,"['경상권', '관광지', '사계절', '신숭겸장군유적', '아이와함께', '역사', '역사공부']",https://cdn.visitkorea.or.kr/img/call?cmd=VIEW&id=c2a1459d-8390-452d-8043-47c7644373e2&thumb,대구광역시 동구 신숭겸길 17,35.94286215,128.6419991
아양기찻길,대구 동구,053-627-8986,"['걷기좋은길', '경상권', '관광지', '근대산업유산', '데이트', '드라이브', '드라이브여행']",https://cdn.visitkorea.or.kr/img/call?cmd=VIEW&id=9591308a-8b15-4c5f-ae3f-5966487023ac&thumb,대구광역시 동구 해동로 82,35.89030636,128.63831340000002
"아양아트센터(구, 동구문화체육회관)",대구 동구,053-951-3300,"['경상권', '남녀노소', '데이트코스', '문화공간', '문화시설', '문화행사', '복합문화공간']",https://cdn.visitkorea.or.kr/img/call?cmd=VIEW&id=d5500935-07f8-47d8-ad5a-f00b66621441&thumb,대구광역시 동구 효동로2길 24,35.87956368,128.65193670000002
아이니테마파크(대구 스타디움점),대구 수성구,053-792-7600,"['경상권', '관광지', '동물원', '미세먼지_피하는_실내여행', '실내관광지', '실내놀이터']",https://cdn.visitkorea.or.kr/img/call?cmd=VIEW&id=b398f260-aed8-4342-a769-ccbaeca6172c&thumb,대구광역시 수성구 유니버시아드로 140,35.83166017,128.6873258
안일사(대구),대구 남구,053-655-0225,"['경상권', '관광지', '불교', '불교문화', '사찰', '사찰여행', '안일사', '역사', '연중무휴']",https://cdn.visitkorea.or.kr/img/call?cmd=VIEW&id=2ab7cce4-792e-4da9-9b7a-694fdd57615d&thumb,대구광역시 남구 대명동,35.840491,128.5768732
안지랑 곱창골목,대구 남구,010-8852-0378,"['가족여행', '경상권', '곱창골목', '곱창맛집', '관광지', '대구가볼만한곳', '대구맛집']",https://cdn.visitkorea.or.kr/img/call?cmd=VIEW&id=addfc857-5833-4d55-b450-766feff0491d&thumb,대구광역시 남구 안지랑로16길 67,35.83685763,128.5751546
앞산자락길,대구 남구,053-803-7467,"['고산골메타쉐콰이어길', '대구남구', '레포츠', '산책코스']",https://cdn.visitkorea.or.kr/img/call?cmd=VIEW&id=e13d44cd-6d41-45d5-987a-9e0874207f52&thumb,대구광역시 남구 용두2길 43,35.83000410000001,128.6034426
앞산전망대 (앞산케이블카),대구 남구,053-656-2994,"['가족과함께', '경치좋은곳', '경치좋은곳', '관광지', '데이트장소', '아이와함께']",https://cdn.visitkorea.or.kr/img/call?cmd=VIEW&id=9e2e05e5-521b-4390-88ee-9c249ffe98db&thumb,대구광역시 남구 앞산순환로 574-114,35.82436346,128.58713559999998
앞산카페거리,대구 남구,053-627-1337,"['가족과함께', '가족나들이', '관광지', '대구앞산', '데이트장소추천', '앞산카페거리']",https://cdn.visitkorea.or.kr/img/call?cmd=VIEW&id=9ce750e2-ebed-4eba-b55d-743b1bbcd883&thumb,대구광역시 남구 대명로 지하 141,35.83926566,128.5731748
에코어드벤쳐,대구 달성군,053-767-6300,"['가족여행', '대구시', '레포츠', '에코어드벤처', '자연환경']",https://cdn.visitkorea.or.kr/img/call?cmd=VIEW&id=fb9b4830-7cc2-48b3-bf28-067bedb05d37&thumb,대구 달성군 가창면 가창로 1003,35.7929375,128.6264375
에코테마파크 대구숲,대구 달성군,053-761-7400,"['관광지', '에코테마파크', '이색체험']",https://cdn.visitkorea.or.kr/img/call?cmd=VIEW&id=01cec689-b53a-4a8f-ad76-df1eda15945a&thumb,대구광역시 달성군 가창면 가창로 1003,35.7944998,128.6270534
에코한방웰빙체험관,대구 중구,053-661-2043,"['가족과함께', '건강여행', '문화시설', '체험프로그램', '한방약초', '한방의료']",https://cdn.visitkorea.or.kr/img/call?cmd=VIEW&id=5bcf5950-d6f6-4752-a451-62faf15312dd&thumb,대구광역시 중구 남성로 24,35.86902235,128.5880558
엑스코(EXCO),대구 북구,053-601-5000,"['exco', '경상권', '대구광역시', '문화시설', '북구', '엑스코', '전시관']",https://cdn.visitkorea.or.kr/img/call?cmd=VIEW&id=f853cbf6-19bf-4974-b1d1-de9d6a183a7e&thumb,대구광역시 북구 엑스코로 10,35.90706959,128.61307390000002
열락당,대구 달서구,053-635-7775,"['경상권', '관광지', '교과서속여행', '역사', '역사공부', '역사관광지', '역사를품은곳']",https://cdn.visitkorea.or.kr/img/call?cmd=VIEW&id=176e458e-eddc-490b-b6ff-d6ee281586a9&thumb,대구광역시 달서구 상인로 134-13,35.81869677,128.5452378
영남제일관,대구 수성구,053-666-4927,"['가족여행', '경상권', '고궁', '관광지', '교과서속여행', '사계절', '아이와함께']",https://cdn.visitkorea.or.kr/img/call?cmd=VIEW&id=a4401d78-72ff-47d8-b2dd-7f7ee32c292d&thumb,대구광역시 수성구 팔현길 248,35.87526816,128.65826570000002
영영축성비,대구 수성구,053-666-4923,"['관광지', '역사', '역사공부', '역사관광지', '역사를품은곳', '역사문화재', '역사속']",https://cdn.visitkorea.or.kr/img/call?cmd=VIEW&id=939bd621-6db3-42e6-baf6-fa1d0ece318b&thumb,대구광역시 수성구 팔현길 248,35.87526816,128.65826570000002
예송갤러리,대구 중구,053-426-1515,"['문화시설', '문화예술', '예송갤러리', '예술공간', '전시관']",https://cdn.visitkorea.or.kr/img/call?cmd=VIEW&id=86ee4cdd-e161-4974-9f6f-dd1726d56173&thumb,대구광역시 중구 봉산문화길 56,35.86259382,128.5975792
예연서원,대구 달성군,053-668-3162,"['경상권', '관광지', '대구광역시시도기념물', '역사', '역사공부', '역사관광지']",https://cdn.visitkorea.or.kr/img/call?cmd=VIEW&id=f4cfc269-1794-4d41-8eb0-8b76d4366717&thumb,대구광역시 달성군 유가읍 구례길 123,35.65603877,128.4700309
오천서원,대구 수성구,053-666-4927,"['관광지', '역사', '역사공부', '역사관광지', '역사를품은곳', '역사문화재', '역사속']",https://cdn.visitkorea.or.kr/img/call?cmd=VIEW&id=e2337015-15c5-450a-837a-40f96cd88763&thumb,대구광역시 수성구 파동로2안길 20,35.80616277,128.63041270000002
옥연지 송해공원,대구 달성군,053-746-6407,"['공원', '관광지', '대구관광명소', '송해공원', '습지생태체험', '아이와함께', '언택트관광지_100선']",https://cdn.visitkorea.or.kr/img/call?cmd=VIEW&id=bcd92f62-cd14-46e1-b2c4-8d40c465f489&thumb,대구광역시 달성군 옥포읍,35.7896321,128.46379199999998
옹기종기행복마을,대구 동구,053-627-1337,"['경상권', '골목길', '관광지', '문화거리', '벽화', '산책길', '산책하기', '산책하기좋은곳']",https://cdn.visitkorea.or.kr/img/call?cmd=VIEW&id=b9a1d64a-dff4-4e2d-a760-1e1cfbd7fff7&thumb,대구광역시 동구 입석동,35.892117999999996,128.647673
와룡산(대구),대구 달서구,053-667-3782,"['관광지', '자연']",https://cdn.visitkorea.or.kr/img/call?cmd=VIEW&id=a6d3e791-d8ba-4c95-a37e-784f050c5b91&thumb,대구광역시 달서구 선원로33안길 66,35.86217193,128.5132504
용강서원,대구 달서구,053-668-3162,"['경상권', '관광지', '교과서속여행', '서원', '역사', '역사공부', '역사관광지', '역사를품은곳']",https://cdn.visitkorea.or.kr/img/call?cmd=VIEW&id=c7f304a7-29f1-41ed-b9a8-a920775488bb&thumb,대구광역시 달서구 선원로33길 101,35.86169539,128.5144226
용문사(대구),대구 달성군,053-631-9390,"['관광지', '불교', '불교문화', '사찰', '사찰여행', '역사', '자연속으로', '자연환경']",https://cdn.visitkorea.or.kr/img/call?cmd=VIEW&id=null&thumb,대구광역시 달성군 화원읍 화원휴양림길 132,35.76909122,128.5389561
용연사(대구),대구 달성군,053-616-8846,"['관광지', '기차여행', '불교', '불교문화', '사찰', '사찰여행', '산사', '아이와함께']",https://cdn.visitkorea.or.kr/img/call?cmd=VIEW&id=66a25e93-f552-4abc-ab8f-ca770e3c5fc6&thumb,대구광역시 달성군 옥포면 용연사길 260,35.7481597,128.52112409999998
용호서원,대구 달성군,053-668-3162,"['관광지', '역사', '역사공부', '역사관광지', '역사를품은곳', '역사문화재', '역사속']",https://cdn.visitkorea.or.kr/img/call?cmd=VIEW&id=445a8ff8-45a3-4d36-af32-37d03174fdc7&thumb,대구광역시 달성군 다사읍 서재본4길 18-27,35.87480616,128.4936964
운암지 수변공원,대구 북구,053-665-2863,"['걷기길', '경상권', '관광지', '산책길', '산책하기', '산책하기좋은곳', '운암지수변공원']",https://cdn.visitkorea.or.kr/img/call?cmd=VIEW&id=ed8bc1fe-8431-48d3-8a35-4a5f30b01285&thumb,대구광역시 북구 구암동,35.932496,128.568679
운흥사(대구),대구 달성군,053-768-3882,"['경상권', '관광지', '불교', '불교문화', '사찰', '사찰여행', '역사', '연중무휴', '운흥사']",https://cdn.visitkorea.or.kr/img/call?cmd=VIEW&id=e4e1b68e-baaf-4a5a-95ad-73ac67f513f5&thumb,대구광역시 달성군 가창면 헐티로 1068,35.78030517,128.6034152
웃는얼굴아트센터,대구 달서구,053-584-8715,"['경상권', '데이트코스', '문화공간', '문화시설', '문화행사', '복합문화공간', '사계절']",https://cdn.visitkorea.or.kr/img/call?cmd=VIEW&id=75028163-92aa-4379-8c81-f02208959b21&thumb,대구광역시 달서구 문화회관길 160,35.84342236,128.5228263
웃는얼굴아트센터 수영장,대구 달서구,053-582-1900,"['대구수영장', '레포츠', '수영장', '실내수영장']",https://cdn.visitkorea.or.kr/img/call?cmd=VIEW&id=ae7be348-fabf-4502-a4a3-951d0f5d70d8&thumb,대구광역시 달서구 문화회관길 160,35.8433779,128.52284440000003
원대가구 명물거리,대구 서구,053-663-3004,"['가구', '명물거리', '사무용가구', '쇼핑', '유명브랜드']",https://cdn.visitkorea.or.kr/img/call?cmd=VIEW&id=271bdbb7-408d-4d6b-a134-96df45208ef4&thumb,대구광역시 서구 원대동3가,35.88464737,128.576298
원호루,대구 달성군,053-668-3162,"['경상권', '관광지', '역사', '역사공부', '역사를품은곳', '역사문화재', '역사속으로']",https://cdn.visitkorea.or.kr/img/call?cmd=VIEW&id=ac5ced01-a3f2-4ef4-9b83-17994b42acbd&thumb,대구광역시 달성군 현풍면 현풍동로 92,35.69888216,128.4519775
육신사,대구 달성군,053-668-3162,"['경상권', '관광지', '역사', '역사공부', '역사관광지', '역사를품은곳', '역사문화재']",https://cdn.visitkorea.or.kr/img/call?cmd=VIEW&id=7f1d62d7-63ba-43db-8200-3c4ed455cdb4&thumb,대구광역시 달성군 하빈면 육신사길 64,35.91137567,128.41653300000002
은적사(대구),대구 남구,053-653-1572,"['가족여행', '경상권', '관광지', '불교', '불교문화', '사찰', '사찰&산사', '역사']",https://cdn.visitkorea.or.kr/img/call?cmd=VIEW&id=66b1d2a5-4a65-4130-8c36-89a6b9ce9b01&thumb,대구광역시 남구 앞산순환로 574-120,35.82336931,128.5897623
읍내동 마애불상,대구 북구,053-665-4326,"['경상권', '관광지', '역사', '역사공부', '역사관광지', '역사를품은곳', '역사문화재']",https://cdn.visitkorea.or.kr/img/call?cmd=VIEW&id=3ae45f05-c284-4900-a921-0b3ef35c709f&thumb,대구광역시 북구 칠곡중앙대로129길 169-3,35.9637291,128.5434172
이강서원,대구 달성군,053-668-3162,"['관광지', '역사', '역사공부', '역사관광지', '역사를품은곳', '역사문화재', '역사속']",https://cdn.visitkorea.or.kr/img/call?cmd=VIEW&id=2806fbaf-041b-4886-b007-ecc8e9166607&thumb,대구광역시 달성군 다사읍 이천리 277,35.88687113,128.4629245
이공제비 및 군수이후범선영세불망비,대구 수성구,031-228-4416,"['관광지', '역사', '역사공부', '역사관광지', '역사를품은곳', '역사문화재', '역사속']",https://cdn.visitkorea.or.kr/img/call?cmd=VIEW&id=22394845-5043-4521-a96f-81b98bf93266&thumb,대구광역시 수성구 신천동로 117,35.83557834,128.6065841
이상화 고택,대구 중구,053-256-3762,"['고택', '관광지', '문학', '시문학', '시인', '아이와함께', '역사', '역사공부', '역사관광지']",https://cdn.visitkorea.or.kr/img/call?cmd=VIEW&id=9b909039-77d3-438d-aa6d-60f617cdcad1&thumb,대구광역시 중구 서성로 6-1,35.86726435,128.58801770000002
이양서원,대구 달성군,053-668-3162,"['관광지', '역사', '역사공부', '역사관광지', '역사를품은곳', '역사문화재', '역사속']",https://cdn.visitkorea.or.kr/img/call?cmd=VIEW&id=827b069b-350b-465f-b890-48e87c8939cc&thumb,대구광역시 달성군 현풍면 삼강3길 23,35.66579138,128.4219072
이월드,대구 달서구,053-620-0001,"['가족과함께', '감성사진', '관광지', '놀이공원', '놀이공원&테마파크', '놀이동산']",https://cdn.visitkorea.or.kr/img/call?cmd=VIEW&id=bc233c6a-e7c8-4317-8b35-e69ba8f47d10&thumb,대구광역시 달서구 두류공원로 200,35.85460178,128.56118700000002
이월드 83타워,대구 달서구,053-620-0001,"['가족여행', '경상권', '관광지', '데이트코스', '도심여행', '미세먼지_피하는_실내여행']",https://cdn.visitkorea.or.kr/img/call?cmd=VIEW&id=415873ec-7fb7-495f-879f-cdb2dc3121b9&thumb,대구광역시 달서구 두류공원로 200,35.85460178,128.56118700000002
이월드 83타워 아이스링크,대구 달서구,83 053-620-0001,"['겨울스포츠', '레포츠', '스케이트장', '아이스링크', '아이와함께', '연인과함께']",https://cdn.visitkorea.or.kr/img/call?cmd=VIEW&id=9c8cd00b-794d-4905-bf63-57fa2c67a418&thumb,대구광역시 달서구 두류공원로 200,35.8540248,128.5634167
이월드 눈썰매장,대구 달서구,053-620-0001,"['겨울스포츠', '경상권', '눈썰매장', '레포츠', '복합레저스포츠', '아이와함께']",https://cdn.visitkorea.or.kr/img/call?cmd=VIEW&id=a3b99204-1821-41a9-bc56-00897ae68fa7&thumb,대구광역시 달서구 두류공원로 200,35.8540248,128.5634167
이천동 99계단 벽화마을,대구 남구,053-664-3253,"['SNS감성사진', '감성사진', '관광지', '데이트', '데이트코스', '벽화마을', '사진찍기']",https://cdn.visitkorea.or.kr/img/call?cmd=VIEW&id=b96fc58a-8048-40ab-ac80-d9ab659cfc61&thumb,대구광역시 남구 이천로29길 28-1,35.85337987,128.5969835
인동촌 아나고골목,대구 서구,053-663-2346,"['경상권', '관광지', '맛집골목', '맛집탐방', '보양식', '부모님과함께', '아나고골목']",https://cdn.visitkorea.or.kr/img/call?cmd=VIEW&id=de72693b-0156-4288-905d-7b0ff25ac3a5&thumb,대구광역시 서구 북비산로74길 49,35.87678868,128.577843
인산정사,대구 달서구,053-667-2194,"['경상권', '관광지', '교과서속여행', '역사', '역사공부', '역사관광지', '역사를품은곳']",https://cdn.visitkorea.or.kr/img/call?cmd=VIEW&id=24698a88-6dc2-4e2e-ae25-a53cd5b9fbd1&thumb,대구광역시 달서구 상인로18길 29,35.81567867,128.5486104
인흥마을,대구 달성군,053-668-3162,"['가족여행', '경상권', '관광지', '역사', '역사공부', '역사관광지', '역사를품은곳']",https://cdn.visitkorea.or.kr/img/call?cmd=VIEW&id=f4b7e26f-766c-4af3-aaf6-fbd0a7a01ae7&thumb,대구광역시 달성군 화원읍 인흥3길 16,35.79240479999999,128.5178996
인흥서원,대구 달성군,053-668-3162,"['관광지', '역사', '역사공부', '역사관광지', '역사를품은곳', '역사문화재', '역사속']",https://cdn.visitkorea.or.kr/img/call?cmd=VIEW&id=48f936c2-ae86-40a5-b6c1-70f4bf094b69&thumb,대구광역시 달성군 화원읍 인흥2길 26,35.78964765,128.5156956
임휴사,대구 달서구,053-632-4844,"['관광지', '불교', '불교문화', '사찰', '사찰여행', '역사', '자연속으로', '자연환경']",https://cdn.visitkorea.or.kr/img/call?cmd=VIEW&id=null&thumb,대구광역시 달서구 앞산순환로 12-25,35.81014473,128.5604996
자연염색박물관,대구 동구,053-981-4330,"['겨울방학가볼만한곳', '경상권', '문화시설', '박물관', '아이와함께', '여름방학가볼만한곳']",https://cdn.visitkorea.or.kr/img/call?cmd=VIEW&id=f0c72a18-ebee-40fa-b4b5-fbb37c28337d&thumb,대구광역시 동구 파계로112길 17,35.97933851,128.63647350000002
작은 중앙가족박물관(한방개인박물관),대구 중구,070-8977-6606,"['가족여행', '문화시설', '아이와 함께', '역사와전통', '이색체험', '작은중앙가족박물관']",https://cdn.visitkorea.or.kr/img/call?cmd=VIEW&id=8ae780d2-fa33-4a1c-9f97-45a15c75960b&thumb,대구광역시 중구 중앙대로77길 50-5,35.86865711,128.5909303
중리동 곱창골목,대구 서구,,"['곱창골목', '곱창맛집', '곱창전골', '관광지', '남녀노소', '대구가볼만한곳', '대구맛집']",https://cdn.visitkorea.or.kr/img/call?cmd=VIEW&id=3a55c94a-74d0-490c-9f4e-aa117ece641e&thumb,대구광역시 서구 평리로35길 28-10,35.86233744,128.5439361
중앙갤러리,대구 중구,053-425-0808,"['문화시설', '미술관', '아이와 함께', '중앙갤러리', '친구와 함께']",https://cdn.visitkorea.or.kr/img/call?cmd=VIEW&id=a3869c49-8aa3-43c8-a05e-9d8dd812c796&thumb,대구 중구 봉산문화길 34,35.86165399999999,128.5980819
진영P&T,대구 서구,053-350-3114,"['견학', '경상권', '관광지', '교육여행', '교육체험', '교육프로그램', '산업관광']",https://cdn.visitkorea.or.kr/img/call?cmd=VIEW&id=5bd259dd-f379-4e62-b16d-c0edc8da70c1&thumb,대구광역시 서구 염색공단천로 31,35.89063937,128.5501852
진주강씨모열각,대구 달성군,053-668-3162,"['관광지', '역사', '역사공부', '역사관광지', '역사를품은곳', '역사문화재', '역사속']",https://cdn.visitkorea.or.kr/img/call?cmd=VIEW&id=7fe4a229-3c96-4dea-89aa-bcd5b792c37e&thumb,대구광역시 달성군 옥포면 옥포로 305,35.769012100000005,128.4899436
천미사 (상감입사장),대구 수성구,053-768-0021,"['공예품', '무형문화재', '생활용품', '쇼핑']",https://cdn.visitkorea.or.kr/img/call?cmd=VIEW&id=82305f19-e75e-43c7-a424-b7a6329347cc&thumb,대구광역시 수성구 들안로 108,35.83953635,128.6171369
첨모재·사효당,대구 달서구,053-667-2194,"['관광지', '역사', '역사공부', '역사관광지', '역사를품은곳', '역사문화재', '역사속']",https://cdn.visitkorea.or.kr/img/call?cmd=VIEW&id=1607969f-a144-4fd6-b50a-3a96a965aa6c&thumb,대구광역시 달서구 월곡로26길 17-39,35.80888523,128.5499212
청련암(대구),대구 달성군,053-768-8126,"['관광지', '역사', '역사공부', '역사관광지', '역사를품은곳', '역사문화재', '역사속']",https://cdn.visitkorea.or.kr/img/call?cmd=VIEW&id=59e4645c-68ba-48de-a1a8-e39a49b8fbe8&thumb,대구광역시 달성군 가창면 남지장사길 127,35.73494145,128.63093519999998
청호서원,대구 수성구,053-666-4927,"['관광지', '역사', '역사공부', '역사관광지', '역사를품은곳', '역사문화재', '역사속']",https://cdn.visitkorea.or.kr/img/call?cmd=VIEW&id=885cac34-ee70-4de0-95b9-38ce368089ac&thumb,대구광역시 수성구 청호로 250-11,35.83944046,128.6409244
최정산,대구 달성군,053-668-2850,"['관광지', '자연']",https://cdn.visitkorea.or.kr/img/call?cmd=VIEW&id=897531c6-026f-4171-9de7-6cb6d318d0d7&thumb,대구광역시 달성군 가창면 주리2길,35.76048506,128.6502814
충효당,대구 달성군,053-668-3162,"['관광지', '역사', '역사공부', '역사관광지', '역사를품은곳', '역사문화재', '역사속']",https://cdn.visitkorea.or.kr/img/call?cmd=VIEW&id=01774f6f-92d5-4858-aa4c-227b9bdf098e&thumb,대구광역시 달성군 하빈면 육신사길 42,35.90914199,128.41653770000002
칠곡향교,대구 북구,053-322-0430,"['경상권', '관광지', '교과서속여행', '역사', '역사공부', '역사관광지', '역사를품은곳']",https://cdn.visitkorea.or.kr/img/call?cmd=VIEW&id=05909afd-8db9-4c70-9878-c8e9e2cc2af2&thumb,대구광역시 북구 칠곡중앙대로 597,35.94927446,128.5509621
칠곡향교대성전,대구 북구,053-665-4326,"['경상권', '관광지', '교과서속여행', '문화재', '역사', '역사공부', '역사관광지']",https://cdn.visitkorea.or.kr/img/call?cmd=VIEW&id=92f213bd-bc16-4f24-a817-8c2258923b09&thumb,대구광역시 북구 칠곡중앙대로 597,35.94927446,128.5509621
퀸스로드,대구 서구,053-552-4800,"['복합문화공간', '쇼핑', '유럽풍', '유명브랜드', '패션아울렛']",https://cdn.visitkorea.or.kr/img/call?cmd=VIEW&id=4e9fe353-2636-411a-8227-de9cc26df122&thumb,대구광역시 서구 평리로35길 18-17,35.86170003,128.5451114
큰장길 침구류 명물거리,대구 서구,,"['관광지', '남녀노소', '대구가볼만한곳', '도매시장', '도소매점', '서문시장', '소매상']",https://cdn.visitkorea.or.kr/img/call?cmd=VIEW&id=319d0de0-8c38-4eec-a5b5-165581bda35c&thumb,대구광역시 서구 큰장로 35,35.86338488,128.5737934
파계사,대구 동구,053-984-4550,"['가족여행', '관광지', '불교', '불교문화', '불교사찰', '사찰', '사찰&산사', '사찰여행']",https://cdn.visitkorea.or.kr/img/call?cmd=VIEW&id=9abe7ff0-72c4-471d-af8c-8b589bce194e&thumb,대구광역시 동구 파계로 741,36.00173733,128.641304
팔거산성,대구 북구,053-665-4326,"['경상권', '관광지', '교과서속여행', '기념물', '역사', '역사관광지', '역사를품은곳']",https://cdn.visitkorea.or.kr/img/call?cmd=VIEW&id=b844a8ee-9357-4c8c-ab3f-b4148bfef265&thumb,대구광역시 북구 노곡동,35.909581,128.56006399999998
팔공문화원,대구 동구,053-984-8774,"['대구 동구', '대구광역시', '문화복지향상', '문화시설', '문화원', '전통문화', '전통문화']",https://cdn.visitkorea.or.kr/img/call?cmd=VIEW&id=717809d3-f0d8-460b-bbae-06405f30aa8b&thumb,대구광역시 동구 팔공로197길 25,35.95594001,128.68918190000002
팔공산 케이블카,대구 동구,053-982-8803,"['가족여행', '경상권', '관광지', '사계절', '연인과함께', '자연', '자연좋은곳', '전망좋은곳']",https://cdn.visitkorea.or.kr/img/call?cmd=VIEW&id=d5e296cc-a83b-4b7c-9d7d-d3e27af05223&thumb,대구광역시 동구 팔공산로185길 51,35.99089,128.6948368
팔공산온천관광호텔(온천),대구 동구,053-985-8080,"['가족여행', '관광지', '스파', '연중무휴', '온천', '팔공산온천관광호텔(온천)']",https://cdn.visitkorea.or.kr/img/call?cmd=VIEW&id=ab26cc77-e6b3-4b54-8b5e-06480e79bf1d&thumb,대구광역시 동구 팔공산로185길 11,35.99090197,128.6925018
팔공산자연공원(갓바위지구),대구 동구,053-939-0080,"['관광지', '자연']",https://cdn.visitkorea.or.kr/img/call?cmd=VIEW&id=11659e22-dffd-4313-b089-260209fae69f&thumb,대구광역시 동구 갓바위로 229,35.97110244,128.72622009999998
팔공산자연공원(동화사지구),대구 동구,053-939-0080,"['가족과함께', '관광지', '동화사', '자연', '자연관광지', '자연속으로', '자연여행']",https://cdn.visitkorea.or.kr/img/call?cmd=VIEW&id=6e419f10-83ff-43e9-a1ab-b4798e45eb56&thumb,대구광역시 동구 팔공산로199길 6-1,35.98994251,128.6961732
팔공산자연공원(파계사지구),대구 동구,053-939-0080,"['관광지', '자연']",https://cdn.visitkorea.or.kr/img/call?cmd=VIEW&id=5900efd5-54fe-48d2-b143-b1957d3c56fe&thumb,대구광역시 동구 파계로 741,36.00173733,128.641304
팔공컨트리클럽,대구 동구,053-982-8080,['레포츠'],https://cdn.visitkorea.or.kr/img/call?cmd=VIEW&id=6e85da54-746d-4c31-8540-5851677b4205&thumb,대구광역시 동구 팔공산로237길 186,35.9901907,128.7210916
패션디자인개발지원센터,대구 북구,053-721-7400,"['경상권', '문화공간', '문화시설', '문화콘텐츠산업', '복합문화공간', '사계절']",https://cdn.visitkorea.or.kr/img/call?cmd=VIEW&id=c315a772-0cd9-48a7-806b-de2791fa8766&thumb,대구광역시 북구 유통단지로14길 17,35.90617968,128.6117418
패션주얼리전문타운,대구 중구,053-661-2351,"['기획전시', '남녀노소', '문화시설', '상설전시', '연인과함께', '이색전시', '이색체험']",https://cdn.visitkorea.or.kr/img/call?cmd=VIEW&id=be9d8a0d-d1d8-4fac-93f1-216557095f45&thumb,대구광역시 중구 경상감영길 176,35.87177744,128.5966863
평광동 사과마을,대구 동구,,"['가족과함께', '가족이색체험', '관광지', '남녀노소', '아이와함께', '이색체험']",https://cdn.visitkorea.or.kr/img/call?cmd=VIEW&id=f964aa95-219a-4c43-9a03-a509243f0abb&thumb,대구광역시 동구 도평로116길 37,35.93301126,128.6904041
하늘호수(대구),대구 중구,053-253-2380,"['건강여행', '관광지', '남녀노소', '대구가볼만한곳', '아이와함께', '이색체험']",https://cdn.visitkorea.or.kr/img/call?cmd=VIEW&id=4abe18c6-e87d-4fc9-a8d8-28dc58352a13&thumb,대구광역시 중구 공평로 3,35.86438233,128.5993255
학생문화센터 수영장,대구 달서구,053-231-1288,"['대구수영장', '레포츠', '문화센터', '수영장']",https://cdn.visitkorea.or.kr/img/call?cmd=VIEW&id=74826c56-8ac1-4d4d-92e2-3b92dfb111ce&thumb,대구광역시 달서구 용산로 181,35.8530407,128.52949850000002
한국뇌연구원,대구 동구,053-980-8231,"['견학', '경상권', '관광지', '산업관광', '첨단IT산업', '체험학습', '한국뇌연구원']",https://cdn.visitkorea.or.kr/img/call?cmd=VIEW&id=d111a04a-4465-4c3c-954a-6a3394489813&thumb,대구광역시 동구 첨단로 61,35.88255475,128.7303539
한국섬유개발연구원 (텍스토피아관),대구 서구,053-560-6670,"['경상권', '관광지', '교육여행', '교육체험', '교육프로그램', '산업관광', '이색체험']",https://cdn.visitkorea.or.kr/img/call?cmd=VIEW&id=683e7632-2b81-40f5-94ba-e29aa0b0eadb&thumb,대구광역시 서구 국채보상로 136,35.86845283,128.5460751
한국패션산업연구원,대구 동구,053-721-7400,"['견학', '경상권', '관광지', '산업관광', '산업관광지', '이색체험', '체험학습', '한국패션산업연구원']",https://cdn.visitkorea.or.kr/img/call?cmd=VIEW&id=f07bac63-fdf8-4030-8257-387d1ce9e58a&thumb,대구광역시 동구 팔공로45길 26,35.91891448,128.6378795
한천서원,대구 달성군,053-667-2194,"['경상권', '관광지', '교과서속여행', '서원', '역사', '역사공부', '역사관광지', '역사를품은곳']",https://cdn.visitkorea.or.kr/img/call?cmd=VIEW&id=6cc9ab4b-6db1-4e5b-8d63-cd5937c0da11&thumb,대구광역시 달성군 가창면 가창동로 117,35.78010275,128.6543804
핫트랙스 (대구점),대구 중구,053-425-9961,"['기프트아이템', '대구쇼핑', '문구', '복합문화쇼핑공간', '쇼핑']",https://cdn.visitkorea.or.kr/img/call?cmd=VIEW&id=4484d370-adf8-4f6f-a1d8-fd1e6af27b87&thumb,대구광역시 중구 국채보상로 586,35.87059419,128.594818
해안팜스테이,대구 동구,,"['관광지', '체험']",https://cdn.visitkorea.or.kr/img/call?cmd=VIEW&id=fdc0071b-2d49-4794-99ce-b8790a6a2316&thumb,대구광역시 동구 둔산로,35.90882094,128.6770788
행복북구문화재단 어울아트센터,대구 북구,053-320-5120,"['가족과함께', '경상권', '문화공간', '문화시설', '문화예술', '문화예술공간', '복합문화공간']",https://cdn.visitkorea.or.kr/img/call?cmd=VIEW&id=9f238ff7-a7d7-4ce7-8f59-eb6d04882af5&thumb,대구광역시 북구 구암로 47,35.93586735,128.5451287
향촌문화관,대구 중구,053-661-2331,"['경상권', '문화시설', '미세먼지_피하는_실내여행', '설날연휴가볼만한곳', '실내관광지']",https://cdn.visitkorea.or.kr/img/call?cmd=VIEW&id=2b34176f-174b-4955-8d40-96ff19e39413&thumb,대구광역시 중구 중앙대로 449,35.8734081,128.5941862
향토역사관,대구 중구,053-606-6421,"['경상권', '교과서속여행', '기념관', '문화시설', '박물관', '사계절', '실내여행지']",https://cdn.visitkorea.or.kr/img/call?cmd=VIEW&id=a8734580-3678-438a-8ad1-ebc529894827&thumb,대구광역시 중구 달성공원로 35,35.87339859,128.57591829999998
현풍 500년 느티나무 테마공원,대구 달성군,053-615-0337,"['가족여행', '걷기길', '경상권', '관광지', '산책길', '산책하기', '산책하기좋은곳']",https://cdn.visitkorea.or.kr/img/call?cmd=VIEW&id=f68b88c7-b6f7-45e9-96d8-8ae7037e997d&thumb,대구광역시 달성군 현풍면 비슬로 741,35.702042,128.438029
현풍곽씨십이정려각,대구 달성군,053-668-3162,"['관광지', '역사', '역사공부', '역사관광지', '역사를품은곳', '역사문화재', '역사속']",https://cdn.visitkorea.or.kr/img/call?cmd=VIEW&id=e366a209-9637-4973-aa7e-dd155e596583&thumb,대구광역시 달성군 현풍면 지동길 3,35.666699,128.42943300000002
현풍석빙고(상리석빙고),대구 달성군,053-668-3162,"['경상권', '관광지', '보물', '상리석빙고', '역사', '역사공부', '역사관광지', '역사를품은곳']",https://cdn.visitkorea.or.kr/img/call?cmd=VIEW&id=de06468d-8ce5-4051-8563-1af7715cc83b&thumb,대구광역시 달성군 현풍읍 상리1길 36,35.71010020000001,128.456945
"현풍장 (5, 10일)",대구 달성군,053-668-2645,"['가족여행', '경상권', '기차여행', '나들이', '나홀로여행', '먹거리', '쇼핑', '시장맛집']",https://cdn.visitkorea.or.kr/img/call?cmd=VIEW&id=24835e48-ba26-4bdb-916e-6c10dcd5fef7&thumb,대구광역시 달성군 현풍면 비슬로130길 53-1,35.69434279999999,128.4423992
현풍포교당,대구 달성군,053-614-3115,"['관광지', '불교', '불교문화', '사찰', '사찰여행', '역사', '자연속으로', '자연환경']",https://cdn.visitkorea.or.kr/img/call?cmd=VIEW&id=6eb801b1-7fce-45d6-8aba-9ccecabd5911&thumb,대구광역시 달성군 현풍면 현풍동로27길 54-6,35.698104,128.446433
현풍향교,대구 달성군,053-668-3162,"['경상권', '관광지', '역사', '역사공부', '역사관광지', '역사를품은곳', '역사문화재']",https://cdn.visitkorea.or.kr/img/call?cmd=VIEW&id=dfd1d8a4-5a4a-41ca-a7d7-b464bed56c1c&thumb,대구광역시 달성군 현풍면 현풍동로20길 27-8,35.701498,128.451803
홍의장군 곽망우당 묘소,대구 달성군,053-668-3162,"['관광지', '역사', '역사공부', '역사관광지', '역사를품은곳', '역사문화재', '역사속']",https://cdn.visitkorea.or.kr/img/call?cmd=VIEW&id=4c4f5cfd-8d07-4061-bc99-def96ace3ebc&thumb,대구광역시 달성군 구지면 대암리,35.629901000000004,128.404639
화암서원,대구 북구,053-665-4326,"['경상권', '관광지', '교과서속여행', '서원', '역사', '역사공부', '역사관광지', '역사를품은곳']",https://cdn.visitkorea.or.kr/img/call?cmd=VIEW&id=b490256d-6307-4451-8123-1b160b1f6163&thumb,대구광역시 북구 노곡로5길 7-18,35.90570943,128.5617997
화원동산,대구 달성군,053-635-7111,"['가족여행', '걷기여행', '관광지', '나들이', '아이와함께', '연인과함께', '인생샷']",https://cdn.visitkorea.or.kr/img/call?cmd=VIEW&id=49a1d0e8-8964-446e-be0e-5dda3d7d94a3&thumb,대구광역시 달성군 화원읍 사문진로1길 40-12,35.81090234,128.4779211
화장사(대구),대구 달성군,053-632-5516,"['경상권', '관광지', '불교', '불교문화', '사찰', '사찰여행', '역사', '자연속으로']",https://cdn.visitkorea.or.kr/img/call?cmd=VIEW&id=d3ecc23f-708b-498e-ac21-cc207f5503de&thumb,대구광역시 달성군 화원읍 천내리 516-1,35.80317205,128.50243490000003
환성정,대구 북구,053-665-4326,"['경상권', '관광지', '교과서속여행', '역사', '역사공부', '역사관광지', '역사를품은곳']",https://cdn.visitkorea.or.kr/img/call?cmd=VIEW&id=227a672e-62f0-4e7d-8ac7-4714fdb293bf&thumb,대구광역시 북구 호국로51길 45-17,35.9251745,128.59327050000002
회진당원의대사지비,대구 동구,053-984-4550,"['관광지', '역사', '역사공부', '역사관광지', '역사를품은곳', '역사문화재', '역사속']",https://cdn.visitkorea.or.kr/img/call?cmd=VIEW&id=f28e6400-3853-4549-820d-9341985fc72f&thumb,대구광역시 동구 파계로 741,36.00173733,128.641304
