name,region,tel,keyword,photo,address,lat,lon
(주)한국다원호간보 부산지사 [한국관광 품질인증/Korea Quality],부산 중구,051-466-5168,"['부산추천쇼핑', '쇼핑', '청운플러스', '한국관광품질인증', '한국관광품질인증업소']",https://cdn.visitkorea.or.kr/img/call?cmd=VIEW&id=01341eea-95d0-4f92-b1fd-7ba3b8b6fdb2&thumb,부산광역시 중구 대청로155번길 6,35.10351802,129.0372218
168계단,부산 동구,051-253-8253,"['168계단', '168계단모노레일', '경상권', '관광지', '부산여행', '역사공부', '역사를품은곳']",https://cdn.visitkorea.or.kr/img/call?cmd=VIEW&id=8c675227-b40a-49b7-af7a-6d0987706f50&thumb,부산광역시 동구 영초길191번길,35.11709239,129.0357869
25의용단,부산 수영구,051-752-2947,"['25의용단', '경상권', '관광지', '교과서속여행', '아이와함께', '역사', '역사공부']",https://cdn.visitkorea.or.kr/img/call?cmd=VIEW&id=11e28eb4-70a7-47e1-84db-e4af0344a7f0&thumb,부산광역시 수영구 연수로379번길 42,35.17155247,129.11358859999999
40계단 문화관,부산 중구,051-600-4044,"['40계단문화관', '경상권', '교과서속여행', '기차여행', '문화시설', '아이와함께']",https://cdn.visitkorea.or.kr/img/call?cmd=VIEW&id=f47a4afd-104e-4231-8b2c-8e70e5c2e9e8&thumb,부산광역시 중구 동광길 49,35.10500721,129.03448020000002
40계단 문화관광테마거리,부산 중구,051-600-4041,"['40계단문화관광테마거리', '걷기길', '관광지', '문화공간', '아이와함께', '역사공부']",https://cdn.visitkorea.or.kr/img/call?cmd=VIEW&id=fe5d21b4-67e7-4766-9342-3e8b756d58e3&thumb,부산광역시 중구 40계단길 일대,35.104979,129.034887
75광장,부산 영도구,051-419-4044,"['75광장', '걷기길', '경상권', '관광지', '바다전망', '산책길', '산책하기', '산책하기좋은곳']",https://cdn.visitkorea.or.kr/img/call?cmd=VIEW&id=12234de8-e9ea-466c-9a02-2af1c9a029eb&thumb,부산광역시 영도구 절영로 370,35.07158363,129.0578297
BIFF 광장,부산 중구,051-253-8523,"['BIFF광장', '걷기길', '경상권', '관광지', '남녀노소', '도심여행', '문화콘텐츠산업']",https://cdn.visitkorea.or.kr/img/call?cmd=VIEW&id=2b3e6cd9-870e-48f5-b791-2d524b7851f5&thumb,부산광역시 중구 남포길 4,35.09882664,129.029195
F1963,부산 수영구,051-756-1963,"['F1963', '경상권', '공연', '관광지', '문화콘텐츠산업', '복합문화공간', '산업관광']",https://cdn.visitkorea.or.kr/img/call?cmd=VIEW&id=b2276f83-7dc1-4fb9-b021-a02ae637145b&thumb,부산광역시 수영구 구락로123번길 20,35.17623459,129.1155671
LG베스트샵(롯데백화점 센텀시티),부산 해운대구,051-730-3326,['쇼핑'],https://cdn.visitkorea.or.kr/img/call?cmd=VIEW&id=55e1657e-d605-4a6f-af8c-62335e17e909&thumb,부산광역시 해운대구 센텀남대로 59,35.16985335,129.13106969999998
SEA LIFE 부산아쿠아리움,부산 해운대구,051-740-1700,"['가족과함께', '경상권', '남녀노소', '도심여행', '문화시설', '문화행사', '미세먼지_피하는_실내여행']",https://cdn.visitkorea.or.kr/img/call?cmd=VIEW&id=bd0e0acb-4f95-4b4a-a3a8-4564ed721377&thumb,부산광역시 해운대구 해운대해변로 266,35.15919963,129.1610154
Y'Z PARK (와이즈파크),부산 중구,051-260-5000,"['복합쇼핑몰', '부산맛집', '부산호텔', '쇼핑', '피트니스센터']",https://cdn.visitkorea.or.kr/img/call?cmd=VIEW&id=ad6114b1-a2ce-4f14-9d0f-467564797a07&thumb,부산광역시 중구 광복로39번길 6,35.09972042,129.02958710000001
[부산 갈맷길 2코스] 2구간 민락교~오륙도,부산 해운대구,051-505-2224,"['레포츠', '부산갈맷길', '트래킹', '해운대구']",https://cdn.visitkorea.or.kr/img/call?cmd=VIEW&id=75dd5298-b6c7-42b9-8bf8-ffedb1e58940&thumb,부산광역시 해운대구 우동,35.1727865,129.1466518
가덕도 등대,부산 강서구,051-971-9710,"['가덕도등대', '가족여행', '경상권', '관광지', '부산광역시유형문화재', '자연']",https://cdn.visitkorea.or.kr/img/call?cmd=VIEW&id=bc0fb862-d2a2-4cad-b037-e19cf7f5acbb&thumb,부산광역시 강서구 대항동 가덕해안로 1237,35.010177500000005,128.826416
감천사(부산),부산 연제구,051-852-6904,"['관광지', '불교', '불교문화', '사찰', '사찰여행', '역사', '자연속으로', '자연환경']",https://cdn.visitkorea.or.kr/img/call?cmd=VIEW&id=ea9ec7f8-3319-4df8-a531-be9273ad68f7&thumb,부산광역시 연제구 묘봉산로 40,35.18341745,129.0909288
갤러리 미고,부산 해운대구,051-731-3444,"['갤러리미고', '문화시설', '문화예술', '미술', '실내여행지', '전시관']",https://cdn.visitkorea.or.kr/img/call?cmd=VIEW&id=9ffa8d96-17db-4901-9089-8ee6970f2a59&thumb,부산광역시 해운대구 해운대해변로298번길 24,35.16020159,129.1665793
갤러리예가,부산 남구,051-624-0933,"['갤러리', '문화공간', '문화시설', '문화예술', '복합문화공간', '열린문화공간']",https://cdn.visitkorea.or.kr/img/call?cmd=VIEW&id=undefined&thumb,부산광역시 부산진구 범양로79번길 8,35.17153918,129.0628447
갤럭시 (롯데백화점 센텀시티점),부산 해운대구,051-730-3623,"['남성정장', '롯데백화점', '브랜드', '쇼핑', '이태리스타일']",https://cdn.visitkorea.or.kr/img/call?cmd=VIEW&id=ed652f53-6931-4512-9bc2-dc993cacd039&thumb,부산광역시 해운대구 센텀남대로 59,35.16985335,129.13106969999998
거제시장,부산 연제구,051-852-6133,"['가족여행', '거제시장', '경상권', '기차여행', '나들이', '나홀로여행', '데이트코스']",https://cdn.visitkorea.or.kr/img/call?cmd=VIEW&id=e138e451-32e1-4059-88b3-3bfbe0ec211e&thumb,부산광역시 연제구 거제시장로14번길 28,35.18193157,129.0727929
경성대학교 문화홍보처 박물관,부산 남구,051-663-5381,"['경성대학교문화홍보처박물관', '무료관람', '문화시설', '박물관', '실내여행지']",https://cdn.visitkorea.or.kr/img/call?cmd=VIEW&id=de913c06-7b22-4864-a2f5-ce3f7fb56bd1&thumb,부산광역시 남구 수영로 309,35.13843836,129.100099
경성대학교 조류관,부산 남구,051-663-4042,"['가족여행', '경상권', '경성대학교조류관', '교과서속여행', '문화시설', '박물관']",https://cdn.visitkorea.or.kr/img/call?cmd=VIEW&id=27d4776c-78ad-4eba-b845-77b52940485f&thumb,부산광역시 남구 수영로 309,35.13843836,129.100099
고신대학교복음병원 의학도서관,부산 서구,051-990-6720,"['고신대학교', '문화시설', '복음병원', '의학도서관']",https://cdn.visitkorea.or.kr/img/call?cmd=VIEW&id=1d681f91-4eb5-46d4-a355-dc82dec5b44c&thumb,부산광역시 서구 감천로 262,35.08107807,129.0145128
공수어촌체험마을,부산 기장군,051-723-1919,"['경상권', '공수어촌체험마을', '관광지', '바다낚시', '바다체험', '아이와함께']",https://cdn.visitkorea.or.kr/img/call?cmd=VIEW&id=cfbaf573-6e9b-45ab-8c8c-ab4e4f597dda&thumb,부산광역시 기장군 기장읍 공수해안길 13-2,35.18440352,129.2111952
관수옥과 초량왜관 터,부산 중구,051-600-4066,"['경상권', '관광지', '관수옥', '교과서속여행', '역사', '역사공부', '역사관광지']",https://cdn.visitkorea.or.kr/img/call?cmd=VIEW&id=14a6b951-5591-44ec-b8da-5a2a3a9cae43&thumb,부산광역시 중구 용두산길 37-55,35.100930299999995,129.03244329999998
광명사(부산),부산 부산진구,051-646-0843,"['관광지', '불교', '불교문화', '사찰', '사찰여행', '역사', '자연속으로', '자연환경']",https://cdn.visitkorea.or.kr/img/call?cmd=VIEW&id=null&thumb,부산광역시 부산진구 안창로14번길 46,35.14619836,129.0449436
광복 지하도상가,부산 중구,051-713-8200,"['쇼핑', '신발', '악세서리', '의류', '지하상가']",https://cdn.visitkorea.or.kr/img/call?cmd=VIEW&id=f8e760fc-151c-406b-ab8a-985136089384&thumb,부산광역시 중구 중앙대로29번길 8,35.10022159,129.035652
광복로 만물의거리,부산 중구,051-245-3156,"['가족여행', '경상권', '광복로만물의거리', '먹거리', '사계절', '쇼핑', '아이와함께']",https://cdn.visitkorea.or.kr/img/call?cmd=VIEW&id=d2f31450-1020-4c49-8000-dae2decbbb21&thumb,부산광역시 중구 국제시장2길 20-1,35.10111964,129.0285721
광복로 아리랑 거리,부산 중구,051-600-4082,"['가족여행', '경상권', '광복로아리랑거리', '먹거리', '사계절', '쇼핑', '아이와함께']",https://cdn.visitkorea.or.kr/img/call?cmd=VIEW&id=d74652b6-b5a8-4143-b479-6fce67e235d3&thumb,부산 중구 신창동1~4가,35.10261444,129.0285223
광복로문화패션거리,부산 중구,051-253-8253,"['경상권', '관광지', '광복로문화패션거리', '도심여행', '복합문화공간', '산업관광']",https://cdn.visitkorea.or.kr/img/call?cmd=VIEW&id=19829fd9-3be6-4893-a973-5439433904f2&thumb,부산광역시 중구 광복동,35.09932,129.029681
광안리해변 테마거리,부산 수영구,051-610-4211,"['경치좋은곳', '관광지', '광안리해변', '광안리해수욕장', '바다경치', '산책길']",https://cdn.visitkorea.or.kr/img/call?cmd=VIEW&id=aa608f16-128a-4df5-9214-75e769d2b083&thumb,부산광역시 수영구 민락동,35.15726484,129.12544590000002
광안리해수욕장,부산 수영구,051-622-4251,"['가족여행', '관광지', '광안리해수욕장', '바다풍경', '아이와함께', '여름방학가볼만한곳']",https://cdn.visitkorea.or.kr/img/call?cmd=VIEW&id=c01f9332-0459-4452-ad1a-9fec058f34a9&thumb,부산광역시 수영구 광안해변로 219,35.1537736,129.11852050000002
광주요,부산 해운대구,051-745-2319,['쇼핑'],https://cdn.visitkorea.or.kr/img/call?cmd=VIEW&id=a95ee168-9fab-46af-88b3-b09499728001&thumb,부산광역시 해운대구 센텀남대로 35,35.16881784,129.1295233
구덕 민속예술관,부산 서구,051-240-4082,"['가족과 함께', '교육여행', '구덕민속박물관', '문화시설', '민속문화', '아이와 함께']",https://cdn.visitkorea.or.kr/img/call?cmd=VIEW&id=248937e1-e3d1-4902-af98-576dc7502dc8&thumb,부산광역시 서구 대신공원로 34-91,35.12393563,129.0184833
구덕야영장,부산 서구,051-246-4685,"['가족과함께', '구덕야영장', '국내힐링여행', '레포츠', '아이와함께', '야영장']",https://cdn.visitkorea.or.kr/img/call?cmd=VIEW&id=7d7e6f27-69d9-491b-94b5-5268be3ad0cb&thumb,부산광역시 서구 꽃마을로156번길 109,35.12533870000001,129.010719
구상반려암 (부산 국가지질공원),부산 부산진구,051-888-3636,"['경치좋은곳', '광물', '국가지질공원', '도심속', '부산_국가지질공원', '부산가볼만한곳']",https://cdn.visitkorea.or.kr/img/call?cmd=VIEW&id=3aba0339-ac24-4d84-9e6a-af5dad56fbc1&thumb,부산광역시 부산진구 전포동,35.157532,129.07146799999998
구상반려암명소,부산 부산진구,051-888-3636,"['관광지', '부산지질공원', '생태관광', '생태관광지', '역사유적지', '체험학습']",https://cdn.visitkorea.or.kr/img/call?cmd=VIEW&id=59502124-0acf-4332-9329-b139f4815d13&thumb,부산광역시 부산진구 전포동 일대,35.16359065,129.0707501
구서 오시게시장,부산 금정구,051-518-6893,"['가족여행', '경상권', '구서오시게시장', '사계절', '쇼핑', '시장맛집', '아이와함께']",https://cdn.visitkorea.or.kr/img/call?cmd=VIEW&id=90b31096-5027-442a-9cc6-0dab77c5b4d5&thumb,부산광역시 금정구 구서로 12,35.24735756,129.0897741
구포 축산물도매시장,부산 북구,051-301-3517,"['경상권', '구포축산물도매시장', '도매시장', '쇼핑', '특산물']",https://cdn.visitkorea.or.kr/img/call?cmd=VIEW&id=7cf44150-4d89-481f-8c38-22e15342cec2&thumb,부산광역시 북구 사상로583번길 20,35.19638644,128.98949059999998
구포만세거리,부산 북구,,"['관광지', '구포만세거리', '구포시장', '역사관광지', '이색거리']",https://cdn.visitkorea.or.kr/img/call?cmd=VIEW&id=a0f5df37-1ac8-4caa-9508-e51e5228fbdf&thumb,부산광역시 북구 구포동,35.20792928,129.0001514
"구포장 / 구포시장 (3, 8일)",부산 북구,051-333-9032,"['가족여행', '경상권', '구포시장', '구포장', '사계절', '쇼핑', '시장맛집', '아이와함께']",https://cdn.visitkorea.or.kr/img/call?cmd=VIEW&id=4344d148-061c-45e1-bcd2-725eaeaa2e0c&thumb,부산광역시 북구 구포시장1길 17,35.20900262,129.00437549999998
국립 달음산자연휴양림,부산 기장군,051-722-3023,"['가족과함께', '관광지', '연인과함께', '자연', '자연관광지', '자연속으로', '자연여행']",https://cdn.visitkorea.or.kr/img/call?cmd=VIEW&id=592b7628-0800-4cd5-985e-bb8028c55028&thumb,부산광역시 기장군 일광면 화용길 299-106,35.30261054,129.18530420000002
국립부산과학관,부산 기장군,051-750-2300,"['가족체험여행', '경상권', '국립부산과학관', '무더위_피해_실내놀이', '문화시설']",https://cdn.visitkorea.or.kr/img/call?cmd=VIEW&id=90ab1001-ee2d-4bdc-87b7-ec6e4d1ea76e&thumb,부산광역시 기장군 기장읍 동부산관광6로 59,35.20459705,129.2127019
국립부산국악원,부산 부산진구,051-811-0114,"['경상권', '국립부산국악원', '데이트코스', '문화시설', '문화행사', '사계절', '상설공연']",https://cdn.visitkorea.or.kr/img/call?cmd=VIEW&id=4b806ebb-9c55-47e8-9ee1-07f25ca07951&thumb,부산광역시 부산진구 국악로 2,35.17145978,129.0541302
국립일제강제동원역사관,부산 남구,051-629-8600,"['가족과함께', '문화시설', '아이와함께', '역사공부', '역사관광지', '역사를품은곳']",https://cdn.visitkorea.or.kr/img/call?cmd=VIEW&id=98cdf7a5-8b3f-456f-915d-9e9b4186116c&thumb,부산광역시 동래구 우장춘로62번길 7,35.12450497,129.0920701
국립해양박물관,부산 영도구,051-309-1900,"['경상권', '교과서속여행', '국립해양박물관', '단체관광', '문화시설', '사계절']",https://cdn.visitkorea.or.kr/img/call?cmd=VIEW&id=879e8178-1b02-4578-beda-a0a9993baf99&thumb,부산광역시 영도구 해양로301번길 45,35.07856342,129.0802449
국제시장,부산 중구,051-245-7389,"['가족여행', '경상권', '국제시장', '나들이', '나홀로여행', '데이트코스', '먹거리']",https://cdn.visitkorea.or.kr/img/call?cmd=VIEW&id=fd57883e-65d1-4411-b10a-e5e65689e620&thumb,부산광역시 중구 신창로4가 일원,35.101552399999996,129.0282977
국제시장 먹자골목,부산 중구,051-245-7389,"['가족여행', '경상권', '관광지', '국제시장먹자골목', '남녀노소', '맛집탐방', '먹거리']",https://cdn.visitkorea.or.kr/img/call?cmd=VIEW&id=aa87ee91-3dd3-461a-be3a-4e00c0ca4ea4&thumb,부산광역시 중구 중구로 36,35.10111637,129.02805990000002
국제시장 젊음의거리,부산 중구,051-245-7389,"['가족여행', '경상권', '국제시장젊음의거리', '사계절', '쇼핑', '시장맛집', '아이와함께']",https://cdn.visitkorea.or.kr/img/call?cmd=VIEW&id=e0c1aac7-7f2a-44c3-a49f-251ff11af78c&thumb,부산광역시 중구 국제시장2길 25,35.10154027,129.0283106
국제시장 조명의 거리,부산 중구,,"['경상권', '국제시장조명의거리', '사계절', '쇼핑', '아이와함께', '체험학습']",https://cdn.visitkorea.or.kr/img/call?cmd=VIEW&id=1004b69b-160e-47c4-8444-8096961f511d&thumb,부산광역시 중구 국제시장2길 5,35.09970656,129.0283158
국청사(부산),부산 금정구,051-517-5003,"['경상권', '관광지', '국청사', '불교', '불교문화', '사찰', '사찰여행', '역사', '연중무휴']",https://cdn.visitkorea.or.kr/img/call?cmd=VIEW&id=844d85b7-1dfd-41d9-b26d-c47931ba1db4&thumb,부산광역시 금정구 북문로 42,35.25353569,129.05468570000002
금강공원,부산 동래구,051-860-7880,"['가족과함께', '걷기길', '경상권', '관광지', '금강공원', '남녀노소', '박물관', '아이와함께']",https://cdn.visitkorea.or.kr/img/call?cmd=VIEW&id=b0e43311-902b-4f84-81fb-0df461f32a04&thumb,부산광역시 동래구 우장춘로 155,35.21963572,129.0757693
금강사(부산),부산 동래구,051-555-1383,"['경상권', '관광지', '금강사', '불교', '불교문화', '불교사찰', '사찰', '사찰여행']",https://cdn.visitkorea.or.kr/img/call?cmd=VIEW&id=e562a3de-7b3b-4057-b60a-4fe00ec0ae44&thumb,부산광역시 동래구 우장춘로 211,35.2249686,129.0771579
금강식물원,부산 금정구,051-582-3284,"['관광지', '자연']",https://cdn.visitkorea.or.kr/img/call?cmd=VIEW&id=e4a88435-d822-464e-888d-384b2c9bae3c&thumb,부산광역시 금정구 장전동 산 43-1,35.22644765,129.077112
금강암(부산),부산 금정구,051-519-4092,"['관광지', '역사', '역사공부', '역사관광지', '역사를품은곳', '역사문화재', '역사속']",https://cdn.visitkorea.or.kr/img/call?cmd=VIEW&id=87cfd4d8-6478-4a84-bbb8-010d838d84c5&thumb,부산광역시 금정구 범어사로 254,35.28158794,129.06514909999999
금강제화 부산본점,부산 중구,051-241-4383,"['쇼핑', '액세서리', '전문멀티샵', '패션브랜드']",https://cdn.visitkorea.or.kr/img/call?cmd=VIEW&id=6e37b04d-60b2-42d9-9e61-4330d7b02a65&thumb,부산광역시 중구 광복로 59,35.09938243,129.03163909999998
금강제화 부산서면점,부산 부산진구,051-806-9194,"['경상권', '금강제화', '쇼핑', '친구와함께']",https://cdn.visitkorea.or.kr/img/call?cmd=VIEW&id=dc13c177-53e4-4835-88c6-7b71a23894a8&thumb,부산광역시 부산진구 중앙대로 691,35.15460646,129.0588089
금련산,부산 수영구,051-253-8253,"['관광지', '자연']",https://cdn.visitkorea.or.kr/img/call?cmd=VIEW&id=eefd1222-fe7b-44ae-b7af-de5db7e2e8ed&thumb,부산광역시 수영구 광안동,35.161676,129.096103
금수동,부산 기장군,051-727-5679,"['가족과함께', '가족체험', '가족체험여행', '문화시설', '연인과함께', '체험', '체험관광']",https://cdn.visitkorea.or.kr/img/call?cmd=VIEW&id=1c278af5-1f73-48d2-bd54-213e9dcb6f27&thumb,부산광역시 기장군 장안읍 장안로 49-10,35.3447459,129.2531309
금수사(부산),부산 동구,051-467-3316,"['관광지', '불교', '불교문화', '사찰', '사찰여행', '역사', '자연속으로', '자연환경']",https://cdn.visitkorea.or.kr/img/call?cmd=VIEW&id=null&thumb,부산광역시 동구 망양로 533-1,35.12004765,129.0294394
금용암(부산),부산 연제구,051-501-6300,"['관광지', '불교', '불교문화', '사찰', '사찰여행', '역사', '자연속으로', '자연환경']",https://cdn.visitkorea.or.kr/img/call?cmd=VIEW&id=8069a624-13f5-409d-a8b3-3e1887163b21&thumb,부산광역시 연제구 성지곡로 111,35.19159362,129.0496414
금정문화원,부산 금정구,051-581-9071,"['교육프로그램', '금정문화원', '문화시설', '부산금정구']",https://cdn.visitkorea.or.kr/img/call?cmd=VIEW&id=fee2293b-c8a4-42f1-ac3c-ae2aa98d5a82&thumb,부산광역시 금정구 중앙대로1826번길 10-4,35.24729036,129.0931868
금정산 (부산 국가지질공원),부산 금정구,051-888-3636,"['경북_동해안_국가지질공원', '경치좋은곳', '관광지', '국가지질공원', '자연']",https://cdn.visitkorea.or.kr/img/call?cmd=VIEW&id=770d9819-30fb-4860-916e-f8fdbcd494cf&thumb,부산광역시 금정구 금성동,35.17992599,129.0750952
금정산명소,부산 금정구,051-888-3636,"['걷기길', '경상권', '관광지', '금정산', '금정산명소', '산성막걸리', '생태관광']",https://cdn.visitkorea.or.kr/img/call?cmd=VIEW&id=14030a57-c0a8-4b5d-9121-c6a9235eb36b&thumb,부산광역시 금정구 청룡동 일대,35.28318,129.05551699999998
금정산성,부산 금정구,051-519-4092,"['가족여행', '관광지', '교과서속여행', '금정산성', '아이와함께', '역사', '역사공부']",https://cdn.visitkorea.or.kr/img/call?cmd=VIEW&id=387a8c61-1f7f-4958-9f8e-452d6e3cba4a&thumb,부산광역시 금정구 금성동,35.275665999999994,129.057472
금정산성마을 먹거리촌,부산 금정구,,"['가족과함께', '관광지', '금정산성', '남녀노소', '맛집골목', '맛집탐방', '부산가볼만한곳']",https://cdn.visitkorea.or.kr/img/call?cmd=VIEW&id=28acb782-8707-4a7c-b493-578709ee5ff0&thumb,부산광역시 금정구 금성동,35.275684000000005,129.057504
금정선원,부산 동래구,051-555-1208,"['관광지', '불교', '불교문화', '사찰', '사찰여행', '역사', '자연속으로', '자연환경']",https://cdn.visitkorea.or.kr/img/call?cmd=VIEW&id=c15ccaca-155c-49e5-bb6a-ea247ee402d1&thumb,부산광역시 동래구 우장춘로 157-59,35.22175312,129.07423070000002
기장문화원,부산 기장군,051-724-2224,"['교육프로그램', '기장문화원', '문화시설', '부산기장군']",https://cdn.visitkorea.or.kr/img/call?cmd=VIEW&id=bbcd6bc4-9875-4ca8-a052-3a4825a6c37d&thumb,부산광역시 기장군 기장읍 청강로74번길 35-6,35.23524584,129.221698
기장향교,부산 기장군,051-709-4061,"['경상권', '관광지', '교과서속여행', '기장향교', '역사', '역사공부', '역사관광지']",https://cdn.visitkorea.or.kr/img/call?cmd=VIEW&id=caf0ac8b-5447-423d-a9f5-d985cb6a12a6&thumb,부산광역시 기장군 기장읍 차성로417번길 35,35.25736086,129.2160733
김민부전망대,부산 동구,051-253-8253,"['감성사진', '경치좋은곳', '관광지', '부산가볼만한곳', '부산데이트', '부산데이트']",https://cdn.visitkorea.or.kr/img/call?cmd=VIEW&id=ae7a5f88-f35c-402c-bf74-0cf5aa82b02a&thumb,부산광역시 동구 영초윗길26번길 14,35.11765406,129.0353063
깡깡이 예술마을,부산 영도구,051-418-1863,"['문화공간', '가족과함께', '관광지', '문화예술', '문화예술공간', '부산가볼만한곳']",https://cdn.visitkorea.or.kr/img/call?cmd=VIEW&id=f7e7a2e8-3084-49f7-973d-8bba4ab517f2&thumb,부산광역시 영도구 대평로27번길 8-8,35.0912404,129.0339417
낙동강문화관,부산 사하구,051-292-1042,"['가족여행', '경상권', '관광지', '교육장', '교육프로그램', '낙동강', '낙동강문화관']",https://cdn.visitkorea.or.kr/img/call?cmd=VIEW&id=3cfb747c-231d-4cdc-94d8-3b657633b598&thumb,부산광역시 사하구 낙동남로1233번길 1,35.10825308,128.9474192
낙동강하구 (부산 국가지질공원),부산 사하구,051-888-3636,"['경치좋은곳', '국가지질공원', '낙동강하구', '부산_국가지질공원', '사진찍기']",https://cdn.visitkorea.or.kr/img/call?cmd=VIEW&id=d9842a24-20da-47b4-832d-23b12f75526e&thumb,부산광역시 사하구 낙동남로 1240,35.104496999999995,128.9459942
낙동강하구명소,부산 사하구,051-888-3636,"['걷기길', '걷기여행', '경상권', '관광지', '낙동강', '생태관광', '생태관광지', '전망대']",https://cdn.visitkorea.or.kr/img/call?cmd=VIEW&id=afc4ed96-afbd-46a4-bee8-715783a9c78f&thumb,부산광역시 사하구 낙동남로 1240,35.10449124,128.9459812
낙동강하구에코센터,부산 사하구,051-209-2000,"['걷기길', '겨울방학가볼만한곳', '관광지', '교육여행', '낙동강하구에코센터']",https://cdn.visitkorea.or.kr/img/call?cmd=VIEW&id=23ee0695-6374-4ece-81b3-1bcc244de6a2&thumb,부산광역시 사하구 낙동남로 1240,35.10449124,128.9459812
남도해양관광열차 S-트레인(S-train),부산 동구,1544-7788,"['관광지', '남도바다', '바다열차', '부산', '부산여행', '연인과함께', '체험', '친구와함께']",https://cdn.visitkorea.or.kr/img/call?cmd=VIEW&id=407da3da-b83b-44e9-8d9f-a33fe2f06d31&thumb,부산광역시 동구 중앙대로 206,35.11811178,129.0448725
남선창고터,부산 동구,051-440-4064,"['경상권', '관광지', '남선창고터', '명태고방', '역사', '역사공부', '역사관광지']",https://cdn.visitkorea.or.kr/img/call?cmd=VIEW&id=28e8943b-7a51-462f-a8eb-3ec585dca5fe&thumb,부산광역시 동구 초량로13번길 53,35.11680616,129.039515
남천 해변시장,부산 수영구,051-624-9646,"['가족여행', '경상권', '남천해변시장', '사계절', '쇼핑', '시장맛집', '아이와함께']",https://cdn.visitkorea.or.kr/img/call?cmd=VIEW&id=26b32398-bce3-448d-bb17-d17eb0078ffe&thumb,부산광역시 수영구 광안해변로15번길 77,35.13915613,129.1090408
남포동 지하도상가,부산 중구,051-713-8200,"['부산지하상가', '쇼핑', '외국인이많이찾는', '지하상가']",https://cdn.visitkorea.or.kr/img/call?cmd=VIEW&id=18203111-50bd-4fd3-a307-b72401a545c7&thumb,부산광역시 중구 구덕로 지하 44,35.09800097,129.0306204
남포동건어물도매시장,부산 중구,051-254-3311,"['가족여행', '나들이', '나홀로여행', '남포동건어물시장', '데이트코스', '먹거리']",https://cdn.visitkorea.or.kr/img/call?cmd=VIEW&id=b45cf048-cdaa-4074-9071-463ca98cd8f8&thumb,부산광역시 중구 용미길8번길 4-1,35.09732614,129.0345237
남항시장,부산 영도구,051-414-9500,"['가족여행', '경상권', '기차여행', '나들이', '나홀로여행', '남항시장', '데이트코스']",https://cdn.visitkorea.or.kr/img/call?cmd=VIEW&id=3d0c16f5-b782-4bc1-86ce-f8333975173e&thumb,부산광역시 영도구 절영로49번길 73-5,35.08890761,129.0422626
내원정사(부산),부산 서구,051-242-0691,"['관광지', '불교', '불교문화', '역사', '역사관광지', '자연좋은곳', '자연환경', '종교']",https://cdn.visitkorea.or.kr/img/call?cmd=VIEW&id=0b07b840-21eb-4708-b2d9-4d80fe7435ea&thumb,부산광역시 서구 엄광산로40번길 121-22,35.1281422,129.011539
누리마루 APEC하우스,부산 해운대구,051-743-1974,"['가족과함께', '경상권', '경치좋은곳', '교육여행', '남녀노소', '누리마루APEC하우스']",https://cdn.visitkorea.or.kr/img/call?cmd=VIEW&id=2a434fdb-22a0-40a3-ba25-d709a0bcfc9b&thumb,부산광역시 해운대구 동백로 116,35.15234205,129.15136189999998
다대 실내수영장,부산 사하구,051-262-4125,"['레포츠', '부산광역시', '사하구', '실내수영장']",https://cdn.visitkorea.or.kr/img/call?cmd=VIEW&id=aca07131-c5f6-4820-ba9c-9186561da1b4&thumb,부산광역시 사하구 다대로 734,35.0499677,128.96141029999998
다대포 꿈의 낙조분수,부산 사하구,051-220-5893,"['가족여행', '경상권', '관광지', '다대포꿈의낙조분수', '사진찍기좋은곳', '야간관광100선']",https://cdn.visitkorea.or.kr/img/call?cmd=VIEW&id=667d5cf7-5fa4-482c-9769-fe3742b7f2e5&thumb,부산광역시 사하구 몰운대1길 14,35.04637785,128.9680031
다대포일대,부산 사하구,051-220-4161,"['낚시', '낚시인', '다대포', '레포츠', '유적지']",https://cdn.visitkorea.or.kr/img/call?cmd=VIEW&id=35cdf8ca-e088-44a7-80f0-be65738be724&thumb,부산광역시 사하구 몰운대1길 14,35.0457857,128.968704
다대포해수욕장,부산 사하구,051-207-6041,"['가족여행', '관광지', '다대포해수욕장', '바다풍경', '아이와함께', '언택트관광지_100선']",https://cdn.visitkorea.or.kr/img/call?cmd=VIEW&id=48999eca-2b44-48c3-85d1-050a6358769f&thumb,부산광역시 사하구 몰운대1길 14,35.04637785,128.9680031
다해정,부산 중구,051-242-7211,"['가족과함께', '문화공간', '쇼핑', '전통문화']",https://cdn.visitkorea.or.kr/img/call?cmd=VIEW&id=ee3078b1-674d-4431-ac06-383d8bd6d14d&thumb,부산광역시 중구 남포길 39-2,35.09823256,129.0332494
닥터 아난티 의원,부산 기장군,051-604-7241,"['건강여행', '관광지', '남녀노소', '부모님과함께', '뷰티의원', '이색체험', '체험프로그램']",https://cdn.visitkorea.or.kr/img/call?cmd=VIEW&id=9e066787-9fa6-4e33-b3db-b81ddbf7201f&thumb,부산광역시 기장군 기장읍 기장해안로 268-32,35.19819289,129.2285845
당산,부산 동구,051-440-4064,"['관광지', '역사', '역사공부', '역사관광지', '역사를품은곳', '역사문화재', '역사속']",https://cdn.visitkorea.or.kr/img/call?cmd=VIEW&id=c47e116f-f826-4fd4-8f1f-14db44a5ef46&thumb,부산광역시 동구 망양로478번길 13,35.1172242,129.0343642
대각사(부산),부산 중구,051-245-8781,"['관광지', '불교', '불교문화', '사찰', '사찰여행', '역사', '자연속으로', '자연환경']",https://cdn.visitkorea.or.kr/img/call?cmd=VIEW&id=bd124b12-5354-46ec-b9ed-04806950858d&thumb,부산광역시 중구 광복중앙로 21,35.10130797,129.0306539
대변마을,부산 기장군,051-253-8253,"['경상권', '관광지', '대변마을', '어촌마을', '자연']",https://cdn.visitkorea.or.kr/img/call?cmd=VIEW&id=76b1219d-cbe8-405d-a4ed-299d7df5f011&thumb,부산 기장군 기장읍 대변리,35.22597052,129.2292721
대저생태공원,부산 강서구,051-971-6011,"['4월추천가볼만한곳', '가족여행', '경상권', '관광지', '꽃여행', '나들이', '대저생태공원']",https://cdn.visitkorea.or.kr/img/call?cmd=VIEW&id=92c374c5-a440-4604-8d3c-6097d87d3999&thumb,부산광역시 강서구 공항로 1246,35.20985007,128.9845569
대천천,부산 북구,051-309-4382,"['관광지', '자연']",https://cdn.visitkorea.or.kr/img/call?cmd=VIEW&id=1661d829-0946-48de-8a99-2497db33e2c1&thumb,부산 북구 화명동 172,35.2437653,129.02789009999998
대항 어촌체험 휴양마을,부산 강서구,010-3570-1036,"['관광지', '바다낚시', '바다내음', '바다전망', '바다체험', '바다향기로', '아이와함께']",https://cdn.visitkorea.or.kr/img/call?cmd=VIEW&id=84baf98c-0bb2-4aef-9e01-c3e5dfdca047&thumb,부산광역시 강서구 가덕해안로1207번길 9-2,35.01166067,128.8276549
더베이101,부산 해운대구,051-726-8888,"['경상권', '관광지', '더베이101', '데이트장소추천', '문화예술공간', '아이와함께']",https://cdn.visitkorea.or.kr/img/call?cmd=VIEW&id=6dd3374c-45a5-457f-b294-becfca495f6e&thumb,부산광역시 해운대구 동백로 52,35.15658328,129.15206909999998
동래문화원,부산 동래구,051-555-1441,"['경상권', '동래문화원', '문화시설', '문화원', '아이와함께', '역사문화체험', '전통문화체험']",https://cdn.visitkorea.or.kr/img/call?cmd=VIEW&id=64f1ca2c-cf86-4a18-950e-db284124c37f&thumb,부산광역시 동래구 문화로 80,35.21195069,129.090546
동래문화회관,부산 동래구,051-550-6611,"['공연장', '동래구', '무장애', '문화공간', '문화시설', '복합문화공간', '부산', '야외공연장']",https://cdn.visitkorea.or.kr/img/call?cmd=VIEW&id=4e7b8425-e824-4883-99c7-a74d12603566&thumb,부산광역시 동래구 문화로 80,35.21195069,129.090546
동래시장,부산 동래구,051-552-1651,"['가족여행', '경상권', '기차여행', '나들이', '나홀로여행', '데이트코스', '동래시장']",https://cdn.visitkorea.or.kr/img/call?cmd=VIEW&id=1a093fec-2e16-4c35-ab4f-9d88195d307d&thumb,부산광역시 동래구 동래시장길 14,35.20380872,129.0859386
동래온천 노천족탕,부산 동래구,051-550-6602,"['가족여행', '경상권', '관광지', '남녀노소', '동래온천노천족탕', '부산가볼만한곳']",https://cdn.visitkorea.or.kr/img/call?cmd=VIEW&id=ac9961b9-b0b6-4e78-95b3-af9e4e59db9f&thumb,부산광역시 동래구 금강공원로26번길 21,35.22001138,129.0814402
동래읍성지,부산 동래구,051-550-4084,"['관광지', '부산야경', '야간관광100선', '야경명소', '야경여행', '야경좋은곳']",https://cdn.visitkorea.or.kr/img/call?cmd=VIEW&id=fa095ad4-6d48-4e7e-aaeb-73964e06d411&thumb,부산광역시 동래구 칠산동,35.210097,129.090175
동래향교,부산 동래구,051-552-4160,"['경상권', '관광지', '교과서속여행', '동래향교', '문화재', '역사', '역사공부', '역사관광지']",https://cdn.visitkorea.or.kr/img/call?cmd=VIEW&id=2ac2feb8-3ea0-4b4c-ad0c-017f8ac14633&thumb,부산광역시 동래구 동래로 103,35.20770139,129.0840987
동백공원,부산 해운대구,051-749-4491,"['걷기길', '관광지', '동백공원', '바다풍경', '연인과함께', '연중무휴', '자연좋은곳']",https://cdn.visitkorea.or.kr/img/call?cmd=VIEW&id=689c5a8c-bc24-4c87-9f3f-2cde5375a6d8&thumb,부산광역시 해운대구 우동,35.153556,129.15195
동보프라자,부산 부산진구,051-803-0009,"['복합문화공간', '부산', '부산쇼핑', '쇼핑']",https://cdn.visitkorea.or.kr/img/call?cmd=VIEW&id=d589944c-8de7-4044-970f-76ea39886d33&thumb,부산광역시 부산진구 중앙대로 704,35.15549362,129.05958470000002
동삼동패총전시관,부산 영도구,051-403-1193,"['경상권', '교과서속여행', '동삼동패총전시관', '문화시설', '사계절', '실내여행지']",https://cdn.visitkorea.or.kr/img/call?cmd=VIEW&id=90f60335-0c1b-4640-ae38-a80c5a070daa&thumb,부산광역시 영도구 태종로 729,35.07121581,129.07966770000002
동아대학교 석당박물관(부산),부산 서구,051-200-8493,"['기차여행', '동아대학교석당박물관', '문화시설', '박물관', '아이와함께', '전통&역사문화체험']",https://cdn.visitkorea.or.kr/img/call?cmd=VIEW&id=e38ee282-ecc0-456f-bdd8-7ca3ef987d23&thumb,부산광역시 서구 구덕로 225,35.10374099,129.0194146
동아대학교 석당홀,부산 서구,051-240-2114,"['대학교', '동아대학교', '문화시설', '세미나', '음악공연', '콘서트', '학술회']",https://cdn.visitkorea.or.kr/img/call?cmd=VIEW&id=9ef88ba7-f38b-4953-8606-678fa88e7cff&thumb,부산광역시 서구 망양로111번길 65,35.1201981,129.0200404
동의대학교 중앙도서관,부산 부산진구,051-890-1160,"['경상권', '도서관', '동의대학교중앙도서관', '문화시설']",https://cdn.visitkorea.or.kr/img/call?cmd=VIEW&id=222e5f3d-76e5-451a-ab41-cbfa3190caff&thumb,부산광역시 부산진구 엄광로 176,35.14432081,129.0363092
두도 (부산 국가지질공원),부산 서구,051-888-3636,"['경치좋은곳', '국가지질공원', '바다낚시', '바다내음', '부산_국가지질공원', '사진찍기좋은곳']",https://cdn.visitkorea.or.kr/img/call?cmd=VIEW&id=a93595d5-e75d-429b-8417-38dc0e3d7be7&thumb,부산광역시 서구 암남동,35.0799261,129.0212884
두송반도 (부산 국가지질공원),부산 사하구,051-888-3636,"['국가지질공원', '부산_국가지질공원', '사진찍기좋은곳', '자연', '자연관광지']",https://cdn.visitkorea.or.kr/img/call?cmd=VIEW&id=874de30d-c1ff-4267-92e6-2e5c36befcfd&thumb,부산광역시 사하구 다대동,35.0556365,128.9674986
두송반도명소,부산 사하구,051-888-3636,"['걷기길', '경상권', '관광지', '두송반도', '생태관광', '생태관광지', '역사유적지']",https://cdn.visitkorea.or.kr/img/call?cmd=VIEW&id=de4ef13c-e73e-4242-addf-74d730800477&thumb,부산광역시 사하구 다대동 일대,35.17992599,129.0750952
레스모아 (LesMore) 부산광복동점,부산 중구,,"['경상권', '레스모아', '브랜드슈즈', '쇼핑', '신발']",https://cdn.visitkorea.or.kr/img/call?cmd=VIEW&id=7f3e430c-f438-44e1-8006-860e326663c7&thumb,부산광역시 중구 광복로 57,35.09940867,129.031472
롯데백화점 (부산 광복점),부산 중구,051-678-2500,"['롯데백화점', '롯데시네마', '백화점', '쇼핑']",https://cdn.visitkorea.or.kr/img/call?cmd=VIEW&id=e21e4b9f-acab-4ec3-aacb-94796fa4c634&thumb,부산광역시 중구 중앙대로 2,35.09830526,129.0367023
롯데백화점 (부산본점),부산 부산진구,051-810-2500,"['롯데백화점', '백화점', '복합생활문화공간', '쇼핑']",https://cdn.visitkorea.or.kr/img/call?cmd=VIEW&id=fef571df-e487-4697-b759-e0580c95941b&thumb,부산광역시 부산진구 가야대로 772,35.15678998,129.0564162
롯데프리미엄아울렛 동부산점,부산 기장군,051-901-2500,['쇼핑'],https://cdn.visitkorea.or.kr/img/call?cmd=VIEW&id=5a477196-bea3-4ed0-9752-ba64699ba941&thumb,부산광역시 기장군 기장읍 기장해안로 147,35.1922145,129.21278049999998
마린시티,부산 해운대구,051-749-5700,"['관광지', '데이트명소', '마린시티', '부산야경', '부산야경좋은곳', '부산야경포인트']",https://cdn.visitkorea.or.kr/img/call?cmd=VIEW&id=97e99fcc-387c-4e41-a84b-e6fae5eebfe7&thumb,부산광역시 해운대구 우동,35.155378000000006,129.145921
마하사(부산),부산 연제구,051-852-2436,"['경상권', '관광지', '마하사', '불교', '불교문화', '사찰', '사찰여행', '역사', '자연속으로']",https://cdn.visitkorea.or.kr/img/call?cmd=VIEW&id=308fdc88-f88d-4b84-9ec3-fb4ddb3836c7&thumb,부산광역시 연제구 봉수로 138,35.16387048,129.0872597
맥도생태공원,부산 강서구,051-941-9728,"['걷기길', '경상권', '관광지', '꽃여행', '나들이', '맥도생태공원', '봄꽃여행', '생태관광']",https://cdn.visitkorea.or.kr/img/call?cmd=VIEW&id=d16687bf-55a0-407a-a658-3151f898a280&thumb,부산광역시 강서구 공항로 500,35.15231936,128.9549081
메이커스튜디오,부산 부산진구,051-622-0515,"['경상권', '관광지', '메이커스튜디오', '산업관광', '산업관광지', '이색체험', '체험여행']",https://cdn.visitkorea.or.kr/img/call?cmd=VIEW&id=9d56d5b2-a51a-49b8-94f8-76988a931bd9&thumb,부산광역시 부산진구 동천로 116,35.15905721,129.0626345
몰운대 (부산 국가지질공원),부산 사하구,051-888-3636,"['관광지', '국가지질공원', '명승지', '몰운도', '부산_국가지질공원', '사진찍기']",https://cdn.visitkorea.or.kr/img/call?cmd=VIEW&id=a0e96b1b-84f2-4f6a-9cfd-b689899d6b47&thumb,부산광역시 사하구 다대동,35.17992599,129.0750952
몰운대명소,부산 사하구,051-888-3636,"['걷기길', '관광지', '몰운대', '생태관광', '생태관광지', '힐링&휴양여행']",https://cdn.visitkorea.or.kr/img/call?cmd=VIEW&id=75d0bf70-e269-4a5d-9a7e-edd91209817b&thumb,부산광역시 사하구 다대동 일대,35.0442995,128.9694173
묘심사(부산),부산 동구,051-467-2390,"['관광지', '불교', '불교문화', '사찰', '사찰여행', '역사', '자연속으로', '자연환경']",https://cdn.visitkorea.or.kr/img/call?cmd=VIEW&id=null&thumb,부산광역시 동구 망양로 671,35.12667824,129.0393785
무민사,부산 남구,051-607-4064,"['관광지', '역사', '역사공부', '역사관광지', '역사를품은곳', '역사문화재', '역사속']",https://cdn.visitkorea.or.kr/img/call?cmd=VIEW&id=a825a2e3-8bcb-452b-8add-49534c301718&thumb,부산광역시 남구 무민사로33번길 11-15,35.11296278,129.0804206
문탠로드,부산 해운대구,051-502-7399,"['가족여행', '레포츠', '문탠로드', '산책코스', '야간관광100선', '해운대']",https://cdn.visitkorea.or.kr/img/call?cmd=VIEW&id=dfb3af7c-8689-4bdf-b00c-2967bcef335f&thumb,부산광역시 해운대구 달맞이길 120,35.1574096,129.1755364
뮤지엄 다:,부산 해운대구,051-731-3302,"['가족과함께', '디지털샤워', '문화시설', '미디엄아트샤워', '부산', '연인과함께']",https://cdn.visitkorea.or.kr/img/call?cmd=VIEW&id=36617f58-21f0-40b5-8e54-9a7fd67a7aba&thumb,부산광역시 해운대구 센텀서로 20,35.17132120000001,129.1289814
미륵사(부산),부산 금정구,051-508-4707,"['관광지', '불교', '불교문화', '사찰', '사찰여행', '역사', '자연속으로', '자연환경']",https://cdn.visitkorea.or.kr/img/call?cmd=VIEW&id=undefined&thumb,부산광역시 금정구 북문로 126,35.2741519,129.0493159
미술의거리,부산 중구,051-244-7691,"['부산문화예술', '부산중구', '쇼핑', '전시회']",https://cdn.visitkorea.or.kr/img/call?cmd=VIEW&id=814656fa-c930-410d-9853-fe6b413c1c2d&thumb,부산광역시 중구 중구로 31,35.1005816,129.0278472
민락수변공원,부산 수영구,051-441-6565,"['가족여행', '걷기길', '경상권', '관광지', '민락수변공원', '바다풍경', '연인과함께']",https://cdn.visitkorea.or.kr/img/call?cmd=VIEW&id=07187b91-9bbe-4f44-b686-2204ea699096&thumb,부산광역시 수영구 광안해변로 361,35.15635378,129.1313378
민락어민활어직판장,부산 수영구,051-753-0200,"['매운탕', '쇼핑', '회센터', '회요리']",https://cdn.visitkorea.or.kr/img/call?cmd=VIEW&id=4e1de9bd-d24e-4011-9913-70038a44e323&thumb,부산광역시 수영구 광안해변로312번길 60,35.15421579,129.12786359999998
민주공원,부산 중구,051-790-7400,"['걷기길', '경상권', '관광지', '교과서속여행', '기념관', '문화행사', '민주공원']",https://cdn.visitkorea.or.kr/img/call?cmd=VIEW&id=a8c90977-4415-4e8c-befc-4e860e68516d&thumb,부산광역시 중구 민주공원길 19,35.1096845,129.0280278
백산기념관,부산 중구,051-600-4067,"['독립운동', '문화시설', '백산기념관', '백산안희제선생', '역사']",https://cdn.visitkorea.or.kr/img/call?cmd=VIEW&id=7caa1c8e-02d1-4703-8d8d-2ec26df20ad0&thumb,부산광역시 중구 백산길 11,35.1019607,129.0345836
백양산 (부산 국가지질공원),부산 부산진구,051-888-3636,"['국가지질공원', '부산_국가지질공원', '석회동굴', '자연', '자연관광지', '자연동굴']",https://cdn.visitkorea.or.kr/img/call?cmd=VIEW&id=1ddddb60-f403-4f6d-b8ed-5ff50afb8927&thumb,부산광역시 부산진구 새싹로 295,35.1829938,129.0463494
백양산명소,부산 부산진구,051-888-3636,"['경상권', '관광지', '백양산', '백양산명소', '생태관광', '생태관광지', '트레킹']",https://cdn.visitkorea.or.kr/img/call?cmd=VIEW&id=d6d07b65-7fc7-46c2-9970-1479f9071e76&thumb,부산광역시 부산진구 초읍동 일대,35.183299,129.026496
버커루 (롯데백화점 센텀시티점),부산 해운대구,051-730-3552,"['10대', '20대', '데님진', '브랜드', '쇼핑', '패션리더']",https://cdn.visitkorea.or.kr/img/call?cmd=VIEW&id=442748cf-971b-4856-b444-075598f271f7&thumb,부산광역시 해운대구 센텀남대로 59,35.16985335,129.13106969999998
범어사 성보박물관,부산 금정구,051-508-6139,"['문화시설', '불교', '불교문화', '사찰', '사찰여행', '역사를품은곳', '역사속', '역사속으로']",https://cdn.visitkorea.or.kr/img/call?cmd=VIEW&id=09089ca2-2a23-4f15-aca9-c878616bb229&thumb,부산광역시 금정구 범어사로 250,35.28304264,129.0676208
범어사(부산),부산 금정구,051-508-3122,"['가족여행', '관광지', '범어사', '사찰&산사', '아이와함께', '역사', '역사유적지']",https://cdn.visitkorea.or.kr/img/call?cmd=VIEW&id=e0efca66-4e8d-41fc-ac68-363d548a6974&thumb,부산광역시 금정구 범어사로 250,35.2841102,129.0692288
법륜사(부산),부산 동래구,051-553-7771,"['경상권', '관광지', '법륜사', '불교', '불교문화', '사찰', '사찰여행', '역사', '연중무휴']",https://cdn.visitkorea.or.kr/img/call?cmd=VIEW&id=9f0cab64-c352-4104-9e84-e65f8f56a3e5&thumb,부산광역시 동래구 동래로 162,35.20381239,129.08846509999998
벡스코(BEXCO),부산 해운대구,051-740-7300,"['가족여행', '경상권', '기차여행', '문화시설', '벡스코', '복합문화공간', '아이와함께']",https://cdn.visitkorea.or.kr/img/call?cmd=VIEW&id=4a247eae-dff3-4b9e-999c-a604896f7122&thumb,부산광역시 해운대구 APEC로 55,35.16906372,129.1360183
보광사(부산),부산 동구,051-646-6461,"['관광지', '불교', '불교문화', '사찰', '사찰여행', '역사', '자연속으로', '자연환경']",https://cdn.visitkorea.or.kr/img/call?cmd=VIEW&id=0408a4ab-6559-4205-b8fb-708311a0c431&thumb,부산광역시 동구 범상로1번길 35,35.14096282,129.0468423
복천박물관(부산),부산 동래구,051-554-4263,"['기차여행', '무료관람', '문화시설', '박물관', '복천박물관', '아이와함께', '자연좋은곳']",https://cdn.visitkorea.or.kr/img/call?cmd=VIEW&id=f2a5d3f4-abfe-4da4-94ab-93905c646127&thumb,부산광역시 동래구 복천로 63,35.20877819,129.0911721
봉래산(부산),부산 영도구,051-253-8253,"['관광지', '자연']",https://cdn.visitkorea.or.kr/img/call?cmd=VIEW&id=null&thumb,부산광역시 영도구 청학동,35.082037,129.055223
부산 가톨릭 특성화 거리,부산 금정구,051-515-5811,"['가톨릭', '관광지', '역사를품은곳', '역사속으로', '역사이야기', '역사탐방', '역사탐험']",https://cdn.visitkorea.or.kr/img/call?cmd=VIEW&id=39e3be13-5177-4e31-b647-aa9a98acffc0&thumb,부산광역시 금정구 오륜대로 57,35.24426588,129.09744550000002
부산 가톨릭센터,부산 중구,051-462-1870,"['가톨릭', '공연장', '문화시설', '부산', '종교', '중구', '천주교']",https://cdn.visitkorea.or.kr/img/call?cmd=VIEW&id=87eeb746-6442-47cf-b25c-55d9681860c3&thumb,부산광역시 중구 중구로 71,35.10435395,129.02857269999998
부산 감천문화마을,부산 사하구,051-204-1444,"['15_16한국관광100선', '17_18한국관광100선', '19_20한국관광100선', '가족여행']",https://cdn.visitkorea.or.kr/img/call?cmd=VIEW&id=c891faae-3ba3-4f74-81a5-2174fe0a2019&thumb,부산광역시 사하구 감내2로 203,35.097469700000005,129.01059270000002
부산 강서문화원,부산 강서구,051-972-6369,"['교육', '문화강좌', '문화시설', '부산강서문화원', '열린문화공간']",https://cdn.visitkorea.or.kr/img/call?cmd=VIEW&id=b434c596-1e17-420d-b217-08d6609a76c0&thumb,부산광역시 강서구 낙동북로 477,35.21220294,128.9805851
부산 국제수산물도매시장,부산 서구,051-220-8831,"['가족여행', '경상권', '기차여행', '나들이', '나홀로여행', '데이트코스', '바다풍경']",https://cdn.visitkorea.or.kr/img/call?cmd=VIEW&id=8aca6384-9544-4f29-8031-f351e99b9bf4&thumb,부산광역시 서구 원양로 35 국제수산물도매시장,35.05883793,129.01017620000002
부산 금정문화회관,부산 금정구,051-519-5651,"['가족과함께', '문화공간', '문화시설', '문화예술', '복합문화공간', '아이와함께']",https://cdn.visitkorea.or.kr/img/call?cmd=VIEW&id=309f151b-4b1e-4769-9be0-73fa8a24389d&thumb,부산광역시 금정구 체육공원로 7,35.24591915,129.0944742
부산 기장도서관,부산 기장군,051-709-5351,"['기장도서관', '문화시설', '부산기장군', '아이와함께']",https://cdn.visitkorea.or.kr/img/call?cmd=VIEW&id=1a96325f-ca2e-48d5-ad51-e0a1db57fec0&thumb,부산광역시 기장군 기장읍 차성동로126번길 13-5,35.24968318,129.2173047
부산 기장시장,부산 기장군,051-721-3963,"['가족여행', '경상권', '부선기장시장', '사계절', '쇼핑', '아이와함께', '이색체험']",https://cdn.visitkorea.or.kr/img/call?cmd=VIEW&id=4c01ac8c-ea7d-4753-bb84-40a35215dcef&thumb,부산광역시 기장군 기장읍 읍내로104번길 16,35.24369679,129.2148685
부산 동구도서관,부산 동구,051-440-6411,"['가족과함께', '문화시설', '부산동구도서관', '아이와함께']",https://cdn.visitkorea.or.kr/img/call?cmd=VIEW&id=8b7072af-28ad-4509-a0b9-5694dce3dac7&thumb,부산광역시 동구 성북로36번길 54,35.1380655,129.0524312
부산 르네시떼,부산 사상구,051-319-5000,"['도소매상가', '부산쇼핑', '쇼핑', '의류', '패션']",https://cdn.visitkorea.or.kr/img/call?cmd=VIEW&id=00e85e25-4052-4838-9e13-c529b0223537&thumb,부산광역시 사상구 광장로 7,35.16433608,128.97771609999998
부산 반여도서관,부산 해운대구,051-783-4010,"['독서여행', '문화시설', '반여도서관', '부산', '아이와 함께', '친구와 함께']",https://cdn.visitkorea.or.kr/img/call?cmd=VIEW&id=94e39f90-a0cf-437c-8522-402e289473ea&thumb,부산광역시 해운대구 재반로282번길 38,35.20202568,129.13381040000002
부산 복천동 고분군,부산 동래구,051-554-4263,"['경상권', '관광지', '교과서속여행', '복천동고분군', '역사', '역사유적지']",https://cdn.visitkorea.or.kr/img/call?cmd=VIEW&id=b2f799d6-e030-4c9e-acad-0b7f7266ad2e&thumb,부산광역시 동래구 복천로 66,35.20731614,129.0917341
부산 부전시장,부산 부산진구,051-818-9454,"['가족여행', '경상권', '나들이', '나홀로여행', '데이트코스', '먹거리', '부산부전시장']",https://cdn.visitkorea.or.kr/img/call?cmd=VIEW&id=fdc4625c-8ad7-45ab-9ae5-abc3f9ab5ec0&thumb,부산광역시 부산진구 중앙대로755번길 21,35.16034559,129.0595513
부산 부평 족발 골목,부산 중구,051-441-3121,"['경상권', '관광지', '부평족발골목', '음식테마거리', '체험']",https://cdn.visitkorea.or.kr/img/call?cmd=VIEW&id=eed58e24-1b0c-4b01-ad21-da00d8fae63b&thumb,부산광역시 중구 광복로12번길 3,35.09919519,129.0264223
부산 송도해상케이블카,부산 서구,051-247-9900,"['경상권', '관광지', '바다', '송도해상케이블카', '송도해수욕장', '야간관광100선']",https://cdn.visitkorea.or.kr/img/call?cmd=VIEW&id=c07403bc-2f2a-4247-92e8-f402ac3c6a7e&thumb,부산광역시 서구 송도해변로 171,35.07664309,129.0233986
부산 송도해수욕장,부산 서구,051-240-4126,"['가족여행', '관광지', '바다풍경', '부산송도해수욕장', '아이와함께', '여름방학가볼만한곳']",https://cdn.visitkorea.or.kr/img/call?cmd=VIEW&id=91340335-522d-4be8-9529-70d7ade17000&thumb,부산광역시 서구 송도해변로 50,35.07415957,129.0161688
부산 수정동 일본식 가옥,부산 동구,051-440-4064,"['경상권', '관광지', '부산수정동일본식가옥', '역사', '역사공부', '역사관광지']",https://cdn.visitkorea.or.kr/img/call?cmd=VIEW&id=f45945df-7327-4603-b57f-481a822c3592&thumb,부산광역시 동구 홍곡로 75,35.12546792,129.04256840000002
부산 스마트시티 전시관,부산 해운대구,051-749-9491,"['가족과함께', '경상권', '남녀노소', '문화시설', '미세먼지_피하는_실내여행']",https://cdn.visitkorea.or.kr/img/call?cmd=VIEW&id=c49e4469-cef5-4155-a8dc-6255668feaa0&thumb,부산광역시 해운대구 센텀동로 41,35.17285196,129.1307191
부산 아시아드주경기장,부산 연제구,051-500-2123,"['레포츠', '부산연제구', '실내경기장', '아시아드주경기장']",https://cdn.visitkorea.or.kr/img/call?cmd=VIEW&id=d26f0ee7-73c9-4221-87ed-f419de317963&thumb,부산광역시 연제구 월드컵대로 344,35.1896429,129.0569842
부산 암남공원,부산 서구,051-240-4538,"['걷기길', '관광지', '바다풍경', '부산암남공원', '산책길', '산책하기', '산책하기좋은곳']",https://cdn.visitkorea.or.kr/img/call?cmd=VIEW&id=69640e80-c702-4815-9bb9-92366d78e28e&thumb,부산광역시 서구 암남공원로 185,35.06151288,129.013125
부산 엄궁농산물도매시장,부산 사상구,051-310-8282,"['가족여행', '경상권', '기차여행', '나홀로여행', '부산엄궁농산물도매시장', '쇼핑']",https://cdn.visitkorea.or.kr/img/call?cmd=VIEW&id=dabbfc61-efc0-4f2c-8171-20caca82ab9a&thumb,부산광역시 사상구 농산물시장로9번길 11,35.12867885,128.9642837
부산 에덴공원,부산 사하구,051-220-4525,"['공원', '관광지', '산책길', '산책코스', '산책하기', '산책하기좋은곳', '아침운동']",https://cdn.visitkorea.or.kr/img/call?cmd=VIEW&id=7d5a1920-e9e8-48bc-939d-086f5640a1c8&thumb,부산광역시 사하구 하단동,35.109089000000004,128.96329
부산 영화의 전당,부산 해운대구,051-780-6000,"['견학', '경상권', '공연', '공연장', '관광지', '복합문화공간', '부산영화의전당']",https://cdn.visitkorea.or.kr/img/call?cmd=VIEW&id=58af7f4b-4df1-4fbf-bd41-621d566bc5b2&thumb,부산광역시 해운대구 수영강변대로 120,35.17103715,129.127084
부산 올림픽동산,부산 해운대구,051-749-5600,"['걷기길', '관광지', '데이트코스', '복합문화공간', '부산올림픽동산', '산책길']",https://cdn.visitkorea.or.kr/img/call?cmd=VIEW&id=c6ae4670-d718-425f-b826-72b29b730d85&thumb,부산광역시 해운대구 APEC로 58,35.16668703,129.13702709999998
부산 자갈치 양곱창 골목,부산 중구,,"['곱창골목', '곱창전골', '관광지', '맛집', '맛집투어', '먹자골목', '부산가볼만한곳']",https://cdn.visitkorea.or.kr/img/call?cmd=VIEW&id=ad190d01-0772-4f4d-97bb-7e8999f43fe5&thumb,부산광역시 중구 구덕로 73,35.09713705,129.02715320000001
부산 자갈치시장,부산 중구,051-245-2594,"['19_20한국관광100선', '가족여행', '경상권', '나들이', '나홀로여행', '먹거리']",https://cdn.visitkorea.or.kr/img/call?cmd=VIEW&id=936f2e57-f75c-41c8-acc0-d29dd494e73d&thumb,부산광역시 중구 자갈치해안로 52,35.09661378,129.0305837
부산 자유도매시장,부산 동구,051-632-8785,"['가족여행', '경상권', '기차여행', '나홀로여행', '부산자유도매시장', '쇼핑', '아이와함께']",https://cdn.visitkorea.or.kr/img/call?cmd=VIEW&id=dd3a6e27-6ca0-4751-bfed-cd7fcc15ccee&thumb,부산광역시 동구 조방로 48,35.14097365,129.0610402
부산 중앙공원,부산 서구,051-860-7800,"['걷기길', '경상권', '관광지', '기념관', '대청공원', '부산중앙공원', '산책하기좋은곳']",https://cdn.visitkorea.or.kr/img/call?cmd=VIEW&id=1851d823-4893-4edc-892e-60c9992504a9&thumb,부산광역시 서구 망양로193번길 187,35.11229547,129.0279654
부산 중앙시장,부산 부산진구,051-631-8490,"['경상권', '부산중앙시장', '쇼핑', '재래시장', '전통시장']",https://cdn.visitkorea.or.kr/img/call?cmd=VIEW&id=ef31f455-fc79-43b1-a7fe-6af87c39fe6f&thumb,부산광역시 부산진구 중앙번영로20번길 34-3,35.1433915,129.0610915
부산 진시장,부산 동구,051-646-7041,"['가족여행', '경상권', '나들이', '나홀로여행', '먹거리', '부산진시장', '쇼핑', '시장맛집']",https://cdn.visitkorea.or.kr/img/call?cmd=VIEW&id=1ee0626e-736c-48c3-8258-bdf3c73e5346&thumb,부산광역시 동구 진시장로 24,35.13642339,129.0588362
부산 진지성,부산 동구,051-441-6565,"['관광지', '역사', '역사공부', '역사관광지', '역사를품은곳', '역사문화재', '역사속']",https://cdn.visitkorea.or.kr/img/call?cmd=VIEW&id=bfd3ca97-32b6-49a1-a100-cd931c21eb86&thumb,부산광역시 동구 자성로 99 (범일동),35.13574252,129.0604498
부산 차이나타운특구(상해문.상해거리),부산 동구,051-749-5700,"['가족과함께', '걷기길', '경상권', '관광지', '맛집투어', '부산차이나타운특구']",https://cdn.visitkorea.or.kr/img/call?cmd=VIEW&id=72632413-30cb-4d6e-81d2-61147334e134&thumb,부산광역시 동구 중앙대로179번길 1,35.11339245,129.03853600000002
부산 치유의 숲,부산 기장군,051-976-2831,"['가족과함께', '관광지', '국내힐링여행', '부산여행', '언택트관광지_100선', '자연속으로']",https://cdn.visitkorea.or.kr/img/call?cmd=VIEW&id=587fb26f-3e83-4b6f-b366-5824ce1d2764&thumb,부산광역시 기장군 철마면 철마천로 101,35.26947858,129.1295656
부산 트릭아이뮤지엄,부산 중구,051-557-1577,"['가족여행', '경상권', '데이트코스', '문화시설', '부산가볼만한곳', '사계절', '사진찍기']",https://cdn.visitkorea.or.kr/img/call?cmd=VIEW&id=89babaf6-46c6-4105-8d5e-2774436d2723&thumb,부산광역시 중구 대청로126번길 12,35.10169228,129.033592
부산 티파니21 크루즈 유람선,부산 해운대구,051-743-2500,"['가족여행', '경상권', '관광지', '유람선', '자연여행', '자연풍경', '자연환경', '티파니21크루즈유람선']",https://cdn.visitkorea.or.kr/img/call?cmd=VIEW&id=b50c9cb0-39ee-48c3-9ffe-d0c65aae45bc&thumb,부산광역시 해운대구 마린시티1로 168,35.15700846,129.1500659
부산 평화도매시장,부산 부산진구,051-646-6561,"['가족여행', '경상권', '부산평화도매시장', '사계절', '쇼핑', '이색체험', '체험학습']",https://cdn.visitkorea.or.kr/img/call?cmd=VIEW&id=2dd070e9-a1d1-4229-8694-d4537a1809b3&thumb,부산광역시 부산진구 자유평화로 7,35.14169728,129.0606748
부산 해운대 관광 유람선(오륙도),부산 해운대구,1688-3353,"['경치좋은곳', '관광지', '바다경치', '부산여행', '오륙도', '유람선', '자연속으로']",https://cdn.visitkorea.or.kr/img/call?cmd=VIEW&id=258c921c-970f-49a7-a861-217085826b4b&thumb,부산광역시 해운대구 달맞이길62번길 33-1,35.158439,129.170655
부산 해운대도서관,부산 해운대구,051-709-0900,"['독서', '문화시설', '복합문화공간', '부산', '해운대도서관']",https://cdn.visitkorea.or.kr/img/call?cmd=VIEW&id=628a91e2-83fc-46ef-a31a-58ee0231dae1&thumb,부산광역시 해운대구 양운로 183,35.17794562,129.16890700000002
부산 해운대시장,부산 해운대구,051-746-3001,"['가족여행', '나들이', '데이트코스', '먹거리', '바다풍경', '부산해운대전통시장']",https://cdn.visitkorea.or.kr/img/call?cmd=VIEW&id=9c07c0e0-368d-4eec-852d-bf4c2742c9f6&thumb,부산광역시 해운대구 구남로41번길 22-1,35.16140387,129.1623153
부산공간화랑,부산 해운대구,051-803-4101,"['갤러리', '문화공간', '문화시설', '미술인', '복합문화공간', '열린문화공간', '전시']",https://cdn.visitkorea.or.kr/img/call?cmd=VIEW&id=762ca731-96d3-466c-9932-1349a349cb76&thumb,부산광역시 해운대구 마린시티1로 167,35.15756055,129.1504908
부산공동어시장,부산 서구,051-254-8961,"['가족여행', '경상권', '기차여행', '나들이', '나홀로여행', '데이트코스', '부산공동어시장']",https://cdn.visitkorea.or.kr/img/call?cmd=VIEW&id=8623617d-413a-42a2-8150-a749cacd24c8&thumb,부산광역시 서구 충무대로 202,35.08990197,129.02636909999998
부산과학기술대학교 민속자료실,부산 북구,051-330-7076,"['가족여행', '경상권', '교과서속여행', '문화시설', '박물관', '부산과학기술대학교민속자료실']",https://cdn.visitkorea.or.kr/img/call?cmd=VIEW&id=e0b091ac-9a7a-4ea7-bec5-5a36d06ff4f5&thumb,부산광역시 북구 시랑로132번길 88,35.19419451,129.0053031
부산광안대교,부산 수영구,051-780-0077,"['경상권', '경치좋은곳', '관광지', '데이트장소', '데이트코스', '부산광안대교']",https://cdn.visitkorea.or.kr/img/call?cmd=VIEW&id=6b393ecc-23d1-4824-ac26-9b8bf3704d87&thumb,부산광역시 해운대구 수영강변대로 203,35.17716312,129.1205557
부산광역시 금련산청소년수련원,부산 수영구,051-625-0709,"['레포츠', '부산광역시금련산청소년수련원', '부산수영구', '청소년수련원']",https://cdn.visitkorea.or.kr/img/call?cmd=VIEW&id=881c9d9d-eca5-46c3-876e-ca102b71bcfe&thumb,부산광역시 수영구 황령산로 156,35.1546204,129.10241770000002
부산광역시 영도도서관,부산 영도구,051-419-4821,"['경상권', '도서관', '문화시설', '영도도서관']",https://cdn.visitkorea.or.kr/img/call?cmd=VIEW&id=7b96885a-a53d-4a37-a852-5c3a78eccc40&thumb,부산광역시 영도구 함지로79번길 6,35.07526538,129.06685900000002
부산광역시립 명장도서관,부산 동래구,051-527-0582,"['경상권', '도서관', '명장도서관', '문화시설', '부산광역시립명장도서관']",https://cdn.visitkorea.or.kr/img/call?cmd=VIEW&id=f87b7b89-b97c-40a2-8454-6d860fdc1a86&thumb,부산광역시 동래구 명안로46번길 35,35.20085604,129.10654209999998
부산광역시립 부전도서관,부산 부산진구,051-802-5901,"['문화시설', '부산광역시립도서관', '부산진구', '부전도서관']",https://cdn.visitkorea.or.kr/img/call?cmd=VIEW&id=f8c04c1e-ba4c-448d-bc14-d3759249a5fd&thumb,부산광역시 부산진구 동천로 79,35.15585349,129.06219879999998
부산광역시립 사하도서관,부산 사하구,051-203-0571,"['독서', '문화시설', '부산광역시립', '사하도서관', '열린문화공간']",https://cdn.visitkorea.or.kr/img/call?cmd=VIEW&id=35ad3f33-d6e2-47d1-adbb-ff5268e8490a&thumb,부산광역시 사하구 승학로 247,35.10332955,128.99106880000002
부산광역시립 서동도서관,부산 금정구,051-522-0456,"['금정구', '문화시설', '부산시립도서관', '서동도서관']",https://cdn.visitkorea.or.kr/img/call?cmd=VIEW&id=87c99ac2-374b-421e-aade-04b6723f3e99&thumb,부산광역시 남구 홍곡로320번길 100,35.21987633,129.0994183
부산광역시립 시민도서관,부산 부산진구,051-810-8200,"['문화시설', '부산광역시립도서관', '부산진구', '시민도서관']",https://cdn.visitkorea.or.kr/img/call?cmd=VIEW&id=6c2711a4-4e5f-4c31-8fa1-fde7b7fc6423&thumb,부산광역시 부산진구 월드컵대로 462,35.18280623,129.0501417
부산광역시립 연산도서관,부산 연제구,051-792-5402,"['문화시설', '부산광역시립도서관', '아이와함께', '연산도서관']",https://cdn.visitkorea.or.kr/img/call?cmd=VIEW&id=1e039688-181a-4013-842d-c9159e31dec8&thumb,부산광역시 연제구 고분로191번길 16,35.18580771,129.1043222
부산광역시립 중앙도서관,부산 중구,051-250-0300,"['문화시설', '부산광역시립중앙도서관', '부산중구', '아이와함께']",https://cdn.visitkorea.or.kr/img/call?cmd=VIEW&id=180b6cef-7cc8-42e6-a55e-0592010d4f52&thumb,부산광역시 중구 망양로193번길 146,35.11002407,129.0270689
부산광역시학생교육원,부산 금정구,051-580-3200,"['교육원', '교육프로그램', '레포츠', '부산금정구', '청소년수련원']",https://cdn.visitkorea.or.kr/img/call?cmd=VIEW&id=aa6a0430-3d72-4bb9-b7b0-f7c965765aa7&thumb,부산광역시 금정구 북문로 178,35.25916779999999,129.04423290000003
부산근대역사관,부산 중구,051-253-3845,"['경상권', '교과서속여행', '문화시설', '박물관', '부산근대역사관', '아이와함께']",https://cdn.visitkorea.or.kr/img/call?cmd=VIEW&id=ef217477-7c42-4ac7-b507-a219b3d8f38e&thumb,부산광역시 중구 대청로 104,35.10267057,129.0311595
부산금정도서관,부산 금정구,051-519-5601,"['금정구', '도서관', '독서', '무장애', '문화시설', '부산']",https://cdn.visitkorea.or.kr/img/call?cmd=VIEW&id=654ee71a-dc8c-4ba8-a8a2-5a571213e86e&thumb,부산광역시 금정구 금정도서관로 33,35.27261321,129.09618170000002
부산대교,부산 영도구,051-600-4000,"['가족여행', '경상권', '경치좋은곳', '관광지', '드라이브여행', '바다', '부산대교']",https://cdn.visitkorea.or.kr/img/call?cmd=VIEW&id=71b10d41-6250-4d49-945e-57bd5b61a7ef&thumb,부산광역시 영도구 남항로9번길 41,35.09162347,129.0385752
부산대학교 박물관,부산 금정구,051-510-1838,"['가족여행', '경상권', '교과서속여행', '문화시설', '박물관', '부산대학교박물관']",https://cdn.visitkorea.or.kr/img/call?cmd=VIEW&id=06b7e47f-b456-45fb-977c-e83c7f31708e&thumb,부산광역시 금정구 부산대학로63번길 2,35.23224279999999,129.08382450000002
부산동명불원,부산 남구,051-626-4337,"['가족여행', '관광지', '부산동명불원', '불교', '불교문화', '불교사찰', '사찰', '사찰&산사']",https://cdn.visitkorea.or.kr/img/call?cmd=VIEW&id=3df57c64-45a2-476d-9041-8a825d4f5903&thumb,부산광역시 남구 동명로 57,35.11908338,129.1034316
부산문화회관,부산 남구,051-607-6000,"['가족여행', '공연장', '기차여행', '나들이', '데이트코스', '문화시설', '부산문화회관']",https://cdn.visitkorea.or.kr/img/call?cmd=VIEW&id=0989e650-4e80-40fe-a880-285102f998e7&thumb,부산광역시 남구 유엔평화로76번길 1,35.12718493,129.0934781
부산박물관,부산 남구,051-610-7118,"['교과서속여행', '기차여행', '문화시설', '박물관', '부산박물관', '아이와함께']",https://cdn.visitkorea.or.kr/img/call?cmd=VIEW&id=4aca0962-c8b1-4b87-85a3-f6a3241371e7&thumb,부산광역시 남구 유엔평화로 63,35.1295556,129.0929417
부산사회체육센터,부산 해운대구,051-744-1181 0600 2000,"['레포츠', '복합문화시설', '부산사회체육센터', '부산해운대구', '체육센터']",https://cdn.visitkorea.or.kr/img/call?cmd=VIEW&id=44612653-7179-4ab1-a951-3f78cb25bbb7&thumb,부산광역시 해운대구 APEC로 68,35.167179299999994,129.137518
부산세관박물관,부산 중구,051-620-6092,"['경상권', '기차여행', '문화시설', '박물관', '부산세관박물관', '아이와함께', '이색체험']",https://cdn.visitkorea.or.kr/img/call?cmd=VIEW&id=64b709a8-200e-4788-8d01-e7bb56ec78c0&thumb,부산광역시 중구 충장대로 20,35.1046453,129.0378806
부산시립미술관,부산 해운대구,051-744-2602,"['데이트코스', '문화시설', '미술관', '부산시립미술관', '실내여행지', '아이와함께']",https://cdn.visitkorea.or.kr/img/call?cmd=VIEW&id=3e362471-c362-403e-b167-cba24c28fda9&thumb,부산광역시 해운대구 APEC로 58,35.16668716,129.1370273
부산시민공원,부산 부산진구,051-850-6000,"['가족과함께', '공원', '관광지', '나들이(피크닉)', '아이와함께', '휴양관광지']",https://cdn.visitkorea.or.kr/img/call?cmd=VIEW&id=4c388e17-403d-44c6-8407-9b08bae32ae3&thumb,부산광역시 부산진구 시민공원로 73,35.16814819,129.0540094
부산시민회관,부산 동구,051-630-5200,"['가족여행', '공연장', '기차여행', '나들이', '데이트코스', '문화시설', '부산시민회관']",https://cdn.visitkorea.or.kr/img/call?cmd=VIEW&id=8ae26735-a936-4fe8-8837-c15edd943971&thumb,부산광역시 동구 자성로133번길 16,35.13884638,129.065224
부산어린이대공원,부산 부산진구,051-860-7848,"['가족여행', '걷기여행', '관광지', '나들이', '부산어린이대공원', '사계절', '아이와함께']",https://cdn.visitkorea.or.kr/img/call?cmd=VIEW&id=d9e8e896-91d1-4f32-b05d-d383d8f61783&thumb,부산광역시 부산진구 새싹로 295,35.18847007,129.0423059
부산어촌민속관,부산 북구,051-363-3333,"['겨울방학가볼만한곳', '경상권', '문화시설', '부산어촌민속관', '아이와함께']",https://cdn.visitkorea.or.kr/img/call?cmd=VIEW&id=56abf3be-1a23-40cc-8ca1-33b037d157dd&thumb,부산광역시 북구 학사로 128,35.23375269,129.00845379999998
부산엑스더스카이,부산 해운대구,051-731-0098,"['가족과함께', '경치좋은곳', '관광지', '남녀노소', '부산가볼만한곳', '연인과함께']",https://cdn.visitkorea.or.kr/img/call?cmd=VIEW&id=f0a766ff-84f5-4862-a0cb-99834907a272&thumb,부산광역시 해운대구 달맞이길 30,35.15993488,129.16974779999998
부산여자대학 차박물관,부산 부산진구,051-850-3112,"['가족여행', '경상권', '문화시설', '박물관', '부산여자대학교', '부산여자대학교차박물관']",https://cdn.visitkorea.or.kr/img/call?cmd=VIEW&id=86a1c0a4-b2d7-4e8a-b132-31e39fb1e3f9&thumb,부산광역시 부산진구 진남로 506,35.16923652,129.07205520000002
부산영화체험박물관,부산 중구,051-715-4200,"['경상권', '관광지', '박물관', '복합문화공간', '부산영화체험박물관', '산업관광']",https://cdn.visitkorea.or.kr/img/call?cmd=VIEW&id=2a594b3e-2219-47de-8076-95b89895f92f&thumb,부산광역시 중구 대청로126번길 12,35.10169117,129.0335916
부산영화촬영스튜디오,부산 해운대구,051-720-0323,"['가족과함께', '견학프로그램', '경상권', '관광지', '교육여행', '문화콘텐츠산업']",https://cdn.visitkorea.or.kr/img/call?cmd=VIEW&id=05a146d1-9ff2-4532-96df-f10755cecd67&thumb,부산광역시 해운대구 해운대해변로 52,35.16190706,129.13805929999998
부산자유회관(부산통일관),부산 부산진구,051-808-7960,"['경상권', '교과서속여행', '문화시설', '부산자유회관', '부산통일관', '실내여행지']",https://cdn.visitkorea.or.kr/img/call?cmd=VIEW&id=e354aa1e-2a73-4af6-ac32-306e025edecf&thumb,부산광역시 부산진구 초읍천로 113-10,35.1822629,129.0457142
부산점자도서관,부산 사상구,051-302-9010,"['경상권', '도서관', '문화시설', '부산점자도서관', '사계절', '체험학습', '친구와함께']",https://cdn.visitkorea.or.kr/img/call?cmd=VIEW&id=b1c63b0d-38bb-49d2-bf4c-3f33ad915022&thumb,부산광역시 사상구 덕상로72번길 9,35.17812993,128.98979440000002
부산종합운동장,부산 연제구,051-504-8001,"['레포츠', '부산연제구', '스포츠센터', '종합운동장']",https://cdn.visitkorea.or.kr/img/call?cmd=VIEW&id=db43706b-17b8-4155-bf68-57f5b5893b35&thumb,부산광역시 연제구 월드컵대로 344,35.1896429,129.0569842
부산진일신여학교,부산 동구,051-635-7113,"['경상권', '관광지', '교과서속여행', '부산진일신여학교', '역사', '역사공부', '역사를품은곳']",https://cdn.visitkorea.or.kr/img/call?cmd=VIEW&id=184dc1e3-890d-4bde-9101-37e288f07b7f&thumb,부산광역시 동구 정공단로17번길 17,35.13491784,129.05298390000002
부산차량융합기술단(부산철도차량정비단),부산 부산진구,051-895-3780,"['경상권', '관광지', '부산차량융합기술단', '산업관광', '산업관광지', '안전교육']",https://cdn.visitkorea.or.kr/img/call?cmd=VIEW&id=093339b1-fabc-42b4-a6e0-2be92e79539f&thumb,부산광역시 부산진구 신천대로 215,35.16003525,129.0423357
부산컨트리클럽,부산 금정구,051-509-0701,['레포츠'],https://cdn.visitkorea.or.kr/img/call?cmd=VIEW&id=undefined&thumb,부산광역시 금정구 중앙대로2327번길 112,35.296895899999996,129.0945543
부산타워,부산 중구,051-661-9393,"['경치좋은곳', '관광지', '부산경치', '부산데이트', '부산여행', '부산타워', '연인과함께']",https://cdn.visitkorea.or.kr/img/call?cmd=VIEW&id=2930593d-fa66-431a-ac3d-3b3d204176b3&thumb,부산광역시 중구 용두산길 37-55,35.100930299999995,129.03244329999998
부산해양자연사박물관,부산 동래구,051-553-4944,"['경상권', '교과서속여행', '문화시설', '박물관', '부산해양자연사박물관', '아이와함께']",https://cdn.visitkorea.or.kr/img/call?cmd=VIEW&id=3b7a2b13-762a-43b4-89d8-a8c66c8965fc&thumb,부산광역시 동래구 우장춘로 175,35.22196011,129.0756476
부산현대미술관,부산 사하구,051-220-7400,"['문화시설', '문화예술', '문화예술공간', '미세먼지_피하는_실내여행', '복합문화공간']",https://cdn.visitkorea.or.kr/img/call?cmd=VIEW&id=b1cef700-f2b8-42e2-85a6-99b291dc7960&thumb,부산광역시 사하구 낙동남로 1191,35.10933193,128.9426936
부평동한복거리,부산 중구,051-254-5504,"['국제시장', '쇼핑', '완구점거리', '한복', '한복거리']",https://cdn.visitkorea.or.kr/img/call?cmd=VIEW&id=d6fdb6be-757c-471e-bf7f-8f3ace13f5a9&thumb,부산광역시 중구 부평2길 44,35.10144518,129.02657150000002
부평시장(깡통시장),부산 중구,051-243-1128,"['가족여행', '경상권', '기차여행', '깡통시장', '나들이', '나홀로여행', '데이트코스']",https://cdn.visitkorea.or.kr/img/call?cmd=VIEW&id=56c73bb4-439a-48d1-ae5f-6ca1045b1c05&thumb,부산광역시 중구 부평1길 48,35.1015592,129.0260206
북구문화빙상센터 공연장,부산 북구,051-309-4082,"['경상권', '공연/행사', '데이트코스', '문화공간', '문화공연', '문화시설', '문화행사']",https://cdn.visitkorea.or.kr/img/call?cmd=VIEW&id=77987950-e703-4cf5-b503-5e110224c868&thumb,부산광역시 북구 금곡대로46번길 50,35.21343923,129.0057519
북맛골,부산 금정구,051-519-4423,"['골목여행', '관광지', '남녀노소', '맛골목', '맛집골목', '맛집투어', '먹자골목']",https://cdn.visitkorea.or.kr/img/call?cmd=VIEW&id=fb6183be-1561-48e1-acff-839497e5bb80&thumb,부산광역시 금정구 명서로85번길 6,35.21408898,129.099459
분더샵 (신세계백화점 센텀시티점),부산 해운대구,051-745-2442,"['센텀시티', '쇼핑', '신세계백화점', '패션', '편집매장']",https://cdn.visitkorea.or.kr/img/call?cmd=VIEW&id=2d6c2919-a29f-4735-a4e0-aaea87f912d0&thumb,부산광역시 해운대구 센텀남대로 35,35.16881784,129.1295233
브이알존 엘큐브 광복점,부산 중구,070-4106-3348,"['VR체험', '관광지', '남녀노소', '실내관광지', '실내데이트', '실내레포츠', '아이가_좋아하는_여행']",https://cdn.visitkorea.or.kr/img/call?cmd=VIEW&id=9229daaf-abe0-4007-8713-bd67b61f71a5&thumb,부산광역시 중구 광복로 79-1,35.09867838,129.03370120000002
블루핏 (신세계백화점 센텀시티점),부산 해운대구,051-745-2445,['쇼핑'],https://cdn.visitkorea.or.kr/img/call?cmd=VIEW&id=d8ed9362-e888-4c7a-b2af-bef7518233a5&thumb,부산광역시 해운대구 센텀남대로 35,35.16881784,129.1295233
빈폴 (롯데백화점 센텀시티점),부산 해운대구,051-730-3646,"['가방', '디자인', '모자', '센텀시티', '셔츠', '쇼핑']",https://cdn.visitkorea.or.kr/img/call?cmd=VIEW&id=9fb73647-66bd-4ae3-a450-29420a095cd9&thumb,부산광역시 해운대구 센텀남대로 59,35.16985335,129.13106969999998
사상문화원,부산 사상구,051-316-9111,"['문화시설', '복합문화공간', '사상구', '사상문화원', '열린문화공간']",https://cdn.visitkorea.or.kr/img/call?cmd=VIEW&id=f095e129-c3b8-4bb2-bb40-6e05ae665abe&thumb,부산광역시 사상구 가야대로196번길 51,35.14744572,128.9948744
산복도로,부산 중구,051-749-5700,"['경치좋은곳', '관광지', '데이트명소', '부산야경', '부산야경좋은곳', '산책코스']",https://cdn.visitkorea.or.kr/img/call?cmd=VIEW&id=e69eb9a2-c0f0-47e2-a67c-a3a3d4e5c325&thumb,부산광역시 중구,35.11454435,129.03305079999998
삼광사,부산 부산진구,051-808-7111,"['관광지', '불교문화', '사찰여행', '역사', '전통사찰', '종교', '한국불교', '휴식하기좋은곳']",https://cdn.visitkorea.or.kr/img/call?cmd=VIEW&id=a266dfb4-f814-4370-9bd2-278bfe25ab72&thumb,부산광역시 부산진구 초읍천로43번길 77,35.17557198,129.0434156
삼락생태공원,부산 사상구,051-303-0048,"['가족여행', '걷기길', '걷기여행', '경상권', '공원', '관광지', '사계절', '삼락생태공원']",https://cdn.visitkorea.or.kr/img/call?cmd=VIEW&id=35fa127e-d1d8-4247-8aac-c84730a3c470&thumb,부산광역시 사상구 삼락동,35.1770248,128.9776229
삼성디지털프라자 (롯데백화점센텀시티점),부산 해운대구,051-730-3320,"['가전제품', '부산가볼만한곳', '부산쇼핑', '쇼핑', '전자제품']",https://cdn.visitkorea.or.kr/img/call?cmd=VIEW&id=66a1b4bc-6915-4135-862f-f8eca6822643&thumb,부산광역시 해운대구 센텀남대로 59,35.16985335,129.13106969999998
삼진어묵체험·역사관,부산 영도구,051-412-5468,"['가족과함께', '경상권', '관광지', '산업관광', '산업관광지', '삼진어묵', '삼진어묵체험관']",https://cdn.visitkorea.or.kr/img/call?cmd=VIEW&id=e08da6a3-b8af-47a5-8e5b-2ea909a49007&thumb,부산광역시 영도구 태종로99번길 36,35.09295509,129.04278119999998
서면 지하도상가,부산 부산진구,051-713-8261,"['서면역', '쇼핑', '신발', '지하상가']",https://cdn.visitkorea.or.kr/img/call?cmd=VIEW&id=b5ca5c67-15b3-4189-837c-a0f481d6393c&thumb,부산광역시 부산진구 중앙대로 737,35.16023309,129.0611055
서면1번가,부산 부산진구,051-605-4091,"['경상권', '관광지', '도심여행', '먹거리', '문화행사', '미식여행', '서면1번가', '주류']",https://cdn.visitkorea.or.kr/img/call?cmd=VIEW&id=01eb9823-8048-4a9d-b6e2-27d4bf472b9f&thumb,부산광역시 부산진구 신천대로62번길 61,35.15355491,129.0582795
선광사(부산),부산 사상구,051-302-5657,"['관광지', '불교', '불교문화', '사찰', '사찰여행', '역사', '자연속으로', '자연환경']",https://cdn.visitkorea.or.kr/img/call?cmd=VIEW&id=undefined&thumb,부산광역시 사상구 백양대로804번길 42-123,35.17724631,128.99538700000002
선암사(부산),부산 부산진구,051-803-7573,"['관광지', '나홀로여행', '불교', '불교문화', '사찰', '산사', '선암사(부산)', '역사']",https://cdn.visitkorea.or.kr/img/call?cmd=VIEW&id=8335c2c1-5aee-4543-84b3-351961f08475&thumb,부산광역시 부산진구 백양산로 138,35.17565903,129.0271258
설화수 (롯데백화점 센텀시티점),부산 해운대구,051-730-3183,"['브랜드', '쇼핑', '한방화장품', '화장품']",https://cdn.visitkorea.or.kr/img/call?cmd=VIEW&id=7f62a9fb-2db7-47bc-8c12-32afafb3e093&thumb,부산광역시 해운대구 센텀남대로 59,35.16985335,129.13106969999998
성암사(부산),부산 남구,051-635-3744,"['경상권', '관광지', '불교', '불교문화', '불교문화', '사찰', '사찰여행', '성암사']",https://cdn.visitkorea.or.kr/img/call?cmd=VIEW&id=b202d89b-0997-4c04-a7f9-4cdcaa223f80&thumb,부산광역시 남구 진남로210번길 58-15,35.14572883,129.0797779
세븐럭카지노(부산롯데점),부산 부산진구,051-665-6000,"['경상권', '레포츠', '세븐럭카지노', '연중무휴', '카지노']",https://cdn.visitkorea.or.kr/img/call?cmd=VIEW&id=ae39b271-df3e-466f-abd1-cb69ccee4063&thumb,부산광역시 부산진구 가야대로 772,35.1568526,129.0566466
센텀시티 아이스링크 (신세계백화점),부산 해운대구,051-745-1400,"['레포츠', '스케이트장', '신세계백화점센텀시티점', '이색체험']",https://cdn.visitkorea.or.kr/img/call?cmd=VIEW&id=e82ed33a-abc5-4056-83a5-a0210195defd&thumb,부산광역시 해운대구 센텀남대로 35,35.1687032,129.1297466
소름요,부산 기장군,051-722-0018,"['가족과함께', '공예체험', '관광지', '도자기만들기체험', '도자기체험', '아이와함께']",https://cdn.visitkorea.or.kr/img/call?cmd=VIEW&id=2542a7b9-b05f-4c42-a83c-1d814ec5a58a&thumb,부산광역시 기장군 기장읍 기장해안로 1014,35.24338274,129.24149450000002
소림사(부산),부산 동구,051-253-8253,"['관광지', '불교', '불교문화', '사찰', '사찰여행', '역사', '자연속으로', '자연환경']",https://cdn.visitkorea.or.kr/img/call?cmd=VIEW&id=92f90f9a-f47c-4585-931d-260bfe17971d&thumb,부산광역시 동구 초량상로65번길 7,35.11761053,129.03731770000002
송도 구름산책로(스카이워크),부산 서구,051-253-8253,"['가족과함께', '남녀노소', '레포츠', '바다경치', '사진찍기좋은곳', '산책하기좋은곳']",https://cdn.visitkorea.or.kr/img/call?cmd=VIEW&id=259ce776-3b48-4441-b807-a4ccdc9d77c9&thumb,부산광역시 서구 암남동 129-4,35.0754813,129.0230912
송도마을,부산 서구,051-240-6661,"['경상권', '관광지', '송도마을', '송도해수욕장', '어촌마을', '자연']",https://cdn.visitkorea.or.kr/img/call?cmd=VIEW&id=6abded51-7e0d-446a-b3ec-eb30cc3b193c&thumb,부산 서구 암남동,35.07992309,129.0209682
송도반도 (부산 국가지질공원),부산 서구,051-888-3636,"['경치좋은곳', '관광지', '국가지질공원', '바다경치', '바다내음', '부산_국가지질공원']",https://cdn.visitkorea.or.kr/img/call?cmd=VIEW&id=0d11ed06-6810-445a-a180-534040608924&thumb,부산광역시 서구 암남동,35.06994167,129.020083
송도반도명소,부산 서구,051-888-3636,"['걷기길', '관광지', '생태관광', '생태관광지', '송도반도', '송도해수욕장', '암남공원']",https://cdn.visitkorea.or.kr/img/call?cmd=VIEW&id=020aae3a-d839-425b-8348-a0366ee51e5e&thumb,부산광역시 서구 암남동 일대,35.06994167,129.020083
송원칠공방,부산 부산진구,051-802-7427,"['공방', '나전칠기', '부산', '쇼핑']",https://cdn.visitkorea.or.kr/img/call?cmd=VIEW&id=1a9a44df-55be-4d5b-893c-f8603ae3b484&thumb,부산광역시 부산진구 성지곡로 43,35.18614991,129.0483092
송정 죽도공원,부산 해운대구,051-749-5800,"['가족여행', '관광지', '나들이', '데이트코스', '바다풍경', '송정죽도공원', '아이와함께']",https://cdn.visitkorea.or.kr/img/call?cmd=VIEW&id=0deef10d-5bb9-4e35-b068-83ec75cab0fa&thumb,부산광역시 해운대구 송정동,35.180242,129.205155
"송정시장 (5, 10일)",부산 기장군,051-508-5072,"['가족여행', '경상권', '사계절', '송정시장', '쇼핑', '아이와함께', '이색체험', '전통시장']",https://cdn.visitkorea.or.kr/img/call?cmd=VIEW&id=58159163-86e6-4fd2-9a2a-39cfdaca9d77&thumb,부산광역시 기장군 철마면 두송길 7-31,35.30473201,129.1116483
송정해수욕장,부산 해운대구,051-749-7612,"['가족과함께', '경상권', '관광지', '바다경치', '바다풍경', '송정해수욕장', '여름피서지']",https://cdn.visitkorea.or.kr/img/call?cmd=VIEW&id=e599214b-56d9-4cf7-b028-924f663e37c1&thumb,부산광역시 해운대구 송정해변로 62,35.17941032,129.199478
송정해수욕장(낚시터),부산 해운대구,051-749-5800,"['레포츠', '바다낚시', '부산낚시터', '부산바다', '부산바다낚시', '해운대']",https://cdn.visitkorea.or.kr/img/call?cmd=VIEW&id=7d1b0277-56cc-4897-a609-be98b006bd64&thumb,부산광역시 해운대구 송정해변로 58,35.1796001,129.20002730000002
수리조선소길,부산 영도구,,"['가족과함께', '경상권', '관광지', '남녀노소', '수리조선소길', '아이와함께', '역사속']",https://cdn.visitkorea.or.kr/img/call?cmd=VIEW&id=496f259d-554f-414f-ae32-cbabab06135b&thumb,부산광역시 영도구 대평로 42,35.09234996,129.0334551
수미르공원,부산 중구,051-609-6310,"['경상권', '관광지', '도심여행', '문화행사', '바다풍경', '산책하기', '산책하기좋은곳']",https://cdn.visitkorea.or.kr/img/call?cmd=VIEW&id=89e4f5a7-4c46-4d44-9e58-92d14c979461&thumb,부산광역시 중구 대교로 122,35.10095838,129.038597
수산과학관(부산),부산 기장군,051-720-3061,"['기차여행', '문화시설', '수산과학관', '실내여행지', '아이와함께', '이색체험']",https://cdn.visitkorea.or.kr/img/call?cmd=VIEW&id=93e979c4-ae2a-4529-acae-a0b075016aae&thumb,부산광역시 기장군 기장읍 기장해안로 216,35.19109529,129.2222841
수영만 요트경기장,부산 해운대구,051-741-6440,"['가족여행', '경상권', '레포츠', '수영만요트경기장', '요트체험']",https://cdn.visitkorea.or.kr/img/call?cmd=VIEW&id=ce35c7e9-6cb4-4521-b25b-5fd73008194c&thumb,부산광역시 해운대구 해운대해변로 84,35.160915,129.1405557
수영민속예술관,부산 수영구,051-752-2947,"['문화시설', '문화유적', '문화재', '부산', '수영구', '수영사적공원', '예술관']",https://cdn.visitkorea.or.kr/img/call?cmd=VIEW&id=4fda0ead-0282-4915-a764-f1bf57e6042e&thumb,부산광역시 수영구 수영성로 43,35.17121171,129.1139531
수영사적공원,부산 수영구,051-610-4067,"['가족여행', '걷기길', '관광지', '산책길', '산책하기', '수영사적공원', '자연속으로']",https://cdn.visitkorea.or.kr/img/call?cmd=VIEW&id=3a8adc42-61e4-4e3b-98c8-98d823cc19e1&thumb,부산광역시 수영구 수영성로 43,35.17121167,129.1139538
스파랜드 센텀시티,부산 해운대구,1668-2850,"['가족과함께', '경상권', '관광지', '뷰티&스파', '스파랜드센텀시티', '실내여행지']",https://cdn.visitkorea.or.kr/img/call?cmd=VIEW&id=bd1d19be-25d4-46bf-a0c3-b8a9fec29242&thumb,부산광역시 해운대구 센텀남대로 35,35.16881799,129.1295226
스포원파크,부산 금정구,1577-0880,"['가족여행', '관광지', '남녀노소', '레포츠여행', '레포츠체험', '복합레포츠', '산책하기']",https://cdn.visitkorea.or.kr/img/call?cmd=VIEW&id=25182122-dcc6-4cd4-8e08-c526068635e2&thumb,부산광역시 금정구 체육공원로399번길 324,35.29297614,129.10605719999998
스포원파크 경륜장,부산 금정구,1577-0880,"['가족과함께', '겨울스포츠', '레포츠', '복합레저스포츠', '수상스포츠', '스포츠']",https://cdn.visitkorea.or.kr/img/call?cmd=VIEW&id=70c1e344-c411-4e3c-a0b6-7aa554e481b9&thumb,부산광역시 금정구 체육공원로399번길 324,35.2913418,129.1053512
신동아 수산물시장,부산 중구,051-246-7500,"['경상권', '쇼핑', '수산시장', '신동아수산물시장']",https://cdn.visitkorea.or.kr/img/call?cmd=VIEW&id=9d28f9c6-fabc-4eab-aa7f-de38805a2e0e&thumb,부산광역시 중구 자갈치로 42,35.09672134,129.0286701
신선대(부산),부산 남구,051-253-8253,"['경상권', '관광지', '바다풍경', '신선대', '야경투어', '자연', '자연좋은곳', '피서여행']",https://cdn.visitkorea.or.kr/img/call?cmd=VIEW&id=26149896-17f7-45e5-9ba9-9fea59858466&thumb,부산광역시 남구 신선로303번길 6,35.113275099999996,129.0953806
신세계 센텀시티,부산 해운대구,1588-1234,"['가족여행', '경상권', '관광지', '남녀노소', '부산가볼만한곳', '신세계센텀시티']",https://cdn.visitkorea.or.kr/img/call?cmd=VIEW&id=b4e33095-3a70-4353-8af8-5b45c87e7027&thumb,부산광역시 해운대구 센텀남대로 35,35.16881799,129.1295226
신세계면세점 (부산점),부산 해운대구,1661-8778,"['경상권', '면세점', '쇼핑', '신세계면세점']",https://cdn.visitkorea.or.kr/img/call?cmd=VIEW&id=351c25ef-0a7c-4ff5-8dc0-85daadb41348&thumb,부산광역시 해운대구 센텀4로 15,35.16986142,129.1282901
신세계사이먼 부산 프리미엄 아울렛,부산 기장군,1644-4001,"['경상권', '쇼핑', '신세계사이먼부산프리미엄아울렛', '연인과함께', '친구와함께']",https://cdn.visitkorea.or.kr/img/call?cmd=VIEW&id=86a5163c-e304-4062-9d88-24b193727eb9&thumb,부산광역시 기장군 장안읍 정관로 1133,35.32381098,129.2349662
씨프랜드,부산 사상구,051-326-8400,"['레포츠', '부산', '부산레포츠', '부산여행', '스킨스쿠버', '스킨스쿠버교육']",https://cdn.visitkorea.or.kr/img/call?cmd=VIEW&id=642ee4a0-a8ea-4f4b-89a7-dbb314af7e80&thumb,부산광역시 사상구 가야대로 229-6,35.1505334,128.9979023
아미르공원,부산 영도구,051-419-4531,"['관광지', '남녀노소', '도심속공원', '산책코스', '아미르공원', '아이와함께', '언택트관광지_100선']",https://cdn.visitkorea.or.kr/img/call?cmd=VIEW&id=d875dcc9-5df0-4e67-9769-8e1dfb133fff&thumb,부산광역시 영도구 동삼동,35.075671,129.075936
아시아드 컨트리클럽,부산 기장군,051-720-6000,['레포츠'],https://cdn.visitkorea.or.kr/img/call?cmd=VIEW&id=0eb931c6-44a5-436a-b776-fb98848f4cac&thumb,부산광역시 기장군 일광면 차양길 26,35.2877195,129.23879820000002
아이하시 (수제젓가락공예),부산 중구,010-2620-7373,"['국제시장', '목제가공', '쇼핑', '수제젓가락']",https://cdn.visitkorea.or.kr/img/call?cmd=VIEW&id=3eb7ce1d-c284-4e87-89d7-de16d9c90e70&thumb,부산광역시 중구 국제시장2길 33,35.10238037,129.0283039
아홉산숲,부산 기장군,051-721-9183,"['가족여행', '경상권', '경치좋은곳', '관광지', '숲속체험', '아홉산숲', '자연', '해설']",https://cdn.visitkorea.or.kr/img/call?cmd=VIEW&id=e6e94b81-3122-4093-9edc-e0d61a94a550&thumb,부산광역시 기장군 철마면 미동길 37-1,35.28704129,129.1715172
안데르센 동화마을,부산 기장군,051-709-4000,"['관광지', '기장가볼만한곳', '기장여행코스', '놀이시설', '동화마을', '아이가_좋아하는_여행']",https://cdn.visitkorea.or.kr/img/call?cmd=VIEW&id=45967d42-f048-42c0-b55a-ca0614319890&thumb,부산광역시 기장군 장안읍 장안로 211,35.35992182,129.2402399
안적사(부산),부산 기장군,051-543-9408,"['관광지', '불교', '불교문화', '사찰', '사찰여행', '역사', '자연속으로', '자연환경']",https://cdn.visitkorea.or.kr/img/call?cmd=VIEW&id=null&thumb,부산광역시 기장군 기장읍 내리길 461-16,35.21410884,129.1700835
애플아울렛,부산 사상구,051-559-1500,"['관광', '부산쇼핑', '브랜드', '쇼핑', '아울렛']",https://cdn.visitkorea.or.kr/img/call?cmd=VIEW&id=b7eb1c51-d610-4cb6-83bd-e8ca5f4091b1&thumb,부산광역시 사상구 사상로 201,35.16314616,128.9809858
약수암(부산),부산 사상구,051-303-7586,"['관광지', '불교', '불교문화', '불교사찰', '사찰여행', '역사', '자연속으로', '자연환경']",https://cdn.visitkorea.or.kr/img/call?cmd=VIEW&id=undefined&thumb,부산광역시 사상구 백양대로804번길 42-57,35.17803409,128.9965736
양정청소년수련관,부산 부산진구,051-868-0750,"['교육프로그램', '레포츠', '부산진구', '청소년수련원']",https://cdn.visitkorea.or.kr/img/call?cmd=VIEW&id=1eb2e526-a2f8-4212-8ac8-86eec7031de8&thumb,부산광역시 부산진구 동평로405번길 85,35.1772787,129.0717449
역사의 디오라마,부산 중구,051-253-8253,"['86번버스', '관광지', '부산가볼만한곳', '부산전망대']",https://cdn.visitkorea.or.kr/img/call?cmd=VIEW&id=ba50f724-77c5-48f4-ab50-e62aabdf2c64&thumb,부산광역시 중구 영주로 93,35.11462683,129.0330811
연등사(부산),부산 동구,051-632-0546,"['경상권', '관광지', '불교', '불교문화', '사찰', '사찰여행', '역사', '연등사', '연중무휴']",https://cdn.visitkorea.or.kr/img/call?cmd=VIEW&id=c3e26635-bfbe-4d23-91ed-cfc5d48e5f71&thumb,부산광역시 동구 좌천동로 17-3,35.13307333,129.0490747
연일시장,부산 연제구,051-853-7023,"['가족여행', '경상권', '기차여행', '나들이', '나홀로여행', '데이트코스', '먹거리']",https://cdn.visitkorea.or.kr/img/call?cmd=VIEW&id=e0b2cd61-d5c4-4893-92f8-4c67e61ec55b&thumb,부산광역시 연제구 고분로 24,35.18557217,129.0848775
연제문화원,부산 연제구,051-759-3113,"['교육프로그램', '문화시설', '부산연제구', '연제문화원']",https://cdn.visitkorea.or.kr/img/call?cmd=VIEW&id=undefined&thumb,부산광역시 연제구 거제대로 180,35.18428551,129.071201
영도 등대,부산 영도구,051-405-1201,"['경상권', '관광지', '등대', '영도등대', '자연', '전시관']",https://cdn.visitkorea.or.kr/img/call?cmd=VIEW&id=598e203e-1cf6-40a7-bb18-ffa86162485e&thumb,부산광역시 영도구 전망로 181,35.05191937,129.09133970000002
영도 흰여울해안터널,부산 영도구,051-419-4044,"['관광지', '남녀노소', '부산가볼만한곳', '산책하기좋은곳', '시원한곳', '여름피서지']",https://cdn.visitkorea.or.kr/img/call?cmd=VIEW&id=7031387f-a714-44c5-8828-985dcfb7efa2&thumb,부산 영도구 영선동4가 1044-6,35.07793084,129.04530390000002
영도관광사격장,부산 영도구,051-405-9130,"['데이트코스', '레포츠', '부산영도구', '사격장', '실내레포츠']",https://cdn.visitkorea.or.kr/img/call?cmd=VIEW&id=e4c45842-bd29-4b18-a90c-341b5bf8484b&thumb,부산광역시 영도구 절영로 319,35.0739797,129.0541222
영도대교,부산 영도구,1670-8114,"['가족여행', '경상권', '관광지', '도개교', '바다', '부산광역시', '약속의장소', '역사공부']",https://cdn.visitkorea.or.kr/img/call?cmd=VIEW&id=f8c3fdbb-c9eb-4bce-8dd1-106a0adec3b8&thumb,부산광역시 영도구 태종로 46,35.09378919,129.036832
영도문화예술회관,부산 영도구,051-419-5561,"['가족과함께', '공연&전시', '문화공간', '문화시설', '문화예술', '문화예술공간']",https://cdn.visitkorea.or.kr/img/call?cmd=VIEW&id=a2ba72eb-427e-4de1-87ff-a24df5b20f3b&thumb,부산광역시 영도구 함지로79번길 6,35.07526538,129.06685900000002
영도봉래시장 / 봉래시장,부산 영도구,051-413-3111,"['가족여행', '경상권', '기차여행', '나들이', '나홀로여행', '데이트코스', '먹거리']",https://cdn.visitkorea.or.kr/img/call?cmd=VIEW&id=57e909e3-b4ac-482a-b515-e0358bf618d0&thumb,부산광역시 영도구 태종로113번길 39,35.09271476,129.043933
영주암(부산),부산 수영구,051-754-2210,"['경상권', '관광지', '불교', '불교문화', '사찰', '사찰여행', '역사', '영주암', '자연속으로']",https://cdn.visitkorea.or.kr/img/call?cmd=VIEW&id=e7b97bb6-e847-4647-a94b-967f27b07e3e&thumb,부산광역시 수영구 망미배산로76번나길 15,35.17663171,129.0986397
옛백제병원,부산 동구,051-440-4064,"['관광지', '역사', '역사공부', '역사관광지', '역사를품은곳', '역사문화재', '역사속']",https://cdn.visitkorea.or.kr/img/call?cmd=VIEW&id=804911f3-a439-4a27-a184-c6820e68750d&thumb,부산광역시 동구 중앙대로209번길 16,35.11633971,129.0391428
오랜지바다,부산 수영구,051-758-5308,"['관광기념품', '부산', '부산가볼만한곳', '부산기념품', '선물샵', '쇼핑']",https://cdn.visitkorea.or.kr/img/call?cmd=VIEW&id=ad2157b0-38e0-41eb-9273-4d66fdd773ba&thumb,부산광역시 수영구 광안해변로 245-1,35.15493588,129.1207388
오륙도 (부산 국가지질공원),부산 남구,051-888-3636,"['관광지', '국가지질공원', '명승', '부산_국가지질공원', '부산오륙도', '섬', '자연']",https://cdn.visitkorea.or.kr/img/call?cmd=VIEW&id=6c138c03-78e1-4368-8cf4-c4016d559424&thumb,부산광역시 남구 용호동,35.093815,129.12641599999998
오륙도 등대,부산 남구,051-607-6395,"['관광지', '자연']",https://cdn.visitkorea.or.kr/img/call?cmd=VIEW&id=cc3644c0-d8bd-4db7-a340-786b6974bf53&thumb,부산광역시 남구 오륙도로 130,35.09119339,129.1268467
오륙도 스카이워크,부산 남구,051-607-6395,"['경상권', '관광지', '바다풍경', '스카이워크', '오륙도스카이워크']",https://cdn.visitkorea.or.kr/img/call?cmd=VIEW&id=49830f25-ee1b-4daa-a986-0522ad7ebf26&thumb,부산광역시 남구 오륙도로 137,35.10143738,129.12310490000002
오륙도명소,부산 남구,051-888-3636,"['걷기길', '경상권', '관광지', '생태관광', '생태관광지', '오륙도', '이기대', '이기대해안산책로']",https://cdn.visitkorea.or.kr/img/call?cmd=VIEW&id=23afb0f2-8493-41d1-bb57-40093a73d35b&thumb,부산광역시 남구 용호동 일대,35.0980402,129.1239318
오륜대 한국순교자박물관,부산 금정구,051-583-2923,"['문화시설', '박물관', '순교자', '아이와함께', '아이와함께', '역사', '종교', '천주교회']",https://cdn.visitkorea.or.kr/img/call?cmd=VIEW&id=408b2449-ab9c-43c6-8e40-d135ac6223ea&thumb,부산광역시 금정구 오륜대로 106-1,35.246003,129.1011063
오휘 (롯데백화점센텀시티점),부산 해운대구,051-730-3141,"['롯데백화점', '부산', '부산여행', '쇼핑', '화장품']",https://cdn.visitkorea.or.kr/img/call?cmd=VIEW&id=05f37f79-6b97-4831-b6a0-d1b7e4659b97&thumb,부산광역시 해운대구 센텀남대로 59,35.16985335,129.13106969999998
옥련선원,부산 수영구,051-610-4067,"['경상권', '관광지', '불교', '역사', '역사공부', '역사관광지', '역사를품은곳', '역사문화재']",https://cdn.visitkorea.or.kr/img/call?cmd=VIEW&id=0036a23b-141e-4e46-8ac8-5d2eec56c9d7&thumb,부산광역시 수영구 광남로257번길 58,35.16285449,129.1262142
온정개건비,부산 동래구,051-550-4081,"['관광지', '역사', '역사공부', '역사를품은곳', '역사문화재', '역사속', '역사속으로']",https://cdn.visitkorea.or.kr/img/call?cmd=VIEW&id=8789fc5a-c466-47bf-a7e7-f9fb90ea73cd&thumb,부산광역시 동래구 금강로124번길 23-17,35.22008429,129.0812974
외양포 포진지,부산 강서구,051-970-4066,"['관광지', '역사공부', '역사를품은곳', '역사속', '역사속으로', '역사여행', '역사유적']",https://cdn.visitkorea.or.kr/img/call?cmd=VIEW&id=dbf24c66-8e09-46f5-960c-1804d8bed876&thumb,부산광역시 강서구 대항동,35.00553146,128.8254366
요산문학관,부산 금정구,051-515-1655,"['교육프로그램', '금정구', '문화시설', '요산문학관']",https://cdn.visitkorea.or.kr/img/call?cmd=VIEW&id=9857b391-ce11-42ec-854d-2ac80973edbc&thumb,부산광역시 금정구 팔송로 60-6,35.27236541,129.0857156
용두산 자갈치 관광특구,부산 중구,051-600-4082,"['경상권', '관광지', '근대문화유산', '남녀노소', '부산가볼만한곳', '야경투어']",https://cdn.visitkorea.or.kr/img/call?cmd=VIEW&id=7bc45225-0719-4389-a2b2-894f7fc20a80&thumb,부산광역시 중구 자갈치해안로 52,35.09661367,129.0305839
용두산공원,부산 중구,051-860-7820,"['가족여행', '걷기여행', '관광지', '나들이', '아이와함께', '연인과함께', '용두산공원']",https://cdn.visitkorea.or.kr/img/call?cmd=VIEW&id=c6f3a7b9-8e36-4eb6-8c18-d5573cf77027&thumb,부산광역시 중구 용두산길 37-55,35.100930299999995,129.03244329999998
용두산공원 부산타워 세양,부산 중구,051-257-9393,"['가족과함께', '경상권', '기념품판매', '데이트코스', '사계절', '쇼핑', '실내여행지']",https://cdn.visitkorea.or.kr/img/call?cmd=VIEW&id=b3d5690b-a582-4cc3-a969-5927e0aeb3c4&thumb,부산광역시 중구 용두산길 37-55,35.10092943,129.0324428
용호동일대 바다낚시,부산 남구,051-253-8253,"['레포츠', '바다낚시', '부산낚시', '부산낚시터', '부산바다', '부산바다낚시']",https://cdn.visitkorea.or.kr/img/call?cmd=VIEW&id=44012521-9edc-4ed0-bfeb-09534f513e31&thumb,부산광역시 남구 분포로 101,35.1295917,129.11584
우장춘기념관,부산 동래구,051-550-4478,"['가족여행', '경상권', '기념관', '문화시설', '사계절', '아이와함께', '우장춘기념관']",https://cdn.visitkorea.or.kr/img/call?cmd=VIEW&id=b989e7b2-9160-40b8-84aa-ee5ac83dba88&thumb,부산광역시 금정구 서부로76번길 5,35.21350807,129.07201640000002
운수사(부산),부산 사상구,051-313-3300,"['가족여행', '경상권', '관광지', '불교', '불교문화', '사찰', '사찰&산사', '사찰여행']",https://cdn.visitkorea.or.kr/img/call?cmd=VIEW&id=null&thumb,부산광역시 사상구 모라로219번길 173,35.1837722,129.0127785
월명사(부산),부산 기장군,051-721-0123,"['관광지', '불교', '불교문화', '불교사찰', '사찰여행', '역사', '자연속으로', '자연환경']",https://cdn.visitkorea.or.kr/img/call?cmd=VIEW&id=undefined&thumb,부산광역시 기장군 일광면 참샘길 124,35.26982805,129.2160972
유엔평화기념관,부산 남구,051-901-1400,"['기념관', '남구', '대구광역시', '무더위_피해_실내여행', '무장애', '문화시설']",https://cdn.visitkorea.or.kr/img/call?cmd=VIEW&id=d275ef20-8536-41f3-a99b-32b6823a9f1e&thumb,부산광역시 남구 홍곡로320번길 106,35.12475247,129.0932569
유치환 우체통 전망대,부산 동구,051-469-9818,"['SNS감성사진', '경치좋은곳', '관광지', '남녀노소', '부산가볼만한곳', '사진여행']",https://cdn.visitkorea.or.kr/img/call?cmd=VIEW&id=f8306fd7-9a02-4996-b6a9-bc5dfacd7ecf&thumb,부산광역시 동구 망양로580번길 2,35.12210736,129.0338509
유한회사스노우에이치[한국관광 품질인증/Korea Quality],부산 동구,051-946-8008,"['부산추천쇼핑', '쇼핑', '유한회사스노우에이치', '한국관광품질인증', '한국관광품질인증업소']",https://cdn.visitkorea.or.kr/img/call?cmd=VIEW&id=8513cd8b-0d3a-4696-8b15-4e7968f9ff01&thumb,부산광역시 동구 조방로 32,35.13970028,129.0620473
은송타미나,부산 중구,051-246-0786,"['광복동시장', '쇼핑', '외국인이많이찾는', '외국인친구에게추천', '인테리어소품']",https://cdn.visitkorea.or.kr/img/call?cmd=VIEW&id=f40b1bbb-ae6c-4a1c-93ea-7ecd75f8815c&thumb,부산광역시 중구 광복로39번길 26,35.10149432,129.0293919
을숙도 공원,부산 사하구,051-209-2031,"['경상권', '관광지', '을숙도공원', '을숙도생태공원', '을숙도철새공원', '자연']",https://cdn.visitkorea.or.kr/img/call?cmd=VIEW&id=61ef9a5f-0781-4b48-89e2-1142378a5013&thumb,부산광역시 사하구 낙동남로 1240,35.10449124,128.9459812
을숙도문화회관,부산 사하구,051-220-5811,"['공연장', '무장애', '문화공간', '문화시설', '문화예술', '문화예술공간', '복합문화공간']",https://cdn.visitkorea.or.kr/img/call?cmd=VIEW&id=825edd89-9861-4f23-8fa8-1fa8ccab4236&thumb,부산광역시 사하구 낙동남로1233번길 25,35.11003324,128.9449571
이기대 (부산 국가지질공원),부산 남구,051-888-3636,"['걷기길', '경상권', '관광지', '생태관광지', '역사유적지', '이기대도시자연공원']",https://cdn.visitkorea.or.kr/img/call?cmd=VIEW&id=0553f0e9-d30c-4a39-bf84-35d7a4ef1906&thumb,부산광역시 연제구 용호동,35.115512100000004,129.115598
이기대명소,부산 남구,051-888-3636,"['걷기길', '경상권', '관광지', '바다풍경', '생태관광', '생태관광지', '오륙도', '이기대명소']",https://cdn.visitkorea.or.kr/img/call?cmd=VIEW&id=8aece046-90bc-4b10-a163-af2f146523a5&thumb,부산광역시 남구 용호동 일대,35.122642299999995,129.12341740000002
이니스프리 부산대점[한국관광 품질인증/Korea Quality],부산 금정구,051-582-7273,"['부산추천쇼핑', '쇼핑', '이니스프리부산대', '한국관광품질인증', '한국관광품질인증업소']",https://cdn.visitkorea.or.kr/img/call?cmd=VIEW&id=e094e02d-b58d-414a-8701-88a5ecc3853e&thumb,부산광역시 금정구 금정로68번길 28,35.23034385,129.0878889
이바구공작소,부산 동구,051-468-0289,"['감성사진', '남녀노소', '문화시설', '복합문화공간', '사진여행', '사진찍기', '사진찍기좋은곳']",https://cdn.visitkorea.or.kr/img/call?cmd=VIEW&id=4073e5ca-0e61-4433-a4b9-51a61a47a813&thumb,부산광역시 동구 망양로486번길 14-13,35.11709939,129.03382209999998
이상봉 (롯데백화점 센텀시티점),부산 해운대구,051-730-3412,"['디자이너', '롯데백화점', '쇼핑', '여성복']",https://cdn.visitkorea.or.kr/img/call?cmd=VIEW&id=19293c4c-e506-4b0f-99a7-2dd0ddb3878c&thumb,부산광역시 해운대구 센텀남대로 59,35.16985335,129.13106969999998
일광해수욕장,부산 기장군,051-709-4000,"['가족여행', '관광지', '바다풍경', '아이와함께', '여름방학가볼만한곳', '여름여행']",https://cdn.visitkorea.or.kr/img/call?cmd=VIEW&id=03b60830-6e44-42b3-89df-dbfb5b0b6dcf&thumb,부산광역시 기장군 일광면 삼성리,35.26638202,129.2313239
임랑해수욕장,부산 기장군,051-709-4084,"['가족여행', '경상권', '관광지', '미식여행', '바다풍경', '여름방학가볼만한곳']",https://cdn.visitkorea.or.kr/img/call?cmd=VIEW&id=93873193-cd9e-42b3-8920-69b8bc8cb15e&thumb,부산광역시 기장군 장안읍 임랑리,35.31953879,129.2576094
임시수도기념관,부산 서구,051-244-6345,"['기념관', '무장애', '문화시설', '부산 서구', '부산광역시', '임시수도', '전시실']",https://cdn.visitkorea.or.kr/img/call?cmd=VIEW&id=14c87f88-0467-47c4-9181-992de4fe5fd0&thumb,부산광역시 서구 임시수도기념로 45,35.10375,129.0175964
자갈치시장 활어부,부산 중구,051-245-2594,"['가족여행', '경상권', '먹거리', '바다풍경', '사계절', '쇼핑', '시장맛집', '아이와함께']",https://cdn.visitkorea.or.kr/img/call?cmd=VIEW&id=872fe087-8241-417c-9547-519530035cce&thumb,부산광역시 중구 자갈치해안로 52,35.09661378,129.0305837
자성대공원,부산 동구,051-440-4064,"['걷기길', '경상권', '관광지', '도심여행', '산책길', '산책하기', '산책하기좋은곳']",https://cdn.visitkorea.or.kr/img/call?cmd=VIEW&id=b101cda9-a2de-44c8-a41c-1a54de585537&thumb,부산광역시 동구 자성로 99,35.13574487,129.060452
장기려기념 더 나눔센터,부산 동구,051-468-1248,"['가족과함께', '문화공간', '문화시설', '미세먼지_피하는_실내여행', '실내데이트']",https://cdn.visitkorea.or.kr/img/call?cmd=VIEW&id=e15752a1-b681-4d35-920c-fd6ee1fa4871&thumb,부산광역시 동구 영초윗길 48,35.11853779,129.0326545
장림포구,부산 사하구,051-220-4502,"['SNS감성사진', '가족과함께', '경치좋은곳', '관광지', '남녀노소', '부산가볼만한곳']",https://cdn.visitkorea.or.kr/img/call?cmd=VIEW&id=bb6d82b7-df62-4600-8224-3c383067d774&thumb,부산광역시 사하구 장림로93번길 72,35.07913004,128.9513987
장산 (부산 국가지질공원),부산 해운대구,051-851-7851,"['경치좋은곳', '관광지', '국가지질공원', '바다경치', '부산_국가지질공원', '사진찍기좋은곳']",https://cdn.visitkorea.or.kr/img/call?cmd=VIEW&id=9b87cff8-9127-41bb-b19a-e6fcb0185796&thumb,부산광역시 해운대구 좌동 1390,35.18108261,129.168181
장산명소,부산 해운대구,051-888-3636,"['걷기길', '걷기여행', '경상권', '관광지', '생태관광', '생태관광지', '장산', '트레킹']",https://cdn.visitkorea.or.kr/img/call?cmd=VIEW&id=daada931-8283-4b15-85ae-0be207d08741&thumb,부산광역시 해운대구 반어동,35.194527,129.14469
장안사(부산),부산 기장군,051-727-2393,"['경상권', '관광지', '부산장안사', '불교', '불교문화', '불교사찰', '사찰', '사찰여행']",https://cdn.visitkorea.or.kr/img/call?cmd=VIEW&id=368a09b5-4b9a-4c8d-8e23-41d41e595e2f&thumb,부산광역시 기장군 장안읍 장안로 482,35.37480506,129.23288440000002
재난안전체험관,부산 금정구,1577-0880,"['겨울방학가볼만한곳', '경상권', '관광지', '아이와함께', '여름방학가볼만한곳']",https://cdn.visitkorea.or.kr/img/call?cmd=VIEW&id=80130c01-844a-461e-b5ee-ac080d6ab3a4&thumb,부산광역시 금정구 체육공원로399번길 324,35.29297614,129.10605719999998
재한유엔기념공원 (UN기념공원),부산 남구,051-625-0625,"['UN기념공원', '가족여행', '걷기여행', '관광지', '근대문화유산', '나들이', '아이와함께']",https://cdn.visitkorea.or.kr/img/call?cmd=VIEW&id=596cb1f3-c99b-4e3b-a3c4-bc04931a78b3&thumb,부산광역시 남구 대연동,35.128128000000004,129.096767
전포카페거리,부산 부산진구,051-441-3121,"['관광지', '데이트장소추천', '데이트코스', '서면카페거리', '이색카페', '체험']",https://cdn.visitkorea.or.kr/img/call?cmd=VIEW&id=ceaee40e-02a8-4ad0-965b-11123f27d1a2&thumb,부산광역시 부산진구 전포대로209번길 26,35.15629452,129.0630949
절영해안산책로,부산 영도구,051-419-4064,"['걷기길', '경상권', '경치좋은곳', '관광지', '바다경치', '바다전망', '자연', '전망좋은곳']",https://cdn.visitkorea.or.kr/img/call?cmd=VIEW&id=d08b4749-4e08-4567-9d8a-a22ce20eb0e5&thumb,부산광역시 영도구 해안산책길 52,35.08114476,129.0412082
정관박물관,부산 기장군,051-720-6900,"['기장군', '문화시설', '문화유적', '미세먼지_피하는_실내여행', '부산광역시']",https://cdn.visitkorea.or.kr/img/call?cmd=VIEW&id=bad9ad60-80fa-4141-8a36-15badb06160d&thumb,부산광역시 기장군 정관읍 정관중앙로 122,35.32680782,129.1848654
정관장 (롯데백화점 센텀시티점),부산 해운대구,051-730-3039,"['건강식품', '건강식품브랜드', '쇼핑', '정관장']",https://cdn.visitkorea.or.kr/img/call?cmd=VIEW&id=40fe248d-8b09-448a-8601-a8b0002827a3&thumb,부산광역시 해운대구 센텀남대로 59,35.16985335,129.13106969999998
정수암(부산),부산 금정구,051-517-5300,"['관광지', '불교', '불교문화', '사찰', '사찰여행', '역사', '자연속으로', '자연환경']",https://cdn.visitkorea.or.kr/img/call?cmd=VIEW&id=null&thumb,부산광역시 금정구 북문로 160,35.26024498,129.048599
정인갤러리,부산 중구,051-248-9090,"['고미술품', '문화시설', '미술품', '예술', '전시관', '정인갤러리', '창작활동']",https://cdn.visitkorea.or.kr/img/call?cmd=VIEW&id=a8ada755-d1e3-4ad1-8834-00e845280580&thumb,부산광역시 중구 중앙대로 21,35.09951017,129.03614199999998
조방해수탕,부산 부산진구,051-645-0005,"['경상권', '관광지', '남녀노소', '사우나', '연인과함께', '조방해수탕', '찜질방']",https://cdn.visitkorea.or.kr/img/call?cmd=VIEW&id=7ae2902c-6863-44f9-8f9e-dcb0aab9d665&thumb,부산광역시 부산진구 자유평화로37번길 15-19,35.14185426,129.06256480000002
조선통신사역사관,부산 동구,051-631-0858,"['가족여행', '경상권', '문화시설', '문화행사', '사계절', '아이와함께', '역사공부']",https://cdn.visitkorea.or.kr/img/call?cmd=VIEW&id=c8c69723-03d9-40c2-be2f-11efe738ec6c&thumb,부산광역시 동구 자성로 99,35.13574252,129.0604498
조현화랑,부산 해운대구,051-747-8853,"['갤러리', '문화시설', '문화예술', '문화예술공간', '미술관', '미술인', '현대미술']",https://cdn.visitkorea.or.kr/img/call?cmd=VIEW&id=04954d92-e0d4-430d-adfc-2d809407ae7c&thumb,부산광역시 해운대구 달맞이길65번길 171,35.15684661,129.1795725
좌수영성지,부산 수영구,051-610-4067,"['경상권', '관광지', '교과서속여행', '문화재', '역사', '역사공부', '역사관광지']",https://cdn.visitkorea.or.kr/img/call?cmd=VIEW&id=7bd94e05-7bea-4c83-9f96-a664d11744d9&thumb,부산광역시 수영구 수영성로 43,35.17121167,129.1139538
좌천동 가구거리,부산 동구,051-638-3007,"['가구점', '경상권', '쇼핑', '좌천동가구거리']",https://cdn.visitkorea.or.kr/img/call?cmd=VIEW&id=319a5b07-7074-4ef2-912f-cbaaaadbeb54&thumb,부산광역시 동구 중앙대로,35.11738769,129.0405156
주한독일문화원 부산 분원,부산 중구,051-441-4115,"['문화시설', '부산', '주한독일문화원']",https://cdn.visitkorea.or.kr/img/call?cmd=VIEW&id=07c32e21-4194-405a-9a72-d62a723bd8b0&thumb,부산광역시 금정구 금강로279번길 91,35.23588301,129.08348279999998
주한인도문화원 부산,부산 남구,051-508-4254,"['문화공간', '문화교실', '문화시설', '문화예술교육', '문화원', '문화행사', '열린문화공간']",https://cdn.visitkorea.or.kr/img/call?cmd=VIEW&id=c0765d9f-b43a-4a06-a1de-72302e206465&thumb,부산광역시 남구 유엔로157번길 10,35.1306644,129.0935096
죽성성당(드림세트장),부산 기장군,1330,"['관광지', '드라마촬영지', '드라이브코스', '사진찍기좋은곳', '죽성성당', '체험관광지']",https://cdn.visitkorea.or.kr/img/call?cmd=VIEW&id=37125dbf-d6a2-4111-ae80-1b4e7c06dec7&thumb,부산광역시 기장군 기장읍 죽성리 134-7,35.241172799999994,129.2479102
중앙해수랜드,부산 남구,051-622-8899,"['가족과함께', '건강', '관광지', '목욕탕', '연인과함께', '온천', '중앙해수랜드']",https://cdn.visitkorea.or.kr/img/call?cmd=VIEW&id=60a4531d-c4e2-4673-ad23-bf5b31dde64c&thumb,부산광역시 남구 용호로 64,35.12560901,129.1106323
쥬디스태화,부산 부산진구,051-804-9700,['쇼핑'],https://cdn.visitkorea.or.kr/img/call?cmd=VIEW&id=43d6e7b1-05a1-4bb2-a384-1c92754b4bec&thumb,부산광역시 부산진구 중앙대로 694,35.15472735,129.05962240000002
척판암(부산),부산 기장군,051-727-3547,"['가족여행', '경상권', '관광지', '불교문화', '사찰&산사', '사찰여행', '역사', '자연속으로']",https://cdn.visitkorea.or.kr/img/call?cmd=VIEW&id=aa192d7f-dde9-4073-81c2-ff4e70be2f56&thumb,부산광역시 기장군 장안읍 장안로 490-156,35.37445109,129.22399520000002
청량사(부산),부산 강서구,051-271-2774,"['경상권', '관광지', '불교', '불교문화', '사찰', '사찰여행', '역사', '연중무휴', '자연속으로']",https://cdn.visitkorea.or.kr/img/call?cmd=VIEW&id=78707bec-d5d1-47d5-b47d-0cdf4e78a182&thumb,부산광역시 기장군 철마면 임밖길 12,35.23878444,129.1758381
청사포,부산 해운대구,051-253-8253,"['경상권', '관광지', '바다경치', '바다낚시', '바다내음', '산책하기좋은곳', '연인과함께']",https://cdn.visitkorea.or.kr/img/call?cmd=VIEW&id=887617c4-1982-4bf0-9b63-348c27057316&thumb,부산광역시 해운대구 중동,35.16069,129.19277
청사포 다릿돌전망대,부산 해운대구,051-749-5700,"['가족과함께', '경치여행', '경치좋은곳', '관광지', '바다경치', '바다내음', '부산가볼만한곳']",https://cdn.visitkorea.or.kr/img/call?cmd=VIEW&id=dd8d946b-9c20-431f-9bf9-9077f95442db&thumb,부산광역시 해운대구 청사포로 167,35.164095,129.19673799999998
초량 이바구길,부산 동구,051-441-3121,"['골목투어', '관광지', '근대문화거리', '부산여행', '부산여행가볼만한곳', '사진찍기좋은곳']",https://cdn.visitkorea.or.kr/img/call?cmd=VIEW&id=4c6e93bc-715a-4f37-ad59-7cad56852e24&thumb,부산광역시 동구 초량상로 49,35.11609917,129.0359012
초량교회,부산 동구,051-465-0533,"['관광지', '기독교', '부산', '역사', '역사공부', '역사관광지', '역사문화', '역사문화재']",https://cdn.visitkorea.or.kr/img/call?cmd=VIEW&id=558faa46-ace8-4762-aead-525564688d69&thumb,부산광역시 동구 초량상로 53,35.11700288,129.0365327
추리문학관,부산 해운대구,051-743-0480,"['문학공간', '문화시설', '부산', '전문도서관', '추리문학', '추리문학관']",https://cdn.visitkorea.or.kr/img/call?cmd=VIEW&id=9d3c4eda-3e99-4f16-a5be-ef0a32f1d0a4&thumb,부산광역시 해운대구 달맞이길117번나길 111,35.16167969,129.1833091
충렬사,부산 동래구,051-888-7211,"['가족여행', '관광지', '아이와함께', '역사', '역사유적지', '자연좋은곳', '전통&역사문화체험']",https://cdn.visitkorea.or.kr/img/call?cmd=VIEW&id=64921696-ab87-4c76-bf10-06cfd6e4f7fc&thumb,부산광역시 동래구 충렬대로 345,35.20109052,129.0961107
충렬탑(부산 충렬사),부산 동래구,051-888-7211,"['경상권', '관광지', '사계절', '아이와함께', '역사를품은곳', '역사속', '역사속으로']",https://cdn.visitkorea.or.kr/img/call?cmd=VIEW&id=aa240a05-6a7f-4d3d-8fde-14c691b83830&thumb,부산광역시 동래구 충렬대로 345,35.20109052,129.0961107
친환경 스카이웨이 전망대(이바구길),부산 동구,051-441-3121,"['가족과함께', '경치여행', '경치좋은곳', '관광지', '부산야경', '부산여행', '산책길']",https://cdn.visitkorea.or.kr/img/call?cmd=VIEW&id=4e8d0ab2-495d-4058-8381-56fd1ac0a7ad&thumb,부산광역시 동구 초량동,35.11571241,129.0363325
카카오프렌즈 부산 플래그십 스토어,부산 중구,051-256-0815,"['라이프스타일', '쇼핑', '카카오프렌즈', '플래그십스토어']",https://cdn.visitkorea.or.kr/img/call?cmd=VIEW&id=2f3e3c91-fdb3-44a4-b973-dc73942196ff&thumb,부산광역시 중구 광복로 62,35.09903638,129.0315906
키자니아 부산,부산 해운대구,1544-5110,"['경상권', '관광지', '미세먼지_피하는_실내여행', '실내관광지', '실내놀이터']",https://cdn.visitkorea.or.kr/img/call?cmd=VIEW&id=c269f453-fa02-47d0-9799-6af06071eeb6&thumb,부산광역시 해운대구 센텀4로 15,35.16986121,129.1282903
킴스아트필드미술관,부산 금정구,051-517-6800,"['경상권', '남녀노소', '문화공간', '문화시설', '미술관', '복합문화공간', '열린문화공간']",https://cdn.visitkorea.or.kr/img/call?cmd=VIEW&id=7f797ff4-c33b-4abd-9967-62f660610038&thumb,부산광역시 금정구 죽전1길 29,35.25241439,129.0542017
타임 (롯데백화점 센텀시티점),부산 해운대구,051-730-3453,"['롯제백화점', '브랜드', '쇼핑', '여성복']",https://cdn.visitkorea.or.kr/img/call?cmd=VIEW&id=256ad858-8077-4755-bc81-06b07fcec98a&thumb,부산광역시 해운대구 센텀남대로 59,35.16985335,129.13106969999998
태종대 (부산 국가지질공원),부산 영도구,051-888-3636,"['가족여행', '겨울방학가볼만한곳', '관광지', '국가지질공원', '나홀로여행', '바다풍경']",https://cdn.visitkorea.or.kr/img/call?cmd=VIEW&id=c6515854-12cc-477a-b2c4-8f1d8aa7fba6&thumb,부산광역시 영도구 전망로 24,35.05969281,129.0797564
태종대 곤포유람선,부산 영도구,051-405-2900,"['경치좋은곳', '관광지', '데이트장소', '바다경치', '바다내음', '바다향기로', '유람선']",https://cdn.visitkorea.or.kr/img/call?cmd=VIEW&id=undefined&thumb,부산광역시 영도구 전망로 24,35.05969281,129.0797564
태종대 전망대,부산 영도구,051-403-7775,"['가족여행', '경상권', '경치좋은곳', '관광지', '데이트코스', '바다풍경', '사계절']",https://cdn.visitkorea.or.kr/img/call?cmd=VIEW&id=58f8df41-c2be-49e7-b30a-cef73ec3ab88&thumb,부산광역시 영도구 전망로 24,35.05969281,129.0797564
태종대명소,부산 영도구,051-888-3636,"['걷기길', '걷기여행', '관광지', '생태관광', '생태관광지', '영도해양문화공간']",https://cdn.visitkorea.or.kr/img/call?cmd=VIEW&id=4c0fa931-d1df-4ff8-94d1-b66c4b6d48f6&thumb,부산광역시 영도구 동삼동 일대,35.05969496,129.0798057
태종대온천찜질방,부산 영도구,051-404-9001,"['가족여행', '관광지', '목욕탕', '스파', '온천', '찜질방', '추천가볼만한곳', '태종대온천찜질방']",https://cdn.visitkorea.or.kr/img/call?cmd=VIEW&id=cc105f0c-b431-4722-8440-e0eaf95e365b&thumb,부산광역시 영도구 태종로 808,35.06465461,129.0803152
태종대일대,부산 영도구,051-405-2004,"['레포츠', '바다낚시', '배낚시', '태종대유원지', '태종대일대']",https://cdn.visitkorea.or.kr/img/call?cmd=VIEW&id=9fea1b2f-ad15-4e60-8e55-979fcb931e32&thumb,부산광역시 영도구 전망로 24,35.0597259,129.0798403
태종사,부산 영도구,051-405-2626,"['관광지', '불교', '불교문화', '사찰', '사찰여행', '역사', '자연속으로', '자연환경']",https://cdn.visitkorea.or.kr/img/call?cmd=VIEW&id=507e7de1-4e0c-4a86-bc08-a76c04a105de&thumb,부산광역시 영도구 전망로 119,35.05636598,129.0888081
탠디(롯데백화점 센텀시티점),부산 해운대구,051-730-3231,"['20대', '30대', '쇼핑', '신발', '제화브랜드']",https://cdn.visitkorea.or.kr/img/call?cmd=VIEW&id=fe59fde0-1d38-4389-8c6f-09760292cedd&thumb,부산광역시 해운대구 센텀남대로 59,35.16985335,129.13106969999998
토암도자기공원,부산 기장군,051-721-2231,"['가족여행', '경상권', '관광지', '도자기공방', '도자기수강', '도자기체험', '산림욕장']",https://cdn.visitkorea.or.kr/img/call?cmd=VIEW&id=e5cbadc1-9b02-4287-b63f-a21c14fdd8b7&thumb,부산광역시 기장군 기장읍 대변로 107-27,35.22873295,129.2250802
트렉스타 (롯데백화점 센텀시티점),부산 해운대구,051-730-3551,"['등산화', '브랜드', '쇼핑', '아웃도어']",https://cdn.visitkorea.or.kr/img/call?cmd=VIEW&id=5b851163-c945-41e6-8ff8-8cc78c3f100e&thumb,부산광역시 해운대구 센텀남대로 35,35.16881784,129.1295233
파라다이스 카지노 부산,부산 해운대구,051-749-3550,"['레포츠', '부산', '이색체험', '파라다이스카지노', '해운대구']",https://cdn.visitkorea.or.kr/img/call?cmd=VIEW&id=d506a843-fb7a-424f-af07-ff0686f67948&thumb,부산광역시 해운대구 해운대해변로 296,35.1601338,129.1646875
파라다이스호텔 헬스클럽,부산 해운대구,051-749-2354,['레포츠'],https://cdn.visitkorea.or.kr/img/call?cmd=VIEW&id=8693fd25-1ac9-4ee0-91b6-6ce8283e0630&thumb,부산광역시 해운대구 해운대해변로 296,35.1601338,129.1646875
팬스타부산주말원나잇크루즈,부산 동구,1577-9996,"['관광지', '남녀노소', '부산가볼만한곳', '야경좋은곳', '연안과함께', '이색체험']",https://cdn.visitkorea.or.kr/img/call?cmd=VIEW&id=afe3abac-c833-4ebe-854a-bbed3bae43bc&thumb,부산광역시 동구 충장대로 206,35.11774735,129.04914509999998
평화공원,부산 남구,051-607-4542,"['관광지', '산책길', '산책코스', '산책하기', '산책하기좋은곳', '아이와함께', '언택트관광지_100선']",https://cdn.visitkorea.or.kr/img/call?cmd=VIEW&id=59b86656-13d6-4e8a-84b6-27ea6e1d975d&thumb,부산광역시 남구 신선로447번길 10,35.1252813,129.0995489
프리스비 (Frisbee) 서면점,부산 부산진구,051-808-0947,"['부산', '쇼핑', '스마트스토어', '애플전문매장']",https://cdn.visitkorea.or.kr/img/call?cmd=VIEW&id=f7cd8aa8-ebd3-49da-9131-99b6c72d2fa3&thumb,부산광역시 부산진구 중앙대로691번길 14,35.15456955,129.0583081
피숀 (신세계백화점 센텀시티점),부산 해운대구,051-745-2392,"['생활용품', '쇼핑', '유러피안라이프스타일', '인테리어전문점']",https://cdn.visitkorea.or.kr/img/call?cmd=VIEW&id=cb178253-7068-4568-9a46-d10545ba056a&thumb,부산광역시 해운대구 센텀남대로 35,35.16881784,129.1295233
피터젠슨 (신세계백화점 센텀시티점),부산 해운대구,051-745-2705,"['라이프스타일', '쇼핑', '유명디자이너', '캐릭터숍']",https://cdn.visitkorea.or.kr/img/call?cmd=VIEW&id=3819be37-23b0-419b-8319-796f1f4c9b84&thumb,부산광역시 해운대구 센텀남대로 35,35.16881784,129.1295233
한광미술관,부산 중구,051-469-0095,"['경상권', '기차여행', '무료관람', '문화시설', '미술관', '아이와함께', '예술', '전시관']",https://cdn.visitkorea.or.kr/img/call?cmd=VIEW&id=41080e7c-d662-486b-9625-f2ee5eb3f896&thumb,부산광역시 중구 중앙대로 130,35.10898719,129.0374232
한국기독교선교박물관,부산 동래구,051-555-3096,"['기획전시', '문화시설', '복합문화공간', '부산가볼만한곳', '상설전시', '열린문화공간']",https://cdn.visitkorea.or.kr/img/call?cmd=VIEW&id=7d2d1909-2dd9-419f-8a2d-2645820a7c4b&thumb,부산광역시 동래구 충렬대로202번가길 13,35.20171706,129.0824374
한국민속식품 (부산),부산 강서구,051-971-4133,"['가족여행', '경상권', '기념품판매', '나홀로여행', '쇼핑', '아이와함께', '연인과함께']",https://cdn.visitkorea.or.kr/img/call?cmd=VIEW&id=71493d0b-5081-4ef3-abcd-722dcd80333d&thumb,부산광역시 강서구 공항로811번길 71-1,35.18071217,128.9539541
함지골청소년수련관,부산 영도구,051-405-5223,['레포츠'],https://cdn.visitkorea.or.kr/img/call?cmd=VIEW&id=d0a85a41-b91b-460c-93b6-a4b926ffd5a6&thumb,부산광역시 영도구 절영로 321,35.0739797,129.0541222
핫트랙스 (부산점),부산 부산진구,051-819-9961,"['기프트아이템', '문구', '복합문화쇼핑공간', '쇼핑']",https://cdn.visitkorea.or.kr/img/call?cmd=VIEW&id=a500d70e-5b6a-47f2-ad26-4f6e933c7678&thumb,부산광역시 부산진구 중앙대로 658,35.15153117,129.0595552
해동 용궁사(부산),부산 기장군,051-722-7744,"['경상권', '경치좋은곳', '관광지', '바다경치', '불교', '불교문화', '사찰', '사찰여행']",https://cdn.visitkorea.or.kr/img/call?cmd=VIEW&id=af8e846b-d48e-45ef-8181-9453ba131074&thumb,부산광역시 기장군 기장읍 용궁길 86,35.18835523,129.22354520000002
해바라기식품,부산 중구,051-245-4521,"['가족과함께', '쇼핑', '아이와함께', '특산품', '해바라기식품']",https://cdn.visitkorea.or.kr/img/call?cmd=VIEW&id=71f7041a-e320-4940-8bda-a1e55a263f3a&thumb,부산광역시 중구 광복로35번길 13,35.10059828,129.0287406
해양스포츠교실,부산 영도구,051-405-4111,"['레포츠', '부산여행', '스킨스쿠버', '스킨스쿠버교육', '실내']",https://cdn.visitkorea.or.kr/img/call?cmd=VIEW&id=cda326b7-4fe1-48f6-b09d-d76bbbcaa76a&thumb,부산광역시 영도구 감지해변길 102,35.0611065,129.077245
해양환경공단 해양환경교육원(부산),부산 영도구,051-400-7700,"['가족과함께', '경상권', '교과서속여행', '교육여행', '교육프로그램', '문화시설']",https://cdn.visitkorea.or.kr/img/call?cmd=VIEW&id=6e62256d-d169-4867-b2fe-2c45f4358964&thumb,부산광역시 영도구 해양로301번길 23,35.08026664,129.077927
해운대 관광특구,부산 해운대구,051-749-5700,"['가족과함께', '걷기길', '경상권', '관광지', '미술관', '바다풍경', '스파', '아쿠아리움']",https://cdn.visitkorea.or.kr/img/call?cmd=VIEW&id=e49e356b-5427-4d07-bc26-fbe7b0786b1a&thumb,부산 해운대구,35.16306667,129.16359609999998
해운대 달맞이길,부산 해운대구,051-749-5700,"['걷기길', '경상권', '관광지', '드라이브여행', '바다풍경', '산책길', '산책하기']",https://cdn.visitkorea.or.kr/img/call?cmd=VIEW&id=46dc348d-ed0e-471a-822b-65bed90c2d93&thumb,부산광역시 해운대구 달맞이길 190,35.15765518,129.1825196
해운대 동백섬,부산 해운대구,051-749-7621,"['걷기길', '관광지', '꽃여행', '연인과함께', '자연', '전망좋은곳', '해운대동백섬']",https://cdn.visitkorea.or.kr/img/call?cmd=VIEW&id=b0a762f0-308f-4e0a-b783-d4f423f6f4d9&thumb,부산광역시 해운대구 동백로 67,35.15599285,129.1540428
해운대 로데오거리,부산 해운대구,1 051-743-2234,"['경상권', '쇼핑', '연인과함께', '친구와함께', '해운대로데오거리']",https://cdn.visitkorea.or.kr/img/call?cmd=VIEW&id=3c6dcebb-eaf7-495a-ace4-9cd47089825a&thumb,부산광역시 해운대구 좌동순환로 473,35.16366622,129.1694173
해운대레저찜질방,부산 해운대구,051-701-0391,"['경상권', '관광지', '스파', '스포츠센터', '연인과함께', '온천', '친구와함께', '해운대레저찜질방']",https://cdn.visitkorea.or.kr/img/call?cmd=VIEW&id=b2fadc14-b140-412c-ab37-79f153a3d23f&thumb,부산광역시 해운대구 해운대로 814,35.16957715,129.1776775
해운대문화회관,부산 해운대구,051-749-7651,"['가족과함께', '문화공간', '문화시설', '문화예술', '문화예술활동', '복합문화공간']",https://cdn.visitkorea.or.kr/img/call?cmd=VIEW&id=a162cbc6-17a5-4cf8-a485-13a77cea5745&thumb,부산광역시 해운대구 양운로 97,35.17117133,129.17396599999998
해운대온천센터,부산 해운대구,051-740-7000,"['가족여행', '가족체험여행', '관광지', '아이와함께', '연인과함께', '온천&스파']",https://cdn.visitkorea.or.kr/img/call?cmd=VIEW&id=6dc8d537-1008-4d0a-8e91-45ea7a9505ef&thumb,부산광역시 해운대구 중동2로 16,35.17065911,129.1703273
해운대일대(낚시터),부산 해운대구,051-749-5700,"['레포츠', '부산낚시', '해운대낚시']",https://cdn.visitkorea.or.kr/img/call?cmd=VIEW&id=40b59811-9bd2-4940-8830-9512489b3a0c&thumb,부산광역시 해운대구 해운대해변로 264,35.1591167,129.16030130000001
해운대해수욕장,부산 해운대구,051-749-7611,"['15_16한국관광100선', '19_20한국관광100선', '가족여행', '경상권', '경상권']",https://cdn.visitkorea.or.kr/img/call?cmd=VIEW&id=806d3a5c-f4bf-4ad3-8c52-59ae5a988689&thumb,부산광역시 해운대구 해운대해변로 264,35.15910703,129.16028400000002
해월정,부산 해운대구,051-749-5700,"['경상권', '관광지', '대한팔경', '산책코스', '산책하기좋은곳', '역사공부', '역사관광지']",https://cdn.visitkorea.or.kr/img/call?cmd=VIEW&id=ceb71f31-f6bb-4fa7-a04b-594b56fca2d8&thumb,부산광역시 해운대구 중동,35.156818,129.181651
허브랑야생화,부산 금정구,051-515-0130,"['경상권', '관광지', '꽃여행', '이색카페', '자연', '자연&숲치유', '자연좋은곳']",https://cdn.visitkorea.or.kr/img/call?cmd=VIEW&id=e22ad0fc-f8cc-448b-b4fe-e4832548f795&thumb,부산광역시 금정구 북문로 73,35.25422952,129.0519071
허심청,부산 동래구,051-550-2200,"['가족여행', '경상권', '관광지', '남녀노소', '스파', '온천', '한방', '허심청', '휴식공간']",https://cdn.visitkorea.or.kr/img/call?cmd=VIEW&id=7cf1729f-a4fc-48a7-84fb-01e0119a533f&thumb,부산광역시 동래구 금강공원로20번길 23,35.21946372,129.0818704
헤라 (롯데백화점 센텀시티점),부산 해운대구,051-730-3143,"['경상권', '쇼핑', '헤라', '화장품']",https://cdn.visitkorea.or.kr/img/call?cmd=VIEW&id=6e0af77c-0808-4fa6-9c14-77798872ad6e&thumb,부산광역시 해운대구 센텀남대로 59,35.16985335,129.13106969999998
혜원정사,부산 연제구,051-866-7771,"['경상권', '관광지', '불교', '불교문화', '사찰', '사찰여행', '역사', '연중무휴', '자연속으로']",https://cdn.visitkorea.or.kr/img/call?cmd=VIEW&id=4c11a6e9-82a5-451c-a870-0ebbf1e73d0d&thumb,부산광역시 연제구 고분로68번길 47,35.18356819,129.0912996
호천마을,부산 부산진구,,"['경치좋은곳', '관광지', '드라마촬영지', '부산당일치기여행', '부산데이트', '부산야경명소']",https://cdn.visitkorea.or.kr/img/call?cmd=VIEW&id=5f0e7e8e-f8c1-48f6-bad8-9d92003487aa&thumb,부산광역시 부산진구 엄광로 491,35.14421584,129.05121359999998
홈플러스 관광기념품점(부산 해운대점),부산 해운대구,051-746-9061,"['가족여행', '경상권', '기념품판매', '기차여행', '나들이', '나홀로여행', '데이트코스']",https://cdn.visitkorea.or.kr/img/call?cmd=VIEW&id=f640ada6-9198-4094-985f-7356d9fc9070&thumb,부산광역시 해운대구 해운대해변로 140,35.15839552,129.14649509999998
홍법사(부산),부산 금정구,051-508-0345,"['관광지', '불교', '불교문화', '사찰', '사찰여행', '산사', '역사', '연중무휴', '자연좋은곳']",https://cdn.visitkorea.or.kr/img/call?cmd=VIEW&id=bb72f3bf-f6f1-4b0e-bb8d-fa8dfa990126&thumb,부산광역시 금정구 두구로33번길 202,35.30406263,129.1095881
화명생태공원,부산 북구,051-364-4127,"['걷기길', '경상권', '경상권아이와함께', '관광지', '산책길', '산책하기', '산책하기좋은곳']",https://cdn.visitkorea.or.kr/img/call?cmd=VIEW&id=674a7625-b1ba-4944-bc5f-e2d24d3db295&thumb,부산광역시 북구 화명동,35.226687,129.0035
환공어묵 부산역점,부산 동구,02-2232-5765,"['가족여행', '경상권', '기념품판매', '기차여행', '나들이', '나홀로여행', '데이트코스']",https://cdn.visitkorea.or.kr/img/call?cmd=VIEW&id=9bf367c3-1098-404c-ab84-28d8c9bda5c3&thumb,부산광역시 동구 중앙대로 206,35.11760513,129.0450602
황령산,부산 남구,051-851-7851,"['관광지', '야간관광100선', '언택트관광지_100선', '역사를품은곳', '역사문화재']",https://cdn.visitkorea.or.kr/img/call?cmd=VIEW&id=77a9c6d2-8c0d-4ae7-bc92-5fcbf2b20be2&thumb,부산광역시 남구 황령산로 391-39,35.157887200000005,129.0826959
회동수원지,부산 금정구,051-519-4637,"['경치좋은곳', '관광지', '남녀노소', '산책로', '산책코스', '언택트관광지_100선']",https://cdn.visitkorea.or.kr/img/call?cmd=VIEW&id=78076499-1afa-4960-ac85-f6274a704fec&thumb,부산광역시 금정구 개좌로 147,35.22520416,129.11661429999998
회동수원지 둘레길,부산 금정구,051-519-4081,"['걷기좋은길', '레포츠', '자연과함께', '트레킹코스', '회동수원지']",https://cdn.visitkorea.or.kr/img/call?cmd=VIEW&id=b8e889f5-7796-430d-a572-2ac77e56acb0&thumb,부산광역시 금정구 개좌로 147,35.2251511,129.1167009
후 (신세계백화점 센텀시티점),부산 해운대구,051-745-1259,"['경상권', '쇼핑', '신세계백화점센텀시티점', '후']",https://cdn.visitkorea.or.kr/img/call?cmd=VIEW&id=c5a6c1de-db5c-4ff5-9512-1a3bb61b7ee4&thumb,부산광역시 해운대구 센텀남대로 35,35.16881784,129.1295233
