name,region,tel,keyword,photo,address,lat,lon
(구)인천일본제58은행지점,인천 중구,032-760-6474,"['관광지', '교과서속여행', '구인천일본제58은행지점', '문화재', '수도권', '역사']",https://cdn.visitkorea.or.kr/img/call?cmd=VIEW&id=7e62f852-bb74-41d6-a527-df82341d62d6&thumb,인천광역시 중구 신포로23번길 77,37.4728595,126.6211542
BMW 드라이빙센터,인천 중구,080-269-3300,"['BMW', 'BMW드라이빙센터', '관광지', '드라이빙센터', '산업관광', '산업관광지']",https://cdn.visitkorea.or.kr/img/call?cmd=VIEW&id=8b2a0953-0424-46a4-938f-08383dfe16f6&thumb,인천광역시 중구 공항동로 136,37.471794,126.47486359999999
SM면세점 (인천공항점),인천 중구,1522-0800,"['면세점', '쇼핑', '인천공항', '인천공항제1여객터미널', '인천공항제2여객터미널']",https://cdn.visitkorea.or.kr/img/call?cmd=VIEW&id=5e5f1b0c-19a2-4cc1-ba95-7fa526a52328&thumb,인천광역시 중구 공항로 271,37.44761097,126.45234669999999
[강화 나들길 제1코스] 심도역사문화길,인천 강화군,032-934-1906,"['강화나들길', '걷기길', '남녀노소', '레포츠', '산책길', '산책코스', '산책하기']",https://cdn.visitkorea.or.kr/img/call?cmd=VIEW&id=a34a4339-38fc-4cea-8427-489d50c10478&thumb,인천광역시 강화군 강화읍 청하동길 24,37.7465557,126.48156709999999
[강화 나들길 제2코스] 호국돈대길,인천 강화군,032-934-1906,"['강화나들길', '걷기길', '경치좋은곳', '레포츠', '산책길', '산책하기', '산책하기좋은곳']",https://cdn.visitkorea.or.kr/img/call?cmd=VIEW&id=8998254e-ea35-4297-af10-d7d84082709d&thumb,인천광역시 강화군 강화읍 청하동길 24,37.7465557,126.48156709999999
[강화 나들길 제3코스] 고려왕릉 가는 길,인천 강화군,032-934-1906,"['강화나들길', '고려왕릉', '레포츠', '산책길', '역사탐험', '연인과함께', '친구와함께']",https://cdn.visitkorea.or.kr/img/call?cmd=VIEW&id=f0fca26a-798c-4fe2-9d8f-5b056e219425&thumb,인천광역시 강화군 강화읍 청하동길 24,37.7465557,126.48156709999999
[강화 나들길 제4코스] 해가 지는 마을 길,인천 강화군,032-934-1906,"['걷기길', '농촌마을', '레포츠', '산책하기좋은곳', '연인과함께', '자연풍경', '친구와함께']",https://cdn.visitkorea.or.kr/img/call?cmd=VIEW&id=f3514823-c2fe-4047-a625-be4b7fa6adc8&thumb,인천광역시 강화군 강화읍 청하동길 24,37.7465557,126.48156709999999
[강화 나들길 제5코스] 고비고개길,인천 강화군,032-934-1906,"['걷기길', '레포츠', '산책길', '산책하기', '산책하기좋은곳', '연인과함께', '자연마을']",https://cdn.visitkorea.or.kr/img/call?cmd=VIEW&id=77bfdce0-f88d-47ad-a51d-32b4df17ba28&thumb,인천광역시 강화군 강화읍 청하동길 24,37.7465557,126.48156709999999
[강화 나들길 제6코스] 화남생가 가는 길,인천 강화군,032-934-1906,"['경치좋은곳', '레포츠', '바다경치', '산책길', '산책하기', '산책하기좋은곳', '연인과함께']",https://cdn.visitkorea.or.kr/img/call?cmd=VIEW&id=fbed13b9-b9d3-4821-a0f0-5e08da45fb35&thumb,인천광역시 강화군 강화읍 청하동길 24,37.7465557,126.48156709999999
[강화 나들길 제7코스] 낙조보러 가는 길,인천 강화군,032-934-1906,"['걷기길', '레포츠', '산책길', '산책하기', '산책하기좋은곳', '연인과함께', '자연마을']",https://cdn.visitkorea.or.kr/img/call?cmd=VIEW&id=d12dcd30-59e2-4cb1-84b1-cd9ca3ce275e&thumb,인천광역시 강화군 강화읍 청하동길 24,37.7465557,126.48156709999999
[강화 나들길 제8코스] 철새 보러 가는 길,인천 강화군,032-934-1906,"['걷기길', '레포츠', '산책하기좋은곳', '연인과함께', '자연풍경', '철새도래지']",https://cdn.visitkorea.or.kr/img/call?cmd=VIEW&id=8a33c0d2-6d8d-4559-98d5-ea13142bda89&thumb,인천광역시 강화군 강화읍 청하동길 24,37.7465557,126.48156709999999
[인천 개항 누리길] 1시간 코스,인천 중구,032-440-4055,"['누리길', '레포츠', '산책코스', '산책하기좋은곳', '아이와함께', '역사', '역사공부']",https://cdn.visitkorea.or.kr/img/call?cmd=VIEW&id=fbb381f4-36ee-4d8e-9256-29bb89d556b8&thumb,인천광역시 중구 제물량로 269,37.4779641,126.6177128
[인천 개항 누리길] 2시간 코스,인천 중구,032-440-4055,"['누리길', '레포츠', '산책길', '산책코스', '산책하기좋은곳', '아이와함께', '역사']",https://cdn.visitkorea.or.kr/img/call?cmd=VIEW&id=c1ae9b42-7903-45bd-b5ef-125bb6cd29fe&thumb,인천광역시 중구 제물량로 269,37.4779641,126.6177128
[인천 개항 누리길] 3시간 코스,인천 중구,032-440-4055,"['걷기길', '레포츠', '산책코스', '산책하기좋은곳', '수도권', '아이와함께', '역사']",https://cdn.visitkorea.or.kr/img/call?cmd=VIEW&id=8d5de004-2e13-4ab1-bfdf-957c9ac66760&thumb,인천광역시 중구 제물량로 269,37.4779641,126.6177128
가천박물관,인천 연수구,032-833-4747,"['가천박물관', '근대문화유산', '무료관람', '문화시설', '박물관', '서울근교여행']",https://cdn.visitkorea.or.kr/img/call?cmd=VIEW&id=f6482062-f4e4-4b0c-b485-ce92df51cd1c&thumb,인천광역시 연수구 청량로102번길 40-9,37.41847997,126.6576026
갈매기배낚시,인천 동구,032-765-4191,"['레포츠', '바다낚시', '인천바다', '인천바다낚시']",https://cdn.visitkorea.or.kr/img/call?cmd=VIEW&id=undefined&thumb,인천광역시 동구 보세로 4,37.4874962,126.6232088
갑곶돈대,인천 강화군,032-930-7077,"['가족여행', '갑곶돈대', '관광지', '나들이', '당일치기여행', '문화재', '서울근교여행']",https://cdn.visitkorea.or.kr/img/call?cmd=VIEW&id=9dda5aa9-5bc1-4c0e-9c03-f124150e0868&thumb,인천광역시 강화군 강화읍 해안동로1366번길 18,37.7345234,126.5160972
강화 갑곶리 탱자나무,인천 강화군,032-930-3124,"['갑곶리탱자나무', '관광지', '수도권', '자연', '천연기념물']",https://cdn.visitkorea.or.kr/img/call?cmd=VIEW&id=59c816dc-27ee-49a2-877e-a4d919281653&thumb,인천광역시 강화군 강화읍 동문로 119,37.7549436,126.49420490000001
강화 고인돌 유적 [유네스코 세계문화유산],인천 강화군,032-930-3625,"['가족여행', '강화고인돌유적', '관광지', '교과서속여행', '나들이', '당일치기여행']",https://cdn.visitkorea.or.kr/img/call?cmd=VIEW&id=d76a9195-ae55-42ab-ba55-8d83b08156fa&thumb,인천 강화군 하점면 부근리,37.7624839,126.43737720000001
강화 길정지,인천 강화군,032-937-3114,"['강화', '낚시터', '레포츠', '밤낚시']",https://cdn.visitkorea.or.kr/img/call?cmd=VIEW&id=bc2fac00-2628-4a53-8dcb-9e7fb2223651&thumb,인천광역시 강화군 양도면 길정리 산201,37.661619099999996,126.46159909999999
강화 달빛동화마을,인천 강화군,032-937-9960,"['가족과함께', '가족체험', '관광지', '농촌', '농촌체험', '농촌체험마을', '농촌체험여행']",https://cdn.visitkorea.or.kr/img/call?cmd=VIEW&id=5bf002ba-5bce-4a7d-bc2f-73bd640bd2cb&thumb,인천광역시 강화군 양도면 강화남로921번길 10-6,37.6808071,126.41647350000001
강화 덕진진,인천 강화군,032-930-7074,"['강화덕진진', '관광지', '덕진진', '바다풍경', '수도권', '아이와함께', '역사', '역사공부']",https://cdn.visitkorea.or.kr/img/call?cmd=VIEW&id=045dd90b-d8ae-4bdb-9c9a-c11cc5fbdbbe&thumb,인천광역시 강화군 불은면 덕진로 34,37.650682399999994,126.5238763
강화 동막해변,인천 강화군,032-937-4445,"['강화동막해변', '관광지', '동막해변', '바다풍경', '수도권', '자연', '체험학습']",https://cdn.visitkorea.or.kr/img/call?cmd=VIEW&id=bd65a320-7f82-4f31-9b80-8a2f196d66ed&thumb,인천광역시 강화군 화도면 해안남로 1481,37.5925761,126.4581875
강화 사기리 탱자나무,인천 강화군,032-934-7500,"['강화사기리탱자나무', '관광지', '수도권', '자연', '천연기념물']",https://cdn.visitkorea.or.kr/img/call?cmd=VIEW&id=411caaad-97da-4a0e-a435-ef4f7d714162&thumb,인천광역시 강화군 화도면 해안남로1114번길 6,37.616993799999996,126.45712890000001
강화 서도 중앙교회,인천 강화군,032-760-6474,"['강화서도중앙교회', '관광지', '교과서속여행', '문화재', '수도권', '역사', '역사공부']",https://cdn.visitkorea.or.kr/img/call?cmd=VIEW&id=de6efa6c-631f-4d4d-848f-d649ce968082&thumb,인천광역시 강화군 서도면 주문도길 256-1,37.6435442,126.24425959999999
강화 석수문,인천 강화군,032-930-4571,"['강화석수문', '관광지', '서울근교여행', '아이와함께', '역사', '역사공부', '역사관광지']",https://cdn.visitkorea.or.kr/img/call?cmd=VIEW&id=9fef4dee-6d7e-4095-acd7-f7af9ee85813&thumb,인천광역시 강화군 강화읍 국화리,37.7418929,126.45813319999999
강화 선원사지,인천 강화군,032-933-8234,"['관광지', '사적', '선원사지', '수도권', '역사', '역사공부', '역사관광지', '역사를품은곳']",https://cdn.visitkorea.or.kr/img/call?cmd=VIEW&id=250673c9-a846-4cd8-ae9f-01f67dfe66b1&thumb,인천광역시 강화군 선원면 선원사지로 222,37.719797799999995,126.4921605
강화 아르미애월드,인천 강화군,032-930-4124,"['가족과함께', '가족여행', '강화아르미애월드', '관광지', '미세먼지_피하는_실내여행']",https://cdn.visitkorea.or.kr/img/call?cmd=VIEW&id=91a6eabb-5087-4f61-98ec-8f6cad928101&thumb,인천광역시 강화군 불은면 중앙로 742-2,37.704706200000004,126.43435149999999
강화 용두레마을,인천 강화군,032-933-5711,"['관광지', '농촌마을', '농촌여행', '자연관광지', '자연마을', '자연여행', '자연체험']",https://cdn.visitkorea.or.kr/img/call?cmd=VIEW&id=70843658-3f50-4d9f-9794-cfd26df368f3&thumb,인천광역시 강화군 내가면 황청포구로385번길 8,37.7186657,126.3600707
강화 인삼센터,인천 강화군,032-933-8913,"['강화인삼센터', '쇼핑', '수도권', '인삼', '특산물']",https://cdn.visitkorea.or.kr/img/call?cmd=VIEW&id=3721fc5c-14a1-4042-9501-2858b5083fcd&thumb,인천광역시 강화군 강화읍 강화대로 335,37.74220811,126.4925195
강화 자전거 관광코스,인천 강화군,032-930-3731,['레포츠'],https://cdn.visitkorea.or.kr/img/call?cmd=VIEW&id=416d17a3-b510-4059-934d-37a63d2e72b7&thumb,인천광역시 강화군 강화읍,37.748320899999996,126.48356629999999
강화 장정리 석조여래입상,인천 강화군,032-930-4571,"['강화장정리석조여래입상', '관광지', '보물', '수도권', '역사', '역사공부', '역사관광지']",https://cdn.visitkorea.or.kr/img/call?cmd=VIEW&id=0cf0aa61-77b2-44f0-aa84-0305944e5d18&thumb,인천광역시 강화군 하점면 장정리,37.781112,126.4280737
강화 장정리 오층석탑,인천 강화군,032-930-4571,"['강화장정리오층석탑', '관광지', '보물', '수도권', '역사', '역사공부', '역사관광지']",https://cdn.visitkorea.or.kr/img/call?cmd=VIEW&id=4decd22a-ca79-45e2-a619-9cd9ae13f997&thumb,인천광역시 강화군 하점면 장정리,37.781112,126.4280737
강화 중앙시장,인천 강화군,032-933-7104,"['가족여행', '강화중앙시장', '사계절', '쇼핑', '수도권', '아이와함께', '이색체험']",https://cdn.visitkorea.or.kr/img/call?cmd=VIEW&id=ce5c3d07-e140-4f89-afcc-36f650a7149e&thumb,인천광역시 강화군 강화읍 강화대로 429,37.74685524,126.4838615
강화 참성단,인천 강화군,032-930-4571,"['관광지', '사적', '수도권', '역사', '역사공부', '역사관광', '역사관광지', '역사를품은곳']",https://cdn.visitkorea.or.kr/img/call?cmd=VIEW&id=a7696f99-08c3-45a4-82ee-9600569c2940&thumb,인천광역시 강화군 화도면 흥왕리,37.60520579999999,126.42221200000002
강화 초지진,인천 강화군,032-930-7072,"['강화초지진', '관광지', '교과서속여행', '서울근교여행', '아이와함께', '역사']",https://cdn.visitkorea.or.kr/img/call?cmd=VIEW&id=26d3ed14-1c19-491b-abf2-b3a9ee095e4e&thumb,인천광역시 강화군 길상면 해안동로 58,37.6334878,126.53230890000002
강화 풍물시장,인천 강화군,032-930-7042,"['가족여행', '강화풍물시장', '사계절', '쇼핑', '수도권', '시장맛집', '아이와함께']",https://cdn.visitkorea.or.kr/img/call?cmd=VIEW&id=021e1dc7-4a9d-4afb-89b7-9a06d3138a81&thumb,인천광역시 강화군 강화읍 중앙로 17-9,37.74142155,126.4928692
강화 홍릉,인천 강화군,032-930-4571,"['관광지', '교과서속여행', '문화재', '수도권', '역사', '역사공부', '역사관광지']",https://cdn.visitkorea.or.kr/img/call?cmd=VIEW&id=469d4375-ecc4-4d92-ac1e-7b78ef41d749&thumb,인천 강화군 강화읍 국화리,37.7418929,126.45813319999999
강화 화문석마을,인천 강화군,032-934-2290,"['가족체험', '관광지', '농촌', '농촌체험', '농촌체험마을', '농촌체험학습', '산책하기좋은곳']",https://cdn.visitkorea.or.kr/img/call?cmd=VIEW&id=4ead57e5-d031-4293-b9aa-601e59ddf039&thumb,인천광역시 강화군 송해면 전망대로468번길 11,37.802681299999996,126.4573875
강화갯벌 및 저어새번식지,인천 강화군,032-930-3124,"['강화갯벌', '관광지', '수도권', '자연', '저어새번식지', '천연기념물']",https://cdn.visitkorea.or.kr/img/call?cmd=VIEW&id=6264f833-9be4-49b9-b713-e540a66902f9&thumb,인천광역시 강화군 화도면 해안남로,37.617115000000005,126.4127838
강화갯벌센터,인천 강화군,032-930-7064,"['강화갯벌센터', '관광지', '동검리', '동막리', '바다경치', '생태관광', '생태관광지']",https://cdn.visitkorea.or.kr/img/call?cmd=VIEW&id=0508e0bd-526c-471b-9865-b866436eef72&thumb,인천광역시 강화군 화도면 해안남로 2293-37,37.617115000000005,126.4127838
강화관광플랫폼,인천 강화군,032-934-7500,"['VR체험', '가족과함께', '강화가볼만한곳', '관광안내', '관광안내소', '관광지']",https://cdn.visitkorea.or.kr/img/call?cmd=VIEW&id=323b83ce-647c-4bea-bc17-ea1f953217f6&thumb,인천광역시 강화군 강화읍 강화대로 430,37.7483601,126.48343759999999
강화도,인천 강화군,032-934-7500,"['강화도', '관광지', '섬여행', '수도권', '역사유적지', '자연']",https://cdn.visitkorea.or.kr/img/call?cmd=VIEW&id=371462ef-3879-4bf1-bc1c-df9916e1896f&thumb,인천광역시 강화군 강화읍 강화대로,37.743737100000004,126.4956434
강화도,인천 강화군,032-933-3624,"['강화군', '강화바다', '강화바다낚시', '레포츠', '바다낚시', '인천권']",https://cdn.visitkorea.or.kr/img/call?cmd=VIEW&id=b97ca6c5-e835-4a1f-9000-dd2b0521051f&thumb,인천광역시 강화군 강화읍 강화대로,37.743737100000004,126.4956434
"강화도 남단(여차리, 선두리 해안)",인천 강화군,032-934-7500,"['갯벌체험', '겨울방학가볼만한곳', '관광지', '교동도', '볼음도', '생태관광', '생태관광지']",https://cdn.visitkorea.or.kr/img/call?cmd=VIEW&id=72c91c61-26a1-47e0-97c5-dbd60794d9ed&thumb,인천광역시 강화군 일대,37.7467263,126.48787309999999
강화도 황청낚시터,인천 강화군,032-933-0105,"['강화도', '낚시터', '레포츠', '황청낚시터']",https://cdn.visitkorea.or.kr/img/call?cmd=VIEW&id=1288e07c-f4c1-40e7-8da3-f45384127940&thumb,인천광역시 강화군 내가면 황청포구로443번길 90,37.7147779,126.3647939
강화도령화문석,인천 강화군,032-934-6859,"['가족과함께', '강화가볼만한곳', '공예품', '관광지', '남녀노소', '산업관광', '산업관광지']",https://cdn.visitkorea.or.kr/img/call?cmd=VIEW&id=670d42f0-b410-420c-bab9-d5e53908afb8&thumb,인천광역시 강화군 송해면 강화대로 891-10,37.7684169,126.44476609999998
강화도제적봉 평화전망대,인천 강화군,032-930-7062,"['강화도제적봉평화전망대', '관광지', '교육여행', '수도권', '아이와함께', '안보관광']",https://cdn.visitkorea.or.kr/img/call?cmd=VIEW&id=7c7845e4-6fa2-4e8c-b6ea-9e4ab7a00b1a&thumb,인천광역시 강화군 양사면 전망대로 797,37.8269784,126.43161909999999
강화레포츠파크,인천 강화군,032-937-7481,"['가족과함께', '남녀노소', '레포츠', '레포츠여행', '레포츠체험', '복합레저스포츠']",https://cdn.visitkorea.or.kr/img/call?cmd=VIEW&id=835c9569-d63a-4fc8-aad2-1a9b643eb7e0&thumb,인천광역시 강화군 불은면 중앙로 546-34,37.7154831,126.4534337
강화문예회관,인천 강화군,032-930-7046,"['강화문예회관', '남녀노소', '문화공간', '문화시설']",https://cdn.visitkorea.or.kr/img/call?cmd=VIEW&id=85d62662-6481-4745-b061-6dcd26043940&thumb,인천광역시 강화군 강화읍 고비고개로19번길 12,37.74536636,126.4745728
강화문학관,인천 강화군,032-933-0605,"['강화문학관', '교육프로그램', '문화시설', '인천권']",https://cdn.visitkorea.or.kr/img/call?cmd=VIEW&id=83017a7f-e077-43aa-8d32-92f919d135a1&thumb,인천광역시 강화군 강화읍 관청길 40,37.74955128,126.4855737
강화문화원(강화미술관),인천 강화군,031-932-0011,"['강화문화원', '문화강좌', '문화시설', '열린문화공간']",https://cdn.visitkorea.or.kr/img/call?cmd=VIEW&id=429094b4-e3e8-45cb-a514-75cbb38b8b98&thumb,인천광역시 강화군 강화읍 남문로 52,37.74254964,126.4879725
강화산성,인천 강화군,032-932-5464,"['가족여행', '강화산성', '관광지', '나들이', '당일치기여행', '드라이브여행', '문화재']",https://cdn.visitkorea.or.kr/img/call?cmd=VIEW&id=948a2052-4443-45ad-a7f3-663725728849&thumb,인천 강화군 강화읍 국화리 산3번지,37.7562982,126.476224
강화씨사이드리조트 루지,인천 강화군,032-930-9000,"['가족과함께', '관광지', '남녀노소', '레포츠여행', '레포츠체험', '루지', '복합레포츠']",https://cdn.visitkorea.or.kr/img/call?cmd=VIEW&id=06a5027a-a8af-4921-861a-6c45fa41bd63&thumb,인천광역시 강화군 길상면 장흥로 223-3,37.6199189,126.5010626
강화역사박물관,인천 강화군,032-934-7887,"['강화역사박물관', '교과서속여행', '나들이', '문화시설', '박물관', '실내여행지']",https://cdn.visitkorea.or.kr/img/call?cmd=VIEW&id=5f73479e-3893-4461-b496-dd87f219394b&thumb,인천광역시 강화군 하점면 강화대로 994-19,37.77371034,126.4353383
강화유수부동헌,인천 강화군,032-930-4571,"['강화유수부동헌', '관광지', '수도권', '역사', '역사공부', '역사관광지', '역사를품은곳']",https://cdn.visitkorea.or.kr/img/call?cmd=VIEW&id=5a201cd3-192a-47c5-89c1-133ae8dde544&thumb,인천광역시 강화군 강화읍 북문길 42,37.7516196,126.485242
강화유수부이방청,인천 강화군,032-930-4571,"['강화유수부이방청', '관광지', '수도권', '역사', '역사공부', '역사관광지', '역사를품은곳']",https://cdn.visitkorea.or.kr/img/call?cmd=VIEW&id=841785f1-b1ca-4709-990d-e62c3cfd1f22&thumb,인천광역시 강화군 강화읍 북문길 42,37.7516196,126.485242
강화자연사박물관,인천 강화군,032-930-7090,"['강화가볼만한곳', '강화자연사박물관', '겨울방학가볼만한곳', '문화시설', '박물관']",https://cdn.visitkorea.or.kr/img/call?cmd=VIEW&id=230dc421-bf62-43c2-9161-fe66ab889a81&thumb,인천광역시 강화군 하점면 강화대로 994-33,37.77459527,126.4347208
강화전쟁박물관,인천 강화군,032-934-4291,"['강화전쟁박물관', '문화시설', '역사체험', '인천권']",https://cdn.visitkorea.or.kr/img/call?cmd=VIEW&id=aff15fc5-3149-4456-8cc1-c66e7b727b49&thumb,인천광역시 강화군 강화읍 해안동로1366번길 18,37.73357906,126.5159972
강화전적지,인천 강화군,032-930-7077,"['가족여행', '강화전적지', '관광지', '나들이', '당일치기여행', '드라이브여행']",https://cdn.visitkorea.or.kr/img/call?cmd=VIEW&id=37adde0f-2b13-40ba-bd39-26d52d48767d&thumb,인천광역시 강화군 강화읍 해안동로1366번길 18,37.7345234,126.5160972
강화젓갈,인천 강화군,032-933-2497,"['가족여행', '강화젓갈', '먹거리', '사계절', '쇼핑', '수도권', '아이와함께', '이색체험']",https://cdn.visitkorea.or.kr/img/call?cmd=VIEW&id=2366214d-b52e-44b8-b00c-b264fced23ff&thumb,인천광역시 강화군 내가면 해안서로 899-2,37.7008094,126.3784764
강화토산품판매장,인천 강화군,032-932-4010,"['강화토산품판매장', '기념품판매', '쇼핑', '인천권', '특산물']",https://cdn.visitkorea.or.kr/img/call?cmd=VIEW&id=11c98be5-9dcc-4c31-91ba-0b7d6312a8c8&thumb,인천광역시 강화군 강화읍 중앙로 17-9,37.74142155,126.4928692
강화해수랜드,인천 강화군,032-937-9721,"['가족과함께', '강화해수랜드', '관광지', '목욕탕', '불한증막', '해수탕', '휴식여행']",https://cdn.visitkorea.or.kr/img/call?cmd=VIEW&id=975b0f32-6f3f-495a-a8c1-ea2b7d1e10a0&thumb,"인천광역시 강화군 길상면 해안남로 13-12
",37.6270964,126.5340636
강화향교,인천 강화군,032-930-4571,"['강화향교', '관광지', '수도권', '역사', '역사공부', '역사관광', '역사관광지', '역사를품은곳']",https://cdn.visitkorea.or.kr/img/call?cmd=VIEW&id=b67ab17b-b9fd-41da-8d0d-13503407c2a5&thumb,인천광역시 강화군 강화읍 향교길 58,37.7545031,126.4779403
강화화문석문화관,인천 강화군,032-930-7060,"['강화화문석문화관', '문화강좌', '문화시설', '수도권']",https://cdn.visitkorea.or.kr/img/call?cmd=VIEW&id=fb830250-a165-4884-993e-a4df29a21c57&thumb,인천광역시 강화군 송해면 장정양오길 413,37.79571134,126.4547784
개항장 거리,인천 중구,032-773-7511,"['건축', '건축여행', '관광지', '근대건축', '근대건축물', '역사', '역사공부', '역사를품은곳']",https://cdn.visitkorea.or.kr/img/call?cmd=VIEW&id=ac1f2dc4-1f78-47e5-83cb-fde4b9826b27&thumb,인천광역시 중구 제물량로232번안길 27,37.472844200000004,126.62099850000001
거잠포해변,인천 중구,032-760-7532,"['가족여행', '거잠포해변', '관광지', '바다풍경', '사계절', '서울근교여행', '수도권']",https://cdn.visitkorea.or.kr/img/call?cmd=VIEW&id=59936d2f-6e3b-4229-b3d5-682c5788c994&thumb,인천광역시 중구 잠진도길 11,37.4221521,126.42320749999999
경인 아라뱃길,인천 서구,1899-3650,"['경인아라뱃길', '관광지', '교과서속여행', '레포츠체험', '산업관광', '수도권']",https://cdn.visitkorea.or.kr/img/call?cmd=VIEW&id=618c258b-78d7-46eb-bca8-f890f2043e5e&thumb,인천광역시 서구 정서진1로 41,37.5569312,126.604845
계룡돈대,인천 강화군,032-930-4571,"['계룡돈대', '관광지', '기념물', '수도권', '역사', '역사공부', '역사관광지', '역사를품은곳']",https://cdn.visitkorea.or.kr/img/call?cmd=VIEW&id=22715925-9ca7-48dc-9be1-092e2b20d0c2&thumb,인천광역시 강화군 내가면 황청리,37.7151674,126.36394779999999
계산국민체육센터,인천 계양구,032-717-7600,"['레포츠', '인천계양구', '체육센터']",https://cdn.visitkorea.or.kr/img/call?cmd=VIEW&id=199b8600-b91c-49b5-b531-3d90728d56f2&thumb,인천광역시 계양구 주부토로 580,37.545993100000004,126.72916790000001
계양경기장,인천 계양구,032-550-3500,"['계양경기장', '레포츠', '인천계양구', '종합경기장']",https://cdn.visitkorea.or.kr/img/call?cmd=VIEW&id=7bbfee28-cb11-400a-9cc4-909038d82328&thumb,인천광역시 계양구 봉오대로 855,37.5300933,126.72253570000001
계양경기장 계양체육관,인천 계양구,032-550-3500,"['레포츠', '실내체육관', '인천계양구', '종합경기장']",https://cdn.visitkorea.or.kr/img/call?cmd=VIEW&id=b02ab53e-eec8-4579-8d07-45e60f4f7442&thumb,인천광역시 계양구 봉오대로 855,37.5300933,126.72253570000001
계양경기장 아시아드양궁장,인천 계양구,032-550-3500,"['계양경기장', '계양경기장아시아드양궁장', '레포츠', '아시아드양궁장', '양궁장']",https://cdn.visitkorea.or.kr/img/call?cmd=VIEW&id=8c6ef32f-02bc-49e6-af94-82ba3d943edd&thumb,인천광역시 계양구 봉오대로 855,37.5300933,126.72253570000001
계양공원,인천 계양구,032-450-5663,"['걷기길', '계양공원', '관광지', '당일치기여행', '등산', '등산로', '서울근교여행']",https://cdn.visitkorea.or.kr/img/call?cmd=VIEW&id=47358b7d-4d29-438a-82a7-0c8d31f1fbdb&thumb,인천광역시 계양구 계양산로75번길 26,37.5500265,126.72361200000002
계양문화회관,인천 계양구,032-551-6602,"['계양문화회관', '데이트코스', '문화시설', '복합문화공간', '서울근교여행', '수도권']",https://cdn.visitkorea.or.kr/img/call?cmd=VIEW&id=42230d09-4bbd-4410-8c65-17a64ef94fcd&thumb,인천광역시 계양구 계양산로35번길 11,37.54607888,126.7181312
계양산,인천 계양구,032-450-5654,"['걷기길', '계양산', '관광지', '당일치기여행', '등산', '등산로', '서울근교여행']",https://cdn.visitkorea.or.kr/img/call?cmd=VIEW&id=b4577a13-1994-4cd8-a846-1ab2c5196490&thumb,인천광역시 계양구 계양산로75번길 26,37.5500265,126.72361200000002
계양산 둘레길,인천 계양구,032-450-4902,"['남녀노소', '레포츠', '산책코스', '언택트관광지_100선', '자연속으로', '자연여행']",https://cdn.visitkorea.or.kr/img/call?cmd=VIEW&id=4fa34a7f-2dca-40e6-b552-83cb3ec17715&thumb,인천광역시 계양구 다남동 산65-1,37.5601148,126.71600829999998
계양산 산림욕장,인천 계양구,032-450-5655,"['걷기길', '계양산산림욕장', '관광지', '단풍여행', '당일치기여행', '등산', '등산로']",https://cdn.visitkorea.or.kr/img/call?cmd=VIEW&id=bda32b3a-3b07-4688-b13f-83276993ad21&thumb,인천광역시 계양구 경명대로955번길 17,37.5470052,126.71288359999998
고려궁지,인천 강화군,032-930-7078,"['고려궁지', '관광지', '교과서속여행', '수도권', '아이와함께', '역사', '역사공부']",https://cdn.visitkorea.or.kr/img/call?cmd=VIEW&id=9fa3f47c-3fcb-4818-be1a-b03c266d5d61&thumb,인천광역시 강화군 강화읍 강화대로 394,37.747172,126.487179
고려산,인천 강화군,032-930-3515,"['고려산', '관광지', '등산', '사진찍기', '사진찍기좋은곳', '수도권', '자연', '자연관광지']",https://cdn.visitkorea.or.kr/img/call?cmd=VIEW&id=25ca072c-115d-40d1-b7c9-3f4665aad70e&thumb,인천광역시 강화군 내가면 고천리,37.7256645,126.41715520000001
광성보,인천 강화군,032-930-7070,"['관광지', '광성보', '수도권', '역사', '역사공부', '역사관광지', '역사를품은곳']",https://cdn.visitkorea.or.kr/img/call?cmd=VIEW&id=0043136a-cc74-47ae-92cd-d2a2f3ea8eae&thumb,인천광역시 강화군 불은면 해안동로466번길 27,37.6657656,126.5294146
교동도 대룡시장,인천 강화군,032-930-4500,"['가족여행', '교동도대룡시장', '나들이', '나홀로여행', '데이트코스', '먹거리']",https://cdn.visitkorea.or.kr/img/call?cmd=VIEW&id=5165bba1-bec4-4eff-8c75-48f3ccddfc1b&thumb,인천광역시 강화군 교동면 교동남로 35,37.78048938,126.2810496
교동도(강화),인천 강화군,032-934-1000,"['2020_휴가철찾아가고싶은_33섬', '가족과함께', '강화도여행', '관광지', '아이와함께']",https://cdn.visitkorea.or.kr/img/call?cmd=VIEW&id=cb4bd0b6-bf91-406f-bbf9-5ca5fbb68a41&thumb,인천광역시 강화군 교동면 교동남로 35,37.7821086,126.2795601
교동제비집,인천 강화군,032-934-1000,"['VR체험', '강화가볼만한곳', '관광지', '남녀노소', '아이와함께', '연인과함께']",https://cdn.visitkorea.or.kr/img/call?cmd=VIEW&id=76dd6960-5162-49ae-ab61-8b1ce1eb6cc0&thumb,인천광역시 강화군 교동면 교동남로 20-1,37.7821086,126.2795601
교동향교,인천 강화군,032-932-6931,"['관광지', '교동향교', '수도권', '역사', '역사공부', '역사관광지', '역사를품은곳']",https://cdn.visitkorea.or.kr/img/call?cmd=VIEW&id=fda7df87-a17f-482b-aaf8-14690b30c82d&thumb,인천광역시 강화군 교동면 교동남로 229-49,37.7751023,126.29695430000001
구 일본우선(郵船)주식회사 인천지점,인천 중구,032-760-6474,"['건축물', '건축사', '건축여행', '관광지', '국내건축물', '근대건축물', '역사공부']",https://cdn.visitkorea.or.kr/img/call?cmd=VIEW&id=29930048-647e-4b9b-ad91-4466c420c7ba&thumb,인천광역시 중구 제물량로218번길 3,37.4729295,126.6200473
국립생물자원관,인천 서구,032-590-7000,"['국립생물자원관', '문화시설', '미세먼지_피하는_실내여행', '생물다양성', '서울근교여행']",https://cdn.visitkorea.or.kr/img/call?cmd=VIEW&id=48309ec4-155d-4da6-bebd-663e698c3616&thumb,인천광역시 서구 환경로 42,37.56915184,126.6385146
국사봉(인천),인천 중구,032-777-1330,"['관광지', '자연']",https://cdn.visitkorea.or.kr/img/call?cmd=VIEW&id=91b68ada-5435-4397-bfa4-f5d03771d808&thumb,인천광역시 중구 하나개로,37.3855277,126.4177482
국자와 주걱,인천 강화군,010-2598-3947,"['관광지', '국내힐링여행', '북스테이', '연인과함께', '이색체험', '휴식공간', '휴식여행']",https://cdn.visitkorea.or.kr/img/call?cmd=VIEW&id=283cb14c-e2c6-4ed5-81d3-1c7fe7c9fed3&thumb,인천광역시 강화군 양도면 강화남로428번길 46-27,37.65393220000001,126.44505749999999
국화지낚시터,인천 강화군,010-3448-6783,"['가족과함께', '강화읍', '국화지낚시터', '낚시', '레포츠']",https://cdn.visitkorea.or.kr/img/call?cmd=VIEW&id=4dc408fb-0eaa-4d9b-bae1-0599b2fab7f9&thumb,인천광역시 강화군 강화읍 국화길 51,37.74824270000001,126.46748229999999
굴업도,인천 옹진군,032-899-3711,"['경치좋은곳', '관광지', '굴업도', '바다낚시', '서울근교여행', '섬', '수도권', '언택트관광지_100선']",https://cdn.visitkorea.or.kr/img/call?cmd=VIEW&id=36c678bf-990a-4261-b620-7ad01bcf91e8&thumb,인천 옹진군 덕적면 굴업리,37.190507200000006,125.97796140000001
굴포천 생태하천,인천 부평구,032-504-2114,"['관광지', '자연']",https://cdn.visitkorea.or.kr/img/call?cmd=VIEW&id=86075ac5-b030-4aea-97f9-d20a66403c5c&thumb,인천광역시 부평구 굴포로 141,37.511813599999996,126.7366226
"길상공설시장 (4일, 9일)",인천 강화군,02-930-3352,"['가족여행', '길상공설시장', '사계절', '쇼핑', '수도권', '아이와함께', '이색체험']",https://cdn.visitkorea.or.kr/img/call?cmd=VIEW&id=2915e608-d64a-47fa-ac03-5aac85ebf4ae&thumb,인천광역시 강화군 길상면 온수길33번길 2,37.63913403,126.4907592
김상용순절비,인천 강화군,032-930-4571,"['관광지', '김상용순절비', '수도권', '역사', '역사공부', '역사관광지', '역사를품은곳']",https://cdn.visitkorea.or.kr/img/call?cmd=VIEW&id=42b67901-f0d3-49a3-848b-997d8b38ae24&thumb,인천광역시 강화군 강화읍 관청리,37.7505815,126.4847126
나인승마클럽,인천 계양구,032-556-8005,"['가족과함께', '레포츠', '승마', '승마레슨', '승마장', '승마체험', '승마캠프', '승마트레킹']",https://cdn.visitkorea.or.kr/img/call?cmd=VIEW&id=6101919a-bd3a-4d1a-b1f4-5286510475f2&thumb,인천 계양구 방축로76번길 61,37.5569394,126.7327554
남동소래아트홀,인천 남동구,032-460-0560,"['남동소래아트홀', '데이트코스', '문화공간', '문화시설', '문화행사', '복합문화공간']",https://cdn.visitkorea.or.kr/img/call?cmd=VIEW&id=a3678a2a-6aca-47dc-9740-ab896231fe89&thumb,인천광역시 남동구 아암대로1437번길 32,37.38746375,126.7245963
녹청자박물관,인천 서구,032-560-2932,"['녹청자박물관', '문화시설', '박물관', '수도권', '아이와함께', '이색체험', '전시관']",https://cdn.visitkorea.or.kr/img/call?cmd=VIEW&id=a73f7eff-2feb-4f8c-b6a7-d5f47454f284&thumb,인천광역시 서구 도요지로 54,37.55820186,126.6562692
논현포대,인천 남동구,032-440-4053,"['관광지', '논현포대', '문화재', '수도권', '역사', '역사공부', '역사관광지', '역사를품은곳']",https://cdn.visitkorea.or.kr/img/call?cmd=VIEW&id=7890970f-b2d6-4a02-92f6-903f662e5300&thumb,인천광역시 남동구 호구포로 203-31,37.4184349,126.7116593
능허대지,인천 연수구,032-749-7312,"['가족여행', '관광지', '능허대지', '도심여행', '사계절', '산책길', '산책하기', '산책하기좋은곳']",https://cdn.visitkorea.or.kr/img/call?cmd=VIEW&id=ea15425b-b7ce-4e37-99ab-afddb65cffd6&thumb,인천광역시 연수구 옥련동,37.42325770000001,126.64792209999999
대이작도,인천 옹진군,032-851-888,"['경치좋은곳', '관광지', '대이작도', '바다낚시', '서울근교여행', '섬', '수도권']",https://cdn.visitkorea.or.kr/img/call?cmd=VIEW&id=66b66ed1-3a9b-4ee5-8b9a-ad1fa74a2c08&thumb,인천광역시 옹진군 자월면 이작리,37.175244,126.2594459
대청도,인천 옹진군,032-899-3610,"['경치좋은곳', '관광지', '대청도', '바다낚시', '생태관광지', '서울근교여행', '섬']",https://cdn.visitkorea.or.kr/img/call?cmd=VIEW&id=a240499c-2763-4fd2-b82b-065cd5dd8e0a&thumb,인천광역시 옹진군 대청면,37.8237659,124.71183140000001
대청도 농여해변,인천 옹진군,032-832-3031,"['관광지', '바다내음', '자연관광지', '자연좋은곳', '자연풍경', '자연환경', '휴식공간']",https://cdn.visitkorea.or.kr/img/call?cmd=VIEW&id=71f5ca63-8007-43e0-875a-561781879109&thumb,인천광역시 옹진군 대청면,37.8237659,124.71183140000001
대청도 옥죽동 해안사구,인천 옹진군,032-899-3610,"['경치좋은곳', '대청도', '사진찍기', '사진찍기좋은곳', '사진촬영', '옥죽포모래사막']",https://cdn.visitkorea.or.kr/img/call?cmd=VIEW&id=dcad20cb-c82c-43d8-8ac0-c9429a4160cf&thumb,인천광역시 옹진군 대청면,37.8237659,124.71183140000001
대한민국 수준원점,인천 미추홀구,032-880-4667,"['관광지', '역사', '역사관광지']",https://cdn.visitkorea.or.kr/img/call?cmd=VIEW&id=ab3f3261-7936-4764-8592-73e0c68bd0f8&thumb,인천광역시 미추홀구 인하로 100,37.450022100000005,126.653488
대한성공회 강화성당,인천 강화군,032-930-4571,"['관광지', '대한성공회강화성당', '사적', '성당', '수도권', '역사', '역사공부', '역사관광지']",https://cdn.visitkorea.or.kr/img/call?cmd=VIEW&id=4c534b04-e323-4ef8-96b7-f3ac9cfaaa8c&thumb,인천광역시 강화군 강화읍 관청길27번길 10,37.749331899999994,126.48544890000001
덕산국민여가캠핑장,인천 강화군,032-930-7055,"['가족여행', '덕산', '레포츠', '삼림', '캠핑장']",https://cdn.visitkorea.or.kr/img/call?cmd=VIEW&id=688d5a1e-72cf-419e-ba09-c22a9eb2a27d&thumb,인천광역시 강화군 내가면 강화서로227번길 91,37.717541600000004,126.38595600000001
덕적군도,인천 옹진군,032-899-2114,"['관광지', '남녀노소', '섬여행', '섬여행지추천', '여름가볼만한곳', '여름피서지']",https://cdn.visitkorea.or.kr/img/call?cmd=VIEW&id=7231959d-df8b-4c6a-b480-7ba53a4e5820&thumb,인천광역시 옹진군 덕적면 문갑리,37.177864299999996,126.0954371
덕적도,인천 옹진군,032-899-2114,"['갯벌체험', '경치좋은곳', '관광지', '낙조명소', '당일치기여행', '덕적도', '등산']",https://cdn.visitkorea.or.kr/img/call?cmd=VIEW&id=848be087-edd5-437a-9eaf-967d76c34342&thumb,인천광역시 옹진군 덕적면 덕적북로 130,37.2275961,126.1447008
덕적도 능동자갈마당,인천 옹진군,032-832-3031,"['관광지', '자연관광지', '자연발생', '자연여행', '자연좋은곳', '자연풍경', '자연환경']",https://cdn.visitkorea.or.kr/img/call?cmd=VIEW&id=93db194a-68dc-4ca2-942d-bf536d3f0dbe&thumb,인천광역시 옹진군 덕적면,37.2264075,126.1467791
덕적도 비조봉,인천 옹진군,032-832-3031,"['경치여행', '경치좋은곳', '관광지', '자연관광지', '자연발생', '자연속으로', '자연여행']",https://cdn.visitkorea.or.kr/img/call?cmd=VIEW&id=2b5f5f19-d6c6-4062-9844-3bb47dce6048&thumb,인천광역시 옹진군 덕적면,37.2264075,126.1467791
덱스타이드 요트,인천 중구,02-6929-2877,"['가족과함께', '레포츠', '복합레저스포츠', '수상레포츠', '연인과함께', '요트운전']",https://cdn.visitkorea.or.kr/img/call?cmd=VIEW&id=4361c40e-6217-4e97-be94-cba6485a9f82&thumb,인천광역시 중구 왕산마리나길 131,37.456744,126.35721880000001
도래미마을,인천 강화군,032-934-4994,"['가족과함께', '관광지', '농촌', '농촌마을', '농촌여행', '농촌체험', '농촌체험여행']",https://cdn.visitkorea.or.kr/img/call?cmd=VIEW&id=f3d16501-1bbb-4fe5-8451-09cb7dac6ef0&thumb,인천광역시 강화군 선원면 해안동로 1129-19,37.7161619,126.5086979
도솔미술관,인천 강화군,070-4125-1232,"['도솔미술관', '문화시설', '문화예술공간', '예술공간', '인천권']",https://cdn.visitkorea.or.kr/img/call?cmd=VIEW&id=08cf632f-9f5d-49f6-9871-42644c2fa009&thumb,인천광역시 강화군 길상면 길상로210번길 52-71,37.64199726,126.5064723
돌체소극장,인천 미추홀구,032-772-7361,"['가족여행', '데이트코스', '돌체소극장', '문화시설', '수도권', '연인과함께', '예술']",https://cdn.visitkorea.or.kr/img/call?cmd=VIEW&id=ff162727-b05f-4589-95a6-82a43754524a&thumb,인천광역시 미추홀구 매소홀로 573,37.43879643,126.6857463
"동검도(나들길,캠핑,예술극장)",인천 강화군,032-934-7500,"['관광지', '국내힐링여행', '남녀노소', '언택트관광지_100선', '자연마을', '자연여행']",https://cdn.visitkorea.or.kr/img/call?cmd=VIEW&id=24e91286-aade-48e5-8594-e55aa68dc116&thumb,인천광역시 강화군 길상면 동검길63번길 60,37.5926635,126.5183517
동인천 삼치거리,인천 중구,032-760-6477,"['가족과함께', '관광지', '남녀노소', '동인천삼치거리', '먹자골목', '삼치', '삼치구이']",https://cdn.visitkorea.or.kr/img/call?cmd=VIEW&id=49fddaa8-9b7f-4a33-9797-e08403bba280&thumb,인천광역시 중구 우현로67번길 57,37.475695200000004,126.6286801
드림파크,인천 서구,032-560-9911,"['가족여행', '관광지', '남녀노소', '데이트코스', '드림파크', '사진찍기좋은곳']",https://cdn.visitkorea.or.kr/img/call?cmd=VIEW&id=ff9bdf93-9034-4b6d-80c0-f0b6b6d29f06&thumb,인천광역시 서구 거월로 61,37.5762792,126.6616801
마니산(강화),인천 강화군,032-930-7068,"['강화가볼만한곳', '강화여행', '경치좋은곳', '관광지', '등산여행', '마니산', '자연']",https://cdn.visitkorea.or.kr/img/call?cmd=VIEW&id=044faa98-3076-494b-a752-54ab8b8ffb4f&thumb,인천광역시 강화군 화도면 마니산로675번길 18,37.6329848,126.4240371
만정캠핑장,인천 중구,032-747-1144,"['가족여행', '낚시', '레포츠', '만정캠핑장', '인천', '캠핑장']",https://cdn.visitkorea.or.kr/img/call?cmd=VIEW&id=a49756c9-ea0f-4bfd-86bb-f35dfb134c8d&thumb,인천광역시 중구 영종순환로 279-20,37.5153643,126.54966019999999
망양돈대,인천 강화군,032-832-3031,"['관광지', '망양돈대', '수도권', '역사', '역사공부', '역사관광지', '역사를품은곳']",https://cdn.visitkorea.or.kr/img/call?cmd=VIEW&id=dd015b96-ac89-4169-bb0d-6e2b261671f2&thumb,인천광역시 강화군 내가면 해안서로,37.7062178,126.36562040000001
망향대,인천 강화군,032-930-3124,"['강화군', '관광지', '교육여행', '망향대', '아이와함께', '안보교육', '역사', '역사공부']",https://cdn.visitkorea.or.kr/img/call?cmd=VIEW&id=dfac0149-70af-4ede-a558-d6e44444f602&thumb,인천광역시 강화군 교동면,37.783843700000006,126.283172
무덕정,인천 미추홀구,032-875-3921,"['관광지', '무덕정', '서울근교여행', '수도권', '역사', '역사유적지', '유적지', '활터']",https://cdn.visitkorea.or.kr/img/call?cmd=VIEW&id=d9bd1bcb-6577-4187-9846-7cf220040453&thumb,인천광역시 미추홀구 수봉로95번길 32,37.4599619,126.6614706
무의 까치놀섬마을,인천 중구,070-7759-5422,"['관광지', '농촌마을', '농촌여행', '농촌체험여행', '자연마을', '자연속으로', '자연좋은곳']",https://cdn.visitkorea.or.kr/img/call?cmd=VIEW&id=906a282d-1087-495a-8229-7080cbe4eabc&thumb,인천광역시 중구 대무의로301번길 19-16,37.390316399999996,126.42887240000002
무의도,인천 중구,032-832-3031,"['관광지', '자연']",https://cdn.visitkorea.or.kr/img/call?cmd=VIEW&id=e2f6b2dd-6650-4b63-ac0d-edb2f8ec7526&thumb,인천광역시 중구 대무의로 310-11,37.3893458,126.42493020000002
무태돈대,인천 강화군,032-930-4571,"['관광지', '무태돈대', '수도권', '역사', '역사공부', '역사관광지', '역사를품은곳']",https://cdn.visitkorea.or.kr/img/call?cmd=VIEW&id=59ca2e85-fab1-4465-89d6-9fb0329b1882&thumb,인천광역시 강화군 하점면 창후로,37.766323799999995,126.36781370000001
민머루해변,인천 강화군,032-934-7500,"['가족여행', '관광지', '민머루해변', '바다풍경', '생태관광', '서울근교여행', '연중무휴']",https://cdn.visitkorea.or.kr/img/call?cmd=VIEW&id=d00a36d3-7074-4a4f-8fd3-417255f8c549&thumb,인천광역시 강화군 삼산면 어류정길212번길,37.65391279999999,126.3308399
밧지름해변,인천 옹진군,032-832-3031,"['가족여행', '경치좋은곳', '관광지', '등산', '바다낚시', '바다풍경', '밧지름해변']",https://cdn.visitkorea.or.kr/img/call?cmd=VIEW&id=7aac7028-80f4-496c-942c-cb0c46a03f85&thumb,인천광역시 옹진군 덕적면 덕적남로 209-1,37.2151967,126.13937279999999
배다리 헌책방 골목,인천 동구,032-770-6100,"['관광지', '도깨비', '드라마촬영지', '배다리헌책방골목', '벽화거리', '산업관광']",https://cdn.visitkorea.or.kr/img/call?cmd=VIEW&id=71833b6f-2dc0-4686-b8f0-a9c14b8163de&thumb,인천광역시 동구 금곡로 3,37.4726818,126.6361196
백련사(강화),인천 강화군,032-933-5082,"['관광지', '불교', '불교문화', '불교사찰', '사찰', '사찰여행', '역사', '자연속으로']",https://cdn.visitkorea.or.kr/img/call?cmd=VIEW&id=014fdc2f-c654-44a0-a7a0-06652dd3b1c6&thumb,인천광역시 강화군 하점면 고려산로61번길 270,37.751583000000004,126.4376545
백령도,인천 옹진군,032-899-3510,"['가족여행', '경치좋은곳', '관광지', '교과서속여행', '백령도', '생태관광지', '서울근교여행']",https://cdn.visitkorea.or.kr/img/call?cmd=VIEW&id=d8eb1e89-93fe-4a3c-b8b8-1e730c9c1da1&thumb,인천광역시 옹진군 백령면 백령로,37.9625097,124.7005611
백령도 끝섬전망대,인천 옹진군,032-899-2114,"['가족과함께', '경치여행', '경치좋은곳', '관광지', '아이와함께', '연인과함께']",https://cdn.visitkorea.or.kr/img/call?cmd=VIEW&id=89625d8d-5594-4f35-9462-9a81130d637d&thumb,인천광역시 옹진군 백령면,37.9728415,124.718271
백령도 콩돌해변,인천 옹진군,032-899-3087,"['경치좋은곳', '관광지', '바다풍경', '서울근교여행', '수도권', '자연', '자연유산']",https://cdn.visitkorea.or.kr/img/call?cmd=VIEW&id=a4de4432-5471-4dd8-b588-698c896c9740&thumb,인천광역시 옹진군 백령면,37.9728415,124.718271
범패박물관,인천 미추홀구,032-884-8904,"['문화시설', '불교', '불교문화', '이색체험', '전통&역사', '전통문화', '전통역사']",https://cdn.visitkorea.or.kr/img/call?cmd=VIEW&id=f7624b60-758b-455e-9fc4-89493a5eb644&thumb,인천광역시 미추홀구 경인로70번길 11-13,37.46478542,126.6512164
보문사(강화),인천 강화군,032-933-8271,"['관광지', '역사']",https://cdn.visitkorea.or.kr/img/call?cmd=VIEW&id=e4bee13a-aef7-4596-8a4c-6691bef90f96&thumb,인천광역시 강화군 삼산면 삼산남로828번길 44,37.68853529999999,126.3215585
볼음도(저어새 생태마을),인천 강화군,010-3366-4591,"['관광지', '볼음도', '섬', '수도권', '어촌체험', '어촌체험마을', '이색체험', '자연']",https://cdn.visitkorea.or.kr/img/call?cmd=VIEW&id=5d079db1-5e67-4e5d-bad8-f13bf5c78954&thumb,인천광역시 강화군 서도면,37.6506578,126.24166559999999
봉일사지삼층석탑,인천 계양구,032-543-1842,"['관광지', '역사', '역사공부', '역사관광지', '역사를품은곳', '역사문화재', '역사속']",https://cdn.visitkorea.or.kr/img/call?cmd=VIEW&id=c2004510-00b2-4603-8eda-903f6ef08df7&thumb,인천광역시 계양구 계양산로75번길 7-13,37.5491406,126.72325249999999
부도 등대,인천 옹진군,032-833-3926,"['관광지', '자연']",https://cdn.visitkorea.or.kr/img/call?cmd=VIEW&id=d8baefa6-aeec-49ea-bab9-64dc92db44ef&thumb,인천광역시 옹진군 영흥면 선미로 142-1,37.255990999999995,126.48386599999999
부아산 구름다리,인천 옹진군,032-899-2210,"['가족과함께', '경치좋은곳', '관광지', '남녀노소', '다리', '부아산구름다리', '사진찍기']",https://cdn.visitkorea.or.kr/img/call?cmd=VIEW&id=57ba5115-6f5d-494d-a30c-d58e6c19fc03&thumb,인천 옹진군 자월면 이작리,37.175244,126.2594459
부평 기적의도서관,인천 부평구,032-505-0612,"['겨울방학가볼만한곳', '도서관', '독서', '독서여행', '문화시설', '문화행사', '부평기적의도서관']",https://cdn.visitkorea.or.kr/img/call?cmd=VIEW&id=e7b75239-9a21-4775-98fc-e05292a06766&thumb,인천광역시 부평구 길주남로 166,37.5034483,126.7401938
부평 종합시장,인천 부평구,032-516-0655,"['가족여행', '부평종합시장', '사계절', '쇼핑', '수도권', '시장맛집', '아이와함께']",https://cdn.visitkorea.or.kr/img/call?cmd=VIEW&id=ae774329-5163-433b-8b69-e335ae5d85ea&thumb,인천광역시 부평구 부흥로316번길 38-3,37.49649796,126.72661880000001
부평 해물탕거리,인천 부평구,032-832-3031,"['가족과함께', '관광지', '맛집탐방', '숨은맛집', '음식테마거리', '이색거리', '인천']",https://cdn.visitkorea.or.kr/img/call?cmd=VIEW&id=cf598c6c-91b5-480c-95e4-40598796def3&thumb,인천광역시 부평구 부평문화로 113,37.4942679,126.72897520000001
부평공원,인천 부평구,032-832-3031,"['걷기길', '관광지', '나들이', '부평공원', '산책길', '산책하기', '산책하기좋은곳']",https://cdn.visitkorea.or.kr/img/call?cmd=VIEW&id=343c5bd0-c978-4ab0-9976-cee7c0215636&thumb,인천광역시 부평구 부평공원로,37.4880078,126.71143229999998
부평도호부청사,인천 계양구,032-450-5822,"['관광지', '역사', '역사공부', '역사관광지', '역사를품은곳', '역사문화재', '역사속']",https://cdn.visitkorea.or.kr/img/call?cmd=VIEW&id=3b6bc92a-b344-4b52-9eb2-0d6b44390257&thumb,인천광역시 계양구 어사대로 20,37.5420331,126.72373359999999
부평모두몰(부평지하도상가),인천 부평구,,"['부평구', '부평역', '부평지하상가', '쇼핑', '악세사리', '의류', '인천', '지하상가']",https://cdn.visitkorea.or.kr/img/call?cmd=VIEW&id=b32ad4c6-c38f-4975-a431-fdc6d7b0000c&thumb,인천광역시 부평구 부평대로 지하 7,37.49030551,126.72296999999999
부평역사박물관,인천 부평구,032-515-6471,"['교과서속여행', '문화시설', '박물관', '부평역사박물관', '서울근교갈만한곳']",https://cdn.visitkorea.or.kr/img/call?cmd=VIEW&id=a0e4309f-c59b-4171-8136-5177e1e3ab8d&thumb,인천광역시 부평구 굴포로 151,37.51214216,126.7379081
부평향교,인천 계양구,032-541-2924,"['관광지', '역사', '역사공부', '역사관광지', '역사를품은곳', '역사문화재', '역사속']",https://cdn.visitkorea.or.kr/img/call?cmd=VIEW&id=c744801c-124c-495c-b6ba-9527ecb2c0ed&thumb,인천광역시 계양구 향교로 19,37.5399606,126.72005520000002
분오리돈대,인천 강화군,032-930-4571,"['관광지', '역사', '역사공부', '역사관광지', '역사를품은곳', '역사문화재', '역사속']",https://cdn.visitkorea.or.kr/img/call?cmd=VIEW&id=e0bb8798-829d-4827-8bb8-4ace3c5756b7&thumb,인천광역시 강화군 화도면,37.6318251,126.4197314
사곶해변,인천 옹진군,032-899-3087,"['관광지', '바다낚시', '바다풍경', '사곶해변', '서울근교여행', '수도권', '여름여행']",https://cdn.visitkorea.or.kr/img/call?cmd=VIEW&id=4d8f4936-36cd-4da8-bfd4-9384bdddda13&thumb,인천광역시 옹진군 백령면 사곶로 139,37.9521352,124.72360259999998
삼랑성(정족산성),인천 강화군,032-930-4571,"['관광지', '삼랑성(정족산성)', '서울근교여행', '아이와함께', '역사', '역사공부']",https://cdn.visitkorea.or.kr/img/call?cmd=VIEW&id=65640c27-b2a5-4f45-aef4-150c024dbeb1&thumb,인천광역시 강화군 길상면 온수리,37.6419834,126.4839019
삼산도서관,인천 부평구,032-330-7012,"['남녀노소', '도서관', '독서여행', '문화공간', '문화시설', '복합문화공간', '아이와함께']",https://cdn.visitkorea.or.kr/img/call?cmd=VIEW&id=48f2f4d8-26dd-493a-870e-5f7655dc2900&thumb,인천광역시 부평구 부평북로 445,37.52217318,126.743069
삼산저수지,인천 강화군,032-932-8265,"['관광지', '삼산저수지', '수도권', '자연', '저수지']",https://cdn.visitkorea.or.kr/img/call?cmd=VIEW&id=1da25ee5-a725-4321-99c4-a5c9387d6c6a&thumb,인천 강화군 삼산면 석모리,37.695553100000005,126.3335311
서어나무(소사나무)군락지,인천 옹진군,032-751-2628,"['가족여행', '관광지', '산책로', '서어나무군락지', '서울근교여행', '수도권', '여름여행']",https://cdn.visitkorea.or.kr/img/call?cmd=VIEW&id=464c201c-096f-40ec-9cff-586db8c5a6d7&thumb,인천광역시 옹진군 영흥면 내리,37.268853899999996,126.47085829999999
서포리해변,인천 옹진군,032-899-2214,"['가족여행', '걷기길', '걷기여행', '관광지', '당일치기여행', '바다풍경', '서포리해변']",https://cdn.visitkorea.or.kr/img/call?cmd=VIEW&id=d321526e-a473-4877-ba8d-c7996ef92197&thumb,인천광역시 옹진군 덕적면 덕적남로587번길 15,37.222418,126.11413030000001
서포마을,인천 옹진군,032-899-3710,"['경치좋은곳', '관광지', '바다낚시', '바다풍경', '서울근교여행', '서포마을', '수도권']",https://cdn.visitkorea.or.kr/img/call?cmd=VIEW&id=a6c78082-bafa-4b6a-a13d-8631a6ac12f1&thumb,인천광역시 옹진군 덕적면 덕적남로,37.23129829999999,126.12718829999999
석모도,인천 강화군,032-932-8988,"['관광지', '석모도', '섬', '수도권', '언택트관광지_100선', '자연']",https://cdn.visitkorea.or.kr/img/call?cmd=VIEW&id=c8b6f562-6440-4a4a-a118-992c07c1f05e&thumb,인천광역시 강화군 삼산면 삼산북로 9,37.6931085,126.3669707
석모도 미네랄 온천,인천 강화군,032-930-7051,"['가족휴양지', '관광지', '미네랄', '석모도미네랄온천', '연인과함께', '온천', '온천수']",https://cdn.visitkorea.or.kr/img/call?cmd=VIEW&id=13108661-1e25-4754-87e9-ac928308f3ce&thumb,인천광역시 강화군 삼산면 삼산남로 865-17,37.6867691,126.31376340000001
석모도 수목원,인천 강화군,032-932-5432,"['가족여행', '걷기길', '관광지', '당일치기여행', '서울근교여행', '석모도수목원']",https://cdn.visitkorea.or.kr/img/call?cmd=VIEW&id=260606c2-7627-4302-b4fa-f7b99a3b18f6&thumb,인천광역시 강화군 삼산면 삼산북로449번길 161,37.6905879,126.3258795
석모도 자연휴양림,인천 강화군,032-932-1882,"['가족여행', '관광지', '서울근교여행', '석모도자연휴양림', '수도권', '자연', '자연&숲']",https://cdn.visitkorea.or.kr/img/call?cmd=VIEW&id=dc3de7a8-c87a-455b-91f5-0c52cb5957fb&thumb,인천광역시 강화군 삼산면 삼산서로 39-75,37.6970362,126.3138188
석바위 지하도상가,인천 미추홀구,032-422-4976,['쇼핑'],https://cdn.visitkorea.or.kr/img/call?cmd=VIEW&id=121617b6-da6e-429e-b5d4-5a0b4a935b0a&thumb,인천광역시 미추홀구 경원대로 848,37.45788358,126.69027240000001
선녀바위,인천 중구,032-760-7532,"['관광지', '기암괴석', '선녀바위', '수도권', '언택트관광지_100선', '자연']",https://cdn.visitkorea.or.kr/img/call?cmd=VIEW&id=8fec8a08-6dfc-4747-b69c-574f7424577f&thumb,인천광역시 중구 을왕동,37.4516407,126.38298449999999
선녀바위해수욕장,인천 중구,032-760-7532,"['경치여행', '경치좋은곳', '관광지', '바다경치', '바다내음', '선녀바위', '선녀바위해변']",https://cdn.visitkorea.or.kr/img/call?cmd=VIEW&id=651d7cdd-d976-4d7b-a5a9-74e32908e629&thumb,인천광역시 중구 선녀바위로 60,37.4397893,126.37887340000002
선두포낚시터,인천 강화군,032-937-9978,"['강화낚시터', '레포츠', '민물낚시', '인천권']",https://cdn.visitkorea.or.kr/img/call?cmd=VIEW&id=1bb8f80e-7e39-4306-b8d3-56e36f54852c&thumb,인천광역시 강화군 화도면 덕포길,37.6245556,126.46198600000001
선미도 등대,인천 옹진군,032-831-4927,"['관광지', '자연']",https://cdn.visitkorea.or.kr/img/call?cmd=VIEW&id=undefined&thumb,인천광역시 옹진군 덕적면 선미로 91,37.2264075,126.1467791
선재도(선재도 어촌체험마을),인천 옹진군,032-899-3810,"['가족여행', '갯벌체험', '경치좋은곳', '관광지', '서울근교여행', '선재도', '섬']",https://cdn.visitkorea.or.kr/img/call?cmd=VIEW&id=6099e7e0-7a82-4a95-ad71-c2c0426758c9&thumb,인천광역시 옹진군 영흥면,37.255990999999995,126.48386599999999
세어도,인천 서구,010-8895-9748,"['가족여행', '관광지', '섬', '세어도', '수도권', '자연']",https://cdn.visitkorea.or.kr/img/call?cmd=VIEW&id=b40c0990-bb93-4745-8080-d7815d47fb4e&thumb,인천광역시 서구 세어로 29,37.572447,126.5666605
소래습지생태공원,인천 남동구,032-435-7076,"['가족과함께', '관광지', '바다풍경', '사계절', '서울근교여행', '소래습지생태공원']",https://cdn.visitkorea.or.kr/img/call?cmd=VIEW&id=210f60ac-5818-4a85-823b-c47c90b5c6b8&thumb,인천광역시 남동구 소래로154번길 77,37.4230206,126.74321129999998
소래습지생태공원,인천 남동구,032-435-7076,"['걷기길', '관광지', '생태관광', '생태관광지', '소래습지생태공원', '전시관', '체험학습']",https://cdn.visitkorea.or.kr/img/call?cmd=VIEW&id=b2387b04-bc31-4a1f-a73d-4654d88950c8&thumb,인천광역시 남동구 소래로154번길 77,37.4230206,126.74321129999998
소래역사관,인천 남동구,032-460-0590,"['무장애여행지', '문화시설', '박물관', '열린관광_모두의여행', '열린관광지', '인천가볼만한곳']",https://cdn.visitkorea.or.kr/img/call?cmd=VIEW&id=120abab2-6f2f-4588-ae00-e37b40b811d8&thumb,인천광역시 남동구 아암대로 1605,37.39816437,126.7375999
소래포구,인천 남동구,032-442-6887,"['가족여행', '관광지', '당일치기여행', '먹거리', '미식여행', '바다풍경', '생태관광지']",https://cdn.visitkorea.or.kr/img/call?cmd=VIEW&id=2f3e6379-8c86-4f41-8639-0c68f979d50c&thumb,인천광역시 남동구 포구로 2-6,37.3988308,126.7402023
소래포구 종합어시장,인천 남동구,032-719-1522,"['가족여행', '나들이', '나홀로여행', '먹거리', '소래포구종합어시장', '쇼핑', '수도권']",https://cdn.visitkorea.or.kr/img/call?cmd=VIEW&id=e80e3bef-5247-49f4-9944-685447cfdde7&thumb,인천광역시 남동구 소래역로 12,37.39873702,126.7371747
소리체험박물관,인천 강화군,032-9377-154,"['강화도가볼만한곳', '무더위_피해_실내여행', '문화시설', '미세먼지_피하는_실내여행']",https://cdn.visitkorea.or.kr/img/call?cmd=VIEW&id=79f8b9d4-24d0-4a6a-a94b-887f69a89e06&thumb,인천광역시 강화군 길상면 해안남로474번길 11,37.59896244,126.50824070000002
소야도 떼뿌리 해변,인천 옹진군,032-832-3031,"['관광지', '바다내음', '여름피서지', '자연관광지', '자연여행', '자연좋은곳', '자연풍경']",https://cdn.visitkorea.or.kr/img/call?cmd=VIEW&id=6ecfbfcd-99d3-48cc-bdf5-79a5a0fad087&thumb,인천광역시 옹진군 덕적면,37.2264075,126.1467791
소이작도,인천 옹진군,,"['관광지', '소이작도', '언택트관광지_100선', '이작도', '자연']",https://cdn.visitkorea.or.kr/img/call?cmd=VIEW&id=8a3fa509-6b94-4aa2-b4cd-e72687b0c762&thumb,인천광역시 옹진군 자월면 이작리,37.175244,126.2594459
소창체험관,인천 강화군,032-934-2500,"['가족과함께', '가족이색체험', '관광지', '남녀노소', '다도체험', '복합문화공간']",https://cdn.visitkorea.or.kr/img/call?cmd=VIEW&id=a69c649c-a777-49c2-ade9-9ccdfcd8ec27&thumb,인천광역시 강화군 강화읍 남문안길20번길 8,37.746534499999996,126.4842635
소청도,인천 옹진군,032-836-3301,"['경치좋은곳', '관광지', '바다낚시', '바다풍경', '서울근교여행', '섬', '소청도']",https://cdn.visitkorea.or.kr/img/call?cmd=VIEW&id=dc822513-8427-4906-8ef0-a564d9dc4789&thumb,인천광역시 옹진군 대청면 소청리,37.7729184,124.752398
소청도 등대,인천 옹진군,032-836-3104,"['관광지', '자연']",https://cdn.visitkorea.or.kr/img/call?cmd=VIEW&id=9d3352ba-9bae-4554-9830-a46e7cb7f59b&thumb,인천광역시 옹진군 대청면 소청서로 279,37.76021,124.73198159999998
송도 센트럴파크,인천 연수구,032-837-4753,"['19_20한국관광100선', '가족여행', '걷기여행', '공원', '관광지', '나들이', '데이트장소추천']",https://cdn.visitkorea.or.kr/img/call?cmd=VIEW&id=5af73175-2f6c-4b3b-9e36-742cb0bede1e&thumb,인천광역시 연수구 컨벤시아대로 160,37.392163700000005,126.63919709999999
송도 초콜릿문화박물관,인천 연수구,032-831-9922,"['가족과함께', '남녀노소', '문화시설', '복합문화공간', '아이와함께', '역사속으로']",https://cdn.visitkorea.or.kr/img/call?cmd=VIEW&id=221c483b-de51-4cc1-9a09-02e18e10ed63&thumb,인천광역시 연수구 능허대로 227-10,37.41598224,126.6516105
송도종합스포츠센터,인천 연수구,032-899-4850,"['레포츠', '송도', '스포츠센터', '인천연수구']",https://cdn.visitkorea.or.kr/img/call?cmd=VIEW&id=56bb8c89-0df0-457a-90cb-2dc29bd76169&thumb,인천광역시 연수구 인천신항대로892번길 40,37.3511891,126.61846670000001
송도컨벤시아,인천 연수구,032-210-1114,"['공연/행사', '공연관람', '기획공연', '문화공간', '문화시설', '방송촬영', '복합문화공간']",https://cdn.visitkorea.or.kr/img/call?cmd=VIEW&id=983e29cc-4a09-4958-92ad-83716fd95d7f&thumb,인천광역시 연수구 센트럴로 123,37.3881431,126.6455531
송도해돋이도서관,인천 연수구,032-749-6950,"['남녀노소', '도서관', '독서여행', '문화공간', '문화시설', '복합문화공간', '열린문화공간']",https://cdn.visitkorea.or.kr/img/call?cmd=VIEW&id=56544d8e-0ed9-4be2-b94e-5966c5c1e5fb&thumb,인천광역시 연수구 해돋이로 7,37.38582193,126.6590477
송암미술관,인천 미추홀구,032-440-6770,"['데이트코스', '문화시설', '미술관', '송암미술관', '수도권', '아이와함께', '연인과함께']",https://cdn.visitkorea.or.kr/img/call?cmd=VIEW&id=fcb40017-bfe6-4e9e-955b-290d84c34597&thumb,인천광역시 미추홀구 비류대로55번길 68,37.43441631,126.64221840000002
송월동 동화마을,인천 중구,032-760-6480,"['SNS감성사진', '감성사진', '걷기여행', '관광지', '데이트장소', '사진찍기좋은곳']",https://cdn.visitkorea.or.kr/img/call?cmd=VIEW&id=a597265e-fe4b-40a4-91ed-16fe69621441&thumb,인천광역시 중구 동화마을길 38,37.477661100000006,126.6205827
송현근린공원,인천 동구,032-770-6205,"['걷기길', '걷기여행', '관광지', '나들이', '사계절', '송현근린공원', '수도권', '아이와함께']",https://cdn.visitkorea.or.kr/img/call?cmd=VIEW&id=43cb5983-2c89-4584-968d-1b6584284eb2&thumb,인천광역시 동구 솔빛로 51,37.477194299999994,126.6391014
송현배수지 제수변실과 수도국산 달동네박물관,인천 동구,032-770-6131,"['관광지', '달동네박물관', '당일치기여행', '박물관', '봄방학', '산업관광', '산업관광지']",https://cdn.visitkorea.or.kr/img/call?cmd=VIEW&id=0866719e-04dc-4b7e-936d-361fa473acfa&thumb,인천광역시 동구 솔빛로 51,37.477194299999994,126.6391014
송현배수지제수변실,인천 동구,032-770-6104,"['관광지', '역사', '역사공부', '역사관광지', '역사를품은곳', '역사문화재', '역사속']",https://cdn.visitkorea.or.kr/img/call?cmd=VIEW&id=fe41d773-e735-4607-bd69-628ffee8b612&thumb,인천광역시 동구 송현공원로 75-21,37.4790112,126.639532
수기해변,인천 옹진군,032-751-2628,"['경치좋은곳', '관광지', '드라마촬영지', '바다풍경', '서울근교여행', '수기해변']",https://cdn.visitkorea.or.kr/img/call?cmd=VIEW&id=7e70b40a-0613-4e9a-8197-8f01e50a90ae&thumb,인천광역시 옹진군 북도면 시도로86번길 291-48,37.544194,126.4318163
수도국산달동네박물관,인천 동구,032-770-6131,"['교과서속여행', '문화시설', '박물관', '사계절', '수도국산달동네박물관', '수도권']",https://cdn.visitkorea.or.kr/img/call?cmd=VIEW&id=6afbedd7-4b1f-4dc6-9014-e8d92f953f52&thumb,인천광역시 동구 솔빛로 51,37.47777516,126.6392236
수봉공원,인천 미추홀구,032-880-4502,"['걷기길', '관광지', '나들이', '서울근교여행', '수도권', '수봉공원']",https://cdn.visitkorea.or.kr/img/call?cmd=VIEW&id=f55d422b-435e-4036-8c86-e702a75aec38&thumb,인천광역시 미추홀구 수봉안길 84,37.4597895,126.66327539999999
스쿠바몰,인천 부평구,080-272-1111,['레포츠'],https://cdn.visitkorea.or.kr/img/call?cmd=VIEW&id=ccd20bf7-cdea-4553-b191-38aa4bc604f6&thumb,인천광역시 부평구 충선로 191,37.505477899999995,126.73589469999999
스파시스,인천 미추홀구,032-866-4545,"['가족여행', '관광지', '사일온천', '수도권', '실내여행지', '아이와함께', '온천&스파']",https://cdn.visitkorea.or.kr/img/call?cmd=VIEW&id=2851acbc-51d0-4b79-b2fe-d439e1107eb6&thumb,인천광역시 미추홀구 경인로 263,37.462765399999995,126.6719668
승봉도,인천 옹진군,032-899-3750,"['관광지', '자연']",https://cdn.visitkorea.or.kr/img/call?cmd=VIEW&id=759b4151-b88a-40af-8f02-3a51b9793d1a&thumb,인천광역시 옹진군 자월면 승봉리,37.0913104,126.07668290000001
승봉도 이일레 해변,인천 옹진군,032-899-3750,"['가족여행', '관광지', '바다풍경', '서울근교여행', '수도권', '아이와함께', '여름여행']",https://cdn.visitkorea.or.kr/img/call?cmd=VIEW&id=c1bf407f-6768-4633-bad8-fe2315ad2fe1&thumb,인천광역시 옹진군 자월면 승봉로116번길,37.1656565,126.3020506
신선낚시터,인천 강화군,032-933-1366,"['강화군', '레포츠', '민물낚시', '신선낚시터', '자연경관']",https://cdn.visitkorea.or.kr/img/call?cmd=VIEW&id=dc61e31c-bdce-4b9e-94e6-5b9ef52290a6&thumb,인천광역시 강화군 내가면 고천리 1820,37.7202469,126.41132179999998
신시모도 (신도ㆍ시도ㆍ모도),인천 옹진군,032-899-3411,"['가족여행', '경치좋은곳', '관광지', '등산로', '모도', '바다풍경', '봄꽃여행', '섬']",https://cdn.visitkorea.or.kr/img/call?cmd=VIEW&id=b6990f37-d409-4a16-91a8-d7ec71598397&thumb,인천광역시 옹진군 북도면,37.5323923,126.4271269
신트리공원,인천 부평구,032-509-6972,"['가족여행', '걷기여행', '관광지', '나들이(피크닉)', '당일치기여행', '사계절']",https://cdn.visitkorea.or.kr/img/call?cmd=VIEW&id=e427fefc-3ca3-468c-a921-23ee26ad7662&thumb,인천광역시 부평구 신트리로 21,37.506554,126.723355
신포국제시장,인천 중구,032-772-5812 032-764-0407,"['가족여행', '나들이', '나홀로여행', '드라이브여행', '마을축제', '먹거리', '서울근교여행']",https://cdn.visitkorea.or.kr/img/call?cmd=VIEW&id=61630607-cc43-497d-b857-3ba04799c0e8&thumb,인천광역시 중구 우현로49번길 11-5,37.47146219,126.627812
실감콘텐츠체험관 탐,인천 동구,032-766-4700,"['관광지', '산업관광', '산업관광지', '수도권', '실감콘텐츠체험관', '실감콘텐츠체험관탐']",https://cdn.visitkorea.or.kr/img/call?cmd=VIEW&id=659db65e-3145-4145-8cab-4e3e28739898&thumb,인천광역시 동구 서해대로520번길 12,37.4718146,126.63866090000002
실미원농장,인천 중구,032-752-7600,"['가족체험', '관광지', '교육여행', '교육프로그램', '농촌', '농촌여행코스', '농촌체험학습']",https://cdn.visitkorea.or.kr/img/call?cmd=VIEW&id=c23ce8e7-fd4a-4434-9770-caeef8267921&thumb,인천광역시 중구 큰무리로 23,37.469679299999996,126.62545109999999
실미해수욕장,인천 중구,032-752-4466,"['관광지', '자연']",https://cdn.visitkorea.or.kr/img/call?cmd=VIEW&id=15fb61a6-1926-4c6a-a90d-89c55c2a34da&thumb,인천광역시 중구 큰무리로 99,37.469679299999996,126.62545109999999
심은미술관,인천 강화군,032-933-0964,"['데이트코스', '문화시설', '미술관', '서울근교여행', '수도권', '심은미술관', '연인과함께']",https://cdn.visitkorea.or.kr/img/call?cmd=VIEW&id=8f2c0d6c-3614-4a26-a3f0-f35cccdd2ac1&thumb,인천광역시 강화군 하점면 강화서로 915-1,37.77353136,126.3908998
심청각,인천 옹진군,032-899-3518,"['경치좋은곳', '관광지', '남녀노소', '산책하기', '산책하기좋은곳', '심청각', '심청전']",https://cdn.visitkorea.or.kr/img/call?cmd=VIEW&id=3d6fdca4-08aa-4791-97b4-a42b58583a59&thumb,인천광역시 옹진군 백령면 백령로316번길 109-117,37.979619299999996,124.71672360000001
아암도해안공원,인천 연수구,032-817-1011,"['가족여행', '관광지', '데이트코스', '바다풍경', '사계절', '아암도해안공원', '연인과함께']",https://cdn.visitkorea.or.kr/img/call?cmd=VIEW&id=ae8ceca8-e4b0-4661-a06d-d7e376750e95&thumb,인천광역시 연수구 능허대로 192,37.416787,126.6478239
아이즈빌아울렛,인천 부평구,032-270-2000,['쇼핑'],https://cdn.visitkorea.or.kr/img/call?cmd=VIEW&id=ac0a8574-cffc-4aba-a091-8a625070c2ff&thumb,인천광역시 부평구 마장로 489,37.52136374,126.7037206
애보박물관,인천 남동구,032-466-3181,"['가족체험여행', '무장애', '문화공간', '문화시설', '박물관', '복합문화공간', '서울근교여행']",https://cdn.visitkorea.or.kr/img/call?cmd=VIEW&id=dbed04f8-a500-4ae3-8a7b-f48c530f802d&thumb,인천광역시 남동구 만의골로 71,37.45046296,126.7670819
약사사(인천),인천 남동구,032-429-4449,"['관광지', '불교', '불교문화', '불교사찰', '사찰', '사찰여행', '역사', '자연속으로']",https://cdn.visitkorea.or.kr/img/call?cmd=VIEW&id=6319947d-6b4b-4bd3-9b56-01dca0bac931&thumb,인천광역시 남동구 풀무로 48,37.471689399999995,126.7122861
양헌수승전비,인천 강화군,032-930-4571,"['관광지', '문화재', '수도권', '양헌수승전비', '역사', '역사공부', '역사관광지']",https://cdn.visitkorea.or.kr/img/call?cmd=VIEW&id=e0c04a18-27ff-4bbc-8c4e-c74fa65eea8e&thumb,인천광역시 강화군 길상면 온수리,37.6419834,126.4839019
엔타스면세점,인천 중구,1644-0159,"['면세점', '쇼핑', '인천면세점', '인천쇼핑', '인천중구']",https://cdn.visitkorea.or.kr/img/call?cmd=VIEW&id=7330df68-ddd9-46cd-a510-ed98b0c80bd1&thumb,인천광역시 중구 영종해안남로321번길 186,37.43721107,126.4557687
여성문화회관 수영장(실내),인천 부평구,032-517-2051,"['레포츠', '수도권', '수영장', '여성문화회관수영장']",https://cdn.visitkorea.or.kr/img/call?cmd=VIEW&id=6271a9ba-a068-449f-845e-93ba4f9d4f89&thumb,인천광역시 부평구 길주로 539,37.507813,126.72196159999999
연등국제선원,인천 강화군,032-937-7033,"['관광지', '불교', '불교문화', '사찰', '사찰여행', '역사', '역사관광지', '자연속으로']",https://cdn.visitkorea.or.kr/img/call?cmd=VIEW&id=95a56939-64da-4d81-bdbe-eee07c5bc8b9&thumb,인천광역시 강화군 길상면 강화동로 349-60,37.6719903,126.48344399999999
연무당 옛터,인천 강화군,032-930-4571,"['관광지', '수도권', '역사', '역사공부', '역사관광지', '역사를품은곳', '역사문화재']",https://cdn.visitkorea.or.kr/img/call?cmd=VIEW&id=b8891c5d-6680-47a6-9ae6-27a3a1420f94&thumb,인천광역시 강화군 강화읍 국화리,37.7418929,126.45813319999999
연미정,인천 강화군,032-930-3124,"['관광지', '교과서속여행', '문화재', '수도권', '역사', '역사공부', '역사관광지']",https://cdn.visitkorea.or.kr/img/call?cmd=VIEW&id=e5e56af3-70bc-4f2d-92f7-5d4019e453b8&thumb,인천광역시 강화군 강화읍,37.748320899999996,126.48356629999999
연수문화원,인천 연수구,032-821-6229,"['문화시설', '아이와 함께', '연수문화원', '열린문화공간', '친구와 함께']",https://cdn.visitkorea.or.kr/img/call?cmd=VIEW&id=null&thumb,인천광역시 연수구 비류대로 299,37.42630571,126.6676686
연안부두,인천 중구,032-777-1330,"['경치좋은곳', '관광지', '남녀노소', '바다낚시', '바다풍경', '산책길', '산책하기']",https://cdn.visitkorea.or.kr/img/call?cmd=VIEW&id=7328f8b5-2fc6-4f9e-b0bd-d10899303767&thumb,인천광역시 중구 연안부두로 70,37.453968700000004,126.5984075
연안부두 밴댕이회무침거리,인천 중구,032-765-4169,"['가족과함께', '관광지', '남녀노소', '맛집탐방', '물회', '바다경치', '바다내음']",https://cdn.visitkorea.or.kr/img/call?cmd=VIEW&id=d7b4f6df-6015-417c-b4b0-bc0805466bb8&thumb,인천광역시 중구 연안부두로 24-1,37.4562368,126.6029144
연평도 안보교육장,인천 옹진군,032-899-2114,"['가족과함께', '관광지', '교육여행', '아이와함께', '안보교욱장', '안보교육', '역사공부']",https://cdn.visitkorea.or.kr/img/call?cmd=VIEW&id=f2b3610d-391f-41e8-8886-37c82da3bf05&thumb,인천광역시 옹진군 연평면 연평중앙로12번길 25,37.663869700000006,125.7076246
연평도(대/소 연평도),인천 옹진군,032-899-3450,"['관광지', '섬', '수도권', '안보체험', '연평도', '자연']",https://cdn.visitkorea.or.kr/img/call?cmd=VIEW&id=b617f8de-e325-457c-b9f5-5c8a1aa1ef92&thumb,인천광역시 옹진군 연평면 연평중앙로24번길 3,37.6646337,125.70507620000001
영종대교,인천 서구,032-832-3031,"['건축물', '관광지', '대교', '드라이브여행', '드라이브코스', '야간드라이브', '야경명소']",https://cdn.visitkorea.or.kr/img/call?cmd=VIEW&id=566407c5-7d89-4917-a2a6-fcdd2498349a&thumb,인천광역시 서구 경서동(장도),37.553391,126.60900600000001
영종대교휴게소 기념관,인천 서구,032-560-6400,"['가족여행', '기념관', '드라이브여행', '문화시설', '바다풍경', '서울근교여행']",https://cdn.visitkorea.or.kr/img/call?cmd=VIEW&id=7bc39dea-0356-418d-aef3-6854383db9d7&thumb,인천광역시 서구 정서진남로 25,37.55377853,126.6070575
영종도,인천 중구,032-760-6482,"['관광지', '드라이브여행', '마시안해수욕장', '생태관광', '생태관광지', '수도권']",https://cdn.visitkorea.or.kr/img/call?cmd=VIEW&id=f6b2500a-a192-4762-8489-1c37f871868c&thumb,인천광역시 중구 운남서로 100,37.4938542,126.5313043
영종도,인천 중구,032-745-0211,"['관광지', '자연']",https://cdn.visitkorea.or.kr/img/call?cmd=VIEW&id=26f1379c-49ac-4552-ac02-4aa568e3c8c4&thumb,인천광역시 중구 운남서로 100,37.4938542,126.5313043
영종씨사이드 레일바이크,인천 중구,032-719-7778,"['가족과함께', '경치좋은곳', '남녀노소', '레일바이크', '레포츠', '바다경치', '아이와함께']",https://cdn.visitkorea.or.kr/img/call?cmd=VIEW&id=fc6219af-fd62-4c85-b4b4-479b33b5ba7c&thumb,인천광역시 중구 구읍로 75,37.4885453,126.57741019999999
영종역사관,인천 중구,032-760-6307,"['문화시설', '생활문화', '아이와함께', '영종도', '인천권']",https://cdn.visitkorea.or.kr/img/call?cmd=VIEW&id=f3132c4b-41d5-4b57-93cc-61726d1bb89a&thumb,인천광역시 중구 구읍로 63,37.48906984,126.5777145
영창뮤직,인천 서구,032-570-1045,"['가족과함께', '견학', '견학프로그램', '관광지', '남녀노소', '산업관광', '수도권']",https://cdn.visitkorea.or.kr/img/call?cmd=VIEW&id=d156eb32-1055-4eae-a91d-a4b85df6763c&thumb,인천광역시 서구 봉수대로 196,37.555603600000005,126.6578199
영화초등학교본관동,인천 동구,032-764-5131,"['관광지', '역사', '역사공부', '역사관광지', '역사를품은곳', '역사문화재', '역사속']",https://cdn.visitkorea.or.kr/img/call?cmd=VIEW&id=8af01102-6929-4e52-9bdb-dee2ef04ab1f&thumb,인천광역시 동구 우각로 39,37.471191600000004,126.6404233
영흥대교,인천 옹진군,032-899-2210,"['건축물', '경치좋은곳', '관광지', '대교', '드라이브', '바다경치', '바다낚시', '바다내음']",https://cdn.visitkorea.or.kr/img/call?cmd=VIEW&id=e51b31c8-2756-4657-9243-041912b78259&thumb,인천광역시 옹진군 영흥면,37.255990999999995,126.48386599999999
영흥도,인천 옹진군,032-886-7800,"['2020_휴가철찾아가고싶은_33섬', '경치좋은곳', '관광지', '연인과함께', '일몰명소']",https://cdn.visitkorea.or.kr/img/call?cmd=VIEW&id=b87a9676-b500-4080-8978-489716655baf&thumb,인천광역시 옹진군 영흥면,37.255990999999995,126.48386599999999
영흥도 십리포해변,인천 옹진군,032-899-2214,"['가족여행', '관광지', '바다풍경', '수도권', '여름방학가볼만한곳', '여름여행']",https://cdn.visitkorea.or.kr/img/call?cmd=VIEW&id=e81d3d83-3fae-4250-b732-c6697344c853&thumb,인천광역시 옹진군 영흥면 영흥북로 420-26,37.2807995,126.4828107
오읍약수터,인천 강화군,032-934-7500,"['관광지', '자연']",https://cdn.visitkorea.or.kr/img/call?cmd=VIEW&id=undefined&thumb,인천광역시 강화군 강화읍 북문길 110,37.7560171,126.4836252
옥토끼우주센터,인천 강화군,032-937-6917,"['가족체험여행', '겨울방학가볼만한곳', '관광지', '서울근교여행', '수도권', '아이와함께']",https://cdn.visitkorea.or.kr/img/call?cmd=VIEW&id=c6902ede-ddc9-4706-89c2-4d08cbe541d9&thumb,인천광역시 강화군 불은면 강화동로 403,37.674969399999995,126.48720449999999
올리브 아울렛 (인천점),인천 남동구,032-434-1234,"['쇼핑', '아울렛', '인천쇼핑', '인천아울렛']",https://cdn.visitkorea.or.kr/img/call?cmd=VIEW&id=95257010-4f6f-49db-b6c0-71e502598985&thumb,인천광역시 남동구 남동대로 880,37.46094966,126.70886000000002
옹진 백령도 두무진,인천 옹진군,032-899-3515,"['경치좋은곳', '관광지', '두무진', '명승', '서울근교여행', '수도권', '자연', '자연발생']",https://cdn.visitkorea.or.kr/img/call?cmd=VIEW&id=282f6c97-7ada-4416-8479-1bdc16255584&thumb,인천광역시 옹진군 백령면 두무진로 559-3,37.9747666,124.62153470000001
옹진군 신도,인천 옹진군,032-899-2114,"['관광지', '구봉정', '모도', '생태관광', '생태관광지', '수기해수욕장', '시도', '신도']",https://cdn.visitkorea.or.kr/img/call?cmd=VIEW&id=5c08aca1-67e1-4314-a7ad-2ed5d940ca26&thumb,인천광역시 옹진군 북도면 신도리,37.527368599999996,126.4525008
완초장,인천 강화군,032-932-9018,"['공예', '돗자리', '무형문화재', '쇼핑']",https://cdn.visitkorea.or.kr/img/call?cmd=VIEW&id=e86e6c6f-f4ba-4a4f-8aa7-26e029ba8e52&thumb,인천광역시 강화군 강화읍 충렬사로22번길 8-1,37.73758854,126.4859303
왕산해수욕장,인천 중구,032-777-1330,"['가족과함께', '관광지', '남녀노소', '바다경치', '바다내음', '아이와함께', '여름피서지']",https://cdn.visitkorea.or.kr/img/call?cmd=VIEW&id=d07c512e-50b8-441a-8ad5-6c43e125afd0&thumb,인천광역시 중구 을왕동,37.4516407,126.38298449999999
용궁사(인천),인천 중구,032-746-1361,"['관광지', '불교', '불교사찰', '사찰', '사찰여행', '역사', '자연속으로', '자연좋은곳']",https://cdn.visitkorea.or.kr/img/call?cmd=VIEW&id=f7b496c9-4c29-4eaf-bf22-f9d011e3f607&thumb,인천광역시 중구 운남로 199-1,37.4973091,126.52794250000001
용동큰우물,인천 중구,032-760-6474,"['관광지', '역사', '역사공부', '역사관광지', '역사를품은곳', '역사문화재', '역사속']",https://cdn.visitkorea.or.kr/img/call?cmd=VIEW&id=5f40c359-6d98-491c-9c06-be3797a56e6e&thumb,인천광역시 중구 우현로90번길 19-13,37.4742855,126.63135359999998
용유도,인천 중구,032-745-0211,"['관광지', '자연']",https://cdn.visitkorea.or.kr/img/call?cmd=VIEW&id=e261bb7c-5a82-46c8-9d30-65ecb4c0c529&thumb,인천광역시 중구 마시란로 308-13,37.4440385,126.40256670000001
용유도 마시안해변,인천 중구,02-6105-7111,"['경치여행', '경치좋은곳', '관광지', '바다명소', '바다풍경', '수도권', '여름피서지']",https://cdn.visitkorea.or.kr/img/call?cmd=VIEW&id=3d56a8cd-32cb-469e-8ba0-0c5f55bbb9b8&thumb,인천광역시 중구 마시란로 118,37.4325093,126.4175689
용진진,인천 강화군,061-430-3363,"['관광지', '수도권', '역사', '역사공부', '역사관광지', '역사를품은곳', '역사문화재']",https://cdn.visitkorea.or.kr/img/call?cmd=VIEW&id=5e559076-c67c-4d8d-b6f3-0c62402b44c1&thumb,인천광역시 강화군 선원면 연리,37.70197,126.5117054
용화선원,인천 미추홀구,032-872-6061,"['관광지', '불교', '불교문화', '사찰', '사찰여행', '역사', '역사관광지', '역사속으로']",https://cdn.visitkorea.or.kr/img/call?cmd=VIEW&id=1583d1a3-8075-428f-a615-3b9614d40df8&thumb,인천광역시 미추홀구 염전로 372,37.4757602,126.6660883
용흥궁,인천 강화군,032-930-4571,"['강원권', '관광지', '교과서속여행', '역사', '역사공부', '역사관광지', '역사를품은곳']",https://cdn.visitkorea.or.kr/img/call?cmd=VIEW&id=2e10d027-4c8d-408a-a57b-1662f807d016&thumb,인천광역시 강화군 강화읍 동문안길21번길 16-1,37.748741700000004,126.485091
우공책방,인천 강화군,032-463-0989,"['가족과함께', '관광지', '남녀노소', '북스테이', '우공책방', '이색체험', '책방']",https://cdn.visitkorea.or.kr/img/call?cmd=VIEW&id=5cab8542-fbc0-4edf-a3d7-f976e8ec4222&thumb,인천광역시 강화군 내가면 연촌길 77-10,37.73331029999999,126.41868159999999
울도,인천 옹진군,032-899-3710,"['관광지', '자연']",https://cdn.visitkorea.or.kr/img/call?cmd=VIEW&id=b3a2d70a-ce45-4f35-a134-a4e036a2c6f0&thumb,인천광역시 옹진군 덕적면 울도로182번길 4,37.026683899999995,125.9978905
원인재,인천 연수구,032-749-7312,"['관광지', '역사', '역사공부', '역사관광지', '역사를품은곳', '역사문화재', '역사속']",https://cdn.visitkorea.or.kr/img/call?cmd=VIEW&id=11d740d5-1785-472e-94ec-c57ee46054e6&thumb,인천광역시 연수구 경원대로 322,37.414358899999996,126.69115020000001
월미 관광특구,인천 중구,032-760-6481,"['가족과함께', '관광지', '박물관', '산업관광', '산책하기', '산책하기좋은곳', '수도권']",https://cdn.visitkorea.or.kr/img/call?cmd=VIEW&id=67eea819-64e3-47b3-9b0c-b665c8394314&thumb,인천광역시 중구 월미문화로 81,37.4713611,126.59628190000001
월미공원,인천 중구,032-765-4133,"['가족여행', '걷기길', '관광지', '산책코스', '산책하기좋은곳', '서울근교여행']",https://cdn.visitkorea.or.kr/img/call?cmd=VIEW&id=dd0db176-bcea-4ff6-9116-a01d7bc992f8&thumb,인천광역시 중구 월미로 131-22,37.4763692,126.6039121
월미도,인천 중구,032-765-4169,"['19_20한국관광100선', '가족여행', '관광지', '바다풍경', '섬여행', '수도권']",https://cdn.visitkorea.or.kr/img/call?cmd=VIEW&id=0aecf3e7-7eac-495e-bf6c-61769cb71a78&thumb,인천광역시 중구 월미문화로 36,37.471318,126.59628700000002
월미테마파크,인천 중구,032-761-0997,"['관광지', '남녀노소', '놀이기구', '당일치기여행', '데이트장소', '수도권', '연인과함께']",https://cdn.visitkorea.or.kr/img/call?cmd=VIEW&id=77d8f86f-05c4-4ad2-810f-371d58510459&thumb,인천광역시 중구 월미문화로 81,37.4713611,126.59628190000001
유림상회/ 소금빛서점,인천 강화군,032-934-3456,"['감성소품', '강화도쇼핑', '그릇가게', '쇼핑', '주방용품']",https://cdn.visitkorea.or.kr/img/call?cmd=VIEW&id=5204c44d-996c-4f4f-b76a-2c45531ef1ba&thumb,인천광역시 강화군 강화읍 남문안길 7,37.74476925,126.4855937
은율탈춤전수관,인천 미추홀구,032-875-9953,"['가족이색체험', '문화시설', '아이와 함께', '은율탈춤전수관', '이색체험', '전통문화']",https://cdn.visitkorea.or.kr/img/call?cmd=VIEW&id=d9bc065b-43d7-4e3e-bc99-0263b0c974a2&thumb,인천광역시 미추홀구 수봉안길 78,37.46153324,126.6622628
을왕리해수욕장,인천 중구,032-832-3031,"['관광지', '바다풍경', '서울근교여행', '연인과함께', '연중무휴', '을왕리해수욕장']",https://cdn.visitkorea.or.kr/img/call?cmd=VIEW&id=ce0286b7-391e-4ca8-9cc7-50ad5447a419&thumb,인천광역시 중구 을왕로13번길 15,37.4450739,126.37298600000001
이건창 생가,인천 강화군,032-930-4571,"['관광지', '생가', '수도권', '역사', '역사공부', '역사관광지', '역사를품은곳', '역사문화재']",https://cdn.visitkorea.or.kr/img/call?cmd=VIEW&id=56b1603b-0df3-43a8-9f2f-6cfc061eb3d3&thumb,인천광역시 강화군 화도면 해안남로1114번길 6,37.616993799999996,126.45712890000001
이섭정,인천 강화군,032-930-4571,"['관광지', '수도권', '역사', '역사공부', '역사관광지', '역사를품은곳', '역사문화재']",https://cdn.visitkorea.or.kr/img/call?cmd=VIEW&id=397bc3c9-a18d-4a9d-a968-4925d2155ab6&thumb,인천광역시 강화군 강화읍 갑곳리,37.7386664,126.5031085
인산낚시터,인천 강화군,032-937-8788,"['낚시터', '레포츠', '인천권']",https://cdn.visitkorea.or.kr/img/call?cmd=VIEW&id=cc80391f-3390-4772-87aa-00df589d0059&thumb,인천광역시 강화군 양도면 중앙로787번길 8-2,37.6990805,126.43095929999998
인천 강남시장,인천 서구,032-578-6163,"['가족여행', '사계절', '쇼핑', '수도권', '시장맛집', '아이와함께', '인천강남시장']",https://cdn.visitkorea.or.kr/img/call?cmd=VIEW&id=0917b864-9c33-40d4-a056-e18731175657&thumb,인천광역시 서구 강남로 14,37.51122131,126.67199540000001
인천 검단선사박물관,인천 서구,032-440-6797,"['가족과함께', '문화시설', '미세먼지_피하는_실내여행', '박물관', '서울근교여행']",https://cdn.visitkorea.or.kr/img/call?cmd=VIEW&id=f2a78d22-2725-4a17-a44e-55cc6b474395&thumb,인천광역시 서구 고산후로121번길 7,37.59444584,126.6986824
인천 경서동 녹청자 요지,인천 서구,032-440-4063,"['가족여행', '관광지', '서울근교여행', '역사', '역사공부', '역사를품은곳', '역사문화재']",https://cdn.visitkorea.or.kr/img/call?cmd=VIEW&id=c978e61a-7255-44bb-8a81-a4d84f483d9d&thumb,인천광역시 서구 도요지로 54,37.558127500000005,126.6564523
인천 계양도서관,인천 계양구,032-540-4400,"['계양도서관', '독서', '문화시설', '아이와 함께', '인천']",https://cdn.visitkorea.or.kr/img/call?cmd=VIEW&id=32f0aee1-b3f6-4e5c-85f4-0515aea22e5d&thumb,인천광역시 계양구 계양산로134번길 18,37.54600361,126.7301101
인천 구월시장,인천 남동구,032-469-2525,"['가족여행', '사계절', '쇼핑', '수도권', '시장맛집', '아이와함께', '인천구월시장']",https://cdn.visitkorea.or.kr/img/call?cmd=VIEW&id=f8e539dd-3b93-4db2-a848-10108fff3f61&thumb,인천광역시 남동구 호구포로790번길 21-13,37.45336936,126.7202675
인천 녹청자박물관,인천 서구,032-563-4341,"['교육여행', '녹청자박물관', '문화시설', '박물관', '수도권', '아이와함께', '이색체험']",https://cdn.visitkorea.or.kr/img/call?cmd=VIEW&id=691c2d69-90c5-436d-87d6-743826908aff&thumb,인천광역시 서구 도요지로 54,37.55820186,126.6562692
인천 답동성당,인천 중구,032-762-7613,"['가족여행', '관광지', '나들이', '데이트코스', '사적지', '서울근교여행', '아이와함께']",https://cdn.visitkorea.or.kr/img/call?cmd=VIEW&id=b51fa53b-872e-4bc9-8c5e-4c3d14b79847&thumb,인천광역시 중구 우현로50번길 2,37.471334000000006,126.6295071
인천 동부시장,인천 동구,032-773-4173,"['가족여행', '나들이', '나홀로여행', '드라이브여행', '마을축제', '먹거리', '서울근교여행']",https://cdn.visitkorea.or.kr/img/call?cmd=VIEW&id=f5fd7696-33a7-4858-b8ba-490ef02f15bb&thumb,인천광역시 동구 송림로 107,37.47659678,126.64645049999999
인천 모래내시장,인천 남동구,032-471-1427,"['가족여행', '사계절', '쇼핑', '수도권', '시장맛집', '아이와함께', '인천모래내시장']",https://cdn.visitkorea.or.kr/img/call?cmd=VIEW&id=a58f3f64-aaf3-4ef0-b7e5-097c59bb90ec&thumb,인천광역시 남동구 호구포로810번길 42-8,37.45420055,126.7214912
인천 부평도서관,인천 부평구,032-510-7300,"['독서', '문화시설', '아이와 함께', '인천부평도서관']",https://cdn.visitkorea.or.kr/img/call?cmd=VIEW&id=7477440a-f42e-4f0f-84a7-57bad8dceed7&thumb,인천광역시 부평구 경원대로 1191,37.48499649,126.7045861
인천 부평문화원,인천 부평구,032-505-9001,"['문화강좌', '문화시설', '열린문화공간', '인천부평문화원', '친구와 함께']",https://cdn.visitkorea.or.kr/img/call?cmd=VIEW&id=c96ccdd2-939a-411f-b085-4c37f1015fda&thumb,인천광역시 부평구 굴포로 151,37.51214216,126.7379081
인천 삼산농산물도매시장,인천 부평구,032-440-6450,"['가족여행', '먹거리', '사계절', '쇼핑', '수도권', '아이와함께', '인천삼산농산물도매시장']",https://cdn.visitkorea.or.kr/img/call?cmd=VIEW&id=5cea9390-3c5c-4f7c-b767-722b40f354ce&thumb,인천광역시 부평구 영성동로 46,37.52182068,126.74900890000002
인천 서구도서관,인천 서구,032-585-7100,"['독서', '문화시설', '서구도서관', '아이와 함께', '인천']",https://cdn.visitkorea.or.kr/img/call?cmd=VIEW&id=d4f24036-aca5-4038-a5b1-2adc29a32fc2&thumb,인천광역시 서구 건지로334번길 45,37.49436108,126.679627
인천 송현시장,인천 동구,032-773-2368,"['가족여행', '나들이', '나홀로여행', '데이트코스', '먹거리', '서울근교여행', '쇼핑']",https://cdn.visitkorea.or.kr/img/call?cmd=VIEW&id=f89ae859-5997-4a25-b961-0fc2165b1e6b&thumb,인천광역시 동구 화도진로44번길 18,37.47616144,126.63464280000001
인천 송현자유시장,인천 동구,032-772-2126,"['가족여행', '나들이', '나홀로여행', '먹거리', '서울근교여행', '쇼핑', '수도권']",https://cdn.visitkorea.or.kr/img/call?cmd=VIEW&id=3f05957d-a72b-4d94-a1b4-ce6998b659db&thumb,인천광역시 동구 화도진로43번길 13-1,37.47597812,126.6329105
인천 신현동 회화나무,인천 서구,032-560-4343,"['관광지', '사계절', '수도권', '인천신현동회화나무']",https://cdn.visitkorea.or.kr/img/call?cmd=VIEW&id=45776d0e-c987-429b-a6fd-68806c495011&thumb,인천광역시 서구 새오개로68번길 15-47,37.516740500000004,126.6672825
인천 옥련시장,인천 연수구,032-831-8640,"['가족여행', '사계절', '쇼핑', '수도권', '시장맛집', '아이와함께', '옥련시장', '인천옥련시장']",https://cdn.visitkorea.or.kr/img/call?cmd=VIEW&id=5f6107d0-7b8c-461b-b6bd-38c0635e8e4e&thumb,인천광역시 연수구 독배로40번길 35,37.42462185,126.64683000000001
인천 올림픽기념국민생활관,인천 남동구,032-468-8182,"['레포츠', '올림픽기념국민생활관', '인천남동구', '종합스포츠센터']",https://cdn.visitkorea.or.kr/img/call?cmd=VIEW&id=c6ad5633-02f4-41dd-bf46-5ebe3d53f115&thumb,인천광역시 남동구 구월로 251,37.4571784,126.718678
인천 용현시장,인천 미추홀구,032-886-9318,"['가족여행', '사계절', '쇼핑', '수도권', '시장맛집', '아이와함께', '인천용현시장']",https://cdn.visitkorea.or.kr/img/call?cmd=VIEW&id=cb573952-3232-44f2-bc01-64e4be90d9d1&thumb,인천광역시 미추홀구 용삼길 57-1,37.45824141,126.65275109999999
인천 종합어시장,인천 중구,032-888-4241,"['가족여행', '나들이', '나홀로여행', '드라이브여행', '서울근교여행', '쇼핑', '수도권']",https://cdn.visitkorea.or.kr/img/call?cmd=VIEW&id=4af877a3-e7e5-4d48-9b07-e841d2dee023&thumb,인천광역시 중구 연안부두로33번길 37,37.45413649,126.6071645
인천 중구문화원,인천 중구,032-761-2778,"['문화시설', '복합문화공간', '열린문화공간', '인천', '중구문화원', '친구와 함께']",https://cdn.visitkorea.or.kr/img/call?cmd=VIEW&id=c56e90fe-c04a-4ec4-9581-2fa112265af2&thumb,인천광역시 중구 축항대로296번길 81,37.44017538,126.629407
인천 중앙시장,인천 동구,032-763-4242,"['가족여행', '나들이', '나홀로여행', '먹거리', '쇼핑', '수도권', '시장맛집', '아이와함께']",https://cdn.visitkorea.or.kr/img/call?cmd=VIEW&id=38daa9c8-da29-4ba2-9152-a047de3e73b6&thumb,인천광역시 동구 중앙로 68,37.47535282,126.63334509999999
인천 차이나타운,인천 중구,032-777-1330,"['19_20한국관광100선', '관광지', '당일치기여행', '맛집', '먹거리', '미식여행']",https://cdn.visitkorea.or.kr/img/call?cmd=VIEW&id=c97d3d84-ff9e-4165-a18d-bd85142f2a6e&thumb,인천광역시 중구 차이나타운로59번길 20,37.473740500000005,126.61913020000001
인천 푸른벗말,인천 옹진군,032-899-3410,"['관광지', '농촌체험', '농촌체험마을', '농촌체험여행', '농촌체험학습', '산책길']",https://cdn.visitkorea.or.kr/img/call?cmd=VIEW&id=946c2450-5f4c-4513-be0c-a3ee3d62ecdf&thumb,인천광역시 옹진군 북도면 신도로 577,37.5286635,126.46007709999999
인천 현대시장,인천 동구,032-777-2361,"['가족여행', '나들이', '나홀로여행', '드라이브여행', '먹거리', '서울근교여행']",https://cdn.visitkorea.or.kr/img/call?cmd=VIEW&id=d2fe00f2-9f89-462a-b97c-238f3a07003b&thumb,인천광역시 동구 송림로109번길 21,37.47748725,126.64612369999999
인천 화도진도서관,인천 동구,032-760-4100,"['공공도서관', '문화시설', '수도권', '화도진도서관']",https://cdn.visitkorea.or.kr/img/call?cmd=VIEW&id=7e60a760-306c-4a05-b6f9-9684fa135c70&thumb,인천광역시 동구 화도진로 122,37.48183742,126.6283495
인천 화평동 세숫대야 냉면 거리,인천 동구,032-777-1330,"['가족과함께', '관광지', '냉면맛집', '맛집탐방', '비빔냉면', '숨은맛집', '음식거리']",https://cdn.visitkorea.or.kr/img/call?cmd=VIEW&id=8890e3a1-e296-4011-b23a-026c2a2d4f8d&thumb,인천광역시 동구 화평로,37.4785689,126.629497
인천개항박물관,인천 중구,032-760-7508,"['가족과함께', '개항박물관', '근현대사', '문화시설', '미세먼지_피하는_실내여행']",https://cdn.visitkorea.or.kr/img/call?cmd=VIEW&id=9f03b61d-22ba-428c-bb77-177067f018a7&thumb,인천광역시 중구 신포로23번길 89,37.47331375,126.620332
인천경제자유구역(새아침/달빛/솔찬공원),인천 연수구,032-453-7912,"['걷기길', '관광지', '달빛공원', '새아침공원', '생태관광', '생태관광지', '생태체험관']",https://cdn.visitkorea.or.kr/img/call?cmd=VIEW&id=334fcd51-37a7-4553-aba1-0843163a0beb&thumb,인천광역시 연수구 신송로118번길 35,37.3970268,126.6548818
인천광역시 미추홀구 청소년수련관,인천 미추홀구,032-887-5270,"['교육프로그램', '레포츠', '인천미추홀구', '청소년수련관']",https://cdn.visitkorea.or.kr/img/call?cmd=VIEW&id=3b6aaa16-9655-41dc-8b7f-e2983a211e54&thumb,인천광역시 미추홀구 경인로42번길 23,37.46336760000001,126.6487115
인천광역시 미추홀도서관,인천 남동구,032-462-3900,"['도서관', '문화시설', '사계절', '수도권', '아이와함께', '인천광역시미추홀도서관']",https://cdn.visitkorea.or.kr/img/call?cmd=VIEW&id=0a5a688b-948f-42a3-8668-b246e10e4ce5&thumb,인천광역시 남동구 인주대로776번길 53,37.44704741,126.7248703
인천광역시 여성문화회관,인천 부평구,032-511-3141,"['문화공간', '문화시설', '문화행사', '복합문화공간', '수도권', '아이와함께', '여성문화']",https://cdn.visitkorea.or.kr/img/call?cmd=VIEW&id=71ebdb9e-3a4d-4709-a8bc-9a86cd0e1fc8&thumb,인천광역시 부평구 길주로 539,37.50794083,126.7221957
인천광역시 중앙도서관,인천 남동구,032-627-8396,"['남녀노소', '독서', '문화시설', '인천광역시', '중앙도서관']",https://cdn.visitkorea.or.kr/img/call?cmd=VIEW&id=b06d3832-0c72-4a00-af12-2de178c98cc0&thumb,인천광역시 남동구 정각로 9,37.45631112,126.703115
인천광역시 청소년수련관,인천 남동구,032-465-6827,"['레포츠', '숙박', '인천숙소', '청소년수련원']",https://cdn.visitkorea.or.kr/img/call?cmd=VIEW&id=e3c3e8e2-aa20-4f6d-afc7-7ae6d22b4c10&thumb,인천 남동구 장수로 42,37.4535494,126.75000179999999
인천광역시교육청북구도서관,인천 부평구,032-363-5000,"['독서', '문화시설', '북구도서관', '아이와 함께', '인천광역시']",https://cdn.visitkorea.or.kr/img/call?cmd=VIEW&id=e985565e-9958-4dde-83cf-8a8177495086&thumb,인천광역시 부평구 신트리로 21,37.50658208,126.7236378
인천광역시립박물관,인천 연수구,032-440-6750,"['드라이브여행', '무료관람', '문화시설', '박물관', '수도권', '시립박물관', '아이와함께']",https://cdn.visitkorea.or.kr/img/call?cmd=VIEW&id=77d0eee2-3968-409a-b072-64bb87ac0a3b&thumb,인천광역시 연수구 청량로160번길 26,37.42070925,126.6531798
인천국제공항 제2여객터미널,인천 중구,1577-2600,"['가족과함께', '관광지', '국제공항', '나홀로여행', '남녀노소', '배낭여행', '수도권']",https://cdn.visitkorea.or.kr/img/call?cmd=VIEW&id=01f0bdd4-97cb-4104-9ccc-da5b2eba0369&thumb,인천광역시 중구 제2터미널대로 446,37.4848155,126.4396163
인천국제컨트리클럽,인천 서구,032-562-9991,['레포츠'],https://cdn.visitkorea.or.kr/img/call?cmd=VIEW&id=undefined&thumb,인천광역시 서구 도요지로 37,37.5627816,126.65981409999998
"인천기독교사회복지관(현,창영사회복지관)",인천 동구,053-662-2362,"['관광지', '문화재', '수도권', '역사', '역사공부', '역사관광지', '역사를품은곳']",https://cdn.visitkorea.or.kr/img/call?cmd=VIEW&id=dce1cb1a-69ee-4256-af44-8ccb3d98c3bf&thumb,인천광역시 동구 우각로 57,37.4707278,126.6409969
인천나비공원,인천 부평구,032-509-8820,"['가족체험여행', '관광지', '나들이', '박물관', '산책길', '산책하기', '산책하기좋은곳']",https://cdn.visitkorea.or.kr/img/call?cmd=VIEW&id=c6bf05ec-7944-4312-8910-9175e1030226&thumb,인천광역시 부평구 평천로 26-47,37.52021,126.69264150000001
인천내동성공회성당,인천 중구,032-765-9004,"['관광지', '수도권', '역사', '역사공부', '역사관광지', '역사를품은곳', '역사문화재']",https://cdn.visitkorea.or.kr/img/call?cmd=VIEW&id=fad787ef-c271-4299-bc84-b3d2e75772c0&thumb,인천광역시 중구 개항로45번길 21-32,37.473894,126.62742990000001
인천대공원,인천 남동구,032-466-7282,"['관광지', '동물원', '서울근교여행', '수목원', '아이와함께', '인천대공원']",https://cdn.visitkorea.or.kr/img/call?cmd=VIEW&id=88a715ac-9daf-4c00-98b1-59c6c7dd596e&thumb,인천광역시 남동구 무네미로 236,37.457694000000004,126.7494785
인천대공원 목재문화체험장,인천 남동구,032-440-58885884,"['가족과함께', '목재문화체험장', '문화시설', '아이와함께', '이색체험']",https://cdn.visitkorea.or.kr/img/call?cmd=VIEW&id=3bc5cac0-1db2-40e7-b347-ec82122df422&thumb,인천광역시 남동구 무네미로 236,37.45769366,126.7492908
인천대공원 반려동물 놀이터,인천 남동구,070-8877-2500,"['가족과함께', '관광지', '반려견동반여행지', '산책하기', '산책하기좋은곳', '아이와함께']",https://cdn.visitkorea.or.kr/img/call?cmd=VIEW&id=b9e64bae-c518-4dd8-9814-e8f543842712&thumb,인천광역시 남동구 무네미로 236,37.457694000000004,126.7494785
인천대공원 사계절썰매장,인천 남동구,032-465-1524,"['가족과함께', '겨울스포츠', '눈썰매장', '눈썰매장', '레포츠', '복합레저스포츠']",https://cdn.visitkorea.or.kr/img/call?cmd=VIEW&id=89eb7771-74bb-498f-a615-73dbed30addf&thumb,인천 남동구 무네미로 238,37.4510879,126.74667779999999
인천대교,인천 중구,032-745-8000,"['관광지', '드라마촬영지', '드라이브여행', '드라이브코스', '바다풍경', '수도권']",https://cdn.visitkorea.or.kr/img/call?cmd=VIEW&id=7dc91b3d-9bfe-4247-821a-9a2c2db43095&thumb,인천광역시 중구 인천대교고속도로 3,37.413659100000004,126.5665207
인천도시역사관,인천 연수구,032-850-6000,"['가족과함께', '가족여행', '교육여행', '문화공간', '문화시설', '미세먼지_피하는_실내여행']",https://cdn.visitkorea.or.kr/img/call?cmd=VIEW&id=0535cc6e-2fd0-4518-8af9-56eec864a63c&thumb,인천광역시 연수구 인천타워대로 238,37.39281282,126.6358893
인천도호부청사,인천 미추홀구,032-422-3492,"['가족여행', '관광지', '드라이브여행', '서울근교여행', '수도권', '아이와함께']",https://cdn.visitkorea.or.kr/img/call?cmd=VIEW&id=51a326f7-3c47-4dc4-a5c2-b677069129be&thumb,인천광역시 미추홀구 매소홀로 589,37.439184999999995,126.68732790000001
인천동구청소년수련관,인천 동구,032-777-7942,"['교육여행', '교육프로그램', '문화공간', '문화시설', '복합문화공간', '수도권']",https://cdn.visitkorea.or.kr/img/call?cmd=VIEW&id=9a73a874-9670-4a0d-95a9-a62ceae088d7&thumb,인천광역시 동구 솔빛로 82,37.47606794,126.6425753
인천문학경기장(인천월드컵경기장),인천 미추홀구,032-455-2677,"['레포츠', '인천미추홀구', '인천월드컵경기장']",https://cdn.visitkorea.or.kr/img/call?cmd=VIEW&id=39d7d4ee-3999-4db6-bd82-ce55a1fcf01b&thumb,인천 미추홀구 매소홀로 618,37.4360819,126.68911659999999
인천문화예술회관,인천 남동구,032-427-8401,"['가족여행', '공연장', '나들이', '데이트코스', '문화시설', '서울근교여행', '수도권']",https://cdn.visitkorea.or.kr/img/call?cmd=VIEW&id=026096eb-2989-4365-9fa3-86abd7f47697&thumb,인천광역시 남동구 예술로 149,37.44758892,126.7000558
인천상륙작전기념관,인천 연수구,032-832-0915,"['기념관', '문화시설', '박물관', '수도권', '아이와함께', '인천상륙작전기념관']",https://cdn.visitkorea.or.kr/img/call?cmd=VIEW&id=0c8e7d9c-95a2-41b0-baf0-adf519cd43ed&thumb,인천광역시 연수구 청량로 138,37.41957419,126.6542363
인천서구 사계절썰매장,인천 서구,032-565-3483,"['겨울스포츠', '눈썰매장', '레포츠', '복합레저스포츠', '사계절썰매장', '아이와함께']",https://cdn.visitkorea.or.kr/img/call?cmd=VIEW&id=320f8743-66c0-443e-85b2-25598e667e5d&thumb,인천광역시 서구 심곡로 166,37.5474686,126.68365459999998
인천서구문화회관,인천 서구,032-579-1150,"['데이트코스', '문화시설', '복합문화공간', '서울근교여행', '수도권', '아이와함께']",https://cdn.visitkorea.or.kr/img/call?cmd=VIEW&id=9cb663ec-15c1-415c-856c-6dd54c1caa20&thumb,인천광역시 서구 서달로 190,37.51569923,126.6798899
인천수봉문화회관,인천 미추홀구,032-868-7196,"['공연장', '기차여행', '나들이', '데이트코스', '문화시설', '서울근교여행', '수도권']",https://cdn.visitkorea.or.kr/img/call?cmd=VIEW&id=9b5126b5-7a52-4b4c-a5aa-3d0188fb869b&thumb,인천광역시 미추홀구 수봉안길 78,37.46153324,126.6622628
인천아시아드 주경기장 연희크리켓경기장,인천 서구,032-458-2014,"['레포츠', '연희크리켓경기장', '인천서구', '인천아시아드경기장']",https://cdn.visitkorea.or.kr/img/call?cmd=VIEW&id=8ee4fe3e-042f-449a-b8a8-58f4f4f0a817&thumb,인천광역시 서구 봉수대로 806,37.55560360000001,126.6578199
인천아시아드주경기장,인천 서구,032-454-2014,"['가족과함께', '공연/행사', '남녀노소', '레포츠', '아이와함께', '육상경기', '인천서구']",https://cdn.visitkorea.or.kr/img/call?cmd=VIEW&id=7784fd96-bd97-4e1a-a25c-25dd12c045f6&thumb,인천광역시 서구 봉수대로 806,37.55560360000001,126.6578199
인천아트플랫폼,인천 중구,032-760-1000,"['공연&전시', '남녀노소', '문화시설', '문화예술', '문화예술공간', '문화행사']",https://cdn.visitkorea.or.kr/img/call?cmd=VIEW&id=e6f61385-3623-4e70-bd90-ec1ca72f6f6d&thumb,인천광역시 중구 제물량로218번길 3,37.47278273,126.6205946
인천어린이과학관,인천 계양구,032-456-2500,"['과학관', '문화시설', '어린이', '인천가볼만한곳', '인천어린이과학관']",https://cdn.visitkorea.or.kr/img/call?cmd=VIEW&id=467ff5be-3fbe-494a-9408-fc778dd46762&thumb,인천광역시 계양구 방축로 21,37.55157123,126.7399488
인천어린이박물관,인천 미추홀구,032-432-5600,"['교과서속여행', '문화시설', '박물관', '수도권', '아이와함께', '이색체험', '인천어린이박물관']",https://cdn.visitkorea.or.kr/img/call?cmd=VIEW&id=606fa918-790f-466e-bce4-92957c13cb28&thumb,인천광역시 미추홀구 매소홀로 618,37.43654516,126.6864606
인천우체국,인천 중구,032-773-2106,"['관광지', '사계절', '수도권', '실내여행지', '역사', '역사공부', '역사를품은곳']",https://cdn.visitkorea.or.kr/img/call?cmd=VIEW&id=eb8fc466-01dd-4602-8197-b7aa16bd3443&thumb,인천광역시 중구 제물량로 183,37.4702026,126.6230264
인천음악문화원,인천 미추홀구,032-429-0248,"['문화시설', '음악공연', '인천', '인천음악문화원', '친구와 함께']",https://cdn.visitkorea.or.kr/img/call?cmd=VIEW&id=00fde28b-05e7-41d8-85e5-57e1979e1fd1&thumb,인천광역시 미추홀구 경인로 391,37.45856675,126.68354740000002
인천주안도서관,인천 미추홀구,032-450-9100,"['독서', '문화시설', '아이와 함께', '인천주안도서관']",https://cdn.visitkorea.or.kr/img/call?cmd=VIEW&id=fc6ce050-f1ef-451f-b7fa-9ef05ed78750&thumb,인천광역시 미추홀구 구월남로 27,37.45550009,126.6928788
인천중구청(구 인천부 청사),인천 중구,032-760-6475,"['관광지', '교과서속여행', '구인천부청사', '근대문화유산', '근대역사', '수도권']",https://cdn.visitkorea.or.kr/img/call?cmd=VIEW&id=2abac7fe-21f4-41bf-8a08-23fd4ce53dcb&thumb,인천광역시 중구 신포로27번길 80,37.4737135,126.62168229999999
인천통일관,인천 미추홀구,032-868-0113,"['문화시설', '북한생활', '수도권', '역사', '인천통일관', '전시관', '체험학습', '평화통일']",https://cdn.visitkorea.or.kr/img/call?cmd=VIEW&id=4b9cb0ff-777a-4a15-9e87-5c2ee708f1cd&thumb,인천광역시 미추홀구 수봉안길 84,37.4597895,126.66327539999999
인천학생과학관,인천 중구,032-880-0792,"['문화시설', '아이와함께', '인천학생과학관', '전시관', '주말추천여행지', '체험학습']",https://cdn.visitkorea.or.kr/img/call?cmd=VIEW&id=f74f7af2-58b8-4999-9b7b-1ddc37ffc8f5&thumb,인천광역시 중구 영종대로277번길 74-10,37.4906584,126.5065551
인천학생교육문화회관,인천 중구,032-760-3400,"['문화시설', '사계절', '수도권', '스포츠센터', '실내놀이터', '인천학생교육문화회관']",https://cdn.visitkorea.or.kr/img/call?cmd=VIEW&id=952d7827-c050-434e-a14b-2f6d890f9a9a&thumb,인천광역시 중구 자유공원로 12,37.47571168,126.6296708
인천항 갑문,인천 중구,032-890-8000,"['관광지', '바다풍경', '사계절', '수도권', '인천항갑문', '자연', '전망좋은곳']",https://cdn.visitkorea.or.kr/img/call?cmd=VIEW&id=9770b0de-4e80-4c48-92b5-50cc2fa355e6&thumb,인천광역시 중구 월미로 376,37.467025299999996,126.6041854
인천항 갑문홍보관,인천 중구,032-770-4519,"['가족여행', '갑문홍보관', '관광지', '박물관', '산업관광', '산업관광지', '수도권']",https://cdn.visitkorea.or.kr/img/call?cmd=VIEW&id=44b39059-2088-4fbc-8299-6ceafb6d355c&thumb,인천광역시 중구 월미로 376,37.467025299999996,126.6041854
인천항크루즈터미널,인천 연수구,032-837-0600,"['관광지', '남녀노소', '바다경치', '바다내음', '불꽃축제', '인천여행', '크루즈']",https://cdn.visitkorea.or.kr/img/call?cmd=VIEW&id=1686dc93-a8e4-4d0f-958e-1c5b1d0277d7&thumb,인천광역시 연수구 국제항만대로 438,37.4094099,126.6783088
인천향교,인천 미추홀구,032-876-7041,"['관광지', '문화재', '수도권', '역사', '인천향교', '향교']",https://cdn.visitkorea.or.kr/img/call?cmd=VIEW&id=c659e211-dcba-4b1f-9ba7-9fd782ab19fa&thumb,인천광역시 미추홀구 매소홀로 589,37.439184999999995,126.68732790000001
인하대학교 박물관,인천 미추홀구,032-860-8260,"['가족여행', '교과서속여행', '문화시설', '박물관', '수도권', '아이와함께', '인하대학교박물관']",https://cdn.visitkorea.or.kr/img/call?cmd=VIEW&id=b3bd90c5-f879-411a-bf5e-0a95985f2721&thumb,인천광역시 미추홀구 인하로 100,37.45144803,126.6515423
인하대학교 정석학술정보관,인천 미추홀구,032-860-9014,"['가족여행', '교과서속여행', '도서관', '문화시설', '박물관', '수도권', '아이와함께']",https://cdn.visitkorea.or.kr/img/call?cmd=VIEW&id=3a60efd6-437e-4330-8cd2-2712181c0c91&thumb,인천광역시 미추홀구 인하로 100,37.45144803,126.6515423
인하대후문먹거리타운,인천 미추홀구,032-880-7998,"['관광지', '맛집', '맛집골목', '맛집탐방', '먹거리투어', '먹자골목', '인하대', '지역특화먹거리']",https://cdn.visitkorea.or.kr/img/call?cmd=VIEW&id=aa7c3de8-3c7a-4cca-b0cf-bef78901e627&thumb,인천광역시 미추홀구 경인남길30번길 45-1,37.4519402,126.6570375
자월도 장골해변,인천 옹진군,032-899-3750,"['경치좋은곳', '관광지', '바다풍경', '서울근교여행', '수도권', '여름여행', '자연']",https://cdn.visitkorea.or.kr/img/call?cmd=VIEW&id=73823593-e72d-4bb4-b4c2-3072e610a70d&thumb,인천광역시 옹진군 자월면 자월서로,37.257687,126.29918149999999
자유공원(인천),인천 중구,032-761-4774,"['가족여행', '관광지', '나들이', '당일치기여행', '드라이브여행', '서울근교여행']",https://cdn.visitkorea.or.kr/img/call?cmd=VIEW&id=cb3f1250-be3b-4363-9a0b-7a5dcc7efd00&thumb,인천광역시 중구 자유공원남로 25,37.474580200000005,126.6221322
작은풀안 해변,인천 옹진군,032-832-3031,"['가족여행', '관광지', '바다풍경', '방송촬영지', '서울근교여행', '수도권', '아이와함께']",https://cdn.visitkorea.or.kr/img/call?cmd=VIEW&id=53080efa-1768-4763-9698-e60230437436&thumb,인천광역시 옹진군 자월면 대이작로,37.16728079999999,126.26745279999999
잠진도,인천 중구,032-832-3031,"['관광지', '자연']",https://cdn.visitkorea.or.kr/img/call?cmd=VIEW&id=a63411ab-875c-4624-9a79-3ff9d9eb5647&thumb,인천광역시 중구 잠진도길 144,37.4181865,126.4155139
장경리해수욕장,인천 옹진군,032-899-2214,"['관광지', '바다풍경', '자연', '자연속으로', '자연좋은곳', '자연풍경', '자연환경']",https://cdn.visitkorea.or.kr/img/call?cmd=VIEW&id=e84302c6-32b0-4666-8dd7-954eabba0478&thumb,인천광역시 옹진군 영흥면 영흥로757번길 6,37.2726225,126.44997590000001
장곶돈대,인천 강화군,032-934-5565,"['관광지', '수도권', '역사', '역사공부', '역사관광지', '역사를품은곳', '역사문화재']",https://cdn.visitkorea.or.kr/img/call?cmd=VIEW&id=6e884607-1058-408e-97e7-bd65abeedf25&thumb,인천광역시 강화군 화도면 장화리,37.620344200000005,126.39092649999999
장봉도,인천 옹진군,032-832-3031,"['관광지', '섬', '수도권', '자연', '장봉도', '트레킹', '풍경여행']",https://cdn.visitkorea.or.kr/img/call?cmd=VIEW&id=66e8a010-3536-4861-a939-4993c0ff069b&thumb,인천광역시 옹진군 북도면 장봉리,37.5475475,126.3278712
장봉도 옹암해변,인천 옹진군,032-899-3414,"['가족여행', '갯벌체험', '관광지', '바다낚시', '바다풍경', '서울근교여행', '수도권']",https://cdn.visitkorea.or.kr/img/call?cmd=VIEW&id=9d349657-d26f-4121-9fdf-f288fc78c498&thumb,인천광역시 옹진군 북도면 장봉로 227,37.531022799999995,126.36853870000002
장봉도 진촌해변,인천 옹진군,032-751-2628,"['경치좋은곳', '관광지', '바다풍경', '서울근교여행', '수도권', '자연', '자연좋은곳']",https://cdn.visitkorea.or.kr/img/call?cmd=VIEW&id=4315f273-e7f2-4a4e-a988-8a51919dfeec&thumb,인천광역시 옹진군 북도면 장봉로 740-71,37.5502845,126.33438159999999
장봉도 한들해수욕장,인천 옹진군,032-899-3414,"['가족여행', '관광지', '바다낚시', '바다풍경', '서울근교여행', '수도권', '연인과함께']",https://cdn.visitkorea.or.kr/img/call?cmd=VIEW&id=252c52b5-551f-45fd-b114-3a56fc216f0d&thumb,인천광역시 옹진군 북도면 장봉로465번길 70,37.5289112,126.3464077
장봉마을,인천 옹진군,032-746-8003,"['관광지', '농촌', '농촌마을', '농촌여행', '농촌체험마을', '농촌체험여행', '시골']",https://cdn.visitkorea.or.kr/img/call?cmd=VIEW&id=5277e4be-c193-4b6b-9a9e-163cab2105ac&thumb,인천광역시 옹진군 북도면 장봉로26번길 68-15,37.5368016,126.3807013
장승백이 전통시장 (구. 창대시장),인천 남동구,032-471-1216,"['가족여행', '사계절', '쇼핑', '수도권', '시장맛집', '아이와함께', '장승백이전통시장']",https://cdn.visitkorea.or.kr/img/call?cmd=VIEW&id=a2396b41-1980-4f80-bd11-917dd791d780&thumb,인천광역시 남동구 인주대로888번길 35,37.44656416,126.73522709999999
재미난 박물관,인천 중구,032-765-0780,"['과학놀이터', '과학전시물', '과학체험', '문화시설', '사고력', '아이와함께체험여행']",https://cdn.visitkorea.or.kr/img/call?cmd=VIEW&id=b4c23c68-4110-411a-b3a1-68ce6eabe706&thumb,인천광역시 중구 인중로 190,37.4693807,126.6235199
적석사,인천 강화군,032-932-6191,"['관광지', '불교', '불교문화', '사찰', '사찰여행', '역사', '자연속으로', '자연환경']",https://cdn.visitkorea.or.kr/img/call?cmd=VIEW&id=8ee6395a-4ae9-4e9e-927d-a596b936cd0f&thumb,인천광역시 강화군 내가면 연촌길 181,37.737331899999994,126.40999009999999
전등사(강화),인천 강화군,032-937-0125,"['가족여행', '관광지', '나들이', '당일치기여행', '드라이브여행', '사찰&산사']",https://cdn.visitkorea.or.kr/img/call?cmd=VIEW&id=b4f8fa10-f48c-4217-8f06-99a9fc1f7b38&thumb,인천광역시 강화군 길상면 전등사로 37-41,37.6326092,126.48497659999998
전원미술관,인천 강화군,032-933-0045,"['데이트코스', '문화시설', '사계절', '상설공연', '수도권', '실내여행지', '아이와함께']",https://cdn.visitkorea.or.kr/img/call?cmd=VIEW&id=6b9e1564-cf6f-478b-8e7a-131ba80b714a&thumb,인천광역시 강화군 강화대로766번길 27,37.76665206,126.4584439
정서진,인천 계양구,032-560-5930,"['관광지', '서해', '서해여행', '인천여행', '일몰명소', '정서진']",https://cdn.visitkorea.or.kr/img/call?cmd=VIEW&id=24f827c3-610e-429c-8308-2e7f8c8d7107&thumb,인천광역시 서구 오류동 아라인천여객터미널,37.5580193,126.6060768
정수사(강화),인천 강화군,032-937-3611,"['강화도', '관광지', '불교', '불교문화', '불교사찰', '사찰', '사찰여행', '아이와함께']",https://cdn.visitkorea.or.kr/img/call?cmd=VIEW&id=ddd1b55d-7127-426b-9e8e-dc8c5294fc0c&thumb,인천광역시 강화군 화도면 해안남로1258번길 142,37.608628499999995,126.4455483
정족산,인천 강화군,032-930-7500,"['관광지', '등산', '수도권', '자연', '정족산', '트레킹']",https://cdn.visitkorea.or.kr/img/call?cmd=VIEW&id=3eacb3bf-615e-40b0-a543-5fa54ae0636c&thumb,인천광역시 강화군 길상면 전등사로,37.634572600000006,126.4915986
제물포고등학교 강당,인천 중구,032-760-6474,"['관광지', '등록문화재', '수도권', '역사', '역사공부', '역사를품은곳', '역사문화재']",https://cdn.visitkorea.or.kr/img/call?cmd=VIEW&id=bda19158-b3c0-4ccc-8053-d5d40d4c90b3&thumb,인천광역시 중구 자유공원로 58-9,37.476630799999995,126.6239769
제물포구락부,인천 중구,032-760-6474,"['건축사', '건축여행', '관광지', '교과서속여행', '근대건축', '근대건축물', '문화재']",https://cdn.visitkorea.or.kr/img/call?cmd=VIEW&id=ba01aa2f-efca-4496-bbd8-45de8aef5677&thumb,인천광역시 중구 자유공원남로 25,37.474580200000005,126.6221322
조병수 가옥,인천 중구,032-760-6474,"['관광지', '역사', '역사공부', '역사관광지', '역사를품은곳', '역사문화재', '역사속']",https://cdn.visitkorea.or.kr/img/call?cmd=VIEW&id=1b745886-3a59-425f-8d8a-1da84ad1d3f4&thumb,인천광역시 중구 용유로380번길 21,37.4520859,126.41002069999999
종해루,인천 강화군,032-930-4572,"['관광지', '역사', '역사공부', '역사관광지', '역사를품은곳', '역사문화재', '역사속']",https://cdn.visitkorea.or.kr/img/call?cmd=VIEW&id=09bab00c-4253-47d5-89f7-4fa8cf420268&thumb,인천광역시 강화군 길상면 전등사로 37-41,37.6326092,126.48497659999998
주문도,인천 강화군,032-932-9819,"['관광지', '섬', '수도권', '자연', '주문도']",https://cdn.visitkorea.or.kr/img/call?cmd=VIEW&id=c8145d34-bfb3-4d62-8cc0-4bec602133fd&thumb,인천광역시 강화군 서도면 주문도1길 16,37.650348,126.23929150000001
주인근린공원,인천 미추홀구,031-880-4502,"['관광지', '미추홀구공원', '주인근린공원', '주인선']",https://cdn.visitkorea.or.kr/img/call?cmd=VIEW&id=8761d067-41fa-42a3-86b2-997b1dfa512d&thumb,인천광역시 미추홀구 숭의동 33-18,37.4621873,126.65503770000001
중구생활사전시관,인천 중구,032-766-2202,"['가족과함께', '근현대사', '대불호텔', '문화시설', '미세먼지_피하는_실내여행']",https://cdn.visitkorea.or.kr/img/call?cmd=VIEW&id=9183e8f1-faca-4e65-b2bb-883d8994443a&thumb,인천광역시 중구 신포로23번길 101,37.47355849,126.6199768
지선사,인천 계양구,032-545-7835,"['관광지', '불교', '불교문화', '사찰', '사찰여행', '수도권', '역사', '전통사찰', '종교']",https://cdn.visitkorea.or.kr/img/call?cmd=VIEW&id=60543f81-5698-404b-95d2-97ba2fc20b21&thumb,인천광역시 계양구 경명대로955번길 13-12,37.5459694,126.71176299999999
짜장면박물관,인천 중구,032-773-9812,"['문화시설', '아이와함께', '이색체험', '인천권', '짜장면박물관']",https://cdn.visitkorea.or.kr/img/call?cmd=VIEW&id=b05bfc85-2007-4f59-a1df-5c13d07b0ac2&thumb,인천광역시 중구 차이나타운로 56-14,37.4748564,126.6181913
창영초등학교(구)교사,인천 동구,032-770-6923,"['관광지', '역사', '역사공부', '역사관광지', '역사를품은곳', '역사문화재', '역사속']",https://cdn.visitkorea.or.kr/img/call?cmd=VIEW&id=69761f26-7f10-4828-9204-c7a3cb4564f6&thumb,인천광역시 동구 우각로15번길 16,37.4718064,126.63943540000001
책방시점,인천 강화군,010-9931-0301,"['관광지', '국내힐링여행', '북스테이', '이색체험', '휴식공간', '휴식여행', '휴식하기좋은곳']",https://cdn.visitkorea.or.kr/img/call?cmd=VIEW&id=21890b82-2a1d-4c0f-ae83-2d77391b71ae&thumb,인천광역시 강화군 길상면 마니산로 101-16,37.6372284,126.48269040000001
천상병 귀천(歸天) 공원,인천 강화군,032-930-3114,"['관광지', '시인공원', '천상병시인']",https://cdn.visitkorea.or.kr/img/call?cmd=VIEW&id=1f0c731b-d214-4f32-9d53-9073f67ce11d&thumb,인천광역시 강화군 양도면 건평리 889,37.6818177,126.39592069999999
철종외가,인천 강화군,032-930-4571,"['고택', '관광지', '수도권', '역사', '역사공부', '역사관광지', '역사를품은곳', '역사문화재']",https://cdn.visitkorea.or.kr/img/call?cmd=VIEW&id=0b21c180-87e7-476a-9a6c-42ab441878dc&thumb,인천광역시 강화군 선원면 철종외가길 46-1,37.7056693,126.4769903
청라 스파렉스,인천 서구,032-561-2244,"['가족과함께', '관광지', '목욕탕', '아이와함께', '열린문화공간', '이색체험', '인천가볼만한곳']",https://cdn.visitkorea.or.kr/img/call?cmd=VIEW&id=3f6a6e24-bdcd-49f6-9c98-79ee49985f03&thumb,인천광역시 서구 청라커낼로260번길 15,37.531930100000004,126.6460618
청라호수공원,인천 서구,032-715-6430,"['관광지', '산책코스', '산책하기좋은곳', '자연관광지', '자연좋은곳', '자연환경']",https://cdn.visitkorea.or.kr/img/call?cmd=VIEW&id=3d4e4456-1cb3-4b0c-843e-ed34f3f4b1f8&thumb,인천광역시 서구 크리스탈로 59,37.552118799999995,126.6441068
청라호수도서관,인천 서구,032-563-9579,"['남녀노소', '도서관', '독서여행', '문화공간', '문화시설', '복합문화공간', '열린문화공간']",https://cdn.visitkorea.or.kr/img/call?cmd=VIEW&id=4e5cf583-e674-459e-8169-65fe05788bee&thumb,인천광역시 서구 크리스탈로 59,37.5306152,126.6362978
청련사(강화),인천 강화군,032-933-3887,"['강화청련사', '관광지', '불교', '불교문화', '사찰', '수도권', '역사', '연중무휴']",https://cdn.visitkorea.or.kr/img/call?cmd=VIEW&id=69285e1c-4e51-4e7b-b1b6-f7cd91ff4b00&thumb,인천광역시 강화군 강화읍 고비고개로188번길 112,37.7466718,126.447814
청수암(인천),인천 강화군,032-934-2661,"['가족여행', '관광지', '불교', '불교문화', '사찰', '사찰&산사', '사찰여행', '수도권']",https://cdn.visitkorea.or.kr/img/call?cmd=VIEW&id=undefined&thumb,인천광역시 강화군 강화읍 청하동길36번길 62,37.7429729,126.47503600000002
청학동외국인묘지,인천 연수구,032-749-7312,"['공동묘지', '관광지', '역사', '역사속으로', '역사이야기', '외국인묘지', '인천시']",https://cdn.visitkorea.or.kr/img/call?cmd=VIEW&id=bc5b91a8-e1f6-4054-b4c3-913a39f8b298&thumb,인천광역시 연수구 비류대로232번길,37.4250271,126.6612639
초지대교,인천 강화군,032-832-3031,"['강화대교', '경치좋은곳', '관광지', '대교', '드라이브', '드라이브여행', '바다경치']",https://cdn.visitkorea.or.kr/img/call?cmd=VIEW&id=a2854c1b-ba2a-4cc7-9c55-678a8f3ed51d&thumb,인천광역시 강화군 길상면,37.6405809,126.49117509999999
추억극장미림,인천 동구,032-764-8880,"['문화공간', '문화시설', '문화예술', '복합문화공간', '아이와함께', '열린문화공간']",https://cdn.visitkorea.or.kr/img/call?cmd=VIEW&id=b9e133b0-f3a6-4d52-b367-e5ca28e77cba&thumb,인천광역시 동구 화도진로 31,37.47549514,126.6342924
충렬사,인천 강화군,032-930-4571,"['관광지', '수도권', '역사', '역사공부', '역사관광지', '역사를품은곳', '역사문화재']",https://cdn.visitkorea.or.kr/img/call?cmd=VIEW&id=8e7c1890-a9f8-46dc-91a1-280910da46fb&thumb,인천광역시 강화군 선원면 충렬사로 232,37.7270584,126.4658124
큰무리어촌체험마을,인천 중구,032-751-0310,"['관광지', '농어촌체험', '아이와함께', '어촌체험', '이색체험', '자연마을', '자연좋은곳']",https://cdn.visitkorea.or.kr/img/call?cmd=VIEW&id=0e92de5d-5a57-423b-ae4d-a4721c7e47e9&thumb,인천광역시 중구 대무의로 26-9,37.408978600000005,126.4136658
큰풀안 해변,인천 옹진군,032-832-3031,"['가족여행', '경치좋은곳', '관광지', '바다풍경', '서울근교여행', '수도권', '아이와함께']",https://cdn.visitkorea.or.kr/img/call?cmd=VIEW&id=7e50f684-7ad9-4455-bb36-7a78e779f200&thumb,인천광역시 옹진군 자월면 대이작로160번길,37.170117299999994,126.26081440000002
파라다이스 씨티 씨메르(인천),인천 중구,032-729-7700,"['관광지', '스파', '실내데이트', '실내수영장', '실외수영장', '열린문화공간', '이색체험']",https://cdn.visitkorea.or.kr/img/call?cmd=VIEW&id=f0cbe08a-b727-4b7c-9834-f4d4e84f3467&thumb,인천광역시 중구 영종해안남로321번길 186,37.44007979999999,126.4533903
파라다이스 카지노 인천공항점,인천 중구,032-729-3121,['레포츠'],https://cdn.visitkorea.or.kr/img/call?cmd=VIEW&id=62e38485-305e-4e61-950d-60de5b0e5d4b&thumb,인천광역시 중구 영종해안남로321번길 208,37.4404833,126.45750759999999
팔미도 유람선,인천 중구,032-885-0001,"['가족과함께', '가족여행', '관광지', '바다경치', '바다내음', '바다풍경', '바다향기로']",https://cdn.visitkorea.or.kr/img/call?cmd=VIEW&id=ad4cd639-c823-4732-933e-e447f69d1310&thumb,인천광역시 중구 연안부두로 36,37.4548948,126.60120559999999
팔미도등대,인천 중구,032-831-4925,"['관광지', '자연']",https://cdn.visitkorea.or.kr/img/call?cmd=VIEW&id=f68d6a43-0069-457c-a474-a88e118ce0e4&thumb,인천광역시 중구 팔미로 15,37.35833579999999,126.5106153
하나개해수욕장,인천 중구,032-751-8833,"['가족여행', '관광지', '나들이', '데이트코스', '바다풍경', '서울근교여행', '수도권']",https://cdn.visitkorea.or.kr/img/call?cmd=VIEW&id=75cdb247-2a6f-4a2e-a9d9-cf56092d8ac2&thumb,인천광역시 중구 무의동 산189번지,37.3851838,126.41862859999999
한국이민사박물관,인천 중구,032-440-4710,"['교과서속여행', '교육프로그램', '문화시설', '박물관', '수도권', '역사공부', '역사속']",https://cdn.visitkorea.or.kr/img/call?cmd=VIEW&id=75425417-47ad-4f0e-b6a3-0ecbd3273158&thumb,인천광역시 중구 월미로 329,37.47014308,126.6002711
한중문화관,인천 중구,032-760-7860,"['가족여행', '나들이', '문화시설', '복합문화공간', '사계절', '상설공연', '수도권']",https://cdn.visitkorea.or.kr/img/call?cmd=VIEW&id=40250b11-5c90-4a25-aa24-56639761eb65&thumb,인천광역시 중구 제물량로 238,37.47358364,126.6187763
함허동천야영장,인천 강화군,032-930-7066,['레포츠'],https://cdn.visitkorea.or.kr/img/call?cmd=VIEW&id=873f050f-1eb8-4668-8451-e4f45fd8e1f4&thumb,인천광역시 강화군 화도면 해안남로1196번길 38,37.6120401,126.4530611
해군영흥도 전적비,인천 옹진군,032-899-3810,"['관광지', '교과서속여행', '기념탑', '서울근교여행', '수도권', '아이와함께', '안보여행']",https://cdn.visitkorea.or.kr/img/call?cmd=VIEW&id=70273b17-b0da-4205-a3f3-e119b9365466&thumb,인천광역시 옹진군 영흥면 영흥로251번길 24,37.2574549,126.48466780000001
해든뮤지움,인천 강화군,032-937-6911,"['교육체험', '남녀노소', '문화공간', '문화시설', '문화예술', '문화예술공간', '복합문화공간']",https://cdn.visitkorea.or.kr/img/call?cmd=VIEW&id=fb13b51d-ad8e-46c2-97ce-d532cb0655bd&thumb,인천광역시 강화군 길상면 장흥로101번길 44,37.61213705,126.5088507
해수워터피아,인천 서구,032-577-3600,"['가족과함께', '관광지', '뷰티&스파', '수도권', '연인과함께', '온천&스파', '친구와함께']",https://cdn.visitkorea.or.kr/img/call?cmd=VIEW&id=undefined&thumb,인천광역시 서구 봉수대로 257,37.555603600000005,126.6578199
혜명단청박물관,인천 중구,032-868-5898,"['가족과함께', '건축여행', '고건축', '남녀노소', '문화시설', '불교문화', '아이와함께']",https://cdn.visitkorea.or.kr/img/call?cmd=VIEW&id=4d6db822-62d3-477e-adfd-b85ac4a6ac17&thumb,인천광역시 중구 신포로15번길 48,37.47190732,126.6220591
호룡곡산,인천 중구,032-751-2628,"['관광지', '등산객', '등산여행', '등산코스', '자연', '자연관광지', '자연속으로']",https://cdn.visitkorea.or.kr/img/call?cmd=VIEW&id=3763bccd-8fdb-4e38-935c-3b5ec13e9bd6&thumb,인천광역시 중구 대무의로 464,37.377094799999995,126.4308271
호명사,인천 부평구,032-522-4805,"['관광지', '불교', '불교문화', '사찰', '사찰여행', '수도권', '역사', '자연속으로']",https://cdn.visitkorea.or.kr/img/call?cmd=VIEW&id=4aea20b8-65ad-4194-89ff-f91cb4626e52&thumb,인천광역시 부평구 경인로 847,37.4839839,126.71468359999999
호불사,인천 연수구,032-834-8904,"['관광지', '불교', '불교문화', '사찰여행', '수도권', '역사', '역사유적지', '연중무휴']",https://cdn.visitkorea.or.kr/img/call?cmd=VIEW&id=010732cb-2228-4a06-a3fa-caf7bcf57e10&thumb,인천광역시 연수구 청룡로 80,37.4215325,126.6583253
홍예문,인천 중구,032-760-6474,"['건축물', '건축사', '건축여행', '관광지', '근대건축', '역사', '역사공부', '역사관광지']",https://cdn.visitkorea.or.kr/img/call?cmd=VIEW&id=4ca0adad-3be2-4d76-9c8e-ac8ea97c9d9d&thumb,인천광역시 중구 송학동,37.4731843,126.6258195
화도진공원,인천 동구,032-770-6205,"['관광지', '산책길', '산책하기', '산책하기좋은곳', '수도권', '아이와함께', '역사유적지']",https://cdn.visitkorea.or.kr/img/call?cmd=VIEW&id=e53f7dc5-cc77-470c-8bf3-f111b6ceadcd&thumb,인천광역시 동구 화도진로 114,37.4821054,126.6287902
화도진전시관,인천 동구,032-770-6892,"['문화관광', '문화시설', '역사공부', '화도진전시관', '화도진지']",https://cdn.visitkorea.or.kr/img/call?cmd=VIEW&id=d67b6fbc-559b-4842-958a-32cffdb56e28&thumb,인천광역시 동구 화도진로 114,37.48147946,126.6283528
화도진지,인천 동구,032-440-4063,"['관광지', '역사', '역사공부', '역사관광지', '역사를품은곳', '역사문화재', '역사속']",https://cdn.visitkorea.or.kr/img/call?cmd=VIEW&id=7ddfe985-0dfc-410b-80d2-a132e2c3b4e6&thumb,인천광역시 동구 화도진로 114,37.4821054,126.6287902
황산지(장흥지),인천 강화군,032-937-2732,"['강화군', '겨울낚시', '낚시', '레포츠', '저수지', '황산지']",https://cdn.visitkorea.or.kr/img/call?cmd=VIEW&id=b3db8ec1-7f77-485d-93f9-2aaa92126a19&thumb,인천광역시 강화군 길상면 장흥리,37.6170044,126.51182340000001
황어장터 3.1만세운동 기념관,인천 계양구,31 032-430-7948,"['3·1운동_100주년_여행지추천', '교과서속여행', '문화시설', '미세먼지_피하는_실내여행']",https://cdn.visitkorea.or.kr/img/call?cmd=VIEW&id=d9241821-809c-4012-b1f2-94503353b8cc&thumb,인천광역시 계양구 황어로126번길 9,37.57902483,126.7353117
후애돈대,인천 강화군,032-930-4571,"['관광지', '역사', '역사공부', '역사관광지', '역사를품은곳', '역사문화재', '역사속']",https://cdn.visitkorea.or.kr/img/call?cmd=VIEW&id=undefined&thumb,인천광역시 강화군 길상면 선두리,37.6161603,126.487347
후포항 선수포구,인천 강화군,032-934-7500,"['관광지', '선수포구', '수도권', '자연', '포구', '후포항']",https://cdn.visitkorea.or.kr/img/call?cmd=VIEW&id=b8761816-471c-4d76-9a84-2d309b34d8c7&thumb,인천광역시 강화군 화도면 해안남로2903번길,37.639679,126.39417820000001
흥륜사(인천),인천 연수구,032-832-1133,"['관광지', '불교', '불교문화', '사찰', '사찰여행', '수도권', '역사', '연중무휴', '인천흥륜사']",https://cdn.visitkorea.or.kr/img/call?cmd=VIEW&id=6a345241-6f57-49e8-aaef-b1896f5289aa&thumb,인천광역시 연수구 청량로46번길 38,37.41507,126.6594889
