name,region,tel,keyword,photo,address,lat,lon
1100고지습지,제주 서귀포시,064-710-4071,"['관광지', '자연']",https://cdn.visitkorea.or.kr/img/call?cmd=VIEW&id=3ea471cb-2ea3-4534-a3b4-4ab9e4375f87&thumb,제주특별자치도 서귀포시 색달동 산 1-2,33.3577741,126.46251840000001
9.81 파크,제주 제주시,981 1833-9810,"['남녀노소', '레포츠', '복합레저스포츠', '연인과함께', '이색체험', '제주도가볼만한곳']",https://cdn.visitkorea.or.kr/img/call?cmd=VIEW&id=a3eb8651-1be3-4bde-9f07-5a1318554677&thumb,제주특별자치도 제주시 애월읍 천덕로 880-24,33.3911825,126.36652849999999
JDC 면세점 (제주공항점),제주 제주시,064-740-9900,"['공항면세점', '관광객', '면세점', '쇼핑', '유명브랜드']",https://cdn.visitkorea.or.kr/img/call?cmd=VIEW&id=b5670072-65e1-437b-a8b0-da2a77207279&thumb,제주특별자치도 제주시 공항로 2,33.5063344,126.4952613
KBS 제주,제주 제주시,064-740-7151,"['kbs', 'KBS제주', '견학', '관광지', '문화콘텐츠산업', '방송국', '산업관광', '아이와함께']",https://cdn.visitkorea.or.kr/img/call?cmd=VIEW&id=10bfbee4-ff0a-4b3b-bcdc-a6ba5abb13c4&thumb,제주특별자치도 제주시 복지로1길 8,33.488025199999996,126.5263723
SOS박물관,제주 서귀포시,064-739-7707,"['SOS박물관', '가족과함께', '관광지', '교과서속여행', '교육체험', '교육프로그램']",https://cdn.visitkorea.or.kr/img/call?cmd=VIEW&id=513a5f8e-d631-4a1a-922d-5a8a90171319&thumb,제주특별자치도 서귀포시 월드컵로 31,33.247238800000005,126.50920790000002
[제주올레 1-1코스] 우도올레,제주 제주시,064-762-2190,"['레포츠', '제주도트래킹', '제주올레', '제주올레길', '제주올레코스', '트래킹코스']",https://cdn.visitkorea.or.kr/img/call?cmd=VIEW&id=39ecef0a-9c3f-4125-ba8c-8b90447f0b4b&thumb,제주특별자치도 제주시 우도면 연평리 1737-1,33.4929922,126.95186770000001
[제주올레 10-1코스] 가파도 올레,제주 서귀포시,064-762-2190,"['레포츠', '올레코스', '제주도', '트레킹']",https://cdn.visitkorea.or.kr/img/call?cmd=VIEW&id=5d69068c-38a7-4bb2-b861-a8beb4cef9c7&thumb,제주특별자치도 서귀포시 대정읍 가파로 243,33.1742353,126.27100759999999
[제주올레 10코스] 화순-모슬포 올레,제주 서귀포시,064-762-2190,"['레포츠', '올레코스', '제주도', '트레킹']",https://cdn.visitkorea.or.kr/img/call?cmd=VIEW&id=a88e314f-58c7-47e6-997b-c1cc2cab1a13&thumb,제주특별자치도 서귀포시 안덕면 화순리 776-8,33.239592200000004,126.3357689
[제주올레 11코스] 모슬포-무릉 올레,제주 서귀포시,064-762-2190,"['레포츠', '제주도트래킹', '제주올레길', '제주올레코스', '트래킹']",https://cdn.visitkorea.or.kr/img/call?cmd=VIEW&id=2babff91-a9ea-4958-bfbc-6471acfe3657&thumb,제주특별자치도 서귀포시 대정읍 하모리 2140,33.2186656,126.25289509999999
[제주올레 12코스] 무릉-용수 올레,제주 서귀포시,064-762-2190,"['레포츠', '서귀포', '올레코스', '제주도', '트레킹']",https://cdn.visitkorea.or.kr/img/call?cmd=VIEW&id=48520a21-691e-4f27-94b7-c8ebfe6e182b&thumb,제주특별자치도 서귀포시 대정읍 노을해안로 342-5,33.252232899999996,126.1956862
[제주올레 13코스] 용수-저지 올레,제주 제주시,064-762-2190,"['레포츠', '제주도트래킹', '제주시', '제주올레길', '제주올레코스', '트래킹']",https://cdn.visitkorea.or.kr/img/call?cmd=VIEW&id=78e84288-5d27-4ddc-bc22-7e86b8abb7f3&thumb,제주특별자치도 제주시 한경면 용수리 4241-7,33.3234271,126.16710390000001
[제주올레 14-1코스] 저지-무릉 올레,제주 제주시,064-762-2190,"['레포츠', '제주도트래킹', '제주올레', '제주올레길', '제주올레코스', '트래킹']",https://cdn.visitkorea.or.kr/img/call?cmd=VIEW&id=e2c539da-d063-4187-ac01-9cad70bfdfa8&thumb,제주특별자치도 제주시 한경면 저지리 1851-5,33.3325613,126.2563791
[제주올레 14코스] 저지-한림 올레,제주 제주시,064-762-2190,"['레포츠', '올레코스', '제주도', '트레킹']",https://cdn.visitkorea.or.kr/img/call?cmd=VIEW&id=1bb0af7d-5f8e-4a5f-9a00-56013433764c&thumb,제주특별자치도 제주시 한경면 저지리 1851-5,33.3325613,126.2563791
[제주올레 15코스] 한림-고내 올레,제주 제주시,064-762-2190,"['레포츠', '제주도트래킹', '제주시', '제주올레길', '제주올레코스', '트래킹코스']",https://cdn.visitkorea.or.kr/img/call?cmd=VIEW&id=33716d01-0732-465f-a5ed-ba22f76ede40&thumb,제주특별자치도 제주시 한림읍 한림해안로 196,33.4190733,126.2626436
[제주올레 16코스] 고내-광령 올레,제주 제주시,064-762-2190,"['레포츠', '제주도트래킹', '제주올레길', '제주올레코스', '트래킹코스']",https://cdn.visitkorea.or.kr/img/call?cmd=VIEW&id=032dc494-8c25-4f52-8838-04c4e3bf6e90&thumb,제주특별자치도 제주시 애월읍 고내리 1111-2,33.466846399999994,126.33813400000001
[제주올레 17코스] 광령-제주원도심 올레,제주 제주시,064-762-2190,"['레포츠', '올레코스', '제주도', '트레킹']",https://cdn.visitkorea.or.kr/img/call?cmd=VIEW&id=c898cfe4-24d8-4b62-ac79-d7cd49aa2a88&thumb,제주특별자치도 제주시 애월읍 광령리 1271-5,33.4604957,126.43765829999998
[제주올레 18-1코스] 추자도 올레,제주 제주시,064-762-2190,"['레포츠', '제주도트래킹', '제주올레', '제주올레길', '트래킹']",https://cdn.visitkorea.or.kr/img/call?cmd=VIEW&id=576d1524-a92a-4c47-8ad4-294ca865e2f4&thumb,제주특별자치도 제주시 추자면 추자로 26,33.963599,126.29613619999999
[제주올레 18코스] 제주원도심-조천 올레,제주 제주시,064-762-2190,"['가족과함께', '걷기길', '레포츠', '산책길', '산책코스', '산책하기좋은곳', '제주올레길']",https://cdn.visitkorea.or.kr/img/call?cmd=VIEW&id=1850ee9d-c10e-444a-9c57-131e2feafa5d&thumb,제주특별자치도 제주시 일도1동 1146-8,33.5131494,126.52738219999999
[제주올레 19코스] 조천-김녕 올레,제주 제주시,064-762-2190,"['레포츠', '제주도트래킹', '제주올레', '제주올레길', '트래킹']",https://cdn.visitkorea.or.kr/img/call?cmd=VIEW&id=bb75b8fb-3fac-4afe-89ce-c1ca8fbdb222&thumb,제주특별자치도 제주시 조천읍 조천리 1209-1,33.5397118,126.6412058
[제주올레 1코스] 시흥-광치기 올레,제주 서귀포시,064-762-2190,"['레포츠', '올레코스', '제주도', '트레킹']",https://cdn.visitkorea.or.kr/img/call?cmd=VIEW&id=13f7ba30-b9db-4ae6-b62c-cd1f4bdd234b&thumb,제주특별자치도 서귀포시 성산읍 시흥상동로 113,33.47963,126.89558190000001
[제주올레 20코스] 김녕-하도 올레,제주 제주시,064-762-2190,"['레포츠', '제주도올레', '제주도트래킹', '제주올레길', '제주올레코스', '트래킹']",https://cdn.visitkorea.or.kr/img/call?cmd=VIEW&id=45a6a8fa-bb99-481e-8c64-cc1b98e0618f&thumb,제주특별자치도 제주시 구좌읍 김녕리 4069,33.557624600000004,126.7452607
[제주올레 21코스] 하도-종달올레,제주 제주시,064-762-2190,"['걷기길', '걷기코스', '레포츠', '제주권', '제주올레', '제주올레길']",https://cdn.visitkorea.or.kr/img/call?cmd=VIEW&id=a2601c86-ccc0-45d6-9f21-23346e9e82b0&thumb,제주특별자치도 제주시 구좌읍 해녀박물관길 26,33.523049699999994,126.8628483
[제주올레 2코스] 광치기-온평 올레,제주 서귀포시,064-762-2190,"['레포츠', '서귀포', '제주도트래킹', '제주올레길', '트래킹', '트래킹코스']",https://cdn.visitkorea.or.kr/img/call?cmd=VIEW&id=3b87b506-701a-46e0-926e-6d34695b88b2&thumb,제주특별자치도 서귀포시 성산읍 고성리 224-33,33.4526753,126.92411740000001
[제주올레 3코스] 온평-표선 올레,제주 서귀포시,3 064-782-0505,"['가족여행', '경치좋은곳', '레포츠', '올레코스', '제주권']",https://cdn.visitkorea.or.kr/img/call?cmd=VIEW&id=3e776218-6da5-4f0c-a64d-92e74b2c1264&thumb,제주특별자치도 서귀포시 성산읍 온평리 1001-6,33.4054472,126.9040958
[제주올레 4코스] 표선-남원 올레,제주 서귀포시,064-762-2190,"['레포츠', '올레코스', '제주도', '트레킹']",https://cdn.visitkorea.or.kr/img/call?cmd=VIEW&id=14cf1a58-89e0-4945-a0b1-5f9c56db4d81&thumb,제주특별자치도 서귀포시 표선면 민속해안로 594,33.3126457,126.82324369999999
[제주올레 5코스] 남원-쇠소깍 올레,제주 서귀포시,064-762-2190,"['레포츠', '올레코스', '제주도', '트레킹']",https://cdn.visitkorea.or.kr/img/call?cmd=VIEW&id=81f7bc0f-03eb-451a-8d93-f25f44bd9d47&thumb,제주특별자치도 서귀포시 남원읍 남태해안로 137-1,33.278137199999996,126.7198291
[제주올레 6코스] 쇠소깍-서귀포 올레,제주 서귀포시,064-762-2190,"['레포츠', '산책길', '연인과함께', '제주올레코스', '친구와함께', '해안산책로']",https://cdn.visitkorea.or.kr/img/call?cmd=VIEW&id=dd80a9b4-5ddd-4fad-bf46-f42526c52291&thumb,제주특별자치도 서귀포시 하효동 995-4,33.2522716,126.62338179999999
[제주올레 7-1코스] 제주월드컵경기장-서귀포 올레,제주 서귀포시,064-762-2190,"['레포츠', '제주도트래킹', '제주올레', '제주올레길', '제주올레코스', '트래킹']",https://cdn.visitkorea.or.kr/img/call?cmd=VIEW&id=4eaa25e4-b4ad-4519-8fe5-6b21e3793ac8&thumb,제주특별자치도 서귀포시 월드컵로 33,33.247238800000005,126.50920790000002
[제주올레 7코스] 서귀포-월평 올레,제주 서귀포시,064-762-2190,"['레포츠', '서귀포', '제주도트래킹', '제주올레길', '트래킹']",https://cdn.visitkorea.or.kr/img/call?cmd=VIEW&id=1554242f-2f41-4a5e-af31-dc74337656bc&thumb,제주특별자치도 서귀포시 서홍동 780-4,33.2639577,126.5507293
[제주올레 8코스] 월평-대평 올레,제주 서귀포시,064-762-2190,"['레포츠', '올레코스', '제주도', '트레킹']",https://cdn.visitkorea.or.kr/img/call?cmd=VIEW&id=56d50d86-68f1-4c26-ab12-47b6adea5c02&thumb,제주특별자치도 서귀포시 월평동 741-3,33.4510724,126.5758973
[제주올레 9코스] 대평-화순 올레,제주 서귀포시,064-762-2190,"['레포츠', '서귀포', '제주도트래킹', '제주올레길', '제주올레코스', '트래킹']",https://cdn.visitkorea.or.kr/img/call?cmd=VIEW&id=6aa685c5-3756-47df-9dab-897762f74f8a&thumb,제주특별자치도 서귀포시 안덕면 감산리 982-3,33.2370799,126.36145649999999
㈜다원코리아 [한국관광 품질인증/Korea Quality],제주 제주시,064-745-3688,"['다원코리아', '쇼핑', '제주시추천쇼핑', '제주추천쇼핑', '한국관광품질인증']",https://cdn.visitkorea.or.kr/img/call?cmd=VIEW&id=f09f63c1-82dd-414a-b76e-0818e9af5436&thumb,제주특별자치도 제주시 도리로 40,33.5018336,126.4652862
㈜제주참앤참 [한국관광 품질인증/Korea Quality],제주 제주시,064-711-1688,"['쇼핑', '제주시추천쇼핑', '제주참앤참', '제주추천쇼핑', '한국관광품질인증']",https://cdn.visitkorea.or.kr/img/call?cmd=VIEW&id=5f4bb46d-bc83-4201-88bd-a07f4fc617cd&thumb,제주특별자치도 제주시 한천로 29,33.5020951,126.5266298
가마오름,제주 제주시,064-740-6000,"['관광지', '자연']",https://cdn.visitkorea.or.kr/img/call?cmd=VIEW&id=ba42eb5b-7c4f-4955-b30c-14971a890602&thumb,제주특별자치도 제주시 한경면 청수서5길,33.3039283,126.25382990000001
가메창(암메),제주 제주시,064-740-6000,"['관광지', '자연']",https://cdn.visitkorea.or.kr/img/call?cmd=VIEW&id=4335cef3-b021-4478-abdb-69bd4c75abc2&thumb,제주특별자치도 제주시 한경면 청수로 13-3,33.3209072,126.2460821
가문이오름(감은이오름),제주 서귀포시,064-740-6000,"['관광지', '자연']",https://cdn.visitkorea.or.kr/img/call?cmd=VIEW&id=00fddcbf-d217-4833-9ff6-e33a86376d1d&thumb,제주특별자치도 서귀포시 표선면 가시리 산,33.353701199999996,126.7714295
가새기오름,제주 제주시,064-740-6000,"['관광지', '자연']",https://cdn.visitkorea.or.kr/img/call?cmd=VIEW&id=48d8593b-3913-4902-8982-9d9ad4cacc8d&thumb,제주특별자치도 제주시 연미길,33.4884191,126.50505009999999
가세오름,제주 서귀포시,064-740-6000,"['가세오름', '관광지', '등산', '오름', '자연', '자연좋은곳', '제주권']",https://cdn.visitkorea.or.kr/img/call?cmd=VIEW&id=79e0e028-17a3-4d3a-950f-69c76ae553a0&thumb,제주특별자치도 서귀포시 표선면 세화로,33.3202259,126.7912297
가시오름,제주 서귀포시,064-740-6000,"['관광지', '자연']",https://cdn.visitkorea.or.kr/img/call?cmd=VIEW&id=09693cdb-3cf2-4f8e-af22-c93bd26d3b3f&thumb,제주특별자치도 서귀포시 대정읍 하모이삼로21번길,33.2246614,126.2502767
가파도,제주 서귀포시,064-794-7130,"['관광지', '자연']",https://cdn.visitkorea.or.kr/img/call?cmd=VIEW&id=54897720-96ac-42a3-a413-ea0ed82f552e&thumb,제주특별자치도 서귀포시 대정읍 가파로,33.1710594,126.27311929999999
각시바우오름,제주 서귀포시,064-710-6032,"['각수바우오름', '각시바우오름', '관광지', '자연', '제주권', '학수바우']",https://cdn.visitkorea.or.kr/img/call?cmd=VIEW&id=2b0e1743-2065-4b7c-a90f-a3d92822b24e&thumb,제주특별자치도 서귀포시 호근동 2112,33.276754100000005,126.5270288
갈마못(갈뫼못),제주 서귀포시,064-760-3192,"['관광지', '자연']",https://cdn.visitkorea.or.kr/img/call?cmd=VIEW&id=1bdf7ffc-8336-4514-ba28-209ed20f5519&thumb,제주특별자치도 서귀포시 성산읍 중산간동로,33.4119114,126.84166029999999
갈중이(천연염색체험),제주 서귀포시,064-794-1686,"['가족과함께', '가족체험', '관광지', '남녀노소', '아이와함께', '염색', '염색법']",https://cdn.visitkorea.or.kr/img/call?cmd=VIEW&id=303b9329-ef63-42ca-a702-ad7da2f95f2b&thumb,제주특별자치도 서귀포시 안덕면 사계남로216번길 24-61,33.2350833,126.3136705
감낭오름,제주 서귀포시,064-740-6000,"['관광지', '자연']",https://cdn.visitkorea.or.kr/img/call?cmd=VIEW&id=6b2adc22-1ec7-4a5f-b97b-904193b9a1c7&thumb,제주특별자치도 서귀포시 안덕면 평화로,33.3195978,126.342428
감은이오름,제주 제주시,064-740-6000,"['관광지', '자연']",https://cdn.visitkorea.or.kr/img/call?cmd=VIEW&id=d6786a3a-b6a8-4877-aff9-77b32d0b7e1e&thumb,제주특별자치도 제주시 구좌읍 번영로,33.430830300000004,126.74311979999999
갑선이오름,제주 서귀포시,064-740-6000,"['관광지', '자연']",https://cdn.visitkorea.or.kr/img/call?cmd=VIEW&id=579dbe2c-82b7-426f-b383-8eb006b3a80b&thumb,제주특별자치도 서귀포시 표선면 가시로592번길,33.355936,126.7788791
갓전시관,제주 제주시,064-782-8778,"['갓전시관', '공예', '공예품', '무더위_피해_실내여행', '문화시설', '박물관', '실내관광지']",https://cdn.visitkorea.or.kr/img/call?cmd=VIEW&id=bdd79b6f-0d23-4630-80c5-de00e962149d&thumb,제주특별자치도 제주시 조천읍 남조로 1904,33.43721075,126.6706936
강정천,제주 서귀포시,064-740-6000,"['가족여행', '강정천', '관광지', '생태관광지', '자연', '제주권', '피서']",https://cdn.visitkorea.or.kr/img/call?cmd=VIEW&id=74834cf8-a9ae-427a-87c2-9783f02339c6&thumb,제주특별자치도 서귀포시 강정통물로,33.236601300000004,126.47729059999999
개오름,제주 서귀포시,064-740-6000,"['관광지', '자연']",https://cdn.visitkorea.or.kr/img/call?cmd=VIEW&id=4bb5ac46-bb9b-491c-b922-57cc478306ff&thumb,제주특별자치도 서귀포시 표선면 성읍이리로57번길 162,33.4239746,126.76871820000001
개오리오름,제주 제주시,064-740-6000,"['개오리오름', '관광지', '오름', '자연', '제주권']",https://cdn.visitkorea.or.kr/img/call?cmd=VIEW&id=abdbe2b8-1327-491a-acfe-47f3498a98b0&thumb,제주특별자치도 제주시 명림로,33.46295739999999,126.6161368
갬주리코지(볼락코지),제주 서귀포시,064-760-4082,"['레포츠', '바다낚시', '서귀포바다', '서귀포바다낚시', '서귀포시', '제주권']",https://cdn.visitkorea.or.kr/img/call?cmd=VIEW&id=undefined&thumb,제주특별자치도 서귀포시 대정읍 가파로,33.1710594,126.27311929999999
갯거리오름(갯그르),제주 서귀포시,064-740-6000,"['관광지', '자연']",https://cdn.visitkorea.or.kr/img/call?cmd=VIEW&id=1aaf0a4f-6267-461b-8500-aaf12217034f&thumb,제주특별자치도 서귀포시 1100로,33.276366499999995,126.44766329999999
거린사슴,제주 서귀포시,064-740-6000,"['관광지', '자연']",https://cdn.visitkorea.or.kr/img/call?cmd=VIEW&id=58939d8f-bdc1-471f-9c05-74d2bfbe645f&thumb,제주특별자치도 서귀포시 1100로 823,33.3073168,126.45484409999999
거문오름 [세계자연유산],제주 제주시,064-710-8981,"['거문오름', '관광지', '세계자연유산', '언택트관광지_100선', '자연', '제주권']",https://cdn.visitkorea.or.kr/img/call?cmd=VIEW&id=3f2da54e-5c81-4c6d-bae7-d896522502d0&thumb,제주특별자치도 제주시 조천읍 선교로 569-36,33.4569601,126.7143895
거미오름,제주 제주시,064-740-6000,"['관광지', '자연']",https://cdn.visitkorea.or.kr/img/call?cmd=VIEW&id=03a855ec-a4ec-4bed-88d1-5cf2df24b3e8&thumb,제주특별자치도 제주시 구좌읍 종달리 산70,33.4885805,126.8755487
"거슨세미(세미오름, 샘오름)",제주 제주시,064-740-6000,"['관광지', '자연']",https://cdn.visitkorea.or.kr/img/call?cmd=VIEW&id=3019f5b3-567a-4456-b95c-70016977d118&thumb,제주특별자치도 제주시 구좌읍 비자림로,33.467852,126.7724183
건강과 성 박물관(제주),제주 서귀포시,064-792-5700,"['건강과성박물관', '기념품판매', '문화시설', '사계절', '연인과함께', '이색체험']",https://cdn.visitkorea.or.kr/img/call?cmd=VIEW&id=330d45c2-e008-48f7-81b3-ee34dd1b1098&thumb,제주특별자치도 서귀포시 안덕면 일주서로 1611,33.25484697,126.3465837
걸시오름,제주 제주시,064-740-6000,"['관광지', '자연']",https://cdn.visitkorea.or.kr/img/call?cmd=VIEW&id=c15e29a7-8b60-49e7-80df-f0465a9e1019&thumb,제주특별자치도 제주시 연동 산150,33.4113296,126.50545790000001
검멀레해변,제주 제주시,064-740-6000,"['관광지', '자연']",https://cdn.visitkorea.or.kr/img/call?cmd=VIEW&id=95672079-5c2b-49f6-b2b6-fc6991a898c2&thumb,제주특별자치도 제주시 우도면 우도해안길,33.5074342,126.954269
고근산,제주 서귀포시,064-740-6000,"['관광지', '자연']",https://cdn.visitkorea.or.kr/img/call?cmd=VIEW&id=a21437e8-0de3-4eae-822a-2854fd6b4335&thumb,제주특별자치도 서귀포시 고근산로,33.268937199999996,126.51246270000001
고살리 숲길,제주 서귀포시,064-733-8009,"['관광지', '국내힐링여행', '산책코스', '언택트관광지_100선', '자연관광지', '자연여행']",https://cdn.visitkorea.or.kr/img/call?cmd=VIEW&id=06bffcd7-a9b1-4a51-b571-07def3c716f3&thumb,제주특별자치도 서귀포시 남원읍 하례리 산54-1,33.316388800000006,126.59739990000001
"고성5일시장 (4, 9일)",제주 서귀포시,064-760-4282,"['가족여행', '고성오일시장', '나들이', '나홀로여행', '섬여행', '쇼핑', '시장맛집']",https://cdn.visitkorea.or.kr/img/call?cmd=VIEW&id=97fb11e9-36fd-44a4-bd73-ccd315940b99&thumb,제주특별자치도 서귀포시 성산읍 고성오조로 93,33.451775899999994,126.912796
고흐의정원,제주 서귀포시,064-783-6700,"['고흐의정원', '문화시설', '서귀포가볼만한곳', '이색전시']",https://cdn.visitkorea.or.kr/img/call?cmd=VIEW&id=26e81899-8643-407b-8a16-974448eda5fe&thumb,제주특별자치도 서귀포시 성산읍 삼달신풍로 132,33.37339953,126.8437175
골목시장,제주 서귀포시,064-766-3000,"['골목시장', '복합시장', '쇼핑', '제주권']",https://cdn.visitkorea.or.kr/img/call?cmd=VIEW&id=a29f3b10-dcca-4842-93f0-f838fdb5cf72&thumb,제주특별자치도 서귀포시 성산읍 동류암로 20,33.4500452,126.9184399
곽지과물해변,제주 제주시,064-740-6000,"['곽지과물해변', '관광지', '바다풍경', '자연', '제주권', '친구와함께', '힐링']",https://cdn.visitkorea.or.kr/img/call?cmd=VIEW&id=31c9bf44-3c54-471c-99fb-f511a45d60d0&thumb,제주특별자치도 제주시 애월읍 금성5길,33.4475423,126.3016504
관덕정(제주),제주 제주시,064-742-8866,"['가족여행', '관광지', '관덕정(제주)', '교과서속여행', '아이와함께', '역사', '역사관광지']",https://cdn.visitkorea.or.kr/img/call?cmd=VIEW&id=d5fadc89-8bb5-4a87-bfb9-b00311757e32&thumb,제주특별자치도 제주시 관덕로 19,33.5133537,126.5214452
관음사(제주),제주 제주시,064-724-6830,"['관광지', '불교', '불교문화', '불교사찰', '사찰', '사찰여행', '역사', '자연속으로']",https://cdn.visitkorea.or.kr/img/call?cmd=VIEW&id=e1211e86-711f-4552-9dc6-898bbe9cb82f&thumb,제주특별자치도 제주시 산록북로 660,33.4217169,126.55881289999999
광치기해변,제주 서귀포시,064-740-6000,"['경치좋은곳', '관광지', '광치기해변', '바다풍경', '연인과함께', '자연', '자연좋은곳']",https://cdn.visitkorea.or.kr/img/call?cmd=VIEW&id=440ea056-d62d-4373-884f-9891340f1b62&thumb,제주특별자치도 서귀포시 성산읍 고성리,33.4445754,126.90950249999999
괴오름,제주 제주시,064-740-6000,"['관광지', '자연']",https://cdn.visitkorea.or.kr/img/call?cmd=VIEW&id=aca87ed9-c386-4a74-9248-c8d314ccdacf&thumb,제주특별자치도 제주시 애월읍 봉성리 산41,33.3689588,126.35059409999998
교래 삼다수마을,제주 제주시,064-784-1746,"['관광지', '농촌마을', '농촌여행', '농촌체험마을', '농촌체험여행', '농촌체험학습']",https://cdn.visitkorea.or.kr/img/call?cmd=VIEW&id=4d81ad4c-2461-46f6-a222-b6773a80163a&thumb,제주 제주시 조천읍 교래리,33.427617600000005,126.6665803
구두리오름,제주 서귀포시,064-740-6000,"['관광지', '자연']",https://cdn.visitkorea.or.kr/img/call?cmd=VIEW&id=2f3150ca-2f2d-433c-acc9-d23358723ace&thumb,제주특별자치도 서귀포시 남원읍 남조로,33.3190481,126.7087521
구시물,제주 제주시,064-740-6000,"['관광지', '자연']",https://cdn.visitkorea.or.kr/img/call?cmd=VIEW&id=a3f4a458-3180-441b-8bb6-0ca1ee0783cd&thumb,제주특별자치도 서귀포시 남원읍 서의로,33.3002857,126.7126203
구엄어촌체험마을,제주 제주시,064-713-2239,"['가족과함께', '관광지', '아이와함께', '어촌마을', '어촌체험', '어촌체험마을']",https://cdn.visitkorea.or.kr/img/call?cmd=VIEW&id=46e3f97b-ebd2-417f-98b2-f6e6d41ac78d&thumb,제주특별자치도 제주시 애월읍 애월해안로,33.4782235,126.3665625
국립제주박물관,제주 제주시,064-720-8000,"['가족여행', '국립제주박물관', '문화시설', '미세먼지_피하는_실내여행', '실내관광지']",https://cdn.visitkorea.or.kr/img/call?cmd=VIEW&id=609f9323-983d-43c3-bc0f-be30f2f29fe1&thumb,제주특별자치도 제주시 일주동로 17,33.51379671,126.5479096
군산오름,제주 서귀포시,064-740-6000,"['관광지', '남녀노소', '산책코스', '오름', '일출일몰명소', '자연', '자연속으로']",https://cdn.visitkorea.or.kr/img/call?cmd=VIEW&id=632cef3e-2a34-4b6e-b8fd-381d91c315ef&thumb,제주특별자치도 서귀포시 안덕면 창천리 564 제주특별자치도,33.255142600000006,126.3683605
귤림서원,제주 제주시,064-710-6702,"['관광지', '역사', '역사관광지']",https://cdn.visitkorea.or.kr/img/call?cmd=VIEW&id=17dc9ae2-20bb-46df-bb9a-74ca141b0663&thumb,제주특별자치도 제주시 이도1동,33.5084288,126.52558810000001
그리스신화박물관,제주 제주시,064-773-5800,"['교과서속여행', '교육여행', '교육체험', '교육프로그램', '그리스신화박물관']",https://cdn.visitkorea.or.kr/img/call?cmd=VIEW&id=d155e062-5eda-4232-983f-dc726032a41b&thumb,제주특별자치도 제주시 한림읍 광산로 942,33.34808613,126.3575213
금능석물원,제주 제주시,064-796-3360,"['가족여행', '관광지', '금능석물원', '문화예술활동', '산책길', '산책하기', '산책하기좋은곳']",https://cdn.visitkorea.or.kr/img/call?cmd=VIEW&id=ad3adc62-12d5-43d0-a349-e85afa7c08d3&thumb,제주특별자치도 제주시 한림읍 한림로 176,33.384592,126.22687169999999
금능으뜸원해변,제주 제주시,064-740-6000,"['가족여행', '관광지', '금능으뜸원해변', '바다풍경', '여름방학가볼만한곳', '여름여행']",https://cdn.visitkorea.or.kr/img/call?cmd=VIEW&id=9b77c18c-9ac8-412c-9c83-a0f3dd5260ae&thumb,제주특별자치도 제주시 한림읍 금능길,33.3881374,126.22948840000001
금룡사(제주),제주 제주시,064-783-5180,"['관광지', '금룡사', '바다풍경', '불교', '불교문화', '사찰&산사', '역사', '자연좋은곳']",https://cdn.visitkorea.or.kr/img/call?cmd=VIEW&id=ee39ce34-40b5-4250-8be6-bc66fd02b7c7&thumb,제주특별자치도 제주시 구좌읍 김녕로 148-11,33.5538398,126.7535715
금산공원(납읍난대림지대),제주 제주시,064-740-6000,"['걷기길', '관광지', '금산공원', '납읍난대림지대', '산책길', '산책하기', '산책하기좋은곳']",https://cdn.visitkorea.or.kr/img/call?cmd=VIEW&id=c600ee9c-83d5-4d54-849c-75b21f68c4a4&thumb,제주특별자치도 제주시 애월읍 납읍리,33.4323416,126.33805840000001
금오름,제주 제주시,064-740-6000,"['관광지', '금오름', '등산', '자연', '제주권', '트레킹']",https://cdn.visitkorea.or.kr/img/call?cmd=VIEW&id=52dd4130-97b4-4a7f-a5aa-865e1ccb30fd&thumb,제주특별자치도 제주시 한림읍 금악북로,33.3579292,126.31132520000001
금호리조트 제주아쿠아나,제주 서귀포시,064-766-8000,"['가족과함께', '관광지', '금호리조트', '남녀노소', '물놀이장', '아이와함께', '야외수영장']",https://cdn.visitkorea.or.kr/img/call?cmd=VIEW&id=c8833e09-26ed-4351-9f77-39594819747e&thumb,제주특별자치도 서귀포시 남원읍 태위로 522-12,33.2729636,126.70147720000001
김녕미로공원,제주 제주시,064-782-9266,"['가족과함께', '가족여행', '관광지', '김녕미로공원', '남녀노소', '데이트코스']",https://cdn.visitkorea.or.kr/img/call?cmd=VIEW&id=b9953058-f4a8-465f-9e60-0f0ffba783e0&thumb,제주특별자치도 제주시 구좌읍 만장굴길 122,33.5365289,126.7721332
김녕사굴 [유네스코 세계자연유산],제주 제주시,1600-0064,"['관광지', '김녕사굴', '동굴', '미세먼지탈출_이색동굴여행', '유네스코세계자연유산']",https://cdn.visitkorea.or.kr/img/call?cmd=VIEW&id=eb7f601d-1cce-4ab7-abea-e6b6b230d3e0&thumb,제주특별자치도 제주시 구좌읍 만장굴길 34,33.544020399999994,126.77469109999998
김녕성세기해변 (김녕해수욕장),제주 제주시,064-740-6000,"['가족여행', '관광지', '김녕성세기해변', '김녕해수욕장', '나들이', '데이트코스']",https://cdn.visitkorea.or.kr/img/call?cmd=VIEW&id=c90a7897-3527-44b3-8174-6826d46706f8&thumb,제주특별자치도 제주시 구좌읍 해맞이해안로,33.5291668,126.8538817
김녕요트투어,제주 제주시,064-782-5271,"['레포츠', '요트투어', '이색체험', '제주도']",https://cdn.visitkorea.or.kr/img/call?cmd=VIEW&id=37f69115-30f4-4b87-a992-5f99542bbb7f&thumb,제주특별자치도 제주시 구좌읍 구좌해안로 229-16,33.558256,126.73721370000001
김만덕기념관,제주 제주시,064-759-6090,"['가족과함께', '교과서속여행', '기념관', '김만덕기념관', '문화시설', '아이와함께']",https://cdn.visitkorea.or.kr/img/call?cmd=VIEW&id=cae6c5a1-78cb-4b0d-ac4c-2a39b1db3276&thumb,제주특별자치도 제주시 산지로 7,33.51587498,126.5303913
김영갑 갤러리(두모악),제주 서귀포시,064-784-9907,"['15_16한국관광100선', '가족여행', '기념품판매', '김영갑갤러리', '두모악']",https://cdn.visitkorea.or.kr/img/call?cmd=VIEW&id=79b6bbad-5578-48fe-9aef-1968d14a9250&thumb,제주특별자치도 서귀포시 성산읍 삼달로 137,33.37236763,126.8542458
나리농수산,제주 제주시,064-743-9755,"['쇼핑', '제주', '택배가능', '특산물']",https://cdn.visitkorea.or.kr/img/call?cmd=VIEW&id=c14c8806-9645-4f93-955e-9290c35fdb48&thumb,제주특별자치도 제주시 삼무로 72,33.4896241,126.4943162
낙타트레킹,제주 서귀포시,064-787-2256,"['가족이색체험', '가족체험', '관광지', '낙타', '동물체험', '아이와함께', '이색여행']",https://cdn.visitkorea.or.kr/img/call?cmd=VIEW&id=4581adcb-9ce6-436e-af5a-f23eef467695&thumb,제주특별자치도 서귀포시 표선면 번영로 2564-21,33.3726822,126.79712350000001
남원 큰엉해안,제주 서귀포시,064-740-6000,"['관광지', '자연']",https://cdn.visitkorea.or.kr/img/call?cmd=VIEW&id=94c13f9b-d123-4bfc-a4ab-ea6bb1113f8e&thumb,제주특별자치도 서귀포시 남원읍 태위로 522-17,33.2733787,126.7037541
남제주 억새오름길,제주 서귀포시,064-740-6000,"['관광지', '자연']",https://cdn.visitkorea.or.kr/img/call?cmd=VIEW&id=59b3cb14-63a6-4aec-84d6-d3545217a553&thumb,제주특별자치도 서귀포시 성산읍 제성로,33.45351289999999,126.878831
넥슨컴퓨터박물관,제주 제주시,064-745-1994,"['관광지', '교육여행', '넥슨', '넥슨컴퓨터박물관', '박물관', '산업관광', '아이와함께']",https://cdn.visitkorea.or.kr/img/call?cmd=VIEW&id=46af0032-67db-4cb5-9689-be42b6f210cc&thumb,제주특별자치도 제주시 노형동,33.483098,126.47723119999999
높은오름,제주 제주시,064-740-6000,"['관광지', '자연']",https://cdn.visitkorea.or.kr/img/call?cmd=VIEW&id=4df5f4a2-077a-4772-93eb-5aa68ea7c5c7&thumb,제주특별자치도 제주시 구좌읍 중산간동로,33.4741742,126.77014390000001
다랑쉬오름(월랑봉),제주 제주시,064-740-6000,"['관광지', '자연']",https://cdn.visitkorea.or.kr/img/call?cmd=VIEW&id=cb3a9ff2-74aa-47e8-b13c-4163e0d8a85c&thumb,제주특별자치도 제주시 구좌읍 세화리 산6,33.4895966,126.83166440000001
다려도,제주 제주시,064-740-6000,"['관광지', '자연']",https://cdn.visitkorea.or.kr/img/call?cmd=VIEW&id=d08f23fe-c563-4c0e-9465-cfdefcd5ea6a&thumb,제주특별자치도 제주시 조천읍 북촌리,33.5365952,126.69666200000002
다이나믹 메이즈 (제주 성읍점),제주 서귀포시,064-787-8774,"['관광지', '다이나믹메이즈', '데이트코스', '레포츠체험', '실내관광지', '실내놀이터']",https://cdn.visitkorea.or.kr/img/call?cmd=VIEW&id=f62ed3d3-1214-4366-89f0-6a0195e5a22c&thumb,제주특별자치도 서귀포시 표선면 번영로 2644,33.3992006,126.7852521
다이브랜드,제주 서귀포시,010-8696-2187,"['다이빙포인트', '레포츠', '문섬', '여름제주여행', '제주', '제주여행지']",https://cdn.visitkorea.or.kr/img/call?cmd=VIEW&id=d356f1e1-a444-4c90-bc4f-07a6cec264c2&thumb,제주특별자치도 서귀포시 보목포로 29,33.240825,126.60600990000002
다희연,제주 제주시,064-782-0005,"['관광지', '다희연', '동굴카페', '미세먼지탈출_이색동굴여행', '연인과함께', '이색체험']",https://cdn.visitkorea.or.kr/img/call?cmd=VIEW&id=82823b30-a9bc-4a6b-bea3-01e119302b39&thumb,제주특별자치도 제주시 조천읍 선교로 117,33.4727191,126.70619209999998
닥종이인형박물관,제주 서귀포시,064-739-3906,"['닥종이인형박물관', '문화시설', '박물관', '실내여행지', '아이와함께', '이색체험']",https://cdn.visitkorea.or.kr/img/call?cmd=VIEW&id=603cb2e4-8200-43cf-a145-36b228c67304&thumb,제주특별자치도 서귀포시 월드컵로 33,33.24621937,126.5092753
닭머르해안길,제주 제주시,064-740-6000,"['경치여행', '경치좋은곳', '관광지', '드라이브여행', '드라이브코스', '바다산책']",https://cdn.visitkorea.or.kr/img/call?cmd=VIEW&id=3481eab6-6925-4921-ae66-f109c015078b&thumb,제주특별자치도 제주시 조천읍 신촌북3길 62-1,33.537786100000005,126.6133195
대발이파크,제주 서귀포시,064-764-0002,"['가족과함께', '공룡테마공원', '관광지', '남녀노소', '놀이기구', '아이가_좋아하는_여행']",https://cdn.visitkorea.or.kr/img/call?cmd=VIEW&id=83e4e264-18fd-4b76-a053-8a10aaf75e98&thumb,제주특별자치도 서귀포시 남원읍 태위로 536,33.274631199999995,126.7058491
대유랜드,제주 서귀포시,064-738-0500,"['가족과함께', '레포츠', '복합레저스포츠', '복합레저스포츠', '사격장', '아이와함께']",https://cdn.visitkorea.or.kr/img/call?cmd=VIEW&id=36aa92c9-2e62-4034-b8d8-4402ca6c8cc3&thumb,제주특별자치도 서귀포시 상예로 381,33.278756800000004,126.394896
"대정5일시장 (1, 6일)",제주 서귀포시,064-730-1615,"['가족여행', '나들이', '나홀로여행', '대정오일시장', '쇼핑', '시장맛집', '아이와함께']",https://cdn.visitkorea.or.kr/img/call?cmd=VIEW&id=318fd558-0e86-420c-8c71-d33abb90cf45&thumb,제주특별자치도 서귀포시 대정읍 신영로36번길 65,33.220515999999996,126.2483125
대정향교,제주 서귀포시,064-742-8866,"['관광지', '역사', '역사공부', '역사관광지', '역사를품은곳', '역사문화재', '역사속']",https://cdn.visitkorea.or.kr/img/call?cmd=VIEW&id=c6a3c2c7-4611-4dea-b4c4-dce44f080142&thumb,제주특별자치도 서귀포시 안덕면 향교로 165-17,33.2393513,126.28838909999999
더 아일랜더,제주 제주시,070-8811-9562,"['가족여행', '기념품판매', '나들이', '더아일랜더', '데이트코스', '소품샵', '쇼핑']",https://cdn.visitkorea.or.kr/img/call?cmd=VIEW&id=81fba9f7-d80b-488b-bc0b-2ea5edb6d0c1&thumb,제주특별자치도 제주시 중앙로7길 31,33.5149044,126.5281048
더마파크,제주 제주시,064-795-8080,"['가족과함께', '가족여행', '공연', '관광지', '더마파크', '레포츠', '승마', '승마장']",https://cdn.visitkorea.or.kr/img/call?cmd=VIEW&id=72d75c95-5a43-45a5-bc4b-a85904509783&thumb,제주특별자치도 제주시 한림읍 월림7길 155,33.3555222,126.24202659999999
도너리오름,제주 서귀포시,064-740-6000,"['관광지', '자연']",https://cdn.visitkorea.or.kr/img/call?cmd=VIEW&id=1177e85a-9328-4ed0-962f-f4c64666f426&thumb,제주특별자치도 서귀포시 안덕면 동광로,33.3089803,126.3402728
도리미오름,제주 제주시,064-740-6000,"['관광지', '자연']",https://cdn.visitkorea.or.kr/img/call?cmd=VIEW&id=a81009ba-a31e-474b-9313-a87f6a2f1622&thumb,제주특별자치도 제주시 구좌읍 중산간동로,33.4741742,126.77014390000001
도순다원,제주 서귀포시,064-739-0419,"['경치여행', '경치좋은곳', '관광지', '녹차', '녹차밭', '녹차재배', '도순다원', '자연좋은곳']",https://cdn.visitkorea.or.kr/img/call?cmd=VIEW&id=a009f321-3dd8-413a-bc10-fe02d02ee16f&thumb,제주특별자치도 서귀포시 중산간서로356번길 152-41,33.272975,126.4830571
돈내코(원앙폭포),제주 서귀포시,064-710-6920,"['가족여행', '관광지', '돈내코', '아이와함께', '여름방학가볼만한곳', '여름여행']",https://cdn.visitkorea.or.kr/img/call?cmd=VIEW&id=ca114ea9-a190-4c5d-836a-90d01b9e76cf&thumb,제주특별자치도 서귀포시 돈내코로 137,33.3005301,126.5817449
돌거북이수석박물관,제주 제주시,064-772-4567,"['가족과함께', '공예품', '남녀노소', '문화시설', '아이와함께', '옥공예', '이색체험']",https://cdn.visitkorea.or.kr/img/call?cmd=VIEW&id=7f956809-b365-4206-84d2-7b6d70748666&thumb,제주특별자치도 제주시 한경면 명이2길 68,33.31589531,126.2622188
동광리농촌체험마을,제주 서귀포시,064-794-2298,"['가족여행', '관광지', '농촌길', '농촌여행코스', '농촌체험', '농촌체험', '농촌체험마을']",https://cdn.visitkorea.or.kr/img/call?cmd=VIEW&id=42635998-0f60-4b56-a59a-560e0a2fb967&thumb,제주특별자치도 서귀포시 안덕면 동광로 107,33.3066059,126.33747209999999
동문재래시장,제주 제주시,064-752-3001,"['가족과함께', '동문재래시장', '먹거리', '사계절', '쇼핑', '시장맛집', '연인과함께']",https://cdn.visitkorea.or.kr/img/call?cmd=VIEW&id=061b38ab-67c1-45b4-91f2-1a68bbbc461f&thumb,제주특별자치도 제주시 관덕로14길 20,33.5115817,126.526099
동백동산,제주 제주시,064-784-9445,"['관광지', '동백동산', '등산', '자연', '자연&숲', '자연유산', '제주권', '제주특별자치도기념물']",https://cdn.visitkorea.or.kr/img/call?cmd=VIEW&id=d71780e5-c5e1-463f-901a-a54b1990eb59&thumb,제주특별자치도 제주시 조천읍 동백로 77,33.5097,126.7150807
동백동산 습지센터,제주 제주시,064-784-9445,"['걷기길', '관광지', '동백동산', '동백동산습지센터', '생태관광', '생태관광지']",https://cdn.visitkorea.or.kr/img/call?cmd=VIEW&id=fbbb5bdf-15b1-4afb-8bc9-121c9d96756d&thumb,제주특별자치도 제주시 조천읍 동백로 77,33.5097,126.7150807
동부농원,제주 서귀포시,064-782-4488,"['감귤', '쇼핑', '제주도', '택배가능']",https://cdn.visitkorea.or.kr/img/call?cmd=VIEW&id=b5fc1e30-d775-4547-8cbd-7e674b4bfd71&thumb,제주특별자치도 서귀포시 성산읍 서성일로 1007,33.44295630000001,126.88614299999999
동수악,제주 서귀포시,064-740-6000,"['관광지', '자연']",https://cdn.visitkorea.or.kr/img/call?cmd=VIEW&id=d7901d08-5c5f-47dc-b6b7-ba33df4c3305&thumb,제주특별자치도 서귀포시 남원읍 한신로,33.3156694,126.7260679
두맹이골목,제주 제주시,064-728-1529,"['감성사진', '골목', '관광지', '벽화마을', '사진찍기', '사진찍기좋은곳', '사진촬영']",https://cdn.visitkorea.or.kr/img/call?cmd=VIEW&id=9dfec4fc-1fa6-43b3-8212-8a3c1272ab6e&thumb,제주특별자치도 제주시 동문로14길 13,33.512449100000005,126.5334729
둔지봉,제주 제주시,064-740-6000,"['관광지', '자연']",https://cdn.visitkorea.or.kr/img/call?cmd=VIEW&id=94793ce3-5eac-4f61-a058-d23ec5bd51ce&thumb,제주특별자치도 제주시 구좌읍 비자림로,33.467852,126.7724183
드라마월드,제주 제주시,064-792-3777,"['가족체험여행', '기념품판매', '놀이동산&테마파크', '데이트코스', '드라마월드']",https://cdn.visitkorea.or.kr/img/call?cmd=VIEW&id=a9d6f92e-e37a-449a-a69e-8b35170db791&thumb,제주특별자치도 제주시 애월읍 화전길 3,33.35194461,126.3605387
따라비 오름,제주 서귀포시,064-740-6000,"['가족여행', '관광지', '따라비오름', '산책코스', '자연', '자연여행', '자연좋은곳']",https://cdn.visitkorea.or.kr/img/call?cmd=VIEW&id=f965536f-15f6-43ed-809a-3c1b5c3b7903&thumb,제주특별자치도 서귀포시 표선면 가시리,33.3988071,126.7063341
라마다프라자제주호텔 스포츠센터(실내.외 수영장),제주 제주시,064-729-8455,"['라마다플라자', '레포츠', '스포츠센터', '제주도']",https://cdn.visitkorea.or.kr/img/call?cmd=VIEW&id=c33888a1-37b2-4c09-baf5-197fb1271fa8&thumb,제주특별자치도 제주시 탑동로 66,33.5185924,126.51750159999999
라온골프클럽,제주 제주시,064-795-8000,"['골프리조트', '골프장', '골프클럽', '레저스포츠', '레포츠', '복합레저스포츠']",https://cdn.visitkorea.or.kr/img/call?cmd=VIEW&id=c55b8363-b6bb-4312-bae8-4a8f39d2376c&thumb,제주특별자치도 제주시 한경면 용금로 998,33.3448687,126.2782452
라온더마파크,제주 제주시,064-795-8080,"['가족과함께', '레포츠', '승마', '승마레슨', '승마장', '승마체험', '승마캠프', '승마트레킹']",https://cdn.visitkorea.or.kr/img/call?cmd=VIEW&id=8aa5dbb0-edf4-451f-87c5-d9267fdc571f&thumb,제주특별자치도 제주시 한림읍 월림7길 155,33.3555222,126.24202659999999
라온명품관,제주 제주시,064-795-3200,"['명품', '쇼핑', '외국인친구에게추천', '제주쇼핑', '키즈명품']",https://cdn.visitkorea.or.kr/img/call?cmd=VIEW&id=96b9e56e-670c-4dd8-8970-4360c1709440&thumb,제주특별자치도 제주시 한림읍 금능남로 127,33.3760556,126.24412679999999
레이크힐스 제주컨트리클럽,제주 서귀포시,064-738-8858,"['골프리조트', '골프장', '골프클럽', '남녀노소', '레포츠', '연인과함께', '자연좋은곳']",https://cdn.visitkorea.or.kr/img/call?cmd=VIEW&id=undefined&thumb,제주특별자치도 서귀포시 산록남로 1391,33.301788699999996,126.5095926
마라도 가파도 정기여객선,제주 서귀포시,064-794-5490,"['가족과함께', '가파도', '경치좋은곳', '관광지', '남녀노소', '마라도여행', '바다경치']",https://cdn.visitkorea.or.kr/img/call?cmd=VIEW&id=621f6bdd-0ac6-43a9-8671-03ee0d78f629&thumb,제주특별자치도 서귀포시 대정읍 최남단해안로 120,33.210055100000005,126.2585746
마라도 등대,제주 서귀포시,064-740-6000,"['경치여행', '경치좋은곳', '관광지', '마라도', '마라도여행', '바다경치', '사진찍기']",https://cdn.visitkorea.or.kr/img/call?cmd=VIEW&id=21d10c77-f508-46dc-b88b-71902bc11002&thumb,제주특별자치도 서귀포시 대정읍 마라로 161,33.1168114,126.2692432
마라도(마라해양도립공원),제주 서귀포시,064-792-0086,"['관광지', '마라도', '마라해양도립공원', '섬', '자연', '제주권']",https://cdn.visitkorea.or.kr/img/call?cmd=VIEW&id=1c5f453a-b4f4-4f1c-adec-d8a06bb5a083&thumb,제주특별자치도 서귀포시 대정읍 마라로101번길 46,33.1185369,126.2673483
마라도가는 여객선,제주 서귀포시,064-794-6661,"['가족여행', '관광지', '마라도가는여객선', '바다풍경', '섬여행', '연중무휴', '자연여행']",https://cdn.visitkorea.or.kr/img/call?cmd=VIEW&id=887b2bf3-cd5e-4c5d-bfa1-3701c68d9f7a&thumb,제주특별자치도 서귀포시 대정읍 송악관광로 424,33.207412,126.29058229999998
마라도잠수함,제주 서귀포시,064-794-0200,"['관광지', '남녀노소', '마라도잠수함', '바다풍경', '아이가_좋아하는_여행', '아이와함께']",https://cdn.visitkorea.or.kr/img/call?cmd=VIEW&id=cafa15fd-4ae0-4f6d-ad21-b71dcf17d89c&thumb,제주특별자치도 서귀포시 안덕면 형제해안로 13,33.2280708,126.305499
마린파크,제주 서귀포시,064-792-7776,"['가족여행', '관광지', '남녀노소', '마린파크', '사계절', '사진찍기좋은곳', '사진촬영명소']",https://cdn.visitkorea.or.kr/img/call?cmd=VIEW&id=a964b267-321a-4d07-97cb-c71e79406075&thumb,제주특별자치도 서귀포시 안덕면 화순중앙로 132,33.240810700000004,126.3347888
만장굴,제주 제주시,064-710-7903,"['관광지', '김녕굴', '만장굴', '생태관광', '생태관광지', '유네스코세계문화유산']",https://cdn.visitkorea.or.kr/img/call?cmd=VIEW&id=7be4c3e5-cb6c-4b90-b763-1ec64042908b&thumb,제주특별자치도 제주시 구좌읍 만장굴길 182,33.5291,126.77143079999999
만장굴 (제주도 국가지질공원),제주 제주시,064-710-3945,"['가족여행', '가족체험여행', '관광지', '국가지질공원', '만장굴', '아이와함께']",https://cdn.visitkorea.or.kr/img/call?cmd=VIEW&id=31cc6746-322c-4646-aeec-84980922ad71&thumb,제주특별자치도 제주시 구좌읍 만장굴길 182,33.5291,126.77143079999999
말 테마파크 골프장 (렛츠런파크 제주),제주 제주시,064-741-9190,"['가족여행', '나이와함께', '레포츠', '렛츠런파크제주', '이색체험', '제주권', '체험학습']",https://cdn.visitkorea.or.kr/img/call?cmd=VIEW&id=d7984264-062b-4bc3-adaf-34b76a6d809d&thumb,제주특별자치도 제주시 애월읍 평화로 2144,33.4074945,126.3950743
맥파이 브루어리,제주 제주시,070-4228-5300,"['견학', '관광지', '맥주양조장', '맥파이브루어리', '산업관광', '양조장', '이색체험']",https://cdn.visitkorea.or.kr/img/call?cmd=VIEW&id=f2298b52-33e9-4bdc-bd3c-83925c05cbcf&thumb,제주특별자치도 제주시 동회천1길 23,33.5031946,126.61726680000001
머체왓숲길,제주 서귀포시,064-805-3113,"['레포츠', '산책길', '숲길', '제주관광', '피크닉', '휴식']",https://cdn.visitkorea.or.kr/img/call?cmd=VIEW&id=f2f39e81-bf7b-4b82-b727-c01cb3375867&thumb,제주특별자치도 서귀포시 남원읍 서성로 755,33.3245683,126.66277179999999
멍에승마장,제주 서귀포시,064-787-8020,"['가족과함께', '레포츠', '승마', '승마레슨', '승마장', '승마체험', '승마캠프', '승마트레킹']",https://cdn.visitkorea.or.kr/img/call?cmd=VIEW&id=0cda28ed-8bb5-4cc5-8352-d57e3fac3c42&thumb,제주특별자치도 서귀포시 성산읍 서성일로 397,33.426896500000005,126.8647243
메이즈랜드,제주 제주시,064-784-3838,"['관광지', '남녀노소', '데이트코스', '메이즈랜드', '미로공원', '사계절', '연인과함께']",https://cdn.visitkorea.or.kr/img/call?cmd=VIEW&id=a72360d0-0d25-4a22-bbd5-d2521db129b6&thumb,제주특별자치도 제주시 구좌읍 비자림로 2134-47,33.488741499999996,126.8009514
메종글래드호텔수영장(실외),제주 제주시,064-747-5000,['레포츠'],https://cdn.visitkorea.or.kr/img/call?cmd=VIEW&id=db53df96-d0f8-48f0-af60-3ea5e1669b5f&thumb,제주특별자치도 제주시 노연로 80,33.484757699999996,126.48870559999999
명월대,제주 제주시,064-740-6000,"['관광지', '역사', '역사공부', '역사관광지', '역사를품은곳', '역사문화재', '역사속']",https://cdn.visitkorea.or.kr/img/call?cmd=VIEW&id=a6a7593f-9bde-4ec9-995a-6f459dc7911e&thumb,제주특별자치도 제주시 한림읍 명월리,33.3799082,126.2776652
모구리오름,제주 서귀포시,064-740-6000,"['걷기길', '관광지', '모구리오름', '자연', '제주권', '트레킹']",https://cdn.visitkorea.or.kr/img/call?cmd=VIEW&id=8cb7cae9-34a5-47cc-80e1-fd5f992c84e3&thumb,제주특별자치도 서귀포시 성산읍 서성일로,33.426896500000005,126.8647243
모지오름,제주 서귀포시,064-740-6000,"['관광지', '자연']",https://cdn.visitkorea.or.kr/img/call?cmd=VIEW&id=9a199937-af9d-45eb-a7ea-cea1b31a381e&thumb,제주특별자치도 서귀포시 표선면 번영로,33.3726822,126.79712350000001
모충사,제주 제주시,064-722-0614,"['가족여행', '관광지', '교과서속여행', '모충사', '불교', '불교문화', '사찰', '산사']",https://cdn.visitkorea.or.kr/img/call?cmd=VIEW&id=1a1d6b9f-3490-40fd-8237-2ba985394bd9&thumb,제주특별자치도 제주시 사라봉길 75,33.5164215,126.5470246
무릉 자전거 도로(환상자전거길 3구간),제주 제주시,064-728-1523,"['레포츠', '언택트관광지_100선', '자전거', '제주권', '휴양여행', '힐링']",https://cdn.visitkorea.or.kr/img/call?cmd=VIEW&id=6dfc7a00-8154-4716-a32e-f63580565c5f&thumb,제주특별자치도 제주시 구좌읍 구좌해안로 237,33.557110200000004,126.73651969999999
무릉2리마을,제주 서귀포시,064-792-1732,"['걷기여행', '곶자왈', '관광지', '구남물', '구시흘못', '무릉도원마을', '생태관광']",https://cdn.visitkorea.or.kr/img/call?cmd=VIEW&id=24ab528f-d974-490f-bf94-dc5cf4a3fe85&thumb,제주특별자치도 서귀포시 대정읍 중산간서로 2868,33.2747978,126.2353875
무수천,제주 제주시,064-740-6000,"['관광지', '자연']",https://cdn.visitkorea.or.kr/img/call?cmd=VIEW&id=undefined&thumb,제주특별자치도 제주시 애월읍 무수천길,33.4636494,126.4439199
문섬/섶섬/범섬/새섬,제주 서귀포시,064-710-6656,"['관광지', '자연']",https://cdn.visitkorea.or.kr/img/call?cmd=VIEW&id=f4392162-7923-4a6a-b728-04c81b2d576a&thumb,제주특별자치도 서귀포시 막숙포로,33.2359288,126.51320600000001
물드리네,제주 제주시,064-772-5079,"['가족과함께', '가족여행지', '가족체험', '관광지', '물드리네', '아이와함께', '염색법']",https://cdn.visitkorea.or.kr/img/call?cmd=VIEW&id=a84cd15f-2694-4a82-8c9e-972198458e2f&thumb,제주특별자치도 제주시 한경면 낙산로 4-28,33.322554600000004,126.22698359999998
물영아리 오름,제주 서귀포시,064-728-6200,"['걷기길', '관광지', '물영아리오름', '생태관광', '생태관광지', '제주권', '트레킹']",https://cdn.visitkorea.or.kr/img/call?cmd=VIEW&id=4a65d766-c8d1-42b9-9f88-0cb47f81a6aa&thumb,제주특별자치도 서귀포시 남원읍 남조로 988-11,33.3190481,126.7087521
물영아리오름,제주 서귀포시,064-740-6000 064-728-6200,"['가족여행', '관광지', '물영아리오름', '산책코스', '산책하기', '산책하기좋은곳']",https://cdn.visitkorea.or.kr/img/call?cmd=VIEW&id=56703cc1-3475-436e-81f0-356512824578&thumb,제주특별자치도 서귀포시 남원읍 태수로 552,33.3267953,126.71705159999998
믿거나 말거나 박물관,제주 서귀포시,064-738-3003,"['겨울방학가볼만한곳', '문화시설', '믿거나말거나박물관', '박물관', '사계절']",https://cdn.visitkorea.or.kr/img/call?cmd=VIEW&id=309153a4-ee3e-4a00-a4ca-69c14ecee2e1&thumb,제주특별자치도 서귀포시 중문관광로110번길 32,33.25121501,126.4128217
바늘오름,제주 제주시,064-740-6000,"['관광지', '자연']",https://cdn.visitkorea.or.kr/img/call?cmd=VIEW&id=d041ff29-0794-4f80-9600-b208ba2d9587&thumb,제주특별자치도 제주시 조천읍 남조로,33.4845921,126.6554822
바다잔치수산,제주 제주시,064-727-8245,"['쇼핑', '수산물', '수산물판매매장', '제주과일', '제주도', '택배가능']",https://cdn.visitkorea.or.kr/img/call?cmd=VIEW&id=04340119-1f63-4096-9d19-0f2b852f9149&thumb,제주특별자치도 제주시 탑동로 77,33.5177907,126.5170267
바당의물질,제주 제주시,064-758-3945,"['공장직영점', '쇼핑', '수산시장', '지역특산품']",https://cdn.visitkorea.or.kr/img/call?cmd=VIEW&id=27b696cf-84d8-4f3a-b8e5-79b7ab53c131&thumb,제주특별자치도 제주시 임항로 49,33.5170003,126.53005729999998
바지선 선상낚시(토평동유어장),제주 서귀포시,064-763-1234,"['레포츠', '선상낚시', '제주도', '제주도낚시']",https://cdn.visitkorea.or.kr/img/call?cmd=VIEW&id=undefined&thumb,제주특별자치도 서귀포시 칠십리로 56,33.2403183,126.5619085
박물관은 살아있다(제주중문점),제주 서귀포시,064-805-0888,"['데이트코스', '문화시설', '박물관은살아있다', '사계절', '사진찍기', '사진찍기좋은곳']",https://cdn.visitkorea.or.kr/img/call?cmd=VIEW&id=00de075d-ea82-45f3-8937-d15d6d057a2f&thumb,제주특별자치도 서귀포시 중문관광로 42,33.25490055,126.4097703
방림원,제주 제주시,064-773-0090,"['가족여행', '문화시설', '방림원', '산책하기좋은곳', '식물원', '아이와함께', '연인과함께']",https://cdn.visitkorea.or.kr/img/call?cmd=VIEW&id=a5e1dc6d-2fcb-4e76-bf01-999b5b50c673&thumb,제주특별자치도 제주시 한경면 용금로 864,33.33722842,126.2685129
방사탑(제주),제주 제주시,064-740-6000,"['관광지', '방사탑', '역사', '역사공부', '역사관광지', '역사를품은곳', '역사문화재']",https://cdn.visitkorea.or.kr/img/call?cmd=VIEW&id=9388fd11-7e42-41c3-b7fd-8e22ae32a01e&thumb,제주특별자치도 제주시 조천읍 신흥로1길 24-14,33.5482136,126.6507623
방선문,제주 제주시,064-740-6000,"['관광지', '자연']",https://cdn.visitkorea.or.kr/img/call?cmd=VIEW&id=f8430fc0-2b6e-4bcd-bc65-b8db86f4af50&thumb,제주특별자치도 제주시 오라이동,33.4189867,126.51960849999999
방주교회,제주 서귀포시,064-794-0611,"['관광지', '역사관광지', '제주도가볼만한곳', '종교성지', '현대건축']",https://cdn.visitkorea.or.kr/img/call?cmd=VIEW&id=b111e2ff-17f2-45e1-8e52-be2730c5a154&thumb,제주특별자치도 서귀포시 안덕면 산록남로762번길 113,33.305073,126.3876637
백제사,제주 제주시,064-746-8009,"['가족과함께', '관광지', '백제사', '불교', '불교문화', '사찰', '아이와함께', '역사']",https://cdn.visitkorea.or.kr/img/call?cmd=VIEW&id=403ef5b7-5c47-40f8-a271-87c01b8a4dec&thumb,제주특별자치도 제주시 애월읍 광령남6길 54,33.4479785,126.4266563
번개과학체험관,제주 서귀포시,064-733-3500,"['가족과함께', '과학관', '과학놀이터', '과학체험', '관광지', '교육장', '교육체험']",https://cdn.visitkorea.or.kr/img/call?cmd=VIEW&id=770724cf-7df8-4709-8e19-a6b8181d0ac6&thumb,제주특별자치도 서귀포시 토평공단로 78-27,33.2894549,126.58761070000001
법화사,제주 서귀포시,064-738-5225,"['관광지', '불교', '불교문화', '사찰', '사찰여행', '역사', '자연속으로', '자연환경']",https://cdn.visitkorea.or.kr/img/call?cmd=VIEW&id=308d212d-3ddb-4cc7-9049-a03dcd8f382f&thumb,제주특별자치도 서귀포시 하원북로35번길 15-28,33.2650948,126.45782890000001
법환동 청소년문화의집,제주 서귀포시,064-738-4116,"['문화공간', '문화시설', '문화행사', '법환동청소년문화의집', '복합문화공간']",https://cdn.visitkorea.or.kr/img/call?cmd=VIEW&id=4dba1300-b7e5-4343-b12b-a726dccdd8a7&thumb,제주특별자치도 서귀포시 막숙포로 70-1,33.23554979,126.51412759999998
벨롱장,제주 제주시,064-783-3001,"['가족여행', '기념품판매', '나들이', '데이트코스', '벨롱장', '쇼핑', '아이와함께']",https://cdn.visitkorea.or.kr/img/call?cmd=VIEW&id=7647dd8a-1b94-4540-b3a4-1b779215838a&thumb,제주특별자치도 제주시 구좌읍 세화포구(세화항구),33.5290708,126.85741780000001
별도봉(베리오름),제주 제주시,064-740-6000,"['관광지', '자연']",https://cdn.visitkorea.or.kr/img/call?cmd=VIEW&id=null&thumb,제주특별자치도 제주시 선반로,33.5152542,126.5637477
별방진,제주 제주시,064-740-6000,"['관광지', '역사', '역사공부', '역사관광', '역사관광지', '역사를품은곳', '역사문화재']",https://cdn.visitkorea.or.kr/img/call?cmd=VIEW&id=b53c387a-babc-464a-860e-ddb8d610e7f4&thumb,제주특별자치도 제주시 구좌읍 해맞이해안로,33.5291668,126.8538817
보덕사(제주),제주 제주시,064-753-2183,"['관광지', '불교', '불교문화', '사찰', '사찰여행', '역사', '자연속으로', '자연환경']",https://cdn.visitkorea.or.kr/img/call?cmd=VIEW&id=f4d47111-2fcc-44e1-b0c0-b164dff8df1e&thumb,제주특별자치도 제주시 독짓골8길 26,33.4916746,126.53236310000001
보림사(제주),제주 제주시,064-721-4767,"['관광지', '불교', '불교문화', '사찰', '사찰여행', '역사', '자연속으로', '자연환경']",https://cdn.visitkorea.or.kr/img/call?cmd=VIEW&id=0d6169f9-5060-419f-b62e-f414dfbfaf3d&thumb,제주특별자치도 제주시 사라봉동길 61,33.5175033,126.54640590000001
보목마을,제주 서귀포시,064-740-6000,"['관광지', '자연']",https://cdn.visitkorea.or.kr/img/call?cmd=VIEW&id=c4f857e8-01ab-45c7-bc7f-e9e811cfb207&thumb,제주특별자치도 서귀포시 칠십리로,33.2458603,126.59131229999998
보물섬하이킹,제주 제주시,010-4582-8240,['레포츠'],https://cdn.visitkorea.or.kr/img/call?cmd=VIEW&id=e91b5ec1-1d50-40a5-ac84-c7cab2a2c28f&thumb,제주특별자치도 제주시 용문로14길 14,33.5058529,126.5102555
복신미륵,제주 제주시,064-740-6000,"['관광지', '복신미륵', '역사', '역사공부', '역사를품은곳', '역사문화재', '역사속']",https://cdn.visitkorea.or.kr/img/call?cmd=VIEW&id=7787feca-7443-4abe-8588-d3ead0fcbb0b&thumb,제주특별자치도 제주시 건입동,33.5148171,126.5317254
본태박물관,제주 서귀포시,064-792-8108,"['가족여행', '가족체험여행', '데이트코스', '문화시설', '박물관', '본태박물관']",https://cdn.visitkorea.or.kr/img/call?cmd=VIEW&id=3c6e9c01-5028-46d8-b767-7de8a2ba9185&thumb,제주특별자치도 서귀포시 안덕면 산록남로762번길 69,33.30395481,126.3925683
봉황솟대박물관,제주 제주시,064-772-4567,"['가족과함께', '공예체험', '공예품', '남녀노소', '목공예', '문화시설', '아이와함께']",https://cdn.visitkorea.or.kr/img/call?cmd=VIEW&id=4094dc86-16c7-4a6d-bfa4-231586050024&thumb,제주특별자치도 제주시 한경면 명이2길 66,33.31592159,126.2625912
북촌 돌하르방공원,제주 제주시,064-782-0570,"['가족여행', '관광지', '북촌돌하르방공원', '산책길', '산책하기', '산책하기좋은곳']",https://cdn.visitkorea.or.kr/img/call?cmd=VIEW&id=04f62fb3-d685-40bb-bd71-07ef488825ad&thumb,제주특별자치도 제주시 조천읍 북촌서1길 70,33.5387743,126.6887213
북촌리 4.3길,제주 제주시,064-733-8009,"['가족과함께', '관광지', '국내힐링여행', '남녀노소', '산책코스', '산책하기좋은곳']",https://cdn.visitkorea.or.kr/img/call?cmd=VIEW&id=33254f01-b606-4e51-b5a4-c71f70ce8d0c&thumb,제주특별자치도 제주시 조천읍 북촌3길 3,33.5459875,126.68876409999999
불탑사(제주),제주 제주시,064-755-9283,"['관광지', '불교', '불교문화', '불탑사', '사찰', '사찰여행', '역사', '자연속으로']",https://cdn.visitkorea.or.kr/img/call?cmd=VIEW&id=da7d3ecc-b2eb-40ec-bbe3-a5132764d561&thumb,제주특별자치도 제주시 원당로16길 41,33.529075399999996,126.59845109999999
붉은오름자연휴양림,제주 서귀포시,064-782-9171,"['가족여행', '걷기여행', '관광지', '나들이', '붉은오름자연휴양림', '사계절', '연인과함께']",https://cdn.visitkorea.or.kr/img/call?cmd=VIEW&id=d4bd6c63-0f6b-4d7d-b32f-7fe0c7b946b0&thumb,제주특별자치도 서귀포시 표선면 남조로 1487-73,33.401810499999996,126.6753835
브릭캠퍼스 제주,제주 제주시,064-712-1258,"['관광지', '남녀노소', '미세먼지_피하는_실내여행', '상상력', '실내놀이터', '아이들과가볼만한곳']",https://cdn.visitkorea.or.kr/img/call?cmd=VIEW&id=5503e453-083a-46c4-9ad2-60b2bf5a86af&thumb,제주특별자치도 제주시 1100로 3047,33.4584094,126.4854567
블랙스톤 골프클럽,제주 제주시,064-796-9988,"['골프리조트', '골프장', '골프클럽', '레저스포츠', '레포츠', '생활스포츠', '익스트림스포츠']",https://cdn.visitkorea.or.kr/img/call?cmd=VIEW&id=2bf6f0e3-4200-40eb-9c29-bc62ec1be5d7&thumb,제주특별자치도 제주시 한림읍 한창로 925-122,33.338659299999996,126.31242979999999
비양도,제주 제주시,064-740-6000,"['관광지', '낚시', '비양도', '섬', '자연', '제주권']",https://cdn.visitkorea.or.kr/img/call?cmd=VIEW&id=b8b30835-061c-480d-8a79-8aecc28c2311&thumb,제주특별자치도 제주시 한림읍 한림해안로 146,33.4154301,126.26218940000001
비양봉,제주 제주시,064-740-6000,"['관광지', '자연']",https://cdn.visitkorea.or.kr/img/call?cmd=VIEW&id=f5ce0470-78e8-4718-aa20-d60ee9f98c4d&thumb,제주특별자치도 제주시 한림읍 비양도길,33.4061795,126.22905130000001
비자림,제주 제주시,064-710-7912,"['15_16한국관광100선', '19_20한국관광100선', '가족여행', '관광지', '꽃여행']",https://cdn.visitkorea.or.kr/img/call?cmd=VIEW&id=7131b8c9-af0f-48ed-b70c-241523ccc2fd&thumb,제주특별자치도 제주시 구좌읍 비자숲길,33.4912729,126.8108509
비자림청소년수련원,제주 제주시,064-782-7001,"['레포츠', '복합문화시설', '제주도', '청소년수련원']",https://cdn.visitkorea.or.kr/img/call?cmd=VIEW&id=128284a2-85e1-48ac-bfc9-ad0cac29bc15&thumb,제주특별자치도 제주시 구좌읍 비자숲길 55,33.4913168,126.81138829999999
사라봉,제주 제주시,064-740-6000,"['가족여행', '관광지', '바다', '사라봉', '자연', '제주권']",https://cdn.visitkorea.or.kr/img/call?cmd=VIEW&id=7ac52b8d-fe78-4a12-81fa-686fdf9aa9cd&thumb,제주특별자치도 제주시 사라봉동길,33.5169418,126.5468087
사라봉(모충사) 의병항쟁기념탑,제주 제주시,064-722-0614,"['관광지', '꽃여행', '모충사', '사라봉의병항쟁기념탑', '역사공부', '역사를품은곳']",https://cdn.visitkorea.or.kr/img/call?cmd=VIEW&id=0fb6a4e3-5223-489d-b9d5-a60073991ea7&thumb,제주특별자치도 제주시 사라봉길 75,33.5164215,126.5470246
사라봉공원,제주 제주시,064-728-4643,"['가족여행', '걷기여행', '관광지', '나들이', '사계절', '사라봉공원', '아이와함께']",https://cdn.visitkorea.or.kr/img/call?cmd=VIEW&id=52c0ae5c-42d3-4740-bd08-24ad70c1f6ee&thumb,제주특별자치도 제주시 사라봉동길 74,33.5180564,126.5460544
사라오름,제주 서귀포시,064-710-7826,"['관광지', '등산', '사라오름', '자연', '제주권', '트레킹']",https://cdn.visitkorea.or.kr/img/call?cmd=VIEW&id=a3d2ebe4-78b3-4ed3-bc1c-fe67c51af871&thumb,제주특별자치도 서귀포시 남원읍 신례리 산 2-1,33.3709058,126.57047450000002
사려니숲길,제주 서귀포시,064-900-8800,"['경치좋은곳', '레포츠', '사려니숲길', '산책코스', '제주도', '트레킹', '휴식여행']",https://cdn.visitkorea.or.kr/img/call?cmd=VIEW&id=f7080182-6fa9-4063-8220-801b517dd825&thumb,제주특별자치도 서귀포시 표선면 가시리 붉은오름 입구,33.403296999999995,126.682666
사이프러스 골프앤리조트,제주 서귀포시,064-787-8888,"['골프리조트', '골프장', '골프클럽', '레저스포츠', '레포츠', '복합레저스포츠']",https://cdn.visitkorea.or.kr/img/call?cmd=VIEW&id=undefined&thumb,제주특별자치도 서귀포시 표선면 번영로 2300,33.3726822,126.79712350000001
사진놀이터,제주 제주시,064-749-7258,"['관광지', '남녀노소', '사진여행', '사진찍기', '사진찍기좋은곳', '사진촬영', '연인과함께']",https://cdn.visitkorea.or.kr/img/call?cmd=VIEW&id=5ea2e004-fe1f-4e60-a1dd-743b92330ba3&thumb,제주특별자치도 제주시 애월읍 평화로 2835,33.456158,126.44199070000002
사회복지법인 평화의마을,제주 서귀포시,064-794-6277,"['사회적기업', '쇼핑', '제주도', '흑돼지']",https://cdn.visitkorea.or.kr/img/call?cmd=VIEW&id=b5596d40-bd08-4233-aad2-2d9d785b41f6&thumb,제주특별자치도 서귀포시 대정읍 중산간서로 2195-12,33.2790874,126.29244399999999
산굼부리,제주 제주시,064-783-9900,"['15_16한국관광100선', '가족여행', '관광지', '등산', '등산로', '사계절', '산굼부리']",https://cdn.visitkorea.or.kr/img/call?cmd=VIEW&id=ce5050a2-0113-4626-8d78-97b4bfb4b019&thumb,제주특별자치도 제주시 조천읍 비자림로 768,33.4349076,126.6885996
산방굴사(제주),제주 서귀포시,064-794-2940,"['가족여행', '관광지', '교과서속여행', '불교', '불교사찰', '사찰', '사찰&산사']",https://cdn.visitkorea.or.kr/img/call?cmd=VIEW&id=d7171090-e5e0-4a36-ad1d-54b6bd7bef7b&thumb,제주특별자치도 서귀포시 안덕면 산방로,33.2386241,126.3146142
산방산(제주),제주 서귀포시,064-794-2940,"['가족여행', '걷기길', '관광지', '사진찍기좋은곳', '산방산(제주)', '연인과함께']",https://cdn.visitkorea.or.kr/img/call?cmd=VIEW&id=18652076-7a56-493f-804d-c85baeea46bf&thumb,제주특별자치도 서귀포시 안덕면 산방로 218-10,33.2367056,126.3128294
산방산‧용머리해안 지질트레일,제주 서귀포시,064-792-3363,"['레포츠', '산방산', '용머리해안', '제주지질공원', '지질트레일', '트레킹']",https://cdn.visitkorea.or.kr/img/call?cmd=VIEW&id=59ff28da-afbd-4d99-8bf6-09b808416e3e&thumb,제주특별자치도 서귀포시 안덕면,33.249680100000006,126.3371482
산지 등대,제주 제주시,064-740-6000,"['가족여행', '관광지', '산지등대', '자연', '제주권']",https://cdn.visitkorea.or.kr/img/call?cmd=VIEW&id=86a3b15e-701f-4f89-a5e3-7605eb72558c&thumb,제주특별자치도 제주시 사라봉동길 108-1,33.5213071,126.545873
산지천,제주 제주시,064-728-4412,"['관광지', '산지천', '산지천예술마당', '산책로', '자연', '제주권']",https://cdn.visitkorea.or.kr/img/call?cmd=VIEW&id=84bf7b3e-4ad9-457f-af09-bffaec37217f&thumb,제주 제주시 건입동,33.5170777,126.5445896
산지천,제주 제주시,064-728-4412,"['걷기길', '관광지', '동문시장', '산지천', '생태관광', '생태관광지', '제주올레']",https://cdn.visitkorea.or.kr/img/call?cmd=VIEW&id=4930cb3b-656d-4075-a944-5947deab3f1f&thumb,제주특별자치도 제주시 일도1동 1146-22,33.5123105,126.5279518
산천단곰솔,제주 제주시,064-740-6000,"['관광지', '역사', '역사공부', '역사관광지', '역사를품은곳', '역사문화재', '역사속']",https://cdn.visitkorea.or.kr/img/call?cmd=VIEW&id=be131f3a-bedc-45d6-9173-e08e86c8a312&thumb,제주특별자치도 제주시 516로 3041-24,33.4476021,126.55484550000001
삼다닷컴,제주 제주시,064-752-0001,"['농수축산물', '농수축산물직매장', '쇼핑', '제주']",https://cdn.visitkorea.or.kr/img/call?cmd=VIEW&id=766e3b43-7181-44ce-b335-b98cfb2908d0&thumb,제주특별자치도 제주시 연삼로 295-1,33.492627500000005,126.52446609999998
삼매봉,제주 서귀포시,064-740-6000,"['경치좋은곳', '관광지', '등산로', '바다경치', '산책로', '산책코스', '산책하기좋은곳']",https://cdn.visitkorea.or.kr/img/call?cmd=VIEW&id=aadb125b-0f3e-4cbd-b067-8235ddaf2281&thumb,제주특별자치도 서귀포시 남성로115번길 83,33.2439423,126.54635640000001
삼매봉도서관,제주 서귀포시,064-733-1524,"['공공시설', '독서', '독서여행', '문화공간', '문화시설', '복합문화공간', '삼매봉도서관']",https://cdn.visitkorea.or.kr/img/call?cmd=VIEW&id=d3d69ff4-bfd7-4fbf-a644-6bec72dfb1e2&thumb,제주특별자치도 서귀포시 남성중로153번길 15,33.24484755,126.5511958
삼양 검은모래해변,제주 제주시,064-740-6000,"['가족여행', '관광지', '나들이', '데이트코스', '바다풍경', '삼양검은모래해변']",https://cdn.visitkorea.or.kr/img/call?cmd=VIEW&id=63ba1357-9e01-4d60-b8c2-bfa3ed483ed0&thumb,제주특별자치도 제주시 서흘길,33.5284277,126.58929209999998
삼의봉,제주 제주시,064-740-6000,"['관광지', '삼의봉', '자연', '제주권', '풍경좋은곳']",https://cdn.visitkorea.or.kr/img/call?cmd=VIEW&id=500d6e4f-d47f-4c71-a4f9-e231f489a5dc&thumb,제주특별자치도 제주시 아라1동 산 24-2,33.4400202,126.5619636
삼의양오름,제주 제주시,064-740-6000,"['관광지', '자연']",https://cdn.visitkorea.or.kr/img/call?cmd=VIEW&id=a70e1b60-a877-440d-aa0e-24a7bc1ce773&thumb,제주특별자치도 제주시 간월동로,33.4878931,126.54828390000002
새별오름,제주 제주시,064-740-6000,"['관광지', '자연']",https://cdn.visitkorea.or.kr/img/call?cmd=VIEW&id=bad0c81b-c22c-4bd9-804c-62d1879b3ebb&thumb,제주특별자치도 제주시 애월읍 봉성리 산,33.3659432,126.35643999999999
새섬 새연교,제주 서귀포시,064-740-6000,"['SNS감성사진', '걷기길', '경치좋은곳', '관광지', '사진찍기', '사진찍기좋은곳']",https://cdn.visitkorea.or.kr/img/call?cmd=VIEW&id=85530024-a0ed-4dc6-a38b-45ea7324f929&thumb,제주특별자치도 서귀포시 남성중로 40,33.239223100000004,126.55865619999999
새신오름(신서악),제주 제주시,064-740-6000,"['관광지', '자연']",https://cdn.visitkorea.or.kr/img/call?cmd=VIEW&id=73afd86c-7eb6-47b8-b8c7-877475e78989&thumb,제주특별자치도 제주시 한경면 산양6길,33.2952963,126.237824
생각하는 정원,제주 제주시,064-772-3701,"['가족여행', '관광지', '나들이', '데이트코스', '생각하는정원', '섬여행', '수목원']",https://cdn.visitkorea.or.kr/img/call?cmd=VIEW&id=29525742-d9a8-49ad-ba90-c87f2bdc9386&thumb,제주특별자치도 제주시 한경면 녹차분재로 675,33.3257082,126.25525159999998
서건도,제주 서귀포시,064-740-6000,"['가족여행', '관광지', '서건도', '섬', '언택트관광지_100선', '자연', '제주권']",https://cdn.visitkorea.or.kr/img/call?cmd=VIEW&id=3aecd7a1-6ed8-4207-93e7-a4f04df87295&thumb,제주특별자치도 서귀포시 강정동,33.2615636,126.49446999999999
서광승마장,제주 서귀포시,064-794-5220,['레포츠'],https://cdn.visitkorea.or.kr/img/call?cmd=VIEW&id=undefined&thumb,제주특별자치도 서귀포시 안덕면 녹차분재로 239,33.2923161,126.2996588
서귀본향당,제주 서귀포시,064-710-6704,"['관광지', '역사', '역사공부', '역사관광지', '역사를품은곳', '역사문화재', '역사속']",https://cdn.visitkorea.or.kr/img/call?cmd=VIEW&id=fdc7f87a-e49b-4cfe-99b0-c1c6f4481980&thumb,제주특별자치도 서귀포시 이중섭로 23-11,33.24616760000001,126.56483859999999
서귀포 가시리마을 (녹산로 유채꽃도로),제주 서귀포시,064-787-1305,"['가족과함께', '감성사진', '경치좋은곳', '관광지', '드라이브여행', '드라이브코스']",https://cdn.visitkorea.or.kr/img/call?cmd=VIEW&id=c30a3e3d-ec2e-4710-9588-77ef23d292d5&thumb,제주특별자치도 서귀포시 표선면 가시로565번길 20,33.3535804,126.7715936
서귀포 김정희 유배지,제주 서귀포시,064-710-6803,"['가족여행', '관광지', '서귀포김정희유배지', '아이와함께', '역사', '역사유적지']",https://cdn.visitkorea.or.kr/img/call?cmd=VIEW&id=bea0488f-18b6-4b24-9b0e-5789e0563fb1&thumb,제주특별자치도 서귀포시 대정읍 추사로 44,33.249837,126.2786308
서귀포 알토산마을,제주 서귀포시,064-787-3308,"['가족과함께', '관광지', '자연마을', '자연속으로', '자연여행', '자연좋은곳', '자연환경']",https://cdn.visitkorea.or.kr/img/call?cmd=VIEW&id=f5283bff-6d5d-4097-8ed6-0e5ebca321e2&thumb,제주특별자치도 서귀포시 표선면 토산중앙로16번길 1,33.3088635,126.77976140000001
서귀포 예래생태마을,제주 서귀포시,064-738-6613,"['가족과함께', '가족체험', '관광지', '농어촌', '농어촌체험마을', '생테체험', '아이와함께']",https://cdn.visitkorea.or.kr/img/call?cmd=VIEW&id=52e7d8a4-4740-443a-a94c-b2f0efe98bf7&thumb,제주특별자치도 서귀포시 예래로 82,33.2542814,126.3979513
서귀포 용왕난드르마을,제주 서귀포시,064-738-0915,"['관광지', '농어촌체험', '어촌체험', '어촌체험마을', '이색체험', '자연관광지']",https://cdn.visitkorea.or.kr/img/call?cmd=VIEW&id=6d0dd180-ba12-4541-83d7-0fa4089e1339&thumb,제주특별자치도 서귀포시 안덕면 대평감산로 8,33.2354335,126.3670703
서귀포 전기버스 시티투어,제주 서귀포시,064-120,"['관광지', '데이트장소', '데이트코스', '버스', '버스투어', '서귀포시', '시티투어버스']",https://cdn.visitkorea.or.kr/img/call?cmd=VIEW&id=ac85dff6-8df5-4fb4-95f1-c46d491106dd&thumb,제주특별자치도 서귀포시 중산간동로7894번길 18-5,33.2671561,126.57337759999999
서귀포 치유의 숲,제주 서귀포시,064-760-3067,"['가족휴양', '관광지', '국내힐링여행', '산림휴양', '자연속으로', '자연여행', '자연좋은곳']",https://cdn.visitkorea.or.kr/img/call?cmd=VIEW&id=01a3315d-9f0d-4dbf-98f0-5f1b36146582&thumb,제주특별자치도 서귀포시 산록남로 2271,33.2919985,126.5294125
서귀포 칠십리 해안경승지,제주 서귀포시,064-740-6000,"['관광지', '서귀포70경', '일몰명소', '일출명소', '자연', '제주권', '칠십리해안경승지']",https://cdn.visitkorea.or.kr/img/call?cmd=VIEW&id=628a48f0-8818-4f9a-900d-fb0ea18d456b&thumb,제주특별자치도 서귀포시 호근동,33.261338800000004,126.53326409999998
서귀포 하논분화구,제주 서귀포시,064-740-6000,"['관광지', '산책하기좋은곳', '자연', '자연마을', '자연속으로', '자연좋은곳', '자연풍경']",https://cdn.visitkorea.or.kr/img/call?cmd=VIEW&id=0d4256c5-dcc9-4a20-b7bd-3a85896be3d5&thumb,제주특별자치도 서귀포시 일주동로 8823,33.2541891,126.5463553
"서귀포 향토5일시장 (4, 9일)",제주 서귀포시,064-763-0965,"['가족여행', '나들이', '나홀로여행', '서귀포향토오일시장', '쇼핑', '시장맛집']",https://cdn.visitkorea.or.kr/img/call?cmd=VIEW&id=a523b96c-d3e8-437e-9246-daaa79ef5cdb&thumb,제주특별자치도 서귀포시 중산간동로7894번길 18-5,33.2671561,126.57337759999999
서귀포매일올레시장,제주 서귀포시,064-762-1949,"['가족과함께', '먹거리', '사계절', '서귀포매일올레시장', '쇼핑', '시장맛집', '연인과함께']",https://cdn.visitkorea.or.kr/img/call?cmd=VIEW&id=8a635935-69d5-43fe-b3eb-078029d05527&thumb,제주특별자치도 서귀포시 중앙로62번길 18,33.2501708,126.56367859999999
서귀포문화원,제주 서귀포시,064-733-3789,"['문화시설', '문화원', '사계절', '서귀포문화원', '실내여행지', '아이와함께', '제주권']",https://cdn.visitkorea.or.kr/img/call?cmd=VIEW&id=1f8bc764-7b31-4a33-9193-43e02092af07&thumb,제주특별자치도 서귀포시 동홍로 31-7,33.25179835,126.566458
서귀포시 걸매생태공원,제주 서귀포시,064-760-3191,"['걷기길', '걸매생태공원', '관광지', '생태관광', '생태관광지', '제주권', '천지연폭포']",https://cdn.visitkorea.or.kr/img/call?cmd=VIEW&id=00a3cdb1-4523-4624-9b51-74906fc49f05&thumb,제주특별자치도 서귀포시 서홍로 4-42,33.2499864,126.5551498
서귀포시 성산포,제주 서귀포시,064-710-3314,"['걷기길', '관광지', '생태관광', '생태관광지', '서귀포시성산포', '성산일출봉']",https://cdn.visitkorea.or.kr/img/call?cmd=VIEW&id=429a8a58-b273-42c8-b657-d5cf66f1c693&thumb,제주특별자치도 서귀포시 성산읍 일출로 284-12,33.4621467,126.93642709999999
서귀포시청소년수련관,제주 서귀포시,064-760-6461,"['레포츠', '복합문화시설', '제주도', '청소년수련원']",https://cdn.visitkorea.or.kr/img/call?cmd=VIEW&id=28277401-61df-4382-87fc-2c9a4348b644&thumb,제주특별자치도 서귀포시 중산간서로 97-1,33.2608092,126.4981555
서귀포유람선 뉴파라다이스호,제주 서귀포시,064-732-1717,"['가족여행', '경치좋은곳', '관광지', '바다경치', '바다풍경', '서귀포유람선뉴파라다이스호']",https://cdn.visitkorea.or.kr/img/call?cmd=VIEW&id=7e174443-75f1-419b-a1a5-5386c7b063c2&thumb,제주특별자치도 서귀포시 남성중로 40,33.239223100000004,126.55865619999999
서귀포자연휴양림,제주 서귀포시,064-738-4544,"['관광지', '나홀로여행', '생태관광', '서귀포자연휴양림', '연중무휴', '자연', '자연여행']",https://cdn.visitkorea.or.kr/img/call?cmd=VIEW&id=a34f41ca-e293-42dc-ab93-1af5cdbea492&thumb,제주특별자치도 서귀포시 1100로 882,33.3116678,126.45876070000001
서귀포잠수함,제주 서귀포시,064-732-6060,"['가족과함께', '관광지', '서귀포잠수함', '아이와함께', '이색체험', '자연관광지']",https://cdn.visitkorea.or.kr/img/call?cmd=VIEW&id=bc155bd3-b3e6-4034-b247-00d745d0a990&thumb,제주특별자치도 서귀포시 남성중로 40,33.239223100000004,126.55865619999999
서귀포천문과학문화관,제주 서귀포시,064-739-9701,"['가족여행', '겨울방학가볼만한곳', '문화시설', '미세먼지_피하는_실내여행']",https://cdn.visitkorea.or.kr/img/call?cmd=VIEW&id=dcd3f27f-9abc-4991-ac74-003c596ac0a2&thumb,제주특별자치도 서귀포시 1100로 506-1,33.28885198,126.4604137
서귀포해양도립공원,제주 서귀포시,064-740-6000,"['관광지', '바다풍경', '서귀포해양도립공원', '여름방학가볼만한곳', '자연', '전망좋은곳']",https://cdn.visitkorea.or.kr/img/call?cmd=VIEW&id=4067f240-f0e0-4930-a690-39461d78ece2&thumb,제주특별자치도 서귀포시 남성중로,33.2542585,126.55350700000001
서문공설시장,제주 제주시,064-758-8387,"['가족여행', '나들이', '데이트코스', '먹거리', '서문공설시장', '쇼핑', '시장맛집']",https://cdn.visitkorea.or.kr/img/call?cmd=VIEW&id=248a26bb-3e7c-41da-a879-420f7ea48575&thumb,제주특별자치도 제주시 서문로4길 13-2,33.511382899999994,126.5179733
서복전시관,제주,064-763-3225,"['가족여행', '문화시설', '서복전시관', '아이와함께', '전시관', '전통&역사문화체험']",https://cdn.visitkorea.or.kr/img/call?cmd=VIEW&id=12d64aa1-31a4-4c82-8af7-bd6f7f742701&thumb,제주특별자치도 서귀포시 칠십리로 156-8,33.24480923,126.5706571
서진승마장,제주 제주시,064-782-0314,"['가족과함께', '레포츠', '승마', '승마레슨', '승마장', '승마체험', '승마캠프', '승마트레킹']",https://cdn.visitkorea.or.kr/img/call?cmd=VIEW&id=8217483d-0200-4090-a433-e06b17cc7e40&thumb,제주특별자치도 제주시 조천읍 비자림로 1118,33.4339185,126.7242038
서프라이즈 테마파크,제주 제주시,064-783-7272,"['관광지', '제주도', '테마파크']",https://cdn.visitkorea.or.kr/img/call?cmd=VIEW&id=dbeb7e6b-314c-422c-b742-9b1201da6d14&thumb,제주특별자치도 제주시 조천읍 남조로 2243,33.465478000000004,126.6586605
석부작박물관,제주 서귀포시,064-739-5588,"['가족여행', '관광지', '나들이', '박물관', '석부작박물관', '섬여행', '아이와함께']",https://cdn.visitkorea.or.kr/img/call?cmd=VIEW&id=7651ae90-6b15-4f81-8cae-54605fcb3728&thumb,제주특별자치도 서귀포시 일주동로 8941,33.250482899999994,126.53670120000001
선광사(제주),제주 서귀포시,064-764-3098,"['관광지', '불교', '불교문화', '사찰', '사찰여행', '역사', '연중무휴', '자연속으로']",https://cdn.visitkorea.or.kr/img/call?cmd=VIEW&id=86cc9e61-ad0b-494c-91f0-803926e22af7&thumb,제주특별자치도 서귀포시 남원읍 태위로510번길 42,33.2783613,126.7016216
선녀와나무꾼 테마공원,제주 제주시,064-784-9001,"['가족여행', '관광지', '박물관', '산책하기', '산책하기좋은곳', '선녀와나무꾼']",https://cdn.visitkorea.or.kr/img/call?cmd=VIEW&id=abab7537-39ff-4788-b08b-6acd2c8d3782&thumb,제주특별자치도 제주시 조천읍 선교로 267,33.4786897,126.7030403
선임교,제주 서귀포시,064-735-7200,"['가족과함께', '경치좋은곳', '관광지', '사진찍기', '사진찍기좋은곳', '사진촬영명소']",https://cdn.visitkorea.or.kr/img/call?cmd=VIEW&id=5478a16f-2fa8-4b2f-a770-3a0a774e915b&thumb,제주특별자치도 서귀포시 중문로105번길 37,33.2615336,126.42396869999999
선흘곶자왈 (제주도 국가지질공원),제주 제주시,064-710-3945,"['경치좋은곳', '관광지', '국가지질공원', '수목원', '자연', '자연관광지', '자연발생']",https://cdn.visitkorea.or.kr/img/call?cmd=VIEW&id=ad01fc7a-b977-446c-bf37-4ecbadef1f8f&thumb,제주특별자치도 제주시 조천읍 선흘리 산12 제주특별자치도,33.5170339,126.7176118
섭지코지,제주 서귀포시,064-740-6000,"['15_16한국관광100선', '17_18한국관광100선', '19_20한국관광100선', '가족여행']",https://cdn.visitkorea.or.kr/img/call?cmd=VIEW&id=ce882e0d-fd91-47d9-bc2c-5b8c92a78e47&thumb,제주특별자치도 서귀포시 성산읍 섭지코지로 107,33.4305782,126.92776880000001
"성산 5일장 (1, 6일)",제주 서귀포시,064-760-4282,"['가족여행', '나들이', '나홀로여행', '먹거리', '성산오일장', '쇼핑', '시장맛집']",https://cdn.visitkorea.or.kr/img/call?cmd=VIEW&id=e046efc7-55fe-49b9-833f-b6d75371f255&thumb,제주특별자치도 서귀포시 성산읍 성산중앙로37번길 6,33.463857399999995,126.93310690000001
성산일출봉 [유네스코 세계자연유산],제주 서귀포시,064-783-0959,"['19_20한국관광100선', '가족여행', '가족체험여행', '관광지', '성산일출봉']",https://cdn.visitkorea.or.kr/img/call?cmd=VIEW&id=c1cc806e-4913-423c-b36f-efa8cbf63736&thumb,제주특별자치도 서귀포시 성산읍 일출로 284-12,33.4621467,126.93642709999999
성산포 해녀물질공연장,제주 서귀포시,064-783-0959,"['가족과함께', '경치좋은곳', '문화시설', '바다경치', '바다내음', '아이와함께']",https://cdn.visitkorea.or.kr/img/call?cmd=VIEW&id=b7a605b6-e512-4fed-8044-4caf47c151bf&thumb,제주특별자치도 서귀포시 성산읍 일출로 284-34,33.4628825,126.9388483
성산포유람선,제주 서귀포시,064-784-6161,"['가족여행', '관광지', '레포츠체험', '바다풍경', '성산포유람선', '연중무휴', '이색체험']",https://cdn.visitkorea.or.kr/img/call?cmd=VIEW&id=311f41e4-f3a7-48e5-9cea-510993a6957a&thumb,제주특별자치도 서귀포시 성산읍 성산등용로 112-7,33.4721117,126.9331983
성읍민속마을,제주 서귀포시,064-710-6797,"['19_20한국관광100선', '가족여행', '가족체험여행', '관광지', '교과서속여행']",https://cdn.visitkorea.or.kr/img/call?cmd=VIEW&id=76ac7d55-b63f-4f97-9a77-65987a2e4bca&thumb,제주특별자치도 서귀포시 표선면 성읍정의현로 19,33.3863435,126.79971019999999
성읍승마장,제주 서귀포시,064-787-2324,['레포츠'],https://cdn.visitkorea.or.kr/img/call?cmd=VIEW&id=496cd82b-b63d-419b-af19-fb1fd77c0877&thumb,제주특별자치도 서귀포시 표선면 번영로 2650,33.3990017,126.7868715
성이시돌목장,제주 제주시,064-740-6000,"['SNS감성사진', '감성사진', '관광지', '사진찍기', '사진찍기좋은곳', '사진촬영']",https://cdn.visitkorea.or.kr/img/call?cmd=VIEW&id=6cfcfde5-fd77-48ff-80e7-a3f26d19362b&thumb,제주특별자치도 제주시 한림읍 금악동길 35,33.3471269,126.32636629999999
세계자동차&피아노 박물관,제주 서귀포시,064-792-3000,"['무더위_피해_실내여행', '문화시설', '박물관', '세계자동차제주박물관', '아이가_좋아하는_여행']",https://cdn.visitkorea.or.kr/img/call?cmd=VIEW&id=643d9798-fd1c-44d6-998c-bc2ef0f46cb9&thumb,제주특별자치도 서귀포시 안덕면 중산간서로 1610,33.28294238,126.3490104
세계조가비박물관,제주 서귀포시,064-762-5551,"['겨울방학에가볼만한곳', '문화시설', '박물관', '세계조가비박물관', '아이와함께']",https://cdn.visitkorea.or.kr/img/call?cmd=VIEW&id=f05f74e6-b2e6-4f4f-92b6-c303524ef17d&thumb,제주특별자치도 서귀포시 태평로 284,33.24744266,126.5516295
세리월드,제주 서귀포시,064-739-8254,"['레포츠', '속도', '연인과함께', '제주도', '제주도여행', '체험', '카트', '커플데이트']",https://cdn.visitkorea.or.kr/img/call?cmd=VIEW&id=ad400eec-08ff-4d7f-9a04-bb93f6f9a2ef&thumb,제주특별자치도 서귀포시 법환상로2번길 97-17,33.2468934,126.5119875
세인트 포 골프클럽,제주 제주시,064-786-3800,"['골프리조트', '골프장', '골프클럽', '남녀노소', '레저스포츠', '레포츠', '복합레저스포츠']",https://cdn.visitkorea.or.kr/img/call?cmd=VIEW&id=undefined&thumb,제주특별자치도 제주시 구좌읍 선유로 445-55,33.519600800000006,126.74250759999998
"세화민속오일시장(5일, 0일)",제주 제주시,064-728-7762,"['가족여행', '나들이', '데이트코스', '먹거리', '세화오일장', '쇼핑', '시장맛집']",https://cdn.visitkorea.or.kr/img/call?cmd=VIEW&id=76e57e40-c028-4be1-8117-7da46e656378&thumb,제주특별자치도 제주시 구좌읍 해맞이해안로 1412,33.525938399999994,126.85728519999999
세화해변,제주 제주시,064-740-6000,"['가족여행', '관광지', '바다풍경', '세화해수욕장', '여름방학가볼만한곳', '여름여행']",https://cdn.visitkorea.or.kr/img/call?cmd=VIEW&id=f31bb8e9-527e-4ae6-85f5-09e0a2e2ecd8&thumb,제주특별자치도 제주시 구좌읍 세화길,33.5221815,126.8610231
소남머리,제주 서귀포시,064-740-6000,"['개울', '관광지', '바다', '소남머리', '숲', '자연', '제주권', '해안절경']",https://cdn.visitkorea.or.kr/img/call?cmd=VIEW&id=0be60322-9fc5-4d43-9a72-49cb0b9b2baa&thumb,제주특별자치도 서귀포시 서귀동,33.2471409,126.5640547
소심한 책방,제주 제주시,070-8147-0848,"['서적', '서점', '쇼핑', '제주도']",https://cdn.visitkorea.or.kr/img/call?cmd=VIEW&id=45cf6d15-4475-4e09-9299-865eaf3f255a&thumb,제주특별자치도 제주시 구좌읍 종달동길 29-6,33.4914883,126.9031146
소정방폭포,제주 서귀포시,064-733-1530,"['관광지', '소정방폭포', '자연', '제주권', '폭포']",https://cdn.visitkorea.or.kr/img/call?cmd=VIEW&id=f948e7b4-0553-4ca4-b4de-70405805de91&thumb,제주특별자치도 서귀포시 칠십리로214번길,33.2455584,126.57480919999999
손지오름,제주 제주시,064-740-6000,"['관광지', '자연']",https://cdn.visitkorea.or.kr/img/call?cmd=VIEW&id=e4421f21-91c0-4167-93cf-8b0851950e05&thumb,제주특별자치도 제주시 구좌읍 종달논길,33.4925079,126.89857099999999
송당승마장,제주 제주시,064-782-1199,['레포츠'],https://cdn.visitkorea.or.kr/img/call?cmd=VIEW&id=d8fb1642-d17b-4e78-8202-3cd1138d136f&thumb,제주특별자치도 제주시 구좌읍 번영로 2015,33.4358907,126.73772340000002
송아오름,제주 제주시,064-740-6000,"['관광지', '자연']",https://cdn.visitkorea.or.kr/img/call?cmd=VIEW&id=8b9693f4-2125-4c41-9916-d494a783e5e9&thumb,제주특별자치도 제주시 한경면 조수리 135,33.3358786,126.23827560000001
송악산,제주 서귀포시,064-740-6000,"['가족여행', '걷기길', '관광지', '바다풍경', '송악산', '연인과함께', '자연', '제주권']",https://cdn.visitkorea.or.kr/img/call?cmd=VIEW&id=f67e5563-e7ab-4676-a1fa-1ba41c9e162b&thumb,제주특별자치도 서귀포시 대정읍 송악관광로,33.2164826,126.27684509999999
쇠머리오름(우도봉),제주 제주시,064-740-6000,"['관광지', '쇠머리오름', '우도봉', '자연', '제주권', '해안절경']",https://cdn.visitkorea.or.kr/img/call?cmd=VIEW&id=2ff08815-a4f0-4214-9ade-f81374e92623&thumb,제주특별자치도 제주시 우도면 삼양고수물길,33.517581199999995,126.95407479999999
쇠소깍,제주 서귀포시,064-732-1562,"['15_16한국관광100선', '17_18한국관광100선', '관광지', '국가지정문화재']",https://cdn.visitkorea.or.kr/img/call?cmd=VIEW&id=d6ef7307-790e-4600-9d2c-9dcdfa174633&thumb,제주특별자치도 서귀포시 쇠소깍로 128,33.2522055,126.62311880000001
수목원테마파크(아이스뮤지엄),제주 제주시,064-742-3700,"['겨울레포츠', '겨울방학갈만한곳', '겨울여행지', '관광지', '사진찍기', '사진찍기좋은곳']",https://cdn.visitkorea.or.kr/img/call?cmd=VIEW&id=a12a8571-f1c6-427b-ab5a-5a772221d108&thumb,제주특별자치도 제주시 은수길 69,33.470619,126.4881811
"수보사(구,광명사)",제주 서귀포시,064-742-8866,"['관광지', '불교', '불교문화', '역사', '자연속으로', '자연좋은곳', '자연풍경', '자연환경']",https://cdn.visitkorea.or.kr/img/call?cmd=VIEW&id=ff790ac3-4763-4973-88b4-ef6ce80317bc&thumb,제주특별자치도 서귀포시 중문상로17번길 51,33.249012699999994,126.41916210000001
수악(물오름),제주 서귀포시,064-740-6000,"['관광지', '물오름', '수악', '자연', '제주권']",https://cdn.visitkorea.or.kr/img/call?cmd=VIEW&id=2440ef13-9e56-4d54-a1ee-d9c3f0a2561b&thumb,제주특별자치도 서귀포시 남원읍 영실로,33.3698523,126.5556383
수월봉,제주 제주시,064-740-6000,"['관광지', '자연']",https://cdn.visitkorea.or.kr/img/call?cmd=VIEW&id=500e573f-a775-4d4a-b72b-cf49b1781741&thumb,제주특별자치도 제주시 한경면 고락로,33.3040143,126.1973502
수월봉과 차귀해안,제주 제주시,064-740-6000,"['경치좋은곳', '관광지', '바다경치', '바다내음', '수월봉', '일몰명소', '자연', '자연관광지']",https://cdn.visitkorea.or.kr/img/call?cmd=VIEW&id=d6c66bfd-a3f8-4e32-9852-44a9c9ff6b56&thumb,제주특별자치도 제주시 한경면 노을해안로 1013-70,33.293735,126.162815
신산공원,제주 제주시,064-726-0885,"['걷기길', '관광지', '나들이', '당일치기여행', '산책길', '산책코스', '산책하기']",https://cdn.visitkorea.or.kr/img/call?cmd=VIEW&id=18165168-037a-40c4-bdd4-28146cd13675&thumb,제주특별자치도 제주시 신산로 92-12,33.5053177,126.5337062
신양 섭지해수욕장,제주 서귀포시,064-740-6000,"['가족여행', '관광지', '바다풍경', '신양섭지코지해변', '아이와함께', '여름방학가볼만한곳']",https://cdn.visitkorea.or.kr/img/call?cmd=VIEW&id=df96c7af-40a0-4fa7-944c-a077ff252375&thumb,제주특별자치도 서귀포시 성산읍 섭지코지로 88,33.435458399999995,126.9225361
신양마을,제주 서귀포시,064-740-6000,"['관광지', '자연']",https://cdn.visitkorea.or.kr/img/call?cmd=VIEW&id=caae7ac1-8df7-4222-b93d-078b1f6a9ce7&thumb,제주특별자치도 서귀포시 성산읍 신고로,33.4404976,126.9157525
신영영화박물관 무비스타,제주 서귀포시,064-805-0008,"['나들이', '문화시설', '박물관', '신영영화박물관무비스타', '여름방학가볼만한곳']",https://cdn.visitkorea.or.kr/img/call?cmd=VIEW&id=cf1bd45e-4930-4224-ac1f-7ba8c5f52f52&thumb,제주특별자치도 서귀포시 남원읍 태위로 536,33.27515993,126.7082084
신창풍차해안도로,제주 제주시,064-740-6000,"['관광지', '신창풍차해안도로', '자연관광지', '제주도여행코스', '해안드라이브']",https://cdn.visitkorea.or.kr/img/call?cmd=VIEW&id=42f6a35a-5a3b-451f-8bae-77c8e4114102&thumb,제주특별자치도 제주시 한경면 신창리 1322-1,33.3433767,126.1739996
신촌향사,제주 제주시,064-740-6000,"['관광지', '신촌향사', '역사', '역사공부', '역사관광지', '역사를품은곳', '역사문화재']",https://cdn.visitkorea.or.kr/img/call?cmd=VIEW&id=ba7d0af9-8552-4244-8ca3-f8c584af6fd0&thumb,제주특별자치도 제주시 조천읍 신촌5길,33.5365137,126.62136890000001
신풍 신천 바다목장,제주 서귀포시,064-762-2190,"['가족여행', '관광지', '신풍신천바다목장', '올레길', '자연', '제주권', '해안절경']",https://cdn.visitkorea.or.kr/img/call?cmd=VIEW&id=e132c735-ec77-469d-9d60-18e3ee38974e&thumb,제주특별자치도 서귀포시 성산읍 일주동로 5417,33.416346000000004,126.88990700000001
신풍리 밭담길,제주 서귀포시,064-782-7445,"['레포츠', '산책길', '산책로', '산책하기', '산책하기좋은곳', '언택트관광지_100선']",https://cdn.visitkorea.or.kr/img/call?cmd=VIEW&id=e70cd591-ffe4-4856-848a-3796a95304f6&thumb,제주특별자치도 서귀포시 성산읍 신풍하동로 39,33.3618401,126.84059579999999
신화워터파크,제주 서귀포시,1670-1188,"['관광지', '남녀노소', '물놀이', '신화워터파크', '실내워터파크', '아이가_좋아하는_여행']",https://cdn.visitkorea.or.kr/img/call?cmd=VIEW&id=5410c294-8427-4803-9261-15b9c7cd9077&thumb,제주특별자치도 서귀포시 안덕면 신화역사로304번길 98,33.3048997,126.31538379999999
신화테마파크,제주 서귀포시,1670-1188,"['관광지', '남녀노소', '놀이기구', '아이가_좋아하는_여행', '아이와함께', '연인과함께']",https://cdn.visitkorea.or.kr/img/call?cmd=VIEW&id=dfd5a637-11a1-4a2d-bc8d-1daa02c82fbd&thumb,제주특별자치도 서귀포시 안덕면 신화역사로304번길 98,33.3048997,126.31538379999999
신흥2리마을,제주 서귀포시,064-764-8756,"['가족과함께', '관광지', '농촌', '농촌마을', '농촌여행', '농촌체험', '농촌체험마을']",https://cdn.visitkorea.or.kr/img/call?cmd=VIEW&id=fd075798-5fed-4b29-8985-88b28083d3de&thumb,제주특별자치도 서귀포시 남원읍 중산간동로 5807,33.3039456,126.67082749999999
쌍용굴,제주 제주시,064-796-0001,"['관광지', '만장굴', '생태관광', '생태관광지', '소천굴', '쌍용굴', '여름방학가볼만한곳']",https://cdn.visitkorea.or.kr/img/call?cmd=VIEW&id=335ef785-102f-4ee2-bfa9-d3d70bfcdc3b&thumb,제주특별자치도 제주시 한림읍 한림로 300,33.389494899999995,126.2396825
쌍용굴(한림공원),제주 제주시,064-796-0001,"['가족여행', '관광지', '나들이', '동굴', '미세먼지탈출_이색동굴여행', '섬여행']",https://cdn.visitkorea.or.kr/img/call?cmd=VIEW&id=9af7d890-afd1-4306-afb8-d8b3c309dba0&thumb,제주특별자치도 제주시 한림읍 한림로 300,33.389494899999995,126.2396825
아부오름,제주 제주시,064-740-6000,"['관광지', '자연']",https://cdn.visitkorea.or.kr/img/call?cmd=VIEW&id=834aff72-5291-4139-892a-d9c5d452b023&thumb,제주특별자치도 제주시 구좌읍 금백조로,33.444752,126.7775324
아쿠아플라넷 제주,제주 서귀포시,064-780-0900,"['가족여행', '문화시설', '문화행사', '미세먼지_피하는_실내여행', '복합문화공간']",https://cdn.visitkorea.or.kr/img/call?cmd=VIEW&id=73882fc4-5a44-4d99-950f-066129e48ebb&thumb,제주특별자치도 서귀포시 성산읍 섭지코지로 95,33.43297686,126.9277955
아프리카 박물관,제주 서귀포시,064-738-6565,"['문화시설', '박물관', '아이와함께', '아프리카박물관', '이색체험', '자연좋은곳']",https://cdn.visitkorea.or.kr/img/call?cmd=VIEW&id=1711093f-aa5a-4c91-b825-96312e087509&thumb,제주특별자치도 서귀포시 이어도로 49,33.23997655,126.4288137
아홉굿마을,제주 제주시,064-773-1946,"['가족과함께', '가족체험', '관광지', '농촌체험', '농촌체험마을', '농촌체험여행']",https://cdn.visitkorea.or.kr/img/call?cmd=VIEW&id=493f510b-b8c2-4ca2-9088-415f4492a741&thumb,제주특별자치도 제주시 한경면 낙수로 97,33.3280452,126.22700230000001
안덕계곡,제주 서귀포시,064-740-6001,"['경치좋은곳', '계곡', '관광지', '생태관광지', '안덕계곡', '연인과함께', '자연']",https://cdn.visitkorea.or.kr/img/call?cmd=VIEW&id=ca64c80d-8244-4319-bb4c-24b701349e8a&thumb,제주특별자치도 서귀포시 안덕면 서안골로,33.253887899999995,126.348325
알뜨르비행장 및 일본군 비행기 격납고,제주 서귀포시,064-740-6000,"['관광지', '역사', '역사공부', '역사관광지', '역사를품은곳', '역사문화재', '역사속']",https://cdn.visitkorea.or.kr/img/call?cmd=VIEW&id=cf467bf3-6537-425c-bc39-11d467818439&thumb,제주특별자치도 서귀포시 대정읍 상모리,33.221897600000005,126.27412959999998
알프스승마장 포니,제주 서귀포시,064-787-3663,"['가족과함께', '레포츠', '서귀포승마장', '승마장', '승마체험', '아이와함께', '제주도']",https://cdn.visitkorea.or.kr/img/call?cmd=VIEW&id=5c2e71cd-5776-4221-83a8-f1c60890a2ef&thumb,제주특별자치도 서귀포시 표선면 서성일로 73,33.399175899999996,126.8021768
야호농수산,제주 제주시,064-725-1010,"['쇼핑', '야호농수산', '연중무휴', '제주권', '직거래장터']",https://cdn.visitkorea.or.kr/img/call?cmd=VIEW&id=3e37023e-4f5c-4d75-8676-d9099d7b991f&thumb,제주특별자치도 제주시 용해로 112,33.5075132,126.5046814
약천사(제주),제주 서귀포시,064-738-5000,"['관광지', '역사']",https://cdn.visitkorea.or.kr/img/call?cmd=VIEW&id=6a56ed00-72f6-487a-b573-39c569215b2b&thumb,제주특별자치도 서귀포시 이어도로 293-28,33.245765500000005,126.44933359999999
양금석가옥,제주 서귀포시,064-742-8866,"['고택', '관광지', '양금석가옥', '역사', '역사공부', '역사관광지', '역사를품은곳']",https://cdn.visitkorea.or.kr/img/call?cmd=VIEW&id=0806aa57-e8ae-4465-bf19-0d875f831738&thumb,제주특별자치도 서귀포시 남원읍 신례로298번길 3-6,33.291315999999995,126.6286896
어멍아방잔치마을,제주 서귀포시,064-782-7445,"['관광지', '어멍아방잔치마을', '이색체험', '자연마을', '자연속으로', '자연환경']",https://cdn.visitkorea.or.kr/img/call?cmd=VIEW&id=9c36c590-1af3-4cd0-9306-099e6968ef87&thumb,제주특별자치도 서귀포시 성산읍 신풍하동로 39,33.3618401,126.84059579999999
어승생,제주 제주시,064-713-9950,"['관광지', '자연']",https://cdn.visitkorea.or.kr/img/call?cmd=VIEW&id=adbeef5c-c436-4a1d-a26f-9f7d47de0d7b&thumb,제주특별자치도 제주시 해안동,33.4284365,126.4673892
어영소공원,제주 제주시,064-742-8866,"['걷기여행', '관광지', '남녀노소', '데이트코스', '산책길', '산책코스', '산책하기']",https://cdn.visitkorea.or.kr/img/call?cmd=VIEW&id=17af225b-17e6-4823-aa55-5fb189a62d2a&thumb,제주특별자치도 제주시 용담3동,33.5164659,126.4922919
엉덩물계곡,제주 서귀포시,064-740-6000,"['계곡', '관광지', '올레길', '제주관광지', '제주중문관광단지', '힐링']",https://cdn.visitkorea.or.kr/img/call?cmd=VIEW&id=9d53f169-0d0d-408f-8482-1b30e74a8dce&thumb,제주특별자치도 서귀포시 중문관광로 192,33.2475278,126.41859550000001
엉또폭포,제주 서귀포시,064-740-6090,"['가족여행', '관광지', '엉또폭포', '자연', '자연속으로', '자연여행', '자연좋은곳']",https://cdn.visitkorea.or.kr/img/call?cmd=VIEW&id=83fae75d-caa6-4728-bf51-dcb0b198bbf8&thumb,제주특별자치도 서귀포시 엉또로,33.2657677,126.50107759999999
엉알해안,제주 제주시,064-740-6000,"['관광지', '낙조', '엉알해안', '올레12코스', '유네스코세계지질공원', '자연', '제주권']",https://cdn.visitkorea.or.kr/img/call?cmd=VIEW&id=f56f7898-639f-44a2-815f-288909269dc3&thumb,제주특별자치도 제주시 한경면 노을해안로,33.3019154,126.1657993
에버리스골프리조트,제주 제주시,064-795-5000,"['골프리조트', '골프장', '남녀노소', '레포츠', '연인과함께', '제주도', '친구와함께']",https://cdn.visitkorea.or.kr/img/call?cmd=VIEW&id=68143038-f833-4143-8f64-22beff5b1e2a&thumb,제주특별자치도 제주시 애월읍 평화로 1693-75,33.3780778,126.3621058
에코랜드테마파크,제주 제주시,064-802-8020,"['가족여행', '걷기길', '관광지', '나들이', '산책하기', '산책하기좋은곳', '생태관광']",https://cdn.visitkorea.or.kr/img/call?cmd=VIEW&id=3781ea51-6ac9-447a-9ac0-78fb150732f1&thumb,제주특별자치도 제주시 조천읍 번영로 1278-169,33.455529600000006,126.66818729999999
엘리시안 골프 제주,제주 제주시,064-798-7000,['레포츠'],https://cdn.visitkorea.or.kr/img/call?cmd=VIEW&id=91e784e2-7359-4a65-b647-03e4c47e1e8e&thumb,제주특별자치도 제주시 애월읍 평화로 1738-116,33.3728781,126.3824986
여미지식물원,제주 서귀포시,064-735-1100,"['가족여행', '관광지', '꽃여행', '데이트코스', '미세먼지_피하는_실내여행', '봄꽃여행']",https://cdn.visitkorea.or.kr/img/call?cmd=VIEW&id=a528c82c-0e3a-4396-810f-ce3fb698b2cb&thumb,제주특별자치도 서귀포시 중문관광로 93,33.2526607,126.4146465
연북정,제주 제주시,064-740-6000,"['관광지', '역사', '역사공부', '역사관광지', '역사를품은곳', '역사문화재', '역사속']",https://cdn.visitkorea.or.kr/img/call?cmd=VIEW&id=d18f40a8-de6a-4ef4-be63-7b97bca1fe98&thumb,제주특별자치도 제주시 조천읍 조천리,33.5243102,126.64441740000001
연화못(하가못),제주 제주시,064-740-6000,"['가족여행', '걷기여행', '관광지', '사계절', '아이와함께', '연인과함께', '연화못(하가못)']",https://cdn.visitkorea.or.kr/img/call?cmd=VIEW&id=96bfbd87-19b6-473f-bd8d-7bae02f9fafd&thumb,제주특별자치도 제주시 애월읍 하가로,33.4587799,126.3533392
열안지(오라동),제주 제주시,064-740-6000,"['관광지', '열안지', '자연', '제주권']",https://cdn.visitkorea.or.kr/img/call?cmd=VIEW&id=37a434e6-c52f-427a-a979-c95cda2a3cc9&thumb,제주특별자치도 제주시 산록북로,33.4250584,126.54416450000001
열안지오름(봉개동),제주 제주시,064-740-6000,"['관광지', '자연']",https://cdn.visitkorea.or.kr/img/call?cmd=VIEW&id=20d105bb-ea12-4c3e-a831-97e2855f691a&thumb,제주특별자치도 제주시 명림로,33.46295739999999,126.6161368
예래마을,제주 서귀포시,064-760-3571,"['개다리폭포', '갯깍주상절리대', '걷기길', '관광지', '논짓물', '생태관광', '생태관광지']",https://cdn.visitkorea.or.kr/img/call?cmd=VIEW&id=c21f500c-6c05-499c-98e4-45c793904958&thumb,제주특별자치도 서귀포시 예래로 82,33.2542814,126.3979513
오라컨트리클럽,제주 제주시,064-747-5100,"['골프장', '레포츠', '오라컨트리클럽', '제주도']",https://cdn.visitkorea.or.kr/img/call?cmd=VIEW&id=fd5fae98-e65a-4f29-b32c-d58c21a41049&thumb,제주특별자치도 제주시 오라남로 130-16,33.4480893,126.5137713
오백나한,제주 서귀포시,064-740-6000,"['관광지', '자연']",https://cdn.visitkorea.or.kr/img/call?cmd=VIEW&id=ac2f7ff4-10d0-4731-a6f9-4737176ed936&thumb,제주특별자치도 서귀포시 영실로,33.3698523,126.5556383
오설록 티뮤지엄,제주 서귀포시,064-794-5312,"['가족과함께', '남녀노소', '문화시설', '아이와함께', '오설록', '오설록티뮤지엄']",https://cdn.visitkorea.or.kr/img/call?cmd=VIEW&id=cedd5fed-3df6-4071-a983-33fc96e547c9&thumb,제주특별자치도 서귀포시 안덕면 신화역사로 15,33.30591966,126.2893737
오조마을,제주 서귀포시,064-782-2516,"['관광지', '자연']",https://cdn.visitkorea.or.kr/img/call?cmd=VIEW&id=8dd253d3-270f-4f4c-ad41-59353f8df727&thumb,제주특별자치도 서귀포시 성산읍 오조로 85,33.461486300000004,126.9150522
오케이 승마장,제주 서귀포시,064-787-3066,"['가족과함께', '레포츠', '승마', '승마레슨', '승마장', '승마체험', '승마캠프', '승마트레킹']",https://cdn.visitkorea.or.kr/img/call?cmd=VIEW&id=b2f83aa3-0f45-440d-b20a-cebd95ded4fc&thumb,제주특별자치도 서귀포시 표선면 번영로 2595,33.4027327,126.78311200000002
오현단,제주 제주시,064-728-3918,"['관광지', '역사', '역사공부', '역사관광지', '역사를품은곳', '역사문화재', '역사속']",https://cdn.visitkorea.or.kr/img/call?cmd=VIEW&id=fdafd222-a4af-4939-ae04-bc2c4086f096&thumb,제주특별자치도 제주시 오현길 61,33.5101353,126.525622
왈종미술관,제주 서귀포시,064-763-3600,"['남녀노소', '문화시설', '문화예술', '문화예술공간', '미세먼지_피하는_실내여행']",https://cdn.visitkorea.or.kr/img/call?cmd=VIEW&id=0cbbbda8-56b0-4f5e-8def-e08eca0d73e3&thumb,제주특별자치도 서귀포시 칠십리로214번길 30,33.24530212,126.5736629
왕이메,제주 서귀포시,064-740-6000,"['관광지', '분화구', '오름', '왕이메', '자연', '제주권']",https://cdn.visitkorea.or.kr/img/call?cmd=VIEW&id=ed83de39-688a-445c-b040-c4bd13c4d8cc&thumb,제주특별자치도 서귀포시 안덕면 광평로,33.337135700000005,126.39336680000001
외돌개(제주),제주 서귀포시,064-760-3031,"['관광지', '기암괴석', '명승', '바다경치', '바다내음', '외돌개', '자연속으로', '자연좋은곳']",https://cdn.visitkorea.or.kr/img/call?cmd=VIEW&id=cc06e269-3790-45f5-a000-8695f42f32eb&thumb,제주특별자치도 서귀포시 서흥동,33.2639577,126.5507293
요트투어 샹그릴라,제주 서귀포시,1544-2988,"['레포츠', '요트체험', '이색체험', '제주도', '퍼시픽랜드']",https://cdn.visitkorea.or.kr/img/call?cmd=VIEW&id=6cf264f9-6301-492b-a1b9-78320a7b8826&thumb,제주특별자치도 서귀포시 중문관광로 154-17,33.2444327,126.4161942
용눈이오름,제주 제주시,064-740-6000,"['경치여행', '경치좋은곳', '관광지', '산책하기', '야간관광100선', '자연', '자연관광지']",https://cdn.visitkorea.or.kr/img/call?cmd=VIEW&id=76b446a6-66db-444c-bdc9-ab79e4225681&thumb,제주특별자치도 제주시 구좌읍 종달논길,33.4925079,126.89857099999999
용두암,제주 제주시,064-740-6000,"['가족여행', '경치좋은곳', '관광지', '바다경치', '바다풍경', '용두암', '자연', '자연발생']",https://cdn.visitkorea.or.kr/img/call?cmd=VIEW&id=201252f2-64bc-4922-8a4b-0cc381e4af29&thumb,제주특별자치도 제주시 용두암길,33.5135307,126.51293229999999
용두암해수랜드,제주 제주시,064-742-7000,"['관광지', '뷰티&스파', '연인과함께', '온천&스파', '용두암해수랜드', '용두암해수랜드']",https://cdn.visitkorea.or.kr/img/call?cmd=VIEW&id=176b1f46-a1da-40e9-93c9-d9013c464542&thumb,제주특별자치도 제주시 서해안로 630,33.5158506,126.50429150000001
용머리해안,제주 서귀포시,064-794-2940,"['경치여행', '경치좋은곳', '관광지', '바다경치', '바다내음', '바다풍경', '용머리해안']",https://cdn.visitkorea.or.kr/img/call?cmd=VIEW&id=ed8ab16d-1f0d-49d5-b3b2-0d2adf926725&thumb,제주특별자치도 서귀포시 안덕면 산방로 218-10,33.2367056,126.3128294
용연,제주 제주시,064-740-6000,"['관광지', '자연']",https://cdn.visitkorea.or.kr/img/call?cmd=VIEW&id=0d81dd6a-7bc9-4225-b575-b26be8d73a8d&thumb,제주특별자치도 제주시 동한두기길,33.516116100000005,126.5155067
용천동굴 [유네스코 세계자연유산],제주 제주시,1600-0064,"['관광지', '동굴', '미세먼지탈출_이색동굴여행', '용천동굴', '유네스코세계자연유산']",https://cdn.visitkorea.or.kr/img/call?cmd=VIEW&id=8106767f-cc51-449c-a5f2-bf0d1a76a444&thumb,제주특별자치도 제주시 구좌읍 월정리,33.5468086,126.78381170000002
우도,제주 제주시,064-740-6000,"['19_20한국관광100선', '낚시체험', '레포츠', '우도', '제주도', '한국관광100선']",https://cdn.visitkorea.or.kr/img/call?cmd=VIEW&id=72e7e89e-c928-4b38-8f65-e32caf393adc&thumb,제주특별자치도 제주시 우도면 우도로 153,33.5063307,126.953232
우도 등대,제주 제주시,064-740-6000,"['관광지', '자연']",https://cdn.visitkorea.or.kr/img/call?cmd=VIEW&id=c09a2a7a-1893-4d4f-8b9f-39261ef89845&thumb,제주특별자치도 제주시 우도면 우도봉길 105,33.4930058,126.96495949999999
우도 산호해변(서빈백사),제주 제주시,064-740-6000,"['가족여행', '관광지', '바다풍경', '서빈백사', '여름여행', '연인과함께', '우도산호해변']",https://cdn.visitkorea.or.kr/img/call?cmd=VIEW&id=e6dc12d7-bab0-4b3b-8a33-b4bf81411e65&thumb,제주특별자치도 제주시 우도면 우도해안길,33.5074342,126.954269
우도(해양도립공원),제주 제주시,064-782-5671,"['관광지', '자연']",https://cdn.visitkorea.or.kr/img/call?cmd=VIEW&id=574b9e24-135a-467c-af5d-69bb90b36c16&thumb,제주특별자치도 제주시 우도면 우도로 153,33.5063307,126.953232
우도마을,제주 제주시,064-740-6000,"['관광지', '자연']",https://cdn.visitkorea.or.kr/img/call?cmd=VIEW&id=4af5509e-8d2e-49ba-bca6-3590cb659470&thumb,제주특별자치도 제주시 우도면 우도비양길,33.510265600000004,126.962433
우도잠수함,제주 서귀포시,064-784-2333,"['가족과함께', '관광지', '물속구경', '아이들과가볼만한곳', '아이와함께', '유람선']",https://cdn.visitkorea.or.kr/img/call?cmd=VIEW&id=ba4a5f1a-5497-495f-acd3-dd042dc5f2c4&thumb,제주특별자치도 서귀포시 성산읍 성산등용로 112-7,33.4721117,126.9331983
웃세오름,제주 제주시,064-740-6000,"['관광지', '자연']",https://cdn.visitkorea.or.kr/img/call?cmd=VIEW&id=746576f4-70c6-4c32-ab98-2b97c2eb2f22&thumb,제주특별자치도 제주시 애월읍 평화로,33.4099645,126.3988615
원당사지,제주 제주시,064-740-6000,"['관광지', '역사', '역사공부', '역사관광지', '역사를품은곳', '역사문화재', '역사속']",https://cdn.visitkorea.or.kr/img/call?cmd=VIEW&id=d43d35f1-54e6-4b49-98a4-df9a2df794ec&thumb,제주특별자치도 제주시 원당로16길 41,33.529075399999996,126.59845109999999
월영사(제주),제주 제주시,064-713-2553,"['관광지', '불교', '불교문화', '사찰', '사찰여행', '역사', '자연속으로', '자연환경']",https://cdn.visitkorea.or.kr/img/call?cmd=VIEW&id=null&thumb,제주특별자치도 제주시 애월읍 하귀동남2길 40-16,33.4779707,126.4141035
월정리해변(월정리해수욕장),제주 제주시,064-740-6000,"['가족여행', '관광지', '바다풍경', '아이와함께', '여름여행', '여름휴가', '월정리해변(월정리해수욕장)']",https://cdn.visitkorea.or.kr/img/call?cmd=VIEW&id=b02b9e64-8f90-45c8-9df4-8ee28e5b2082&thumb,제주특별자치도 제주시 구좌읍 해맞이해안로 480-1,33.5593822,126.79317820000001
월정사(제주),제주 제주시,064-742-7755,"['관광지', '불교', '불교문화', '사찰', '사찰여행', '역사', '연중무휴', '원불교', '자연속으로']",https://cdn.visitkorea.or.kr/img/call?cmd=VIEW&id=79e5e54e-f22c-407b-b85c-59dc94a2ecd7&thumb,제주특별자치도 제주시 아연로 216-5,33.4665539,126.5103517
위미1리어촌체험마을,제주 서귀포시,064-764-0303,"['관광지', '어촌마을', '어촌체험', '어촌체험마을', '자연마을', '자연속으로', '자연여행']",https://cdn.visitkorea.or.kr/img/call?cmd=VIEW&id=dd8f1379-e308-4e83-8ed0-5deed2a1ffe3&thumb,제주특별자치도 서귀포시 남원읍 위미해안로 43,33.2708926,126.65884840000001
윈드1947 카트테마파크,제주 서귀포시,1947 064-733-3500,"['남녀노소', '레포츠', '복합레저스포츠', '연인과함께', '이색체험', '익스트림스포츠']",https://cdn.visitkorea.or.kr/img/call?cmd=VIEW&id=cc430307-0502-4c36-a875-91e60bd13832&thumb,제주특별자치도 서귀포시 토평공단로 78-27,33.2894549,126.58761070000001
이상한 나라의 앨리스,제주 서귀포시,064-794-4700,"['가족과함께', '가족여행', '관광지', '남녀노소', '아이와함께', '이상한나라의앨리스']",https://cdn.visitkorea.or.kr/img/call?cmd=VIEW&id=d9ab9fe4-bd77-4dce-affe-e828b38cb1f6&thumb,제주특별자치도 서귀포시 안덕면 중산간서로 1881,33.2889437,126.3218702
이어도 승마장,제주 서귀포시,064-783-0916,"['가족과함께', '레포츠', '승마', '승마레슨', '승마체험', '승마캠프', '승마트레킹']",https://cdn.visitkorea.or.kr/img/call?cmd=VIEW&id=1d37fe7d-32af-4c43-ae3f-f3db46742ec9&thumb,제주특별자치도 서귀포시 성산읍 서성일로 688,33.426896500000005,126.8647243
이중섭 거주지,제주 서귀포시,064-740-6000,"['관광지', '역사', '역사공부', '역사관광지', '역사를품은곳', '역사문화재', '역사속']",https://cdn.visitkorea.or.kr/img/call?cmd=VIEW&id=bf637736-656c-43ab-a8cc-4b2f668e41c6&thumb,제주특별자치도 서귀포시 이중섭로 29,33.245531899999996,126.564526
이중섭 문화거리,제주 서귀포시,064-740-6000,"['가족여행', '걷기길', '걷기여행', '관광지', '근대문화유산', '사계절', '산책길']",https://cdn.visitkorea.or.kr/img/call?cmd=VIEW&id=34c96c9e-f2ed-4d86-be48-676654eb74f7&thumb,제주특별자치도 서귀포시 이중섭로 29,33.245531899999996,126.564526
이중섭 미술관,제주 서귀포시,064-760-3567,"['기획전시', '나홀로여행', '문화시설', '미술관', '예술', '이중섭미술관', '제주권']",https://cdn.visitkorea.or.kr/img/call?cmd=VIEW&id=49d1e707-6f1c-437a-ac70-b403c54da050&thumb,제주특별자치도 서귀포시 이중섭로 27-3,33.24586163,126.5648746
이호테우해변,제주 제주시,064-740-6000,"['가족여행', '관광지', '바다풍경', '아이와함께', '여름방학가볼만한곳', '여름여행']",https://cdn.visitkorea.or.kr/img/call?cmd=VIEW&id=4d9bc2d0-3d5f-41bb-88e6-ac1328c50c46&thumb,제주특별자치도 제주시 도리로,33.5008197,126.4643053
일출랜드,제주 서귀포시,064-784-2080,"['가족여행', '관광지', '생태관광지', '아이와함께', '일출랜드', '자연속으로', '자연좋은곳']",https://cdn.visitkorea.or.kr/img/call?cmd=VIEW&id=07e7d30e-ecb8-48e1-a3bc-e047a21a553c&thumb,제주특별자치도 서귀포시 성산읍 중산간동로 4150-30,33.383524300000005,126.8413634
자연사랑미술관,제주 서귀포시,064-787-3110,"['기획전시', '문화시설', '문화예술', '문화예술공간', '복합문화공간', '상설전시']",https://cdn.visitkorea.or.kr/img/call?cmd=VIEW&id=859c59d1-459b-42c8-b535-4b942e66cda2&thumb,제주특별자치도 서귀포시 표선면 가시로613번길 46,33.35564999,126.7719331
자연이야기,제주 제주시,010-3389-1388,"['쇼핑', '아로마테라피', '천연', '천연화장품']",https://cdn.visitkorea.or.kr/img/call?cmd=VIEW&id=fb516fd3-7ce7-4702-82ea-245b660a0ce4&thumb,제주특별자치도 제주시 월랑로6길 21,33.4894714,126.47856429999999
"저지오름(닥몰오름,새오름)",제주 제주시,064-740-6000,"['관광지', '자연']",https://cdn.visitkorea.or.kr/img/call?cmd=VIEW&id=6e44ed91-06d9-442e-9636-d989e7e84fcf&thumb,제주특별자치도 제주시 한경면 중산간서로,33.3190089,126.24626429999999
절부암,제주 제주시,064-740-6000,"['관광지', '역사', '역사공부', '역사관광지', '역사문화재', '역사속', '역사속으로']",https://cdn.visitkorea.or.kr/img/call?cmd=VIEW&id=011d841e-7f77-49d9-9fc8-81e4186e4737&thumb,제주특별자치도 제주시 한경면 용수리 4242-4,33.323912899999996,126.1674051
점보빌리지,제주 서귀포시,064-792-1233,"['가족과함께', '관광지', '동물체험', '실내관광지', '아이가_좋아하는_여행', '아이와함께']",https://cdn.visitkorea.or.kr/img/call?cmd=VIEW&id=0bf0465c-0ac5-4abb-965c-96b55631a598&thumb,제주특별자치도 서귀포시 안덕면 평화로319번길 31-11,33.2762284,126.3053462
정물알오름,제주 제주시,064-740-6000,"['관광지', '자연']",https://cdn.visitkorea.or.kr/img/call?cmd=VIEW&id=3af79e21-5d18-4d9a-a70c-f83c29ce8cc5&thumb,제주특별자치도 제주시 한림읍 금악로,33.3608137,126.29842260000001
정물오름,제주 제주시,064-710-6043 064-740-6000,"['관광지', '언택트관광지_100선', '오름', '자연', '제주', '제주도가볼만한곳']",https://cdn.visitkorea.or.kr/img/call?cmd=VIEW&id=2f7a6be7-a0f0-4cb1-8b57-7e28c0adcf86&thumb,제주특별자치도 제주시 한림읍 산록남로 214-12,33.339292,126.33559340000001
정방폭포,제주 서귀포시,064-740-6000,"['경치여행', '경치좋은곳', '관광지', '사진찍기', '사진찍기좋은곳', '서귀포가볼만한곳']",https://cdn.visitkorea.or.kr/img/call?cmd=VIEW&id=c42aec25-c7fe-41e9-b4fe-01128ddfa8c6&thumb,제주특별자치도 서귀포시 동흥동,33.2663197,126.5671727
정석 항공관,제주 서귀포시,064-784-5322,"['관광지', '교육프로그램', '대한항공', '박물관', '아이와함께', '이색체험', '전시관']",https://cdn.visitkorea.or.kr/img/call?cmd=VIEW&id=9a344b00-75fc-433c-893d-0c2930ac06b5&thumb,제주특별자치도 서귀포시 표선면 녹산로 554,33.390274,126.73290800000001
정의향교,제주 서귀포시,064-740-6000,"['관광지', '역사', '역사공부', '역사관광지', '역사를품은곳', '역사문화재', '역사속']",https://cdn.visitkorea.or.kr/img/call?cmd=VIEW&id=99d2fed8-e38b-4397-95ec-e0d272474a1a&thumb,제주특별자치도 서귀포시 표선면 성읍서문로 14,33.386872100000005,126.8000014
정의현성,제주 서귀포시,064-742-8866,"['관광지', '역사', '역사공부', '역사관광지', '역사를품은곳', '역사문화재', '역사속']",https://cdn.visitkorea.or.kr/img/call?cmd=VIEW&id=06c99e85-b448-4ea8-b252-b0faf3328139&thumb,제주특별자치도 서귀포시 표선면 성읍정의현로 104,33.3917468,126.80117800000001
제일토산품,제주 제주시,064-753-7319,"['가족여행', '기념품판매', '나들이', '데이트코스', '쇼핑', '아이와함께', '연인과함께']",https://cdn.visitkorea.or.kr/img/call?cmd=VIEW&id=1975259c-6e16-4bf3-a742-bd3f599a49f3&thumb,제주특별자치도 제주시 관덕로 24,33.512976300000005,126.5218541
제주 노루생태관찰원,제주 제주시,064-728-3611,"['걷기길', '관광지', '생태관광', '생태관광지', '제주권', '제주노루생태관찰원']",https://cdn.visitkorea.or.kr/img/call?cmd=VIEW&id=65caabfc-1e4f-4410-9b53-2d3701c8a9d3&thumb,제주특별자치도 제주시 명림로 520,33.4444421,126.6266442
제주 노루생태관찰원,제주 제주시,064-728-3611,"['가족여행', '관광지', '사계절', '아이와함께', '이색체험', '자연', '자연좋은곳']",https://cdn.visitkorea.or.kr/img/call?cmd=VIEW&id=b2a95f2c-1660-4218-a8fb-6a08bfbd0148&thumb,제주특별자치도 제주시 명림로 520,33.4444421,126.6266442
제주 당처물동굴 [유네스코 세계자연유산],제주 제주시,1600-0064,"['관광지', '당처물동굴', '동굴', '미세먼지탈출_이색동굴여행', '유네스코세계자연유산']",https://cdn.visitkorea.or.kr/img/call?cmd=VIEW&id=a3dbe6d2-4483-4579-8891-2d192caf4b51&thumb,제주특별자치도 제주시 구좌읍 월정리,33.5468086,126.78381170000002
제주 동백마을,제주 서귀포시,064-764-8756,"['가족체험여행', '관광지', '꽃여행', '동백마을', '자연마을', '자연좋은곳', '자연환경']",https://cdn.visitkorea.or.kr/img/call?cmd=VIEW&id=8e0cd383-eba3-4dcf-b6f8-39ace4d85c98&thumb,제주특별자치도 서귀포시 남원읍 한신로531번길 22-1,33.3204358,126.7451736
제주 명도암참살이마을,제주 제주시,064-723-0261,"['가족과함께', '관광지', '농촌마을', '농촌여행', '농촌체험', '이색체험', '자연관광지']",https://cdn.visitkorea.or.kr/img/call?cmd=VIEW&id=1b4eda0f-847a-4d75-aba9-e006a9cce3ac&thumb,제주특별자치도 제주시 명림로 268-71,33.4616354,126.60709080000001
제주 문화예술진흥원,제주 제주시,064-710-7632,"['가족여행', '공연장', '나들이', '데이트코스', '문화시설', '뮤지컬', '섬여행', '실내여행지']",https://cdn.visitkorea.or.kr/img/call?cmd=VIEW&id=475c716f-77c3-4034-8600-5231e0ad29d8&thumb,제주특별자치도 제주시 동광로 69,33.50444397,126.53517240000002
제주 보성시장,제주 제주시,064-753-2085,"['가족여행', '나들이', '데이트코스', '먹거리', '쇼핑', '시장맛집', '아이와함께']",https://cdn.visitkorea.or.kr/img/call?cmd=VIEW&id=79728c72-5adc-48c9-96f3-77b685e62ec8&thumb,제주특별자치도 제주시 동광로1길 32,33.503294399999994,126.527915
제주 산방산탄산온천,제주 서귀포시,064-792-8300,"['가족과함께', '건강여행', '관광지', '목욕탕', '아이와함께', '연인과함께', '온천']",https://cdn.visitkorea.or.kr/img/call?cmd=VIEW&id=a657dfb6-1d90-4653-8a56-9ac979d43a2b&thumb,제주특별자치도 서귀포시 안덕면 사계북로41번길 192,33.2481936,126.2989561
제주 삼성혈,제주 제주시,064-722-3315,"['관광지', '아이와함께', '역사', '역사공부', '역사관광지', '역사를품은곳', '역사문화재']",https://cdn.visitkorea.or.kr/img/call?cmd=VIEW&id=fad79697-7c6e-48c4-a0b8-88ff4791fc0c&thumb,제주특별자치도 제주시 삼성로 22,33.5047027,126.529358
제주 삼양동 유적,제주 제주시,064-710-6806,"['가족여행', '관광지', '나들이', '데이트코스', '섬여행', '아이와함께', '역사', '연인과함께']",https://cdn.visitkorea.or.kr/img/call?cmd=VIEW&id=86560e7f-433a-4c95-8b56-745c5132e390&thumb,제주특별자치도 제주시 선사로2길 13,33.5236295,126.58818159999998
제주 생태문화전시관 더플래닛,제주 서귀포시,064-798-2000,"['문화시설', '생태문화전시관', '아이와함께', '제주권', '제주생태문화전시관']",https://cdn.visitkorea.or.kr/img/call?cmd=VIEW&id=571f33ad-624e-498e-8ec0-1c9cf6ca4472&thumb,제주특별자치도 서귀포시 천제연로 70,33.255393,126.413049
제주 서광다원,제주 서귀포시,064-794-6600,"['경치좋은곳', '관광지', '녹차밭', '녹차재배', '사진찍기', '사진찍기좋은곳', '사진촬영']",https://cdn.visitkorea.or.kr/img/call?cmd=VIEW&id=565f63d6-4453-4373-ab62-fe1afe06b6e5&thumb,제주 서귀포시 안덕면 신화역사로 446,33.3053836,126.2922923
제주 서귀포 상예마을,제주 서귀포시,064-738-0562,"['관광지', '농촌마을', '농촌여행', '농촌체험마을', '농촌체험여행', '농촌체험학습']",https://cdn.visitkorea.or.kr/img/call?cmd=VIEW&id=a09fa8db-d81c-40a4-b1e3-3622afa05316&thumb,제주특별자치도 서귀포시 존제로15번길 2,33.2656791,126.3770217
제주 선흘리 벵뒤굴 [유네스코 세계자연유산],제주 제주시,1600-0064,"['관광지', '동굴', '미세먼지탈출_이색동굴여행', '벵뒤굴', '유네스코세계자연유산']",https://cdn.visitkorea.or.kr/img/call?cmd=VIEW&id=f456a86b-a634-4322-9400-168c2482bccc&thumb,제주특별자치도 제주시 조천읍,33.5344076,126.6342455
제주 성읍마을 고창환 고택,제주 서귀포시,064-742-8866,"['고택', '관광지', '교과서속여행', '문화재', '성읍마을고창환고택', '역사', '역사공부']",https://cdn.visitkorea.or.kr/img/call?cmd=VIEW&id=5eee420a-b614-4104-8ac3-a1cda5cb5909&thumb,제주특별자치도 서귀포시 표선면 성읍서문로 4-7,33.3872628,126.8002196
제주 성읍마을 고평오 고택,제주 서귀포시,064-742-8866,"['고택', '고평오고택', '관광지', '교과서속여행', '문화재', '성읍마을', '역사', '역사공부']",https://cdn.visitkorea.or.kr/img/call?cmd=VIEW&id=0a3243ac-ba4f-4efe-97cd-b88de9df375b&thumb,제주특별자치도 서귀포시 표선면 성읍정의현로34번길 5-3,33.385992800000004,126.8018428
제주 세계자연유산센터,제주 제주시,1800-2002,"['가족여행', '가족체험여행', '교과서속여행', '문화시설', '사계절', '실내여행지']",https://cdn.visitkorea.or.kr/img/call?cmd=VIEW&id=033011ba-560c-4903-b8c9-b1274317584e&thumb,제주특별자치도 제주시 조천읍 선교로 569-36,33.45691987,126.7147521
제주 센트럴파크,제주 제주시,064-782-7720,"['관광지', '남녀노소', '사진찍기좋은곳', '사진촬영', '아이와함께', '연인과함께']",https://cdn.visitkorea.or.kr/img/call?cmd=VIEW&id=6beedb27-e87d-456e-a1b3-363330be1b9f&thumb,제주특별자치도 제주시 조천읍 비자림로 606,33.433597999999996,126.6747271
제주 오리엔탈호텔 카지노,제주 제주시,064-754-8867,"['레포츠', '이색체험', '제주 오리엔탈호텔', '제주도', '카지노']",https://cdn.visitkorea.or.kr/img/call?cmd=VIEW&id=aa7ac6c1-d484-425b-8b65-b551ab4bf719&thumb,제주특별자치도 제주시 탑동로 47,33.5172617,126.5199138
제주 유리의성,제주 제주시,064-772-7777,"['가족여행', '가족체험여행', '관광지', '박물관', '연인과함께', '예술공간', '예술품']",https://cdn.visitkorea.or.kr/img/call?cmd=VIEW&id=48cc428f-f669-4b41-aded-694d58ad207b&thumb,제주특별자치도 제주시 한경면 녹차분재로 462,33.3148365,126.27344879999998
제주 유수암마을,제주 제주시,064-799-2229,"['가족과함께', '관광지', '농촌', '농촌마을', '농촌여행', '농촌체험', '농촌체험마을']",https://cdn.visitkorea.or.kr/img/call?cmd=VIEW&id=47548c45-806f-43c2-8526-e124b14bbab2&thumb,제주특별자치도 제주시 애월읍 유수암평화길 14,33.4413679,126.40295590000001
제주 조랑말타운,제주 서귀포시,064-787-2597,"['가족과함께', '레포츠', '승마', '승마레슨', '승마장', '승마체험', '승마캠프', '승마트레킹']",https://cdn.visitkorea.or.kr/img/call?cmd=VIEW&id=f129cb26-d3cf-4ed8-8190-31c01b1cbab0&thumb,제주특별자치도 서귀포시 표선면 번영로 2486,33.4092101,126.7706544
제주 중앙지하상가,제주 제주시,064-755-0225,['쇼핑'],https://cdn.visitkorea.or.kr/img/call?cmd=VIEW&id=ef47c20e-f4ba-444c-865f-0b3dbc6e307e&thumb,제주특별자치도 제주시 중앙로 60,33.5128195,126.52450659999998
제주 청수마을,제주 제주시,064-772-1303,"['관광지', '농촌체험', '농촌체험휴양마을', '이색체험', '자연마을', '자연여행']",https://cdn.visitkorea.or.kr/img/call?cmd=VIEW&id=e47318a2-2406-47eb-ab01-7e8db77d1a9b&thumb,제주특별자치도 제주시 한경면 대한로 1036,33.3178122,126.2476775
제주 초콜릿랜드,제주 서귀포시,064-738-1197,"['가족여행', '가족체험여행', '관광지', '사계절', '아이가_좋아하는_여행', '아이와함께']",https://cdn.visitkorea.or.kr/img/call?cmd=VIEW&id=31aa1b47-ded4-4bd1-8e68-2b8e3d33ce79&thumb,제주특별자치도 서귀포시 중문관광로110번길 15,33.249930199999994,126.41326550000001
제주 추사관,제주 서귀포시,064-710-6802,"['가족체험여행', '교과서속여행', '기념관', '문화시설', '박물관', '역사공부', '역사관광지']",https://cdn.visitkorea.or.kr/img/call?cmd=VIEW&id=8f21a88e-9cc1-41be-89c0-de2217706888&thumb,제주특별자치도 서귀포시 대정읍 추사로 44,33.24979614,126.278494
제주 탑동해변공연장,제주 제주시,064-728-2711,"['가족여행', '공연장', '나들이', '데이트코스', '문화시설', '섬여행', '아이와함께']",https://cdn.visitkorea.or.kr/img/call?cmd=VIEW&id=78c1e1bf-7cc9-4a29-96e1-14527f3cac05&thumb,제주특별자치도 제주시 삼도2동 1262,33.518233,126.524149
제주 토끼섬 문주란 자생지,제주 제주시,064-740-6000,"['관광지', '자연']",https://cdn.visitkorea.or.kr/img/call?cmd=VIEW&id=5d5819b1-08a7-4a68-aa93-eb3dfb591b78&thumb,제주특별자치도 제주시 구좌읍 문주란로,33.5191608,126.886196
제주 특산품전시판매장,제주 제주시,064-751-3360,"['가족여행', '기념품판매', '먹거리', '사계절', '쇼핑', '이색체험', '제주권', '제주특산품전시판매장']",https://cdn.visitkorea.or.kr/img/call?cmd=VIEW&id=4e738728-eac7-47be-b231-34222c8bd8a4&thumb,제주특별자치도 제주시 연삼로 473,33.4994261,126.5405872
제주 하도리 철새도래지,제주 제주시,064-740-6000,"['가족여행', '걷기길', '관광지', '데이트코스', '드라이브여행', '생태관광', '자연']",https://cdn.visitkorea.or.kr/img/call?cmd=VIEW&id=7fc2bb12-1c1d-4384-a5fa-0aa7214da9ea&thumb,제주특별자치도 제주시 구좌읍 하도리,33.5149849,126.8817696
제주 항파두리 항몽 유적,제주 제주시,064-710-6721,"['관광지', '교과서속여행', '아이와함께', '역사', '역사공부', '역사관광지', '역사를품은곳']",https://cdn.visitkorea.or.kr/img/call?cmd=VIEW&id=dc7a9776-8e00-4ab3-9e97-caca64c476c1&thumb,제주특별자치도 제주시 애월읍 항파두리로 50,33.4521245,126.40745220000001
제주1100 고지습지,제주 서귀포시,064-710-4071,"['1100고지습지', '1100도로', '걷기길', '관광지', '눈꽃여행', '드라이브여행']",https://cdn.visitkorea.or.kr/img/call?cmd=VIEW&id=484a006e-c5bb-4824-af56-cd5e06e46a74&thumb,제주특별자치도 서귀포시 1100로 1555,33.276366499999995,126.44766329999999
제주4·3평화공원,제주 제주시,064-723-4344,"['가족여행', '걷기여행', '걷기좋은길', '관광지', '사계절', '아이와함께', '제주4·3평화공원']",https://cdn.visitkorea.or.kr/img/call?cmd=VIEW&id=60bf19b3-8cee-4aae-a4ca-3389b496b94f&thumb,제주특별자치도 제주시 명림로 430,33.4505801,126.61812069999999
제주공룡랜드,제주 제주시,064-746-3060,"['겨울방학가볼만한곳', '관광지', '박물관', '아이와함께', '야경투어', '여름방학가볼만한곳']",https://cdn.visitkorea.or.kr/img/call?cmd=VIEW&id=ccb6cfc6-e246-4326-9fa3-f5cc6ca6d150&thumb,제주특별자치도 제주시 애월읍 광령평화2길 1,33.4408969,126.43453090000001
제주관광기념품장터,제주 제주시,064-713-7560,"['기념품판매', '쇼핑', '제주관광기념품장터', '제주권', '특산물']",https://cdn.visitkorea.or.kr/img/call?cmd=VIEW&id=fcd8cdcf-5fe5-4bdb-b675-f4778b281e10&thumb,제주특별자치도 제주시 서천길 24,33.5009443,126.51058929999999
제주교육박물관,제주 제주시,064-720-9114,"['문화시설', '박물관', '섬여행', '아이와함께', '자연좋은곳', '전시관', '전통&역사문화체험']",https://cdn.visitkorea.or.kr/img/call?cmd=VIEW&id=8490a0a1-e31c-4a81-b1b4-2d1b135b37c1&thumb,제주특별자치도 제주시 오복4길 25,33.49439315,126.5382962
제주국제컨벤션센터,제주 서귀포시,064-735-1000,"['문화시설', '복합문화공간', '사계절', '음악회', '제주국제컨벤션센터', '제주권']",https://cdn.visitkorea.or.kr/img/call?cmd=VIEW&id=9402ea0f-4877-4d4f-8e80-3e63bc05ee05&thumb,제주특별자치도 서귀포시 중문관광로 224,33.24128964,126.4244429
제주국제평화센터,제주 서귀포시,064-735-6550,"['교과서속여행', '문화시설', '박물관', '사계절', '실내여행지', '아이와함께', '이색체험']",https://cdn.visitkorea.or.kr/img/call?cmd=VIEW&id=280394e3-d303-47be-a787-b94880b7a59e&thumb,제주특별자치도 서귀포시 중문관광로 227-24,33.24438838,126.4220223
제주난타전용관,제주 제주시,064-723-8878,"['가족과함께', '난타', '남녀노소', '문화시설', '실내여행지', '아이와함께', '연인과함께']",https://cdn.visitkorea.or.kr/img/call?cmd=VIEW&id=undefined&thumb,제주특별자치도 제주시 선돌목동길 56-26,33.44582735,126.5479104
제주다원 녹차미로공원,제주 서귀포시,064-738-4433,"['가족과함께', '관광지', '반려견동반여행지', '사진찍기좋은곳', '사진촬영명소']",https://cdn.visitkorea.or.kr/img/call?cmd=VIEW&id=cb7eb6c5-97e7-486f-91f7-7c203ec36858&thumb,제주특별자치도 서귀포시 산록남로 1240,33.301788699999996,126.5095926
제주도 관광특구,제주,064-740-6000,"['가족과함께', '관광지', '연인과함께', '자연관광지', '자연환경', '제주관광특구']",https://cdn.visitkorea.or.kr/img/call?cmd=VIEW&id=dfe784da-29c4-4068-ab34-c6c8c292dcc0&thumb,제주특별자치도,33.4890113,126.4983023
제주도 국가지질공원,제주 제주시,064-710-6657,"['관광지', '성산일출봉', '자연좋은곳', '자연환경', '제주도여행', '지질공원', '한라산국립공원']",https://cdn.visitkorea.or.kr/img/call?cmd=VIEW&id=90440f0c-937a-43f9-a87f-4c482ffdfec4&thumb,제주특별자치도 제주시 조천읍 선교로 569-36,33.4569601,126.7143895
제주도 스쿠터 여행사 한라하이킹,제주 제주시,064-712-2678,"['레포츠', '산책코스', '산책하기좋은곳', '스쿠터', '연인과함께', '오토바이', '제주하이킹']",https://cdn.visitkorea.or.kr/img/call?cmd=VIEW&id=fae51b9f-0d65-44c3-87df-a1b4de0c6553&thumb,제주특별자치도 제주시 용두암길 50-1,33.5131312,126.5140754
제주도 하도리,제주 제주시,064-710-3314,"['관광지', '드라이브여행', '생태관광', '생태관광지', '제주권', '제주도하도리']",https://cdn.visitkorea.or.kr/img/call?cmd=VIEW&id=7cda9eff-8739-43d8-ab06-88e1b7cecd57&thumb,제주특별자치도 제주시 구좌읍 해맞이해안로 1973,33.5377667,126.8372139
제주도립미술관,제주 제주시,064-710-4300,"['문화시설', '문화예술', '문화예술공간', '미술관', '복합문화공간', '산책하기좋은곳']",https://cdn.visitkorea.or.kr/img/call?cmd=VIEW&id=edc46450-a218-4afd-9dae-f72c440ba449&thumb,제주특별자치도 제주시 1100로 2894-78,33.45255002,126.4896861
제주도민속자연사박물관,제주 제주시,064-710-7708,"['가족여행', '데이트코스', '문화시설', '박물관', '섬여행', '아이와함께', '연인과함께']",https://cdn.visitkorea.or.kr/img/call?cmd=VIEW&id=70714f1b-c087-452b-a6fb-ea5ae0065bba&thumb,제주특별자치도 제주시 삼성로 40,33.50563037,126.5317241
제주도예촌,제주 서귀포시,064-792-0052,"['가족체험', '관광지', '도자기', '도자기박물관', '도자기체험', '아이와함께', '전통도예']",https://cdn.visitkorea.or.kr/img/call?cmd=VIEW&id=f128d065-242e-4f25-bf62-5286e72fe18f&thumb,제주특별자치도 서귀포시 대정읍 암반수마농로441번길 3,33.265755199999994,126.2350007
제주돌마을공원 수석전시관,제주 제주시,064-772-4007,"['가족과 함께', '문화시설', '수석전시관', '이색체험지', '제주돌마을공원']",https://cdn.visitkorea.or.kr/img/call?cmd=VIEW&id=4323c70c-3ac1-4351-b580-75973631376d&thumb,제주특별자치도 제주시 한림읍 금능남로 421,33.35378407,126.2536923
제주돌문화공원,제주 제주시,064-710-7731,"['17_18한국관광100선', '걷기길', '걷기여행', '문화시설', '사계절', '아이와함께']",https://cdn.visitkorea.or.kr/img/call?cmd=VIEW&id=74be8475-ae61-4f45-a37e-4c72b233b67b&thumb,제주특별자치도 제주시 조천읍 남조로 2023,33.45136457,126.65671100000002
제주돔레저,제주 서귀포시,064-792-5688,"['가족과함께', '레포츠', '복합레저스포츠', '수상스포츠', '스포츠체험', '아이와함께']",https://cdn.visitkorea.or.kr/img/call?cmd=VIEW&id=758ce59d-08c4-4d6d-89a6-d586955bc596&thumb,제주특별자치도 서귀포시 대정읍 보성구억로 119,33.2621627,126.27548610000001
제주라프(Light Art Flash),제주 제주시,064-784-9030,"['문화시설', '야경좋은곳', '제주가볼만한곳', '제주도관광지']",https://cdn.visitkorea.or.kr/img/call?cmd=VIEW&id=5600cc08-3fd6-450a-9fd0-6cfb6b287da0&thumb,제주특별자치도 제주시 조천읍 선교로 115-1,33.48676771,126.7068936
제주러브랜드,제주 제주시,064-712-6988,"['관광지', '데이트코스', '사진찍기좋은곳', '연인과함께', '이색데이트', '이색체험']",https://cdn.visitkorea.or.kr/img/call?cmd=VIEW&id=7536c9ef-4270-4e0a-a672-b62a7b5dc14b&thumb,제주특별자치도 제주시 1100로 2894-72,33.4519922,126.4890053
제주레포츠랜드㈜,제주 제주시,064-784-8800,"['레포츠', '레포츠여행', '레포츠체험', '복합레저스포츠', '서바이벌', '익스트림스포츠']",https://cdn.visitkorea.or.kr/img/call?cmd=VIEW&id=a28c5fec-c93f-4d20-965d-d6a645331ae3&thumb,제주특별자치도 제주시 조천읍 와흘상서2길 47,33.4823902,126.6386812
제주마방목지,제주 제주시,064-740-6000,"['관광지', '마방목지', '이색체험', '자연관광지', '자연속으로', '자연여행', '자연좋은곳']",https://cdn.visitkorea.or.kr/img/call?cmd=VIEW&id=b9a4737e-5237-4a15-aa68-36aa9254845f&thumb,제주특별자치도 제주시 516로 2480,33.426977799999996,126.60407260000001
제주맥주,제주 제주시,064-798-9872,"['관광지', '테마']",https://cdn.visitkorea.or.kr/img/call?cmd=VIEW&id=14fc3aca-8fa7-461a-86fe-04ec31a02ad2&thumb,제주특별자치도 제주시 한림읍 금능농공길 62-11,33.3586429,126.24155449999999
제주목관아,제주 제주시,064-710-6714,"['관광지', '교과서속여행', '아이와함께', '역사', '역사공부', '역사관광지', '역사를품은곳']",https://cdn.visitkorea.or.kr/img/call?cmd=VIEW&id=b24b31a0-3fdb-4a11-af60-02809ee54800&thumb,제주특별자치도 제주시 관덕로 25,33.5140904,126.5222108
제주문화원,제주 제주시,064-722-0203,"['문화시설', '복합문화공간', '열린문화공간', '제주문화원', '친구와 함께']",https://cdn.visitkorea.or.kr/img/call?cmd=VIEW&id=746a4da7-fffd-4735-b308-1bf215a23b74&thumb,제주특별자치도 제주시 중앙로 2,33.51814757,126.5239547
제주민속식품,제주 제주시,064-782-1500,"['꿩엿', '쇼핑', '전통건강음식', '제주도', '체험프로그램']",https://cdn.visitkorea.or.kr/img/call?cmd=VIEW&id=99f2713e-ae9f-49e6-a6e8-eacbf1fd8b9d&thumb,제주특별자치도 제주시 구좌읍 번영로 2178,33.4281022,126.75103940000001
제주민속촌,제주 서귀포시,064-787-4501,"['가족과함께', '교육여행', '문화시설', '사계절', '아이와함께', '역사', '역사공부']",https://cdn.visitkorea.or.kr/img/call?cmd=VIEW&id=2f98d10e-edd5-4ff0-9ffd-0f5005e1054e&thumb,제주특별자치도 서귀포시 표선면 민속해안로 631-34,33.3223451,126.8414874
제주별빛누리공원,제주 제주시,064-728-8900,"['관광지', '아이와함께', '이색체험', '제주권', '제주별빛누리공원', '천문과학']",https://cdn.visitkorea.or.kr/img/call?cmd=VIEW&id=fe3756cb-8d93-4ffb-8b0a-e7d72c1408e1&thumb,제주특별자치도 제주시 선돌목동길 60,33.4450231,126.54924869999999
제주불빛정원,제주 제주시,064-799-6996,"['감성사진', '관광지', '데이트장소추천', '사랑', '사진찍기', '사진촬영', '사진촬영명소']",https://cdn.visitkorea.or.kr/img/call?cmd=VIEW&id=be7278a5-c848-40b4-8bba-a4a363dff1ef&thumb,제주특별자치도 제주시 애월읍 평화로 2346,33.4222395,126.40925320000001
제주빅볼랜드,제주 제주시,1588-6418,"['경험', '레포츠', '레포츠체험', '애월읍', '제주도', '제주빅볼랜드']",https://cdn.visitkorea.or.kr/img/call?cmd=VIEW&id=19be0132-f6a2-4667-a196-64339d4ad979&thumb,제주특별자치도 제주시 애월읍 산록서로 15,33.3898219,126.37577350000001
제주샘주 공장,제주 제주시,064-799-4225,"['관광지', '소주', '약주', '양조', '이색체험', '전통발효', '전통주', '전통주여행']",https://cdn.visitkorea.or.kr/img/call?cmd=VIEW&id=722c428c-7328-4798-be4e-2451159f6eb5&thumb,제주특별자치도 제주시 애월읍 애원로 283,33.4446362,126.3375372
제주샘주 양조장,제주 제주시,064-799-4225,"['관광지', '산업관광', '샘물양조장', '아이와함께', '양조장', '이색체험', '제주권']",https://cdn.visitkorea.or.kr/img/call?cmd=VIEW&id=90c20a03-b443-46c7-8f91-d24a6ed4e418&thumb,제주특별자치도 제주시 애월읍 애원로 283,33.4446362,126.3375372
제주서커스월드공연장,제주 서귀포시,064-794-4444,"['문화시설', '실내여행지', '아이와함께', '어린이날가볼만한곳', '이색체험', '제주권']",https://cdn.visitkorea.or.kr/img/call?cmd=VIEW&id=3fdb57bc-0321-4568-8a73-5d9d034640ab&thumb,제주특별자치도 서귀포시 안덕면 동광로 214,33.31438574,126.3448192
제주선인장마을,제주 제주시,064-796-6128,"['경치좋은곳', '관광지', '바다경치', '사진찍기좋은곳', '선인장', '손바닥선인장']",https://cdn.visitkorea.or.kr/img/call?cmd=VIEW&id=bd60cb81-967d-40ec-9558-b2668c9e95bc&thumb,제주특별자치도 제주시 한림읍 월령1길 1-1,33.3752373,126.2157061
제주성지,제주 제주시,064-740-6000,"['관광지', '역사', '역사공부', '역사관광지', '역사를품은곳', '역사속', '역사속으로']",https://cdn.visitkorea.or.kr/img/call?cmd=VIEW&id=30f81422-c323-4dd1-b6f3-8ca258f9f5a3&thumb,제주특별자치도 제주시 오현길 61,33.5101353,126.525622
제주세계성문화박물관,제주 서귀포시,064-739-0059,"['남녀노소', '문화시설', '미세먼지_피하는_실내여행', '박물관', '연인과함께']",https://cdn.visitkorea.or.kr/img/call?cmd=VIEW&id=622b08db-316a-4abd-a9e8-2b61b88d2028&thumb,제주특별자치도 서귀포시 월드컵로 33,33.24621937,126.5092753
제주세계자연유산센터,제주 제주시,064-710-6657,"['거문오름', '관광지', '생태관광', '생태관광지', '유네스코세계자연유산', '전시관']",https://cdn.visitkorea.or.kr/img/call?cmd=VIEW&id=4e80f75b-c681-46d0-96a4-a79f5e8fa96b&thumb,제주특별자치도 제주시 조천읍 선교로 569-36,33.4569601,126.7143895
제주승마공원,제주 제주시,1544-9506,"['가족과함께', '레포츠', '승마', '승마레슨', '승마장', '승마체험', '승마캠프', '승마트레킹']",https://cdn.visitkorea.or.kr/img/call?cmd=VIEW&id=445ba8c5-f739-453b-8bf4-c603ce5e9116&thumb,제주특별자치도 제주시 애월읍 녹고메길 152-1,33.40538660000001,126.40547109999999
"제주시민속오일시장 (2, 7일)",제주 제주시,064-743-5985,"['가족여행', '나들이', '데이트코스', '먹거리', '민속오일시장', '쇼핑', '시장맛집']",https://cdn.visitkorea.or.kr/img/call?cmd=VIEW&id=46073890-0a4b-4e58-aad1-a808a40c79b4&thumb,제주특별자치도 제주시 오일장서길 26,33.4974552,126.47479070000001
제주신라호텔 실내.외 수영장,제주 서귀포시,064-735-5130,['레포츠'],https://cdn.visitkorea.or.kr/img/call?cmd=VIEW&id=ceb4b092-eada-4371-aaca-3e61c2d229d7&thumb,제주특별자치도 서귀포시 중문관광로72번길 75,33.2475582,126.40811609999999
제주아트센터,제주 제주시,064-728-1509,"['가족여행', '데이트코스', '문화공간', '문화시설', '문화행사', '복합문화공간']",https://cdn.visitkorea.or.kr/img/call?cmd=VIEW&id=2ff09b49-6e7a-43b4-b931-e7b72e38c349&thumb,제주특별자치도 제주시 오남로 231,33.4751044,126.5155186
제주워터월드,제주 서귀포시,064-739-1930,"['관광지', '아이가_좋아하는_여행', '아이와함께', '여름가볼만한곳', '여름방학여행']",https://cdn.visitkorea.or.kr/img/call?cmd=VIEW&id=86b2cf97-72c9-42a8-b46c-3dd5351cba78&thumb,제주특별자치도 서귀포시 월드컵로 31,33.247238800000005,126.50920790000002
제주월드컵경기장,제주 서귀포시,064-760-3623,"['레포츠', '서귀포', '월드컵경기장', '제주도']",https://cdn.visitkorea.or.kr/img/call?cmd=VIEW&id=2ded2631-d2a2-4b7f-a92f-079d7b183791&thumb,제주특별자치도 서귀포시 월드컵로 33,33.247238800000005,126.50920790000002
제주유리박물관,제주 서귀포시,064-792-6262,"['문화시설', '박물관', '사진찍기', '사진찍기좋은곳', '사진촬영', '아이와함께']",https://cdn.visitkorea.or.kr/img/call?cmd=VIEW&id=6e01fac3-3ffa-4fa1-bff4-713974df2443&thumb,제주특별자치도 서귀포시 중산간서로 1403,33.27851386,126.3701574
제주절물자연휴양림,제주 제주시,064-728-1510,"['걷기길', '관광지', '생태관광지', '숲치유', '아이와함께', '연인과함께', '자연']",https://cdn.visitkorea.or.kr/img/call?cmd=VIEW&id=655c83d2-0d14-4f43-8fea-d0f4b636b4c2&thumb,제주특별자치도 제주시 명림로 584,33.439372600000006,126.62844790000001
제주제트(중문),제주 서귀포시,064-739-3939,"['레포츠', '보트', '여름피서지', '제주제트', '해상']",https://cdn.visitkorea.or.kr/img/call?cmd=VIEW&id=c204192a-1787-4d3f-900d-8742c7154788&thumb,제주특별자치도 서귀포시 대포로 172-5,33.238440399999995,126.4395581
제주조각공원(포레스트 판타지아),제주 서귀포시,1889-0536,"['가족여행', '관광지', '바다풍경', '복합문화공간', '연중무휴', '열린문화공간']",https://cdn.visitkorea.or.kr/img/call?cmd=VIEW&id=c45f218b-47a3-4e0f-8394-bd31f3adac8b&thumb,제주특별자치도 서귀포시 안덕면 일주서로 1836,33.256807,126.321633
제주청소년수련원,제주 제주시,064-796-1680,"['레포츠', '제주권', '제주청소년수련원', '청소년수련원']",https://cdn.visitkorea.or.kr/img/call?cmd=VIEW&id=6bbcc397-5d57-4aa2-90ef-4b6077f6ed0d&thumb,제주특별자치도 제주시 한림읍 금능남로 128,33.3781039,126.236942
제주칠성로상점가,제주 제주시,064-721-4700,"['동문시장', '쇼핑', '전통상권', '흑돼지거리']",https://cdn.visitkorea.or.kr/img/call?cmd=VIEW&id=b9a724d1-4232-419a-ae3c-2f4ec313faf2&thumb,제주특별자치도 제주시 중앙로 20,33.5166598,126.5246265
제주칼호텔 카지노 (주)골든비치,제주 제주시,064-720-9999,"['레포츠', '이색체험', '제주도', '제주칼호텔', '카지노']",https://cdn.visitkorea.or.kr/img/call?cmd=VIEW&id=99c74e21-b1da-4d4e-8d45-df3280b6c0ac&thumb,제주특별자치도 제주시 중앙로 151,33.5058769,126.5262064
제주컨트리클럽,제주 제주시,064-702-0451,['레포츠'],https://cdn.visitkorea.or.kr/img/call?cmd=VIEW&id=059e7302-922e-4786-8504-6daa1fe3cdeb&thumb,제주특별자치도 제주시 516로 2695,33.4303677,126.583471
제주탐나라공화국,제주 제주시,064-772-2878,"['관광지', '문화공간', '산책하기좋은곳', '이색체험', '자연여행', '자연좋은곳']",https://cdn.visitkorea.or.kr/img/call?cmd=VIEW&id=83fb98d9-a03b-4418-8c57-6dcb345ef9e9&thumb,제주특별자치도 제주시 한림읍 한창로 897,33.3497668,126.3055719
제주탑승마클럽 (구.봉개승마타운),제주 제주시,064-721-9001,"['가족과함께', '레포츠', '승마', '승마레슨', '승마장', '승마체험', '승마캠프', '승마트레킹']",https://cdn.visitkorea.or.kr/img/call?cmd=VIEW&id=af577ba7-994b-4a2a-be04-a2fc17343ff2&thumb,제주특별자치도 제주시 명림로 274,33.463766899999996,126.6144241
제주테지움,제주 제주시,064-799-4820,"['가족여행', '문화시설', '미세먼지_피하는_실내여행', '박물관', '사계절', '실내관광지']",https://cdn.visitkorea.or.kr/img/call?cmd=VIEW&id=7c704041-17e7-4462-a866-725837d5e37f&thumb,제주특별자치도 제주시 애월읍 평화로 2159,33.4122175,126.3935364
제주통일관,제주 제주시,064-751-0191,"['교과서속여행', '문화시설', '실내여행지', '아이와함께', '역사', '전시관', '제주권']",https://cdn.visitkorea.or.kr/img/call?cmd=VIEW&id=undefined&thumb,제주특별자치도 제주시 신산로9길 4,33.507889500000005,126.5345087
제주특별자치도립기당미술관,제주 서귀포시,064-733-1586,"['가족여행', '기당미술관', '데이트코스', '문화시설', '미술관', '섬여행', '연인과함께']",https://cdn.visitkorea.or.kr/img/call?cmd=VIEW&id=8cda03ba-031b-4d11-9890-6b990e5a8ff6&thumb,제주특별자치도 서귀포시 남성중로153번길 15,33.24484755,126.5511958
제주평화박물관,제주 제주시,064-772-2500,"['가족여행', '교과서속여행', '문화시설', '박물관', '아이와함께', '제주평화박물관']",https://cdn.visitkorea.or.kr/img/call?cmd=VIEW&id=e3e38f17-e2de-4f6a-acbf-42daca632d3a&thumb,제주특별자치도 제주시 한경면 청수서5길 63,33.30581859,126.249548
제주하이킹(제주도자전거여행),제주 제주시,064-711-2200,"['레포츠', '자전거투어', '제주권', '제주도자전거여행', '제주하이킹', '커플데이트']",https://cdn.visitkorea.or.kr/img/call?cmd=VIEW&id=3d743f2b-84a1-4394-9f11-27b970db0080&thumb,제주특별자치도 제주시 용해로 6,33.516702,126.5020811
제주항공우주박물관,제주 서귀포시,064-800-2000,"['가족과함께', '문화시설', '아이와함께', '이색체험', '제주항공우주박물관']",https://cdn.visitkorea.or.kr/img/call?cmd=VIEW&id=0bc5a7f7-acef-412f-a755-e6e0f221c7a2&thumb,제주특별자치도 서귀포시 안덕면 녹차분재로 218,33.3042074,126.2996615
제주항방파제,제주 제주시,064-740-6000,"['레포츠', '바다낚시', '제주권', '제주바다낚시', '제주시낚시터']",https://cdn.visitkorea.or.kr/img/call?cmd=VIEW&id=e5f14064-f55f-4aab-aae0-a3a12c217736&thumb,제주특별자치도 제주시 서부두길 22,33.5183177,126.52855829999999
제주항일기념관,제주 제주시,064-783-2008,"['가족여행', '교과서속여행', '기념관', '단체관람', '문화시설', '아이와함께', '제주권']",https://cdn.visitkorea.or.kr/img/call?cmd=VIEW&id=64febf42-fed0-46c5-8f00-820c4818ec27&thumb,제주특별자치도 제주시 조천읍 신북로 303,33.54102729,126.6407255
제주해녀항일운동기념탑,제주 제주시,064-740-6000,"['가족여행', '관광지', '교과서속여행', '근대문화유산', '기념관', '사계절', '아이와함께']",https://cdn.visitkorea.or.kr/img/call?cmd=VIEW&id=b83e578e-9e60-4fe8-8d10-9d4899c1459a&thumb,제주특별자치도 제주시 구좌읍 하종로 120,33.499760200000004,126.878892
제주해양레저,제주 서귀포시,064-738-5111,['레포츠'],https://cdn.visitkorea.or.kr/img/call?cmd=VIEW&id=2e8273a7-fc82-4801-b975-0aa2d9eba184&thumb,제주특별자치도 서귀포시 중문관광로 192,33.2475278,126.41859550000001
제주향교,제주 제주시,064-757-0976,"['관광지', '역사', '역사공부', '역사관광지', '역사를품은곳', '역사문화재', '역사속']",https://cdn.visitkorea.or.kr/img/call?cmd=VIEW&id=b5626b3e-5731-4821-8d89-612fb23eb696&thumb,제주특별자치도 제주시 서문로 43,33.5114017,126.5156311
제주허브동산,제주 서귀포시,064-787-7362,"['가족여행', '관광지', '생태관광지', '연중무휴', '자연좋은곳', '제주권', '제주허브동산']",https://cdn.visitkorea.or.kr/img/call?cmd=VIEW&id=7bb6940b-758a-4839-a15f-ca9a2a44ee8d&thumb,제주특별자치도 서귀포시 표선면 돈오름로 170,33.329849800000005,126.81485409999999
제주현대미술관,제주 제주시,064-710-7801,"['남녀노소', '문화시설', '문화예술', '미술관', '미술작품', '연인과함께', '예술']",https://cdn.visitkorea.or.kr/img/call?cmd=VIEW&id=58127536-6f9e-4cad-b6f0-f6b2e9cc9a8b&thumb,제주특별자치도 제주시 한경면 저지14길 38,33.34063052,126.266344
제주힐링명상센터 (무병장수테마파크),제주 제주시,064-799-9983,"['관광지', '무병장수테마파크', '아이와함께', '제주권', '제주힐링명상센터', '체험']",https://cdn.visitkorea.or.kr/img/call?cmd=VIEW&id=2bfb79c3-222a-4bdb-9410-598e71368013&thumb,제주특별자치도 제주시 애월읍 어음13길 196,33.3954527,126.36108270000001
제지기오름,제주 서귀포시,064-740-6000,"['관광지', '자연']",https://cdn.visitkorea.or.kr/img/call?cmd=VIEW&id=39ccc336-e15e-4aaf-a931-c89fbdc1a07f&thumb,제주특별자치도 서귀포시 보목동,33.2460103,126.6009132
조랑말체험공원,제주 서귀포시,064-787-0960,"['가족과함께', '가족여행', '가족체험여행', '관광지', '사계절', '아이와함께', '이색체험']",https://cdn.visitkorea.or.kr/img/call?cmd=VIEW&id=b1bbe16e-9d52-412c-9f3b-c67ed69aa1b9&thumb,제주특별자치도 서귀포시 표선면 녹산로 381-15,33.3831271,126.73625729999999
조안베어뮤지엄,제주 서귀포시,064-739-1024,"['남녀노소', '문화시설', '미세먼지_피하는_실내여행', '박물관', '사진찍기', '사진찍기좋은곳']",https://cdn.visitkorea.or.kr/img/call?cmd=VIEW&id=1359b802-f2fe-4511-90ec-0223cad122dc&thumb,제주특별자치도 서귀포시 대포로 113,33.24025015,126.4341101
조천읍도서관,제주 제주시,064-728-1505,"['교육프로그램', '남녀노소', '독서', '독서여행', '문화공간', '문화시설', '복합문화공간']",https://cdn.visitkorea.or.kr/img/call?cmd=VIEW&id=e71cc57f-e532-48ec-af40-20317fa4ed21&thumb,제주특별자치도 제주시 조천읍 일주동로 1189,33.5377042,126.6676196
종달리 해안도로,제주 제주시,064-740-6000,"['관광지', '드라이브여행', '드라이브코스', '바다내음', '반려견동반여행지', '연인과함께', '자연좋은곳']",https://cdn.visitkorea.or.kr/img/call?cmd=VIEW&id=240f6b51-85ff-4f59-8f9e-ba73740632b8&thumb,제주특별자치도 제주시 구좌읍 종달리,33.488067300000004,126.88049540000002
주상절리대(대포동지삿개),제주 서귀포시,064-738-1521,"['가족여행', '관광지', '대포동지삿개', '데이트코스', '바다풍경', '연인과함께']",https://cdn.visitkorea.or.kr/img/call?cmd=VIEW&id=b68d7ec8-57e6-4207-af12-d982b53a284e&thumb,제주특별자치도 서귀포시 이어도로 36-30,33.240469,126.493008
주식회사 제이엠그랑블루요트,제주 서귀포시,,"['가족과함께', '관광지', '아이와함께', '연인과함께', '요트체험', '이색체험여행']",https://cdn.visitkorea.or.kr/img/call?cmd=VIEW&id=54843ce2-b38c-4984-8bda-c0acf29808ea&thumb,제주특별자치도 서귀포시 대포로 172-7,33.2382005,126.4397619
중문·색달 해변,제주 서귀포시,064-740-6000,"['가족여행', '관광지', '바다풍경', '아이와함께', '여름방학가볼만한곳', '여름여행']",https://cdn.visitkorea.or.kr/img/call?cmd=VIEW&id=8894cf5d-b296-462c-90a6-386703ca2aba&thumb,제주특별자치도 서귀포시 중문관광로72번길,33.2507877,126.4085947
중문골프클럽,제주 서귀포시,064-738-1202,"['골프장', '레포츠', '중문골프장', '중문관광단지']",https://cdn.visitkorea.or.kr/img/call?cmd=VIEW&id=9182298c-898b-4357-a6d6-a0698b7009e1&thumb,제주특별자치도 서귀포시 중문관광로72번길 60,33.2520261,126.40773999999999
중문관광단지,제주 서귀포시,064-739-1330,"['가족과함께', '가족여행', '가족여행지', '가족체험', '가족휴양지', '관광지', '문화관광지']",https://cdn.visitkorea.or.kr/img/call?cmd=VIEW&id=39aeb57c-7a67-479f-9736-8e231658b2cc&thumb,제주특별자치도 서귀포시 중문관광로 38,33.2548555,126.4136132
중문농수산 / 중문농수산영농조합법인,제주 서귀포시,064-738-5757,"['쇼핑', '제주권', '중문농수산직판장']",https://cdn.visitkorea.or.kr/img/call?cmd=VIEW&id=cda76b46-a236-4040-9a02-a52f3e39b7d3&thumb,제주특별자치도 서귀포시 천제연로 355,33.2524077,126.44249679999999
"중문향토오일시장 (3, 8일)",제주 서귀포시,064-760-2633,"['가족여행', '나들이', '나홀로여행', '쇼핑', '시장맛집', '아이와함께', '연인과함께']",https://cdn.visitkorea.or.kr/img/call?cmd=VIEW&id=638ef08a-a7b1-48cb-b846-acb2739aa2b9&thumb,제주특별자치도 서귀포시 천제연로188번길 12,33.2508555,126.4242065
지미봉,제주 제주시,064-710-6043,"['관광지', '자연', '제주권', '지미봉', '철새도래지', '힐링']",https://cdn.visitkorea.or.kr/img/call?cmd=VIEW&id=9d114662-4c72-4b9b-8a7c-1d467db135c2&thumb,제주특별자치도 제주시 구좌읍 종달로1길 91-16,33.4967605,126.90673390000002
지속가능환경교육센터,제주 제주시,064-772-9401,"['관광지', '사계절', '아와함께', '제주권', '지속가능환경체험학습센터', '체험학습']",https://cdn.visitkorea.or.kr/img/call?cmd=VIEW&id=86570756-a9a2-4cdf-8f6d-eda28b3bff63&thumb,제주특별자치도 제주시 송이길 226,33.4619221,126.6291653
차귀도,제주 제주시,064-728-7911,"['관광지', '자연']",https://cdn.visitkorea.or.kr/img/call?cmd=VIEW&id=8f5fb7f2-4d5f-4265-9fa6-1e2736edb272&thumb,제주특별자치도 제주시 한경면 고산리,33.3040691,126.1881455
차귀도 바다낚시,제주 제주시,064-740-6001,"['대섬', '레포츠', '바다낚시', '와도', '지실이섬', '차귀도']",https://cdn.visitkorea.or.kr/img/call?cmd=VIEW&id=8e3fee11-cd90-4777-959d-2ba7821fe014&thumb,제주특별자치도 제주시 한경면 노을해안로,33.3019154,126.1657993
차귀도글라스요트,제주 제주시,064-772-1321,"['레포츠', '요트체험', '이색체험', '제주도요트체험', '힐링체험']",https://cdn.visitkorea.or.kr/img/call?cmd=VIEW&id=b3cfd793-4efd-44b8-976a-c3d7825c6aff&thumb,제주특별자치도 제주시 한경면 한경해안로 156,33.3239386,126.16608590000001
천아숲길(한라산둘레길),제주 제주시,064-738-4280,"['레포츠', '산책길', '산책로', '산책하기', '산책하기좋은곳', '언택트관광지_100선']",https://cdn.visitkorea.or.kr/img/call?cmd=VIEW&id=d65bacb8-9e04-4a0e-97db-94bb43066c80&thumb,제주특별자치도 제주시 애월읍 산록서로 678-207,33.3989223,126.40515729999998
천아오름,제주 제주시,064-740-6000,"['관광지', '자연']",https://cdn.visitkorea.or.kr/img/call?cmd=VIEW&id=57e0db72-e8dc-4d6b-b7d8-d723fe6a6836&thumb,제주특별자치도 제주시 애월읍 평화로,33.4099645,126.3988615
천왕사(제주),제주 제주시,064-748-8811,"['관광지', '불교', '불교문화', '사찰', '사찰여행', '역사', '자연', '자연속으로', '자연환경']",https://cdn.visitkorea.or.kr/img/call?cmd=VIEW&id=c231ab78-d16b-4790-8782-7dc1b8d22f72&thumb,제주특별자치도 제주시 1100로 2528-171,33.4048478,126.50281059999999
천제연폭포,제주 서귀포시,064-760-6331,"['가족여행', '관광지', '아이와함께', '여름방학가볼만한곳', '여름여행', '여름여행지']",https://cdn.visitkorea.or.kr/img/call?cmd=VIEW&id=cf148f24-8cb6-4cdd-8dd6-33a3fed01fb2&thumb,제주특별자치도 서귀포시 천제연로 132,33.2526783,126.41843829999999
천지연 걸매생태공원,제주 서귀포시,064-760-3191,"['가족여행', '관광지', '나들이', '데이트코스', '섬여행', '아이와함께', '연인과함께']",https://cdn.visitkorea.or.kr/img/call?cmd=VIEW&id=60c157b6-7357-4c0f-bfca-5dbe1b630747&thumb,제주특별자치도 서귀포시 서홍로 4-42,33.2499864,126.5551498
천지연폭포 (제주도 국가지질공원),제주 서귀포시,064-710-3945,"['가족여행', '관광지', '국가지질공원', '아이와함께', '여름방학가볼만한곳', '여름여행']",https://cdn.visitkorea.or.kr/img/call?cmd=VIEW&id=51809051-1c9a-42dc-a8ab-ebcda8e40f05&thumb,제주특별자치도 서귀포시 천지동,33.2479047,126.5612847
초콜릿 박물관,제주 서귀포시,064-792-3121,"['가족여행', '단체관람', '문화시설', '아이와함께', '연인과함께', '이색체험', '제주권']",https://cdn.visitkorea.or.kr/img/call?cmd=VIEW&id=4044c045-7b30-4102-806a-34ebb65ed1db&thumb,제주특별자치도 서귀포시 대정읍 일주서로3000번길 144,33.25705283,126.2299329
최남단체험감귤농장,제주 서귀포시,064-764-7759,"['가족여행', '가족체험여행', '감귤체험', '관광지', '농장체험', '농촌체험여행']",https://cdn.visitkorea.or.kr/img/call?cmd=VIEW&id=80469958-7521-4b90-a03f-4b237fabfea5&thumb,제주특별자치도 서귀포시 남원읍 남위남성로 164,33.290019,126.693846
추자군도,제주 제주시,064-740-6000,"['레포츠', '제주도', '제주바다', '제주바다낚시', '추자군도']",https://cdn.visitkorea.or.kr/img/call?cmd=VIEW&id=9b27403d-92c5-4486-be1f-2000f5df60f1&thumb,제주특별자치도 제주시 추자면 추자로,33.95301970000001,126.3158619
추자도,제주 제주시,064-740-6000,"['관광지', '바다낚시', '바다풍경', '섬', '자연', '자연관광지', '자연마을', '자연속으로']",https://cdn.visitkorea.or.kr/img/call?cmd=VIEW&id=18a76fba-9876-4fb0-9c97-9499f34aa54b&thumb,제주특별자치도 제주시 추자면,33.963682500000004,126.2961287
추자도 등대,제주 제주시,064-740-6000,"['관광지', '자연']",https://cdn.visitkorea.or.kr/img/call?cmd=VIEW&id=null&thumb,제주특별자치도 제주시 추자면 영흥4길 43,33.9578136,126.29823229999998
카멜리아힐,제주 서귀포시,064-792-0088,"['가족여행', '걷기길', '관광지', '꽃여행', '연인과함께', '자연', '자연&숲', '자연좋은곳']",https://cdn.visitkorea.or.kr/img/call?cmd=VIEW&id=0397443b-2bbe-492e-90b1-a64a2fecdce5&thumb,제주특별자치도 서귀포시 안덕면 병악로 166,33.2901143,126.3684044
캐릭파크,제주 제주시,064-784-3500,"['가족여행', '문화시설', '사계절', '실내여행지', '아이와함께', '이색체험', '인생샷']",https://cdn.visitkorea.or.kr/img/call?cmd=VIEW&id=fcfc6c64-4092-4be2-94d3-f13924ced9da&thumb,제주특별자치도 제주시 조천읍 선교로 266,33.47927741,126.7005329
캐슬렉스제주 골프클럽,제주 서귀포시,064-793-6630,"['골프장', '레포츠', '서귀포', '제주도']",https://cdn.visitkorea.or.kr/img/call?cmd=VIEW&id=c587b10f-efed-4c2e-8341-f2f62f96b749&thumb,제주특별자치도 서귀포시 안덕면 평화로 1241,33.3195978,126.342428
코코몽에코파크 (제주),제주 서귀포시,1661-4284,"['가족나들이', '관광지', '놀이기구', '아이가_좋아하는_여행', '아이들과가볼만한곳']",https://cdn.visitkorea.or.kr/img/call?cmd=VIEW&id=e6879edb-94fc-47f6-b2ef-c32fe476c61d&thumb,제주특별자치도 서귀포시 남원읍 태위로 536,33.274631199999995,126.7058491
크라운컨트리클럽,제주 제주시,064-784-4811,"['골프장', '레포츠', '제주도', '크라운컨트리클럽']",https://cdn.visitkorea.or.kr/img/call?cmd=VIEW&id=2017e50c-7d96-4d93-94ce-56a3e8f23f07&thumb,제주특별자치도 제주시 조천읍 북선로 125,33.5300132,126.69473889999999
타보카 투명카약,제주 제주시,064-743-0051,"['경험', '남녀노소', '레포츠', '반려견과함께', '반려견동반여행지', '수상레포츠']",https://cdn.visitkorea.or.kr/img/call?cmd=VIEW&id=f9e62031-e062-4538-be36-cde342933735&thumb,제주특별자치도 제주시 애월읍 애월로 11,33.4600513,126.3113009
탐라승마장,제주 제주시,064-782-5577,"['가족과함께', '레포츠', '승마', '승마레슨', '승마장', '승마체험', '승마캠프', '승마트레킹']",https://cdn.visitkorea.or.kr/img/call?cmd=VIEW&id=a2bd64a4-f319-4769-bd6d-f86088dbbf37&thumb,제주특별자치도 제주시 조천읍 비자림로 1044,33.4330365,126.7168442
테디베어뮤지엄 제주,제주 서귀포시,064-738-7600,"['가족여행', '겨울방학', '나들이', '데이트코스', '문화시설', '박물관', '아이와함께']",https://cdn.visitkorea.or.kr/img/call?cmd=VIEW&id=f5921b4d-a60c-4720-8fa4-1969e7f628f6&thumb,제주특별자치도 서귀포시 중문관광로110번길 31,33.25030323,126.4121588
트랜스포머 오토봇 얼라이언스 (신화월드),제주 서귀포시,1670-8800,"['가족과함께', '문화시설', '미세먼지_피하는_실내여행', '아이가_좋아하는_여행']",https://cdn.visitkorea.or.kr/img/call?cmd=VIEW&id=38cb415a-ffdb-432c-83c2-087bef5e957c&thumb,제주특별자치도 서귀포시 안덕면 신화역사로304번길 89,33.30275091,126.3176104
파라다이스 카지노 제주 그랜드,제주 제주시,064-743-2121,['레포츠'],https://cdn.visitkorea.or.kr/img/call?cmd=VIEW&id=456cf504-4d38-422c-b407-b7eff903e979&thumb,제주특별자치도 제주시 노연로 80,33.484757699999996,126.48870559999999
퍼시픽랜드,제주 서귀포시,1544-2988,"['가족여행', '관광지', '놀이동산&테마파크', '데이트코스', '상설공연', '아이와함께']",https://cdn.visitkorea.or.kr/img/call?cmd=VIEW&id=82cfffd2-2e51-4512-936f-1a410ba22e94&thumb,제주특별자치도 서귀포시 중문관광로 154-17,33.2444327,126.4161942
펀테마파크,제주 제주시,064-784-9940,"['가족과함께', '가족여행', '관광지', '사계절', '실내여행지', '아이가_좋아하는_여행']",https://cdn.visitkorea.or.kr/img/call?cmd=VIEW&id=5f768fc4-d222-4376-aaf2-c17777a83da2&thumb,제주특별자치도 제주시 조천읍 선교로 266-4,33.4789094,126.70077020000001
평화통일 불사리탑,제주 제주시,064-740-6000,"['관광지', '불교', '사원', '역사', '역사공부', '역사관광지', '역사를품은곳', '역사문화재']",https://cdn.visitkorea.or.kr/img/call?cmd=VIEW&id=80bbe2fe-6f70-4057-860e-84eced39bce6&thumb,제주특별자치도 제주시 조천읍 일주동로 884,33.5322075,126.63592109999999
폭낭오름,제주 제주시,064-740-6000,"['관광지', '자연']",https://cdn.visitkorea.or.kr/img/call?cmd=VIEW&id=1ba512a5-5ab1-4144-938f-55c1337517d3&thumb,제주특별자치도 제주시 애월읍 화전길,33.349326899999994,126.3803653
"표선 5일시장 (2, 7일)",제주 서귀포시,064-760-4475,"['가족여행', '나홀로여행', '쇼핑', '시장맛집', '아이와함께', '연인과함께', '오일장']",https://cdn.visitkorea.or.kr/img/call?cmd=VIEW&id=64d8f308-a34a-458e-9f02-8cc4e2c78d2e&thumb,제주특별자치도 서귀포시 표선면 세성로 352-38,33.3359654,126.7985098
표선 해비치 해변,제주 서귀포시,064-740-6000,"['관광지', '바다풍경', '연인과함께', '자연', '표선해비치해변', '휴양여행', '힐링']",https://cdn.visitkorea.or.kr/img/call?cmd=VIEW&id=713fad60-cab8-493e-9c8a-850d0d0b6693&thumb,제주특별자치도 서귀포시 표선면 민속해안로,33.3126457,126.82324369999999
피규어뮤지엄 제주,제주 제주시,064-792-2244,"['남녀노소', '문화시설', '미세먼지_피하는_실내여행', '실내여행지', '아이와함께']",https://cdn.visitkorea.or.kr/img/call?cmd=VIEW&id=28a6f903-1217-4cd3-9ad3-622bb659d143&thumb,제주특별자치도 서귀포시 안덕면 한창로 243,33.28190379,126.35535690000002
핀크스 골프클럽,제주 서귀포시,064-792-5200,['레포츠'],https://cdn.visitkorea.or.kr/img/call?cmd=VIEW&id=undefined&thumb,제주특별자치도 서귀포시 안덕면 산록남로 863,33.305353499999995,126.39373459999999
하고수동해변,제주 제주시,064-740-6000,"['가족여행', '관광지', '바다풍경', '여름방학가볼만한곳', '여름여행', '연인과함께']",https://cdn.visitkorea.or.kr/img/call?cmd=VIEW&id=d621298d-00d9-4baa-9d31-41cb42dbe520&thumb,제주특별자치도 제주시 우도면 연평리,33.5033191,126.9556775
하늬복이오름,제주 서귀포시,064-740-6000,"['관광지', '산', '자연', '제주권', '하늬복이오름']",https://cdn.visitkorea.or.kr/img/call?cmd=VIEW&id=7ab34252-8500-447b-b0ee-9401d7219394&thumb,제주특별자치도 서귀포시 안덕면 상천리 산89-1,33.3264189,126.3922173
하도어촌체험마을,제주 제주시,064-783-1996,"['관광지', '우수어촌체험마을', '이색체험', '제주권', '체험', '체험프로그램', '하도어촌체험마을']",https://cdn.visitkorea.or.kr/img/call?cmd=VIEW&id=2cb92710-25b1-4ddc-b604-20547efad344&thumb,제주특별자치도 제주시 구좌읍 해맞이해안로,33.5291668,126.8538817
하례리생태관광마을,제주 서귀포시,064-767-0144,"['걷기길', '걷기여행', '관광지', '생태관광', '생태관광마을', '생태관광지', '제주권']",https://cdn.visitkorea.or.kr/img/call?cmd=VIEW&id=a5ffe22e-e0e2-473e-beda-2c64766ac3c7&thumb,제주특별자치도 서귀포시 남원읍 하례중앙로 95,33.269198100000004,126.6254689
하멜기념비,제주 서귀포시,064-740-6000,"['관광지', '역사', '역사공부', '역사관광지', '역사를품은곳', '역사문화재', '역사속']",https://cdn.visitkorea.or.kr/img/call?cmd=VIEW&id=adc43945-90ce-42dd-8a38-97a7298bbb0e&thumb,제주특별자치도 서귀포시 안덕면 사계리 112-3,33.2328609,126.3140629
하멜상선전시관,제주 서귀포시,064-794-2940,"['네덜란드', '문화시설', '제주도', '하멜상선전시관', '하멜표류기']",https://cdn.visitkorea.or.kr/img/call?cmd=VIEW&id=7bd2db22-bb28-4177-9cae-07e0fa14ae13&thumb,제주특별자치도 서귀포시 안덕면 사계남로216번길 24-30,33.23342738,126.3136956
하모리해변,제주 서귀포시,064-740-6000,"['관광지', '자연']",https://cdn.visitkorea.or.kr/img/call?cmd=VIEW&id=f35d1729-e214-460a-88cc-316cfed24891&thumb,제주특별자치도 서귀포시 대정읍 최남단해안로,33.2122848,126.2625612
하얏트리젠시제주 수영장,제주 서귀포시,064-733-1234,"['레포츠', '수영장', '제주', '제주도수영장', '제주도여행']",https://cdn.visitkorea.or.kr/img/call?cmd=VIEW&id=85953d7d-f97e-4469-907b-fd297c52ff40&thumb,제주특별자치도 서귀포시 중문관광로72번길 114,33.2455761,126.40555330000001
한국기념품백화점,제주 제주시,064-742-0985,"['기념품판매', '쇼핑', '제주권', '한국기념품백화점']",https://cdn.visitkorea.or.kr/img/call?cmd=VIEW&id=40aa4cf5-0712-4b5e-8148-0013f5054de2&thumb,제주특별자치도 제주시 원노형로 13,33.4874419,126.4848081
한국야구명예전당,제주 서귀포시,064-760-6411,"['문화시설', '박물관', '이색체험', '제주권', '한국야구명예전당']",https://cdn.visitkorea.or.kr/img/call?cmd=VIEW&id=e7c62599-0db9-4513-bdfb-51d3d691a232&thumb,제주특별자치도 서귀포시 중산간서로 97-1,33.26053675,126.4984486
한대오름,제주 제주시,064-740-6000,"['관광지', '자연']",https://cdn.visitkorea.or.kr/img/call?cmd=VIEW&id=7d2d5802-5571-4e98-bff2-aa2374f6ef4e&thumb,제주특별자치도 제주시 애월읍 화전길 201,33.3511411,126.3877935
한라산 (제주도 국가지질공원),제주 제주시,064-710-3945,"['가족여행', '관광지', '국가지질공원', '등산', '연중무휴', '유네스코세계문화유산']",https://cdn.visitkorea.or.kr/img/call?cmd=VIEW&id=1449931a-0570-4428-ae7f-34b22e6468ce&thumb,제주특별자치도 제주시 1100로 2070-61,33.3922314,126.49456629999999
한라산 백록담,제주 서귀포시,064-713-9950,"['관광지', '자연']",https://cdn.visitkorea.or.kr/img/call?cmd=VIEW&id=be3867cf-ad01-4999-829c-a0b2cb11d76b&thumb,제주특별자치도 서귀포시 토평동,33.2844099,126.57967430000001
한라산 성판악,제주 제주시,064-725-9950,"['관광지', '자연']",https://cdn.visitkorea.or.kr/img/call?cmd=VIEW&id=198d58e1-6906-4c33-93dd-2cc275061074&thumb,제주특별자치도 제주시 조천읍 516로 1865,33.3848518,126.6195473
한라산 영실,제주 서귀포시,064-713-9950,"['경치좋은곳', '관광지', '등산여행', '등산코스', '사진찍기', '사진찍기좋은곳']",https://cdn.visitkorea.or.kr/img/call?cmd=VIEW&id=381c9aeb-f66e-4ad5-9ae1-5064b956f605&thumb,제주특별자치도 서귀포시 영실로 246,33.3698523,126.5556383
한라산 트레킹,제주 제주시,064-740-6000,"['걷기여행길', '남녀노소', '레포츠', '제주도', '제주도가볼만한곳', '트레킹', '휴식여행']",https://cdn.visitkorea.or.kr/img/call?cmd=VIEW&id=374c2318-c98a-4bbe-a550-53acc57904ec&thumb,제주특별자치도 제주시 1100로 2070-61,33.3922314,126.49456629999999
한라산국립공원,제주 제주시,,"['관광지', '눈꽃&설경여행', '생태관광', '생태관광지', '트레킹', '한라산']",https://cdn.visitkorea.or.kr/img/call?cmd=VIEW&id=68a6f82a-8ab7-490d-9d9f-ba5a0c3c7422&thumb,제주특별자치도 제주시 1100로 2010-61,33.4561511,126.48637
한라산소주 공장투어,제주 제주시,064-729-1958,"['공장투어', '관광지', '교육여행', '교육프로그램', '이색체험', '제주가볼만한곳']",https://cdn.visitkorea.or.kr/img/call?cmd=VIEW&id=6e5d7c36-4b5b-4929-98cb-a1fd54bf4b19&thumb,제주특별자치도 제주시 한림읍 한림로 555,33.4073649,126.2563337
한라산컨트리클럽,제주 제주시,064-754-5678,"['골프리조트', '골프장', '골프클럽', '남녀노소', '레저스포츠', '레포츠', '복합레저스포츠']",https://cdn.visitkorea.or.kr/img/call?cmd=VIEW&id=b1585373-3864-464c-b48b-f82c85284e09&thumb,제주특별자치도 제주시 선돌목동길 56-46,33.444630100000005,126.5445663
한라생태숲,제주 제주시,064-710-8688,"['가족여행', '걷기길', '관광지', '등산', '숲', '자연', '자연속으로', '자연여행', '자연좋은곳']",https://cdn.visitkorea.or.kr/img/call?cmd=VIEW&id=6fe25485-3fbc-4be8-bb8f-b1af5799c605&thumb,제주특별자치도 제주시 516로 2596,33.430924,126.59576100000001
한라수목원,제주 제주시,064-710-7575,"['걷기길', '관광지', '산책하기', '생태관광지', '수목원', '자연', '자연좋은곳', '자연환경']",https://cdn.visitkorea.or.kr/img/call?cmd=VIEW&id=2d180eb0-e987-44be-942b-d81d0a9619b3&thumb,제주특별자치도 제주시 수목원길 72,33.4699272,126.4932445
한림공원,제주 제주시,064-796-0001,"['가족여행', '걷기여행', '관광지', '나들이', '사계절', '아이와함께', '연인과함께']",https://cdn.visitkorea.or.kr/img/call?cmd=VIEW&id=ca276792-37ea-4eff-b682-ec05a7c0d8ca&thumb,제주특별자치도 제주시 한림읍 한림로 300,33.389494899999995,126.2396825
한림공원 다화원휴게소 (제주),제주 제주시,064-796-0009,"['가족여행', '기념품판매', '나들이', '나홀로여행', '쇼핑', '아이와함께', '연인과함께']",https://cdn.visitkorea.or.kr/img/call?cmd=VIEW&id=118d5e00-e645-4bf9-ab8e-0eb0d3249be7&thumb,제주특별자치도 제주시 한림읍 한림로 300,33.389494899999995,126.2396825
한림공원 쌍용각,제주 제주시,064-796-0008,"['가족여행', '기념품판매', '나들이', '나홀로여행', '쇼핑', '시장맛집', '아이와함께']",https://cdn.visitkorea.or.kr/img/call?cmd=VIEW&id=9bfb2397-adbf-45aa-b7ef-4b9d817604db&thumb,제주특별자치도 제주시 한림읍 한림로 300,33.389494899999995,126.2396825
"한림민속5일시장(4, 9일)",제주 제주시,064-796-8830,"['가족여행', '나들이', '데이트코스', '먹거리', '쇼핑', '시장맛집', '아이와함께']",https://cdn.visitkorea.or.kr/img/call?cmd=VIEW&id=238ca6ba-8560-4c0b-8323-ee7dd0cf6a51&thumb,제주특별자치도 제주시 한림읍 한수풀로4길 10,33.4201519,126.2742341
한수풀 해녀학교,제주 제주시,064-796-5521,"['관광지', '남녀노소', '바다경치', '바다내음', '바다전망', '이색체험', '제주가볼만한곳']",https://cdn.visitkorea.or.kr/img/call?cmd=VIEW&id=undefined&thumb,제주특별자치도 제주시 한림읍 한림해안로 623-6,33.436659999999996,126.2748879
함덕 서우봉 해변 (함덕해수욕장),제주 제주시,064-728-3989,"['가족여행', '관광지', '바다풍경', '산책하기좋은곳', '아이와함께', '여름방학가볼만한곳']",https://cdn.visitkorea.or.kr/img/call?cmd=VIEW&id=54e15491-34cf-45b2-9142-77d91b02b89a&thumb,제주특별자치도 제주시 조천읍 조함해안로,33.544036600000005,126.6537771
해녀박물관,제주 제주시,064-782-9898,"['교과서속여행', '남녀노소', '문화시설', '미세먼지_피하는_실내여행', '박물관']",https://cdn.visitkorea.or.kr/img/call?cmd=VIEW&id=9b8b681a-23a2-462c-8815-ca3e02a9c23f&thumb,제주특별자치도 제주시 구좌읍 해녀박물관길 26,33.52360988,126.8634256
해비치 컨트리클럽 제주,제주 서귀포시,064-780-8000,['레포츠'],https://cdn.visitkorea.or.kr/img/call?cmd=VIEW&id=undefined&thumb,제주특별자치도 서귀포시 남원읍 원님로399번길 319,33.3601625,126.72563999999998
헬로키티아일랜드,제주 서귀포시,064-792-6114,"['가족과함께', '남녀노소', '문화시설', '사계절', '아이가_좋아하는_여행', '아이와함께']",https://cdn.visitkorea.or.kr/img/call?cmd=VIEW&id=d9a684ad-c0ce-4b1a-819c-7d1405e417fb&thumb,제주특별자치도 서귀포시 안덕면 한창로 340,33.29009955,126.3520811
협재굴,제주 제주시,064-796-0001,"['관광지', '생태관광', '생태관광지', '쌍용굴', '여름방학가볼만한곳', '제주권']",https://cdn.visitkorea.or.kr/img/call?cmd=VIEW&id=715bf3cc-4c54-47a0-8b1b-c5702edee469&thumb,제주특별자치도 제주시 한림읍 한림로 300,33.389494899999995,126.2396825
협재굴(한림공원),제주 제주시,064-796-0001,"['가족여행', '관광지', '나들이', '동굴', '미세먼지탈출_이색동굴여행', '섬여행']",https://cdn.visitkorea.or.kr/img/call?cmd=VIEW&id=17ce9fb8-97dd-4f1a-ae1d-8727cca23b7d&thumb,제주특별자치도 제주시 한림읍 한림로 300,33.389494899999995,126.2396825
협재해변,제주 제주시,064-740-6000,"['가족여행', '관광지', '바다풍경', '여름피서지', '자연', '자연좋은곳', '자연환경']",https://cdn.visitkorea.or.kr/img/call?cmd=VIEW&id=be178d0e-dae8-452e-87e9-288a907c47d9&thumb,제주특별자치도 제주시 한림읍,33.4103985,126.26715349999999
형제섬,제주 서귀포시,064-760-2913,"['관광지', '낚시', '섬', '일몰', '일출', '자연', '제주권', '형제섬']",https://cdn.visitkorea.or.kr/img/call?cmd=VIEW&id=9f810c06-9884-411c-acf3-ffc557860e7c&thumb,제주특별자치도 서귀포시 안덕면 사계리,33.237032,126.3020597
혼인지,제주 서귀포시,064-742-8866,"['가족여행', '가족체험여행', '걷기여행', '관광지', '아이와함께', '연인과함께']",https://cdn.visitkorea.or.kr/img/call?cmd=VIEW&id=a843d872-8e02-49dc-a2f4-ad4b72c5bf59&thumb,제주특별자치도 서귀포시 성산읍 혼인지로 39-22,33.4149305,126.89410190000001
혼인지마을,제주 서귀포시,064-784-5552,"['관광지', '교육여행', '남녀노소', '아이와함께', '연인과함께', '이색체험', '전통&역사']",https://cdn.visitkorea.or.kr/img/call?cmd=VIEW&id=f34aab14-cb6b-4cbb-845d-6eae765a89a0&thumb,제주특별자치도 서귀포시 성산읍 혼인지로 39-22,33.4149305,126.89410190000001
홀스랜드(어승생승마장),제주 제주시,064-746-5532,['레포츠'],https://cdn.visitkorea.or.kr/img/call?cmd=VIEW&id=95bd34e8-bf13-44ea-a049-62dcd99c920a&thumb,제주특별자치도 제주시 1100로 2659,33.4257046,126.490448
화순 금모래 해변,제주 서귀포시,064-740-6000,"['가족여행', '관광지', '바다풍경', '아이와함께', '여름방학가볼만한곳', '여름여행']",https://cdn.visitkorea.or.kr/img/call?cmd=VIEW&id=f55ae5f7-867c-488e-be62-53e059de21e2&thumb,제주특별자치도 서귀포시 안덕면 화순해안로,33.243592699999994,126.33466680000001
화조원,제주 제주시,064-799-9988,"['가족과함께', '가족체험', '관광지', '남녀노소', '동물과의교감', '동물체험', '사진찍기좋은곳']",https://cdn.visitkorea.or.kr/img/call?cmd=VIEW&id=ee2695e8-f51f-4af5-95bd-883de06bd5e1&thumb,제주특별자치도 제주시 애월읍 애원로 804,33.4431304,126.3385993
황우지해안,제주 서귀포시,064-740-6000,"['걷기길', '관광지', '바다풍경', '여름여행', '자연', '자연속으로', '자연좋은곳']",https://cdn.visitkorea.or.kr/img/call?cmd=VIEW&id=ed4e1fb7-b94c-4cdb-996b-ea2d339479fc&thumb,제주특별자치도 서귀포시 서홍동,33.2639577,126.5507293
후곡악,제주 서귀포시,064-740-6000,"['관광지', '자연']",https://cdn.visitkorea.or.kr/img/call?cmd=VIEW&id=30f38d78-2abf-43fb-a493-5dc952d0ba3d&thumb,제주특별자치도 서귀포시 성산읍 일주동로,33.416346000000004,126.88990700000001
휴림,제주 제주시,064-799-4883,"['가족과함께', '관광지', '국내힐링여행', '남녀노소', '아이와함께', '언택트관광지_100선']",https://cdn.visitkorea.or.kr/img/call?cmd=VIEW&id=2365185d-5d71-4792-b9a6-0b09f4e889a6&thumb,제주특별자치도 제주시 애월읍 광령남서길 40,33.443436,126.42899209999999
휴애리자연생활공원,제주 서귀포시,064-732-2114,"['가족과함께', '가족체험', '감성사진', '관광지', '데이트장소추천', '복합문화공간']",https://cdn.visitkorea.or.kr/img/call?cmd=VIEW&id=3d0df21d-1b81-42a1-8952-be0b16be9c92&thumb,제주특별자치도 서귀포시 남원읍 신례동로 256,33.3085402,126.63448259999998
흙붉은오름,제주 제주시,064-740-6000,"['관광지', '자연']",https://cdn.visitkorea.or.kr/img/call?cmd=VIEW&id=3265149f-d503-4315-9fbf-063ddddad4a0&thumb,제주특별자치도 서귀포시 남원읍 영실로,33.3698523,126.5556383
