name,region,address,Latitude,Longitude
스타필드 하남,경기 하남시,경기도 하남시 미사대로 750,37.5434191,127.236611
"양평장 / 양평시장 (3, 8일)",경기 양평군,경기도 양평군 양평읍 양평장터길 15,37.4909455,127.4927606
평택국제중앙시장,경기 평택시,경기도 평택시 중앙시장로25번길 11-4,37.0807108,127.0527018
"용문천년시장 / 용문전통시장 (5, 10일)",경기 양평군,경기도 양평군 용문면 다문중앙1길 19,37.4849948,127.5910806
신세계사이먼 시흥 프리미엄 아울렛,경기 시흥시,경기 시흥시 서해안로 699,37.4092647,126.7555085
"가평5일장 / 잣고을전통시장 (5, 10일)",경기 가평군,경기도 가평군 가평읍 장터2길 10,37.8296108,127.5151034
광명전통시장,경기 광명시,경기도 광명시 광이로13번길 17-5,37.4800807,126.8562359
"경기 안성장 (2, 7일)",경기 안성시,경기도 안성시 시장길 37,37.0065988,127.2704023
롯데프리미엄아울렛 이천점,경기 이천시,경기도 이천시 호법면 프리미엄아울렛로 177-74,37.2422526,127.4000798
일산 가구거리,경기 고양시,경기도 고양시 일산서구 경의로917번길 26,37.7005147,126.7585734
수원 프리미엄아울렛,경기 용인시,경기도 용인시 기흥구 중부대로 64,37.266751,127.076195
오산 중앙시장/오색시장,경기 오산시,경기도 오산시 오산로272번길 22,37.1508977,127.0708518
의정부 제일시장,경기 의정부시,경기도 의정부시 시민로121번길 43-2,37.7401762,127.049666
"장호원재래시장(4, 9일)",경기 이천시,경기도 이천시 장호원읍 서동대로8965번길 36,37.1148336,127.6307445
"일산민속5일장 (3, 8일)",경기 고양시,경기도 고양시 일산서구 고양대로685번길 19,37.6850313,126.7720168
안양 중앙시장,경기 안양시,경기도 안양시 만안구 냉천로 196,37.3976235,126.9195788
현대프리미엄아울렛 김포점,경기 김포시,경기도 김포시 고촌읍 아라육로152번길 100,37.5991152,126.7859124
수원 남문시장,경기 수원시,경기도 수원시 팔달구 팔달문로 9,37.2777177,127.0184736
"모란장 / 모란민속시장 (4, 9일)",경기 성남시,경기도 성남시 중원구 둔촌대로 68,37.4322476,127.1269495
신세계사이먼 여주 프리미엄 아울렛,경기 여주시,경기도 여주시 명품로 360,37.2413127,127.6125556
동두천 중앙시장,경기 동두천시,경기도 동두천시 중앙로285번길 9,37.9064753,127.0536925
안산 시민시장,경기 안산시,경기도 안산시 단원구 화랑로 149,37.3250378,126.8052733
"용인장 (5, 10일)",경기 용인시,경기도 용인시 처인구 금령로107번길 13,37.236364,127.2081779
가평 잣고을 전통시장,경기 가평군,경기도 가평군 가평읍 읍내리 473-15,37.8300775,127.5137962
군포역전시장,경기 군포시,경기도 군포시 군포로 548-1,37.3548567,126.9469843
광명새마을시장,경기 광명시,경기도 광명시 광명로831번길 34,37.4746797,126.8480618
부천 역곡상상시장,경기 부천시,경기도 부천시 부일로749번길 31,37.4875426,126.8119066
수원 농수산물도매시장,경기 수원시,경기도 수원시 권선구 세권로 243,37.2550182,127.0309112
"가평 현리5일장 (4, 9일)",경기 가평군,경기도 가평군 조종면 현창로44번길 14,37.8196129,127.3489605
궁평항수산물직판장,경기 화성시,경기도 화성시 서신면 궁평항로 1049-24,37.1157218,126.6821115
CGV 스퀘어,경기 성남시,경기도 성남시 분당구 탄천상로151번길 20,37.3400065,127.1069645
수원 영동시장,경기 수원시,경기도 수원시 팔달구 수원천로255번길 6,37.276842,127.0187071
신세계사이먼 파주 프리미엄 아울렛,경기 파주시,경기도 파주시 탄현면 필승로 200,37.7696173,126.696253
못골종합시장 (못골시장),경기 수원시,경기도 수원시 팔달구 수원천로258번길 10-12,37.2759791,127.0208246
라페스타 (Lafesta),경기 고양시,경기도 고양시 일산동구 중앙로 1305-56,37.661211,126.7680912
롯데프리미엄아울렛 광명점,경기 광명시,경기도 광명시 일직로 17,37.4241619,126.8829345
"파주 문산장 (4, 9일)",경기 파주시,경기도 파주시 문산읍 문산1리,37.8608461,126.7781115
롯데 파주 프리미엄아울렛,경기 파주시,경기도 파주시 회동길 390,37.7186336,126.6918139
김포로컬푸드,경기 김포시,경기도 김포시 김포대로 1009-49,37.6307164,126.7008882
박달시장,경기 안양시,경기도 안양시 만안구 박달우회로124번길 41,37.4057284,126.9098536
부천 역곡남부시장,경기 부천시,경기도 부천시 부광로8번길 35,37.4830392,126.8110972
"설악 5일장 (1, 6일)",경기 가평군,경기도 가평군 설악면 신천중앙로 104,37.6774056,127.4921083
"양수장 / 양수리전통시장 (1, 6 일)",경기 양평군,경기도 양평군 양서면 양수리 1060,37.5445329,127.3199422
스타필드 시티 위례,경기 하남시,경기도 하남시 위례대로 200,37.4798797,127.1484241
"김포장 (2, 7일)",경기 김포시,경기도 김포시 김포대로 955,37.6338585,126.7008625
대명항수산물직판장,경기 김포시,경기도 김포시 대곶면 대명항1로 109,37.6393543,126.5416904
원조가평잣집,경기 가평군,경기도 가평군 북면 가화로 721-18,37.8746533,127.5233625
"여주장 (5, 10일)",경기 여주시,경기도 여주시 여흥로11번길 53,37.2981944,127.6319819
웨스턴돔 (WesternDom),경기 고양시,경기도 고양시 일산동구 정발산로 24,37.6557011,126.7719572
"마석 5일장(3, 8일)",경기 남양주시,경기도 남양주시 화도읍 마석로17번길 26,37.6544095,127.3056488
"사강장 / 사강시장 (2,7일)",경기 화성시,경기도 화성시 송산면 사강로 189,37.2133048,126.7369285
산본시장,경기 군포시,경기도 군포시 산본천로183번길 6,37.3700769,126.9385118
구리 농수산물도매시장,경기 구리시,경기도 구리시 동구릉로136번길 90,37.6132366,127.1448505
"연천장 (2, 7일)",경기 연천군,경기도 연천군 연천읍 차현로 139,38.103958,127.0769821
아브뉴프랑 (판교점),경기 성남시,경기도 성남시 분당구 동판교로177번길 25,37.3971784,127.1134305
앙코르면세점,경기 수원시,경기도 수원시 팔달구 권광로 132,37.2590979,127.0314113
안양 남부시장,경기 안양시,경기도 안양시 만안구 안양로248번길 19-11,37.3959517,126.9250848
팬텀 (세이브존 화정점),경기 고양시,경기도 고양시 덕양구 화정로 52,37.6343155,126.8313649
덕이동 로데오거리,경기 고양시,경기도 고양시 일산서구 탄중로101번길 13,37.6927466,126.7560305
"전곡재래시장 (4, 9일)",경기 연천군,경기도 연천군 전곡읍 전곡로172번길 4-19,38.0270052,127.0681518
"청평 5일장 (2, 7일)",경기 가평군,경기도 가평군 청평면 시장중앙로 19,37.7346526,127.4158928
교보문고 분당점,경기 성남시,경기도 성남시 분당구 황새울로312번길 26,37.3834287,127.1226573
부천 원종종합시장,경기 부천시,경기도 부천시 삼작로396번길 11,37.5192862,126.8058605
안성마춤유기공방,경기 안성시,경기도 안성시 중앙로 448,37.0059233,127.2764863
롯데프리미엄아울렛 기흥점,경기 용인시,경기도 용인시 기흥구 신고매로 124,37.2255095,127.1220189
연무시장,경기 수원시,경기도 수원시 장안구 월드컵로428번길 19,37.2944729,127.0259514
안양 농수산물도매시장,경기 안양시,경기도 안양시 동안구 흥안대로 313,37.3819516,126.9700957
부천 원미종합시장,경기 부천시,경기도 부천시 조종로49번길 21-3,37.4936418,126.7901681
핫트랙스 (분당점),경기 성남시,경기도 성남시 분당구 황새울로312번길 26,37.3834287,127.1226573
한청도요,경기 이천시,경기도 이천시 신둔면 경충대로3159번길 12-27,37.3092159,127.4005139
토아트갤러리,경기 이천시,경기도 이천시 신둔면 경충대로 3189,37.3106302,127.4007892
"백암장 (1, 6일)",경기 용인시,경기도 용인시 처인구 백암면 백암로202번길 18,37.1645795,127.3765819
"금촌장 (1, 6일)",경기 파주시,경기도 파주시 금정22길 15-15,37.7622313,126.7735675
호메오 (Homeo),경기 파주시,경기도 파주시 탄현면 헤이리마을길 59,37.7886791,126.6978572
신장시장,경기 하남시,경기도 하남시 신장1로3번길 42,37.5378624,127.2069721
한국도요,경기 이천시,경기도 이천시 신둔면 황무로 485,37.3030677,127.4030128
오래된 서점,경기 파주시,경기도 파주시 상지석길 5-1,37.7330357,126.7759245
