name,region,address,lat,lon
부산 자갈치시장,부산 중구,부산광역시 중구 자갈치해안로 52,35.09661378,129.0305837
부평시장(깡통시장),부산 중구,부산광역시 중구 부평1길 48,35.1015592,129.0260206
국제시장,부산 중구,부산광역시 중구 신창로4가 일원,35.1015524,129.0282977
자갈치시장 활어부,부산 중구,부산광역시 중구 자갈치해안로 52,35.09661378,129.0305837
롯데프리미엄아울렛 동부산점,부산 기장군,부산광역시 기장군 기장읍 기장해안로 147,35.1922145,129.2127805
부산 기장시장,부산 기장군,부산광역시 기장군 기장읍 읍내로104번길 16,35.24369679,129.2148685
부산 해운대시장,부산 해운대구,부산광역시 해운대구 구남로41번길 22-1,35.16140387,129.1623153
미술의거리,부산 중구,부산광역시 중구 중구로 31,35.1005816,129.0278472
남항시장,부산 영도구,부산광역시 영도구 절영로49번길 73-5,35.08890761,129.0422626
환공어묵 부산역점,부산 동구,부산광역시 동구 중앙대로 206,35.11760513,129.0450602
신세계사이먼 부산 프리미엄 아울렛,부산 기장군,부산광역시 기장군 장안읍 정관로 1133,35.32381098,129.2349662
부산 중앙시장,부산 부산진구,부산광역시 부산진구 중앙번영로20번길 34-3,35.1433915,129.0610915
용두산공원 부산타워 세양,부산 중구,부산광역시 중구 용두산길 37-55,35.10092943,129.0324428
"송정시장 (5, 10일)",부산 기장군,부산광역시 기장군 철마면 두송길 7-31,35.30473201,129.1116483
구포 축산물도매시장,부산 북구,부산광역시 북구 사상로583번길 20,35.19638644,128.9894906
부산 진시장,부산 동구,부산광역시 동구 진시장로 24,35.13642339,129.0588362
부산 엄궁농산물도매시장,부산 사상구,부산광역시 사상구 농산물시장로9번길 11,35.12867885,128.9642837
해운대 로데오거리,부산 해운대구,부산광역시 해운대구 좌동순환로 473,35.16366622,129.1694173
부산 르네시떼,부산 사상구,부산광역시 사상구 광장로 7,35.16433608,128.9777161
영도봉래시장 / 봉래시장,부산 영도구,부산광역시 영도구 태종로113번길 39,35.09271476,129.043933
부산 자유도매시장,부산 동구,부산광역시 동구 조방로 48,35.14097365,129.0610402
이니스프리 부산대점[한국관광 품질인증/Korea Quality],부산 금정구,부산광역시 금정구 금정로68번길 28,35.23034385,129.0878889
구서 오시게시장,부산 금정구,부산광역시 금정구 구서로 12,35.24735756,129.0897741
동래시장,부산 동래구,부산광역시 동래구 동래시장길 14,35.20380872,129.0859386
부산 국제수산물도매시장,부산 서구,부산광역시 서구 원양로 35 국제수산물도매시장,35.05883793,129.0101762
남포동건어물도매시장,부산 중구,부산광역시 중구 용미길8번길 4-1,35.09732614,129.0345237
홈플러스 관광기념품점(부산 해운대점),부산 해운대구,부산광역시 해운대구 해운대해변로 140,35.15839552,129.1464951
해바라기식품,부산 중구,부산광역시 중구 광복로35번길 13,35.10059828,129.0287406
롯데백화점 (부산 광복점),부산 중구,부산광역시 중구 중앙대로 2,35.09830526,129.0367023
애플아울렛,부산 사상구,부산광역시 사상구 사상로 201,35.16314616,128.9809858
남천 해변시장,부산 수영구,부산광역시 수영구 광안해변로15번길 77,35.13915613,129.1090408
분더샵 (신세계백화점 센텀시티점),부산 해운대구,부산광역시 해운대구 센텀남대로 35,35.16881784,129.1295233
부산 부전시장,부산 부산진구,부산광역시 부산진구 중앙대로755번길 21,35.16034559,129.0595513
국제시장 젊음의거리,부산 중구,부산광역시 중구 국제시장2길 25,35.10154027,129.0283106
(주)한국다원호간보 부산지사 [한국관광 품질인증/Korea Quality],부산 중구,부산광역시 중구 대청로155번길 6,35.10351802,129.0372218
"구포장 / 구포시장 (3, 8일)",부산 북구,부산광역시 북구 구포시장1길 17,35.20900262,129.0043755
부산 평화도매시장,부산 부산진구,부산광역시 부산진구 자유평화로 7,35.14169728,129.0606748
아이하시 (수제젓가락공예),부산 중구,부산광역시 중구 국제시장2길 33,35.10238037,129.0283039
신세계면세점 (부산점),부산 해운대구,부산광역시 해운대구 센텀4로 15,35.16986142,129.1282901
민락어민활어직판장,부산 수영구,부산광역시 수영구 광안해변로312번길 60,35.15421579,129.1278636
부산공동어시장,부산 서구,부산광역시 서구 충무대로 202,35.08990197,129.0263691
서면 지하도상가,부산 부산진구,부산광역시 부산진구 중앙대로 737,35.16023309,129.0611055
Y'Z PARK (와이즈파크),부산 중구,부산광역시 중구 광복로39번길 6,35.09972042,129.0295871
은송타미나,부산 중구,부산광역시 중구 광복로39번길 26,35.10149432,129.0293919
삼성디지털프라자 (롯데백화점센텀시티점),부산 해운대구,부산광역시 해운대구 센텀남대로 59,35.16985335,129.1310697
탠디(롯데백화점 센텀시티점),부산 해운대구,부산광역시 해운대구 센텀남대로 59,35.16985335,129.1310697
좌천동 가구거리,부산 동구,부산광역시 동구 중앙대로,35.11738769,129.0405156
카카오프렌즈 부산 플래그십 스토어,부산 중구,부산광역시 중구 광복로 62,35.09903638,129.0315906
헤라 (롯데백화점 센텀시티점),부산 해운대구,부산광역시 해운대구 센텀남대로 59,35.16985335,129.1310697
거제시장,부산 연제구,부산광역시 연제구 거제시장로14번길 28,35.18193157,129.0727929
남포동 지하도상가,부산 중구,부산광역시 중구 구덕로 지하 44,35.09800097,129.0306204
다해정,부산 중구,부산광역시 중구 남포길 39-2,35.09823256,129.0332494
한국민속식품 (부산),부산 강서구,부산광역시 강서구 공항로811번길 71-1,35.18071217,128.9539541
국제시장 조명의 거리,부산 중구,부산광역시 중구 국제시장2길 5,35.09970656,129.0283158
금강제화 부산서면점,부산 부산진구,부산광역시 부산진구 중앙대로 691,35.15460646,129.0588089
핫트랙스 (부산점),부산 부산진구,부산광역시 부산진구 중앙대로 658,35.15153117,129.0595552
오휘 (롯데백화점센텀시티점),부산 해운대구,부산광역시 해운대구 센텀남대로 59,35.16985335,129.1310697
롯데백화점 (부산본점),부산 부산진구,부산광역시 부산진구 가야대로 772,35.15678998,129.0564162
프리스비 (Frisbee) 서면점,부산 부산진구,부산광역시 부산진구 중앙대로691번길 14,35.15456955,129.0583081
피터젠슨 (신세계백화점 센텀시티점),부산 해운대구,부산광역시 해운대구 센텀남대로 35,35.16881784,129.1295233
설화수 (롯데백화점 센텀시티점),부산 해운대구,부산광역시 해운대구 센텀남대로 59,35.16985335,129.1310697
금강제화 부산본점,부산 중구,부산광역시 중구 광복로 59,35.09938243,129.0316391
갤럭시 (롯데백화점 센텀시티점),부산 해운대구,부산광역시 해운대구 센텀남대로 59,35.16985335,129.1310697
정관장 (롯데백화점 센텀시티점),부산 해운대구,부산광역시 해운대구 센텀남대로 59,35.16985335,129.1310697
쥬디스태화,부산 부산진구,부산광역시 부산진구 중앙대로 694,35.15472735,129.0596224
빈폴 (롯데백화점 센텀시티점),부산 해운대구,부산광역시 해운대구 센텀남대로 59,35.16985335,129.1310697
부평동한복거리,부산 중구,부산광역시 중구 부평2길 44,35.10144518,129.0265715
광복로 아리랑 거리,부산 중구,부산 중구 신창동1~4가,35.10261444,129.0285223
연일시장,부산 연제구,부산광역시 연제구 고분로 24,35.18557217,129.0848775
신동아 수산물시장,부산 중구,부산광역시 중구 자갈치로 42,35.09672134,129.0286701
타임 (롯데백화점 센텀시티점),부산 해운대구,부산광역시 해운대구 센텀남대로 59,35.16985335,129.1310697
광복로 만물의거리,부산 중구,부산광역시 중구 국제시장2길 20-1,35.10111964,129.0285721
피숀 (신세계백화점 센텀시티점),부산 해운대구,부산광역시 해운대구 센텀남대로 35,35.16881784,129.1295233
레스모아 (LesMore) 부산광복동점,부산 중구,부산광역시 중구 광복로 57,35.09940867,129.031472
송원칠공방,부산 부산진구,부산광역시 부산진구 성지곡로 43,35.18614991,129.0483092
후 (신세계백화점 센텀시티점),부산 해운대구,부산광역시 해운대구 센텀남대로 35,35.16881784,129.1295233
버커루 (롯데백화점 센텀시티점),부산 해운대구,부산광역시 해운대구 센텀남대로 59,35.16985335,129.1310697
동보프라자,부산 부산진구,부산광역시 부산진구 중앙대로 704,35.15549362,129.0595847
광복 지하도상가,부산 중구,부산광역시 중구 중앙대로29번길 8,35.10022159,129.035652
광주요,부산 해운대구,부산광역시 해운대구 센텀남대로 35,35.16881784,129.1295233
트렉스타 (롯데백화점 센텀시티점),부산 해운대구,부산광역시 해운대구 센텀남대로 35,35.16881784,129.1295233
블루핏 (신세계백화점 센텀시티점),부산 해운대구,부산광역시 해운대구 센텀남대로 35,35.16881784,129.1295233
LG베스트샵(롯데백화점 센텀시티),부산 해운대구,부산광역시 해운대구 센텀남대로 59,35.16985335,129.1310697
오랜지바다,부산 수영구,부산광역시 수영구 광안해변로 245-1,35.15493588,129.1207388
이상봉 (롯데백화점 센텀시티점),부산 해운대구,부산광역시 해운대구 센텀남대로 59,35.16985335,129.1310697
유한회사스노우에이치[한국관광 품질인증/Korea Quality],부산 동구,부산광역시 동구 조방로 32,35.13970028,129.0620473
