name,region,address,lat,lon
백수해안도로,전남 영광군,전라남도 영광군 백수읍 대신리,35.35051661,126.4002666
담양 메타세쿼이아길,전남 담양군,전라남도 담양군 담양읍 메타세쿼이아로 19,35.32386968,127.0041218
"순천만습지 (구, 순천만자연생태공원)",전남 순천시,전라남도 순천시 순천만길 513-25,34.88579701,127.5092833
오동도,전남 여수시,전라남도 여수시 오동도로 222,34.74436175,127.7641041
여수 해상케이블카,전남 여수시,전라남도 여수시 돌산읍 돌산로 3600-1,34.73058792,127.7415247
향일암(여수),전남 여수시,전라남도 여수시 돌산읍 향일암로 60,34.5937942,127.8029879
가우도,전남 강진군,전라남도 강진군 도암면 월곶로 473,34.52833982,126.7726355
죽녹원,전남 담양군,전라남도 담양군 담양읍 죽녹원로 119,35.32535666,126.9866155
광양 매화마을,전남 광양시,전라남도 광양시 다압면 섬진강매화로 1563-1,35.0803491,127.7153051
목포 자유시장 (남진야시장),전남 목포시,전라남도 목포시 자유로 122,34.79296436,126.4030678
목포 종합수산시장,전남 목포시,전라남도 목포시 해안로 267,34.78781934,126.3900991
여수 종합수산시장,전남 여수시,전라남도 여수시 여객선터미널길 24,34.73814206,127.7317636
여수중앙선어시장,전남 여수시,전라남도 여수시 이순신광장로 103,34.73913771,127.7370321
"순천 아랫장 (2, 7일)",전남 순천시,전라남도 순천시 장평로 60,34.94514679,127.49609
영광 법성포 굴비거리,전남 영광군,전라남도 영광군 법성면,35.3620555,126.4460191
정남진 장흥토요시장,전남 장흥군,전라남도 장흥군 장흥읍 토요시장3길 15,34.67636797,126.9028619
여수 돌산갓장터마을갓김치,전남 여수시,전라남도 여수시 돌산읍 향일암로 359,34.60499613,127.7876658
"구례5일장 / 구례전통시장(3, 8일)",전남 구례군,전라남도 구례군 구례읍 5일시장작은길 20,35.21015153,127.4700805
"보성장 / 녹차골 보성향토시장 (2, 7일)",전남 보성군,전라남도 보성군 보성읍 현충로 42-1,34.76564893,127.0772318
광양 청매실농원,전남 광양시,전라남도 광양시 다압면 지막1길 55,35.07549641,127.7166502
"곡성장 / 곡성기차마을전통시장 (3, 8일)",전남 곡성군,전라남도 곡성군 곡성읍 곡성로 856,35.27976851,127.2984376
백록다원,전남 보성군,전라남도 보성군 회천면 봉서동길 81-7,34.66548303,127.0498304
나주목사고을시장,전남 나주시,전라남도 나주시 청동길 14,35.03624619,126.7237675
여수 특산품전시판매장,전남 여수시,전라남도 여수시 봉산남9길 30-12,34.73121587,127.7282211
목포 청호시장,전남 목포시,전라남도 목포시 석현로 28,34.81538137,126.424593
"일로장 (1, 6일)",전남 무안군,전라남도 무안군 일로읍 시장길 11-22,34.84753508,126.4943346
완도 해산물장터,전남 완도군,전라남도 완도군 완도읍 해변공원로124번길 26,34.32596425,126.7499626
"진도장 / 진도조금시장 (2, 7일)",전남 진도군,전라남도 진도군 진도읍 조금시장길 23,34.48097045,126.2570824
목포 신중앙시장,전남 목포시,전라남도 목포시 원산중앙로 51,34.81025503,126.3775244
목포 동부시장,전남 목포시,전라남도 목포시 산정로 174,34.80408944,126.3920968
"담양장 / 죽물시장 (2, 7일)",전남 담양군,전라남도 담양군 담양읍 담주4길 44-8,35.32314598,126.9808152
"화순장 / 화순전통시장 (3, 8일)",전남 화순군,전라남도 화순군 화순읍 시장길 42,35.05909677,126.9833988
죽향참빗,전남 담양군,전라남도 담양군 담양읍 향교길 29,35.32661836,126.9859351
곡성 기차당 뚝방마켓,전남 곡성군,전라남도 곡성군 곡성읍 곡성로 898,35.28140201,127.3012726
"광양5일장 (1, 6일)",전남 광양시,전라남도 광양시 광양읍 백운로 3,34.9711607,127.5904533
수협 보성회천수산물위판장,전남 보성군,전라남도 보성군 회천면 남부관광로 2274,34.66720677,127.0840951
"함평장 (2, 7일)",전남 함평군,전라남도 함평군 함평읍 시장길 49-1,35.06373037,126.5234259
순천만 공예특산품관,전남 순천시,전라남도 순천시 순천만길 513-25,34.88579701,127.5092833
"과역 5일장 (5, 10일)",전남 고흥군,전라남도 고흥군 과역면 시장안길 15,34.67945246,127.3622598
"장흥 5일장 (2, 7일)",전남 장흥군,전라남도 장흥군 장흥읍 토요시장3길 15,34.67636797,126.9028619
보향다원,전남 보성군,전라남도 보성군 보성읍 동암1길 144,34.75729483,127.0761278
동박새꿈정원,전남 여수시,전라남도 여수시 오동도로 238-32,34.74447977,127.7675258
여수 교동시장,전남 여수시,전라남도 여수시 교동시장1길 17,34.73908203,127.7299176
강진탐진청자,전남 강진군,전라남도 강진군 대구면 청자촌길 20-16,34.50685054,126.8011591
보성농협녹차잡곡사업소,전남 보성군,전라남도 보성군 보성읍 유촌길 151,34.75312709,127.0342106
강진탐진청자 [한국관광 품질인증/Korea Quality],전남 강진군,전라남도 강진군 대구면 청자촌길 20-16,34.50685054,126.8011591
"벌교장 (4, 9일)",전남 보성군,전라남도 보성군 벌교읍 시장1길 15-19,34.84542918,127.3451458
"대치장/대전장 (3, 8일)",전남 담양군,전라남도 담양군 대전면 대치8길 28-12,35.27545595,126.8860809
용문도예,전남 여수시,전라남도 여수시 소라면 화양로 1824-27,34.74161281,127.6280155
구례 콩장,전남 구례군,전라남도 구례군 구례읍 서시천로 106,35.2166161,127.4668741
나주목물 (나주반장 김춘식),전남 나주시,전라남도 나주시 영산로 5116-12,35.02408502,126.6936505
"강진시장 (4, 9일)",전남 강진군,전라남도 강진군 강진읍 시장길 17-14,34.6403433,126.7741164
"고흥장 (4, 9일)",전남 고흥군,전라남도 고흥군 고흥읍 시장천변길 29-16,34.60782338,127.2865226
보성삼베랑,전남 보성군,전라남도 보성군 복내면 옥평길 27-1,34.88571364,127.133174
"석곡장 (5, 10일)",전남 곡성군,전라남도 곡성군 석곡면 강변로 12,35.13098905,127.254778
"덕양장 (3, 8일)",전남 여수시,전라남도 여수시 소라면 하세동길 9-1,34.79821514,127.6317254
"마량장 (3, 8일)",전남 강진군,전라남도 강진군 마량면 마량3길 4,34.451918,126.8163158
"무안장 (4, 9일)",전남 무안군,전라남도 무안군 무안읍 면성1길 134,34.98659503,126.4724902
"완도장 (5, 10일)",전남 완도군,전라남도 완도군 완도읍 개포로 34-1,34.31610421,126.7482463
"망운장 (1, 6일)",전남 무안군,전라남도 무안군 망운면 조산길 2,35.01148293,126.3919782
"남평장 (1, 6일)",전남 나주시,전라남도 나주시 남평읍 남평3로 59-20,35.04661434,126.8451315
"해남장 (1, 6일)",전남 해남군,전라남도 해남군 해남읍 중앙2로 100-2,34.56828504,126.5963552
태랑도예원,전남 순천시,전라남도 순천시 별량면 일출길 141,34.868877,127.483207
"영광장 (1, 6일)",전남 영광군,전라남도 영광군 영광읍 천년로 1459,35.27350362,126.5030529
"서시장 (4, 9일)",전남 여수시,전라남도 여수시 좌수영로 16-6,34.74179248,127.7286157
"능주장 / 능주전통시장 (5, 10일)",전남 화순군,전라남도 화순군 능주면 관동길 7,34.99053688,126.9591909
흥진상사,전남 여수시,전라남도 여수시 이순신광장로 49,34.73940785,127.7340332
"영암장 (5, 10일)",전남 영암군,전라남도 영암군 영암읍 오일시장길 28,34.80123919,126.7005657
청우다원 (청우녹차),전남 보성군,전라남도 보성군 보성읍 사동길 52-2,34.72498073,127.0896825
"십일시장 (4, 10일)",전남 진도군,전라남도 진도군 임회면 석교리 245-1,34.41091834,126.1919995
충주산방,전남 나주시,전라남도 나주시 공산면 금강로 253,34.96223168,126.5908319
무안요 / 무안요전통분청사기전수관,전남 무안군,전라남도 무안군 몽탄면 몽탄로 940-1,34.92358553,126.4995067
"공산장 (1, 6일)",전남 나주시,전라남도 나주시 공산면 공산로 120,34.94238552,126.6090415
"예당장 (5, 10일)",전남 보성군,전라남도 보성군 득량면 예당길 160-55,34.7786492,127.1993357
"영산포풍물시장/영산장 (5, 10일)",전남 나주시,전라남도 나주시 풍물시장2길 12-14,34.99199963,126.7072673
"신북장 (3, 8일)",전남 영암군,전라남도 영암군 신북면 황금동로 78,34.8885919,126.6922237
"남리장 (3, 8일)",전남 해남군,전라남도 해남군 황산면 시등로 111-11,34.57532366,126.4324836
"남창장 (2, 7일)",전남 해남군,전라남도 해남군 북평면 달량진길 48-11,34.40453577,126.6267154
"창평장 (5, 10일)",전남 담양군,전라남도 담양군 창평면 사동길 14-25,35.23810681,127.0149068
강진 고려청자사업소,전남 강진군,전라남도 강진군 대구면 청자촌길 33,34.50866203,126.8008374
두리토방(몽평요),전남 무안군,전라남도 무안군 몽탄면 신창길 4-3,34.91501719,126.5063459
"독천장(4, 9일)",전남 영암군,전라남도 영암군 학산면 독천1길 5,34.72449458,126.5668315
"구림장 (2, 7일)",전남 영암군,전라남도 영암군 군서면 도갑사로 31-13,34.76237653,126.6353421
돌산갓 영농조합법인,전남 여수시,전라남도 여수시 돌산읍 두문포길 6,34.64015693,127.7874441
금영돗자리,전남 함평군,전라남도 함평군 해보면 밀재로 1286-21,35.18053469,126.6041452
"용산장 (1, 6일)",전남 장흥군,전라남도 장흥군 용산면 용인길 4,34.61491088,126.9153133
"조성시장 (3, 8일)",전남 보성군,전라남도 보성군 조성면 조성로 90-5,34.80669313,127.2455901
금풍공예사,전남 곡성군,전라남도 곡성군 겸면 산이재로 681,35.24420549,127.1921524
"이양장 / 이양재래시장 (4, 9일)",전남 화순군,전라남도 화순군 이양면 이양로 29-12,34.88308307,126.9873029
