name,region,tel,keyword,photo,address,lat,lon
150년 수령 느티나무,서울 양천구,02-2620-3405,"['관광지', '느티나무', '수호신', '양천구', '역사속으로', '역사이야기', '자연여행']",https://cdn.visitkorea.or.kr/img/call?cmd=VIEW&id=73155fdd-4caa-4086-925a-4dc52cd83dd1&thumb,서울 양천구 목4동 760-28,37.53758,126.8687506
3.1독립선언기념탑,서울 서대문구,1577-0606,"['3.1독립선언기념탑', '관광지', '사계절', '수도권', '아이와함께', '역사공부', '역사관광지']",https://cdn.visitkorea.or.kr/img/call?cmd=VIEW&id=eeab08cb-bf8e-4bf0-970c-b7dcd2267ed2&thumb,서울특별시 서대문구 통일로 251,37.5743009,126.9559178
3.1독립운동기념탑,서울 중구,1577-0606,"['3.1독립운동기념탑', '3.1운동', '3·1운동_100주년_여행지추천', '관광지']",https://cdn.visitkorea.or.kr/img/call?cmd=VIEW&id=4932d50d-fbfb-4de9-9aa8-25dc040c0050&thumb,서울특별시 중구 장충단로 91,37.5599921,127.0053457
63스퀘어,서울 영등포구,02-789-5663,"['63스퀘어', '가족과함께', '관광지', '데이트코스', '복합문화공간', '서울가볼만한곳']",https://cdn.visitkorea.or.kr/img/call?cmd=VIEW&id=18a56781-e3c1-4fe0-b128-7c85122cf272&thumb,서울특별시 영등포구 63로 50,37.5194647,126.9398326
AHC스파,서울 강남구,02-541-8239,"['관광지', '남녀노소', '부모님과함께', '뷰티&스파', '연인과함께', '이색체험']",https://cdn.visitkorea.or.kr/img/call?cmd=VIEW&id=5c321dc5-f786-4be1-adfb-53af7dfcbffd&thumb,서울특별시 강남구 도산대로 237,37.5216436,127.0329814
DMC 홍보관,서울 마포구,02-309-7067,"['DMC', 'DMC홍보관', '관광지', '복합문화공간', '산업관광', '산업관광지', '수도권']",https://cdn.visitkorea.or.kr/img/call?cmd=VIEW&id=256626e5-62a8-4401-a308-3b788c5e8f9b&thumb,서울특별시 마포구 월드컵북로 366,37.5777446,126.8921565
G밸리 패션지원센터,서울 금천구,02-2627-1309,"['G밸리패션지원센터', '관광지', '산업관광', '산업관광지', '수도권', '이색체험']",https://cdn.visitkorea.or.kr/img/call?cmd=VIEW&id=377eb601-c4f5-4445-a5a6-030ab2df773a&thumb,서울특별시 금천구 디지털로10길 9,37.4773564,126.8891438
JTBC,서울 마포구,02-751-6000,"['JTBC', '견학', '관광지', '산업관광', '산업관광지', '수도권', '아이와함께', '이색체험']",https://cdn.visitkorea.or.kr/img/call?cmd=VIEW&id=22e68489-23b1-4e1f-b3cf-61ead301b8a5&thumb,서울특별시 마포구 상암산로 48-6,37.577011,126.8900277
K-Taekwon school 태권도체험,서울 강동구,-8907,"['건강여행', '관광지', '남녀노소', '실내레포츠', '실내운동', '실내체육관', '아이와함께']",https://cdn.visitkorea.or.kr/img/call?cmd=VIEW&id=6c8a5712-f8f3-497a-bed3-0bded4503fca&thumb,서울특별시 강동구 고덕로 96,37.5545248,127.1358496
KT스퀘어,서울 종로구,1577-5599,"['KT스퀘어', '가족여행', '관광지', '문화공연', '복합문화공간', '산업관광', '산업관광지']",https://cdn.visitkorea.or.kr/img/call?cmd=VIEW&id=cbd7cb40-5435-4048-a2fe-1f928b9f1103&thumb,서울특별시 종로구 세종대로 178,37.5721178,126.9779584
MBC WORLD(견학홀),서울 마포구,02-789-3705,"['관광지', '산업관광', '산업관광지']",https://cdn.visitkorea.or.kr/img/call?cmd=VIEW&id=d0409671-0ff3-4575-9609-62af572b53f1&thumb,서울특별시 마포구 성암로 267,37.5740931,126.9035854
SK텔레콤 New ICT체험관 T.um,서울 중구,02- 6353-6665,"['4G체험', 'SK텔레콤', 'SK텔레콤티움', '관광지', '산업관광', '산업관광지', '수도권']",https://cdn.visitkorea.or.kr/img/call?cmd=VIEW&id=3fcdc527-84d6-45a5-8208-913cfea629a9&thumb,서울특별시 중구 을지로 65,37.566448,126.985114
SPA 1899 동인비,서울 강남구,02-557-8030,"['건강여행', '관광지', '남녀노소', '부모님과함께', '연인과함께', '이색체험', '체험프로그램']",https://cdn.visitkorea.or.kr/img/call?cmd=VIEW&id=43460f9f-4513-47a5-808a-d176883b5072&thumb,서울특별시 강남구 영동대로 416,37.5065419,127.0653161
tbs교통방송,서울 마포구,02-311-5603,"['TBS', 'tbs교통방송', '견학', '관광지', '교통방송', '방송국', '산업관광', '산업관광지']",https://cdn.visitkorea.or.kr/img/call?cmd=VIEW&id=4d36fde4-29db-4e6a-aaa2-a0f1519c4734&thumb,서울특별시 마포구 매봉산로 31,37.5754986,126.8899652
VRZONE CINEMA(브이알존 시네마),서울 강남구,02-545-3394,"['관광지', '데이트장소추천', '브이알존', '서울데이트', '실내관광지', '실내놀이터']",https://cdn.visitkorea.or.kr/img/call?cmd=VIEW&id=5a8a8cec-db93-44dd-8fde-a0b967cf1584&thumb,서울특별시 강남구 도산대로11길 18,37.5185926,127.0226869
VRZONE 용산 아이파크몰점,서울 용산구,02-2039-7521,"['VR체험', '관광지', '데이트장소추천', '실내데이트', '실내여행지', '아이가_좋아하는_여행']",https://cdn.visitkorea.or.kr/img/call?cmd=VIEW&id=da7d9891-42ac-4259-ae23-cddcd869a21d&thumb,서울특별시 용산구 한강대로23길 55,37.5288539,126.9640447
VR스테이션,서울 강남구,1877-8870,"['VR체험', '가상현실', '관광지', '미세먼지_피하는_실내여행', '서울데이트', '실내관광지']",https://cdn.visitkorea.or.kr/img/call?cmd=VIEW&id=ad07b87a-6ecd-4e4f-85ea-6e39098ce9f2&thumb,서울특별시 강남구 강남대로 364,37.4955366,127.0293521
YTN,서울 마포구,02-398-8183,"['YTN', '견학', '관광지', '방송국', '사업관광지', '산업관광', '수도권', '아이와함께']",https://cdn.visitkorea.or.kr/img/call?cmd=VIEW&id=fdd2ebbb-8c5f-4123-bd31-c9c73d12e6fd&thumb,서울특별시 마포구 상암산로 76,37.579488,126.892456
갈산근린공원,서울 양천구,02-2620-3405,"['갈산근린공원', '걷기길', '관광지', '나들이', '산책길', '산책로', '산책하기좋은곳']",https://cdn.visitkorea.or.kr/img/call?cmd=VIEW&id=f2aeaf4b-9225-47cf-8096-1c5d752cba2f&thumb,서울특별시 양천구 신정동,37.5166014,126.8638714
감로암(서울),서울 종로구,02-762-5861,"['관광지', '역사']",https://cdn.visitkorea.or.kr/img/call?cmd=VIEW&id=89a8c860-7548-4c95-80bb-1ee6a406ecd6&thumb,서울특별시 종로구 율곡로23길 16,37.5752854,127.0066237
강남,서울 강남구,02-3445-0111,"['가족과함께', '강남', '강남관광정보센터', '강남구', '강남맛집', '강남스타일']",https://cdn.visitkorea.or.kr/img/call?cmd=VIEW&id=b6c591dd-e950-4f4f-a086-0d78fc5c10b9&thumb,서울특별시 강남구 역삼동,37.4999072,127.0373932
강남 마이스 관광특구,서울 강남구,02-6000-0114,"['걷기여행', '관광지', '기념품판매', '남녀노소', '도심여행', '복합문화공간', '서울투어']",https://cdn.visitkorea.or.kr/img/call?cmd=VIEW&id=ffc1e9f2-2a84-4597-8e15-f6d9726de880&thumb,서울특별시 강남구 영동대로 513,37.5101935,127.0585824
강남 시티투어 - 트롤리버스,서울 강남구,02-777-6090,"['가족과함께', '강남시티투어', '강남여행', '관광지', '남녀노소', '버스투어', '수도권']",https://cdn.visitkorea.or.kr/img/call?cmd=VIEW&id=4b81032a-b34c-426e-8bd9-1ae2ebc79b1f&thumb,서울특별시 강남구 압구정로 161,37.5270213,127.0357939
강동예찬시비,서울 강동구,02-3425-5253,"['관광지', '문화공간', '문화명소', '애향심', '애향심', '역사를품은곳', '역사속으로']",https://cdn.visitkorea.or.kr/img/call?cmd=VIEW&id=52ac9ad2-0baf-4596-8b80-f2a8130f013a&thumb,서울특별시 강동구 천호동,37.5439937,127.1256452
강변스파랜드,서울 광진구,02-455-3737,"['강변스파랜드', '관광지', '불한증막', '사우나', '수도권', '연인과함께', '연중무휴']",https://cdn.visitkorea.or.kr/img/call?cmd=VIEW&id=2dcc0a23-29ea-4018-875b-81609ecc22cf&thumb,서울특별시 광진구 구의강변로 45,37.5348617,127.0912641
강서습지생태공원,서울 강서구,02-3780-0621,"['가족여행', '강서습지생태공원', '걷기길', '관광지', '나들이', '도심여행', '생태관광']",https://cdn.visitkorea.or.kr/img/call?cmd=VIEW&id=358a1766-4875-4a64-88b5-b602bba2b920&thumb,서울특별시 강서구 양천로27길 279-23,37.5859954,126.8171323
개봉 유수지,서울 구로구,02-860-3114,"['가족과함께', '공원', '관광지', '산책로', '산책하기좋은곳', '아침운동', '연인과함께']",https://cdn.visitkorea.or.kr/img/call?cmd=VIEW&id=ce856a95-066a-4265-9782-3d01f766b939&thumb,서울특별시 구로구 개봉동,37.4888722,126.8557494
개운사(서울),서울 성북구,02-926-4069,"['관광지', '불교', '불교문화', '불교사찰', '사찰', '사찰여행', '역사', '자연속으로']",https://cdn.visitkorea.or.kr/img/call?cmd=VIEW&id=null&thumb,서울특별시 성북구 개운사길 73,37.5900323,127.0281115
경국사(서울),서울 성북구,02-914-2828,"['가족여행', '경국사', '관광지', '도심여행', '불교', '불교문화', '사찰', '사찰&산사']",https://cdn.visitkorea.or.kr/img/call?cmd=VIEW&id=00ad75c2-8b44-4598-b504-5fd4936fc406&thumb,서울특별시 성북구 보국문로 113-10,37.6146027,127.0045638
경복궁,서울 종로구,02-3700-3900,"['15_16한국관광100선', '17_18한국관광100선', '19_20한국관광100선', '가족여행']",https://cdn.visitkorea.or.kr/img/call?cmd=VIEW&id=37631288-6624-4b59-ac1d-c6080c903345&thumb,서울특별시 종로구 사직로 161,37.5773616,126.9766844
경성 부민관 폭탄 의거지,서울 중구,02-3396-5842,"['경성부민관폭탄의거지', '관광지', '수도권', '역사', '역사공부', '역사관광지']",https://cdn.visitkorea.or.kr/img/call?cmd=VIEW&id=214a0b6a-ecba-4710-9ea8-5d130c3e9ad3&thumb,서울특별시 중구 세종대로 125,37.5673573,126.976467
경운동민병옥가옥,서울 종로구,02-120,"['관광지', '역사', '역사공부', '역사관광지', '역사를품은곳', '역사문화재', '역사속']",https://cdn.visitkorea.or.kr/img/call?cmd=VIEW&id=83d1833f-ee99-4a33-8982-b38555d4abfb&thumb,서울특별시 종로구 인사동10길 23-9,37.574655,126.9858924
경의선책거리,서울 마포구,02-3153-8353,"['경의선', '경의선책거리', '관광지', '복합문화', '복합문화공간', '복합시설', '산책하기']",https://cdn.visitkorea.or.kr/img/call?cmd=VIEW&id=764c1158-3749-4db8-911e-c39f9d1fde55&thumb,서울특별시 마포구 와우산로35길 50-4,37.5560304,126.9284396
경찰혼,서울 영등포구,1577-0606,"['경찰', '경찰서', '경찰혼', '관광지', '사계절', '수도권', '아이와함께', '역사를품은곳']",https://cdn.visitkorea.or.kr/img/call?cmd=VIEW&id=a9a4c2f4-ed1f-4937-8c76-b37bb2a3995f&thumb,서울특별시 영등포구 국회대로 608,37.5260441,126.9008091
경희궁,서울 종로구,02-724-0274,"['15_16한국관광100선', '17_18한국관광100선', '19_20한국관광100선', '가족여행']",https://cdn.visitkorea.or.kr/img/call?cmd=VIEW&id=1e43cf40-a4b0-42de-a5aa-d2c08771f66b&thumb,서울특별시 종로구 새문안로 55,37.5700566,126.9705312
경희궁 숭정전,서울 중구,02-724-0274,"['관광지', '역사', '역사공부', '역사관광', '역사관광지', '역사를품은곳', '역사문화재']",https://cdn.visitkorea.or.kr/img/call?cmd=VIEW&id=39867bce-05e8-4b3b-97f6-8603154def46&thumb,서울특별시 종로구 새문안로 45,37.5712077,126.9687336
경희궁 흥화문,서울 종로구,02-724-0274,"['19_20한국관광100선', '가족여행', '경희궁흥화문', '고궁', '관광지', '교과서속여행']",https://cdn.visitkorea.or.kr/img/call?cmd=VIEW&id=38c4c05f-8ad5-4b97-bcdc-564cdecbc968&thumb,서울특별시 종로구 새문안로 55,37.5700566,126.9705312
경희궁공원,서울 종로구,02-2148-2841,"['가족여행', '경희궁공원', '고궁', '관광지', '교과서속여행', '사계절', '수도권']",https://cdn.visitkorea.or.kr/img/call?cmd=VIEW&id=c5607a65-d58a-4528-a33a-c5d1e5001e77&thumb,서울특별시 종로구 새문안로 45,37.5712077,126.9687336
"계남공원(유아숲체험장, 우렁바위)",서울 양천구,02-2620-3573,"['걷기길', '관광지', '산책코스', '산책하기좋은곳', '아이와함께', '자연좋은곳']",https://cdn.visitkorea.or.kr/img/call?cmd=VIEW&id=13e071d0-fa20-47fe-b832-48b76d9e8d5a&thumb,서울특별시 양천구 중앙로 153,37.520694,126.8523726
고당조만식선생동상,서울 광진구,1577-0606,"['관광지', '독립', '독립운동', '역사', '역사공부', '역사관광지', '역사를품은곳']",https://cdn.visitkorea.or.kr/img/call?cmd=VIEW&id=c9bd2fdf-a602-408b-9118-28c17e43ac3b&thumb,서울특별시 광진구 능동로 216,37.549363,127.0818126
고덕동 생태경관 보전지역,서울 강동구,3780-0848,"['고덕동생태경관보전지역', '관광지', '생태체험', '수도권', '자연', '체험']",https://cdn.visitkorea.or.kr/img/call?cmd=VIEW&id=ff3b2d4b-769c-4f50-ab1b-8edc5b114be9&thumb,서울특별시 강동구 고덕동 396번지 일대,37.5670116,127.1497633
고척근린공원,서울 구로구,02-2619-6640,"['가족과함께', '공원', '관광지', '산책길', '산책하기좋은곳', '연인과함께', '자연환경']",https://cdn.visitkorea.or.kr/img/call?cmd=VIEW&id=1e1cb618-4bd3-4131-ab41-2de469b14153&thumb,서울특별시 구로구 고척로45길 39,37.5059009,126.8531819
고척동 고인돌,서울 구로구,02-860-2278,"['관광지', '역사공부', '역사관광지', '역사를품은곳', '역사문화재', '역사속', '역사속으로']",https://cdn.visitkorea.or.kr/img/call?cmd=VIEW&id=f30b9b25-efcc-443d-9cf0-da1a2ab37837&thumb,서울특별시 구로구 고척동,37.5011414,126.8625002
고촌홀(제약박물관),서울 서대문구,070-7094-4510,"['건강식', '건강여행', '고촌홀', '관광지', '근대산업유산', '남녀노소', '수도권']",https://cdn.visitkorea.or.kr/img/call?cmd=VIEW&id=c0bec31d-7f3b-4fcf-873a-ce4472184b3c&thumb,서울 서대문구 충정로 8,37.5597031,126.9631582
고하송진우선생동상,서울 광진구,1577-0606,"['관광지', '독립운동', '아이와함께', '역사공부', '역사관광지', '역사를품은곳']",https://cdn.visitkorea.or.kr/img/call?cmd=VIEW&id=b5718b1b-6ea0-4d00-b0f1-90abb409707f&thumb,서울특별시 광진구 능동로 216,37.549363,127.0818126
곰달래꿈마을,서울 양천구,02-2620-3578,"['SNS감성사진', '골목여행', '골목투어', '관광지', '사진찍기좋은곳', '산책하기좋은곳']",https://cdn.visitkorea.or.kr/img/call?cmd=VIEW&id=06536f22-978c-48b1-85db-beaa1e7a593f&thumb,서울특별시 양천구 신월동,37.519981,126.8365553
공덕동 족발 골목,서울 마포구,02-334-7878,"['가족과함께', '골목길여행', '골목여행', '관광지', '돼지고기', '마포구가볼만한곳']",https://cdn.visitkorea.or.kr/img/call?cmd=VIEW&id=7b0f2804-c2fe-40ab-9f6e-a9bb2855e62d&thumb,서울특별시 마포구 임정로21길 12-4,37.5456575,126.9578044
관문사(서울),서울 서초구,02-3460-5300,"['관광지', '관문사', '불교', '불교문화', '사찰', '사찰여행', '수도권', '역사', '전통사찰']",https://cdn.visitkorea.or.kr/img/call?cmd=VIEW&id=61072c80-3030-4ac1-9fd0-89b8300db791&thumb,서울특별시 서초구 바우뫼로7길 111,37.4737124,127.0222722
관악산,서울 관악구,02-879-6521,"['관광지', '관악산', '등산', '수도권', '자연', '자연좋은곳', '자연풍경', '자연환경']",https://cdn.visitkorea.or.kr/img/call?cmd=VIEW&id=f18b0c4f-fd2e-4d35-9b80-2f1d7e242da9&thumb,서울특별시 관악구 관악로,37.4814353,126.9549042
관악산 낙성대공원,서울 관악구,02-879-6525,"['가족여행', '관광지', '관악산낙성대공원', '교과서속여행', '당일치기여행', '서울근교여행']",https://cdn.visitkorea.or.kr/img/call?cmd=VIEW&id=8b409034-97e3-4260-8976-6adfb2df2894&thumb,서울특별시 관악구 낙성대로 77,37.4713573,126.9597266
관악산 생태공원,서울 관악구,02-879-6561,"['관광지', '관악산생태공원', '데이트코스', '도심여행', '아이와함께', '연인과함께']",https://cdn.visitkorea.or.kr/img/call?cmd=VIEW&id=07bc5edb-d285-4085-b160-63f0b80fc770&thumb,서울특별시 관악구 신림로18가길 10,37.4718378,126.9358751
관악산 호수공원,서울 관악구,02-879-6520,"['관광지', '관악산호수공원', '데이트코스', '도심여행', '산책길', '산책하기', '산책하기좋은곳']",https://cdn.visitkorea.or.kr/img/call?cmd=VIEW&id=a6557607-ea1a-4611-9dab-3d41ab2f81dd&thumb,서울특별시 관악구 대학동,37.470546,126.9368929
관악산공원 야외식물원,서울 관악구,02-879-6561,"['관광지', '관악산공원야외식물원', '데이트코스', '도심여행', '아이와함께', '연인과함께']",https://cdn.visitkorea.or.kr/img/call?cmd=VIEW&id=7704e9ca-999d-407c-bd7a-cb2f108ef1d6&thumb,서울 관악구 대학동 203번지 일대,37.4585522,126.9472851
관음사(서울),서울 관악구,02-582-8609,"['관광지', '불교문화', '사찰여행', '역사', '역사속으로', '역사이야기', '자연좋은곳']",https://cdn.visitkorea.or.kr/img/call?cmd=VIEW&id=c810e70a-89fa-43e3-ad41-3ab0a410f65d&thumb,서울특별시 관악구 승방1길 109-80,37.4675172,126.9767728
관훈동 민씨 가옥 (구 부마도위박영효가옥),서울 중구,02-3396-5843,"['관광지', '역사', '역사공부', '역사관광지', '역사를품은곳', '역사문화재', '역사속']",https://cdn.visitkorea.or.kr/img/call?cmd=VIEW&id=76e44f30-bb64-4e91-b53f-498ed1a1e54a&thumb,서울특별시 중구 퇴계로34길 28,37.5588388,126.9940727
광장시장 한복문화 체험관,서울 종로구,02-2267-0291,"['관광지', '광장시장', '아이와함께', '이색체험', '전통한복', '체험프로그램', '한국전통']",https://cdn.visitkorea.or.kr/img/call?cmd=VIEW&id=cca7f55c-c085-46c0-8c9d-3e075b22ea07&thumb,서울특별시 종로구 창경궁로 88,37.5700398,126.9996036
광진교 8번가,서울 강동구,02-476-0722,"['관광지', '광진교8번가', '데이트코스', '사계절', '상설공연', '실내여행지', '연인과함께']",https://cdn.visitkorea.or.kr/img/call?cmd=VIEW&id=27032990-52d2-440d-8027-4e456b03d241&thumb,서울특별시 강동구 구천면로 77,37.5432728,127.1232147
광화문,서울 종로구,02-3700-3900,"['19_20한국관광100선', '가족여행', '경복궁', '관광지', '광화문', '광화문', '광화문광장']",https://cdn.visitkorea.or.kr/img/call?cmd=VIEW&id=c01c961f-5f2e-49c4-89a0-31171a3c6b22&thumb,서울특별시 종로구 사직로 161,37.5773616,126.9766844
광화문광장,서울 종로구,02-120,"['걷기길', '관광지', '광화문광장', '도심공원', '도심순환', '도심여행', '산책하기좋은곳']",https://cdn.visitkorea.or.kr/img/call?cmd=VIEW&id=1149f5cb-03b6-45ba-b23e-a752999aecab&thumb,서울특별시 종로구 세종대로 172,37.571619,126.976754
광흥당,서울 마포구,02-312-1100,"['관광지', '광흥당', '국악', '국악공연', '수강', '수도권', '아이와함께', '이색체험']",https://cdn.visitkorea.or.kr/img/call?cmd=VIEW&id=5b50e00a-4178-4684-aca8-1c112f918a5b&thumb,서울특별시 마포구 독막로21길 15,37.5486062,126.9286702
광희문,서울 중구,02-3700-3900,"['관광지', '역사', '역사공부', '역사관광', '역사관광지', '역사문화', '역사문화재']",https://cdn.visitkorea.or.kr/img/call?cmd=VIEW&id=d849c0b6-f33a-48f4-ac05-636235a6685b&thumb,서울특별시 중구 퇴계로 344,37.5643088,127.0097158
구 서울대학교 본관,서울 종로구,02-2148-1842,"['관광지', '구서울대학교본관', '근대문화유산', '서울대학교', '역사', '역사공부']",https://cdn.visitkorea.or.kr/img/call?cmd=VIEW&id=59f71924-7e54-4cd3-9552-549b1ea815fb&thumb,서울특별시 종로구 동숭길 3,37.5801905,127.0030805
구공업전습소본관,서울 종로구,02-2148-1842,"['관광지', '교과서속여행', '구공업전습소본관', '문화재', '사적지', '수도권', '역사']",https://cdn.visitkorea.or.kr/img/call?cmd=VIEW&id=09c8240e-338f-4dc6-8890-bd8dde8ded32&thumb,서울특별시 용산구 녹사평대로 195,37.5347919,126.9870163
구로공단 노동자생활체험관,서울 금천구,02-830-8426,"['관광지', '구로공단', '구로공단노동자생활체험관', '노동자생활체험관', '산업관광']",https://cdn.visitkorea.or.kr/img/call?cmd=VIEW&id=beb43010-2256-48b8-98e0-31046ad46314&thumb,서울특별시 금천구 벚꽃로44길 17,37.482761,126.8836218
구로기계공구단지,서울 구로구,02-2676-9381,"['공구', '관광지', '산업관광', '산업관광지', '산업단지', '산업용품', '상가', '이색거리']",https://cdn.visitkorea.or.kr/img/call?cmd=VIEW&id=ff85c896-1cad-4796-a09d-d6e5a4adda5e&thumb,서울특별시 구로구 구로중앙로 198,37.5043503,126.8795726
구룡산(서울),서울 서초구,02-2155-6860,"['관광지', '구룡산', '산', '수도권', '자연', '트레킹']",https://cdn.visitkorea.or.kr/img/call?cmd=VIEW&id=04aec3f9-a7db-49fe-aebf-717678607da7&thumb,서울특별시 서초구 염곡동,37.463043,127.0544047
구암공원,서울 강서구,02-2600-4183,"['걷기길', '관광지', '교과서속여행', '구암공원', '나들이', '남녀노소', '도심여행']",https://cdn.visitkorea.or.kr/img/call?cmd=VIEW&id=8dfc6061-f969-47b4-9569-d32b22291095&thumb,서울특별시 강서구 허준로5길 42,37.5688397,126.851018
구암서원 터(구암정),서울 강동구,02-3425-5252,"['관광지', '구암서원터', '구암정', '수도권', '역사', '역사공부', '역사를품은곳']",https://cdn.visitkorea.or.kr/img/call?cmd=VIEW&id=175a3aa3-c00d-43dd-af1a-08890c9ab967&thumb,서울특별시 강동구 암사동,37.558248,127.1304539
구의 아리수 정수센터,서울 광진구,02-3146-5415,"['관광지', '구의아리수정수센터', '산업관광', '산업관광지', '수도권', '아리수정수센터']",https://cdn.visitkorea.or.kr/img/call?cmd=VIEW&id=511feb0b-9458-4560-a509-97889a1abd0e&thumb,서울특별시 광진구 광나루로 571,37.5471803,127.0924929
국립4.19민주묘지,서울 강북구,02-996-0419,"['가족여행', '관광지', '교과서속여행', '국립4.19민주묘지', '근대문화유산', '당일치기여행']",https://cdn.visitkorea.or.kr/img/call?cmd=VIEW&id=e2027114-6347-44f7-9bdb-33e73cedb4fa&thumb,서울특별시 강북구 4.19로8길 17,37.6466891,127.0103331
국립민속박물관&국립민속박물관 어린이박물관,서울 종로구,02-3704-3114 02-3704-3113,"['가족과함께', '관광지', '교육여행', '국립민속박물관', '아이와함께', '역사속으로']",https://cdn.visitkorea.or.kr/img/call?cmd=VIEW&id=cb091883-4036-4cc9-9fbc-6886989d1934&thumb,서울특별시 종로구 삼청로 37,37.5794588,126.9787219
국립서울현충원,서울 동작구,02-813-9625,"['가족여행', '관광지', '교과서속여행', '국립서울현충원', '근대문화유산', '당일치기여행']",https://cdn.visitkorea.or.kr/img/call?cmd=VIEW&id=37999cbe-44d3-496c-a261-a04aa9ffeffa&thumb,서울특별시 동작구 현충로 210,37.4996897,126.9785099
국제선센터,서울 양천구,02-2650-2200,"['가족여행', '가족체험여행', '관광지', '국제선센터', '사계절', '연인과함께', '외국어해설']",https://cdn.visitkorea.or.kr/img/call?cmd=VIEW&id=e79fa520-d162-428c-805c-2241e9dbe995&thumb,서울특별시 양천구 목동동로 167,37.5207518,126.8701089
국제음식문화거리(INTERNATIONAL FOOD STREET),서울 구로구,,"['가족과함께', '관광지', '맛집', '먹거리여행', '먹거리타운', '먹자골목', '문화공간']",https://cdn.visitkorea.or.kr/img/call?cmd=VIEW&id=9e63c156-a1f7-40d9-8015-430482447a71&thumb,서울특별시 구로구 새말로 102,37.5055924,126.8913665
국회의사당,서울 영등포구,02-788-2114,"['가족체험여행', '관광지', '교과서속여행', '국회의사당', '도심여행', '수도권']",https://cdn.visitkorea.or.kr/img/call?cmd=VIEW&id=c2d1d6b2-759a-4468-b176-f6f5dca5ad55&thumb,서울특별시 영등포구 의사당대로 1,37.5197489,126.9297194
궁동저수지 생태공원,서울 구로구,02-860-3097,"['가족과함께', '공원', '관광지', '산책하기좋은곳', '생태공원', '연인과함께', '자연환경']",https://cdn.visitkorea.or.kr/img/call?cmd=VIEW&id=05da15be-aaeb-40b7-82eb-19c1abf46916&thumb,서울특별시 구로구 궁동,37.5003075,126.8289067
극락사(서울),서울 중랑구,02-434-1717,"['관광지', '불교', '불교문화', '불교문화', '서울사찰', '역사', '역사속으로', '역사이야기']",https://cdn.visitkorea.or.kr/img/call?cmd=VIEW&id=bfff36bd-03d6-4def-a57b-59007b2fc10b&thumb,서울특별시 중랑구 망우로91길 98,37.604637,127.1132219
금선사(서울),서울 종로구,02-395-9911 02-395-9955,"['관광지', '금선사신중도', '불교', '불교문화', '사찰', '사찰여행', '서울금선사']",https://cdn.visitkorea.or.kr/img/call?cmd=VIEW&id=23b5dbe7-efb2-49e6-a175-ada1bfded682&thumb,서울특별시 종로구 비봉길 137,37.6205778,126.9533792
금천예술공장,서울 금천구,02-807-4800,"['공연', '관광지', '금천예술공장', '도시재생', '문화콘텐츠산업', '복합문화공간']",https://cdn.visitkorea.or.kr/img/call?cmd=VIEW&id=736483d3-439f-47dd-9161-dbdbb8f8c91a&thumb,서울특별시 금천구 범안로15길 57,37.4688435,126.8917602
기억의 터(일본군 위안부),서울 중구,02-761-2588,"['가족과함께', '관광지', '교육여행', '아이와함께', '역사공부', '역사관광지', '역사교육']",https://cdn.visitkorea.or.kr/img/call?cmd=VIEW&id=246969c0-907b-4a53-8b87-ac3eef91ecc9&thumb,서울특별시 중구 퇴계로26가길 6,37.5590495,126.9902522
길동생태공원,서울 강동구,02-489-2770,"['가족체험여행', '걷기길', '관광지', '길동생태공원', '생태관광지', '수도권', '자연']",https://cdn.visitkorea.or.kr/img/call?cmd=VIEW&id=458c3c4f-548d-4c64-ab8e-0a59bd0940a8&thumb,서울특별시 강동구 천호대로 1291,37.5389424,127.1533138
길상사(서울),서울 성북구,02-3672-5945,"['관광지', '길상사(서울)', '불교', '불교문화', '사찰', '사찰여행', '산사', '수도권']",https://cdn.visitkorea.or.kr/img/call?cmd=VIEW&id=6ad70abd-de21-42f6-b7b4-5a8ae44cc8cf&thumb,서울특별시 성북구 선잠로5길 68,37.5991321,126.9942654
김익상 의거지,서울 중구,02-2133-2597,"['관광지', '교과서속여행', '김익상의거지', '수도권', '역사', '역사공부', '역사관광지']",https://cdn.visitkorea.or.kr/img/call?cmd=VIEW&id=6dee40c2-a567-40c5-97ff-61e508a6e026&thumb,서울특별시 중구 소파로 126,37.5583238,126.9879994
나무마을목공방,서울 양천구,02-2620-4736,"['가족과함께', '관광지', '남녀노소', '목공예', '목공체험', '연인과함께', '이색체험']",https://cdn.visitkorea.or.kr/img/call?cmd=VIEW&id=7773f69a-92ba-42d9-b464-86aa1d7cf7e4&thumb,서울특별시 양천구 목동서로 159-2,37.5275179,126.8736147
나석주의사동상,서울 중구,1577-0606,"['3.1운동', '3·1운동_100주년_여행지추천', '관광지', '나석주의사', '독립운동']",https://cdn.visitkorea.or.kr/img/call?cmd=VIEW&id=43d22221-a6fb-4ede-aabd-a7437e6d63b4&thumb,서울특별시 중구 을지로 66,37.5653249,126.9849538
낙산공원,서울 종로구,02-743-7985,"['가족여행', '관광지', '나들이', '낙산공원', '데이트코스', '드라이브여행', '수도권']",https://cdn.visitkorea.or.kr/img/call?cmd=VIEW&id=b31c26b8-d95d-4bce-920a-18e18e765258&thumb,서울특별시 종로구 낙산길 41,37.5807709,127.0064081
낙선재,서울 종로구,02-2148-1822,"['가족여행', '고궁', '관광지', '교과서속여행', '낙선재', '사계절', '수도권', '아이와함께']",https://cdn.visitkorea.or.kr/img/call?cmd=VIEW&id=7d80669e-cd20-4635-8f8a-701d335edfc1&thumb,서울특별시 종로구 율곡로 99,37.5800952,126.9918496
낙원동 아구찜 거리,서울 종로구,02-2148-5243,"['관광지', '낙원아구찜', '남녀노소', '맛집탐방', '먹자골목', '서울맛집투어', '소주한잔']",https://cdn.visitkorea.or.kr/img/call?cmd=VIEW&id=28dc7099-edd1-45c5-a586-2c664623cc90&thumb,서울특별시 종로구 삼일대로 428,37.5728323,126.9880012
남강이승훈선생동상,서울 광진구,1577-0606,"['관광지', '아이와함께', '역사공부', '역사관광', '역사관광지', '역사를품은곳']",https://cdn.visitkorea.or.kr/img/call?cmd=VIEW&id=a2fe6481-3881-4140-a799-12234948826a&thumb,서울특별시 광진구 능동로 216,37.549363,127.0818126
남대문 갈치조림골목,서울 중구,02-752-1913,"['갈치', '갈치구이', '갈치조림', '갈치조림골목', '골목시장', '관광지', '남대문']",https://cdn.visitkorea.or.kr/img/call?cmd=VIEW&id=ac74ca87-fc0c-47fd-8be8-fd20be5cfb8b&thumb,서울특별시 중구 남대문시장2가길 7,37.5594863,126.9769403
남산 야외식물원,서울 용산구,02-798-3771,"['가족여행', '관광지', '남산야외식물원', '데이트코스', '도심여행', '사계절', '수도권']",https://cdn.visitkorea.or.kr/img/call?cmd=VIEW&id=6d31e5b2-b0b6-4576-98c7-8e4999db170c&thumb,서울특별시 용산구 소월로 323,37.5460454,126.9884011
남산 케이블카,서울 중구,02-753-2403,"['경치좋은곳', '관광지', '남산서울타워', '남산케이블카', '데이트코스', '등산']",https://cdn.visitkorea.or.kr/img/call?cmd=VIEW&id=026232b7-522b-4164-a9f5-286903f059ca&thumb,서울특별시 중구 소파로 83,37.5565908,126.9839744
남산 팔각정,서울 용산구,02-3783-5900,"['관광지', '남산N서울타워', '남산케이블카', '남산팔각정', '데이트', '산책하기좋은곳']",https://cdn.visitkorea.or.kr/img/call?cmd=VIEW&id=86deac47-dda3-4f54-8696-29eb20c4b2ff&thumb,서울특별시 용산구 남산공원길 105,37.5509473,126.9892965
남산골한옥마을,서울 중구,02-2261-0500,"['가족여행', '관광지', '남녀노소', '남산골한옥마을', '도심여행', '수도권', '아이와함께']",https://cdn.visitkorea.or.kr/img/call?cmd=VIEW&id=ac6e8cd1-ee21-4630-aade-e98e9a74472f&thumb,서울특별시 중구 퇴계로34길 28,37.5588388,126.9940727
남산공원(서울),서울 중구,02-3783-5900,"['가족여행', '관광지', '나들이', '남산공원', '당일치기여행', '사계절', '산책하기좋은곳']",https://cdn.visitkorea.or.kr/img/call?cmd=VIEW&id=da7099b6-c8fe-4540-bca6-e2205e6a3ced&thumb,서울특별시 중구 삼일대로 231,37.5555891,126.9922104
남산서울타워,서울 용산구,02-3455-9277,"['19_20한국관광100선', '가족여행', '관광지', '나홀로여행', '남산서울타워']",https://cdn.visitkorea.or.kr/img/call?cmd=VIEW&id=206ac91c-27f9-4ec7-9cb8-3539bc206c17&thumb,서울특별시 용산구 남산공원길 105,37.5509473,126.9892965
남산서울타워 한복문화체험관,서울 용산구,02-772-9388,"['관광지', '데이트장소추천', '미세먼지_피하는_실내여행', '사진여행', '사진찍기좋은곳']",https://cdn.visitkorea.or.kr/img/call?cmd=VIEW&id=92d2c540-f726-4e57-ba5e-60d60f8a4e71&thumb,서울특별시 용산구 남산공원길 105,37.5509473,126.9892965
내원사(서울),서울 성북구,02-941-2011,"['관광지', '불교', '불교문화', '사찰', '사찰여행', '역사', '자연속으로', '자연환경']",https://cdn.visitkorea.or.kr/img/call?cmd=VIEW&id=b0d96284-5bc6-4bfa-87cc-df3e04808bbc&thumb,서울특별시 성북구 보국문로 262-151,37.6195359,127.000735
노들섬,서울 용산구,02-749-4500,"['가족과함께', '관광지', '노들섬', '복합문화시설', '아이와함께']",https://cdn.visitkorea.or.kr/img/call?cmd=VIEW&id=550c1bd5-bcbe-4d5d-a517-5ca92cd49faf&thumb,서울특별시 용산구 양녕로 445,37.520805,126.9611825
녹사평역 지하예술정원,서울 용산구,02-794-5579,"['가족과함께', '관광지', '녹사평', '문화공간', '문화예술공간', '복합문화공간']",https://cdn.visitkorea.or.kr/img/call?cmd=VIEW&id=fe7a215a-0dd9-412e-8619-12d839d7c09d&thumb,서울특별시 용산구 녹사평대로 195,37.5347919,126.9870163
놀이똥산,서울 종로구,02-2034-0606,"['가족과함께', '관광지', '남녀노소', '미세먼지_피하는_실내여행', '사진찍기']",https://cdn.visitkorea.or.kr/img/call?cmd=VIEW&id=b1743e7c-fd13-46a8-92e7-3a3b3e0b84c0&thumb,서울특별시 종로구 인사동5길 41,37.5718136,126.9841571
능인선원,서울 강남구,02-577-5800,"['관광지', '능인선원', '대한불고조계종', '불교', '불교문화', '사찰', '사찰여행']",https://cdn.visitkorea.or.kr/img/call?cmd=VIEW&id=4ab9faba-0ac1-4e96-92a0-8137ff71f222&thumb,서울특별시 강남구 양재대로 340,37.4716355,127.0524764
다이나믹 메이즈 (서울 인사동점),서울 종로구,1544-8506,"['관광지', '다이나믹메이즈', '도심여행', '레포츠체험', '복합문화공간', '수도권']",https://cdn.visitkorea.or.kr/img/call?cmd=VIEW&id=da345959-cff7-4f10-ad36-2d164b0de6f2&thumb,서울특별시 종로구 인사동길 12,37.574546,126.984979
달마사(서울),서울 동작구,02-813-7425,"['관광지', '불교', '불교문화', '사찰여행', '역사', '원불교', '자연속으로', '자연환경']",https://cdn.visitkorea.or.kr/img/call?cmd=VIEW&id=undefined&thumb,서울특별시 동작구 서달로 50-26,37.4984254,126.9622588
답십리 고미술상가,서울 동대문구,02-2249-0336,"['가족과함께', '고미술', '고미술품', '골동품', '관광지', '기념물판매', '남녀노소']",https://cdn.visitkorea.or.kr/img/call?cmd=VIEW&id=61e55664-dfe2-414a-bf8f-dfb2d770638c&thumb,서울특별시 동대문구 고미술로 99,37.5641569,127.0577532
당고개순교성지,서울 용산구,02-711-0933,"['관광지', '역사', '역사공부', '역사관광지', '역사를품은곳', '역사문화재', '역사속']",https://cdn.visitkorea.or.kr/img/call?cmd=VIEW&id=30dd5d05-b49f-48c0-828b-1b65eec05c86&thumb,서울특별시 용산구 청파로 139-26,37.5340057,126.9668768
대각사,서울 종로구,02-744-4502,"['관광지', '불교', '불교문화', '사찰', '사찰여행', '역사', '자연속으로', '자연환경']",https://cdn.visitkorea.or.kr/img/call?cmd=VIEW&id=8661b9bc-b79a-411b-bbb3-39f24799045d&thumb,서울특별시 종로구 율곡로10길 87,37.5736214,126.9918747
대림동 차이나타운,서울 영등포구,02-2670-1419,"['관광지', '맛집골목', '맛집여행', '맛집투어', '먹자골목', '수타짜장면', '유명중국집']",https://cdn.visitkorea.or.kr/img/call?cmd=VIEW&id=7b96df43-d3cb-4660-9531-070789d91efe&thumb,서울특별시 영등포구 대림동,37.4955091,126.899438
대모산공원,서울 강남구,02-3423-6283,"['강남', '공원', '관광지', '대모산공원', '도심공원', '산책길', '산책하기', '산책하기좋은곳']",https://cdn.visitkorea.or.kr/img/call?cmd=VIEW&id=65fc41da-56aa-4efb-a6cd-a1b83753a4f5&thumb,서울특별시 강남구 광평로10길 50,37.4805253,127.0824996
대성사(서울),서울 서초구,02-583-1475,"['가족여행', '관광지', '대성사(서울)', '불교', '불교문화', '사찰', '사찰&산사', '사찰여행']",https://cdn.visitkorea.or.kr/img/call?cmd=VIEW&id=e81ef262-431f-4705-8366-ce012084e332&thumb,서울특별시 서초구 남부순환로328길 49,37.4760556,127.0134378
대원군별장,서울 종로구,02-2148-1822,"['관광지', '대원군별장', '석파정', '수도권', '역사', '역사공부', '역사관광지', '역사를품은곳']",https://cdn.visitkorea.or.kr/img/call?cmd=VIEW&id=378540d5-ab25-4eda-92fb-50ab287e5d21&thumb,서울특별시 종로구 자하문로 309,37.5991812,126.958681
대학로,서울 종로구,02-2148-1853,"['가족여행', '관광지', '나홀로여행', '당일치기여행', '대학로', '데이트코스', '도심여행']",https://cdn.visitkorea.or.kr/img/call?cmd=VIEW&id=5e0e6223-ddba-4af9-8e19-fc4c193b01fc&thumb,서울특별시 종로구 혜화로 12,37.5897083,127.0002449
대한민국 임시정부 서울연통부 터,서울 중구,02-3396-5842,"['관광지', '근대역사', '아이와함께', '역사공부', '역사관광', '역사를품은곳', '역사문화관광']",https://cdn.visitkorea.or.kr/img/call?cmd=VIEW&id=2e668bbf-d67c-4019-9963-fee84e670e9c&thumb,서울특별시 중구 서소문로9길 14,37.5631273,126.9700889
대한성공회 서울주교좌성당,서울 중구,02-730-6611,"['가족여행', '관광지', '대한성공회서울주교좌성당', '성당', '수도권', '역사공부']",https://cdn.visitkorea.or.kr/img/call?cmd=VIEW&id=dafe61a1-4987-4bbf-8357-81da0abb58a2&thumb,서울특별시 중구 세종대로21길 15,37.5672919,126.9754729
대한제국군 서울시가 전투지,서울 중구,02-3396-5842,"['관광지', '대한제국군서울시가전투지', '수도권', '역사', '역사공부', '역사를품은곳']",https://cdn.visitkorea.or.kr/img/call?cmd=VIEW&id=9b4820bc-b604-4a79-b61d-a70f2cc043e2&thumb,서울특별시 중구 세종대로 39,37.5606707,126.9737639
더 스파 인 가든파이브,서울 송파구,02-404-2700,"['가족여행', '관광지', '더스파인가든파이브', '도심여행', '뷰티&스파', '아이와함께']",https://cdn.visitkorea.or.kr/img/call?cmd=VIEW&id=99e56cb2-cad4-48b6-90ed-ebc5690de8ed&thumb,서울특별시 송파구 충민로 10,37.4782316,127.1193703
덕수궁,서울 중구,02-771-9951,"['15_16한국관광100선', '17_18한국관광100선', '19_20한국관광100선', '가족여행']",https://cdn.visitkorea.or.kr/img/call?cmd=VIEW&id=e5add16c-1c2b-4d66-906e-9db36d3fad36&thumb,서울특별시 중구 세종대로 99,37.5658705,126.9750079
덕수궁 대한문,서울 중구,02-771-9951,"['19_20한국관광100선', '가족여행', '고궁', '관광지', '교과서속여행', '덕수궁대한문']",https://cdn.visitkorea.or.kr/img/call?cmd=VIEW&id=64298c31-a282-4d55-9a3b-a49565167538&thumb,서울특별시 중구 세종대로 99,37.5658705,126.9750079
덕수궁 돌담길,서울 중구,02-120,"['걷기길', '걷기여행', '걷기좋은곳', '고궁', '관광지', '덕수궁돌담길', '데이트장소추천']",https://cdn.visitkorea.or.kr/img/call?cmd=VIEW&id=0545a6d6-4c06-49ee-9896-cdd40ab4e8be&thumb,서울특별시 중구 세종대로 지하 101,37.5657037,126.9768616
도봉산,서울 도봉구,031-828-8000,"['가족여행', '관광지', '당일치기여행', '도봉산', '등산', '등산로', '사계절', '서울근교여행']",https://cdn.visitkorea.or.kr/img/call?cmd=VIEW&id=656006bb-0e2f-4ac4-a78d-de4418c2dc37&thumb,서울특별시 도봉구 도봉산길,37.6879391,127.0336271
도봉서원,서울 도봉구,02-2091-2262,"['관광지', '교과서속여행', '기념물', '도봉서원', '서원', '수도권', '역사', '역사공부']",https://cdn.visitkorea.or.kr/img/call?cmd=VIEW&id=a4d45562-a7fe-4bc1-9bd2-9f39cceb3f5e&thumb,서울특별시 도봉구 도봉산길 90,37.6881311,127.0291241
도산공원,서울 강남구,02-543-2558,"['가족여행', '걷기여행', '관광지', '나들이', '당일치기여행', '도산공원', '사계절']",https://cdn.visitkorea.or.kr/img/call?cmd=VIEW&id=5d1eb9df-b7d6-45bd-bfef-88039712b05f&thumb,서울특별시 강남구 도산대로45길 20,37.5239121,127.0355914
도선사(서울),서울 강북구,02-993-3161,"['관광지', '불교', '불교문화', '불교사찰', '사찰', '사찰여행', '역사', '자연속으로']",https://cdn.visitkorea.or.kr/img/call?cmd=VIEW&id=b8525676-55d3-42ee-ba74-007d708494ff&thumb,서울특별시 강북구 삼양로173길 504,37.6554935,126.9897725
도시농업공원,서울 양천구,02-2620-3578,"['가족과함께', '관광지', '남녀노소', '산책길', '산책코스', '산책하기좋은곳', '서울산책']",https://cdn.visitkorea.or.kr/img/call?cmd=VIEW&id=6e4358ce-8118-41af-9447-0757c9e95bc2&thumb,서울특별시 양천구 신월동,37.519981,126.8365553
도안사,서울 노원구,02-936-5936,"['관광지', '도안사', '불교', '불교문화', '사찰', '사찰여행', '수도권', '역사', '자연좋은곳']",https://cdn.visitkorea.or.kr/img/call?cmd=VIEW&id=4fcfc399-1649-4e88-a03d-c04f808f2e1a&thumb,서울특별시 노원구 덕릉로145길 99,37.6838446,127.0854407
독립관,서울 서대문구,02-365-4388,"['관광지', '역사', '역사공부', '역사관광지', '역사를품은곳', '역사문화재', '역사속']",https://cdn.visitkorea.or.kr/img/call?cmd=VIEW&id=ae70fc8e-73c7-4c0d-814a-73cda673cab2&thumb,서울특별시 서대문구 통일로 251,37.5743009,126.9559178
독립문,서울 서대문구,02-120,"['관광지', '교과서속여행', '독립문', '수도권', '역사', '역사공부', '역사를품은곳']",https://cdn.visitkorea.or.kr/img/call?cmd=VIEW&id=dbdb6543-6117-47f0-99df-49c27c3432cc&thumb,서울특별시 서대문구 통일로 251,37.5743009,126.9559178
동대문 문구완구거리,서울 종로구,,"['관광지', '남녀노소', '동대문구', '동대문문구완구거리', '문구거리', '문구완구']",https://cdn.visitkorea.or.kr/img/call?cmd=VIEW&id=a643a787-60eb-46b3-bf89-7ff56ca695a5&thumb,서울특별시 종로구 종로52길 36,37.571189,127.0144381
동대문디자인플라자(DDP),서울 중구,02-2153-0000,"['19_20한국관광100선', 'DDP', '관광지', '동대문디자인플라자', '복합문화공간']",https://cdn.visitkorea.or.kr/img/call?cmd=VIEW&id=8ca023c1-2ca1-403d-aa85-b776867cf1c4&thumb,서울특별시 중구 을지로 281,37.5667521,127.0101046
동대문역사문화공원,서울 중구,02-2266-7188,"['가족여행', '걷기좋은길', '관광지', '데이트코스', '동대문역사문화공원', '사계절']",https://cdn.visitkorea.or.kr/img/call?cmd=VIEW&id=783a2a83-0f81-4ee0-ba14-b09b70e20603&thumb,서울특별시 중구 을지로 281,37.5667521,127.0101046
동십자각,서울 종로구,02-2148-1842,"['관광지', '교과서속여행', '동십자각', '문화재', '수도권', '역사', '역사공부', '역사관광지']",https://cdn.visitkorea.or.kr/img/call?cmd=VIEW&id=580c7ac6-d50a-4b8e-a1d4-b78f25289232&thumb,서울특별시 종로구 삼청로 1,37.5760934,126.9794415
드래곤힐스파(용산),서울 용산구,02-792-0001,"['가족과함께', '경락', '관광지', '기념촬영', '드래곤힐스파', '발마사지', '스포츠마사지']",https://cdn.visitkorea.or.kr/img/call?cmd=VIEW&id=181c02df-6306-4933-b303-f9d8ff29adab&thumb,서울특별시 용산구 한강대로21나길 40,37.5273486,126.9640848
디지털 파빌리온,서울 마포구,02-2132-0500,"['VR체험', '관광지', '교육프로그램', '디지털파빌리온', '산업관광', '수도권', '아이와함께']",https://cdn.visitkorea.or.kr/img/call?cmd=VIEW&id=c77d1a81-4c54-4284-a1fd-4e7830fceffd&thumb,서울특별시 마포구 월드컵북로 396,37.5791192,126.8902941
레일크루즈 해랑열차,서울 용산구,1544-7755,"['관광지', '기차여행', '부모님과함께', '전국여행', '체험', '추억여행', '친구와함께']",https://cdn.visitkorea.or.kr/img/call?cmd=VIEW&id=0fdc8d27-4fd0-466a-97ba-c5ed219d5118&thumb,서울특별시 용산구 한강대로 405,37.5490645,126.9704658
로렌스길,서울 마포구,02-3153-8353,"['골목길', '골목문화공간', '골목식당', '골목여행', '관광지', '데이트장소추천']",https://cdn.visitkorea.or.kr/img/call?cmd=VIEW&id=5e46fc93-e1a0-411a-b98c-0dc515e8c4aa&thumb,서울특별시 마포구 상수동,37.5454728,126.9244174
롯데월드,서울 송파구,1661-2000,"['17_18한국관광100선', '19_20한국관광100선', '가족여행', '관광지', '놀이동산']",https://cdn.visitkorea.or.kr/img/call?cmd=VIEW&id=25f5083f-3d6f-4154-905f-0383b5de8c47&thumb,서울특별시 송파구 올림픽로 240,37.5112348,127.0980274
롯데월드타워 서울스카이,서울 송파구,1661-2000,"['가족여행', '경치좋은곳', '관광지', '롯데월드타워서울스카이', '사계절', '서울데이트장소']",https://cdn.visitkorea.or.kr/img/call?cmd=VIEW&id=6a6ede08-657e-42b8-a18a-6dcb74d225cf&thumb,서울특별시 송파구 올림픽로 300,37.5213517,127.1026097
롯데월드타워&롯데월드몰,서울 송파구,02-3213-5000,"['관광지', '데이트코스', '도심여행', '롯데월드타워&롯데월드몰', '문화행사']",https://cdn.visitkorea.or.kr/img/call?cmd=VIEW&id=7f9a94d3-a7aa-4d8b-97b7-c153704bfdb3&thumb,서울특별시 송파구 올림픽로 300,37.5213517,127.1026097
류순정류홍부자 묘역,서울 구로구,02-860-2278,"['관광지', '역사공부', '역사관광지', '역사를품은곳', '역사문화재', '역사속', '역사속으로']",https://cdn.visitkorea.or.kr/img/call?cmd=VIEW&id=2877a7d0-faa0-45cd-b7b6-211071b9127d&thumb,서울특별시 구로구 오류동,37.4901258,126.8385254
마로니에공원,서울 종로구,02-2148-4158,"['가족여행', '걷기여행', '관광지', '나들이', '당일치기여행', '데이트코스', '마로니에공원']",https://cdn.visitkorea.or.kr/img/call?cmd=VIEW&id=f9e21cf7-c347-4150-a930-604c228b69f5&thumb,서울특별시 종로구 대학로 104,37.5804885,127.0024063
마포 문화비축기지,서울 마포구,02-376-8410,"['관광지', '마포문화비축기지', '문화비축기지', '산업관광', '산업관광지', '수도권']",https://cdn.visitkorea.or.kr/img/call?cmd=VIEW&id=0158f3a4-1a3a-402c-8094-f26d3e8c987d&thumb,서울특별시 마포구 증산로 87,37.5709869,126.894132
마포대교 야경,서울 마포구,02-3153-8365,"['걷기', '관광지', '데이트코스', '도심여행', '드라이브여행', '마포대교', '마포대교야경']",https://cdn.visitkorea.or.kr/img/call?cmd=VIEW&id=4aca8bc6-d574-4f7f-8533-7dc364a89fc3&thumb,서울특별시 마포구 마포동,37.5368623,126.9435802
마포전차종점 3·1운동 만세 시위지,서울 마포구,02-3153-8372,"['3·1운동_100주년_여행지추천', '관광지', '마포전차종점3·1운동만세시위지']",https://cdn.visitkorea.or.kr/img/call?cmd=VIEW&id=8eded65c-2011-476e-9aa4-1e028fd2c205&thumb,서울특별시 마포구 마포대로 20,37.5383875,126.9449745
마포중앙도서관,서울 마포구,02-3153-5800,"['관광지', '도서관']",https://cdn.visitkorea.or.kr/img/call?cmd=VIEW&id=176197f1-ff1a-484c-aef9-19782aa37ed9&thumb,서울특별시 마포구 성산로 128,37.5633288,126.9078837
만월암(서울),서울 도봉구,02-955-3719,"['관광지', '불교', '불교문화', '사찰', '사찰여행', '역사', '자연속으로', '자연환경']",https://cdn.visitkorea.or.kr/img/call?cmd=VIEW&id=null&thumb,서울특별시 도봉구 도봉산길 92-4,37.6968262,127.0176249
만해한용운심우장,서울 성북구,02-2241-2632,"['가족과함께', '관광지', '아이와함께', '역사', '역사공부', '역사관광지', '역사를품은곳']",https://cdn.visitkorea.or.kr/img/call?cmd=VIEW&id=9a0f6893-92a4-4cfe-a6cf-9cf960fd8c7d&thumb,서울특별시 성북구 성북로29길 24,37.5935497,126.9916716
망우리 시민공원,서울 중랑구,02-434-3337,"['관광지', '산책로', '산책하기', '산책하기좋은곳', '역사공부', '역사를품은곳']",https://cdn.visitkorea.or.kr/img/call?cmd=VIEW&id=14e41414-1fcf-443d-a069-e3d324106a0b&thumb,서울특별시 중랑구 망우로 570,37.5977195,127.0932913
망우산(서울),서울 중랑구,02-2094-2357,"['관광지', '등산', '망우산', '산책로', '수도권', '자연', '트레킹']",https://cdn.visitkorea.or.kr/img/call?cmd=VIEW&id=03acbaaa-d80d-4bd0-a7a2-8898c7069bc2&thumb,서울특별시 중랑구 망우동 산 69-1,37.5958179,127.1032459
망원정지,서울 마포구,02-3153-8372,"['관광지', '기념물', '망원정지', '문화재', '수도권', '역사', '역사공부', '역사관광지']",https://cdn.visitkorea.or.kr/img/call?cmd=VIEW&id=75803d73-ebf4-4cf7-9a42-4689eeb0afc8&thumb,서울특별시 마포구 동교로8안길 23,37.5497388,126.9046112
맥아더 사령관 한강방어선 시찰지,서울 영등포구,02-2670-3717,"['관광지', '맥아더사령관한강방어선시찰지', '수도권', '역사', '역사공부', '역사를품은곳']",https://cdn.visitkorea.or.kr/img/call?cmd=VIEW&id=ca8e3d55-732d-4a1b-ab42-27f62b3753f9&thumb,서울특별시 영등포구 신길로 275,37.5157786,126.9122002
명동,서울 중구,02-778-0333,"['15_16한국관광100선', '17_18한국관광100선', '19_20한국관광100선', '관광지']",https://cdn.visitkorea.or.kr/img/call?cmd=VIEW&id=1ec32eb6-aac2-4c5a-9e56-9ac1c817afd6&thumb,서울특별시 중구 을지로 66,37.5653249,126.9849538
명동 남대문 북창동 다동무교동 관광특구,서울 중구,02-3396-4622,"['관광지', '기념품판매', '데이트코스', '도심여행', '명동남대문북창동다동무교동관광특구']",https://cdn.visitkorea.or.kr/img/call?cmd=VIEW&id=8bd2e9e9-4ac2-4d01-87c7-0ee668f02a4d&thumb,서울특별시 중구 세종대로 40,37.5599416,126.9753042
명동관광정보센터,서울 중구,02-778-0333,"['관광정보', '관광지', '관광코스정보', '교통정보', '국내여행정보', '맛집정보']",https://cdn.visitkorea.or.kr/img/call?cmd=VIEW&id=503d737b-2a0f-4a52-bed2-c061fab88ac8&thumb,서울특별시 중구 을지로 66,37.5653249,126.9849538
명성황후 조난지,서울 종로구,02-3700-3900,"['경복궁', '관광지', '명성황후', '역사', '역사공부', '역사관광지', '역사를품은곳']",https://cdn.visitkorea.or.kr/img/call?cmd=VIEW&id=3c8efc26-c036-4403-8f2e-10527f8fc9ee&thumb,서울특별시 종로구 사직로 161,37.5773616,126.9766844
목멱산봉수대터,서울 중구,02-3396-5842,"['관광지', '역사', '역사공부', '역사관광지', '역사를품은곳', '역사문화재', '역사속']",https://cdn.visitkorea.or.kr/img/call?cmd=VIEW&id=d68c24e3-f32c-478b-bb97-b28446405793&thumb,서울특별시 중구 남산공원길 125-72,37.5580879,126.9868818
몽마르뜨공원,서울 서초구,02-2155-6860,"['가족과함께', '공원', '관광지', '몽마르뜨공원', '산책', '산책길', '산책하기', '산책하기좋은곳']",https://cdn.visitkorea.or.kr/img/call?cmd=VIEW&id=fa0edc23-fa2a-4e5b-ae8f-575c948dfb09&thumb,서울특별시 서초구 반포대로37길 59,37.4955596,127.0024831
묘각사(서울),서울 종로구,02-763-3109,"['관광지', '불교', '불교문화', '사찰', '사찰여행', '역사', '자연속으로', '자연좋은곳']",https://cdn.visitkorea.or.kr/img/call?cmd=VIEW&id=8807ff73-9dd6-4197-9a09-54299c97642a&thumb,서울특별시 종로구 종로63가길 31,37.5754815,127.0187537
무궁화동산,서울 종로구,02-2148-2841,"['공원', '관광지', '무궁화', '무궁화공원', '산책길', '산책코스', '산책하기', '산책하기좋은곳']",https://cdn.visitkorea.or.kr/img/call?cmd=VIEW&id=6c64aa77-58f9-45f3-8371-d6d090c6be43&thumb,서울특별시 종로구 궁정동,37.5850029,126.9732194
무악산 동봉수대 터,서울 서대문구,02-330-1121,"['관광지', '역사', '역사공부', '역사관광지', '역사를품은곳', '역사문화재', '역사속']",https://cdn.visitkorea.or.kr/img/call?cmd=VIEW&id=a35f3c1c-799e-455b-8532-c6427e79a554&thumb,서울특별시 서대문구 봉원동,37.5725233,126.9469831
무중력지대 양천,서울 양천구,02-2646-2030,"['가족과함께', '관광지', '남녀노소', '문화공간', '복합문화공간', '아이와함께']",https://cdn.visitkorea.or.kr/img/call?cmd=VIEW&id=861be554-a2e7-4f2d-adf9-3fd91fb62841&thumb,서울특별시 양천구 오목로 359,37.5245067,126.862375
문래예술공장,서울 영등포구,02-2676-4300,"['관광지', '데이트장소추천', '문화공간', '복합문화공간', '산책길', '산책하기']",https://cdn.visitkorea.or.kr/img/call?cmd=VIEW&id=7ff882ef-7a75-46c0-b998-b131ed44476f&thumb,서울특별시 영등포구 경인로88길 5-4,37.5130462,126.9001786
문수사(서울),서울 종로구,02-391-2062,"['관광지', '불교', '불교문화', '사찰', '사찰여행', '역사', '자연속으로', '자연환경']",https://cdn.visitkorea.or.kr/img/call?cmd=VIEW&id=null&thumb,서울특별시 종로구 비봉2길 304,37.6312866,126.9726588
문화역 서울 284,서울 중구,02-3407-3500,"['공간투어', '관광지', '구서울역사', '근대문화유산', '근대산업유산', '문화역서울284']",https://cdn.visitkorea.or.kr/img/call?cmd=VIEW&id=ee0767bc-7c3e-44dc-b93d-64a3cb5db736&thumb,서울특별시 중구 통일로 1,37.5560186,126.9721029
문화철도 959,서울 구로구,070-7678-0002,"['관광지', '문화공간', '문화예술', '복합문화공간', '아이와함께', '종합예술', '휴식공간']",https://cdn.visitkorea.or.kr/img/call?cmd=VIEW&id=6f31d245-9cba-46b2-84cb-124c4ea4167b&thumb,서울특별시 구로구 경인로 688,37.4984887,126.8601539
미타사(강서),서울 강서구,02-2662-4736,"['관광지', '불교', '불교문화', '사찰', '사찰여행', '역사', '자연속으로', '자연환경']",https://cdn.visitkorea.or.kr/img/call?cmd=VIEW&id=3ba5ff09-b01f-4d6b-864b-82d680395f80&thumb,서울특별시 강서구 개화동로13길 56-33,37.5805057,126.8031285
미타사(성동),서울 성동구,02-2298-3377,"['관광지', '불교', '불교문화', '사찰', '사찰여행', '역사', '자연속으로', '자연환경']",https://cdn.visitkorea.or.kr/img/call?cmd=VIEW&id=0ff93c17-cd19-4bdd-aa55-b1aa3f66943a&thumb,서울특별시 성동구 독서당로40길 21,37.5440479,127.0176834
미타사(성북),서울 성북구,02-923-0492,"['관광지', '불교', '불교문화', '사찰', '사찰여행', '역사', '자연속으로', '자연환경']",https://cdn.visitkorea.or.kr/img/call?cmd=VIEW&id=4b8166b0-98ef-4659-91a7-5a79bd949a67&thumb,서울특별시 성북구 보문사길 6-16,37.5851174,127.0159687
민영환 자결터,서울 종로구,02-2148-1842,"['관광지', '교과서속여행', '기념비', '민영환자결터', '수도권', '역사', '역사공부']",https://cdn.visitkorea.or.kr/img/call?cmd=VIEW&id=7d871824-e2a8-474d-9945-d2cc0ff527b0&thumb,서울특별시 종로구 공평동,37.5711946,126.9830812
반공 청년운동 순국 열사 기념비,서울 중구,02-2238-2172,"['관광지', '반공청년운동순국열사기념비', '수도권', '역사', '역사공부', '역사관광지']",https://cdn.visitkorea.or.kr/img/call?cmd=VIEW&id=06fcbd99-d712-459c-8ca0-395574a378e4&thumb,서울특별시 중구 남산공원길 125-72,37.5580879,126.9868818
반공순국용사 위령탑,서울 영등포구,1577-0606,"['관광지', '반공순국용사위령탑', '사계절', '수도권', '아이와함께', '애국정신']",https://cdn.visitkorea.or.kr/img/call?cmd=VIEW&id=d104ecf9-1761-42e3-b350-e950654ebdc0&thumb,서울특별시 영등포구 신길1동 20-4,37.5171254,126.9186432
반포 서래섬,서울 서초구,02-3780-0541,"['관광지', '자연']",https://cdn.visitkorea.or.kr/img/call?cmd=VIEW&id=be9ba17c-9000-49b5-b2df-efd29fa511cb&thumb,서울특별시 서초구 신반포로11길 40,37.5076669,126.9927035
반포대교 달빛무지개분수,서울 서초구,02-3780-0578,"['감성사진', '경치좋은곳', '관광지', '데이트코스', '반포대교', '반포대교달빛무지개분수']",https://cdn.visitkorea.or.kr/img/call?cmd=VIEW&id=74dfb828-6bb2-4e4b-ac29-f1bf00ac4924&thumb,서울특별시 서초구 신반포로11길 40,37.5076669,126.9927035
반포한강공원,서울 서초구,02-3780-0541,"['걷기길', '관광지', '나들이', '도심여행', '반포한강공원', '수도권', '야간관광100선']",https://cdn.visitkorea.or.kr/img/call?cmd=VIEW&id=7f663eac-607e-4d05-9dbd-1ba7c7f5cef7&thumb,서울특별시 서초구 신반포로11길 40,37.5076669,126.9927035
방이동 생태경관 보전지역,서울 송파구,02-2147-3380,"['관광지', '방이동생태경관보전지역', '생태', '수도권', '자연']",https://cdn.visitkorea.or.kr/img/call?cmd=VIEW&id=07f5e04f-d09a-4722-8cbe-5f1ad214457c&thumb,서울특별시 송파구 동남로 397,37.5115439,127.1398281
방화대교,서울 강서구,02-120,"['가족과함께', '건축물', '관광지', '남녀노소', '다리', '대교', '방화대교', '서울야경']",https://cdn.visitkorea.or.kr/img/call?cmd=VIEW&id=d049e1ee-bdfb-4952-9861-8c5196092a76&thumb,서울특별시 강서구 방화동,37.5764563,126.813873
백련사(서울),서울 서대문구,02-302-0288,"['관광지', '불교', '불교문화', '불교사찰', '사찰', '사찰여행', '역사', '자연속으로']",https://cdn.visitkorea.or.kr/img/call?cmd=VIEW&id=1502fccc-6895-4252-8047-1f26fcb7dcfb&thumb,서울특별시 서대문구 백련사길 170-43,37.5861934,126.9273572
백련사(서울),서울 강북구,02-990-7058,"['관광지', '불교', '불교문화', '사찰', '사찰여행', '역사', '자연속으로', '자연환경']",https://cdn.visitkorea.or.kr/img/call?cmd=VIEW&id=672ee705-ef3b-44d7-8431-2293503c43b6&thumb,서울특별시 강북구 4.19로20길 142,37.4861813,126.996234
백마고지 3용사의 상,서울 광진구,02-450-9327,"['관광지', '백마고지3용사의상', '수도권', '역사', '역사공부', '역사관광지', '역사를품은곳']",https://cdn.visitkorea.or.kr/img/call?cmd=VIEW&id=2b349939-f660-4112-9310-c1bb18e4d0b3&thumb,서울특별시 광진구 능동로 216,37.549363,127.0818126
백범김구선생상(백범 광장),서울 중구,02-3396-5856,"['3·1운동_100주년_여행지추천', '가족여행', '관광지', '나들이', '도심여행']",https://cdn.visitkorea.or.kr/img/call?cmd=VIEW&id=54839373-6190-452b-a75a-4e1a61dd5146&thumb,서울특별시 중구 회현동,37.5572302,126.9793303
백사실계곡,서울 종로구,02-2148-1114,"['가족여행', '경치좋은곳', '관광지', '백사실계곡', '서울여행', '여름가볼만한곳']",https://cdn.visitkorea.or.kr/img/call?cmd=VIEW&id=edca2878-3371-4e97-9080-c7d79ed9e718&thumb,서울 종로구 부암동 115,37.6003837,126.9663265
백인제가옥,서울 종로구,02-724-0200,"['관광지', '근대한옥', '문화재', '백인제가옥', '수도권', '역사', '역사공부', '역사관광지']",https://cdn.visitkorea.or.kr/img/call?cmd=VIEW&id=013c646a-8349-4e4e-ad02-60e2ec511c67&thumb,서울특별시 종로구 북촌로7길 16,37.580642,126.9840665
보광사 보광선원(서울),서울 강북구,02-993-3808,"['관광지', '불교', '불교문화', '사찰', '사찰여행', '역사', '자연속으로', '자연환경']",https://cdn.visitkorea.or.kr/img/call?cmd=VIEW&id=5953b674-93d1-4305-801a-2de7d77ece4e&thumb,서울특별시 강북구 삼양로145길 176,37.6499531,127.0034326
보광사(서울),서울 용산구,02-793-6261,"['관광지', '불교', '불교문화', '사찰', '사찰여행', '역사', '역사속', '역사여행', '역사이야기']",https://cdn.visitkorea.or.kr/img/call?cmd=VIEW&id=b447da69-b3c7-49b6-9d8a-a038a49a8a25&thumb,서울특별시 용산구 장문로15나길 6,37.5270708,126.9974591
보나장신구박물관,서울 종로구,02-732-6621,"['가족과함께', '공예품', '관광지', '머리장식', '문화공간', '문화시설', '박물관']",https://cdn.visitkorea.or.kr/img/call?cmd=VIEW&id=f5032ac6-58e2-4750-9fab-94226e92e8ba&thumb,서울특별시 종로구 인사동9길 9,37.5735423,126.9845388
보라매공원,서울 동작구,02-120,"['걷기길', '관광지', '보라매공원', '산책길', '산책하기', '산책하기좋은곳', '수도권']",https://cdn.visitkorea.or.kr/img/call?cmd=VIEW&id=fbf5b097-91d7-442c-8f7b-907bf5a4fa7f&thumb,서울특별시 동작구 여의대방로20길 33,37.4932342,126.9197115
보라매안전체험관,서울 동작구,02-2027-4100,"['가족여행', '관광지', '교육여행', '미세먼지_피하는_실내여행', '박물관', '보라매안전체험관']",https://cdn.visitkorea.or.kr/img/call?cmd=VIEW&id=c66abbed-ebb4-4bf0-8c9d-7a4e5d102dcc&thumb,서울특별시 동작구 여의대방로20길 33,37.4932342,126.9197115
보문사(서울),서울 성북구,02-928-3797,"['관광지', '불교', '불교문화', '사찰', '사찰여행', '역사', '자연속으로', '자연환경']",https://cdn.visitkorea.or.kr/img/call?cmd=VIEW&id=88318dd3-7cf8-4a01-9e87-37bc1634fce8&thumb,서울특별시 성북구 보문사길 20,37.5844589,127.0160872
보성사터,서울 종로구,02-2148-1822,"['관광지', '교과서속여행', '근린공원', '보성사터', '산책하기좋은곳', '수도권']",https://cdn.visitkorea.or.kr/img/call?cmd=VIEW&id=3356a975-c727-4542-92a1-a57b47f1ee2c&thumb,서울특별시 종로구 수송동,37.5739802,126.9804234
보신각 터,서울 종로구,02-2133-2641,"['가족여행', '관광지', '교과서속여행', '당일치기여행', '보신각터', '서울근교여행']",https://cdn.visitkorea.or.kr/img/call?cmd=VIEW&id=70ec7801-b83a-4265-8a59-02dfb4acfadf&thumb,서울특별시 종로구 종로 54,37.5696848,126.98368
본원정사(서울),서울 강북구,02-902-7337,"['관광지', '불교', '불교문화', '사찰', '사찰여행', '역사', '자연속으로', '자연환경']",https://cdn.visitkorea.or.kr/img/call?cmd=VIEW&id=f5c4311e-72a3-4f33-9360-8b3333d427ee&thumb,서울특별시 강북구 삼각산로 1,37.6373881,127.005223
봉국사(서울),서울 성북구,02-919-021,"['관광지', '불교', '불교문화', '사찰', '사찰여행', '역사', '자연속으로', '자연환경']",https://cdn.visitkorea.or.kr/img/call?cmd=VIEW&id=fc2e85ea-f81f-4e11-9507-3102624fde86&thumb,서울특별시 성북구 정릉로 202,37.6039826,127.0086726
봉원사(서울),서울 서대문구,02-392-3007,"['관광지', '봉원사', '불교', '불교사찰', '사찰', '서울여행', '역사', '역사관광지']",https://cdn.visitkorea.or.kr/img/call?cmd=VIEW&id=3af9d7cb-9a91-4860-b2a7-f5c67120730b&thumb,서울특별시 서대문구 봉원사길 120,37.5718203,126.9475878
봉은사(서울),서울 강남구,02-3218-4800,"['가족여행', '관광지', '교과서속여행', '당일치기여행', '봉은사(서울)', '사찰&산사']",https://cdn.visitkorea.or.kr/img/call?cmd=VIEW&id=33bfc8dc-cb96-47dd-845c-56027d48ef93&thumb,서울특별시 강남구 봉은사로 531,37.5152006,127.0574369
봉천동 마애미륵불좌상,서울 관악구,02-879-5618,"['관광지', '역사', '역사공부', '역사관광지', '역사를품은곳', '역사문화재', '역사속']",https://cdn.visitkorea.or.kr/img/call?cmd=VIEW&id=cd7d81f2-cef9-431d-9658-6df933225d54&thumb,서울특별시 관악구 낙성대로15길 56-39,37.4675942,126.962866
봉화산(서울),서울 중랑구,02-2094-2353,"['관광지', '자연']",https://cdn.visitkorea.or.kr/img/call?cmd=VIEW&id=e7096905-fe11-40e2-bdf5-859d1a9972a1&thumb,서울특별시 중랑구 신내로21길,37.6140592,127.0889156
봉화산근린공원,서울 중랑구,02-2094-2361,"['공원', '관광지', '근린공원', '산책길', '산책코스', '산책하기좋은곳', '자연환경']",https://cdn.visitkorea.or.kr/img/call?cmd=VIEW&id=8067911d-6d3e-4ae5-9f77-13b3cff65934&thumb,서울특별시 중랑구 봉화산로45길,37.6051781,127.0885118
부암동,서울 종로구,02-2148-1807,"['걷기여행', '관광지', '데이트코스', '도심여행', '부암동', '브런치카페', '사계절']",https://cdn.visitkorea.or.kr/img/call?cmd=VIEW&id=f55c2952-b090-462c-abf2-5baa829c51ac&thumb,서울특별시 종로구 창의문로 145,37.592465,126.9641238
북서울 꿈의숲,서울 강북구,02-2289-4000,"['관광지', '나들이', '당일치기여행', '도심여행', '북서울꿈의숲', '산책하기좋은곳']",https://cdn.visitkorea.or.kr/img/call?cmd=VIEW&id=63fa0985-5118-4f18-84c9-914cfde60744&thumb,서울특별시 강북구 월계로 173,37.6214312,127.0406246
북악산,서울 종로구,02-765-0297 02-747-2152 02-730-9924,"['관광지', '자연']",https://cdn.visitkorea.or.kr/img/call?cmd=VIEW&id=8b06c5c5-b606-4491-9ce9-dd4cbf9f82fe&thumb,서울특별시 종로구 창의문로 42,37.5906062,126.9709242
북악산 숙정문,서울 성북구,02-747-2152,"['관광지', '역사', '역사공부', '역사관광지', '역사를품은곳', '역사문화재', '역사속']",https://cdn.visitkorea.or.kr/img/call?cmd=VIEW&id=968c27fd-a2e0-49b4-bd06-2fe076d9f785&thumb,서울특별시 성북구 대사관로 1,37.5961577,126.9848861
북악산생태탐방로,서울 종로구,02-730-9924,"['걷기길', '관광지', '북악산', '북악산생태탐방로', '생태관광', '생태관광지', '트레킹']",https://cdn.visitkorea.or.kr/img/call?cmd=VIEW&id=7bd16971-e1dd-4edc-b4bf-6ffcfd9a2c47&thumb,서울특별시 종로구 평창동 일원,37.6166689,127.0026616
북악스카이 팔각정,서울 종로구,02-725-6681,"['걷기길', '관광지', '도심여행', '북악스카이팔각정', '수도권', '야간관광100선']",https://cdn.visitkorea.or.kr/img/call?cmd=VIEW&id=de17f97a-27e0-47ec-b401-b6595c47faa5&thumb,서울특별시 종로구 북악산로 267,37.6019354,126.9805359
북정마을,서울 성북구,02-747-2152,"['골목투어', '관광지', '남녀노소', '문화예술', '문화예술창작공간', '문화예술활동']",https://cdn.visitkorea.or.kr/img/call?cmd=VIEW&id=227693d7-eecf-49b8-b9f0-832857804810&thumb,서울특별시 성북구 성북로23길 132-3,37.5927742,126.990972
북촌 8경,서울 종로구,02-2148-4161,"['감성사진', '경치좋은곳', '관광지', '근대한옥', '데이트장소추천', '북촌8경', '사진찍기좋은곳']",https://cdn.visitkorea.or.kr/img/call?cmd=VIEW&id=8dbcbfa5-4995-4373-95e8-98af0295594e&thumb,서울특별시 종로구 계동길 37,37.5790313,126.9864082
북촌한옥마을,서울 종로구,02-2148-4161,"['가족여행', '관광지', '나홀로여행', '당일치기여행', '데이트코스', '도심여행']",https://cdn.visitkorea.or.kr/img/call?cmd=VIEW&id=faa8c18d-8fcb-4771-bffc-c5173b45c5ce&thumb,서울특별시 종로구 계동길 37,37.5790313,126.9864082
북한산 생태탐방연수원,서울 도봉구,02-901-0700,"['관광지', '박물관', '북한산생태탐방연수원', '생태관광', '생태관광지', '체험학습']",https://cdn.visitkorea.or.kr/img/call?cmd=VIEW&id=6f626566-5879-421e-9f06-e812212e96f3&thumb,서울특별시 도봉구 도봉산길 86,37.6874789,127.0340839
북한산국립공원,서울 성북구,02-909-0497,"['걷기길', '관광지', '봄꽃여행', '북한산', '북한산국립공원', '북한산성', '생태관광']",https://cdn.visitkorea.or.kr/img/call?cmd=VIEW&id=4bc83c6a-8ecb-4c33-96df-a2bdcbb5a185&thumb,서울특별시 성북구 보국문로 176-11,37.6195359,127.000735
북한산국립공원(도봉 지구),서울 강북구,02-954-2566,"['관광지', '자연']",https://cdn.visitkorea.or.kr/img/call?cmd=VIEW&id=50be2168-cdd9-49ab-9ca8-85621d39c685&thumb,서울특별시 도봉구 도봉산길 86,37.6874789,127.0340839
북한산국립공원(서울),서울 성북구,02-909-0498,"['관광지', '북한산', '북한산국립공원', '생태', '생태관광', '생태관광지', '서울권']",https://cdn.visitkorea.or.kr/img/call?cmd=VIEW&id=c39c1522-fdbd-4e98-9f9a-59874fc8fbf6&thumb,서울특별시 성북구 보국문로 262,37.6195359,127.000735
불국사,서울 강남구,02-445-4543,"['관광지', '불교', '불교문화', '불국사', '사찰', '사찰여행', '수도권', '역사', '역사속']",https://cdn.visitkorea.or.kr/img/call?cmd=VIEW&id=272474c4-9fb5-4b8b-be7f-581b115069d6&thumb,서울특별시 강남구 광평로10길 30-71,37.4774118,127.0749332
불암산,서울 노원구,02-2116-3943,"['가족여행', '관광지', '당일치기여행', '등산', '등산로', '불암산', '사계절', '서울근교여행']",https://cdn.visitkorea.or.kr/img/call?cmd=VIEW&id=20162b52-0894-432d-9790-6bcaab71fc10&thumb,서울특별시 노원구 덕릉로130가길 22,37.6715954,127.0862663
브릭캠퍼스 서울,서울 성동구,02-2261-1393,"['가족과함께', '관광지', '남녀노소', '미세먼지_피하는_실내여행', '아이가_좋아하는_여행']",https://cdn.visitkorea.or.kr/img/call?cmd=VIEW&id=1ffb9860-88a5-4f97-ba3f-dcb436c3863d&thumb,서울특별시 성동구 서울숲2길 32-14,37.5463874,127.042291
브이알존 엑스 코엑스 직영점,서울 강남구,02-6002-5525,"['VR체험', '가상현실', '가족과함께', '관광지', '데이트장소', '삼성동', '스타필드코엑스몰']",https://cdn.visitkorea.or.kr/img/call?cmd=VIEW&id=e07f98f0-1e43-4d92-9e7f-796082e30e98&thumb,서울특별시 강남구 봉은사로 524,37.5101935,127.0585824
브이알존 큐브 강남점,서울 서초구,02-591-0770,"['VR체험', '관광지', '남녀노소', '실내데이트', '실내레포츠', '실내여행지', '아이가_좋아하는_여행']",https://cdn.visitkorea.or.kr/img/call?cmd=VIEW&id=2f017751-0d4d-46c4-8f97-d5efe89324a1&thumb,서울특별시 서초구 서초대로77길 25,37.4998999,127.0255759
사가정공원,서울 중랑구,02-2094-0000,"['걷기길', '관광지', '나들이', '사가정공원', '산책길', '산책하기', '산책하기좋은곳']",https://cdn.visitkorea.or.kr/img/call?cmd=VIEW&id=d9fcd045-f1df-4738-932e-7f2455c154fb&thumb,서울특별시 중랑구 사가정로72길 47,37.5792399,127.0959499
사육신공원,서울 동작구,02-820-1395,"['가족여행', '관광지', '교과서속여행', '당일치기여행', '사육신공원', '산책코스']",https://cdn.visitkorea.or.kr/img/call?cmd=VIEW&id=5b170f61-b214-442c-a41a-d177244a0ac9&thumb,서울특별시 동작구 노량진로 191,37.5136948,126.9488514
사자암(서울),서울 동작구,02-825-1046,"['관광지', '불교', '불교문화', '사찰', '사찰여행', '역사', '자연속으로', '자연환경']",https://cdn.visitkorea.or.kr/img/call?cmd=VIEW&id=null&thumb,서울특별시 동작구 국사봉1길 235-14,37.4923517,126.9370575
사직공원(서울),서울 종로구,02-2148-2834,"['관광지', '교과서속여행', '사직공원(서울)', '산책길', '산책하기', '산책하기좋은곳']",https://cdn.visitkorea.or.kr/img/call?cmd=VIEW&id=fe247095-382a-42f3-9a78-c90c2f9892d6&thumb,서울특별시 종로구 사직로9길 12,37.57676,126.9681294
산마루놀이터,서울 종로구,02-2148-2844,"['가족과함께', '관광지', '놀이공간', '산마루놀이터', '아이가_좋아하는_여행']",https://cdn.visitkorea.or.kr/img/call?cmd=VIEW&id=cc57810b-8f28-4ad6-9bc4-d9695e9b8dbf&thumb,서울특별시 종로구 창신동,37.5750914,127.0121575
살곶이체육공원,서울 성동구,02-2286-6090,"['걷기길', '관광지', '남녀노소', '산책길', '산책하기', '산책하기좋은곳', '살곶이체육공원']",https://cdn.visitkorea.or.kr/img/call?cmd=VIEW&id=0dc41229-56a9-4927-bcb0-0e7936ff1e1e&thumb,서울특별시 성동구 사근동길 16-18,37.5601502,127.0431109
삼각산,서울 강북구,02-901-6936,"['관광지', '자연']",https://cdn.visitkorea.or.kr/img/call?cmd=VIEW&id=48c1c843-f5aa-4b43-87ba-65d99853c34d&thumb,서울특별시 강북구 삼양로173길 460,37.6679006,126.9988537
삼성 딜라이트,서울 서초구,02-2255-2277,"['관광지', '산업관광', '산업관광지', '삼성딜라이트', '삼성전자홍보관', '수도권']",https://cdn.visitkorea.or.kr/img/call?cmd=VIEW&id=2b26b9a1-5d51-4333-a580-d7f607b54f98&thumb,서울특별시 서초구 서초대로74길 11,37.4966085,127.0269023
삼성산성지,서울 관악구,02-875-2271,"['관광지', '산책길', '산책하기', '산책하기좋은곳', '역사', '역사공부', '역사속']",https://cdn.visitkorea.or.kr/img/call?cmd=VIEW&id=0ace0861-3953-46e9-a26b-1448e757d3c5&thumb,서울특별시 관악구 호암로 454-16,37.456689,126.9291554
삼성암(서울),서울 강북구,02-988-1996,"['관광지', '불교', '불교문화', '사찰', '사찰여행', '역사', '자연속으로', '자연환경']",https://cdn.visitkorea.or.kr/img/call?cmd=VIEW&id=null&thumb,서울특별시 강북구 인수봉로23길 235,37.630339,127.0031599
삼천사(서울),서울 은평구,02-353-3004,"['관광지', '도심여행', '불교', '불교문화', '불교사찰', '사찰', '사찰여행', '서울삼천사']",https://cdn.visitkorea.or.kr/img/call?cmd=VIEW&id=9be62b2e-122e-4126-ae51-66bf285425c7&thumb,서울특별시 은평구 연서로54길 127,37.642433,126.9459794
삼청공원,서울 종로구,02-2148-4150,"['가족여행', '걷기여행', '관광지', '나들이', '당일치기여행', '사계절', '삼청공원']",https://cdn.visitkorea.or.kr/img/call?cmd=VIEW&id=4a03f5a6-eb1c-49bc-aca5-d42fc9675969&thumb,서울특별시 종로구 북촌로 134-3,37.5893704,126.9803132
삼청동길,서울 종로구,02-120,"['관광지', '데이트장소추천', '도심여행', '산책길', '산책하기', '산책하기좋은곳']",https://cdn.visitkorea.or.kr/img/call?cmd=VIEW&id=9b2ca956-e1fa-4c90-a3ab-8dca6139f9b2&thumb,서울특별시 종로구 삼청로 107,37.5849659,126.9818441
삼청동오위장김춘영가옥,서울 중구,02-3396-5842,"['관광지', '역사', '역사공부', '역사관광지', '역사를품은곳', '역사문화재', '역사속']",https://cdn.visitkorea.or.kr/img/call?cmd=VIEW&id=8b0444cf-97b2-44f9-9a13-ee84e016bd95&thumb,서울특별시 중구 퇴계로34길 28,37.5588388,126.9940727
삼해소주가,서울 종로구,070-8202-9165,"['관광지', '남녀노소', '삼해소주가', '서울무형문화재', '수도권', '우리술', '이색체험']",https://cdn.visitkorea.or.kr/img/call?cmd=VIEW&id=53eb6eb8-cac8-4f8f-bfaf-6984992a40af&thumb,서울특별시 종로구 창덕궁길 142,37.583241,126.9879962
상동교회,서울 중구,02-752-1136,"['관광지', '상동교회', '수도권', '아이와함께', '역사', '역사공부', '역사를품은곳']",https://cdn.visitkorea.or.kr/img/call?cmd=VIEW&id=983120e8-39e2-42d4-bbc9-985e54eabaf3&thumb,서울특별시 중구 남대문로 30,37.5616373,126.9788396
상수동 카페거리,서울 마포구,02-3153-8353,"['관광지', '데이트', '분위기좋은카페', '서울카페', '연인과함께', '이색카페', '체험']",https://cdn.visitkorea.or.kr/img/call?cmd=VIEW&id=7039d686-cecb-4d32-9bc7-9776ae4a8c81&thumb,서울특별시 마포구 상수동,37.5454728,126.9244174
상허이태준가옥(수연산방),서울 성북구,02-764-1736,"['관광지', '문화재', '상허이태준가옥', '수도권', '수연산방', '역사', '역사공부']",https://cdn.visitkorea.or.kr/img/call?cmd=VIEW&id=6c6e9ef9-b2d7-41d0-a68e-9adce3be696a&thumb,서울특별시 성북구 성북로26길 8,37.5950128,126.9948259
새남터기념성당,서울 용산구,02-716-1791,"['가족여행', '관광지', '근대문화유산', '당일치기여행', '새남터기념성당', '서울근교여행']",https://cdn.visitkorea.or.kr/img/call?cmd=VIEW&id=3d56414f-fb62-4096-af14-fe24923c1548&thumb,서울특별시 용산구 이촌로 80-8,37.5248425,126.9569842
생명보험교육문화센터,서울 종로구,02-2262-6549,"['관광지', '산업관광', '산업관광지', '생명보험교육문화센터', '수도권', '아이와함께']",https://cdn.visitkorea.or.kr/img/call?cmd=VIEW&id=998c46ef-bbdb-47f0-b91d-a5b8bf6046ef&thumb,서울특별시 종로구 새문안로5길 31 센터포인트 B/D 3층,37.573135,126.9742155
서대문독립공원,서울 서대문구,02-3140-8305,"['걷기길', '관광지', '교과서속여행', '서대문독립공원', '수도권', '아이와함께']",https://cdn.visitkorea.or.kr/img/call?cmd=VIEW&id=0a295085-e229-478c-820a-773fa97c8c3e&thumb,서울특별시 서대문구 통일로 251,37.5743009,126.9559178
서래마을,서울 서초구,,"['관광지', '남녀노소', '도심여행', '문화', '산책하기', '산책하기좋은곳', '서래마을']",https://cdn.visitkorea.or.kr/img/call?cmd=VIEW&id=84f5e5cc-cf7a-4913-9666-3cb94c14b5ff&thumb,서울특별시 서초구 반포동,37.5031833,127.0079167
서빙고동 부군당,서울 용산구,02-2199-7245,"['관광지', '역사', '역사공부', '역사관광지', '역사를품은곳', '역사문화재', '역사속']",https://cdn.visitkorea.or.kr/img/call?cmd=VIEW&id=33e07d64-2087-4399-94ef-2cf1725a11a8&thumb,서울특별시 용산구 서빙고로59길 3-6,37.5204287,126.9931655
서서울호수공원,서울 양천구,02-2604-3004,"['가족여행', '걷기여행', '관광지', '나들이(피크닉)', '당일치기여행', '사계절']",https://cdn.visitkorea.or.kr/img/call?cmd=VIEW&id=8f645185-5069-4263-ab30-1c5051def1b1&thumb,서울특별시 양천구 남부순환로64길 20,37.5303487,126.8267642
서소문역사공원,서울 중구,02-3396-5852,"['관광지', '도심산책', '산책하기좋은곳', '아이와함께', '역사공부', '역사이야기']",https://cdn.visitkorea.or.kr/img/call?cmd=VIEW&id=faea8905-91c5-4305-b783-bdd5c5369380&thumb,서울특별시 중구 칠패로 5,37.5606422,126.9690479
서울 경교장,서울 종로구,02-735-2038,"['건축물', '건축사', '건축여행', '관광지', '교과서속여행', '근대건축', '근대건축물']",https://cdn.visitkorea.or.kr/img/call?cmd=VIEW&id=60156676-81a8-4c0c-8ece-f16156be3dae&thumb,서울특별시 종로구 새문안로 29,37.5683585,126.9674846
서울 경모궁지,서울 종로구,02-2148-1842,"['경모궁지', '고택', '관광지', '교과서속여행', '문화재', '수도권', '역사', '역사공부']",https://cdn.visitkorea.or.kr/img/call?cmd=VIEW&id=36b10b45-6dae-43be-9cb6-3294e1520a2f&thumb,서울특별시 종로구 대학로 103,37.5807021,126.9994326
서울 고려대학교 본관,서울 성북구,02-2241-2263,"['고려대학교', '관광지', '근대문화유산', '서울고려대학교본관', '역사', '역사공부']",https://cdn.visitkorea.or.kr/img/call?cmd=VIEW&id=db0e937d-a7db-40aa-a1bf-5cc4073d9dcf&thumb,서울특별시 성북구 안암로 145,37.5900117,127.0318586
서울 고려대학교 중앙도서관,서울 성북구,02-3290-1492,"['건축사', '건축여행', '고려대학교', '관광지', '국내건축물', '근대건축', '근대문화유산']",https://cdn.visitkorea.or.kr/img/call?cmd=VIEW&id=914ad2a0-b84f-41c9-b470-346b40fd0c63&thumb,서울특별시 성북구 안암로 145,37.5900117,127.0318586
서울 관상감 관천대,서울 종로구,02-2148-1842,"['관광지', '관상감관천대', '문화재', '수도권', '역사', '역사공부', '역사관광지']",https://cdn.visitkorea.or.kr/img/call?cmd=VIEW&id=2bd906a9-41d6-4dd2-af01-2564bd629f64&thumb,서울특별시 종로구 원서동,37.580603,126.9887674
서울 구 러시아공사관,서울 중구,02-3396-5882,"['관광지', '근대문화유산', '도심여행', '서울구러시아공관', '아이와함께', '역사']",https://cdn.visitkorea.or.kr/img/call?cmd=VIEW&id=79e20e48-aa05-48d6-94f9-365a97aa954f&thumb,서울특별시 중구 정동길 21-18,37.5676277,126.9714985
"서울 구 벨기에영사관(현, 서울시립미술관 남서울생활미술관)",서울 관악구,02-598-6246,"['관광지', '복합문화공간', '서울구벨기에영사관', '서울시립미술관', '수도권']",https://cdn.visitkorea.or.kr/img/call?cmd=VIEW&id=d2e86d0f-dc66-48fb-9373-dc5eaafcd22d&thumb,서울특별시 관악구 남부순환로 2076,37.4761313,126.9795938
서울 남현동 요지,서울 관악구,02-879-5618,"['관광지', '사적', '서울남현동요지', '수도권', '역사', '역사공부', '역사를품은곳']",https://cdn.visitkorea.or.kr/img/call?cmd=VIEW&id=f06662e2-fffc-42eb-95c6-77e889441df8&thumb,서울특별시 관악구 남현3길 60,37.4750266,126.9798044
서울 대한의원,서울 종로구,02-2148-1842,"['관광지', '교과서속여행', '문화재', '서울대한의원', '수도권', '역사', '역사공부']",https://cdn.visitkorea.or.kr/img/call?cmd=VIEW&id=076792c9-ac3e-4834-8246-b57ddcb747bf&thumb,서울특별시 종로구 대학로 103,37.5807021,126.9994326
서울 동관왕묘,서울 종로구,02-2148-1842,"['관광지', '교과서속여행', '동관왕묘', '문화재', '사당', '수도권', '역사', '역사공부']",https://cdn.visitkorea.or.kr/img/call?cmd=VIEW&id=94657332-ddc6-4c55-be9a-870260bd0f9f&thumb,서울특별시 종로구 난계로27길 84,37.5727215,127.0184163
서울 동대문 닭한마리 골목,서울 종로구,02-120,"['관광지', '동대문닭한마리골목', '동대문닭한마리골목', '수도권', '숨은맛집']",https://cdn.visitkorea.or.kr/img/call?cmd=VIEW&id=370eb293-bd0f-4f97-8524-b0e116504b79&thumb,서울특별시 종로구 종로40가길 14,37.5703116,127.0058656
서울 명동성당,서울 중구,02-774-1784,"['관광지', '교과서속여행', '나홀로여행', '도심여행', '명동성당', '아이와함께']",https://cdn.visitkorea.or.kr/img/call?cmd=VIEW&id=adbe2e56-f1da-4692-b52b-80b37aa0afa8&thumb,서울특별시 중구 명동길 74,37.5632533,126.9868325
서울 몽촌토성,서울 송파구,02-2147-2814,"['관광지', '교과서속여행', '몽촌토성', '박물관', '수도권', '아이와함께', '언택트관광지_100선']",https://cdn.visitkorea.or.kr/img/call?cmd=VIEW&id=d25f4d47-17f3-4b5e-8744-e82b15976283&thumb,서울특별시 송파구 올림픽로 424,37.5217853,127.1165203
서울 문묘와 성균관,서울 종로구,02-760-1472,"['관광지', '성균관', '역사', '역사공부', '역사관광', '역사관광지', '역사를품은곳']",https://cdn.visitkorea.or.kr/img/call?cmd=VIEW&id=092fed73-9d83-43d3-8122-0b034f3a54f5&thumb,서울 종로구 성균관로 31,37.5858822,126.9960481
서울 방이동 고분군,서울 송파구,02-2147-2800,"['관광지', '사적', '서울방이동고분군', '수도권', '역사', '역사공부', '역사관광지']",https://cdn.visitkorea.or.kr/img/call?cmd=VIEW&id=8af6e012-3a2c-4523-bc85-19f542cb12a5&thumb,서울특별시 송파구 오금로 219,37.507454,127.1184446
서울 살곶이 다리,서울 성동구,02-2286-5202,"['걷기길', '관광지', '교과서속여행', '산책길', '산책하기', '산책하기좋은곳', '서울살곶이다리']",https://cdn.visitkorea.or.kr/img/call?cmd=VIEW&id=85e77f00-5bd5-4635-96c5-17946fb16bea&thumb,서울특별시 성동구 성수동,37.5394428,127.0542534
서울 삼각지 대구탕 골목,서울 용산구,,"['가족과함께', '관광지', '남녀노소', '대구탕', '먹방여행', '먹방투어', '먹자골목']",https://cdn.visitkorea.or.kr/img/call?cmd=VIEW&id=e5674cb2-517a-484d-8065-7bc311448af4&thumb,서울특별시 용산구 한강대로 182,37.5344149,126.9735061
서울 삼전도비,서울 송파구,02-2147-2002,"['관광지', '역사', '역사공부', '역사관광지', '역사를품은곳', '역사문화재', '역사속']",https://cdn.visitkorea.or.kr/img/call?cmd=VIEW&id=beecfa18-b2c7-4524-88d9-5e55cc314419&thumb,서울특별시 송파구 잠실로 148,37.5092404,127.0991543
서울 석촌동 고분군,서울 송파구,02-421-0970,"['걷기길', '관광지', '교과서속여행', '서울석촌동고분군', '수도권', '역사', '역사공부']",https://cdn.visitkorea.or.kr/img/call?cmd=VIEW&id=07261b58-6406-4f83-b31e-1dd9647fa53e&thumb,서울특별시 송파구 가락로11길 19-5,37.5019414,127.1038372
서울 선릉(성종과 정현왕후)과 정릉(중종) [유네스코 세계문화유산],서울 강남구,02-568-1291,"['가족여행', '관광지', '교과서속여행', '서울선릉과정릉', '아이와함께', '역사']",https://cdn.visitkorea.or.kr/img/call?cmd=VIEW&id=a0863160-1038-4cda-8fa7-ca0330a61cd2&thumb,서울특별시 강남구 선릉로100길 1,37.5073294,127.0471528
서울 신림동 굴참나무,서울 관악구,02-879-5618,"['관광지', '서울신림동굴참나무', '수도권', '자연', '천연기념물']",https://cdn.visitkorea.or.kr/img/call?cmd=VIEW&id=eac3724d-6cae-4d8a-a6d7-3b5403622159&thumb,서울특별시 관악구 난곡로35길 28-7,37.4708047,126.9169775
서울 신림동 민속순대타운,서울 관악구,02-889-1233,"['골목식당', '관광지', '남녀노소', '맛집', '맛집골목', '먹자골목', '서울맛집', '수도권']",https://cdn.visitkorea.or.kr/img/call?cmd=VIEW&id=b2f80415-e780-43d4-b905-14a26175565e&thumb,서울특별시 관악구 신림로59길 14,37.4832519,126.9287583
서울 암사동 유적,서울 강동구,02-3425-6520,"['가족여행', '관광지', '교과서속여행', '당일치기여행', '서울근교여행', '서울암사동유적']",https://cdn.visitkorea.or.kr/img/call?cmd=VIEW&id=4be508ff-1e04-4419-b49d-e7e9c86bdd5c&thumb,서울특별시 강동구 올림픽로 875,37.5605739,127.1308674
서울 애니메이션센터,서울 중구,02-3455-8341,"['관광지', '도심여행', '복합문화공간', '서울애니메이션센터', '수도권', '아이와함께']",https://cdn.visitkorea.or.kr/img/call?cmd=VIEW&id=d33fbd12-0e80-4b76-912f-36f398b78700&thumb,서울특별시 중구 소공로 48,37.5597724,126.9830438
서울 약현성당,서울 중구,02-362-1891,"['관광지', '교과서속여행', '근대문화유산', '도심여행', '서울약현성당', '역사']",https://cdn.visitkorea.or.kr/img/call?cmd=VIEW&id=87345f4d-8711-4ea1-a80d-b017d7da2674&thumb,서울특별시 중구 청파로 447-1,37.5589521,126.9670169
서울 양천고성지,서울 강서구,02-2600-6300,"['관광지', '역사', '역사공부', '역사관광지', '역사를품은곳', '역사문화재', '역사속']",https://cdn.visitkorea.or.kr/img/call?cmd=VIEW&id=e2a0e537-8d0d-472c-b633-de9156cbf2d1&thumb,서울특별시 강서구 가양동,37.5648322,126.8342406
서울 연세대학교 스팀슨관,서울 서대문구,02-330-1121,"['관광지', '근대문화유산', '서울연세대학교스팀슨관', '역사', '역사공부', '역사관광지']",https://cdn.visitkorea.or.kr/img/call?cmd=VIEW&id=fd469515-c66d-44dc-8003-04dab6a6ea77&thumb,서울특별시 서대문구 연세로 50,37.564089,126.9389809
서울 연세대학교 아펜젤러관,서울 서대문구,02-330-1121,"['관광지', '역사', '역사공부', '역사관광지', '역사를품은곳', '역사문화재', '역사속']",https://cdn.visitkorea.or.kr/img/call?cmd=VIEW&id=77d03a68-4016-443d-abe8-5f63ee7ae67c&thumb,서울특별시 서대문구 연세로 50,37.564089,126.9389809
서울 연세대학교 언더우드관,서울 서대문구,02-330-1121,"['관광지', '근대문화유산', '서울연세대학교언더우드관', '역사', '역사공부', '역사관광지']",https://cdn.visitkorea.or.kr/img/call?cmd=VIEW&id=e6e6f7af-b79f-4f12-8645-fcd7766cdb54&thumb,서울특별시 서대문구 연세로 50,37.564089,126.9389809
서울 영휘원(순헌황귀비)과 숭인원(이진),서울 동대문구,02-962-0556,"['가족여행', '관광지', '교과서속여행', '사찰', '산사', '서울영휘원과숭인원', '아이와함께']",https://cdn.visitkorea.or.kr/img/call?cmd=VIEW&id=2c138ebd-aaf2-4f98-bcba-a077ab5f3540&thumb,서울특별시 동대문구 홍릉길 90,37.5851358,127.045082
서울 용산신학교와 원효로 예수성심성당,서울 용산구,02-719-2331,"['관광지', '역사', '역사공부', '역사관광지', '역사를품은곳', '역사문화재', '역사속']",https://cdn.visitkorea.or.kr/img/call?cmd=VIEW&id=d56d0717-31fc-4e31-9c76-7e177087597a&thumb,서울특별시 용산구 원효로19길 49,37.5341025,126.9542291
서울 우정총국,서울 종로구,02-2148-1822,"['관광지', '역사', '역사공부', '역사관광지', '역사를품은곳', '역사문화재', '역사속']",https://cdn.visitkorea.or.kr/img/call?cmd=VIEW&id=51dcdcfe-44d7-40fb-a6de-2b36e4a956c5&thumb,서울특별시 종로구 우정국로 59,37.5743897,126.9825994
서울 운현궁,서울 종로구,02-766-9090,"['관광지', '수도권', '아이와함께', '역사', '역사공부', '역사관광지', '역사를품은곳']",https://cdn.visitkorea.or.kr/img/call?cmd=VIEW&id=0fb711f9-22e8-454e-bd2b-f04be3ea22be&thumb,서울특별시 종로구 삼일대로 464,37.5761402,126.9869738
"서울 의릉(경종,선의왕후) [유네스코 세계문화유산]",서울 성북구,02-964-0579,"['관광지', '교과서속여행', '도심여행', '서울의릉', '아이와함께', '역사', '역사공부']",https://cdn.visitkorea.or.kr/img/call?cmd=VIEW&id=971249b1-bef1-4815-8054-13d57ba8c6c5&thumb,서울특별시 성북구 화랑로32길 146-20,37.6046612,127.0563852
서울 정동교회,서울 중구,02-753-0001,"['관광지', '교과서속여행', '나홀로여행', '도심여행', '서울정동교회', '역사', '역사공부']",https://cdn.visitkorea.or.kr/img/call?cmd=VIEW&id=7d40fcde-feee-4c9c-a634-e1bd0e50a5eb&thumb,서울특별시 중구 정동길 46,37.5652468,126.97249
서울 정릉(신덕왕후) [유네스코 세계문화유산],서울 성북구,02-914-5133,"['관광지', '서울정릉', '수도권', '아이와함께', '역사', '역사공부', '역사를품은곳']",https://cdn.visitkorea.or.kr/img/call?cmd=VIEW&id=939de214-fd77-43a5-99a5-23e0a57c139b&thumb,서울특별시 성북구 아리랑로19길 116,37.6020464,127.0065443
서울 종로 낙지볶음 골목,서울 종로구,02-735-8688,"['가족과함께', '골목길', '골목여행', '관광지', '낙지거리', '낙지전문점', '맛집골목']",https://cdn.visitkorea.or.kr/img/call?cmd=VIEW&id=7f37b8c9-dca5-4169-94dc-6b0801e7f292&thumb,서울특별시 종로구 종로 19,37.5708033,126.9798544
서울 태릉(문정왕후)과 강릉(인순왕후) [유네스코 세계문화유산],서울 노원구,02-972-0370,"['가족여행', '관광지', '교과서속여행', '서울태릉과강릉', '아이와함께', '역사']",https://cdn.visitkorea.or.kr/img/call?cmd=VIEW&id=18f56dc9-28f9-44bd-8918-6a38ca7cb985&thumb,서울특별시 노원구 화랑로 681,37.6376541,127.1048077
서울 풍납동 토성,서울 송파구,02-2147-2800,"['가족여행', '관광지', '교과서속여행', '당일치기여행', '서울근교여행', '서울풍납동토성']",https://cdn.visitkorea.or.kr/img/call?cmd=VIEW&id=6dd15acf-382a-43de-9134-2483e91683a1&thumb,서울특별시 송파구 풍납동,37.5327384,127.1134887
"서울 헌릉(태종,원경왕후)과 인릉(순조,순원왕후) [유네스코 세계문화유산]",서울 서초구,02-445-0347,"['가족여행', '관광지', '교과서속여행', '서울헌릉과인릉', '아이와함께', '역사']",https://cdn.visitkorea.or.kr/img/call?cmd=VIEW&id=218fff3e-ff60-40c5-a981-8d5ff4205d1d&thumb,서울특별시 서초구 헌인릉길 36-10,37.4651454,127.0826446
서울 호암산성(한우물 및 주변산성지),서울 금천구,02-2627-1451,"['관광지', '사적', '수도권', '역사', '역사공부', '역사관광지', '역사를품은곳', '역사문화재']",https://cdn.visitkorea.or.kr/img/call?cmd=VIEW&id=1070c86f-249e-4e0b-b57d-72916efc80da&thumb,서울특별시 금천구 시흥동,37.4492857,126.9104662
서울 효창공원,서울 용산구,02-2199-8823,"['관광지', '서울효창공원', '수도권', '역사공부', '역사를품은곳', '역사속', '역사속으로']",https://cdn.visitkorea.or.kr/img/call?cmd=VIEW&id=1f4b09ab-7b09-4e64-9f65-51aae44b47a7&thumb,서울특별시 용산구 효창원로 177-18,37.5447965,126.9626631
서울광장,서울 중구,02-735-8688,"['관광지', '도심여행', '복합문화공간', '산책하기', '산책하기좋은곳', '서울광장']",https://cdn.visitkorea.or.kr/img/call?cmd=VIEW&id=1210da0d-f8fb-4299-9842-de6b69410354&thumb,서울특별시 중구 세종대로 110,37.5663797,126.9777154
"서울교통공사 (신정,수서,천왕)",서울 성동구,02-6110-6564,"['가족과함께', '관광지', '교육여행', '교육프로그램', '도심여행', '서울교통공사']",https://cdn.visitkorea.or.kr/img/call?cmd=VIEW&id=93467752-91d7-4844-a68d-7c636169c356&thumb,서울특별시 성동구 천호대로 346,37.5625461,127.0572234
"서울교통공사 차량기지 (고덕, 방화, 수서, 군자, 신정, 신내, 천왕, 창동)",서울 성동구,02-6311-3907 3945,"['관광지', '교육장', '교육체험', '교육프로그램', '산업관광', '산업관광지', '서울교통공사']",https://cdn.visitkorea.or.kr/img/call?cmd=VIEW&id=a8087ff3-dd61-4c5e-b2ac-969affe09e1f&thumb,서울특별시 성동구 천호대로 346,37.5625461,127.0572234
"서울교통공사 차량기지 (도봉, 모란기지)",서울 성동구,02-6311-3966,"['견학프로그램', '관광지', '교육여행', '교육체험', '교육프로그램', '서울교통공사']",https://cdn.visitkorea.or.kr/img/call?cmd=VIEW&id=d7b32026-a1e8-4322-a4e9-a7524a7050b1&thumb,서울특별시 성동구 천호대로 346,37.5625461,127.0572234
서울도시건축전시관,서울 중구,02-736-8050,"['관광지', '도시건축전시관', '중구']",https://cdn.visitkorea.or.kr/img/call?cmd=VIEW&id=38ef4031-59ae-461e-b83f-c070ad9102d3&thumb,서울특별시 중구 세종대로 119,37.5668661,126.9766639
서울로 7017,서울 중구,02-120,"['19_20한국관광100선', '걷기길', '관광지', '나홀로여행', '데이트코스', '도심여행']",https://cdn.visitkorea.or.kr/img/call?cmd=VIEW&id=c12e81d1-170e-4206-8dd3-d1772c0a7205&thumb,서울특별시 중구 한강대로 405,37.555042,126.9695336
서울새활용플라자,서울 성동구,02-2153-0400,"['관광지', '도시재생', '산업관광', '산업관광지', '서울재활용플라자', '수도권']",https://cdn.visitkorea.or.kr/img/call?cmd=VIEW&id=81193131-7c11-43e4-bec9-53b626fca3d8&thumb,서울특별시 성동구 자동차시장길 49,37.5585626,127.0582435
서울색공원,서울 영등포구,02-3780-0561,"['가족여행', '관광지', '데이트코스', '도심여행', '사계절', '산책길', '산책하기']",https://cdn.visitkorea.or.kr/img/call?cmd=VIEW&id=867f3643-ecda-4e71-960b-fbd84b63737f&thumb,서울특별시 영등포구 여의동로 330,37.5263086,126.9335824
서울생활사박물관,서울 노원구,02-3399-2970,"['관광지', '서울생활사박물관', '이색체험', '전통&역사체험']",https://cdn.visitkorea.or.kr/img/call?cmd=VIEW&id=d42accee-2eba-458a-a9d2-475494e20575&thumb,서울특별시 노원구 동일로174길 27,37.619671,127.0767099
서울숲,서울 성동구,02-460-2905,"['가족여행', '걷기길', '관광지', '데이트코스', '생태관광지', '서울숲', '수도권']",https://cdn.visitkorea.or.kr/img/call?cmd=VIEW&id=e3112656-9a09-459c-883a-c701bfd62fcc&thumb,서울특별시 성동구 뚝섬로 273,37.5431644,127.0418547
서울식물원,서울 강서구,02-120,"['가족과함께', '관광지', '교육여행', '미세먼지_피하는_실내여행', '식물원', '아이와함께']",https://cdn.visitkorea.or.kr/img/call?cmd=VIEW&id=e6c84522-fd74-4233-80ea-e17cbf15edfb&thumb,서울특별시 강서구 마곡동로 161,37.5692443,126.8353781
서울어린이대공원,서울 광진구,02-450-9311,"['가족여행', '걷기여행', '관광지', '나들이', '놀이동산&테마파크', '당일치기여행']",https://cdn.visitkorea.or.kr/img/call?cmd=VIEW&id=b81b63c8-89e8-42de-b93c-898671b9479f&thumb,서울특별시 광진구 능동로 216,37.549363,127.0818126
서울역,서울 용산구,02-3149-2325,"['견학', '관광지', '산업관광', '산업관광지', '서울역', '수도권', '아이와함께', '안전교육']",https://cdn.visitkorea.or.kr/img/call?cmd=VIEW&id=03523118-8c98-49d7-87e9-b522328a3de9&thumb,서울특별시 용산구 한강대로 405,37.5490645,126.9704658
서울월드컵경기장 스타디움 투어,서울 마포구,02-2128-2002,"['가족과함께', '관광지', '교육여행', '남녀노소', '서울월드컵경기장', '스타디움투어']",https://cdn.visitkorea.or.kr/img/call?cmd=VIEW&id=3c2bf7fb-1c66-4d3b-a70b-c8765bc2e1e3&thumb,서울특별시 마포구 월드컵로 240,37.5677584,126.8981147
서울창포원,서울 도봉구,02-954-0031,"['걷기길', '관광지', '생태관광', '서울창포원', '아이와함께', '이색체험', '자연']",https://cdn.visitkorea.or.kr/img/call?cmd=VIEW&id=1df38719-f966-41f2-aae6-928ab88024a6&thumb,서울특별시 도봉구 마들로 916,37.6892727,127.0475814
서울풍물시장 전통문화체험관,서울 동대문구,02-2232-3368,"['관광지', '도심여행', '서울풍물시장', '서울풍물시장전통문화체험관', '아이와함께']",https://cdn.visitkorea.or.kr/img/call?cmd=VIEW&id=aa78ff02-c2bc-4fc4-b405-ad3a06f5a73b&thumb,서울특별시 동대문구 천호대로4길 21,37.5730037,127.0256147
서울학도병참전기념비,서울 용산구,1577-0606,"['관광지', '애국심', '애국정신', '애국지사', '역사', '역사공부', '역사관광지', '역사를품은곳']",https://cdn.visitkorea.or.kr/img/call?cmd=VIEW&id=539dcf17-0b4e-4bd4-839d-9cf579faccfc&thumb,서울특별시 용산구 두텁바위로 60,37.549307,126.9831061
서울함공원,서울 마포구,02-332-7500,"['가족과함께', '관광지', '교육여행', '아이와함께', '언택트관광지_100선', '역사속으로']",https://cdn.visitkorea.or.kr/img/call?cmd=VIEW&id=b958219a-cdcd-42fd-9f13-c86045319891&thumb,서울특별시 마포구 마포나루길 407,37.5546098,126.8957099
서촌마을,서울 종로구,02-2148-1114,"['걷기길', '관광지', '데이트장소추천', '산책길', '산책하기', '산책하기좋은곳']",https://cdn.visitkorea.or.kr/img/call?cmd=VIEW&id=dc6a114a-7355-4a32-869d-0130ae98b2b4&thumb,서울특별시 종로구 자하문로6길 16,37.578013,126.9729418
서해금빛열차,서울 용산구,1544-7788,"['관광지', '기차여행', '꽃여행', '서해금빛열차', '이색열차', '이색체험', '전라권']",https://cdn.visitkorea.or.kr/img/call?cmd=VIEW&id=ca8c2749-f3b3-4328-adcd-a439aa628154&thumb,서울특별시 용산구 한강대로23길 55,37.5288539,126.9640447
선유도공원,서울 영등포구,02-2631-9367,"['관광지', '도심산책', '산책길', '산책로', '휴식공간', '휴식여행', '휴식하기', '휴식하기좋은곳']",https://cdn.visitkorea.or.kr/img/call?cmd=VIEW&id=c60717e5-8607-4aa0-99ac-6e0c29f38a61&thumb,서울특별시 영등포구 선유로 343,37.543569,126.8997156
설화수 플래그십 스토어,서울 강남구,02-541-9272,"['건강여행', '관광지', '남녀노소', '부모님과함께', '연인과함께', '이색체험', '체험프로그램']",https://cdn.visitkorea.or.kr/img/call?cmd=VIEW&id=41fcb7c7-f57a-4e62-8195-945ff52928ec&thumb,서울특별시 강남구 도산대로45길 18,37.5235283,127.0354787
성덕사,서울 중랑구,02-434-7171,"['관광지', '불교', '불교문화', '사찰', '사찰여행', '역사', '자연속으로', '자연환경']",https://cdn.visitkorea.or.kr/img/call?cmd=VIEW&id=1760104a-f19d-4c33-a447-76ca43576f01&thumb,서울특별시 중랑구 봉화산로 109-8,37.6034853,127.0867357
성동4차산업혁명체험센터,서울 성동구,#NAME?,"['4차산업', '관광지', '산업관광', '산업관광지', '성동4차산업혁명체험센터', '수도권']",https://cdn.visitkorea.or.kr/img/call?cmd=VIEW&id=d38a9b5d-48e0-4c63-b688-209238662fd2&thumb,서울특별시 성동구 살곶이길 327,37.55462,127.0405238
성락원(서울),서울 성북구,02-745-0181,"['가족과함께', '관광지', '아이와함께', '역사', '역사공부', '역사를품은곳', '역사문화재']",https://cdn.visitkorea.or.kr/img/call?cmd=VIEW&id=ad55c4e3-f167-49ac-b30b-8ef513d2592a&thumb,서울특별시 성북구 선잠로2길 47,37.5965136,126.9993466
성수동 수제화거리,서울 성동구,02-778-0333,"['가족과함께', '관광지', '남녀노소', '데이트명소', '사진찍기', '사진찍기좋은곳']",https://cdn.visitkorea.or.kr/img/call?cmd=VIEW&id=19fd9d10-fbfc-4113-8a07-93a12b503b3f&thumb,서울특별시 성동구 연무장7길 15,37.5441512,127.0546226
성재이시영선생동상,서울 중구,1577-0606,"['관광지', '독립', '동상', '성재이시영동상', '신흥무관학교', '아이와함께', '역사']",https://cdn.visitkorea.or.kr/img/call?cmd=VIEW&id=63d124ea-5722-4363-ac86-53bc80b14b47&thumb,서울특별시 중구 회현동1가 100-115,37.5548616,126.9798918
세검정 터 (구 세검정),서울 종로구,02-2148-1822,"['관광지', '역사', '역사공부', '역사관광지', '역사를품은곳', '역사문화재', '역사속']",https://cdn.visitkorea.or.kr/img/call?cmd=VIEW&id=e314ac3e-5da1-4827-8c59-50b87a0edb41&thumb,서울특별시 종로구 세검정로 244,37.6008534,126.9596905
세빛섬,서울 서초구,1566-3433,"['걷기길', '경치좋은곳', '관광지', '나들이', '도심여행', '서울투어', '세빛둥둥섬']",https://cdn.visitkorea.or.kr/img/call?cmd=VIEW&id=cbfce5b5-7010-439f-a700-d76384445c68&thumb,서울특별시 서초구 올림픽대로 683,37.5117125,126.994887
세운상가,서울 종로구,02-2273-5505,"['관광지', '도시재생', '복합문화공간', '산업관광', '산업관광지', '세운상가', '수도권']",https://cdn.visitkorea.or.kr/img/call?cmd=VIEW&id=9e624b1c-8379-43cb-ad8f-a78fae34f036&thumb,서울특별시 종로구 청계천로 159,37.569243,126.9952266
세종대왕 동상,서울 종로구,02-120,"['관광지', '광화문광장', '교과서속여행', '도심여행', '세종대왕동상', '수도권']",https://cdn.visitkorea.or.kr/img/call?cmd=VIEW&id=fdf80565-26c0-4f54-acbd-47d7c2a500da&thumb,서울특별시 종로구 세종대로 175,37.5721241,126.9760848
세종로공원,서울 종로구,02-2148-2841,"['걷기여행', '관광지', '도심여행', '사계절', '산책길', '산책하기', '산책하기좋은곳']",https://cdn.visitkorea.or.kr/img/call?cmd=VIEW&id=028b8da2-4048-4565-a97f-13caab578e60&thumb,서울특별시 종로구 세종대로 175,37.5721241,126.9760848
소림사(서울),서울 종로구,02-394-2145,"['관광지', '불교', '불교문화', '사찰', '사찰여행', '역사', '역사속으로', '역사이야기']",https://cdn.visitkorea.or.kr/img/call?cmd=VIEW&id=7c668d9f-96de-46ab-9eff-ae19df958936&thumb,서울특별시 종로구 세검정로 241-3,37.601441,126.9587877
송암사,서울 노원구,02-936-5722,"['관광지', '불교', '불교문화', '사찰', '사찰여행', '역사', '자연좋은곳', '자연환경']",https://cdn.visitkorea.or.kr/img/call?cmd=VIEW&id=284e312f-23db-4d16-9105-a878ee1eda39&thumb,서울특별시 노원구 덕릉로145길 101,37.6838446,127.0854407
송재서재필선생상,서울 서대문구,1577-0606,"['3·1운동_100주년_여행지추천', '관광지', '독립공원', '독립신문', '독립운동']",https://cdn.visitkorea.or.kr/img/call?cmd=VIEW&id=7bc4fba0-d73e-4fe8-bee4-3877057503bd&thumb,서울특별시 서대문구 통일로 251,37.5743009,126.9559178
송파나루공원(석촌호수),서울 송파구,02-2147-3385,"['걷기길', '관광지', '산책길', '산책하기', '산책하기좋은곳', '석촌호수', '송파나루공원']",https://cdn.visitkorea.or.kr/img/call?cmd=VIEW&id=ad0f4c87-1968-4b48-990a-ad1e7e1c8d9b&thumb,서울특별시 송파구 삼학사로 136,37.5092404,127.0991543
수국사(서울),서울 은평구,02-356-2001,"['가족여행', '관광지', '도심여행', '불교', '불교문화', '사찰', '사찰&산사', '사찰여행']",https://cdn.visitkorea.or.kr/img/call?cmd=VIEW&id=a644222d-a052-4723-ae05-56ff84c9972f&thumb,서울특별시 은평구 서오릉로23길 8-5,37.616085,126.9051847
수도박물관,서울 성동구,02-3146-5936,"['가족여행', '관광지', '근대문화유산', '근대산업유산', '박물관', '산업관광', '산업관광지']",https://cdn.visitkorea.or.kr/img/call?cmd=VIEW&id=cea605dc-2048-48cd-9832-5c6a3e40a156&thumb,서울특별시 성동구 왕십리로 27,37.5397059,127.0420438
수락산,서울 노원구,02-2116-3943,"['가족여행', '관광지', '당일치기여행', '등산', '등산로', '사계절', '서울근교여행']",https://cdn.visitkorea.or.kr/img/call?cmd=VIEW&id=1621b545-ceca-433f-8a1f-6e9db29b8b36&thumb,서울특별시 노원구 상계동 산1-1,37.6859801,127.0743568
수락산 당고개지구 공원,서울 노원구,02-950-3918,"['공원', '관광지', '배드민턴', '복합문화시설', '산책', '산책길', '산책하기', '산책하기좋은곳']",https://cdn.visitkorea.or.kr/img/call?cmd=VIEW&id=c428d1ed-c678-4553-bd77-6fca88e27f12&thumb,서울특별시 노원구 상계로 273,37.6645066,127.0737934
수암사,서울 노원구,02-939-3414,"['관광지', '불교', '불교문화', '사찰', '사찰여행', '역사', '자연좋은곳', '자연환경']",https://cdn.visitkorea.or.kr/img/call?cmd=VIEW&id=4a21cbd3-e335-4942-9a9b-1043db25d14b&thumb,서울특별시 노원구 상계동,37.6748028,127.0730618
순국선열추념탑,서울 서대문구,1577-0606,"['관광지', '사계절', '수도권', '순국선열추념탑', '아이와함께', '역사공부', '역사관광지']",https://cdn.visitkorea.or.kr/img/call?cmd=VIEW&id=e12a66ca-28ac-4826-8331-541d438461bd&thumb,서울특별시 서대문구 독립문공원길 80,37.5743009,126.9559178
순명비유강원석물,서울 광진구,062-960-8252,"['관광지', '역사', '역사공부', '역사관광지', '역사를품은곳', '역사문화', '역사문화재']",https://cdn.visitkorea.or.kr/img/call?cmd=VIEW&id=72f79d56-b59a-4ebe-8f60-8cdf363298e9&thumb,서울특별시 광진구 능동로 216,37.549363,127.0818126
순정효황후윤씨친가,서울 중구,02-3396-5842,"['관광지', '역사', '역사공부', '역사관광지', '역사를품은곳', '역사문화재', '역사속']",https://cdn.visitkorea.or.kr/img/call?cmd=VIEW&id=06f38617-8e3f-4024-89f1-c51cf7cf5888&thumb,서울특별시 중구 퇴계로34길 28,37.5588388,126.9940727
숭례문,서울 중구,02-779-8547,"['관광지', '교과서속여행', '수도권', '숭례문', '아이와함께', '역사', '역사유적지']",https://cdn.visitkorea.or.kr/img/call?cmd=VIEW&id=4cbf8feb-c1f4-432e-aa09-68220f72e1f1&thumb,서울특별시 중구 세종대로 40,37.5599416,126.9753042
숭인근린공원,서울 종로구,02-2148-2841,"['관광지', '역사공부', '역사관광지', '역사를품은곳', '역사문화재', '역사속', '역사속으로']",https://cdn.visitkorea.or.kr/img/call?cmd=VIEW&id=5ff805f3-e9c2-4327-9fee-ed0ac5b6c488&thumb,서울특별시 종로구 동망산길 150,37.5774818,127.0182146
스파 도향,서울 강남구,02-6326-0881,"['가족과함께', '건강한힐링여행', '관광지', '남녀노소', '데이트하기좋은곳', '부모님과함께']",https://cdn.visitkorea.or.kr/img/call?cmd=VIEW&id=b90d3321-8c46-40af-8032-3765150e281f&thumb,서울특별시 강남구 논현로 611,37.5082099,127.033097
스파레이,서울 서초구,02-545-4002,"['관광지', '뷰티&스파', '사우나', '스파레이', '여성전용', '연중무휴', '온천&스파']",https://cdn.visitkorea.or.kr/img/call?cmd=VIEW&id=9ba3f5ce-8d84-4641-afcb-64624c0d2307&thumb,서울특별시 서초구 강남대로107길 5,37.5179489,127.0181942
승가사(서울),서울 종로구,02-379-2996,"['관광지', '불교', '불교사찰', '사찰', '사찰여행', '역사', '자연속으로', '자연좋은곳']",https://cdn.visitkorea.or.kr/img/call?cmd=VIEW&id=null&thumb,서울특별시 종로구 비봉4길 213,37.6267537,126.9608477
승동교회,서울 종로구,02-732-2340,"['3.1운동', '관광지', '교회', '국내건축물', '기독교', '승동교회', '역사', '역사공부']",https://cdn.visitkorea.or.kr/img/call?cmd=VIEW&id=c4b9b36a-e0a0-4fe3-a917-5e402e65d2d0&thumb,서울특별시 종로구 인사동길 7-1,37.5712897,126.9862143
시간을 담다,서울 중구,010-8895-3368,"['관광지', '그림그리기체험', '데이트장소추천', '문화공간', '미세먼지_피하는_실내여행']",https://cdn.visitkorea.or.kr/img/call?cmd=VIEW&id=1da759d6-b0b4-4606-8d9d-2e77540a780d&thumb,서울특별시 중구 삼일대로8길 20-1,37.5626326,126.9901098
신검사(서울),서울 강북구,02-992-8288,"['관광지', '불교', '불교문화', '사찰', '사찰여행', '역사', '자연속으로', '자연환경']",https://cdn.visitkorea.or.kr/img/call?cmd=VIEW&id=null&thumb,서울특별시 강북구 삼양로179길 209-44,37.6679006,126.9988537
신당동 떡볶이 골목,서울 중구,02-2236-9135,"['골목분식', '골목시장', '관광지', '떡볶이맛집', '맛집', '맛집탐방', '숨은맛집']",https://cdn.visitkorea.or.kr/img/call?cmd=VIEW&id=bb43ffd7-401c-4bd1-9320-822d6ae7dced&thumb,서울특별시 중구 다산로33길 10-18,37.5629726,127.0145656
신사동 가로수길,서울 강남구,02-3445-0111,"['가로수길', '관광지', '사진촬영', '산책길', '산책하기', '산책하기좋은곳', '서울여행']",https://cdn.visitkorea.or.kr/img/call?cmd=VIEW&id=fff6237d-15c6-4859-9c00-ac17d49bb5b4&thumb,서울특별시 강남구 신사동,37.524124,127.022883
신석구 사택 터,서울 중구,02-3396-5842,"['관광지', '수도권', '신석구사택터', '역사', '역사관광지', '역사를품은곳', '역사문화재']",https://cdn.visitkorea.or.kr/img/call?cmd=VIEW&id=4286ee87-0499-4bf6-83d7-cadc060d02d4&thumb,서울특별시 중구 청계천로 100,37.5674783,126.9884121
신선경과 류인호 묘역,서울 송파구,02-2147-2002,"['관광지', '교과서속여행', '신선경과류인호묘역', '아이와함께', '역사', '역사공부']",https://cdn.visitkorea.or.kr/img/call?cmd=VIEW&id=0bb4693b-43b7-4c6c-8b09-ec1215d48ebb&thumb,서울특별시 송파구 동남로 263,37.5010097,127.134043
신천 어린이교통공원,서울 송파구,02-413-0004,"['가족여행', '관광지', '교육여행', '교육프로그램', '당일치기여행', '산책하기']",https://cdn.visitkorea.or.kr/img/call?cmd=VIEW&id=2969e0ce-ffdd-4277-9bee-11e6ce87128f&thumb,서울특별시 송파구 올림픽로35다길 33,37.5213517,127.1026097
신촌 플레이버스,서울 서대문구,02-330-1809,"['관광지', '도심여행', '문화콘텐츠산업', '문화행사', '수도권', '신촌플레이버스']",https://cdn.visitkorea.or.kr/img/call?cmd=VIEW&id=77fb5fd9-49f0-43e3-bd87-a819cf50f5d2&thumb,서울특별시 서대문구 연세로5길 11,37.5583106,126.9334543
"신트리공원(농촌체험,자연학습장)",서울 양천구,02-2620-4566,"['가족과함께', '관광지', '산책로', '산책하기좋은곳', '서울산책', '아이와함께']",https://cdn.visitkorea.or.kr/img/call?cmd=VIEW&id=35b15a5a-b50f-4d74-a613-d769f68827ac&thumb,서울특별시 양천구 신정동,37.5166014,126.8638714
실로암사우나찜질방,서울 중구,02-364-3944,"['관광지', '도심여행', '목욕탕', '사우나', '실내여행지', '실로암사우나찜질방']",https://cdn.visitkorea.or.kr/img/call?cmd=VIEW&id=2219344f-89ce-4e14-aa2a-540d41dd7788&thumb,서울특별시 중구 중림로 49,37.557665,126.9686146
쌈지길,서울 종로구,02-736-0088,"['관광지', '남녀노소', '데이트장소추천', '복합문화공간', '쇼핑거리', '수도권']",https://cdn.visitkorea.or.kr/img/call?cmd=VIEW&id=3738103d-9373-4717-b809-30ae28a17009&thumb,서울특별시 종로구 인사동길 44,37.5741603,126.9848384
씨랄라 워터파크,서울 영등포구,1522-9661,"['관광지', '남녀노소', '물놀이장', '실내워터파크', '아이가_좋아하는_여행', '아이와함께']",https://cdn.visitkorea.or.kr/img/call?cmd=VIEW&id=f3e0f3b5-d5a4-4a30-9fd2-92015d6ec068&thumb,서울특별시 영등포구 문래로 164,37.517436,126.8997884
아띠인력거,서울 종로구,1666-1693,"['관광지', '서울가볼만한곳', '서울놀기', '서울여행코스', '서울핫플', '연인과함께']",https://cdn.visitkorea.or.kr/img/call?cmd=VIEW&id=c6c41d23-65ef-41e0-9421-8da72ab0a7b7&thumb,서울특별시 종로구 북촌로5길 43,37.5792971,126.9825315
"아리수 정수센터 (암사,뚝섬,영등포)",서울 강동구,02-3146-5714,"['견학', '관광지', '뚝도아리수정수센터', '산업관광', '산업관광지', '수도권', '아리수']",https://cdn.visitkorea.or.kr/img/call?cmd=VIEW&id=d0d3b98d-ba56-4007-abaf-9226f657627d&thumb,서울특별시 강동구 아리수로 131,37.5634189,127.1413985
아리수나라,서울 광진구,02-3146-5941,"['관광지', '박물관', '산업관광', '산업관광지', '수도권', '아리수나라', '아이와함께']",https://cdn.visitkorea.or.kr/img/call?cmd=VIEW&id=8e60ae48-90c9-4046-bc79-6e3eae913951&thumb,서울특별시 광진구 능동로 216,37.549363,127.0818126
아시아공원,서울 송파구,02-2147-3402,"['관광지', '근린공원', '산책길', '산책하기', '산책하기좋은곳', '서울종합운동장']",https://cdn.visitkorea.or.kr/img/call?cmd=VIEW&id=ae328498-b9af-419c-b99f-84cc415bb3de&thumb,서울특별시 송파구 올림픽로 44,37.510097,127.0760185
아차산,서울 광진구,02-450-1655,"['관광지', '등산', '산', '수도권', '아차산', '언택트관광지_100선', '자연', '전망좋은곳']",https://cdn.visitkorea.or.kr/img/call?cmd=VIEW&id=58129cb5-f74f-43b5-8cc6-f8a4a5cd02eb&thumb,서울특별시 광진구 영화사로 135,37.5537434,127.1003595
아차산봉수대터,서울 중랑구,02-2094-1817,"['관광지', '역사', '역사공부', '역사관광지', '역사를품은곳', '역사문화재', '역사속']",https://cdn.visitkorea.or.kr/img/call?cmd=VIEW&id=bc1fb0e2-1281-4843-a551-b95855c76b46&thumb,서울특별시 중랑구 신내동,37.6103313,127.0960772
아차산생태공원,서울 광진구,02-450-1192,"['걷기길', '관광지', '생태관광', '아차산생태공원', '자연', '자연&숲', '트레킹']",https://cdn.visitkorea.or.kr/img/call?cmd=VIEW&id=9ed3d3ab-2e71-47ab-a9b6-76245ad335ea&thumb,서울특별시 광진구 영화사로 145,37.5515902,127.1005257
아차산성,서울 광진구,02-450-7593,"['가족여행', '관광지', '교과서속여행', '당일치기여행', '등산', '등산로', '서울근교여행']",https://cdn.visitkorea.or.kr/img/call?cmd=VIEW&id=ce97805f-54f2-48a2-9586-84c48f28b783&thumb,서울특별시 광진구 광장동,37.5478086,127.1052825
아쿠아플라넷 63,서울 영등포구,02-780-6382,"['가족여행', '관광지', '데이트코스', '도심여행', '미세먼지_피하는_실내여행']",https://cdn.visitkorea.or.kr/img/call?cmd=VIEW&id=d3a0e455-a86a-45ce-8fee-3f70464f49e9&thumb,서울특별시 영등포구 63로 50,37.5194647,126.9398326
아현동 전골목,서울 마포구,02-323-2240,"['가족과함께', '골목시장', '관광지', '김치전', '맛집탐방', '먹자골목', '숨은맛집']",https://cdn.visitkorea.or.kr/img/call?cmd=VIEW&id=839d1a8d-8af3-4534-a594-eb8abb84878b&thumb,서울특별시 마포구 굴레방로9길 17,37.5566634,126.9547164
안녕인사동,서울 종로구,02-6954-2992,"['가족과함께', '관광지', '문화공간', '연인과함께', '열린문화공간', '이색체험']",https://cdn.visitkorea.or.kr/img/call?cmd=VIEW&id=bf2a934a-0e0f-4516-a091-833cb6aabec8&thumb,서울특별시 종로구 인사동길 49,37.5745213,126.9838508
안양암(서울),서울 종로구,02-744-6923,"['관광지', '불교', '불교문화', '사찰', '사찰여행', '역사', '자연속으로', '자연환경']",https://cdn.visitkorea.or.kr/img/call?cmd=VIEW&id=faba6def-42c2-45f9-82e3-2e52f267ced6&thumb,서울특별시 종로구 창신5길 59-2,37.5752761,127.0134571
안양천 사계절 테마원,서울 양천구,02-2620-3592,"['공원', '관광지', '도심공원', '사진찍기좋은곳', '산책로', '산책하기좋은곳', '서울산책']",https://cdn.visitkorea.or.kr/img/call?cmd=VIEW&id=a1f0bc0d-86ff-4f30-a6d0-a0fb3b1f4b6b&thumb,서울특별시 양천구 목동동로12길 60,37.5235382,126.8715367
안중근의사 동상,서울 용산구,1577-0606,"['관광지', '사계절', '수도권', '아이와함께', '안중근의사동상', '역사공부', '역사관광지']",https://cdn.visitkorea.or.kr/img/call?cmd=VIEW&id=5f4388a7-83ee-4a1f-8061-56554a140644&thumb,서울특별시 용산구 후암동 30-80,37.5532749,126.9806219
암사생태공원,서울 강동구,02-3780-0501,"['관광지', '자연']",https://cdn.visitkorea.or.kr/img/call?cmd=VIEW&id=bdcbf512-d547-4110-8c0b-e8df214a3567&thumb,서울특별시 강동구 선사로 83-66,37.5499281,127.122235
압구정 로데오거리,서울 강남구,02-3445-0111,"['가족과함께', '강남구', '강남시티투어', '관광지', '산책하기좋은곳', '쇼핑거리']",https://cdn.visitkorea.or.kr/img/call?cmd=VIEW&id=9166abb9-aff2-4f44-9668-0614567e163d&thumb,서울특별시 강남구 압구정동,37.531684,127.0302926
약사사(서울),서울 강서구,02-2662-2551,"['관광지', '불교', '불교문화', '사찰', '사찰여행', '역사', '자연속으로', '자연환경']",https://cdn.visitkorea.or.kr/img/call?cmd=VIEW&id=f54ff9eb-37c2-48fe-9c58-54deb17f317c&thumb,서울특별시 강서구 금낭화로17길 261,37.5829837,126.8053645
약수사(서울),서울 관악구,02-877-7514,"['관광지', '불교', '불교문화', '사찰', '사찰', '사찰여행', '수도권', '약수사', '역사']",https://cdn.visitkorea.or.kr/img/call?cmd=VIEW&id=cbbd4d90-5fc2-4899-b7f4-1a95af83dad1&thumb,서울특별시 관악구 약수암1길 28,37.4784063,126.9516133
양재 시민의숲,서울 서초구,02-575-3895,"['걷기길', '관광지', '나들이', '도심여행', '산책길', '산책하기', '산책하기좋은곳']",https://cdn.visitkorea.or.kr/img/call?cmd=VIEW&id=6342c86f-8602-4948-9b84-d2cd438c098a&thumb,서울특별시 서초구 매헌로 99,37.4712172,127.0367358
양재동 화훼공판장 (꽃문화체험관),서울 서초구,02-6919-1485,"['관광지', '산업관광', '산업관광지', '수도권', '아이와함께', '양재동화훼공판장']",https://cdn.visitkorea.or.kr/img/call?cmd=VIEW&id=bc27dabf-c4cb-461b-a47a-c5aae0fb6516&thumb,서울특별시 서초구 강남대로 27,37.4786708,127.0366274
양재천 생태공원,서울 서초구,02-2155-6114,"['관광지', '나들이', '당일치기여행', '도심여행', '양재천생태공원', '자연', '자연&숲']",https://cdn.visitkorea.or.kr/img/call?cmd=VIEW&id=162d660e-e7bc-4d2e-88eb-d00dbbc3fd53&thumb,서울특별시 서초구 바우뫼로12길,37.4684143,127.032602
"양천공원(통합놀이터,키지트,베이비존)",서울 양천구,02-2620-3576,"['관광지', '산책하기좋은곳', '아이가_좋아하는_여행', '아이와가볼만한곳', '아이와함께']",https://cdn.visitkorea.or.kr/img/call?cmd=VIEW&id=806b1e8f-c6c1-4468-95a6-2d4e1f51d075&thumb,서울특별시 양천구 목동동로 지하 111,37.524783,126.875819
양천구 어린이교통공원,서울 양천구,02-2652-1582,"['겨울방학가볼만한곳', '관광지', '교육여행', '도심여행', '산책길', '산책하기']",https://cdn.visitkorea.or.kr/img/call?cmd=VIEW&id=4ca6c45c-0f86-4d54-9579-0e9ecd804357&thumb,서울특별시 양천구 목동남로 106-23,37.5095727,126.8701123
양천나눔누리센터,서울 양천구,02-2644-4750,"['관광지', '남녀노소', '문화프로그램', '복합문화공간', '복합문화시설', '열린문화공간']",https://cdn.visitkorea.or.kr/img/call?cmd=VIEW&id=74898546-dec6-452c-ac1c-01de7bb59e0a&thumb,서울특별시 양천구 중앙로 250,37.5188604,126.8537234
양천생활안전체험교육관,서울 양천구,02-2620-4397,"['관광지', '교육여행', '교육장', '교육체험', '아이와함께', '아이와함께가볼만한곳']",https://cdn.visitkorea.or.kr/img/call?cmd=VIEW&id=59d87e3f-c699-4bdb-beab-f1404084315a&thumb,서울특별시 양천구 목동서로 363,37.5275112,126.8712422
양천향교,서울 강서구,02-2659-0076,"['관광지', '언택트관광지_100선', '역사', '역사공부', '역사관광', '역사관광지']",https://cdn.visitkorea.or.kr/img/call?cmd=VIEW&id=a2785457-028f-47fb-904f-b6248d9129a5&thumb,서울특별시 강서구 양천로47나길 53,37.5729567,126.8398344
양화진외국인선교사묘원(외인묘지),서울 마포구,02-332-9174,"['관광지', '수도권', '양화진외국인선교사묘원', '역사', '역사공부', '역사관광지']",https://cdn.visitkorea.or.kr/img/call?cmd=VIEW&id=8a2eb10e-72a2-49c4-a3bb-9cec34fb8268&thumb,서울특별시 마포구 양화진길 46,37.5464592,126.9115418
어린이 감각놀이터 디키디키,서울 중구,02-2153-0760,"['관광지', '놀이시설', '미세먼지_피하는_실내여행', '복합문화공간', '실내관광지']",https://cdn.visitkorea.or.kr/img/call?cmd=VIEW&id=4e10ea95-2f7f-44a0-ae30-3706041aadaf&thumb,서울특별시 중구 을지로 281,37.5667521,127.0101046
엘크레,서울 강남구,02-547-3485,"['감성사진', '관광지', '메이크업', '분위기좋은카페', '뷰티', '뷰티투어', '사진찍기좋은곳']",https://cdn.visitkorea.or.kr/img/call?cmd=VIEW&id=c854a3c1-7ba6-4cdb-b298-29dd7d8e6ac1&thumb,서울특별시 강남구 압구정로14길 39,37.521779,127.0235934
여계묘역,서울 구로구,02-860-2278,"['관광지', '역사', '역사공부', '역사관광지', '역사를품은곳', '역사속', '역사속으로']",https://cdn.visitkorea.or.kr/img/call?cmd=VIEW&id=f940d876-958a-4dd6-b4e4-9532beaaa018&thumb,서울특별시 구로구 고척동,37.5011414,126.8625002
여의도공원,서울 영등포구,02-3780-0561,"['관광지', '꽃여행', '데이트코스', '복합문화공간', '봄나들이', '산책길', '산책하기']",https://cdn.visitkorea.or.kr/img/call?cmd=VIEW&id=41cce0ee-24f8-4dc1-8683-52a5cb3b8739&thumb,서울특별시 영등포구 여의공원로 120,37.5268082,126.9223229
여의도샛강생태공원,서울 영등포구,02-3780-0570,"['가족여행', '걷기길', '관광지', '나들이', '도심여행', '생태관광', '여의도샛강생태공원']",https://cdn.visitkorea.or.kr/img/call?cmd=VIEW&id=d9f1d013-78a6-4555-97aa-c188d5f7bd81&thumb,서울특별시 영등포구 여의동로 48,37.5187274,126.9218961
여의천,서울 서초구,02-2155-7168,"['관광지', '수도권', '여의천', '자연']",https://cdn.visitkorea.or.kr/img/call?cmd=VIEW&id=8415915f-8ea1-4e3c-8b4c-50c07e7f78ff&thumb,서울특별시 서초구 신원동,37.4446745,127.0614206
연남동 공방거리,서울 마포구,02-3153-8353,"['골목문화공간', '공방거리', '공예', '관광지', '산책길', '산책하기', '산책하기좋은곳']",https://cdn.visitkorea.or.kr/img/call?cmd=VIEW&id=719e48de-520d-4a04-af58-17c3942f863e&thumb,서울특별시 마포구 성미산로28길,37.5627405,126.9232683
연세로,서울 서대문구,02-120,"['관광지', '맛집탐방', '쇼핑거리', '숨은맛집', '연세대학교', '연인과함께', '우수쇼핑']",https://cdn.visitkorea.or.kr/img/call?cmd=VIEW&id=8b859ac4-c140-4fc5-a571-b8d19a1d0d5d&thumb,서울특별시 서대문구 연세로 일대,37.5583716,126.9374795
"연의근린공원(생태학습관, 북카페)",서울 양천구,02-2603-0203,"['관광지', '산책하기좋은곳', '생태체험', '생태탐방', '아이와함께', '이색체험']",https://cdn.visitkorea.or.kr/img/call?cmd=VIEW&id=0ea7af54-e065-48ee-a6a2-f6c78dcdf3a5&thumb,서울특별시 양천구 신정이펜1로 12,37.5133702,126.829922
연필로 명상하기,서울 중구,02-318-4564,"['견학', '관광지', '산업관광', '산업관광지', '수도권', '아이와함께', '애니메이션']",https://cdn.visitkorea.or.kr/img/call?cmd=VIEW&id=9d8fc6ac-d66b-48e7-8e0e-73669a3f1f1c&thumb,서울특별시 중구 퇴계로20길 50,37.5580789,126.9862371
연화사(서울),서울 동대문구,02-962-6186,"['관광지', '불교', '불교문화', '사찰', '사찰여행', '역사', '자연속으로', '자연환경']",https://cdn.visitkorea.or.kr/img/call?cmd=VIEW&id=08b39fb2-5bf5-426a-a10e-b6a2db512a22&thumb,서울특별시 동대문구 경희대로3길 56,37.5941978,127.0504829
영등포 신길동 홍어거리,서울 영등포구,02-323-2240,"['관광지', '남녀노소', '맛집거리', '서울맛집', '숨은맛집', '영등포가볼만한곳']",https://cdn.visitkorea.or.kr/img/call?cmd=VIEW&id=faaca4d1-0a2a-45ad-ae2d-e80af5ee890c&thumb,서울특별시 영등포구 신길로 200-20,37.5105186,126.911538
영등포공원,서울 영등포구,02-2670-3715,"['가족여행', '걷기길', '관광지', '데이트코스', '도심여행', '사계절', '산책길', '산책하기']",https://cdn.visitkorea.or.kr/img/call?cmd=VIEW&id=964049bf-d7c4-4b72-abea-999a2d6d2774&thumb,서울특별시 영등포구 신길로 275,37.5157786,126.9122002
영화사(서울),서울 광진구,02-444-4321,"['가족여행', '관광지', '불교', '불교문화', '사찰', '사찰&산사', '사찰여행', '역사']",https://cdn.visitkorea.or.kr/img/call?cmd=VIEW&id=c08f8cab-97c8-4595-9cc6-2b1e9b0d86ea&thumb,서울특별시 광진구 영화사로 107,37.5542997,127.0982851
예지원,서울 중구,02-2234-3325,"['관광지', '남녀노소', '도심여행', '아이와함께', '예지원', '요리교실', '이색체험']",https://cdn.visitkorea.or.kr/img/call?cmd=VIEW&id=4453e1f5-a8aa-4495-8294-024821837ecb&thumb,서울특별시 중구 장충단로 72,37.5525546,127.0030594
오금공원,서울 송파구,02-400-0978,"['관광지', '데이트코스', '산책길', '산책하기', '산책하기좋은곳', '아이와함께']",https://cdn.visitkorea.or.kr/img/call?cmd=VIEW&id=24051431-71c3-4a00-ac45-1968cb6d572a&thumb,서울특별시 송파구 오금로 363,37.5010097,127.134043
오동근린공원,서울 강북구,02-901-6923,"['관광지', '근린공원', '산책길', '산책코스', '산책하기', '산책하기좋은곳', '실내운동']",https://cdn.visitkorea.or.kr/img/call?cmd=VIEW&id=72ea945c-8428-45f7-a530-82951338ba8a&thumb,서울특별시 강북구 덕릉로42길 49,37.6328736,127.0320437
오목공원,서울 양천구,02-2620-3405,"['관광지', '남녀노소', '도심공원', '산책길', '산책로', '산책코스', '산책하기좋은곳']",https://cdn.visitkorea.or.kr/img/call?cmd=VIEW&id=36f114cf-b506-44ae-92ba-3425dd87b1d8&thumb,서울특별시 양천구 목동서로 159-2,37.5275179,126.8736147
오미요리연구소,서울 동대문구,010-5060-5250,"['관광지', '체험']",https://cdn.visitkorea.or.kr/img/call?cmd=VIEW&id=a96886af-25d5-42d8-82e7-8edd2806060a&thumb,서울특별시 동대문구 약령중앙로 35-1,37.5814741,127.036996
오휘스파논현,서울 강남구,02-3446-5157,"['관광지', '부모님과함께', '뷰티&스파', '뷰티투어', '스킨케어', '스파', '연인과함께']",https://cdn.visitkorea.or.kr/img/call?cmd=VIEW&id=6e9b2887-c2a3-43be-9d26-36cbd76a1167&thumb,서울특별시 강남구 학동로21길 52,37.5163031,127.0262936
옥천암(서울),서울 서대문구,02-395-4031,"['관광지', '대한불교조계종', '불교', '사찰', '사찰여행', '역사', '자연속으로', '자연좋은곳']",https://cdn.visitkorea.or.kr/img/call?cmd=VIEW&id=4be77eeb-24b6-4c61-8b5b-2e16cc89182f&thumb,서울특별시 서대문구 홍지문길 1-38,37.5969618,126.9540747
온수공원,서울 구로구,02-860-2396,"['가족과함께', '관광지', '산책', '산책길', '산책하기', '산책하기좋은곳', '서울근교여행']",https://cdn.visitkorea.or.kr/img/call?cmd=VIEW&id=b911bc8e-4c97-4b7e-937d-82983e4f3fbd&thumb,서울특별시 구로구 오류동,37.4901258,126.8385254
온수도시 자연공원(잣절공원),서울 구로구,02-860-2396,"['가족과함께', '가족체험', '가족체험학습', '공원', '관광지', '도시자연공원', '반딧불이']",https://cdn.visitkorea.or.kr/img/call?cmd=VIEW&id=b02c76cb-45dc-47fc-872d-9d9ab573ed18&thumb,서울특별시 구로구 고척로3길 86-52,37.4992011,126.8362583
올리바인 스파,서울 종로구,02-730-1719,"['건강여행', '관광지', '부모님과함께', '뷰티&스파온천&스파', '연인과함께', '올리바인스파']",https://cdn.visitkorea.or.kr/img/call?cmd=VIEW&id=6aa9ae2f-8d46-4bf4-bcbd-94844064997e&thumb,서울특별시 종로구 통일로16길 4-1,37.5757427,126.9575596
올림픽공원,서울 송파구,02-410-1114,"['가족여행', '걷기여행', '관광지', '나들이', '나홀로여행', '당일치기여행', '데이트코스']",https://cdn.visitkorea.or.kr/img/call?cmd=VIEW&id=44cb810d-387b-4956-a0e3-e205758cb0ad&thumb,서울특별시 송파구 올림픽로 424,37.5217853,127.1165203
올림픽대교,서울 송파구,02-120,"['건축물', '관광지', '다리', '드라이브코스', '서울야경', '서울올림픽', '수도권']",https://cdn.visitkorea.or.kr/img/call?cmd=VIEW&id=8e042301-691b-4e23-9bbb-dd70591b6555&thumb,서울특별시 송파구 신천동,37.5200705,127.0995
와룡공원,서울 종로구,02-2148-2845,"['가족들과 함께', '관광지', '나들이코스', '도시자연공원', '와룡공원', '종로구']",https://cdn.visitkorea.or.kr/img/call?cmd=VIEW&id=aeb77214-cae0-4323-a4e4-b61cfb944c3e&thumb,서울특별시 종로구 와룡공원길 192,37.5897312,126.9871209
용굴암(서울),서울 노원구,02-937-8206,"['관광지', '불교', '불교문화', '사찰', '사찰여행', '역사', '자연속으로', '자연환경']",https://cdn.visitkorea.or.kr/img/call?cmd=VIEW&id=01ae26ca-4da8-46de-8269-b5096d70cf48&thumb,서울특별시 노원구 덕릉로129가길 242,37.6738898,127.0808113
용덕사(서울),서울 강북구,02-901-6209,"['관광지', '불교', '불교문화', '사찰', '사찰여행', '역사', '자연속으로', '자연환경']",https://cdn.visitkorea.or.kr/img/call?cmd=VIEW&id=undefined&thumb,서울특별시 강북구 우이동 산68,37.6655648,126.9967984
용마산,서울 중랑구,02-2094-2344,"['관광지', '나홀로여행', '등산', '용마산', '자연', '자연&숲', '친구와함께', '트레킹']",https://cdn.visitkorea.or.kr/img/call?cmd=VIEW&id=404e5de9-e540-4a7a-b697-dd9bb923b51c&thumb,서울특별시 중랑구 용마산로62길 53,37.5781498,127.0948038
용마폭포공원,서울 중랑구,02-2094-2342,"['걷기길', '관광지', '나들이', '산책길', '산책하기', '산책하기좋은곳', '수도권']",https://cdn.visitkorea.or.kr/img/call?cmd=VIEW&id=3dc2fe66-50ef-446d-a96e-6aecc00eb435&thumb,서울특별시 중랑구 용마산로 250-12,37.5733026,127.0891138
용산가족공원,서울 용산구,02-792-5660,"['가족여행', '걷기여행', '관광지', '나들이', '당일치기여행', '사계절', '서울근교여행']",https://cdn.visitkorea.or.kr/img/call?cmd=VIEW&id=51a83ada-b7a1-4466-80c2-aebd2da4871a&thumb,서울특별시 용산구 서빙고로 185,37.5199816,126.9850321
용산공원 갤러리,서울 용산구,02-3785-2590,"['갤러리', '관광지', '용산공원']",https://cdn.visitkorea.or.kr/img/call?cmd=VIEW&id=b5dc25a7-3f72-4aef-ace9-ef0362d4f5ee&thumb,서울특별시 용산구 한강대로 237,37.5359824,126.9713509
용산성당,서울 용산구,02-719-3301,"['관광지', '역사', '역사공부', '역사관광지', '역사를품은곳', '역사문화재', '역사속']",https://cdn.visitkorea.or.kr/img/call?cmd=VIEW&id=cda0764b-5d9c-4541-9b2f-23d8049045d1&thumb,서울특별시 용산구 효창원로15길 37,37.5369121,126.9526194
용암사(서울),서울 은평구,02-387-3216,"['관광지', '불교', '불교문화', '사찰', '사찰여행', '역사', '자연속으로', '자연환경']",https://cdn.visitkorea.or.kr/img/call?cmd=VIEW&id=null&thumb,서울특별시 은평구 대서문길 126,37.6520349,126.9528245
용왕산근린공원,서울 양천구,02-2620-3579,"['가족여행', '걷기길', '관광지', '나들이', '서울도심여행', '아이와함께', '용왕산근린공원']",https://cdn.visitkorea.or.kr/img/call?cmd=VIEW&id=1410352a-c467-4086-8b6a-1a7027ade180&thumb,서울특별시 양천구 목동중앙로 143,37.5411913,126.8755307
용왕정,서울 양천구,02-2620-3574,"['걷기', '경치좋은곳', '관광지', '근린공원', '산책코스', '산책하기좋은곳', '연인과함께']",https://cdn.visitkorea.or.kr/img/call?cmd=VIEW&id=7bb9bfb1-1690-4ed3-afd2-926da9528b0b&thumb,서울특별시 양천구 목동,37.5370192,126.8735297
우남이승만박사 동상,서울 강동구,02-429-1885,"['관광지', '대통령', '동상', '수도권', '역사', '역사공부', '역사관광지', '역사를품은곳']",https://cdn.visitkorea.or.kr/img/call?cmd=VIEW&id=0b0d5444-cf93-4b8a-9a6f-141bf3ee4860&thumb,서울특별시 강동구 고덕로 227,37.5558123,127.1504916
우당 이회영 선생 흉상,서울 중구,02-734-8851,"['관광지', '수도권', '아이와함께', '역사', '역사공부', '역사를품은곳', '역사속']",https://cdn.visitkorea.or.kr/img/call?cmd=VIEW&id=205485fc-c45d-4cd3-a180-1feb2e4eb4ac&thumb,서울특별시 중구 명동11길 20,37.5648496,126.9861601
우이동 먹거리마을,서울 강북구,,"['가을먹거리', '관광지', '남녀노소', '등산객', '맛집탐방', '먹거리', '먹거리투어']",https://cdn.visitkorea.or.kr/img/call?cmd=VIEW&id=1afddc0c-7d1a-4763-ba8a-82509aada790&thumb,서울특별시 강북구 삼양로181길 101,37.6678975,127.0084045
우이동계곡,서울 강북구,02-909-0497,"['관광지', '자연']",https://cdn.visitkorea.or.kr/img/call?cmd=VIEW&id=dfa6074f-96a0-4927-83b8-f0f000cae95d&thumb,서울 강북구 우이동,37.6479697,127.0118806
울라스튜디오,서울 용산구,02-795-4282,"['관광지', '반려견과함께', '반려견동반', '반려견동반여행지', '사진촬영', '애견동반']",https://cdn.visitkorea.or.kr/img/call?cmd=VIEW&id=65bfef69-cc32-4bf4-a76d-9f39af7eff4f&thumb,서울특별시 용산구 한강대로7길 4-7,37.5244416,126.9627154
원통사(서울),서울 도봉구,02-2091-2262,"['관광지', '불교', '불교', '불교문화', '사찰여행', '역사', '원불교', '자연속으로']",https://cdn.visitkorea.or.kr/img/call?cmd=VIEW&id=undefined&thumb,서울특별시 도봉구 도봉로169길 520,37.683036,127.0106122
월드컵공원,서울 마포구,02-300-5501,"['가족여행', '관광지', '산책하기', '산책하기좋은곳', '수도권', '아이와함께', '연인과함께']",https://cdn.visitkorea.or.kr/img/call?cmd=VIEW&id=2b0985f1-6501-4401-821e-582c87880469&thumb,서울특별시 마포구 월드컵로 243-60,37.5642503,126.8975812
윌리엄해밀턴쇼 동상,서울 은평구,1577-0606,"['공원', '관광지', '동상', '아이와함께', '역사', '역사공부', '역사관광지', '역사를품은곳']",https://cdn.visitkorea.or.kr/img/call?cmd=VIEW&id=3c8df713-5960-44e0-8a2a-472e071ecce4&thumb,서울특별시 은평구 응암로 376,37.6044835,126.9232067
유관순동상,서울 중구,02-2125-0848,"['관광지', '사계절', '수도권', '아이와함께', '역사공부', '역사를품은곳', '역사속']",https://cdn.visitkorea.or.kr/img/call?cmd=VIEW&id=d149f246-5d13-4f44-89b0-1b6d14d6bb2f&thumb,서울특별시 중구 장충단로 101,37.5557683,127.0018475
유관순열사상,서울 광진구,02-2125-0848,"['관광지', '사계절', '수도권', '아이와함께', '역사공부', '역사관광지', '역사를품은곳']",https://cdn.visitkorea.or.kr/img/call?cmd=VIEW&id=a4f50792-dba4-4ac3-8722-d938209b6e69&thumb,서울특별시 광진구 능동로 216,37.549363,127.0818126
유심사,서울 종로구,02-2148-1842,"['관광지', '교과서속여행', '수도권', '역사', '역사공부', '역사관광지', '역사를품은곳']",https://cdn.visitkorea.or.kr/img/call?cmd=VIEW&id=716f35bd-0a7b-456e-9130-56225ba65a60&thumb,서울특별시 종로구 계동길 92-3,37.5814675,126.9870216
육군사관학교,서울 노원구,02-2197-6125,"['가족과함께', '관광지', '교육여행', '교육프로그램', '군인정신', '남녀노소', '수도권']",https://cdn.visitkorea.or.kr/img/call?cmd=VIEW&id=26c8e795-8ead-4613-8a73-62269fd5398c&thumb,서울특별시 노원구 화랑로 574,37.6280159,127.10198
율곡로,서울 종로구,02-2148-1842,"['가로수길', '관광지', '돌담길', '산책코스', '산책하기좋은곳', '수도권', '역사']",https://cdn.visitkorea.or.kr/img/call?cmd=VIEW&id=260c9c74-97f2-4c76-9d82-e58b22f28a48&thumb,서울특별시 종로구 율곡로,37.574971,126.9981589
음식문화특화거리(깔깔거리),서울 구로구,02-860-3233,"['관광지', '맛집', '맛집골목', '맛집탐방', '먹방여행', '먹방투어', '연인과함께']",https://cdn.visitkorea.or.kr/img/call?cmd=VIEW&id=abe5a81c-2d2a-4108-8d01-fee4182c7d4a&thumb,서울특별시 구로구 시흥대로 577-2,37.4846836,126.9024444
응봉산(서울),서울 성동구,02-2286-6061,"['관광지', '자연']",https://cdn.visitkorea.or.kr/img/call?cmd=VIEW&id=c295de52-0267-4b56-9eec-d8d86846e6df&thumb,서울특별시 성동구 금호동4가 1540,37.5469884,127.0281829
응암동 감자국 거리,서울 은평구,,"['가족과함께', '감자탕', '관광지', '남녀노소', '먹자골목', '서울맛집투어', '숨은맛집']",https://cdn.visitkorea.or.kr/img/call?cmd=VIEW&id=7fd0ac40-1f14-4bd3-92ca-defe27e3653e&thumb,서울특별시 은평구 응암로 172,37.5871871,126.9166861
의열사(용산),서울 용산구,02-2125-0848,"['관광지', '역사', '역사공부', '역사관광지', '역사를품은곳', '역사문화재', '역사속']",https://cdn.visitkorea.or.kr/img/call?cmd=VIEW&id=fc560e3c-e510-4342-9373-ff190e594564&thumb,서울특별시 용산구 효창원로 177-18,37.5447965,126.9626631
이대거리,서울 서대문구,02-363-7833,"['관광지', '남녀노소', '맛집탐방', '문화공간', '쇼핑거리', '숨은맛집', '연인과함께']",https://cdn.visitkorea.or.kr/img/call?cmd=VIEW&id=abfabf67-aaca-40fa-806e-53d88872c6b2&thumb,서울특별시 서대문구 대현동,37.5606558,126.9465796
이랜드크루즈 (한강유람선),서울 영등포구,02-6291-6900,"['관광지', '도심여행', '수도권', '야간관광100선', '야경투어', '연인과함께', '연중무휴']",https://cdn.visitkorea.or.kr/img/call?cmd=VIEW&id=2199ced0-1054-45ee-950a-04b9903b75f1&thumb,서울특별시 영등포구 여의동로 290,37.5287832,126.9357239
이봉창의사동상,서울 용산구,02-2125-0848,"['관광지', '사계절', '수도권', '아이와함께', '역사공부', '역사관광지', '역사를품은곳']",https://cdn.visitkorea.or.kr/img/call?cmd=VIEW&id=0af962a7-1684-4fc6-b49a-336a39c99757&thumb,서울특별시 용산구 효창원로 177-18,37.5447965,126.9626631
이씨레물리노공원(구로근린공원),서울 구로구,02-860-3082,"['걷기좋은곳', '공원', '관광지', '문화공간', '복합문화공간', '산책로', '산책하기좋은곳']",https://cdn.visitkorea.or.kr/img/call?cmd=VIEW&id=1b752d70-db5a-4f24-9635-1257f7813004&thumb,서울특별시 구로구 가마산로25길 21,37.497057,126.8895588
이원등 상사상,서울 용산구,1577-0606,"['가족과함께', '관광지', '동상', '아이와함께', '애국심', '애국정신', '애국지사']",https://cdn.visitkorea.or.kr/img/call?cmd=VIEW&id=760e7d6f-9dda-44fc-afb4-02204c553cd5&thumb,서울특별시 용산구 양녕로 445,37.520805,126.9611825
이음피움봉제역사관,서울 종로구,02-747-6471,"['관광지', '봉제역사관']",https://cdn.visitkorea.or.kr/img/call?cmd=VIEW&id=454ff837-8dce-4cc1-bf26-9c8b34e87c5b&thumb,서울특별시 종로구 창신4가길 26,37.5748709,127.0102586
이재명 의거지,서울 중구,02-3396-5842,"['관광지', '수도권', '역사', '역사공부', '역사를품은곳', '역사문화재', '역사속']",https://cdn.visitkorea.or.kr/img/call?cmd=VIEW&id=4cd9c988-d724-42e5-bbd6-2804814426d0&thumb,서울특별시 중구 명동길 74,37.5632533,126.9868325
이충순 자결 터,서울 중구,02-3396-5842,"['관광지', '수도권', '역사', '역사공부', '역사를품은곳', '역사속', '역사속으로']",https://cdn.visitkorea.or.kr/img/call?cmd=VIEW&id=101f51eb-1096-4e24-9b80-1404c65c39de&thumb,서울특별시 중구 서소문로 88,37.5615565,126.9709855
이탈리아의무부대 6.25전쟁 참전기념비,서울 영등포구,1577-0606,"['관광지', '국가보훈처', '기념비', '역사', '역사공부', '역사관광지', '역사를품은곳']",https://cdn.visitkorea.or.kr/img/call?cmd=VIEW&id=21aaf62c-4461-4af7-9cc9-8f3154256131&thumb,서울특별시 영등포구 신길로 190,37.509564,126.9118923
이태원 관광특구,서울 용산구,02-797-7319,"['19_20한국관광100선', '관광지', '다문화', '데이트장소추천', '도심여행', '문화행사']",https://cdn.visitkorea.or.kr/img/call?cmd=VIEW&id=6603c9b0-f31d-411b-96f7-a659af2965ae&thumb,서울특별시 용산구 이태원로 196,37.5343325,126.9957857
이태원 앤틱 가구 거리,서울 용산구,02-797-5119,"['가구점', '가족과함께', '고가구', '골동품', '관광지', '목가구', '쇼핑거리', '연인과함께']",https://cdn.visitkorea.or.kr/img/call?cmd=VIEW&id=e3dfb7cf-c586-4a44-918e-cba358679c76&thumb,서울특별시 용산구 보광로 109-1,37.5325765,126.9944278
이태원 우사단길,서울 용산구,02-794-5579,"['관광지', '데이트명소', '데이트하기좋은곳', '서울데이트', '연인과함께', '우사단길']",https://cdn.visitkorea.or.kr/img/call?cmd=VIEW&id=031bc0a6-23b9-4525-adea-49781624ee15&thumb,서울특별시 용산구 한남동,37.5311789,127.0062454
익선동,서울 종로구,02-737-7885,"['가족과함께', '관광지', '남녀노소', '데이트명소', '데이트장소추천', '산책하기']",https://cdn.visitkorea.or.kr/img/call?cmd=VIEW&id=1f7efd57-913b-4bcf-a0a9-bacb715566a1&thumb,서울특별시 종로구 익선동,37.5742793,126.989835
인사동,서울 종로구,02-734-0222,"['관광지', '도심여행', '수도권', '시티투어', '인사동', '주말추천여행지', '체험']",https://cdn.visitkorea.or.kr/img/call?cmd=VIEW&id=c7a4f3f3-6db9-40a9-9bad-53a4ab0cf13e&thumb,서울특별시 종로구 인사동길 62,37.5753975,126.9834891
인왕사(서울),서울 종로구,02-737-4434,"['관광지', '불교', '불교문화', '사찰여행', '서울사찰', '수도권', '역사', '인왕사']",https://cdn.visitkorea.or.kr/img/call?cmd=VIEW&id=9e031ec8-cd74-4dec-9591-04f670027f78&thumb,서울특별시 종로구 통일로18가길 16-1,37.5786473,126.9597697
인왕산,서울 종로구,02-2148-2834,"['관광지', '등산', '수도권', '인왕산', '자연', '트레킹']",https://cdn.visitkorea.or.kr/img/call?cmd=VIEW&id=e28e2037-9eeb-4382-a174-8529318238f3&thumb,서울특별시 종로구 인왕산로1길 29,37.5735323,126.9640974
일선사(서울),서울 종로구,02-379-8697,"['관광지', '도심속', '불교', '불교문화', '사찰여행', '역사', '자연환경', '전통사찰']",https://cdn.visitkorea.or.kr/img/call?cmd=VIEW&id=undefined&thumb,서울특별시 종로구 평창6길 79-141,37.6280003,126.9770872
일성이준열사동상,서울 중구,02-3783-5922,"['3·1운동_100주년_여행지추천', '관광지', '독립', '독립운동', '애국계몽', '역사']",https://cdn.visitkorea.or.kr/img/call?cmd=VIEW&id=12a562f9-c74f-47d2-b966-f67ec94b9cad&thumb,서울특별시 중구 동호로 257-10,37.5583461,127.0038674
일자산자연공원,서울 강동구,02-3425-6443,"['걷기길', '관광지', '수도권', '연중무휴', '일자산자연공원', '자연', '힐링']",https://cdn.visitkorea.or.kr/img/call?cmd=VIEW&id=cfe70b13-9280-4e1b-87a4-b858a81b37e8&thumb,서울특별시 강동구 동남로 660,37.5330568,127.151191
자매공원(앙카라공원),서울 영등포구,02-2670-3758,"['걷기길', '관광지', '나들이', '남녀노소', '도심공원', '산책길', '산책하기', '산책하기좋은곳']",https://cdn.visitkorea.or.kr/img/call?cmd=VIEW&id=10c41d98-5801-4361-9912-344491a66d6d&thumb,서울특별시 영등포구 의사당대로 지하 166,37.5169088,126.9288823
자생식물학습장,서울 종로구,02-762-4868,"['가족여행', '고궁', '관광지', '교과서속여행', '꽃여행', '사계절', '수도권', '실내여행지']",https://cdn.visitkorea.or.kr/img/call?cmd=VIEW&id=13290218-10dc-49e8-924e-9754df14bdd8&thumb,서울특별시 종로구 창경궁로 185,37.5802443,126.9946543
자양동 양꼬치거리 (중국음식문화거리),서울 광진구,02-450-1513,"['관광지', '꼬치구이', '양고기', '양꼬치', '음식문화', '음식문화', '음식문화거리']",https://cdn.visitkorea.or.kr/img/call?cmd=VIEW&id=9b0ccdaa-440a-4637-942d-b79aac7ba09c&thumb,서울특별시 광진구 자양동,37.5324005,127.0715809
자운암(서울),서울 관악구,02-882-3839,"['관광지', '불교', '불교문화', '불교사찰', '사찰', '사찰여행', '역사', '자연속으로']",https://cdn.visitkorea.or.kr/img/call?cmd=VIEW&id=0cd1b289-db42-4699-b314-2c308b908ae2&thumb,서울특별시 관악구 관악로,37.4814353,126.9549042
잠실 관광특구,서울 송파구,02-2147-2105,"['관광지', '놀이동산&테마파크', '문화행사', '복합문화공간', '산책길', '산책하기']",https://cdn.visitkorea.or.kr/img/call?cmd=VIEW&id=83176cd3-a04a-4e45-8634-2271e3adcd91&thumb,서울특별시 송파구 올림픽로 240,37.5112348,127.0980274
장수공원(열녀문),서울 양천구,02-2603-0203,"['관광지', '남녀노소', '산책하기좋은곳', '아이와함께', '역사문화재', '역사이야기']",https://cdn.visitkorea.or.kr/img/call?cmd=VIEW&id=df774262-8a77-49b4-b712-08248328b6d2&thumb,서울특별시 양천구 신월로27길 24,37.5214313,126.8454327
장안평 자동차산업 종합정보센터,서울 성동구,02-2213-1370,"['가족여행', '관광지', '산업관광', '산업관광지', '수도권', '아이와함께', '이색체험']",https://cdn.visitkorea.or.kr/img/call?cmd=VIEW&id=69c43eff-6621-423f-841d-acb631bdce5b&thumb,서울특별시 성동구 자동차시장3길 64,37.5597188,127.0629024
장충단공원,서울 중구,02-3396-5856,"['가족여행', '걷기여행', '관광지', '나들이', '당일치기여행', '사계절', '서울근교여행']",https://cdn.visitkorea.or.kr/img/call?cmd=VIEW&id=fa587e89-97e8-4727-85a7-92620a453b27&thumb,서울특별시 중구 동호로 261,37.5587439,127.0047721
장충동 족발 골목,서울 중구,02-2236-9135,"['골목시장', '관광지', '남녀노소', '먹자골목', '서울맛집투어', '술안주', '숨은맛집']",https://cdn.visitkorea.or.kr/img/call?cmd=VIEW&id=20e3e9cd-f11d-458a-b75e-8157a75042bb&thumb,서울특별시 중구 장충단로 176,37.5604577,127.0058427
적조사(서울),서울 성북구,02-924-5362,"['관광지', '불교', '불교문화', '사찰', '사찰여행', '역사', '자연속으로', '자연환경']",https://cdn.visitkorea.or.kr/img/call?cmd=VIEW&id=d504f7ea-e921-4a4f-9d28-dc783ae5b1fc&thumb,서울특별시 성북구 흥천사길 49-23,37.5983496,127.0074133
전주이씨광평대군파묘역,서울 강남구,02-459-4733,"['관광지', '역사', '역사공부', '역사관광지', '역사를품은곳', '역사문화재', '역사속']",https://cdn.visitkorea.or.kr/img/call?cmd=VIEW&id=b0e70080-706a-4363-8d4f-449bb74781c5&thumb,서울특별시 강남구 광평로31길 20,37.4858512,127.0921442
전통염료식물원,서울 용산구,02-2077-9000,"['관광지', '자연']",https://cdn.visitkorea.or.kr/img/call?cmd=VIEW&id=332afd25-5bf5-4eda-ae64-b0bd9e0d7abd&thumb,서울특별시 용산구 서빙고로 137,37.5246635,126.9777271
절두산 순교성지,서울 마포구,02-3142-4434,"['관광지', '역사', '역사공부', '역사관광지', '역사를품은곳', '역사문화재', '역사속']",https://cdn.visitkorea.or.kr/img/call?cmd=VIEW&id=43b43242-a400-449f-9c0d-3b44a951bbc3&thumb,서울특별시 마포구 토정로 6,37.5444056,126.9116248
정동교회 이필주 사택 터,서울 중구,02-753-0001,"['관광지', '수도권', '역사', '역사관광지', '역사를품은곳', '역사문화재', '역사속']",https://cdn.visitkorea.or.kr/img/call?cmd=VIEW&id=c70cc4e8-49f5-44fa-9489-f6d23e689e09&thumb,서울특별시 중구 정동길 46,37.5652468,126.97249
정동전망대,서울 중구,02-120,"['가족과함께', '경치좋은곳', '관광지', '남녀노소', '도심여행', '수도권', '연인과함께']",https://cdn.visitkorea.or.kr/img/call?cmd=VIEW&id=b2294574-6c75-4e6c-90b8-ceee4c0f2ddd&thumb,서울특별시 중구 덕수궁길 15,37.5642629,126.9746757
정몽주 동상,서울 마포구,02-334-7878,"['고려', '관광지', '동상', '마포구', '아이와함께', '양화대교', '역사', '역사공부']",https://cdn.visitkorea.or.kr/img/call?cmd=VIEW&id=d92a9d27-bf90-4701-84ac-1f3af820abd7&thumb,서울특별시 마포구 합정동,37.5463089,126.9101219
정법사(서울),서울 성북구,02-762-0774,"['관광지', '불교', '불교문화', '사찰', '사찰여행', '역사', '자연속으로', '자연환경']",https://cdn.visitkorea.or.kr/img/call?cmd=VIEW&id=d2afc1b5-5ec4-4eba-b7c2-0cdac1a42a46&thumb,서울특별시 성북구 대사관로13길 44,37.6017222,126.9908478
정선옹주 묘역,서울 구로구,02-860-2278,"['관광지', '역사', '역사공부', '역사관광지', '역사를품은곳', '역사문화재', '역사속']",https://cdn.visitkorea.or.kr/img/call?cmd=VIEW&id=e2b6a254-e908-44c5-b361-89bcbb302b0f&thumb,서울특별시 구로구 궁동,37.5003075,126.8289067
정암사,서울 노원구,02-930-1995,"['관광지', '도심여행', '불교', '불교문화', '사찰', '사찰여행', '산사', '역사', '자연좋은곳']",https://cdn.visitkorea.or.kr/img/call?cmd=VIEW&id=5610af83-3178-4f49-b488-f78f7d04c69f&thumb,서울특별시 노원구 덕릉로94길 127,37.6615209,127.0852295
정정공강사상묘역,서울 관악구,02-879-5618,"['관광지', '서울특별시유형문화재', '수도권', '역사', '역사공부', '역사관광지']",https://cdn.visitkorea.or.kr/img/call?cmd=VIEW&id=bac74dab-9024-4aa1-97e8-634985fb5e83&thumb,서울특별시 관악구 난곡동,37.4693789,126.9202006
조계사(서울),서울 종로구,02-768-8600,"['관광지', '나홀로여행', '불교', '불교문화', '사찰', '산사', '역사', '역사유적지']",https://cdn.visitkorea.or.kr/img/call?cmd=VIEW&id=aba6b87c-6d74-4601-bac3-ade5bea1c626&thumb,서울특별시 종로구 우정국로 55,37.5737854,126.9818967
조선일보 뉴지엄,서울 동작구,02-3280-3244,"['관광지', '뉴지엄', '산업관광', '산업관광지', '수도권', '아이와함께', '이색체험']",https://cdn.visitkorea.or.kr/img/call?cmd=VIEW&id=8184018f-4be3-4f43-909d-fe528d229a66&thumb,서울특별시 동작구 현충로 124,37.506384,126.9671558
존비코올터장군상,서울 광진구,1577-0606,"['관광지', '사계절', '수도권', '아이와함께', '역사공부', '역사관광지', '역사를품은곳']",https://cdn.visitkorea.or.kr/img/call?cmd=VIEW&id=9e1536e7-23a1-405f-b64b-327784ff9317&thumb,서울특별시 광진구 능동로 216,37.549363,127.0818126
종로 청계 관광특구,서울 종로구,02-2148-1861,"['걷기여행', '관광지', '근대문화유산', '도심여행', '마을축제', '산책하기좋은곳']",https://cdn.visitkorea.or.kr/img/call?cmd=VIEW&id=085ae33d-4745-4e4d-99ac-15e9146c91aa&thumb,서울특별시 종로구 율곡로 99,37.5800952,126.9918496
종묘 [유네스코 세계문화유산],서울 종로구,02-765-0195,"['가족여행', '관광지', '교과서속여행', '당일치기여행', '서울근교여행', '아이와함께']",https://cdn.visitkorea.or.kr/img/call?cmd=VIEW&id=9722146d-f45c-4619-ad58-eaf53dbd61b8&thumb,서울특별시 종로구 종로 157,37.5729316,126.9943518
종묘광장공원,서울 종로구,02-2148-2842,"['가족여행', '걷기여행', '관광지', '나들이', '당일치기여행', '봄나들이', '사계절']",https://cdn.visitkorea.or.kr/img/call?cmd=VIEW&id=0add562f-9a81-4129-929d-ed670d9d8903&thumb,서울특별시 종로구 종로 157,37.5729316,126.9943518
중명전,서울 중구,02-771-9953,"['가족여행', '관광지', '교과서속여행', '근대문화유산', '도심여행', '상설전시']",https://cdn.visitkorea.or.kr/img/call?cmd=VIEW&id=661d947d-433d-48fd-abf7-45363080c11a&thumb,서울특별시 중구 정동길 41-11,37.5666833,126.9725246
중앙고등학교,서울 종로구,02-742-1321,"['관광지', '문화재', '사적지', '서울중앙고등학교', '수도권', '역사', '역사공부']",https://cdn.visitkorea.or.kr/img/call?cmd=VIEW&id=b778eac5-af19-4efe-9b85-5b0c3ab76cd8&thumb,서울특별시 종로구 창덕궁길 164,37.584897,126.9870352
"지양산(무장애숲길,유아숲체험원)",서울 양천구,02-2620-3576,"['관광지', '남녀노소', '산책로', '산책하기좋은곳', '아이와함께', '이색체험', '체험프로그램']",https://cdn.visitkorea.or.kr/img/call?cmd=VIEW&id=fde2fa79-272c-40aa-a238-4ac940f36f00&thumb,서울특별시 양천구 신월동,37.519981,126.8365553
진관사(서울),서울 은평구,02-359-8410,"['관광지', '불교', '불교문화', '불교사찰', '사찰', '사찰여행', '역사', '자연속으로']",https://cdn.visitkorea.or.kr/img/call?cmd=VIEW&id=4bd7c64d-2387-4fbe-9884-872cc143fcbf&thumb,서울특별시 은평구 진관길 73,37.6383876,126.946406
진관사계곡,서울 은평구,02-909-0497,"['가족과함께', '관광지', '늦더위피서', '아이와함께', '여름피서지', '자연', '자연관광지']",https://cdn.visitkorea.or.kr/img/call?cmd=VIEW&id=c8480f8a-c3e7-4bdf-b246-cdd118a6abf2&thumb,서울특별시 은평구 진관길 73,37.6383876,126.946406
창경궁,서울 종로구,02-762-4868,"['15_16한국관광100선', '17_18한국관광100선', '19_20한국관광100선', '가족여행']",https://cdn.visitkorea.or.kr/img/call?cmd=VIEW&id=f8e84f56-b94c-4d8e-a528-f5b1864963d9&thumb,서울특별시 종로구 창경궁로 185,37.5802443,126.9946543
창경궁 명정전,서울 종로구,02-762-4868,"['가족과함께', '관광지', '아이와함께', '역사공부', '역사관광지', '역사를품은곳']",https://cdn.visitkorea.or.kr/img/call?cmd=VIEW&id=902987eb-0329-467f-b461-0b823d7f6168&thumb,서울특별시 종로구 창경궁로 185,37.5802443,126.9946543
창경궁 홍화문,서울 종로구,02-762-4868,"['19_20한국관광100선', '가족여행', '고궁', '관광지', '교과서속여행', '사계절']",https://cdn.visitkorea.or.kr/img/call?cmd=VIEW&id=f9e03ca4-519f-4898-b72f-0bb53b1af952&thumb,서울특별시 종로구 율곡로 99,37.5800952,126.9918496
창덕궁 다래나무,서울 종로구,02-3668-2300,"['관광지', '수도권', '자연', '창덕궁', '창덕궁다래나무', '천연기념물']",https://cdn.visitkorea.or.kr/img/call?cmd=VIEW&id=8d30a999-950a-4151-8fc7-76f2e75aaa06&thumb,서울특별시 종로구 율곡로 99,37.5800952,126.9918496
창덕궁 인정문,서울 종로구,02-3668-2300,"['19_20한국관광100선', '19_20한국관광100선', '가족여행', '고궁', '관광지']",https://cdn.visitkorea.or.kr/img/call?cmd=VIEW&id=54574690-f66a-43d1-b232-8d0953fbccbf&thumb,서울특별시 종로구 율곡로 99,37.5800952,126.9918496
창덕궁 향나무,서울 종로구,02-3668-2300,"['관광지', '수도권', '자연', '창덕궁', '창덕궁향나무', '천연기념물']",https://cdn.visitkorea.or.kr/img/call?cmd=VIEW&id=31bc2eae-8167-4f06-b828-0c89c94c57a3&thumb,서울특별시 종로구 율곡로 99,37.5800952,126.9918496
창덕궁과 후원 [유네스코 세계문화유산],서울 종로구,02-3668-2300,"['19_20한국관광100선', '관광지', '데이트코스', '수도권', '역사', '역사공부']",https://cdn.visitkorea.or.kr/img/call?cmd=VIEW&id=8f3bc2c8-a6d4-40f6-992e-82cc10edef62&thumb,서울특별시 종로구 율곡로 99,37.5800952,126.9918496
창의문(자하문),서울 종로구,02-2148-1822,"['가족여행', '관광지', '문화재', '서울여행', '역사', '역사공부', '역사관광지', '역사를품은곳']",https://cdn.visitkorea.or.kr/img/call?cmd=VIEW&id=81a3a51c-aed6-4503-be81-81077f475aae&thumb,서울특별시 종로구 창의문로 118,37.592565,126.9664811
채석장 전망대,서울 종로구,02-764-6364,"['가족과함께', '경치여행', '경치좋은곳', '관광지', '아이와함께', '역사공부', '역사속']",https://cdn.visitkorea.or.kr/img/call?cmd=VIEW&id=ef084893-47a6-4dc5-94de-353ed0aade55&thumb,서울특별시 종로구 창신동,37.5750914,127.0121575
챔피언1250,서울 용산구,02-2012-1401,"['관광지', '놀이공간', '미세먼지_피하는_실내여행', '복합레저스포츠', '수도권']",https://cdn.visitkorea.or.kr/img/call?cmd=VIEW&id=924e4245-e627-4794-bbb7-4e06c24c9d64&thumb,서울특별시 용산구 한강대로21나길 17,37.5288539,126.9640447
천간사,서울 은평구,02-355-7430,"['관광지', '불교', '불교문화', '사찰', '사찰여행', '수도권', '역사', '전통사찰', '종교']",https://cdn.visitkorea.or.kr/img/call?cmd=VIEW&id=be66af79-f7c3-4174-9ac7-ddf0808c8c83&thumb,서울특별시 은평구 불광로10길 20-8,37.6173277,126.9343385
천도교중앙대교당,서울 종로구,02-3396-5842,"['관광지', '교과서속여행', '나홀로여행', '도심여행', '역사', '역사공부', '역사관광지']",https://cdn.visitkorea.or.kr/img/call?cmd=VIEW&id=f85b2682-35f4-4b8c-afcf-1160819f39c7&thumb,서울특별시 종로구 삼일대로 457,37.5752153,126.9857682
천왕근린공원,서울 구로구,02-860-3086,"['걷기좋은곳', '공원', '관광지', '산책하기좋은곳', '아이와함께', '연인과함께']",https://cdn.visitkorea.or.kr/img/call?cmd=VIEW&id=31b7c14b-a68a-434f-86a8-be35530ae80f&thumb,서울특별시 구로구 천왕동,37.4803813,126.8415075
천축사(서울),서울 도봉구,02-954-1474,"['관광지', '도심속', '불교', '불교문화', '사찰', '사찰여행', '수도권', '역사', '자연환경']",https://cdn.visitkorea.or.kr/img/call?cmd=VIEW&id=8ddedbad-1cec-4977-9029-a6838521482a&thumb,서울특별시 도봉구 도봉산길 92-2,37.6944067,127.0198611
천호공원,서울 강동구,02-489-2776,"['공원', '관광지', '근린공원', '산책길', '산책코스', '산책하기', '산책하기좋은곳']",https://cdn.visitkorea.or.kr/img/call?cmd=VIEW&id=edbdbbce-369c-4b56-8f88-9529a8234d77&thumb,서울특별시 강동구 올림픽로 702,37.5443685,127.126709
청계산,서울 서초구,02-2155-6870,"['관광지', '자연']",https://cdn.visitkorea.or.kr/img/call?cmd=VIEW&id=80aacf9f-d720-4215-a6d2-3c39ab08f401&thumb,서울특별시 서초구 원터길,37.4421811,127.056286
청계천,서울 중구,02-2290-7111,"['가족여행', '관광지', '나들이', '데이트코스', '드라이브여행', '산책길', '산책하기']",https://cdn.visitkorea.or.kr/img/call?cmd=VIEW&id=84811e7f-aba6-47b7-bc59-7ff911d3e406&thumb,서울특별시 종로구 창신동,37.5750914,127.0121575
청계천 버들습지,서울 동대문구,02-2290-6114,"['관광지', '나들이', '당일치기여행', '도심여행', '숲', '자연', '자연좋은곳', '청계천버들습지']",https://cdn.visitkorea.or.kr/img/call?cmd=VIEW&id=835fc6a1-fc61-49ac-beac-da8eea890f0a&thumb,서울 동대문구 용두동,37.5757009,127.034989
청담공원,서울 강남구,02-3423-6261,"['공원', '관광지', '산책길', '산책코스', '산책하기', '산책하기좋은곳', '아침운동']",https://cdn.visitkorea.or.kr/img/call?cmd=VIEW&id=06ab2e98-9470-4c37-9d1c-a253ea8ac38a&thumb,서울특별시 강남구 영동대로131길 26,37.5203984,127.0541271
청담패션거리,서울 강남구,02-3445-0111,"['관광지', '남녀노소', '문화예술', '복합문화공간', '수도권', '연인과함께', '영도해양문화공간']",https://cdn.visitkorea.or.kr/img/call?cmd=VIEW&id=c6bff3ac-0a82-4046-afd1-31dc5801d75a&thumb,서울특별시 강남구 청담동,37.5231998,127.0486655
청량사(서울),서울 동대문구,02-962-7390,"['관광지', '도심속', '불교', '불교문화', '사찰', '사찰여행', '역사', '전통사찰', '종교']",https://cdn.visitkorea.or.kr/img/call?cmd=VIEW&id=214027cb-29a5-478e-9f99-d17f91fe5281&thumb,서울특별시 동대문구 제기로31길 10-3,37.5880864,127.0472701
청룡사(서울),서울 종로구,02-763-2145,"['관광지', '도심속', '불교', '불교문화', '사찰', '사찰여행', '수도권', '역사', '전통사찰']",https://cdn.visitkorea.or.kr/img/call?cmd=VIEW&id=de86c31b-0a6f-40aa-89b8-25439c11e91e&thumb,서울특별시 종로구 동망산길 65,37.579895,127.0167168
청와대,서울 종로구,02-730-5800,"['가족과함께', '관광지', '교육여행', '대통령', '도심여행', '아이와함께', '역사공부']",https://cdn.visitkorea.or.kr/img/call?cmd=VIEW&id=70826019-ffda-43f2-aee6-d1a561f72737&thumb,서울특별시 종로구 효자로13길 45,37.5823713,126.9730483
청와대 앞길,서울 종로구,02-120,"['가족여행', '관광지', '나홀로여행', '당일치기여행', '도심여행', '사계절', '산책길']",https://cdn.visitkorea.or.kr/img/call?cmd=VIEW&id=c0af1119-3578-4e7c-b58e-eb493f4ede3a&thumb,서울특별시 종로구 궁정동,37.5850029,126.9732194
초안산,서울 노원구,02-2116-3943,"['관광지', '자연']",https://cdn.visitkorea.or.kr/img/call?cmd=VIEW&id=43a2d41d-713c-4d83-a86e-614faebb4963&thumb,서울특별시 노원구 월계동,37.6277451,127.0568215
최순우 옛집,서울 성북구,02-3675-3401,"['관광지', '근대한옥', '기념관', '아이와함께', '역사', '역사문화재', '역사속', '역사속으로']",https://cdn.visitkorea.or.kr/img/call?cmd=VIEW&id=6387537b-8555-4200-97b9-0b147abd8fde&thumb,서울특별시 성북구 성북로15길 9,37.5928953,127.0003282
충무공 이순신 동상,서울 종로구,02-120,"['관광지', '광화문광장', '교과서속여행', '남녀노소', '도심여행', '산책하기', '산책하기좋은곳']",https://cdn.visitkorea.or.kr/img/call?cmd=VIEW&id=5694bda0-a374-486b-b109-672a908119e2&thumb,서울특별시 종로구 세종대로 175,37.5721241,126.9760848
충익공신경진묘역,서울 중랑구,02-2094-1822,"['관광지', '역사', '역사공부', '역사관광지', '역사를품은곳', '역사문화재', '역사속']",https://cdn.visitkorea.or.kr/img/call?cmd=VIEW&id=7598ca2d-891a-4084-bcdc-419c05ade123&thumb,서울특별시 중랑구 망우로70길 103,37.5971138,127.1029884
충주 정토사지 홍법국사탑,서울 용산구,02-2077-9000,"['관광지', '역사', '역사공부', '역사관광', '역사관광지', '역사를품은곳', '역사문화재']",https://cdn.visitkorea.or.kr/img/call?cmd=VIEW&id=745bd379-c1d8-4341-8cb1-0f9efe3286b1&thumb,서울특별시 용산구 서빙고로 137,37.5246635,126.9777271
크라운해태 키즈뮤지엄,서울 용산구,02-709-7403,"['관광지', '박물관', '산업관광', '산업관광지', '수도권', '아이와함께', '이색체험']",https://cdn.visitkorea.or.kr/img/call?cmd=VIEW&id=d36a0165-c0a6-4a60-8bb8-2b5b6ffe690a&thumb,서울특별시 용산구 한강대로72길 3,37.5406719,126.9736296
키자니아 서울,서울 송파구,1544-5110,"['', '미세먼지_피하는_실내여행', '관광지', '도심여행', '실내여행지', '아이가_열광하는_여행']",https://cdn.visitkorea.or.kr/img/call?cmd=VIEW&id=ef08e8a4-5aaa-47d1-86f4-ac21cdb39c2d&thumb,서울특별시 송파구 올림픽로 240,37.5112348,127.0980274
키즈오토파크,서울 광진구,02-455-7119,"['관광지', '교육여행', '교육체험', '아이가_좋아하는_여행', '아이와함께', '이색체험']",https://cdn.visitkorea.or.kr/img/call?cmd=VIEW&id=b3b4c370-00c1-453b-9449-7c115f5717fe&thumb,서울특별시 광진구 능동로 216,37.549363,127.0818126
탄천,서울 강남구,02-3423-6254,"['관광지', '자연']",https://cdn.visitkorea.or.kr/img/call?cmd=VIEW&id=ddaa3585-44d3-495b-95c2-58ec60537350&thumb,서울 강남구 율현동,37.4720063,127.1104558
탑골공원,서울 종로구,02-731-0534,"['가족여행', '관광지', '나들이', '드라이브여행', '수도권', '아이와함께', '주말추천여행지']",https://cdn.visitkorea.or.kr/img/call?cmd=VIEW&id=fd16c054-e90f-4e35-9c38-c91a0fdac1ad&thumb,서울특별시 종로구 종로 99,37.5705544,126.9884101
탑골공원 팔각정,서울 종로구,02-2148-1822,"['관광지', '서울특별시유형문화재', '수도권', '역사', '역사공부', '역사관광지']",https://cdn.visitkorea.or.kr/img/call?cmd=VIEW&id=b4c83423-567d-4a10-915c-30cb94b32d55&thumb,서울특별시 종로구 종로 99,37.5705544,126.9884101
템플스테이 홍보관,서울 종로구,02-2031-2000,"['가족여행', '가족체험여행', '관광지', '사계절', '연인과함께', '외국어해설', '이색체험']",https://cdn.visitkorea.or.kr/img/call?cmd=VIEW&id=d0949423-54cd-4fcb-b308-896666356445&thumb,서울특별시 종로구 우정국로 56,37.5738938,126.9831801
토성산성 어울길,서울 송파구,031-777-7500,"['걷기길', '걷기여행', '관광지', '남한산성길', '생태관광', '생태관광지', '성내천']",https://cdn.visitkorea.or.kr/img/call?cmd=VIEW&id=6859d761-fa60-4142-8b6a-876a606a01d3&thumb,서울특별시 송파구 올림픽로 383,37.5169204,127.1107338
파리공원,서울 양천구,02-2620-3574,"['걷기길', '관광지', '나들이', '서울도심여행', '아이와함께', '연인과함께', '자연']",https://cdn.visitkorea.or.kr/img/call?cmd=VIEW&id=7248dacb-d836-4201-b0ef-07d6d4b0b66a&thumb,서울특별시 양천구 목동동로 363,37.5344362,126.8771392
파크하비오 워터킹덤&스파,서울 송파구,02-1600-0666,"['가족과함께', '관광지', '무더위_피해_실내놀이', '미세먼지_피하는_실내여행']",https://cdn.visitkorea.or.kr/img/call?cmd=VIEW&id=533768e3-8268-4109-a9bc-86eae0dd45cd&thumb,서울특별시 송파구 송파대로 111,37.4856859,127.1193237
팹랩 서울,서울 종로구,070-7743-0806,"['관광지', '남녀노소', '산업관광', '산업관광지', '수도권', '아이와함께', '연인과함께']",https://cdn.visitkorea.or.kr/img/call?cmd=VIEW&id=f037180c-c823-4340-995f-eea4c7d747e7&thumb,서울특별시 종로구 청계천로 159,37.569243,126.9952266
평화열차 DMZ 트레인,서울 용산구,1544-7788,"['DMZ여행', '가족여행', '가족체험여행', '관광지', '교육여행', '서울근교여행']",https://cdn.visitkorea.or.kr/img/call?cmd=VIEW&id=cf112a92-d763-47a6-b2a9-1bd7d2de9f9c&thumb,서울특별시 용산구 한강대로23길 55,37.5288539,126.9640447
푸드뱅크마켓 신월점&50스타트센터,서울 양천구,02-2644-1377,"['관광지', '문화복지향상', '복합문화공간', '복합문화시설', '상담', '열린문화공간']",https://cdn.visitkorea.or.kr/img/call?cmd=VIEW&id=2dc4182a-10b1-419f-9922-eca44d7b5e66&thumb,서울특별시 양천구 곰달래로13길 73,37.5359418,126.8337268
피노파밀리아,서울 노원구,02-938-0911,"['관광지', '도심여행', '문화공간', '복합문화공간', '아이와함께', '연인과함께']",https://cdn.visitkorea.or.kr/img/call?cmd=VIEW&id=2866d35e-00b5-4c7a-8425-52a555e48722&thumb,서울특별시 노원구 중계로 131-17,37.6464414,127.0804954
하늘공원,서울 마포구,02-3153-8367,"['관광지', '남녀노소', '산책하기', '아이와함께', '야경명소', '야경여행', '야경좋은곳']",https://cdn.visitkorea.or.kr/img/call?cmd=VIEW&id=1b29c1e0-7a39-4738-bdcc-4049cb3fc65f&thumb,서울특별시 마포구 하늘공원로 95,37.5674467,126.885455
학도암(서울),서울 노원구,02-930-6611,"['관광지', '도심속', '불교', '불교문화', '사찰', '사찰여행', '역사', '전통사찰', '종교']",https://cdn.visitkorea.or.kr/img/call?cmd=VIEW&id=799803da-08a0-4f91-9927-3fd0f3254f09&thumb,서울특별시 노원구 중계로14다길 89,37.6519051,127.0897638
학림사(서울),서울 노원구,02-916-1700,"['관광지', '도심속', '불교', '불교문화', '사찰', '사찰여행', '역사', '전통사찰', '종교']",https://cdn.visitkorea.or.kr/img/call?cmd=VIEW&id=e0529d4b-2430-4fc1-a8f0-9eb5665fbce0&thumb,서울특별시 노원구 덕릉로129가길 241,37.6821058,127.0773454
한강,서울 성동구,02-120,"['관광지', '자연']",https://cdn.visitkorea.or.kr/img/call?cmd=VIEW&id=6bb36bf7-4148-4fb3-9659-c3b37ebe1e88&thumb,서울특별시 성동구 강변북로 257,37.5386913,127.0420444
한강방어백골부대전적비,서울 영등포구,1577-0606,"['관광지', '국군', '백골부대', '역사', '역사공부', '역사관광지', '역사를품은곳']",https://cdn.visitkorea.or.kr/img/call?cmd=VIEW&id=36970622-c2b7-40d5-9ad3-5e057d88c5e7&thumb,서울특별시 영등포구 양화동,37.5483754,126.8890567
한강시민공원 광나루지구(광나루한강공원),서울 강동구,02-3780-0501,"['걷기길', '관광지', '광나루한강공원', '나들이', '도심여행', '야경투어', '연인과함께']",https://cdn.visitkorea.or.kr/img/call?cmd=VIEW&id=1ec62188-ca15-4aee-b473-ffb718c5e605&thumb,서울특별시 강동구 선사로 83-66,37.5499281,127.122235
한강시민공원 난지지구(난지한강공원),서울 마포구,02-3780-0611,"['관광지', '나들이', '난지한강공원', '데이트코스', '복합문화공간', '연인과함께']",https://cdn.visitkorea.or.kr/img/call?cmd=VIEW&id=461964ea-3b3f-4a95-af3e-ad2969a4a474&thumb,서울특별시 마포구 한강난지로 162,37.5661708,126.8763463
한강시민공원 뚝섬지구(뚝섬한강공원),서울 광진구,02-3780-0521,"['걷기길', '관광지', '나들이', '도심여행', '뚝섬한강공원', '야경투어', '연인과함께']",https://cdn.visitkorea.or.kr/img/call?cmd=VIEW&id=bbacde5b-bb23-486b-89b5-39aa56f9bd0a&thumb,서울특별시 광진구 강변북로 139,37.5293797,127.0739795
한강시민공원 망원지구(망원한강공원),서울 마포구,02-3780-0601,"['걷기길', '관광지', '나들이', '도심여행', '망원한강공원', '산책길', '산책하기']",https://cdn.visitkorea.or.kr/img/call?cmd=VIEW&id=f9584cc7-c81b-433e-ab30-59d624640492&thumb,서울특별시 마포구 마포나루길 467,37.5524957,126.8994475
한강시민공원 양화지구(양화한강공원),서울 영등포구,02-3780-0581,"['걷기길', '관광지', '나들이', '도심여행', '야경투어', '양화한강공원', '연인과함께']",https://cdn.visitkorea.or.kr/img/call?cmd=VIEW&id=f5a3df87-f7d6-4b46-a92d-ee041c240fcc&thumb,서울특별시 영등포구 노들로 221,37.5382898,126.9022328
한강시민공원 여의도지구(여의도한강공원),서울 영등포구,02-3780-0561,"['2019년4월_Tmap추천_여행예보', '걷기길', '관광지', '나들이', '도심여행']",https://cdn.visitkorea.or.kr/img/call?cmd=VIEW&id=4275a917-2e93-4be9-b9c4-e8526b23fa69&thumb,서울특별시 영등포구 여의동로 330,37.5263086,126.9335824
한강시민공원 이촌지구(이촌한강공원),서울 용산구,02-3780-0551,"['걷기길', '관광지', '남녀노소', '봄나들이', '산책코스', '산책하기좋은곳', '수도권']",https://cdn.visitkorea.or.kr/img/call?cmd=VIEW&id=bd99823a-0c59-4af8-8317-7d9b57e28045&thumb,서울특별시 용산구 이촌로72길 62,37.5177911,126.9707655
한강시민공원 잠실지구(잠실한강공원),서울 송파구,02-3780-0511,"['걷기길', '관광지', '나들이', '도심여행', '수도권', '야경투어', '연인과함께', '자전거여행']",https://cdn.visitkorea.or.kr/img/call?cmd=VIEW&id=850439b3-1c0b-4661-a200-be37367c14dc&thumb,서울특별시 송파구 한가람로 65,37.5175896,127.0867236
한강시민공원 잠원지구(잠원한강공원),서울 서초구,02-3780-0531,"['가족여행', '관광지', '나들이', '산책길', '산책로', '산책하기', '산책하기좋은곳']",https://cdn.visitkorea.or.kr/img/call?cmd=VIEW&id=15a09e6f-237c-45d0-977f-4905f299b0d7&thumb,서울특별시 서초구 잠원로 221-124,37.5206865,127.0122724
한국가구박물관,서울 성북구,02-745-0181,"['가구박물관', '관광지', '박물관', '산업관광', '산업관광지', '수도권', '아이와함께']",https://cdn.visitkorea.or.kr/img/call?cmd=VIEW&id=b45f9caa-88aa-454e-b427-afde896036f9&thumb,서울특별시 성북구 대사관로 121,37.6001521,126.9934261
한국유림독립운동파리장서비,서울 중구,1577-0606,"['관광지', '독립운동', '역사', '역사공부', '역사관광지', '역사를품은곳', '역사문화재']",https://cdn.visitkorea.or.kr/img/call?cmd=VIEW&id=845694b1-7c9d-44e7-b6c5-863437d352da&thumb,서울특별시 중구 동호로 261,37.5587439,127.0047721
한국전통주연구소,서울 종로구,02-389-8611,"['관광지', '남녀노소', '서울여행', '소주', '양조', '이색체험', '전통주', '전통주교육기관']",https://cdn.visitkorea.or.kr/img/call?cmd=VIEW&id=edffc19f-aeaa-49d4-b51e-39493f9a4173&thumb,서울특별시 종로구 자하문로 62,37.5815941,126.9711253
한방스파 여용국,서울 송파구,02-412-0100,"['관광지', '뷰티&스파온천&스파', '연인과함께', '친구와함께', '휴식공간', '휴식여행']",https://cdn.visitkorea.or.kr/img/call?cmd=VIEW&id=98b55a39-7f10-4194-a903-c955f495547a&thumb,서울특별시 송파구 석촌호수로12길 60,37.5082963,127.079901
한복남,서울 종로구,010-6485-8507,"['관광지', '체험']",https://cdn.visitkorea.or.kr/img/call?cmd=VIEW&id=bb622524-b2af-479e-a296-c2d5c5f453ec&thumb,서울특별시 종로구 북촌로5가길 17,37.5802699,126.9818752
해공신익희선생동상,서울 강동구,02-2125-0848,"['관광지', '사계절', '수도권', '아이와함께', '역사공부', '역사관광지', '역사를품은곳']",https://cdn.visitkorea.or.kr/img/call?cmd=VIEW&id=296d4c93-b04f-4697-868f-5fc6a3c2c3d1&thumb,서울특별시 강동구 천호3동 448-49호 (천호동 마을마당 내),37.5363339,127.1318582
해병대104고지전적비,서울 서대문구,,"['관광지', '기념탑', '역사', '역사공부', '역사관광지', '역사를품은곳', '역사문화재']",https://cdn.visitkorea.or.kr/img/call?cmd=VIEW&id=83d734fe-886f-4437-b7c2-0509129c0883&thumb,서울특별시 서대문구 성산로13길 35-1,37.5676098,126.9260798
해풍부원군윤택영댁재실,서울 중구,02-3396-5843,"['관광지', '역사', '역사공부', '역사관광지', '역사를품은곳', '역사문화재', '역사속']",https://cdn.visitkorea.or.kr/img/call?cmd=VIEW&id=baef589a-c201-44cb-a7c8-b008976311c7&thumb,서울특별시 중구 퇴계로34길 28,37.5588388,126.9940727
헌인릉 생태경관보전지역(오리나무림),서울 서초구,02-445-0347,"['관광지', '나들이', '당일치기여행', '생태관광', '수도권', '오리나무림', '자연']",https://cdn.visitkorea.or.kr/img/call?cmd=VIEW&id=0712d93b-37dd-48f2-874a-8ab9fdc87c5e&thumb,서울특별시 서초구 헌인릉길 34,37.464314,127.0823315
현대원서공원,서울 종로구,02-2148-2841,"['공원', '관광지', '도시공원', '도심공원', '산책하기좋은곳', '약속의장소', '연인과함께']",https://cdn.visitkorea.or.kr/img/call?cmd=VIEW&id=cf9ba910-951c-4f38-b700-aadbfb2f8525&thumb,서울특별시 종로구 창덕궁길 19,37.5783244,126.9885598
호국무공수훈자공적비,서울 성동구,031-771-6955,"['관광지', '수도권', '역사', '역사공부', '역사관광지', '역사문화재', '역사속', '역사속으로']",https://cdn.visitkorea.or.kr/img/call?cmd=VIEW&id=3879eb5b-7e35-4c72-b5c6-a2469dace165&thumb,서울특별시 성동구,37.5633415,127.0371025
호국지장사(서울),서울 동작구,02-814-5257,"['관광지', '불교', '불교문화', '사찰', '사찰여행', '역사', '자연속으로', '자연환경']",https://cdn.visitkorea.or.kr/img/call?cmd=VIEW&id=f9c5b6c5-2fd1-49b3-a45b-6e018521def4&thumb,서울특별시 동작구 현충로 210,37.4996897,126.9785099
호국충혼위령비,서울 강서구,02-2125-0848,"['관광지', '역사공부', '역사관광지', '역사를품은곳', '역사속', '역사속으로', '역사여행']",https://cdn.visitkorea.or.kr/img/call?cmd=VIEW&id=58b63193-0ec7-453e-a752-9917366896a7&thumb,서울특별시 강서구 개화동로13길 56-33,37.5805057,126.8031285
호압사(서울),서울 금천구,02-803-4779,"['관광지', '불교', '불교문화', '사찰', '사찰여행', '역사', '자연속으로', '자연환경']",https://cdn.visitkorea.or.kr/img/call?cmd=VIEW&id=960bb971-c679-4087-ac84-88e5d5b48975&thumb,서울특별시 금천구 호암로 278,37.4525178,126.9255484
홍대,서울 마포구,02-323-2240,"['17_18한국관광100선', '19_20한국관광100선', '관광지', '서울', '수도권']",https://cdn.visitkorea.or.kr/img/call?cmd=VIEW&id=a1a7b223-07a0-4562-8920-a7a71858d591&thumb,서울특별시 마포구 홍익로 20,37.5543308,126.9227687
홍대 벽화거리,서울 마포구,02-3153-8353,"['관광지', '사진찍기좋은곳', '사진촬영', '사진촬영명소', '서울데이트장소', '연인과함께']",https://cdn.visitkorea.or.kr/img/call?cmd=VIEW&id=9eb670d9-b76f-44bb-bccf-669418120c9f&thumb,서울특별시 마포구 상수동,37.5454728,126.9244174
홍릉수목원,서울 동대문구,02-961-2522,"['가족여행', '관광지', '꽃여행', '당일치기여행', '데이트코스', '봄꽃여행', '서울근교여행']",https://cdn.visitkorea.or.kr/img/call?cmd=VIEW&id=b841e19f-7005-45da-a226-69ef518bca24&thumb,서울특별시 동대문구 회기로 57,37.5930966,127.0436563
홍지문 및 탕춘대성,서울 종로구,02-2148-1842,"['가족여행', '관광지', '문화재', '서울여행', '서울특별시유형문화재', '역사', '역사공부']",https://cdn.visitkorea.or.kr/img/call?cmd=VIEW&id=0a5d32f0-fa57-4ce1-b277-ea811e4c3487&thumb,서울특별시 종로구 홍지동,37.601247,126.9562041
홍파동 홍난파 가옥,서울 종로구,070-8112-7900,"['건축사', '건축여행', '관광지', '근대건축', '근대문화유산', '등록문화재', '서양식']",https://cdn.visitkorea.or.kr/img/call?cmd=VIEW&id=c81c2148-4276-469c-89e5-2bd50a1c400f&thumb,서울특별시 종로구 송월1길 38,37.5716425,126.9650892
화계사(서울),서울 강북구,02-902-2663,"['관광지', '불교', '불교사찰', '사찰', '사찰여행', '역사', '자연속으로', '자연좋은곳']",https://cdn.visitkorea.or.kr/img/call?cmd=VIEW&id=1b3e8eed-6849-4ef9-8fdb-22006403760f&thumb,서울특별시 강북구 화계사길 117,37.6326445,127.0073066
화랑대 철도공원,서울 노원구,02-2116-0545,"['관광지', '데이트명소', '산책길', '산책하기', '산책하기좋은곳', '야경명소', '야경여행']",https://cdn.visitkorea.or.kr/img/call?cmd=VIEW&id=0d9247d9-fc59-4f23-9e9b-11a773b4f52c&thumb,서울특별시 노원구 공릉동,37.6304778,127.0901988
환구단,서울 중구,02-3396-5842,"['관광지', '사적', '수도권', '역사', '역사공부', '역사관광지', '역사를품은곳', '역사문화재']",https://cdn.visitkorea.or.kr/img/call?cmd=VIEW&id=4c055f45-d235-4b3f-bc88-5823d96fa419&thumb,서울특별시 중구 소공로 112,37.5644064,126.9796971
황금온천,서울 서초구,02-581-4888,"['가족과함께', '관광지', '남녀노소', '목욕탕', '연인과함께', '온천수', '찜질방']",https://cdn.visitkorea.or.kr/img/call?cmd=VIEW&id=45783c32-e38c-4895-b68b-92025c9f9392&thumb,서울특별시 서초구 사임당로 143,37.4918146,127.0252252
황학정,서울 종로구,02-738-5785,"['관광지', '궁술', '서울여행', '역사', '역사공부', '역사관광지', '역사관광지', '역사를품은곳']",https://cdn.visitkorea.or.kr/img/call?cmd=VIEW&id=3335e6c0-40ad-457e-afc5-c4f2b823100b&thumb,서울특별시 종로구 사직로9길 15-32,37.5780479,126.9639534
효령대군이보묘역,서울 서초구,02-2155-6114,"['관광지', '역사', '역사공부', '역사관광지', '역사를품은곳', '역사문화재', '역사속']",https://cdn.visitkorea.or.kr/img/call?cmd=VIEW&id=cdb19f05-fd43-469d-b4aa-58dda03f7194&thumb,서울특별시 서초구 효령로 135,37.4818413,126.9988767
효민공 이경직 묘역,서울 관악구,02-879-5618,"['관광지', '서울특별시유형문화재', '수도권', '역사', '역사공부', '역사관광지']",https://cdn.visitkorea.or.kr/img/call?cmd=VIEW&id=9c3f254c-c94e-4fac-a614-29b45b885a14&thumb,서울특별시 관악구 남현동,37.4675553,126.9794198
효사정,서울 동작구,02-820-9848,"['관광지', '역사', '역사공부', '역사관광지', '역사를품은곳', '역사문화재', '역사속']",https://cdn.visitkorea.or.kr/img/call?cmd=VIEW&id=684ba037-bd13-4555-b249-f5d00517e80f&thumb,서울특별시 동작구 현충로 55,37.5011692,126.9691815
훈련원공원,서울 중구,02-3396-5857,"['관광지', '산책길', '산책하기', '산책하기좋은곳', '역사공부', '역사관광지', '역사속']",https://cdn.visitkorea.or.kr/img/call?cmd=VIEW&id=172d20b7-5a1e-4dd3-827b-cd20ed59eb17&thumb,서울특별시 중구 을지로 227,37.5672983,127.0037006
흥인지문,서울 종로구,02-2148-1842,"['가족여행', '관광지', '교과서속여행', '당일치기여행', '서울근교여행', '아이와함께']",https://cdn.visitkorea.or.kr/img/call?cmd=VIEW&id=c1463d02-2b30-4fd1-9ad1-862199aaa7bc&thumb,서울특별시 종로구 종로 288,37.5711295,127.0096878
흥천사,서울 성북구,02-929-6611,"['관광지', '불교', '불교사찰', '사찰', '사찰여행', '역사', '자연속으로', '자연좋은곳']",https://cdn.visitkorea.or.kr/img/call?cmd=VIEW&id=c5114254-8032-414f-8e50-5003e7a53879&thumb,서울특별시 성북구 흥천사길 29,37.5980542,127.0091499
