name,region,tel,keyword,photo,address,lat,lon
가지산 탄산유황온천,울산 울주군,052-254-2216,"['가족과함께', '관광지', '온천', '온천수', '유황온천', '탄산수', '탄산수', '휴식공간']",https://cdn.visitkorea.or.kr/img/call?cmd=VIEW&id=undefined&thumb,울산광역시 울주군 상북면 운문로 48,35.62102132,129.0496708
가지산도립공원(울주),울산 울주군,052-229-7882,"['관광지', '자연']",https://cdn.visitkorea.or.kr/img/call?cmd=VIEW&id=da0588d3-6bcd-4c26-af0b-b049d31a1af6&thumb,울산광역시 울주군 상북면,35.620403,129.004029
간월산,울산 울주군,052-277-0101,"['관광지', '자연']",https://cdn.visitkorea.or.kr/img/call?cmd=VIEW&id=1a95fcf4-e0ce-4eb4-b699-d4090ef0e093&thumb,울산광역시 울주군 상북면 간월산길 614,35.54820104,129.0453558
간월산 자연휴양림,울산 울주군,052-263-6644,"['관광지', '자연']",https://cdn.visitkorea.or.kr/img/call?cmd=VIEW&id=aebe0c20-8fce-40b2-b3db-029567ca8bbd&thumb,울산광역시 울주군 상북면 등억알프스로 607-15,35.56790477,129.0520001
간절곶 등대,울산 울주군,052-239-6313,"['간절곶등대', '경상권', '관광지', '데이트코스', '바다풍경', '연인과함께', '인생샷']",https://cdn.visitkorea.or.kr/img/call?cmd=VIEW&id=ac1491f5-8e71-4484-b60c-58455cd7453d&thumb,울산광역시 울주군 서생면 간절곶1길 39-2,35.3590693,129.360522
강동 해수온천,울산 북구,052-291-5000,"['가족과함께', '강동해수온천', '경상권', '관광지', '연중무휴', '온천', '휴식공간']",https://cdn.visitkorea.or.kr/img/call?cmd=VIEW&id=1e7d889a-e1fe-4563-9a9c-93cf493475cc&thumb,울산광역시 북구 동해안로 1418,35.61377523,129.4505036
강동 화암 주상절리,울산 북구,052-229-6350,"['강동화암주상절리', '경상권', '경치좋은곳', '관광지', '바다풍경', '울산광역시기념물']",https://cdn.visitkorea.or.kr/img/call?cmd=VIEW&id=7a73b2c4-4321-4091-aa80-6ddc1786fc09&thumb,울산광역시 북구 화암길,35.63415683,129.442447
강동몽돌해변,울산 북구,052-277-0101,"['강동몽돌해변', '관광지', '바다풍경', '연인과함께', '연중무휴', '자연']",https://cdn.visitkorea.or.kr/img/call?cmd=VIEW&id=cf54e148-9ae9-4f69-994d-e069fe7b38ad&thumb,울산광역시 북구 동해안로 1650,35.63168446,129.4405867
고헌산(울산),울산 울주군,052-277-0101,"['관광지', '자연']",https://cdn.visitkorea.or.kr/img/call?cmd=VIEW&id=null&thumb,울산광역시 울주군 언양읍,35.64654,129.087072
과개안(너븐개) 해안,울산 동구,052-229-6350,"['경상권', '과개안해안', '관광지', '너븐개해안', '바다풍경', '자연', '자연좋은곳']",https://cdn.visitkorea.or.kr/img/call?cmd=VIEW&id=df1ef20d-d4f3-460b-b093-6b2baad06519&thumb,울산광역시 동구 등대로 일산동,35.489401,129.432764
관음사(울산),울산 중구,052-211-1083,"['관광지', '불교', '불교문화', '사찰', '사찰여행', '역사', '자연속으로', '자연환경']",https://cdn.visitkorea.or.kr/img/call?cmd=VIEW&id=null&thumb,울산광역시 중구 신기16길 62,35.55631959,129.2968592
구강서원,울산 중구,052-229-3732,"['관광지', '역사', '역사공부', '역사관광지', '역사를품은곳', '역사문화재', '역사속']",https://cdn.visitkorea.or.kr/img/call?cmd=VIEW&id=1b23488e-d6d2-40de-86d0-bc767bc4780f&thumb,울산광역시 중구 서원11길 45,35.55979629,129.3372774
국립 신불산폭포자연휴양림,울산 울주군,052-254-2123,"['가족여행', '관광지', '국립신불산폭포자연휴양림', '나들이', '데이트코스', '등산로']",https://cdn.visitkorea.or.kr/img/call?cmd=VIEW&id=1aa6798a-a234-49f5-8fce-d4847acac509&thumb,울산광역시 울주군 상북면 억새벌길 200-78,35.5432165,129.0225117
국립대운산치유의숲,울산 울주군,052-255-9800,"['가족과함께', '관광지', '국립휴양림', '숲체험', '언택트관광지_100선', '울산가볼만한곳']",https://cdn.visitkorea.or.kr/img/call?cmd=VIEW&id=095862ff-e5af-453b-aba5-cc0da96d1386&thumb,울산광역시 울주군 온양읍 대운상대길 225-92,35.39015967,129.2361773
내원암 계곡,울산 울주군,052-238-5088,"['가족과함께', '경치좋은곳', '계곡', '관광지', '늦더위피서', '여름피서지', '여름휴가']",https://cdn.visitkorea.or.kr/img/call?cmd=VIEW&id=b0bb59fd-1b28-4601-ae54-29a148eb1134&thumb,울산광역시 울주군 온양읍 대운상대길 382,35.39913703,129.2309826
내원암(울산),울산 울주군,052-238-5088,"['경상권', '관광지', '불교', '불교문화', '사찰', '사찰여행', '역사', '울산내원암']",https://cdn.visitkorea.or.kr/img/call?cmd=VIEW&id=0bb7d2e2-1afa-49f4-8c12-6aea620c510d&thumb,울산광역시 울주군 온양읍 대운상대길 382,35.39913703,129.2309826
대왕암 송림,울산 동구,052-277-0101,"['가족여행', '걷기여행', '경상권', '관광지', '대왕암송림', '데이트코스', '바다풍경']",https://cdn.visitkorea.or.kr/img/call?cmd=VIEW&id=ca6e1f64-967e-462c-98b7-5256cf44d1b8&thumb,울산광역시 동구 등대로 110,35.49184885,129.4406332
대왕암공원,울산 동구,052-209-3738,"['걷기길', '경상권', '경치좋은곳', '관광지', '대왕암공원', '산책하기좋은곳', '아이와함께']",https://cdn.visitkorea.or.kr/img/call?cmd=VIEW&id=ea6f6c81-8751-4c2d-a634-115eb62cd651&thumb,울산광역시 동구 등대로 140,35.49226357,129.4399363
대운산,울산 울주군,052-229-7875,"['경상권', '경치좋은곳', '관광지', '대운산', '등산', '등산로', '봄꽃여행', '자연']",https://cdn.visitkorea.or.kr/img/call?cmd=VIEW&id=cb77d5b6-88f7-41fe-9425-30d1b3752784&thumb,울산광역시 울주군 온양읍 대운상대길 225-92,35.39015967,129.2361773
도솔암(울산),울산 북구,052-287-3308,"['관광지', '불교', '불교문화', '사찰', '사찰여행', '역사', '자연속으로', '자연환경']",https://cdn.visitkorea.or.kr/img/call?cmd=VIEW&id=72183720-92f5-4544-9534-ba959de67594&thumb,울산광역시 북구 화동15길 77,35.59503485,129.3743113
동축사,울산 동구,052-251-0410,"['관광지', '불교', '불교문화', '사찰', '사찰여행', '역사', '자연속으로', '자연환경']",https://cdn.visitkorea.or.kr/img/call?cmd=VIEW&id=cc1fc20a-ce33-4710-a165-883d057884b9&thumb,울산광역시 동구 옥류로 93,35.54832447,129.4188702
드라마하우스,울산 울주군,052-700-7577,"['가족과함께', '관광명소', '관광지', '남녀노소', '드라마촬영장', '사진찍기', '사진찍기좋은곳']",https://cdn.visitkorea.or.kr/img/call?cmd=VIEW&id=16f2e833-d648-4818-94ff-e9c14d9bad8c&thumb,울산광역시 울주군 서생면 간절곶해안길 231,35.36416913,129.3596114
등억온천단지,울산 울주군,052-277-0101,"['가족여행', '경상권', '관광지', '등억온천단지', '스파', '온천', '휴식공간', '휴식여행']",https://cdn.visitkorea.or.kr/img/call?cmd=VIEW&id=null&thumb,울산광역시 울주군 상북면 알프스온천로 197,35.55430391,129.0720828
목도,울산 울주군,052-277-0101,"['관광지', '자연']",https://cdn.visitkorea.or.kr/img/call?cmd=VIEW&id=null&thumb,울산광역시 울주군 온산읍 당목길,35.4431072,129.3563008
무제치늪,울산 울주군,052-229-7641,"['걷기길', '관광지', '람사르습지', '무제치늪', '생태관광', '생태관광지', '습지']",https://cdn.visitkorea.or.kr/img/call?cmd=VIEW&id=0313532c-2325-4228-8311-27ef6224558b&thumb,울산광역시 울주군 삼동면 조일리 일원,35.46103695,129.1426272
문수사(울주),울산 울주군,052-247-5393,"['관광지', '불교', '불교문화', '사찰', '사찰여행', '역사', '역사를품은곳', '역사속']",https://cdn.visitkorea.or.kr/img/call?cmd=VIEW&id=undefined&thumb,울산광역시 울주군 청량읍 문수산길 514,35.5316927,129.2139354
박상진의사 생가,울산 북구,052-229-3732,"['관광지', '역사', '역사공부', '역사관광', '역사관광지', '역사를품은곳', '역사문화']",https://cdn.visitkorea.or.kr/img/call?cmd=VIEW&id=ccef038a-8ebc-4923-91c7-0b7b3e997f66&thumb,울산광역시 북구 박상진길 23,35.602556,129.359885
반구서원,울산 울주군,052-229-7651,"['관광지', '역사', '역사공부', '역사관광지', '역사를품은곳', '역사문화재', '역사속']",https://cdn.visitkorea.or.kr/img/call?cmd=VIEW&id=4787972f-96ef-4673-a568-02377f07d9c4&thumb,울산광역시 울주군 언양읍 반구대안길 299,35.60927482,129.1736952
발리온천,울산 울주군,052-237-6666,"['가족과함께', '관광지', '사우나', '아이와함께', '아이와함께', '아이와함께', '연인과함께']",https://cdn.visitkorea.or.kr/img/call?cmd=VIEW&id=eb8ab5ae-fccc-40b8-be3f-9014d50cec26&thumb,울산광역시 울주군 온양읍 상발2길 34,35.40625676,129.2921011
배내골(울산),울산 울주군,052-227-0101,"['경상권', '관광지', '배내골', '여름여행', '여름피서지', '자연', '자연좋은곳']",https://cdn.visitkorea.or.kr/img/call?cmd=VIEW&id=361e8bc5-1ee6-431c-9a23-93a17e7b8862&thumb,울산광역시 울주군 상북면 배내로 1061,35.53556863,129.0103557
백양사(울산),울산 중구,052-243-8712,"['관광지', '불교', '불교문화', '사찰', '사찰여행', '역사', '자연속으로', '자연환경']",https://cdn.visitkorea.or.kr/img/call?cmd=VIEW&id=null&thumb,울산광역시 중구 백양로 67,35.57457111,129.3139085
병영교회,울산 중구,052-229-3732,"['경상권', '관광지', '교회', '병영교회', '역사', '역사공부', '역사관광지', '역사문화재']",https://cdn.visitkorea.or.kr/img/call?cmd=VIEW&id=8392f5a0-9eb7-4034-9643-b86aee272ae6&thumb,울산광역시 중구 병영성길 89,35.57448929,129.3457938
삼일사,울산 중구,052-229-3732,"['관광지', '역사', '역사공부', '역사관광지', '역사를품은곳', '역사문화재', '역사속']",https://cdn.visitkorea.or.kr/img/call?cmd=VIEW&id=0a2a5988-2a28-4eca-b40b-f5cab04feb8e&thumb,울산광역시 중구 병영성11길 25,35.57602797,129.3449463
서생포왜성,울산 울주군,052-204-0324,"['관광지', '역사', '역사공부', '역사관광지', '역사를품은곳', '역사문화재', '역사속']",https://cdn.visitkorea.or.kr/img/call?cmd=VIEW&id=ca7b5dbc-d22f-45d9-b96c-528aafd8f580&thumb,울산광역시 울주군 서생면 서생리,35.37928362,129.3316735
석계서원,울산 울주군,052-229-3732,"['관광지', '역사', '역사공부', '역사관광지', '역사를품은곳', '역사문화재', '역사속']",https://cdn.visitkorea.or.kr/img/call?cmd=VIEW&id=85e5b9b1-9636-444d-9b94-f4657cc3c656&thumb,울산광역시 울주군 웅촌면 대복동천로 160-12,35.4703125,129.2346065
석남사(울산),울산 울주군,052-264-8900,"['가족여행', '관광지', '교과서속여행', '불교', '불교문화', '사찰&산사', '석남사']",https://cdn.visitkorea.or.kr/img/call?cmd=VIEW&id=9d15ca4d-fb72-4ade-bec9-48d6a46110ee&thumb,울산광역시 울주군 상북면 석남로 557,35.62082063,129.032151
석남사계곡,울산 울주군,052-277-0101,"['가족여행', '경상권', '관광지', '석남사계곡', '여름방학가볼만한곳', '여름여행']",https://cdn.visitkorea.or.kr/img/call?cmd=VIEW&id=9fe385e2-2323-48fd-a2e1-3b6dd87917f0&thumb,울산광역시 울주군 상북면,35.61583664,129.0389789
선바위,울산 울주군,052-277-0101,"['관광지', '나홀로여행', '선바위', '자연', '자연좋은곳', '힐링', '힐링여행']",https://cdn.visitkorea.or.kr/img/call?cmd=VIEW&id=5bd7981e-3916-4ae8-a7eb-99289ead7c81&thumb,울산광역시 울주군 범서읍 두동로 160,35.58219903,129.2352483
선바위(입암),울산 울주군,052-277-0101,"['경치좋은곳', '관광지', '자연관광지', '자연발생', '자연속으로', '자연여행', '자연좋은곳']",https://cdn.visitkorea.or.kr/img/call?cmd=VIEW&id=4530aaaf-eaf9-41eb-aa82-ee7962dd9063&thumb,울산광역시 울주군 범서읍,35.57029188,129.2110222
선암호수공원,울산 남구,052-226-4851,"['가족여행', '걷기길', '걷기여행', '경상권', '관광지', '나들이', '봄나들이', '산책길']",https://cdn.visitkorea.or.kr/img/call?cmd=VIEW&id=044eb043-035f-46f1-a5e7-a8984e06d8f5&thumb,울산광역시 남구 선암호수길 104,35.51690138,129.3224883
성안 숯못 자연생태공원,울산 중구,052-290-4420,"['걷기길', '관광지', '산책', '생태관광', '생태관광지', '성안숯못자연생태공원']",https://cdn.visitkorea.or.kr/img/call?cmd=VIEW&id=ab5d6d3a-60db-4629-9951-f2a365e25a26&thumb,울산광역시 중구 성안동 761번지 일원,35.57906278,129.3135183
숯못 생태공원,울산 중구,052-277-0101,"['걷기길', '걷기여행', '경상권', '관광지', '데이트코스', '사계절', '숯못생태공원']",https://cdn.visitkorea.or.kr/img/call?cmd=VIEW&id=424f0be9-6f67-4e30-851f-71dd80fd4472&thumb,울산광역시 중구 성안동 761,35.57906278,129.3135183
슬도,울산 동구,052-277-0101,"['가족과함께', '경치여행', '경치좋은곳', '관광지', '남녀노소', '바다경치', '바다내음']",https://cdn.visitkorea.or.kr/img/call?cmd=VIEW&id=a210c7fc-bea0-430f-a7f2-a1cd72f5afd8&thumb,울산광역시 동구 방어동,35.477905,129.431212
신명·정자해변,울산 북구,052-277-0101,"['가족여행', '경상권', '관광지', '바다풍경', '신명해변', '여름방학가볼만한곳']",https://cdn.visitkorea.or.kr/img/call?cmd=VIEW&id=a38f3f8e-aa82-4497-a69e-af99c085c85b&thumb,울산광역시 북구 동해안로 1801,35.64423537,129.4404443
신불산군립공원,울산 울주군,052-229-7882,"['관광지', '자연']",https://cdn.visitkorea.or.kr/img/call?cmd=VIEW&id=5ee3ccbd-cb7b-48bf-8dff-a33b13f226e5&thumb,울산광역시 울주군 상북면,35.55612578,129.0700437
신흥사(울산),울산 북구,052-295-7522,"['경상권', '관광지', '불교', '불교문화', '사찰', '사찰여행', '신흥사구대웅전', '역사']",https://cdn.visitkorea.or.kr/img/call?cmd=VIEW&id=f443ba89-85a5-44fc-9874-26f409342071&thumb,울산광역시 북구 대안4길 280,35.66110002,129.3908679
어물동 마애여래좌상,울산 북구,052-229-3732,"['경상권', '관광지', '어물동마애여래좌상', '역사', '역사공부', '역사를품은곳']",https://cdn.visitkorea.or.kr/img/call?cmd=VIEW&id=84f09567-63e3-4491-866b-654831ced2c6&thumb,울산광역시 북구 황토전길 231,35.57836561,129.4385213
언양성당 성지,울산 울주군,052-262-5312,"['관광지', '역사', '역사공부', '역사관광지', '역사를품은곳', '역사문화재', '역사속']",https://cdn.visitkorea.or.kr/img/call?cmd=VIEW&id=de8673c6-e758-4be0-ae6a-567415201b1b&thumb,울산광역시 울주군 언양읍 구교동1길 11,35.57023427,129.1147041
언양향교,울산 울주군,052-204-0324,"['관광지', '역사', '역사공부', '역사관광지', '역사를품은곳', '역사문화재', '역사속']",https://cdn.visitkorea.or.kr/img/call?cmd=VIEW&id=0b6fc7d2-2228-46ef-ad7c-dadc4927a9f7&thumb,울산광역시 울주군 삼남면 서향교1길 55,35.55695995,129.1143812
영남 알프스,울산 울주군,052-277-0101,"['관광지', '자연']",https://cdn.visitkorea.or.kr/img/call?cmd=VIEW&id=778d2ad6-11a4-4eb4-9bb2-70c931fd0aa6&thumb,울산광역시 울주군 상북면 알프스온천5길 103-8,35.55645447,129.0679847
오계절,울산 울주군,052-258-2859,"['가족과함께', '관광지', '꽃차', '봄_가볼만한곳', '봄꽃여행', '봄나들이', '봄날여행']",https://cdn.visitkorea.or.kr/img/call?cmd=VIEW&id=4d8bf827-10d7-4ea7-8217-f6218440b7e4&thumb,울산광역시 울주군 두동면 박제상로 294-108,35.6649561,129.2375872
옥천암(울산),울산 북구,052-288-1350,"['관광지', '불교', '불교문화', '사찰', '사찰여행', '역사', '자연속으로', '자연환경']",https://cdn.visitkorea.or.kr/img/call?cmd=VIEW&id=null&thumb,울산광역시 북구 무룡로 225,35.58027259,129.3850162
외고산 옹기마을,울산 울주군,052-237-7894,"['가족여행', '가족체험', '가족체험학습', '경상권', '관광지', '아이와함께', '옹기공방']",https://cdn.visitkorea.or.kr/img/call?cmd=VIEW&id=e70fc9fb-3c0c-45a7-8d1f-0cdc674fa2b1&thumb,울산광역시 울주군 온양읍 외고산3길 36,35.435068,129.2795071
용연서원,울산 남구,052-229-3732,"['가족여행', '경상권', '관광지', '역사', '역사공부', '역사관광지', '역사를품은곳']",https://cdn.visitkorea.or.kr/img/call?cmd=VIEW&id=b43453ee-1807-4e6a-bd84-8221d2e05b80&thumb,울산광역시 남구 이휴정길 20,35.54740443,129.3048714
우가산유포봉수대,울산 북구,052-229-3732,"['관광지', '역사', '역사공부', '역사를품은곳', '역사문화재', '역사속', '역사속으로']",https://cdn.visitkorea.or.kr/img/call?cmd=VIEW&id=207bd408-56b4-410a-864a-3d86c30a9250&thumb,울산광역시 북구 당사동,35.58992694,129.4600927
울기등대,울산 동구,052-251-2125,"['관광지', '대왕암공원', '바다풍경', '연인과함께', '울기등대', '자연']",https://cdn.visitkorea.or.kr/img/call?cmd=VIEW&id=942fbad4-656c-472e-b6b9-946f526d6fb4&thumb,울산광역시 동구 등대로 155,35.49270292,129.4423925
울산 12경,울산 남구,052-277-0101,"['관광지', '자연']",https://cdn.visitkorea.or.kr/img/call?cmd=VIEW&id=c8d250d8-361c-49fd-89ec-71b6abda7c53&thumb,울산광역시 남구 태화동,35.548173,129.296819
울산 경상좌도병영성,울산 중구,052-229-3732,"['관광지', '역사', '역사공부', '역사관광지', '역사를품은곳', '역사문화재', '역사속']",https://cdn.visitkorea.or.kr/img/call?cmd=VIEW&id=68fa2636-6dd9-428a-8d27-c902bd144d15&thumb,울산광역시 중구 서동,35.57661392,129.3432864
울산 귀신고래 회유해면,울산 남구,052-229-6350,"['가족여행', '경상권', '관광지', '바다', '울산귀신고래회유해면', '자연', '자연유산']",https://cdn.visitkorea.or.kr/img/call?cmd=VIEW&id=6e0cd635-0dcd-495c-94f1-c855d24efebf&thumb,울산광역시 남구 장생포동,35.50487378,129.3723825
울산 대왕암길,울산 동구,052-209-3741,['관광지'],https://cdn.visitkorea.or.kr/img/call?cmd=VIEW&id=1bbb67bb-5269-4d88-8e7d-9be52af38241&thumb,울산광역시 동구,35.49907835,129.4313636
울산 들꽃학습원,울산 울주군,052-211-9163,"['가족여행', '관광지', '생태관광', '아이와함께', '울산들꽃학습원', '자연']",https://cdn.visitkorea.or.kr/img/call?cmd=VIEW&id=fe4b6c56-4ed0-4db6-bd1f-36f2af43f86e&thumb,울산광역시 울주군 범서읍 두산로 52,35.59212434,129.2715194
울산 문화의거리,울산 중구,,"['관광지', '데이트장소추천', '문화의거리', '산책길', '산책하기', '산책하기좋은곳']",https://cdn.visitkorea.or.kr/img/call?cmd=VIEW&id=01ba4939-ea2b-45a8-a882-7a6201cf69ea&thumb,울산광역시 중구 옥교동,35.556135,129.321645
울산 소리체험관,울산 동구,052-209-3376,"['가족과함께', '경상권', '관광지', '남녀노소', '소리체험관', '아이와함께', '울산가볼만한곳']",https://cdn.visitkorea.or.kr/img/call?cmd=VIEW&id=5f1699a8-3142-47d9-8f3f-08d792e26d56&thumb,울산광역시 동구 성끝길 103,35.4809047,129.4327665
울산 신화마을,울산 남구,052-226-5412,"['감성사진', '관광지', '벽화마을', '사진찍기좋은곳', '사진촬영', '사진촬영명소']",https://cdn.visitkorea.or.kr/img/call?cmd=VIEW&id=386e7c39-a9f8-416b-8ca1-735d6789d83d&thumb,울산광역시 남구 여천로66번길 7,35.52345117,129.3413171
울산 큰애기하우스,울산 중구,052-296-9191,"['가족과함께', '가족모임', '관광안내', '관광안내소', '관광지', '사진찍기', '사진찍기좋은곳']",https://cdn.visitkorea.or.kr/img/call?cmd=VIEW&id=b2929b86-6d0c-4825-99c1-561f45cec540&thumb,울산광역시 중구 문화의거리 28,35.55658431,129.3217095
울산 태화사지 십이지상 사리탑,울산 남구,052-229-3732,"['관광지', '역사', '역사공부', '역사를품은곳', '역사문화재', '역사속', '역사속으로']",https://cdn.visitkorea.or.kr/img/call?cmd=VIEW&id=212f0a91-155c-4e00-adcd-76c8bc6baf61&thumb,울산광역시 남구 두왕로 277,35.52713633,129.308692
울산MBC,울산 중구,052-290-1250,"['MBC', '견학', '경상권', '관광지', '방송국', '산업관광', '아이와함께', '울산MBC']",https://cdn.visitkorea.or.kr/img/call?cmd=VIEW&id=9267e232-3d95-438c-ac31-72eedbb08d10&thumb,울산광역시 중구 서원3길 65,35.56004088,129.333725
울산대공원,울산 남구,052-271-8816,"['가족과함께', '가족나들이', '관광지', '데이트코스', '산책길', '산책하기', '산책하기좋은곳']",https://cdn.visitkorea.or.kr/img/call?cmd=VIEW&id=2b9b30bf-e7c1-4194-a314-17dfc566e825&thumb,울산광역시 남구 대공원로 94,35.53150169,129.2927847
울산대공원 동물원,울산 남구,052-226-0421,"['가족여행', '경상권', '관광지', '동물농장', '동물원', '산책하기좋은곳', '아이가_좋아하는_여행']",https://cdn.visitkorea.or.kr/img/call?cmd=VIEW&id=ab27be61-bc86-48fd-8e5c-830f0b7e02c0&thumb,울산광역시 남구 대공원로 94,35.53150169,129.2927847
울산대교 전망대,울산 동구,052-209-3345,"['가족과함께', '경치좋은곳', '관광지', '남녀노소', '사진찍기좋은곳', '야간관광100선']",https://cdn.visitkorea.or.kr/img/call?cmd=VIEW&id=7432eb5c-5c0c-4b50-b3c4-c9e61c09b8f2&thumb,울산광역시 동구 봉수로 155-1,35.5017407,129.406216
울산동헌 및 내아,울산 중구,052-229-3732,"['경상권', '관광지', '내아', '문화재', '역사', '역사공부', '역사관광지', '역사를품은곳']",https://cdn.visitkorea.or.kr/img/call?cmd=VIEW&id=b14b4f4a-ff55-4c8b-95a0-6a23363951b7&thumb,울산광역시 중구 동헌길 167,35.55811845,129.3204122
울산문화방송 방송직업 체험 교육 Play-M,울산 중구,052-290-1114,"['경상권', '관광지', '교육여행', '교육프로그램', '남녀노소', '사계절', '아이와함께']",https://cdn.visitkorea.or.kr/img/call?cmd=VIEW&id=688e845f-fad6-464c-a194-11ade22a02dc&thumb,울산광역시 중구 서원3길 65,35.56004088,129.333725
울산안전체험관,울산 북구,052-279-6588,"['관광지', '울산안전체험관']",https://cdn.visitkorea.or.kr/img/call?cmd=VIEW&id=887d594c-7f0a-4e61-81fa-eb2fa88c062f&thumb,울산광역시 북구 산하중앙2로 87-33,35.61769561,129.4403176
울산체육공원,울산 남구,052-220-2002,"['가족여행', '관광지', '나들이', '나홀로여행', '데이트코스', '산책길', '산책하기']",https://cdn.visitkorea.or.kr/img/call?cmd=VIEW&id=13a6ab5b-1d39-4b80-b734-7d1187f9103d&thumb,울산광역시 남구 문수로 44,35.53526635,129.259531
울산탁주 태화루,울산 북구,052-287-5001,"['견학', '경상권', '관광지', '남녀노소', '산업관광', '울산탁주', '울산탁주태화루']",https://cdn.visitkorea.or.kr/img/call?cmd=VIEW&id=1db60aea-77f9-49bb-9690-fcf780925baa&thumb,울산광역시 북구 염포로 237,35.56131727,129.3656897
울산테마식물수목원,울산 동구,052-235-8585,"['가족여행', '경상권', '관광지', '데이트코스', '사계절', '연인과함께', '연중무휴']",https://cdn.visitkorea.or.kr/img/call?cmd=VIEW&id=00557217-b2b8-4cea-b377-5820e6fdd3e6&thumb,울산광역시 동구 쇠평길 33-1,35.55370953,129.4270144
울산향교,울산 중구,052-243-0129,"['관광지', '역사', '역사공부', '역사관광지', '역사를품은곳', '역사문화재', '역사속']",https://cdn.visitkorea.or.kr/img/call?cmd=VIEW&id=7c8026c5-e219-409f-a1b8-b0156b5bb751&thumb,울산광역시 중구 명륜로 117,35.56069545,129.3157967
울주 간월사지 석조여래좌상,울산 울주군,052-204-0324,"['관광지', '역사', '역사공부', '역사관광지', '역사를품은곳', '역사문화재', '역사속']",https://cdn.visitkorea.or.kr/img/call?cmd=VIEW&id=8ab0421e-19c7-41d7-a53a-49ce6c5902a3&thumb,울산광역시 울주군 상북면 알프스온천4길 15,35.55558694,129.0722113
울주 구량리 은행나무,울산 울주군,052-229-7653,"['경상권', '관광지', '구량리은행나무', '식물', '천연기념물']",https://cdn.visitkorea.or.kr/img/call?cmd=VIEW&id=e20065bc-41b9-49d2-8254-12f442ea6395&thumb,울산광역시 울주군 두서면,35.62163971,129.134949
울주 대곡리 반구대 암각화,울산 울주군,052-277-0101,"['경상권', '관광지', '나홀로여행', '역사', '역사공부', '역사관광지', '역사를품은곳']",https://cdn.visitkorea.or.kr/img/call?cmd=VIEW&id=eb53108b-23a2-49cf-b05f-c4a52d8bd38a&thumb,울산광역시 울주군 언양읍,35.60863087,129.1729459
울주 천전리 각석,울산 울주군,052-277-0101,"['경치좋은곳', '관광지', '산책길', '산책하기', '산책하기좋은곳', '역사', '역사공부']",https://cdn.visitkorea.or.kr/img/call?cmd=VIEW&id=e85ece17-4892-46fe-9122-7c95d3a1032a&thumb,울산광역시 울주군 두동면 천전리,35.61881538,129.1692752
월봉사(울산),울산 동구,052-251-4602,"['경상권', '관광지', '불교', '불교문화', '사찰', '사찰여행', '역사', '연중무휴', '울산월봉사']",https://cdn.visitkorea.or.kr/img/call?cmd=VIEW&id=fcfc1d0d-2929-4bbc-842e-8dcd728fdd5a&thumb,울산광역시 동구 봉수로 55,35.49343102,129.4166694
이팔청춘사진관,울산 중구,052-211-9192,"['관광지', '스튜디오', '이색체험']",https://cdn.visitkorea.or.kr/img/call?cmd=VIEW&id=0ef5f01c-2919-4c57-baf0-ce49a0e37864&thumb,울산광역시 중구 문화의거리 28 울산큰애기 하우스 3층,35.55658431,129.3217095
일산마을,울산 동구,052-277-0101,"['관광지', '자연']",https://cdn.visitkorea.or.kr/img/call?cmd=VIEW&id=1ce5ba5f-8734-4fda-8a21-5100931cb37b&thumb,울산광역시 동구 일산동,35.49907835,129.4313636
일산해수욕장(울산),울산 동구,052-209-4470,"['가족여행', '관광지', '바다풍경', '아이와함께', '여름방학가볼만한곳', '여름여행']",https://cdn.visitkorea.or.kr/img/call?cmd=VIEW&id=faecd5a7-7358-461a-85cb-e1f532b71b7b&thumb,울산광역시 동구 해수욕장10길 18,35.49488642,129.4302022
자동차부품기술연구소 모토웰,울산 북구,052-700-0052,"['경상권', '관광지', '교육여행', '교육프로그램', '모토웰', '산업관광', '아이와함께']",https://cdn.visitkorea.or.kr/img/call?cmd=VIEW&id=dcd05b36-3d1d-439f-a01b-5e9b8ed40b26&thumb,울산광역시 북구 매곡산업로 35,35.65018109,129.3641787
자수정 동굴나라,울산 울주군,052-254-1515,"['겨울여행', '경상권', '관광지', '미세먼지탈출_이색동굴여행', '아이와함께', '여름여행']",https://cdn.visitkorea.or.kr/img/call?cmd=VIEW&id=e3a289f7-2aa3-410f-bfed-68dab15d573b&thumb,울산광역시 울주군 삼남면 자수정로 112,35.53909611,129.0988801
작천정계곡(작괘천),울산 울주군,052-204-4921,"['경상권', '경치좋은곳', '관광지', '봄꽃여행', '여름방학가볼만한곳', '여름여행']",https://cdn.visitkorea.or.kr/img/call?cmd=VIEW&id=51fd9c6b-eb84-402b-bfaa-1b542735c734&thumb,울산 울주군 삼남면,35.54962382,129.1189694
장생포 고래문화마을,울산 남구,052-226-0980,"['가족과함께', '경상권', '관광지', '박물관', '생태관광지', '아이와함께', '이색체험']",https://cdn.visitkorea.or.kr/img/call?cmd=VIEW&id=a733ee64-93c3-4cbe-b5fe-a0552ae4b60c&thumb,울산광역시 남구 장생포고래로 271-1,35.50591619,129.383096
장생포 고래바다여행선,울산 남구,052-226-1901,"['가족여행', '경상권', '관광지', '바다풍경', '아이와함께', '연인과함께', '이색체험']",https://cdn.visitkorea.or.kr/img/call?cmd=VIEW&id=ae0d264a-8caf-49a5-b52d-f4c0bc1e0957&thumb,울산광역시 남구 장생포고래로 244,35.50257148,129.3810816
장생포 모노레일,울산 남구,052-266-2621,"['관광지', '장생포고래관광단지', '장생포모노레일']",https://cdn.visitkorea.or.kr/img/call?cmd=VIEW&id=af743caa-fe7a-415d-a64e-a03de0debd28&thumb,울산광역시 남구 장생포고래로 246,35.50292851,129.3813105
정자.당사마을,울산 북구,052-277-0101,"['관광지', '자연']",https://cdn.visitkorea.or.kr/img/call?cmd=VIEW&id=80431497-15bf-4c61-af26-eb6c47b77130&thumb,울산광역시 북구 산업로,35.60849085,129.3522006
종갓집예술창작소,울산 중구,052-290-4843,"['공예품', '관광지', '문화예술', '문화예술공간', '문화예술창작공간', '복합문화공간']",https://cdn.visitkorea.or.kr/img/call?cmd=VIEW&id=8b1f4756-90aa-466a-a920-63096dc6fb4c&thumb,울산광역시 중구 중앙길 161,35.55650963,129.3221767
주전몽돌해변,울산 동구,052-277-0101,"['가족과함께', '가족여행', '경치여행', '경치좋은곳', '관광지', '바다경치', '바다내음']",https://cdn.visitkorea.or.kr/img/call?cmd=VIEW&id=72608acc-a031-4ce6-89a3-46b78b769824&thumb,울산광역시 동구 주전동,35.57141272,129.4523238
주전봉수대,울산 동구,,"['관광지', '역사', '역사공부', '역사관광지', '역사를품은곳', '역사문화재', '역사속']",https://cdn.visitkorea.or.kr/img/call?cmd=VIEW&id=2aab6409-4ae0-41e6-942b-041552828a8c&thumb,울산광역시 동구 동해안로 230,35.5442173,129.4477363
주전어촌체험마을,울산 동구,052-209-0111,"['관광지', '어촌체험마을', '이색체험', '자연관광지', '자연여행', '자연좋은곳']",https://cdn.visitkorea.or.kr/img/call?cmd=VIEW&id=c0c63924-8cf8-4635-96d2-7df44b108f7f&thumb,울산광역시 동구 새싹길 23,35.55921601,129.4560713
중산동 고분군,울산 북구,052-229-3732,"['관광지', '역사', '역사공부', '역사관광지', '역사를품은곳', '역사문화재', '역사속']",https://cdn.visitkorea.or.kr/img/call?cmd=VIEW&id=cfdddbce-bcf8-4317-bc76-fcfc5461b02b&thumb,울산광역시 북구 중산동,35.66143599,129.3376675
진하해수욕장,울산 울주군,052-204-0332,"['가족여행', '관광지', '바다풍경', '아이와함께', '여름방학가볼만한곳', '여름여행']",https://cdn.visitkorea.or.kr/img/call?cmd=VIEW&id=c56bc77c-df11-4e73-b50b-6abcdbc91a2f&thumb,울산광역시 울주군 서생면 진하리,35.38087138,129.3449795
처용암,울산 남구,052-229-6350,"['관광지', '역사', '역사공부', '역사를품은곳', '역사속', '역사속으로', '역사여행']",https://cdn.visitkorea.or.kr/img/call?cmd=VIEW&id=27a18abb-3caa-4520-ad86-ffa2337ab0f6&thumb,울산광역시 남구 황성동,35.46715896,129.3491903
천전리각석계곡(울산),울산 울주군,052-277-0101,"['경상권', '경치좋은곳', '관광지', '역사', '자연', '천전리각석계곡']",https://cdn.visitkorea.or.kr/img/call?cmd=VIEW&id=6bde85e1-cfde-46f9-afb5-934e71c36993&thumb,울산광역시 울주군 두동면 천전각석길,35.6290797,129.1937148
천전리공룡발자국화석,울산 울주군,052-204-0324,"['관광지', '역사', '역사공부', '역사관광지', '역사를품은곳', '역사문화재', '역사속']",https://cdn.visitkorea.or.kr/img/call?cmd=VIEW&id=49e1ed55-9871-4577-97dc-f0ab0a83a550&thumb,울산광역시 울주군 두동면 천전리,35.61881538,129.1692752
치산서원,울산 울주군,052-204-0324,"['가족여행', '경상권', '관광지', '역사', '역사공부', '역사관광지', '역사를품은곳']",https://cdn.visitkorea.or.kr/img/call?cmd=VIEW&id=5ee8b64d-e5ed-4d84-b32a-f862994b0d1c&thumb,울산광역시 울주군 두동면 치술령길 7,35.65458592,129.2305833
큐빅광장,울산 중구,052-120,"['거리공연', '경상권', '공연', '관광지', '문화공간', '복합문화공간', '야외공연']",https://cdn.visitkorea.or.kr/img/call?cmd=VIEW&id=89e36d26-2951-4d3c-a18c-3f856e4f43dc&thumb,울산광역시 중구 학성로 65,35.55474934,129.318153
태화강,울산 남구,052-120,"['관광지', '나홀로여행', '산책하기좋은곳', '아이와함께', '연중무휴', '자연', '자연속으로']",https://cdn.visitkorea.or.kr/img/call?cmd=VIEW&id=9d98923e-5a86-4692-a320-fdbb14509cee&thumb,울산광역시 남구 무거동,35.537919,129.370171
태화강,울산 중구,052-221-5560,"['걷기길', '경상권', '관광지', '생태관광', '생태관광지', '태화강', '태화강대공원']",https://cdn.visitkorea.or.kr/img/call?cmd=VIEW&id=009a0db7-fc9d-4de5-b0cf-0a5fab75878d&thumb,울산광역시 중구 내오산로 67,35.537273,129.37
태화강 국가정원,울산 중구,052-229-6142,"['관광지', '나홀로여행', '산책길', '산책하기', '산책하기좋은곳', '자연', '자연관광지']",https://cdn.visitkorea.or.kr/img/call?cmd=VIEW&id=7685b215-fa23-4783-8cb5-07148e90042b&thumb,울산광역시 중구 태화동,35.547814,129.296234
태화강 생태공원 (태화강방문자센터),울산 중구,052-221-5560,"['걷기길', '관광지', '생태관광', '생태관광지', '십리대숲', '태화강대공원', '태화강생태공원']",https://cdn.visitkorea.or.kr/img/call?cmd=VIEW&id=e6fa5fd0-54a6-41d5-8239-9a071e6731b1&thumb,울산광역시 중구 내오산로 121,35.55326399,129.2830401
태화강 전망대,울산 남구,052-229-6149,"['가족여행', '경상권', '경치좋은곳', '관광지', '사계절', '아이와함께', '연인과함께']",https://cdn.visitkorea.or.kr/img/call?cmd=VIEW&id=18a26556-ce2b-41e8-a2d9-a3aa01bc1691&thumb,울산광역시 남구 남산로 223,35.54465623,129.2934497
태화강동굴피아,울산 남구,052-226-0077,"['가족과함께', '가족체험', '관광지', '남녀노소', '동굴여행', '문화체험', '아이와함께']",https://cdn.visitkorea.or.kr/img/call?cmd=VIEW&id=60c2f30c-8c55-4ae3-994a-65477828c152&thumb,울산광역시 남구 남산로 306,35.54524,129.3024361
태화루,울산 중구,052-229-3742,"['경치좋은곳', '관광지', '남녀노소', '데이트장소추천', '산책길', '산책하기', '산책하기좋은곳']",https://cdn.visitkorea.or.kr/img/call?cmd=VIEW&id=a618f6bf-ce53-4a28-a45d-c3904b88a650&thumb,울산광역시 중구 태화로 300,35.55338383,129.3076448
태화서원,울산 중구,052-229-3732,"['관광지', '역사', '역사공부', '역사관광지', '역사를품은곳', '역사문화재', '역사속']",https://cdn.visitkorea.or.kr/img/call?cmd=VIEW&id=85f1a4c4-0cc9-4e97-ba0e-64a248015491&thumb,울산광역시 중구 문화의거리 38,35.55709912,129.3219447
파래소폭포,울산 울주군,052-254-2123,"['관광지', '자연']",https://cdn.visitkorea.or.kr/img/call?cmd=VIEW&id=49398cb3-a5e3-43f2-b62c-1955f61a4a26&thumb,울산광역시 울주군 상북면 억새벌길 200-78,35.5432165,129.0225117
편백산림욕장,울산 북구,010-4127-0100,"['가족과함께', '관광지', '국내힐링여행', '언택트관광지_100선', '자연', '자연속으로']",https://cdn.visitkorea.or.kr/img/call?cmd=VIEW&id=f018965f-fa47-4315-966b-6b1865fd750a&thumb,울산광역시 북구 달천동 산 175,35.64280301,129.3025345
학산서원,울산 중구,052-229-3732,"['관광지', '역사', '역사공부', '역사관광지', '역사를품은곳', '역사문화재', '역사속']",https://cdn.visitkorea.or.kr/img/call?cmd=VIEW&id=67998be3-d0be-475c-aab8-dc6fe74216af&thumb,울산광역시 중구 신기16길 15,35.55390852,129.2960649
학성공원,울산 중구,052-290-4425,"['걷기길', '관광지', '데이트장소추천', '산책로', '산책하기좋은곳', '연인과함께']",https://cdn.visitkorea.or.kr/img/call?cmd=VIEW&id=a0fc51ba-f24d-4d13-9049-daf32ee587d4&thumb,울산광역시 중구 학성공원3길 54,35.55499617,129.3399093
한방테마파크 초락당,울산 울주군,052-264-8001,"['가족과함께', '건강여행', '관광지', '부모님과함께', '원기회복', '한방', '한방의료']",https://cdn.visitkorea.or.kr/img/call?cmd=VIEW&id=8946a24b-c075-4804-aece-6f5510149ead&thumb,울산광역시 울주군 두동면 계명로 44-34,35.71003894,129.2000662
한주소금,울산 남구,052-270-5131,"['견학', '경상권', '관광지', '산업관광', '이색체험', '체험학습', '한주소금', '현장학습']",https://cdn.visitkorea.or.kr/img/call?cmd=VIEW&id=8ee95c42-25f9-4f81-9236-a1bf257bf522&thumb,울산광역시 남구 사평로 35,35.49234934,129.3234051
함월루,울산 중구,052-290-3693,"['경치좋은곳', '관광지', '산책길', '산책하기', '산책하기좋은곳', '역사', '역사문화재']",https://cdn.visitkorea.or.kr/img/call?cmd=VIEW&id=e81f6393-5614-4134-9765-fd2fdbfff14a&thumb,울산광역시 중구 성안동,35.57086542,129.3132464
해남사,울산 중구,052-244-9647,"['경상권', '관광지', '불교', '불교문화', '사찰', '사찰여행', '역사', '연중무휴', '자연속으로']",https://cdn.visitkorea.or.kr/img/call?cmd=VIEW&id=d3a0c15f-b09c-47f5-a0cc-21d76886d082&thumb,울산광역시 중구 기상대길 13,35.55989143,129.3204674
현대자동차 울산공장,울산 북구,052-215-2232,"['견학', '견학프로그램', '경상권', '공장견학', '관광지', '교육여행', '산업관광']",https://cdn.visitkorea.or.kr/img/call?cmd=VIEW&id=31accfe2-c05c-4136-b423-b234a7c288d7&thumb,울산광역시 북구 염포로 700,35.53692964,129.3856572
홍류폭포,울산 울주군,052-204-1723,"['경상권', '관광지', '자연', '풍경좋은곳', '홍류폭포']",https://cdn.visitkorea.or.kr/img/call?cmd=VIEW&id=3714097e-fcb7-4b1e-9a32-a1ece9f31631&thumb,울산광역시 울주군 상북면 등억리,35.55612578,129.0700437
화암추 등대,울산 동구,052-201-2602,"['관광지', '바다풍경', '연인과함께', '자연', '화암추 등대', '화암추등대']",https://cdn.visitkorea.or.kr/img/call?cmd=VIEW&id=4b300462-93fe-4a23-8853-e76455980e05&thumb,울산광역시 동구 화암등대길 50,35.47253918,129.4073212
회야댐 생태공원,울산 울주군,052-229-6430,"['관광지', '산책하기좋은곳', '자연관광지', '자연여행', '자연좋은곳', '자연풍경']",https://cdn.visitkorea.or.kr/img/call?cmd=VIEW&id=7567d96e-e7d8-4ba4-b8d7-8921d861c2f2&thumb,울산광역시 울주군 웅촌면 통천리 산109-1번지,35.46836855,129.2452648
효자 송도선생 정려비,울산 중구,052-229-3732,"['관광지', '아이와함께', '역사', '역사공부', '역사관광지', '역사문화재', '역사속']",https://cdn.visitkorea.or.kr/img/call?cmd=VIEW&id=7050a30d-a2f9-4804-981b-9df8db48ed6c&thumb,울산광역시 중구 동헌길 167,35.55811845,129.3204122
