name,region,tel,keyword,photo,address,lat,lon
(구)강경노동조합,충남 논산시,041-746-5412,"['건축사', '건축여행', '관광지', '구강경노동조합', '근대건축', '근대건축물', '등록문화재']",https://cdn.visitkorea.or.kr/img/call?cmd=VIEW&id=39c8c46c-a25d-4408-842b-80d5b36f9967&thumb,충청남도 논산시 강경읍 옥녀봉로27번길 30-5,36.160849,127.0146018
(구)한일은행 강경지점,충남 논산시,041-746-5412,"['건축물', '건축사', '건축여행', '관광지', '근대건축', '근대건축물', '역사', '역사공부']",https://cdn.visitkorea.or.kr/img/call?cmd=VIEW&id=69088946-8483-479b-8055-b7f26eca9884&thumb,충청남도 논산시 강경읍 계백로167번길 50,36.1621297,127.0151537
(주) 외가집 농업회사법인,충남 부여군,041-834-4706,"['가족과함께', '가족체험', '가족휴양', '관광지', '농촌체험', '농촌체험마을', '농촌체험여행']",https://cdn.visitkorea.or.kr/img/call?cmd=VIEW&id=fa8631b9-9bec-43a2-a091-9da9ff7d2a3c&thumb,충청남도 부여군 옥산면 안골로41번길 21-12,36.1861994,126.7323929
JFK 대천 워터파크,충남 보령시,041-930-2000,"['JFK대천워터파크호텔', '가족과함께', '관광지', '남녀노소', '실내워터파크']",https://cdn.visitkorea.or.kr/img/call?cmd=VIEW&id=c8e27bdf-afa5-46b4-9028-3c85132666e6&thumb,충청남도 보령시 대해로 876,36.3070417,126.5183187
LG 태안 태양광 발전소,충남 태안군,041-674-1806,"['LG', 'LG태안태양광발전소', '견학', '관광지', '이색체험', '체험프로그램', '체험학습']",https://cdn.visitkorea.or.kr/img/call?cmd=VIEW&id=594419c6-4d51-414e-8b13-6bb36a5e0166&thumb,충청남도 태안군 원북면 발전로 130,36.8841716,126.2141167
LG화학 대산공장,충남 서산시,041-661-2114,"['LG화학', 'LG화학대산공장', '견학', '관광지', '교육여행', '교육프로그램', '산업관광']",https://cdn.visitkorea.or.kr/img/call?cmd=VIEW&id=45ec3dae-5375-499e-a9e9-f46671a215d8&thumb,충청남도 서산시 대산읍 독곶1로 54,37.0042603,126.37941
가야산(서산),충남 서산시,041-662-2113,"['가야산', '가족여행', '관광지', '나들이', '단풍여행', '데이트코스', '등산', '등산로']",https://cdn.visitkorea.or.kr/img/call?cmd=VIEW&id=d45aec42-c5cc-4de2-8587-f1e909793c62&thumb,충청남도 서산시 해미면 산수리,36.707103,126.5870692
가의도,충남 태안군,041-670-2543,"['가의도', '관광지', '섬', '자연', '충청권']",https://cdn.visitkorea.or.kr/img/call?cmd=VIEW&id=8bd37f25-9300-4248-9cea-49543ed13dbe&thumb,충청남도 태안군 근흥면 가의도길,36.6748071,126.0694825
가파마을,충남 청양군,041-940-2401,"['가족체험', '관광지', '농촌', '농촌마을', '농촌체험', '농촌체험마을', '농촌체험여행']",https://cdn.visitkorea.or.kr/img/call?cmd=VIEW&id=68ed4f6e-2944-4f77-82ad-49771aa573ba&thumb,충청남도 청양군 대치면 가파로 506-6,36.4976225,126.8796372
각원사,충남 천안시,041-561-3545,"['각원사', '관광지', '교과서속여행', '기차여행', '나들이', '사찰&산사', '아이와함께']",https://cdn.visitkorea.or.kr/img/call?cmd=VIEW&id=ebb92b4d-6939-4672-9194-30f12058f90d&thumb,충청남도 천안시 동남구 각원사길 245,36.8342011,127.1968302
간곡서원,충남 부여군,,"['관광지', '역사', '역사공부', '역사관광지', '역사를품은곳', '역사문화재', '역사속']",https://cdn.visitkorea.or.kr/img/call?cmd=VIEW&id=757ba842-6fea-4cc8-9173-0d375db4e1f7&thumb,충청남도 부여군 임천면 성흥로283번길 31-4,36.1824989,126.9084467
간월도 어리굴젓 기념탑,충남 서산시,041-662-4001,"['간월도', '간월도어리굴젓기념탑', '관광지', '굴', '굴무침', '굴전', '남녀노소']",https://cdn.visitkorea.or.kr/img/call?cmd=VIEW&id=ef052cbf-d1d9-4af7-bcf5-e490e9a8b239&thumb,충청남도 서산시 부석면 간월도리,36.6179258,126.4324388
간월도마을,충남 서산시,041-660-2603,"['가족여행', '간월도마을', '걷기여행', '관광지', '바다풍경', '섬여행', '자연', '자연좋은곳']",https://cdn.visitkorea.or.kr/img/call?cmd=VIEW&id=a5212f9c-369f-4cd6-9d60-b43b4246e5e2&thumb,충청남도 서산시 부석면 간월도리,36.6179258,126.4324388
간월암(서산),충남 서산시,041-668-6624,"['간월암', '관광지', '사찰', '역사', '자연', '충청권']",https://cdn.visitkorea.or.kr/img/call?cmd=VIEW&id=f3e6d4fa-4175-4de6-b932-9916c9377e96&thumb,충청남도 서산시 부석면 간월도1길 119-29,36.6036534,126.411209
갈두천권역마을,충남 태안군,041-675-4848,"['관광지', '남녀노소', '농촌마을', '농촌여행', '농촌체험', '농촌체험마을', '농촌체험여행']",https://cdn.visitkorea.or.kr/img/call?cmd=VIEW&id=dac2b60a-2cb7-440c-960f-e4aa5f5d4363&thumb,충청남도 태안군 원북면 대기길 12-20,36.7985788,126.2572211
갈음이해수욕장,충남 태안군,041-670-2691,"['갈음이해수욕장', '경치좋은곳', '관광지', '바다풍경', '연인과함께', '영화&드라마촬영지']",https://cdn.visitkorea.or.kr/img/call?cmd=VIEW&id=4db6d0da-eee8-43e4-9af8-68809f495c45&thumb,충청남도 태안군 근흥면 갈음이길 38-30,36.6935676,126.1639858
갑사,충남 공주시,041-857-8981,"['관광지', '불교', '불교사찰', '사찰', '사찰여행', '역사', '자연속으로', '자연좋은곳']",https://cdn.visitkorea.or.kr/img/call?cmd=VIEW&id=ae2f7b09-9c16-4f03-840d-f0bd15e83d8a&thumb,충청남도 공주시 계룡면 갑사로 567-3,36.3656004,127.1875176
갑사계곡,충남 공주시,041-857-5178,"['갑사계곡', '계곡', '관광지', '단풍여행', '자연', '충청권', '피서']",https://cdn.visitkorea.or.kr/img/call?cmd=VIEW&id=33e4d3f9-c7a0-4ee6-af5e-35560b613c2c&thumb,충청남도 공주시 계룡면 갑사로 225,36.3629905,127.1587394
강경 구 연수당 건재 약방,충남 논산시,063-454-3921,"['강경구연수당건재약방', '관광지', '등록문화재', '역사', '역사공부', '역사를품은곳']",https://cdn.visitkorea.or.kr/img/call?cmd=VIEW&id=916f1aea-477d-4970-98b3-88e116b39b76&thumb,충청남도 논산시 강경읍 옥녀봉로24번길 14,36.1620784,127.0184553
강경 옥녀봉,충남 논산시,041-746-8503,"['경치좋은곳', '관광지', '남녀노소', '산책길', '산책하기', '산책하기좋은곳', '자연여행']",https://cdn.visitkorea.or.kr/img/call?cmd=VIEW&id=26ab4082-cd59-437d-9ba3-0e44786a0313&thumb,충청남도 논산시 강경읍 북옥리,36.164973,127.0132315
강경 중앙초등학교 강당,충남 논산시,041-745-0674,"['강경중앙초등학교강당', '관광지', '등록문화재', '역사', '역사공부', '역사관광지']",https://cdn.visitkorea.or.kr/img/call?cmd=VIEW&id=fd3245cc-2fde-463f-955d-fbdfc92eefd6&thumb,충청남도 논산시 강경읍 옥녀봉로 8,36.1603539,127.0195026
강경근대거리,충남 논산시,041-746-5945,"['관광지', '교육여행', '근대거리', '근대역사', '역사공부', '역사관광지', '역사를품은곳']",https://cdn.visitkorea.or.kr/img/call?cmd=VIEW&id=25b3ef1f-ccdc-4879-bbf5-694f5d0848bb&thumb,충청남도 논산시 강경읍 옥녀봉로 30-5,36.1618011,127.017943
강경미내다리,충남 논산시,041-746-5412,"['강경미내다리', '관광지', '미내교', '역사', '역사공부', '역사관광지', '역사를품은곳']",https://cdn.visitkorea.or.kr/img/call?cmd=VIEW&id=f784eee1-c984-4c46-992e-86c1ffcd48b8&thumb,충청남도 논산시 채운면 삼거리,36.1555648,127.0429312
강당골(양화담),충남 아산시,1577-6611,"['강당골', '경치좋은곳', '관광지', '등산', '등산로', '아이와함께', '양화담', '여름피서지']",https://cdn.visitkorea.or.kr/img/call?cmd=VIEW&id=d1e610cd-efe8-475b-a6b8-ad36993b49e5&thumb,충청남도 아산시 송악면,36.7317626,127.0089277
강댕이 미륵불,충남 서산시,041-660-2247,"['관광지', '역사', '역사공부', '역사관광지', '역사를품은곳', '역사문화재', '역사속']",https://cdn.visitkorea.or.kr/img/call?cmd=VIEW&id=4159f316-5104-4b68-a56c-b8e361a03ab1&thumb,충청남도 서산시 운산면 마애삼존불길 18-1,36.7776835,126.6025291
개삼터·개삼각,충남 금산군,041-750-2384,"['관광지', '역사', '역사공부', '역사관광지', '역사를품은곳', '역사문화재', '역사속']",https://cdn.visitkorea.or.kr/img/call?cmd=VIEW&id=9eda5a3f-3f69-413c-922d-48bdc8b9f86b&thumb,충청남도 금산군 남이면 개삼로 101,36.0748004,127.4788768
개심사(서산),충남 서산시,041-688-2256,"['가족여행', '개심사', '관광지', '불교', '불교문화', '사찰여행', '역사', '자연환경']",https://cdn.visitkorea.or.kr/img/call?cmd=VIEW&id=3480eb01-9e12-4973-94fd-bfc84cb0a77e&thumb,충청남도 서산시 운산면 개심사로 321-86,36.7467952,126.5904038
개태사(논산),충남 논산시,041-734-8730,"['개태사', '관광지', '불교', '불교문화', '사찰여행', '석조삼존불입상', '역사', '역사유적지']",https://cdn.visitkorea.or.kr/img/call?cmd=VIEW&id=29b4eb17-c71a-445a-9972-225cc2a19354&thumb,충청남도 논산시 연산면 계백로 2614-11,36.2407588,127.2294385
개화예술공원,충남 보령시,041-931-4613,"['가족여행', '개화예술공원', '관광지', '기차여행', '나들이', '데이트코스', '아이와함께']",https://cdn.visitkorea.or.kr/img/call?cmd=VIEW&id=f98ff8d1-c7b6-4df1-8dba-aeec6be42db3&thumb,충청남도 보령시 성주면 성주산로 673-47,36.3142342,126.6582727
거북이마을,충남 홍성군,041-631-0402,"['가족체험', '거북이', '관광지', '농촌체험', '농촌체험마을', '농촌체험여행', '농촌체험학습']",https://cdn.visitkorea.or.kr/img/call?cmd=VIEW&id=eaa18392-b6d2-450b-8c49-db2ac77864e0&thumb,충청남도 홍성군 구항면 거북로 422-41,36.5724472,126.6121029
거전마을 [농촌체험],충남 부여군,041-830-6392,"['가족과함께', '가족체험', '가족체험', '관광지', '농촌마을', '농촌체험마을', '농촌체험여행']",https://cdn.visitkorea.or.kr/img/call?cmd=VIEW&id=03f1fe0a-07d8-482f-804f-a8f98e432b1d&thumb,충청남도 부여군 은산면 지천로525번길 7-14,36.3596767,126.8403765
검계서원,충남 천안시,041-521-5163,"['관광지', '역사', '역사공부', '역사관광지', '역사를품은곳', '역사문화재', '역사속']",https://cdn.visitkorea.or.kr/img/call?cmd=VIEW&id=772a4271-e35f-4065-a159-068b0c6c2114&thumb,충청남도 천안시 동남구 풍세면 금호1길 117-10,36.7479916,127.0901133
결성동헌,충남 홍성군,041-630-1688,"['결성동헌', '관광지', '역사', '역사공부', '역사관광지', '역사를품은곳', '역사문화재']",https://cdn.visitkorea.or.kr/img/call?cmd=VIEW&id=6f8215dd-3344-4ab9-ab9b-82ddaccfe9e4&thumb,충청남도 홍성군 결성면 읍내리,36.5272688,126.5469884
결성향교,충남 홍성군,041-630-1688,"['결성향교', '관광지', '역사', '역사공부', '역사관광지', '역사를품은곳', '역사문화재']",https://cdn.visitkorea.or.kr/img/call?cmd=VIEW&id=86726ccc-c29c-4de8-b3ce-c2a3727e666d&thumb,충청남도 홍성군 결성면 홍남서로707번길 21-8,36.5288542,126.5432091
계룡 사계고택,충남 계룡시,042-840-2402,"['관광지', '사계고택', '역사', '역사공부', '역사관광지', '역사를품은곳', '역사문화재']",https://cdn.visitkorea.or.kr/img/call?cmd=VIEW&id=0f0b31e6-7866-413a-9788-75c74f970e4c&thumb,충청남도 계룡시 두마면 사계로 122-4,36.2656306,127.271735
계룡 입암저수지,충남 계룡시,042-840-2402,"['가족과함께', '관광지', '산책길', '산책하기좋은곳', '자연', '자연관광지', '자연속으로']",https://cdn.visitkorea.or.kr/img/call?cmd=VIEW&id=8ae1e99c-b213-4c9e-95af-78317504ddb4&thumb,충청남도 계룡시 두마면 입암길 218,36.243248,127.2554764
계룡산 국립공원,충남 공주시,042-825-3002,"['걷기길', '계룡산', '계룡산국립공원', '관광지', '단풍여행', '봄꽃여행', '생태관광']",https://cdn.visitkorea.or.kr/img/call?cmd=VIEW&id=7686f22b-3fc3-4c38-a316-518c9fdc7c4e&thumb,충청남도 공주시 반포면 동학사1로 327-6,36.3566829,127.2325192
계룡산국립공원,충남 공주시,042-825-3002,"['가족여행', '계룡산국립공원', '관광지', '나들이', '데이트코스', '등산', '등산로']",https://cdn.visitkorea.or.kr/img/call?cmd=VIEW&id=d8453314-c9e3-44df-88d2-e5d614edc66f&thumb,충남 공주시 반포면,36.3968922,127.2503067
계룡산도예촌,충남 공주시,014-857-7331,"['가족체험', '계룡산도예촌', '관광지', '도자기만들기체험', '도자기체험', '아이와함께']",https://cdn.visitkorea.or.kr/img/call?cmd=VIEW&id=9916f740-5d09-409d-909b-409cf98384f3&thumb,충청남도 공주시 반포면 도예촌길 71-25,36.3899336,127.2152896
계룡산상신농촌체험휴양마을,충남 공주시,010-8811-1810,"['가족여행', '계룡산상신농촌체험휴양마을', '관광지', '도자기체험', '두부만들기체험']",https://cdn.visitkorea.or.kr/img/call?cmd=VIEW&id=4edb8c71-3574-4155-9de9-59d3e84104de&thumb,충청남도 공주시 반포면 상하신길 396,36.3845154,127.2202471
계룡산신도내주초석석재,충남 계룡시,042-840-2422,"['계룡산신도내주초석석재', '관광지', '역사', '역사공부', '역사관광지', '역사를품은곳']",https://cdn.visitkorea.or.kr/img/call?cmd=VIEW&id=75aa15fd-e159-43f9-b7c3-2bef181dd0d3&thumb,충청남도 계룡시 두마면,36.2668651,127.272786
계백장군 유적지,충남 논산시,041-746-8431,"['계백장군유적지', '관광지', '아이와함께', '역사', '역사공부', '역사관광지', '역사를품은곳']",https://cdn.visitkorea.or.kr/img/call?cmd=VIEW&id=58239597-1765-4d16-9c27-06ab0460caad&thumb,충청남도 논산시 부적면 신풍리,36.1829802,127.176227
고경명선생비,충남 금산군,041-750-2384,"['관광지', '역사', '역사공부', '역사관광지', '역사를품은곳', '역사문화재', '역사속']",https://cdn.visitkorea.or.kr/img/call?cmd=VIEW&id=1e358fa5-ef36-4c92-9f9c-9f9884c5dd8e&thumb,충청남도 금산군 금성면 양전리,36.1191344,127.4842405
고대도,충남 보령시,041-932-4301,"['관광지', '자연']",https://cdn.visitkorea.or.kr/img/call?cmd=VIEW&id=b1f09cdd-ea3c-4aa1-ac67-196a240597ce&thumb,충청남도 보령시 오천면 고대도1길 1,36.3878168,126.3668837
고란사(고란약수),충남 부여군,041-830-2623,"['고란사', '고란약수', '관광지', '불교', '불교문화', '사찰여행', '역사', '자연환경']",https://cdn.visitkorea.or.kr/img/call?cmd=VIEW&id=c2a7d0f7-206f-47aa-b6f1-2439bc996f17&thumb,충청남도 부여군 부여읍 부소로 1-25,36.2925938,126.9132116
고란사유람선,충남 부여군,041-835-4689,"['경치좋은곳', '관광지', '사진찍기', '사진촬영', '자연속으로', '자연속힐링', '자연풍경']",https://cdn.visitkorea.or.kr/img/call?cmd=VIEW&id=41f2b565-9751-4b94-866b-8c40b0864355&thumb,충청남도 부여군 부여읍 부소로,36.2857425,126.9179975
고령박씨종중재실,충남 천안시,041-521-5163,"['고령박씨종중재실', '관광지', '역사', '역사공부', '역사관광지', '역사를품은곳']",https://cdn.visitkorea.or.kr/img/call?cmd=VIEW&id=a75d707d-8c12-440a-923d-714a0a222738&thumb,충청남도 천안시 동남구 북면 박문수길 147,36.7785254,127.2723299
고로서원,충남 공주시,041-840-8207,"['고로서원', '관광지', '역사', '역사공부', '역사관광지', '역사를품은곳', '역사문화재']",https://cdn.visitkorea.or.kr/img/call?cmd=VIEW&id=92778790-3c5a-45df-81eb-ca5c9f7c2a22&thumb,충청남도 공주시 사곡면 능계길 60-67,36.5111239,127.0225965
고마나루,충남 공주시,041-856-7700,"['고마나루', '관광지', '사계절', '산책하기좋은곳', '역사관광지', '역사여행', '역사유적지']",https://cdn.visitkorea.or.kr/img/call?cmd=VIEW&id=5c699db7-cdbe-44df-a6e7-7a121fbc4010&thumb,충청남도 공주시 백제큰길 2045,36.4475596,127.0817538
고산사(홍성),충남 홍성군,041-642-8254,"['고산사', '관광지', '문화재', '불교', '불교사찰', '사찰', '역사', '자연속으로', '자연좋은곳']",https://cdn.visitkorea.or.kr/img/call?cmd=VIEW&id=f43b15f7-3d5d-4d26-84bb-d3dafc7064c9&thumb,충청남도 홍성군 결성면 만해로127번길 41,36.5457893,126.5415791
고운식물원,충남 청양군,041-943-6245,"['가족여행', '고운식물원', '관광지', '사진찍기좋은곳', '산책코스', '수목원', '연중무휴']",https://cdn.visitkorea.or.kr/img/call?cmd=VIEW&id=730a567a-1b21-4700-9526-9cb263158c3d&thumb,충청남도 청양군 청양읍 식물원길 398-23,36.435268,126.7608801
고파도,충남 서산시,041-660-2604,"['고파도', '관광지', '섬', '자연', '충청권']",https://cdn.visitkorea.or.kr/img/call?cmd=VIEW&id=dcbe08b2-2884-4596-9c5c-298601585a13&thumb,충청남도 서산시 팔봉면 고파도2길 10,36.9107069,126.3360485
곡교천변 은행나무길,충남 아산시,1577-6611,"['걷기길', '곡교천', '관광지', '남녀노소', '반려견과함께', '반려견동반', '산책길']",https://cdn.visitkorea.or.kr/img/call?cmd=VIEW&id=6ff7c60d-082e-4366-a90a-0a1ab27b0b4d&thumb,충청남도 아산시 염치읍 송곡리,36.8054006,127.0167934
공주 갑사 철당간,충남 공주시,041-857-8921,"['가족여행', '공주갑사철당간', '관광지', '교과서속여행', '기차여행', '나들이']",https://cdn.visitkorea.or.kr/img/call?cmd=VIEW&id=e2d3627f-e2fa-4fd0-9af4-f92168855fef&thumb,충청남도 공주시 계룡면 갑사로 567-3,36.3656004,127.1875176
공주 계룡산 중악단,충남 공주시,041-852-4230,"['관광지', '역사', '역사공부', '역사관광지', '역사를품은곳', '역사문화재', '역사속']",https://cdn.visitkorea.or.kr/img/call?cmd=VIEW&id=1ffda2ae-ee7b-4ee6-a71a-7d5331479077&thumb,충청남도 공주시 계룡면 신원사동길 1,36.3352417,127.1839734
공주 공산성 [유네스코 세계유산],충남 공주시,041-856-7700,"['가족여행', '공주공산성', '관광지', '교과서속여행', '아이와함께', '역사', '역사공부']",https://cdn.visitkorea.or.kr/img/call?cmd=VIEW&id=827c7809-231d-4bd2-affd-9a461776e206&thumb,충청남도 공주시 웅진로 280,36.4650154,127.1236051
공주 반죽동당간지주,충남 공주시,041-840-8207,"['관광지', '반죽동당간지주', '보물', '역사', '역사공부', '역사공부', '역사관광지']",https://cdn.visitkorea.or.kr/img/call?cmd=VIEW&id=0b005599-accd-4277-9b64-1d711c162dd4&thumb,충청남도 공주시 제민1길 15,36.4513416,127.1224258
공주 산림휴양마을,충남 공주시,041-855-0855,"['가족과함께', '관광지', '농촌마을', '농촌여행', '농촌체험', '농촌체험마을', '농촌체험여행']",https://cdn.visitkorea.or.kr/img/call?cmd=VIEW&id=undefined&thumb,충청남도 공주시 수원지공원길 222,36.4364439,127.1210972
공주 석장리 유적,충남 공주시,041-840-8924,"['공주석장리유적', '관광지', '박물관', '석장리유적', '역사', '역사공부', '역사관광지']",https://cdn.visitkorea.or.kr/img/call?cmd=VIEW&id=f5a49e25-453c-4ee1-ba86-2f73ae688933&thumb,충청남도 공주시 금벽로 990,36.4476804,127.1885991
공주 송산리 고분군과 무령왕릉 [유네스코 세계유산],충남 공주시,041-856-3151,"['관광지', '교과서속여행', '송산리고분군과무령왕릉', '아이와함께', '역사', '역사공부']",https://cdn.visitkorea.or.kr/img/call?cmd=VIEW&id=389a2105-a617-4c3a-8084-d54d02ba97aa&thumb,충청남도 공주시 왕릉로 37-2,36.4612284,127.1128601
공주 우금치 전적,충남 공주시,041-840-8207,"['관광지', '사적', '역사', '역사공부', '역사관광지', '역사를품은곳', '역사문화재']",https://cdn.visitkorea.or.kr/img/call?cmd=VIEW&id=6b133ad4-f6d3-4ede-94aa-f663cee9b25a&thumb,충청남도 공주시 금학동,36.4389526,127.1191536
공주 원골마을,충남 공주시,041-841-2966,"['관광지', '농촌', '농촌체험', '농촌체험마을', '농촌체험여행', '농촌체험학습']",https://cdn.visitkorea.or.kr/img/call?cmd=VIEW&id=406a51ed-c9c4-4a60-a457-a465e1b89af4&thumb,충청남도 공주시 신풍면 원골예술길 94,36.5272831,126.960863
공주 정지산 유적,충남 공주시,041-840-8207,"['관광지', '역사', '역사공부', '역사관광지', '역사를품은곳', '역사문화재', '역사속으로']",https://cdn.visitkorea.or.kr/img/call?cmd=VIEW&id=410bb4ac-df81-49f4-8f11-b0c0e0169b67&thumb,충청남도 공주시 금성동,36.4666115,127.1219244
공주 중동성당,충남 공주시,041-856-1033,"['관광지', '역사공부', '역사관광지', '역사문화재', '역사속', '역사속으로', '역사여행']",https://cdn.visitkorea.or.kr/img/call?cmd=VIEW&id=fb8c50cf-9da6-4ce7-ba0a-b12185832651&thumb,충청남도 공주시 성당길 6,36.4547995,127.1274561
공주 황새바위 순교성지,충남 공주시,041-854-6321,"['관광지', '역사', '역사공부', '역사관광지', '역사를품은곳', '역사문화재', '역사속']",https://cdn.visitkorea.or.kr/img/call?cmd=VIEW&id=c611fcd9-29ae-45f6-8413-c7c6528b6cb7&thumb,충청남도 공주시 왕릉로 118,36.4634623,127.1196473
공주상신리 당간지주,충남 공주시,041-840-8207,"['공주상신리당간지주', '관광지', '역사', '역사공부', '역사관광지', '역사를품은곳']",https://cdn.visitkorea.or.kr/img/call?cmd=VIEW&id=3af47511-370c-4512-9fc0-9cb125caa6c5&thumb,충청남도 공주시 반포면,36.3968922,127.2503067
공주서혈사지,충남 공주시,041-840-8207,"['공주서혈사지', '관광지', '역사', '역사공부', '역사관광지', '역사를품은곳', '역사문화재']",https://cdn.visitkorea.or.kr/img/call?cmd=VIEW&id=ee261ade-42fd-42a7-92ad-c508de05710a&thumb,충청남도 공주시 시어골2길 96-9,36.4425266,127.1116665
공주치즈스쿨,충남 공주시,041-841-7800,"['공주치즈스쿨', '관광지', '사계절', '아이와함께', '이색체험', '자연좋은곳', '자연체험']",https://cdn.visitkorea.or.kr/img/call?cmd=VIEW&id=80834902-c434-4be1-9d9c-8ae6c3719ca3&thumb,충청남도 공주시 신풍면 충의로 2358,36.4921985,126.9402263
공주향교,충남 공주시,041-840-8207,"['공주향교', '관광지', '역사', '역사공부', '역사관광지', '역사를품은곳', '역사를품은곳']",https://cdn.visitkorea.or.kr/img/call?cmd=VIEW&id=d50adb3e-f1ce-4a98-a609-1803d540bdde&thumb,충청남도 공주시 향교1길 26,36.4582643,127.1168667
관북리유적과 부소산성 [유네스코 세계유산],충남 부여군,041-830-2880,"['15_16한국관광100선', '19_20한국관광100선', '가족여행', '관광지', '관북리유적과부소산성']",https://cdn.visitkorea.or.kr/img/call?cmd=VIEW&id=9fb4ae79-653f-4e42-a6d1-7e3f78099290&thumb,충청남도 부여군 부여읍 부소로 15,36.2851899,126.9127733
관음사석탑,충남 아산시,041-536-8773,"['관광지', '관음사석탑', '역사', '역사공부', '역사관광지', '역사를품은곳', '역사문화재']",https://cdn.visitkorea.or.kr/img/call?cmd=VIEW&id=cc9ba107-f178-417a-abef-ec3ce2a7fb86&thumb,충청남도 아산시 영인면 여민루길 122,36.8461671,126.9534064
관촉사(논산),충남 논산시,041-736-5700,"['가족여행', '관광지', '관촉사', '교과서속여행', '불교', '불교문화', '불교사찰']",https://cdn.visitkorea.or.kr/img/call?cmd=VIEW&id=f3bc6ef1-c3f1-4a8f-b511-382cc16edeff&thumb,충청남도 논산시 관촉로1번길 25,36.1882846,127.1131223
광덕사(천안),충남 천안시,041-567-0050,"['관광지', '광덕사', '불교', '불교문화', '사찰', '사찰여행', '역사', '역사유적지']",https://cdn.visitkorea.or.kr/img/call?cmd=VIEW&id=ee9784a7-8014-4288-a29f-854696da54b2&thumb,충청남도 천안시 동남구 광덕면 광덕사길 30,36.6756817,127.0424345
광덕산,충남 천안시,1577-3900,"['관광지', '자연']",https://cdn.visitkorea.or.kr/img/call?cmd=VIEW&id=1b186e57-57f0-4c50-9121-fd267b8f2b27&thumb,충청남도 천안시 동남구 광덕면 광덕사길 30,36.6756817,127.0424345
광덕산 관광농원,충남 천안시,041-567-0614,"['관광지', '여름가볼만한곳', '여름철', '여름휴가', '여름휴가지추천', '자연좋은곳']",https://cdn.visitkorea.or.kr/img/call?cmd=VIEW&id=e18ff916-6073-4c78-bd48-2b44ae0fc454&thumb,충청남도 천안시 동남구 광덕면 해사동길 15,36.6744572,127.0360929
광덕산(아산),충남 아산시,1577-6611,"['가족과함께', '관광지', '광덕산(아산)', '나홀로여행', '등산', '연인과함께', '자연']",https://cdn.visitkorea.or.kr/img/call?cmd=VIEW&id=703cb1fd-ab38-46a3-b68e-97bc2791fd49&thumb,충청남도 천안시 동남구 광덕면 광덕사길,36.678211,127.0424157
광시 한우거리,충남 예산군,041-339-8930,"['관광지', '광시한우거리', '맛집골목', '맛집여행', '숨은맛집', '이색거리', '전국맛집']",https://cdn.visitkorea.or.kr/img/call?cmd=VIEW&id=1fb09d46-1936-4b67-92ea-2c88b818cd32&thumb,충청남도 예산군 광시면 광시소길,36.548894,126.7733622
광천토굴새우젓단지,충남 홍성군,070-4130-0064,"['관광지', '광천토굴새우젓시장', '남녀노소', '새우젓', '숨은맛집', '이색거리']",https://cdn.visitkorea.or.kr/img/call?cmd=VIEW&id=a9525049-11ed-4098-b5f7-d2447c027887&thumb,충청남도 홍성군 광천읍 광천로 91,36.4846317,126.6154522
구 강경성결교회 예배당,충남 논산시,041-746-5412,"['건축사', '건축여행', '관광지', '국내건축물', '근대건축', '근대건축물', '역사']",https://cdn.visitkorea.or.kr/img/call?cmd=VIEW&id=9cc60674-a640-4874-81c5-73779b41b901&thumb,충청남도 논산시 강경읍 계백로219번길 40-1,36.1628906,127.0184696
"구, 강경공립상업학교 관사",충남 논산시,041-746-5412,"['건축물', '건축사', '관광지', '근대건축', '근대건축물', '근대역사', '역사', '역사공부']",https://cdn.visitkorea.or.kr/img/call?cmd=VIEW&id=d415fbbc-8d23-4203-9da3-9dd7e56642d1&thumb,충청남도 논산시 강경읍 계백로 220,36.1609319,127.0231775
구드래조각공원,충남 부여군,041-830-2880,"['걷기길', '관광지', '구드래조각공원', '산책길', '산책하기', '산책하기좋은곳']",https://cdn.visitkorea.or.kr/img/call?cmd=VIEW&id=b5e5692d-e2fb-4d8b-90d9-9c74981dd7d7&thumb,충청남도 부여군 부여읍 나루터로 60,36.2874884,126.9084646
구례포해수욕장,충남 태안군,041-670-2691,"['겨울여행', '관광지', '구례포해수욕장', '드라마촬영지', '바다풍경', '자연', '충청권']",https://cdn.visitkorea.or.kr/img/call?cmd=VIEW&id=dc0f95f5-c1c4-4299-b5b6-c48b88d43b6b&thumb,충청남도 태안군 원북면 황촌리,36.8628581,126.2048024
구름포해수욕장,충남 태안군,041-670-2691,"['가족여행', '관광지', '구름포해수욕장', '바다낚시', '바다풍경', '아이와함께']",https://cdn.visitkorea.or.kr/img/call?cmd=VIEW&id=12c5927f-55e1-4e88-8a59-2ad34d1eb296&thumb,충청남도 태안군 소원면 의항리,36.7979007,126.1519171
구절암(홍성),충남 홍성군,041-642-0702,"['관광지', '불교', '불교문화', '사찰', '사찰여행', '역사', '자연속으로', '자연환경']",https://cdn.visitkorea.or.kr/img/call?cmd=VIEW&id=undefined&thumb,충청남도 홍성군 구항면 거북로218번길 163,36.5691339,126.6257382
국립 망향의 동산,충남 천안시,041-557-7001,"['가족여행', '관광지', '국립망향의동산', '기념관', '아이와함께', '역사공부', '역사를품은곳']",https://cdn.visitkorea.or.kr/img/call?cmd=VIEW&id=c04eb04a-db1c-4acd-926e-3a51a2174dbe&thumb,충청남도 천안시 서북구 성거읍 망향로 372-8,36.8528484,127.1852545
국립 생태원,충남 서천군,041-950-5300,"['관광지', '국립생태원', '생태관광', '생태관광지', '전시관', '체험학습', '충청권']",https://cdn.visitkorea.or.kr/img/call?cmd=VIEW&id=50367f3e-a4e0-48c4-a869-b190cd1648c2&thumb,충청남도 서천군 마서면 금강로 1210,36.0276334,126.7200186
국립 오서산자연휴양림,충남 보령시,041-936-5465,"['가족여행', '관광지', '국립오서산자연휴양림', '나들이', '등산', '아이와함께']",https://cdn.visitkorea.or.kr/img/call?cmd=VIEW&id=2e75a96c-2deb-440c-8047-fea4d1d7e989&thumb,충청남도 보령시 청라면 오서산길 531,36.4547199,126.672206
국립 용현자연휴양림,충남 서산시,041-664-1978,"['가족여행', '걷기길', '관광지', '국립용현자연휴양림', '나들이', '여름여행', '연인과함께']",https://cdn.visitkorea.or.kr/img/call?cmd=VIEW&id=ba392762-23c5-4b46-9a8e-121942134b8d&thumb,충청남도 서산시 운산면 마애삼존불길 339,36.7504494,126.6088719
국립 희리산해송자연휴양림,충남 서천군,041-953-2230,"['걷기길', '관광지', '국립희리산해송자연휴양림', '등산로', '생태관광지', '숲치유']",https://cdn.visitkorea.or.kr/img/call?cmd=VIEW&id=d4a61b9f-844f-4290-beac-887f10e8107e&thumb,충청남도 서천군 종천면 희리산길 206,36.1130631,126.6657284
국립생태원(서천),충남 서천군,041-950-5300,"['가족여행', '관광지', '무더위_피해_실내여행', '서천국립생태원', '아이가_좋아하는_여행']",https://cdn.visitkorea.or.kr/img/call?cmd=VIEW&id=cb944c69-cbac-46e7-a081-e9eac1e3f67e&thumb,충청남도 서천군 마서면 금강로 1210,36.0276334,126.7200186
국사봉과 천태산,충남 금산군,041-750-2626,"['관광지', '자연']",https://cdn.visitkorea.or.kr/img/call?cmd=VIEW&id=undefined&thumb,충청남도 금산군 제원면,36.1125373,127.5460902
군지폭포,충남 논산시,041-746-5114,"['관광지', '자연']",https://cdn.visitkorea.or.kr/img/call?cmd=VIEW&id=undefined&thumb,충청남도 논산시 벌곡면 수락계곡길,36.1513662,127.3100217
군창지,충남 부여군,041-830-2623,"['관광지', '역사', '역사공부', '역사를품은곳', '역사문화재', '역사속', '역사속으로']",https://cdn.visitkorea.or.kr/img/call?cmd=VIEW&id=8f4cc886-6de0-47f8-9935-bd2e48c32588&thumb,충청남도 부여군 부여읍 쌍북리,36.2858855,126.9241202
궁리포구,충남 홍성군,041-630-1224,"['관광지', '궁리포구', '일몰여행', '자연', '충청권', '포구']",https://cdn.visitkorea.or.kr/img/call?cmd=VIEW&id=83804651-01e0-4809-bde0-13bb26a33618&thumb,충청남도 홍성군 서부면 남당항로 853-5,36.5888708,126.457746
권율장군 이치대첩비,충남 금산군,041-750-2384,"['관광지', '역사', '역사공부', '역사관광지', '역사를품은곳', '역사문화재', '역사속']",https://cdn.visitkorea.or.kr/img/call?cmd=VIEW&id=f3fd4b0b-39d7-4dc6-9873-a33a72c95265&thumb,충청남도 금산군 진산면 대둔산로 191,36.1321939,127.3529368
권충민공순절비,충남 금산군,041-750-2384,"['관광지', '역사', '역사공부', '역사관광지', '역사를품은곳', '역사문화재', '역사속']",https://cdn.visitkorea.or.kr/img/call?cmd=VIEW&id=f73f4148-5b10-4e68-8ae4-2c177ff325e7&thumb,충청남도 금산군 제원면 저곡리,36.1092812,127.5619052
궐리사,충남 논산시,041-746-5412,"['관광지', '역사', '역사공부', '역사관광지', '역사를품은곳', '역사문화재', '역사속']",https://cdn.visitkorea.or.kr/img/call?cmd=VIEW&id=66b6e186-5777-486c-baac-36ba9cea323d&thumb,충청남도 논산시 노성면 교촌길 35,36.2824055,127.1330924
귀암사,충남 금산군,041-750-2384,"['관광지', '역사', '역사공부', '역사공부', '역사관광지', '역사를품은곳', '역사문화재']",https://cdn.visitkorea.or.kr/img/call?cmd=VIEW&id=415fdebf-c8b5-42f3-9632-14d0db5d5ad0&thumb,충청남도 금산군 부리면 평촌1길 2,36.0749043,127.5670328
그림이 있는 정원,충남 홍성군,041-641-1477,"['가족여행', '관광지', '그림이있는정원', '수목원', '연중무휴', '자연', '자연좋은곳']",https://cdn.visitkorea.or.kr/img/call?cmd=VIEW&id=edb6836c-0661-43c5-8cca-668614a1a46b&thumb,충청남도 홍성군 광천읍 충서로400번길 102-36,36.5189126,126.6291814
금강 농바우마을 [농촌전통테마마을],충남 금산군,041-753-0301,"['가족과함께', '관광지', '농촌마을', '농촌여행', '농촌체험', '농촌체험마을', '아이와함께']",https://cdn.visitkorea.or.kr/img/call?cmd=VIEW&id=ea653edc-46b6-489f-8921-ef17b4b9c8e9&thumb,충청남도 금산군 부리면 어재1길 2,36.083725,127.5945457
금강 문화관,충남 부여군,041-830-0613,"['관광지', '금강문화관', '아이와함께', '전망대', '전시관', '체험학습', '충청권']",https://cdn.visitkorea.or.kr/img/call?cmd=VIEW&id=5ecd64d1-abb2-42a4-b688-c0d1340f3933&thumb,충청남도 부여군 부여읍 북포로 451,36.3165503,126.9396445
금강아트센터,충남 공주시,041-856-6543,"['가족과함께', '가족체험', '공예체험', '공예품', '관광지', '도자기', '도자기공방']",https://cdn.visitkorea.or.kr/img/call?cmd=VIEW&id=95195f5a-8ccb-42aa-9ed2-0867c1dadc66&thumb,충청남도 공주시 반포면 왕흥장악로 837,36.4288398,127.2021489
금강암(보령),충남 보령시,041-931-7767,"['관광지', '불교', '불교문화', '사찰', '사찰여행', '역사', '자연속으로', '자연환경']",https://cdn.visitkorea.or.kr/img/call?cmd=VIEW&id=null&thumb,충청남도 보령시 미산면 보령호로 1139-102,36.2608192,126.6576079
금강온천,충남 공주시,041-856-0033,"['가족여행', '관광지', '금강온천', '목욕탕', '스파', '연중무휴', '온천', '충청권']",https://cdn.visitkorea.or.kr/img/call?cmd=VIEW&id=e7758d36-96f2-455e-b9ee-ad353493166c&thumb,충청남도 공주시 고마나루길 51-12,36.4630042,127.1073629
금강하구둑 관광지,충남 서천군,041-952-9525,"['가족여행', '관광지', '교육여행', '금강하구둑', '금강하구둑관광지', '나들이']",https://cdn.visitkorea.or.kr/img/call?cmd=VIEW&id=cf8fb3fa-310b-41bd-ae4a-3e54f698c593&thumb,충청남도 서천군 마서면 장산로855번길 56-2,36.0198945,126.7367259
금곡서원,충남 논산시,041-746-5412,"['관광지', '금곡서원', '역사', '역사공부', '역사관광지', '역사를품은곳', '역사문화재']",https://cdn.visitkorea.or.kr/img/call?cmd=VIEW&id=931d709d-f742-4ab4-bde9-e87506c0df79&thumb,충청남도 논산시 연무읍 왕릉로 170-35,36.1181336,127.0842544
금산 대원정사,충남 금산군,041-754-5830,"['관광지', '불교', '불교문화', '사찰&신사', '사찰여행', '역사', '전통사찰', '휴식하기좋은곳']",https://cdn.visitkorea.or.kr/img/call?cmd=VIEW&id=b8181f86-99d5-4634-8c57-e5f2fa270daf&thumb,충청남도 금산군 금산읍 비범3길 17,36.1085226,127.4916127
금산 바리실마을,충남 금산군,041-750-2031,"['가족체험', '가족체험', '관광지', '농촌마을', '농촌체험여행', '농촌체험학습']",https://cdn.visitkorea.or.kr/img/call?cmd=VIEW&id=f50ad573-114c-4355-9a47-a6fc8fb30291&thumb,충청남도 금산군 제원면 바리실길 206,36.1341777,127.5243147
금산 백령성,충남 금산군,041-750-2384,"['관광지', '금산백령성', '역사', '역사공부', '역사를품은곳', '역사문화재', '역사속']",https://cdn.visitkorea.or.kr/img/call?cmd=VIEW&id=d7fa0879-c098-4b38-bef7-898a9c75aedd&thumb,충청남도 금산군 남이면 역평리,36.060086,127.4085651
금산 천내리 용호석,충남 금산군,041-750-2384,"['관광지', '역사', '역사공부', '역사관광지', '역사를품은곳', '역사문화재', '역사속']",https://cdn.visitkorea.or.kr/img/call?cmd=VIEW&id=a7ccc50c-63fe-4d08-83ca-248f777973ca&thumb,충청남도 금산군 제원면 천내리,36.1181881,127.5894235
금산 천내리/용화리 고인돌,충남 금산군,041-750-2384,"['관광지', '금산용화리고인돌', '금산천내리고인돌', '문화재', '역사', '역사공부']",https://cdn.visitkorea.or.kr/img/call?cmd=VIEW&id=7cb8596e-19d8-4d52-92ca-671e6a81804a&thumb,충청남도 금산군 제원면 용화리,36.0949893,127.5912098
금산 충렬사,충남 금산군,041-750-2384,"['관광지', '역사', '역사공부', '역사를품은곳', '역사문화재', '역사속', '역사속으로']",https://cdn.visitkorea.or.kr/img/call?cmd=VIEW&id=c4900b34-3121-4c21-81f4-b5d4e13db634&thumb,충청남도 금산군 금성면 진산로 356-10,36.1304887,127.4563043
금산 칠백의총,충남 금산군,041-753-8701,"['가족여행', '관광지', '교과서속여행', '금산칠백의총', '아이와함께', '역사', '역사유적지']",https://cdn.visitkorea.or.kr/img/call?cmd=VIEW&id=0ac84d89-f9eb-41d7-8a16-bbf53c15bc02&thumb,충청남도 금산군 금성면 의총길 50,36.1299559,127.4917878
금산생태숲,충남 금산군,041-753-5706,"['걷기길', '관광지', '금산생태숲', '생태관광지', '숲체험원', '자연', '자연좋은곳']",https://cdn.visitkorea.or.kr/img/call?cmd=VIEW&id=2f451152-3fd2-4b4f-b6bb-53bdd4bc44ff&thumb,충청남도 금산군 남이면 느티골길 200,36.0612309,127.3733401
금산인삼관,충남 금산군,041-750-2621,"['가족여행', '관광지', '금산인삼관', '박물관', '산업관광', '아이와함께', '연중무휴']",https://cdn.visitkorea.or.kr/img/call?cmd=VIEW&id=0764ae76-52ac-4679-b26e-14e672cafbb6&thumb,충청남도 금산군 금산읍 인삼광장로 30,36.1000256,127.5006731
금산향교,충남 금산군,041-750-2384,"['관광지', '역사', '역사공부', '역사관광지', '역사를품은곳', '역사문화재', '역사속']",https://cdn.visitkorea.or.kr/img/call?cmd=VIEW&id=7cb2b724-55ce-4b6a-a57c-6ce205eee097&thumb,충청남도 금산군 금산읍 비단로 298,36.1108454,127.4899472
금지암(부여),충남 부여군,041-834-5420,"['관광지', '불교', '불교문화', '사찰', '사찰여행', '역사', '자연속으로', '자연환경']",https://cdn.visitkorea.or.kr/img/call?cmd=VIEW&id=null&thumb,충청남도 부여군 내산면 월명산길 487,36.2557188,126.7198653
기지포해수욕장,충남 태안군,041-670-2691,"['가족여행', '관광지', '기지포해수욕장', '바다풍경', '여름여행', '여름휴가', '연인과함께']",https://cdn.visitkorea.or.kr/img/call?cmd=VIEW&id=c6b3fa2a-30d4-4321-b90a-a5a17f301412&thumb,충청남도 태안군 안면읍 해안관광로 745-19,36.5631723,126.3237007
김공 휘 유경 효자문·김공 휘 홍익 충신문,충남 서산시,041-660-2247,"['관광지', '김공휘유경효자문', '김공휘홍익충신문', '역사', '역사공부', '역사관광지']",https://cdn.visitkorea.or.kr/img/call?cmd=VIEW&id=32c5a092-c280-41a7-932b-e565b90144d8&thumb,충청남도 서산시 음암면 유계리,36.7560178,126.519853
김좌진장군묘,충남 보령시,041-930-6553,"['관광지', '역사', '역사공부', '역사관광지', '역사를품은곳', '역사문화재', '역사속']",https://cdn.visitkorea.or.kr/img/call?cmd=VIEW&id=973ecf70-bac1-4784-9abd-7d3fd7590df8&thumb,충청남도 보령시 청소면 김좌진로 200,36.4568794,126.6160651
김좌진장군생가지,충남 홍성군,041-634-6952,"['관광지', '기념물', '김좌진장군생가지', '역사', '역사공부', '역사관광지', '역사를품은곳']",https://cdn.visitkorea.or.kr/img/call?cmd=VIEW&id=f9985dca-1039-49b2-9b05-d92c39e97e64&thumb,충청남도 홍성군 갈산면 백야로546번길 12,36.5976091,126.54717
꽃지해수욕장,충남 태안군,041-670-2691,"['관광지', '꽃지해수욕장', '바다풍경', '아이와함께', '연인과함께', '자연', '충청권']",https://cdn.visitkorea.or.kr/img/call?cmd=VIEW&id=dc6ad514-bc0a-482a-9373-17f42519c598&thumb,충청남도 태안군 안면읍 승언리,36.5144302,126.3529178
꽃지해안공원,충남 태안군,041-670-5937,"['관광지', '꽃지해안공원', '나들이', '데이트코스', '바다풍경', '사계절', '아이와함께']",https://cdn.visitkorea.or.kr/img/call?cmd=VIEW&id=696164bf-1088-4e86-a3ac-2b5dca3f97ee&thumb,충청남도 태안군 안면읍,36.520472,126.3444969
꾸지나무골해수욕장,충남 태안군,041-670-2691,"['경치좋은곳', '관광지', '꾸지나무골해수욕장', '바다낚시', '바다풍경', '여름여행']",https://cdn.visitkorea.or.kr/img/call?cmd=VIEW&id=90c920bf-0a9d-4f15-8278-f7fd86ebbf9f&thumb,충청남도 태안군 이원면 내리,36.9520615,126.2947774
낙화암,충남 부여군,041-830-2951,"['19_20한국관광100선', '경치좋은곳', '관광지', '낙화암', '부여백제유적지']",https://cdn.visitkorea.or.kr/img/call?cmd=VIEW&id=820d2575-fb33-4b04-b497-3475dd3085d9&thumb,충청남도 부여군 부여읍 북포로,36.3040934,126.937815
난지섬해수욕장,충남 당진시,041-350-3592,"['관광지', '난지섬해수욕장', '바다', '여름피서지', '자연', '충청권']",https://cdn.visitkorea.or.kr/img/call?cmd=VIEW&id=01fff9eb-9906-469b-a108-3b6b99c67eb6&thumb,충청남도 당진시 석문면 난지1길 67,37.0477185,126.4249173
남당리 행복마을,충남 서천군,041-950-6544,"['관광지', '산책길', '산책하기좋은곳', '자연마을', '자연여행', '자연좋은곳', '자연풍경']",https://cdn.visitkorea.or.kr/img/call?cmd=VIEW&id=64c198f4-6847-4521-a928-e6b6ae363961&thumb,충청남도 서천군 비인면 남당길63번길 23-6,36.1713577,126.6159057
남당마을,충남 홍성군,041-634-2500,"['관광지', '자연']",https://cdn.visitkorea.or.kr/img/call?cmd=VIEW&id=cec244e1-4c87-4b43-9a97-05d22568934d&thumb,충청남도 홍성군 서부면 남당리,36.5435969,126.483456
남당항,충남 홍성군,041-630-1224,"['관광지', '남당항', '미식여행', '바다풍경', '자연', '충청권']",https://cdn.visitkorea.or.kr/img/call?cmd=VIEW&id=c9cd3b87-746f-4673-9a27-e9e39ca48ce5&thumb,충청남도 홍성군 서부면 남당리,36.5435969,126.483456
남산서원(부여),충남 부여군,041-830-2623,"['관광지', '역사', '역사공부', '역사관광지', '역사를품은곳', '역사문화재', '역사속']",https://cdn.visitkorea.or.kr/img/call?cmd=VIEW&id=null&thumb,충청남도 부여군 장암면 의자로 613,36.2312848,126.9464012
남연군의묘,충남 예산군,041-339-7332,"['관광지', '역사', '역사공부', '역사관광지', '역사를품은곳', '역사문화재', '역사속']",https://cdn.visitkorea.or.kr/img/call?cmd=VIEW&id=2156bdab-40d1-43b5-9e24-35c88d8df7ef&thumb,충청남도 예산군 덕산면 상가리,36.7173939,126.621787
남이자연휴양림,충남 금산군,041-753-5706,"['가족여행', '관광지', '나들이', '남이자연휴양림', '데이트코스', '아이와함께']",https://cdn.visitkorea.or.kr/img/call?cmd=VIEW&id=f4533a30-56cc-4144-99ce-c06eca37446b&thumb,충청남도 금산군 남이면 느티골길 200,36.0612309,127.3733401
남천리 산촌생태마을,충남 청양군,041-943-3663,"['관광지', '남천리산촌생태마을', '생태관광지', '자연마을', '자연여행', '자연좋은곳']",https://cdn.visitkorea.or.kr/img/call?cmd=VIEW&id=e7d71e70-d93d-4bc6-8caf-37b5b9e8ba1f&thumb,충청남도 청양군 정산면 면암로 288-184,36.4541479,126.9838207
남포관아문,충남 보령시,041-930-6553,"['관광지', '역사', '역사공부', '역사관광지', '역사를품은곳', '역사문화재', '역사속']",https://cdn.visitkorea.or.kr/img/call?cmd=VIEW&id=d8bdded4-4b8b-4745-bdf7-34f06df1ffda&thumb,충청남도 보령시 남포면 읍성향교길 19,36.3056996,126.6092007
남포방조제,충남 보령시,041-932-2023,"['가족여행', '관광지', '나들이', '나홀로여행', '남포방조제', '데이트코스', '바다풍경']",https://cdn.visitkorea.or.kr/img/call?cmd=VIEW&id=06410608-051d-4258-8ba4-9fe8b361df1b&thumb,충청남도 보령시 남포방조제로 154,36.2985941,126.5278769
남포읍성,충남 보령시,041-930-6553,"['관광지', '남포읍성', '역사', '역사공부', '역사관광지', '역사를품은곳', '역사문화재']",https://cdn.visitkorea.or.kr/img/call?cmd=VIEW&id=f0132452-ec13-4c73-bc45-027490683e5e&thumb,충청남도 보령시 남포면 읍성향교길 19,36.3056996,126.6092007
남포향교,충남 보령시,041-930-6553,"['관광지', '역사', '역사공부', '역사관광지', '역사를품은곳', '역사문화재', '역사속']",https://cdn.visitkorea.or.kr/img/call?cmd=VIEW&id=d39d3918-7906-45bd-8843-7ce86c909983&thumb,충청남도 보령시 남포면 읍성향교길 133,36.3050869,126.6190841
남포향교 대성전,충남 보령시,041-930-6553,"['관광지', '역사', '역사관광지', '역사를품은곳', '역사문화재', '역사문화재', '역사속']",https://cdn.visitkorea.or.kr/img/call?cmd=VIEW&id=2461afcd-3fb6-4886-9d3b-bac5c739a76c&thumb,충청남도 보령시 남포면 읍성향교길 133,36.3050869,126.6190841
낭산사,충남 부여군,041-830-2623,"['관광지', '역사', '역사공부', '역사관광지', '역사를품은곳', '역사문화재', '역사속']",https://cdn.visitkorea.or.kr/img/call?cmd=VIEW&id=null&thumb,충청남도 부여군 세도면 사동로 174-6,36.1941181,126.9314689
내원사(홍성),충남 홍성군,041-642-1809,"['관광지', '불교', '불교문화', '사찰', '사찰여행', '역사', '자연속으로', '자연환경']",https://cdn.visitkorea.or.kr/img/call?cmd=VIEW&id=null&thumb,충청남도 홍성군 장곡면 광성1길 53,36.4827922,126.6774776
내포보부상촌,충남 예산군,041-337-8830,"['가족과함께', '관광지', '교육여행', '산책하기좋은곳', '아이와함께', '역사공부']",https://cdn.visitkorea.or.kr/img/call?cmd=VIEW&id=d8299f74-8862-4959-b9e0-c3b719b4540d&thumb,충청남도 예산군 덕산면 온천단지1로 55,36.6938205,126.6560522
냉천골,충남 청양군,041-940-2493,"['관광지', '냉천골', '여름피서지', '자연', '충청권']",https://cdn.visitkorea.or.kr/img/call?cmd=VIEW&id=5e79c3fe-2301-43c8-b30b-06ecfbf22347&thumb,충청남도 청양군 정산면 칠갑산로,36.4227492,126.9192262
네이처월드,충남 태안군,041-675-9200,"['SNS감성사진', '감성사진', '관광지', '남녀노소', '데이트장소추천', '사진찍기좋은곳']",https://cdn.visitkorea.or.kr/img/call?cmd=VIEW&id=388fce6d-041d-4ef3-b860-d31cd5da40bb&thumb,충청남도 태안군 남면 마검포길 200,36.6196327,126.3058838
노강서원,충남 논산시,041-746-5412,"['관광지', '노강서원', '역사', '역사공부', '역사관광지', '역사를품은곳', '역사문화재']",https://cdn.visitkorea.or.kr/img/call?cmd=VIEW&id=275dd269-154d-4f29-bd0d-a31b62aac825&thumb,충청남도 논산시 광석면 오강길 56-5,36.2596698,127.0732142
노성향교,충남 논산시,041-746-5412,"['관광지', '노성향교', '역사', '역사공부', '역사관광지', '역사를품은곳', '역사문화재']",https://cdn.visitkorea.or.kr/img/call?cmd=VIEW&id=bf356d6c-d1ed-430e-9f99-49337f949454&thumb,충청남도 논산시 노성면 노성산성길 54,36.2820513,127.1306029
노은단,충남 홍성군,041-630-1688,"['강원권', '관광지', '교과서속여행', '노은단', '아이와함께', '역사', '역사공부']",https://cdn.visitkorea.or.kr/img/call?cmd=VIEW&id=cb4dc5a5-0450-400e-a8cf-e0ed0926cfc1&thumb,충청남도 홍성군 홍북면 노은리,36.64377,126.7254925
녹도,충남 보령시,041-932-2023,"['2020_휴가철찾아가고싶은_33섬', '가족과함께', '경치여행', '경치좋은곳']",https://cdn.visitkorea.or.kr/img/call?cmd=VIEW&id=6a661acb-e915-4a99-9b78-842f576e3cfe&thumb,충청남도 보령시 오천면 녹도2길 33-2,36.2689337,126.265116
논산 노성산성,충남 논산시,041-746-5412,"['관광지', '역사', '역사공부', '역사관광지', '역사를품은곳', '역사문화재', '역사속']",https://cdn.visitkorea.or.kr/img/call?cmd=VIEW&id=19fb0517-6aad-4788-9efa-5bb9ca807dbd&thumb,충청남도 논산시 노성면 송당리,36.2758671,127.1134895
논산 딸기삼촌농장,충남 논산시,01-734-4349,"['가족과함께', '가족체험', '관광지', '농장체험', '딸기농장', '딸기삼촌농장', '아이와함께']",https://cdn.visitkorea.or.kr/img/call?cmd=VIEW&id=4301d350-7d24-4ad2-ab96-f47aa555baf4&thumb,충청남도 논산시 노성면 병사리,36.2772843,127.1012059
논산 선샤인스튜디오,충남 논산시,1811-7057,"['관광지', '남녀노소', '데이트장소추천', '드라마세트장', '드라마촬영장', '미스터선샤인']",https://cdn.visitkorea.or.kr/img/call?cmd=VIEW&id=7d84f232-699d-4aa5-9a1d-17776078776e&thumb,충청남도 논산시 연무읍 봉황로 90,36.1026102,127.1060206
논산 연산역 급수탑,충남 논산시,041-746-5412,"['관광지', '근대문화유산', '논산연산역급수탑', '등록문화재', '역사', '역사공부']",https://cdn.visitkorea.or.kr/img/call?cmd=VIEW&id=4ce9b117-ce6a-4529-ae9a-3648983eb4f9&thumb,충청남도 논산시 연산면 선비로275번길 31-2,36.212811,127.20209
논산 황산벌참살이마을,충남 논산시,041-746-8735,"['관광지', '농촌', '농촌여행코스', '농촌체험', '농촌체험마을', '농촌체험여행']",https://cdn.visitkorea.or.kr/img/call?cmd=VIEW&id=bfda994d-7452-4d76-b7e4-638982256d26&thumb,충청남도 논산시 연산면 고정1길 43,36.1969477,127.1867741
논산명재고택,충남 논산시,041-746-5412,"['고택', '관광지', '교과서속여행', '논산명재고택', '문화재', '역사', '역사공부']",https://cdn.visitkorea.or.kr/img/call?cmd=VIEW&id=f17c3334-b0fb-4921-b0a4-6f7e3c243809&thumb,충청남도 논산시 노성면 노성산성길 50,36.2820378,127.1310984
느린호수길,충남 예산군,041-339-8930,"['관광지', '산책길', '산책하기', '산책하기좋은곳', '자연속으로', '자연여행', '자연좋은곳']",https://cdn.visitkorea.or.kr/img/call?cmd=VIEW&id=91535153-279b-4048-9d26-e510f3d0e8ed&thumb,충청남도 예산군 응봉면,36.6586111,126.7611336
느티골산림욕장,충남 금산군,041-753-5706,"['걷기길', '관광지', '느티골산림욕장', '등산로', '생태관광지', '숲체험원', '숲치유']",https://cdn.visitkorea.or.kr/img/call?cmd=VIEW&id=6699a634-3084-4bf5-a228-c11583b08237&thumb,충청남도 금산군 남이면 느티골길 200,36.0612309,127.3733401
다라미자운영마을,충남 아산시,041-544-7429,"['관광지', '농촌전통테마마을', '농촌체험', '다라미자운영마을', '자연마을', '자연좋은곳']",https://cdn.visitkorea.or.kr/img/call?cmd=VIEW&id=5be2f517-7473-48e0-84c8-918d31111407&thumb,충청남도 아산시 송악면 평촌길 107-9,36.7343964,127.0012037
단호박올리고마을,충남 당진시,041-360-8501,"['가족체험', '관광지', '농촌마을', '농촌체험', '농촌체험마을', '단호박올리고마을']",https://cdn.visitkorea.or.kr/img/call?cmd=VIEW&id=c590dde3-a222-4bfb-814c-e52abfa11b7a&thumb,충청남도 당진시 신평면 동산절길 39,36.8934811,126.738092
당진 백석올미마을,충남 당진시,041-353-7541,"['가족과함께', '가족여행', '관광지', '아이와함께', '올미원', '이색체험', '전통&향토산업']",https://cdn.visitkorea.or.kr/img/call?cmd=VIEW&id=87c565da-9ed1-4398-8a6d-b9f60b1c222b&thumb,충청남도 당진시 순성면 매실로 246,36.8226333,126.697642
당진 삽교호,충남 당진시,041-360-6680,"['가족여행', '관광지', '당진삽교호', '바다경치', '바다풍경', '삽교호', '아이와함께']",https://cdn.visitkorea.or.kr/img/call?cmd=VIEW&id=54893e59-4d09-4efa-9cb9-f5ec448cc322&thumb,충청남도 당진시 신평면,36.8852316,126.7735905
당진 안국사지 석탑,충남 당진시,041-350-3583,"['관광지', '보물', '안국사지석탑', '역사', '역사공부', '역사관광지', '역사를품은곳']",https://cdn.visitkorea.or.kr/img/call?cmd=VIEW&id=b0dbd89b-cbe5-4a6d-8a9d-6effaa1dfa4f&thumb,충청남도 당진시 정미면 원당골1길 188,36.8321488,126.5569157
당진 영전황토마을,충남 당진시,041-356-6766,"['가족과함께', '가족체험', '관광지', '농촌마을', '농촌체험', '농촌체험마을', '아이와함께']",https://cdn.visitkorea.or.kr/img/call?cmd=VIEW&id=69d8c1a3-f1b9-4232-ab1d-d1d169f99feb&thumb,충청남도 당진시 고대면 황토마을로 141,36.9666475,126.5622178
당진면천읍성,충남 당진시,041-350-3583,"['관광지', '면천읍성', '역사', '역사공부', '역사관광지', '역사를품은곳', '역사문화재']",https://cdn.visitkorea.or.kr/img/call?cmd=VIEW&id=5ee5b610-1dfb-45be-b5e3-cb4b56912799&thumb,충청남도 당진시 면천면 몽산길 14,36.8181945,126.6661218
당진전력문화홍보관,충남 당진시,070-5000-2031,"['관광지', '교육여행', '교육장', '교육체험', '교육프로그램', '당진전력문화홍보관']",https://cdn.visitkorea.or.kr/img/call?cmd=VIEW&id=405c9e2a-a5a8-44f7-b666-6b9368035674&thumb,충청남도 당진시 석문면 교로길 30,37.0507484,126.512488
당진필경사,충남 당진시,041-350-3583,"['고택', '관광지', '당진필경사', '역사', '역사공부', '역사관광지', '역사를품은곳']",https://cdn.visitkorea.or.kr/img/call?cmd=VIEW&id=4db4dac0-ffbf-44dc-ae20-3e145cbe403f&thumb,충청남도 당진시 송악읍 상록수길 97,36.9521721,126.7714215
당진항만관광공사 (삽교호 함상공원),충남 당진시,041-363-6960,"['가족과함께', '관광지', '남녀노소', '당진항만관광공사', '아이와함께', '안보여행']",https://cdn.visitkorea.or.kr/img/call?cmd=VIEW&id=ee66c374-0518-464a-8079-05d120bef445&thumb,충청남도 당진시 신평면 삽교천3길 79,36.8907704,126.8242581
당진향교,충남 당진시,041-350-3583,"['관광지', '당진향교', '역사', '역사공부', '역사관광지', '역사를품은곳', '역사문화재']",https://cdn.visitkorea.or.kr/img/call?cmd=VIEW&id=e1c066f2-728d-40ff-9038-b8964568ed46&thumb,충청남도 당진시 교동2길 33-18,36.892629,126.6335978
대난지도,충남 당진시,041-350-3592,"['관광지', '자연']",https://cdn.visitkorea.or.kr/img/call?cmd=VIEW&id=c3e757bf-8aa0-4da8-b04c-1d475094d09f&thumb,충청남도 당진시 석문면 난지1길,37.0502631,126.435459
대둔산도립공원(금산),충남 금산군,041-750-3411,"['관광지', '자연', '자연관광지', '자연속으로', '자연여행', '자연좋은곳', '자연풍경']",https://cdn.visitkorea.or.kr/img/call?cmd=VIEW&id=39c55349-b60c-4fa1-84e0-c658e84bc328&thumb,충남 금산군 진산면,36.1442601,127.3702265
대둔산도립공원(논산),충남 논산시,041-746-6156,"['관광지', '자연']",https://cdn.visitkorea.or.kr/img/call?cmd=VIEW&id=5f02d114-e5c1-4260-ae1d-59b4a92a779a&thumb,충청남도 논산시 벌곡면 수락계곡길,36.1513662,127.3100217
대둔산자연휴양림,충남 금산군,041-753-4242,"['관광지', '자연', '자연여행', '자연좋은곳', '자연풍경', '자연환경', '휴식여행']",https://cdn.visitkorea.or.kr/img/call?cmd=VIEW&id=d5852767-ef44-4602-afd7-3b2cc1025728&thumb,충청남도 금산군 진산면 대둔산로 6,36.1227595,127.3440305
대련사,충남 예산군,041-332-0408,"['관광지', '불교', '불교문화', '사찰', '사찰여행', '역사', '역사관광지', '자연속으로']",https://cdn.visitkorea.or.kr/img/call?cmd=VIEW&id=2fa646ce-ffea-4f26-95b0-5f49cad07610&thumb,충청남도 예산군 광시면 동산2길 119,36.5873238,126.7817796
대조사(부여),충남 부여군,041-833-2510,"['관광지', '대조사', '불교', '불교문화', '사찰', '사찰여행', '역사', '자연속으로']",https://cdn.visitkorea.or.kr/img/call?cmd=VIEW&id=38a87e76-5540-4ec2-9672-8f8f82f5da27&thumb,충청남도 부여군 임천면 성흥로197번길 112,36.1909331,126.9007171
대천 필랜드,충남 보령시,041-932-9860,"['가족과함께', '관광지', '놀이기구', '놀이동산', '놀이시설', '대천해수욕장', '아이가_좋아하는_여행']",https://cdn.visitkorea.or.kr/img/call?cmd=VIEW&id=37a73521-db11-40ef-b9d4-595ae72123ba&thumb,충청남도 보령시 대해로 860,36.3079831,126.5196003
대천한내돌다리,충남 보령시,041-930-6553,"['관광지', '역사', '역사공부', '역사를품은곳', '역사문화재', '역사속', '역사속으로']",https://cdn.visitkorea.or.kr/img/call?cmd=VIEW&id=ecf2a1ca-b3db-4518-b423-a0b1d8f3a67a&thumb,충청남도 보령시 동대동,36.3497089,126.622103
대천항,충남 보령시,041-932-2023,"['가족여행', '관광지', '대천항', '자연', '충청권', '항구']",https://cdn.visitkorea.or.kr/img/call?cmd=VIEW&id=38b09078-05f6-4724-91e5-d6fe9f8fc2df&thumb,충청남도 보령시 대천항중앙길 42,36.3271959,126.5093584
대천해수욕장,충남 보령시,041-933-7051,"['관광지', '대천해수욕장', '바다풍경', '자연', '충청권', '친구와함께', '힐링']",https://cdn.visitkorea.or.kr/img/call?cmd=VIEW&id=a4382017-df94-48dd-b059-e961096b4625&thumb,충청남도 보령시 머드로 123,36.3155199,126.5107767
대흥동헌,충남 예산군,041-339-7332,"['관광지', '역사', '역사공부', '역사관광지', '역사를품은곳', '역사문화재', '역사속']",https://cdn.visitkorea.or.kr/img/call?cmd=VIEW&id=979246b1-0460-4b4a-9ebe-31f2ce715dde&thumb,충청남도 예산군 대흥면 의좋은형제길 33,36.6066477,126.7884359
대흥향교,충남 예산군,041-339-7332,"['관광지', '역사', '역사공부', '역사관광지', '역사를품은곳', '역사문화재', '역사속']",https://cdn.visitkorea.or.kr/img/call?cmd=VIEW&id=f080609f-9d5b-45f6-b393-7ddd11c9722b&thumb,충청남도 예산군 대흥면 교촌향교길 88,36.6113233,126.7829056
덕산도립공원,충남 예산군,041-339-8930,"['가족여행', '관광지', '나들이', '덕산도립공원', '데이트코스', '등산', '등산로']",https://cdn.visitkorea.or.kr/img/call?cmd=VIEW&id=f4ccbb8c-0128-4014-ad5c-5673a81e566b&thumb,충청남도 예산군 덕산면,36.7013072,126.6652355
덕산사(금산),충남 금산군,041-750-2384,"['관광지', '역사', '역사공부', '역사관광지', '역사를품은곳', '역사문화재', '역사속']",https://cdn.visitkorea.or.kr/img/call?cmd=VIEW&id=1db99130-7f20-4e0d-94d9-b0a4bc1f2e09&thumb,충청남도 금산군 부리면 배정이길 37,36.0600227,127.5417436
덕산온천지구,충남 예산군,041-339-7303,"['가족여행', '관광지', '나들이', '덕산온천지구', '데이트코스', '스파', '아이와함께']",https://cdn.visitkorea.or.kr/img/call?cmd=VIEW&id=01c778b1-a50f-4071-882f-8e4440ca32e4&thumb,충청남도 예산군 덕산면,36.7013072,126.6652355
덕산향교,충남 예산군,041-339-7332,"['관광지', '역사', '역사공부', '역사관광지', '역사를품은곳', '역사문화재', '역사속']",https://cdn.visitkorea.or.kr/img/call?cmd=VIEW&id=648a7a10-e683-42c2-a460-a5e009195ec3&thumb,충청남도 예산군 덕산면 덕산향교길 88-34,36.7001375,126.657426
덕숭산,충남 예산군,041-339-8930,"['관광지', '덕숭산', '등산', '자연', '충청권', '트레킹']",https://cdn.visitkorea.or.kr/img/call?cmd=VIEW&id=5e2cc144-206d-49fc-abf1-ee721f96113b&thumb,충청남도 예산군 덕산면,36.7013072,126.6652355
도강영당,충남 부여군,041-830-2623,"['관광지', '역사', '역사공부', '역사관광지', '역사를품은곳', '역사문화재', '역사속']",https://cdn.visitkorea.or.kr/img/call?cmd=VIEW&id=432c20bc-a3a9-4fe0-afd8-cab2a8f385af&thumb,충청남도 부여군 부여읍 부소로 15,36.2851899,126.9127733
도령서당,충남 공주시,041-854-3391,"['관광지', '다도체험', '문화프로그램', '아이가_좋아하는_여행', '아이와함께']",https://cdn.visitkorea.or.kr/img/call?cmd=VIEW&id=a75b36d7-63c3-44ea-bb86-566365844da8&thumb,충청남도 공주시 의당면 서당길 144-13,36.5556584,127.1411925
도림계곡,충남 청양군,041-940-2492,"['관광지', '도림계곡', '자연', '충청권', '휴양여행', '힐링']",https://cdn.visitkorea.or.kr/img/call?cmd=VIEW&id=85c97362-6446-4759-b6a9-9c1573dade66&thumb,충청남도 청양군 장평면,36.3418189,126.8931047
도정딸기마을,충남 논산시,041-741-5454,"['가족과함께', '가족체험', '관광지', '농촌마을', '농촌체험', '농촌체험여행', '아이와함께']",https://cdn.visitkorea.or.kr/img/call?cmd=VIEW&id=e290f174-bd58-4d73-82e6-02ef3324ed3e&thumb,충청남도 논산시 양촌면 황산벌로380번길 15,36.1345229,127.2438743
독대섬,충남 보령시,041-930-0980,"['관광지', '낚시', '독대섬', '섬', '자연', '충청권']",https://cdn.visitkorea.or.kr/img/call?cmd=VIEW&id=20d8e3b1-9038-4663-8ffd-55cb1b3c83e6&thumb,충청남도 보령시 웅천읍 독산리,36.2314854,126.540506
독산해수욕장(홀뫼해수욕장),충남 보령시,041-930-3901,"['관광지', '나들이', '데이트코스', '독산해수욕장', '바다풍경', '아이와함께', '여름여행']",https://cdn.visitkorea.or.kr/img/call?cmd=VIEW&id=ae71a147-e90b-4760-8ffe-22ed3bda87f7&thumb,충청남도 보령시 웅천읍 열린바다로 585,36.2234089,126.5316508
돈암서원 [유네스코 세계문화유산],충남 논산시,041-736-0096,"['관광지', '돈암서원', '사적', '역사', '역사공부', '역사관광지', '역사를품은곳']",https://cdn.visitkorea.or.kr/img/call?cmd=VIEW&id=5f6185b0-0ef8-47c0-913d-b59a218ddc9f&thumb,충청남도 논산시 연산면 임3길 26-14,36.2092251,127.1807629
동곡서원,충남 부여군,041-830-2623,"['관광지', '교과서속여행', '동곡서원', '문화재', '서원', '역사', '역사공부', '역사관광지']",https://cdn.visitkorea.or.kr/img/call?cmd=VIEW&id=ee3631cb-3e6b-4d9d-888a-4b3c5c2e49ac&thumb,충청남도 부여군 세도면 성흥로 479-9,36.1790209,126.9280789
동백꽃마을,충남 서천군,041-952-6737,"['가족과함께', '가족여행', '갯벌체험', '관광지', '농촌체험', '동백꽃마을', '자연마을']",https://cdn.visitkorea.or.kr/img/call?cmd=VIEW&id=ca495f80-9214-4788-959f-280629096d17&thumb,충청남도 서천군 마서면 합전길 77,36.0485626,126.6688209
동백정,충남 서천군,041-952-9525,"['가족여행', '경치좋은곳', '관광지', '동백정', '명소', '바다경치', '자연마을', '자연속으로']",https://cdn.visitkorea.or.kr/img/call?cmd=VIEW&id=ee3af9f9-daeb-4eb2-9262-b6ceb894d525&thumb,충청남도 서천군 서면 서인로235번길 103,36.1378613,126.4935634
동절사,충남 부여군,041-830-2623,"['관광지', '역사', '역사공부', '역사관광지', '역사를품은곳', '역사문화재', '역사속']",https://cdn.visitkorea.or.kr/img/call?cmd=VIEW&id=39c1e9b1-531c-442e-a31a-d09ff600006c&thumb,충청남도 부여군 남면 금천로318번길 37-29,36.1995523,126.7975941
동학사(공주),충남 공주시,042-825-2570,"['관광지', '교과서속여행', '기차여행', '나들이', '동학사', '사찰&산사', '아이와함께']",https://cdn.visitkorea.or.kr/img/call?cmd=VIEW&id=e16303f6-3f75-412d-b3e5-4db731a8b1a5&thumb,충청남도 공주시 반포면 동학사1로 462,36.3533,127.2196327
동학사계곡,충남 공주시,042-825-3002,"['가족여행', '경치좋은곳', '계곡', '관광지', '동학사계곡', '등산', '등산로', '봄꽃여행']",https://cdn.visitkorea.or.kr/img/call?cmd=VIEW&id=b370c367-57c9-45cf-90e2-07d9c670db08&thumb,충청남도 공주시 반포면 동학사1로,36.360386,127.2399926
동혈사,충남 공주시,041-854-2855,"['관광지', '동혈사', '불교', '불교문화', '사찰', '사찰여행', '역사', '자연속으로']",https://cdn.visitkorea.or.kr/img/call?cmd=VIEW&id=b1a8fec3-49fe-434b-ab9b-922dfa9dc4bc&thumb,충청남도 공주시 의당면 동혈사길 77,36.5557121,127.1594701
두마신원재,충남 계룡시,042-840-2403,"['관광지', '역사', '역사공부', '역사관광지', '역사를품은곳', '역사문화재', '역사속']",https://cdn.visitkorea.or.kr/img/call?cmd=VIEW&id=d6547be0-e17f-400e-969f-297ef936afa4&thumb,충청남도 계룡시 두마면 왕대2길 43,36.255202,127.2703741
두여해수욕장,충남 태안군,041-670-2691,"['관광지', '자연']",https://cdn.visitkorea.or.kr/img/call?cmd=VIEW&id=30162fec-0b00-4fdb-998a-e32a63f81246&thumb,충청남도 태안군 안면읍 정당리 1313-1,36.5508737,126.3576326
두웅습지,충남 태안군,041-670-2114,"['가족여행', '걷기길', '관광지', '두웅습지', '생태관광지', '숲치유', '자연', '자연좋은곳']",https://cdn.visitkorea.or.kr/img/call?cmd=VIEW&id=09bd3406-b234-4003-b6a0-ca2293a87b35&thumb,충청남도 태안군 원북면 신두해변길 291-30,36.8357675,126.195906
두웅습지,충남 태안군,041-670-2692,"['관광지', '구례포해수욕장', '두웅습지', '생태관광', '생태관광지', '습지보호지역']",https://cdn.visitkorea.or.kr/img/call?cmd=VIEW&id=ced22b98-8613-46b8-b854-a6f7553b0429&thumb,충청남도 태안군 원북면 신두해변길 291-30,36.8357675,126.195906
마검포해수욕장,충남 태안군,041-670-2691,"['가족여행', '관광지', '마검포해수욕장', '바다풍경', '여름여행', '여름휴가', '연인과함께']",https://cdn.visitkorea.or.kr/img/call?cmd=VIEW&id=7d2fbdc8-2ad9-42b6-9f9f-2fcd18287eb4&thumb,충청남도 태안군 남면 신온리,36.6151262,126.3014989
마곡사 천연송림욕장,충남 공주시,041-841-6220,"['관광지', '자연']",https://cdn.visitkorea.or.kr/img/call?cmd=VIEW&id=3107ef65-33da-4987-a477-e9fcce0df42a&thumb,충청남도 공주시 사곡면 마곡사로,36.5236887,127.0246583
마곡사[유네스코 세계문화유산],충남 공주시,041-841-6220,"['관광지', '교과서속여행', '기차여행', '나들이', '마곡사', '사찰&산사', '아이와함께']",https://cdn.visitkorea.or.kr/img/call?cmd=VIEW&id=127aab87-528c-4c2f-b83d-cfed87e4917b&thumb,충청남도 공주시 사곡면 마곡사로 966,36.5585432,127.0120353
만대어촌체험마을,충남 태안군,010-2637-4592,"['가족과함께', '관광지', '남녀노소', '어촌마을', '연인과함께', '이색체험', '체험']",https://cdn.visitkorea.or.kr/img/call?cmd=VIEW&id=000a4f7d-7348-4033-b96b-d99f458253fc&thumb,충청남도 태안군 이원면 내리 666-24,36.9520615,126.2947774
만리포해수욕장,충남 태안군,041-670-2691,"['가족여행', '관광지', '나들이', '데이트코스', '만리포해수욕장', '바다풍경', '아이와함께']",https://cdn.visitkorea.or.kr/img/call?cmd=VIEW&id=32aa1c84-43c5-4c02-96a0-5f858e54d427&thumb,충청남도 태안군 소원면 모항리 일원,36.7685619,126.1412846
만수산자연휴양림,충남 부여군,041-830-2348,"['관광지', '자연']",https://cdn.visitkorea.or.kr/img/call?cmd=VIEW&id=002e1cc3-4611-4fd6-aa49-43c3eee90df0&thumb,충청남도 부여군 외산면 휴양로 107,36.3383091,126.7111345
만해 한용운선생 생가지,충남 홍성군,041-630-9231,"['가족여행', '관광지', '교과서속여행', '만해한용운선생생가지', '아이와함께']",https://cdn.visitkorea.or.kr/img/call?cmd=VIEW&id=bd79dddc-756e-4bac-b9bf-0a1557c41943&thumb,충청남도 홍성군 결성면 만해로318번길 83,36.5627944,126.553611
망일사(서산),충남 서산시,041-663-8441,"['관광지', '망일사', '불교', '불교문화', '사찰', '사찰', '사찰여행', '역사', '자연속으로']",https://cdn.visitkorea.or.kr/img/call?cmd=VIEW&id=2b99e216-4711-49ca-add9-35dc0e7b84a6&thumb,충청남도 서산시 대산읍 망일산로 831-134,36.9377207,126.4467263
매화둠벙마을,충남 태안군,041-672-0109,"['가족과함께', '가족체험', '관광지', '농촌', '농촌마을', '농촌체험', '농촌체험마을']",https://cdn.visitkorea.or.kr/img/call?cmd=VIEW&id=e6b3193f-2dec-431a-a113-1288b277c734&thumb,충청남도 태안군 원북면 동해길 301-41,36.8123589,126.2266894
맨삽지(학성리 공룡발자국화석),충남 보령시,041-930-6582,"['관광지', '보령학성리공룡발자국화석', '충청남도기념물', '화석']",https://cdn.visitkorea.or.kr/img/call?cmd=VIEW&id=a66545bd-8203-4b27-b0cc-4aab7105c551&thumb,충청남도 보령시 천북면 학성리 산45,36.4528381,126.4844926
면천향교,충남 당진시,041-350-3583,"['관광지', '면천향교', '역사', '역사공부', '역사관광', '역사관광지', '역사를품은곳']",https://cdn.visitkorea.or.kr/img/call?cmd=VIEW&id=55e2213f-b5ad-44db-b7c5-eaea2b46b768&thumb,충청남도 당진시 면천면 동문2길 36-7,36.8206558,126.6724308
명국삼장비,충남 공주시,041-840-8207,"['관광지', '명국삼장비', '역사', '역사공부', '역사관광지', '역사를품은곳', '역사문화재']",https://cdn.visitkorea.or.kr/img/call?cmd=VIEW&id=144ee1dc-25e3-4643-a8ac-891ae8d98df3&thumb,충청남도 공주시 금성동 10-2,36.4619074,127.1285748
명대골계곡,충남 보령시,041-932-2023,"['계곡', '관광지', '명대골계곡', '자연', '충청권', '피서']",https://cdn.visitkorea.or.kr/img/call?cmd=VIEW&id=f5fdc497-2ff7-4aa5-b60a-7f5af32d3abe&thumb,충청남도 보령시 청라면 장현리,36.4381654,126.6715324
명탄서원,충남 공주시,041-840-8207,"['관광지', '명탄서원', '역사', '역사공부', '역사관광지', '역사를품은곳', '역사문화재']",https://cdn.visitkorea.or.kr/img/call?cmd=VIEW&id=5cf435e9-080b-4dde-94a1-dbfd95441ea8&thumb,충청남도 공주시 명탄서원길 48,36.4587516,127.1563329
모덕사,충남 청양군,041-940-4982,"['관광지', '역사', '역사공부', '역사관광지', '역사를품은곳', '역사문화재', '역사속']",https://cdn.visitkorea.or.kr/img/call?cmd=VIEW&id=fa5bc30a-430a-4720-881b-b5b54b3d1524&thumb,충청남도 청양군 목면 나분동길 12,36.4461209,127.0078095
모원재,충남 계룡시,042-840-2422,"['관광지', '모원재', '역사', '역사공부', '역사관광지', '역사를품은곳', '역사문화재']",https://cdn.visitkorea.or.kr/img/call?cmd=VIEW&id=1c8ec8f5-2b8b-481b-b3fb-39e4e6b5ceaa&thumb,충청남도 계룡시 두마면 왕대2길 6-10,36.2548516,127.2733551
목애당,충남 태안군,041-670-5937,"['관광지', '목애당', '역사', '역사관광지', '역사를품은곳', '역사문화재', '역사속']",https://cdn.visitkorea.or.kr/img/call?cmd=VIEW&id=f221321e-c9c8-4d32-8251-1a655ec23aff&thumb,충청남도 태안군 태안읍 백화로 54,36.7576285,126.2967205
목천향교,충남 천안시,041-521-5163,"['관광지', '목천향교', '역사', '역사공부', '역사관광지', '역사를품은곳', '역사문화재']",https://cdn.visitkorea.or.kr/img/call?cmd=VIEW&id=c8360156-6a4c-4785-a2a5-6798c4179dd5&thumb,충청남도 천안시 동남구 목천읍 교촌6길 7,36.7996369,127.2290998
몽대포구,충남 태안군,041-670-2114,"['관광지', '몽대포구', '자연', '충청권', '포구', '항구']",https://cdn.visitkorea.or.kr/img/call?cmd=VIEW&id=12abae1a-f3fa-44ac-8173-d59b6d85ad6d&thumb,충청남도 태안군 남면 몽대로 495-71,36.6725828,126.2739451
몽산리석가여래좌상,충남 태안군,041-670-5937,"['관광지', '몽산리석가여래좌상', '불상', '역사', '역사공부', '역사관광지', '역사를품은곳']",https://cdn.visitkorea.or.kr/img/call?cmd=VIEW&id=21b42f72-0c7c-499d-8e5f-a9ec14682b13&thumb,충청남도 태안군 남면 몽산리,36.6869346,126.2740307
몽산포해수욕장,충남 태안군,041-670-2691,"['가족여행', '관광지', '나들이', '데이트코스', '몽산포해수욕장', '바다풍경', '아이와함께']",https://cdn.visitkorea.or.kr/img/call?cmd=VIEW&id=69cbea43-6497-4acb-afe3-0631ba347b4e&thumb,충청남도 태안군 남면 신장리,36.6910869,126.2956623
무궁화학습원(괴목정),충남 계룡시,042-840-2403,"['가족과함께', '관광지', '괴목정', '산책길', '산책하기', '산책하기좋은곳', '신선객 이야기']",https://cdn.visitkorea.or.kr/img/call?cmd=VIEW&id=f6855f33-fd4b-4c97-8f44-819dfe6a191f&thumb,충청남도 계룡시 신도안면 남선리,36.3120446,127.2497621
무량사(부여),충남 부여군,041-836-5066,"['관광지', '부여무량사', '불교', '불교문화', '불교사찰', '사찰', '사찰여행', '역사']",https://cdn.visitkorea.or.kr/img/call?cmd=VIEW&id=b6f7e792-605e-4345-a8c8-155d85ed8634&thumb,충청남도 부여군 외산면 무량로 203,36.3169846,126.6929223
무상사(계룡),충남 계룡시,042-841-6084,"['관광지', '불교', '불교문화', '사찰', '사찰여행', '역사', '자연속으로', '자연여행']",https://cdn.visitkorea.or.kr/img/call?cmd=VIEW&id=549c7e82-23e0-4b0c-ab2f-aeae2f1e7cca&thumb,충청남도 계룡시 엄사면 향적산길 129,36.2916066,127.2122063
무진암(부여),충남 부여군,041-836-5023,"['관광지', '불교', '불교문화', '사찰', '사찰여행', '역사', '자연속으로', '자연환경']",https://cdn.visitkorea.or.kr/img/call?cmd=VIEW&id=null&thumb,충청남도 부여군 외산면 무량로 181-17,36.3141642,126.6929549
무창포 비체팰리스 스파,충남 보령시,041-939-5757,"['가족여행', '가족휴양', '관광지', '무창포비체팰리스스파', '뷰티&스파', '숙박']",https://cdn.visitkorea.or.kr/img/call?cmd=VIEW&id=1b5d57bf-1d53-4eaa-bb12-97a1f2c5953c&thumb,충청남도 보령시 웅천읍 열린바다1길 78,36.2394397,126.5315457
무창포어촌체험마을,충남 보령시,041-934-3504,"['가족여행', '관광지', '남녀노소', '무창포어촌체험마을', '어촌마을', '어촌체험마을']",https://cdn.visitkorea.or.kr/img/call?cmd=VIEW&id=e1be883e-bb29-46e3-952e-2e4ba16add54&thumb,충청남도 보령시 웅천읍 열린바다2길 46,36.2485451,126.5370439
무창포항,충남 보령시,041-936-3510,"['가족과함께', '경치좋은곳', '관광지', '낙조명소', '낙조풍경', '무창포해수욕장']",https://cdn.visitkorea.or.kr/img/call?cmd=VIEW&id=fdfc8aca-ca8f-453f-a2d3-afcfa11ca778&thumb,충청남도 보령시 웅천읍 열린바다2길 46,36.2485451,126.5370439
무창포해수욕장,충남 보령시,041-936-3561,"['가족여행', '관광지', '나들이', '데이트코스', '무창포해수욕장', '바다풍경', '아이와함께']",https://cdn.visitkorea.or.kr/img/call?cmd=VIEW&id=e55dd035-2475-49bd-963e-d1e1298f02fb&thumb,충청남도 보령시 웅천읍 열린바다1길 10,36.2445217,126.5365626
문수사(서산),충남 서산시,041-663-3925,"['관광지', '불교', '불교문화', '사찰', '사찰여행', '역사', '자연속으로', '자연환경']",https://cdn.visitkorea.or.kr/img/call?cmd=VIEW&id=cff0b58e-499a-447a-8576-2ebecbb58b3d&thumb,충청남도 서산시 운산면 문수골길 201,36.7788418,126.5895035
문헌서원,충남 서천군,041-953-5895,"['가족여행', '관광지', '문헌서원', '역사', '역사공부', '역사관광지', '역사를품은곳']",https://cdn.visitkorea.or.kr/img/call?cmd=VIEW&id=0e9483ee-3258-42c7-bdfd-19ce04fd90f0&thumb,충청남도 서천군 기산면 서원로172번길 66,36.0917124,126.785471
바람아래해수욕장,충남 태안군,041-670-2691,"['관광지', '바다풍경', '바람아래해수욕장', '자연', '충청권', '친구와함께']",https://cdn.visitkorea.or.kr/img/call?cmd=VIEW&id=1ada1fa1-9aa6-4bea-8526-5f357c02cac9&thumb,충청남도 태안군 고남면 장곡리,36.4309938,126.3780996
박문수묘,충남 천안시,041-521-5163,"['관광지', '역사', '역사공부', '역사관광지', '역사를품은곳', '역사문화재', '역사속']",https://cdn.visitkorea.or.kr/img/call?cmd=VIEW&id=244c07b4-101c-49c7-89bc-2d78023e59cc&thumb,충청남도 천안시 동남구 북면 은지리,36.782596,127.2702015
반산서원,충남 부여군,041-830-2623,"['관광지', '역사', '역사공부', '역사관광지', '역사를품은곳', '역사문화재', '역사속']",https://cdn.visitkorea.or.kr/img/call?cmd=VIEW&id=e5a17698-0a8a-41f1-854a-02248ef6bf26&thumb,충청남도 부여군 임천면 충절로1001번길 22,36.1754609,126.892613
밧개해수욕장,충남 태안군,041-670-2691,"['가족여행', '관광지', '바다풍경', '밧개해수욕장', '여름여행', '여름휴가', '연인과함께']",https://cdn.visitkorea.or.kr/img/call?cmd=VIEW&id=06ae526b-d4b2-4cd9-a1ec-319fa90bc24d&thumb,충청남도 태안군 안면읍 승언리,36.5144302,126.3529178
방갈마을,충남 태안군,041-674-7111,"['관광지', '자연']",https://cdn.visitkorea.or.kr/img/call?cmd=VIEW&id=f2203986-13ba-4060-b35a-2eb2d2ffeb13&thumb,충청남도 태안군 원북면 방갈리,36.8948887,126.2247896
방포해수욕장,충남 태안군,041-670-2691,"['가족여행', '관광지', '나들이', '데이트코스', '바다풍경', '방포해수욕장', '아이와함께']",https://cdn.visitkorea.or.kr/img/call?cmd=VIEW&id=afd0630e-2b72-4431-83a8-988be4c50244&thumb,충청남도 태안군 안면읍 방포1길 29-1,36.5088225,126.33323
백리포해수욕장,충남 태안군,041-670-2772,"['관광지', '자연']",https://cdn.visitkorea.or.kr/img/call?cmd=VIEW&id=866ac397-22ba-4cf7-a435-8459678e9b40&thumb,충청남도 태안군 소원면 의항리,36.7979007,126.1519171
백마강,충남 부여군,041-830-2880,"['가족여행', '관광지', '교과서속여행', '백마강', '아이와함께', '역사', '자연', '체험학습']",https://cdn.visitkorea.or.kr/img/call?cmd=VIEW&id=4bff47f3-23d6-4d51-a22d-93ed33f12ac2&thumb,충청남도 부여군 규암면 백제문로 553,36.3065588,126.9170575
백사장항,충남 태안군,041-670-2885,"['관광지', '바다풍경', '백사장항', '섬여행', '자연', '지역특화주전부리', '충청권']",https://cdn.visitkorea.or.kr/img/call?cmd=VIEW&id=98be655e-d5a7-4b3a-89d0-51dae6ca806d&thumb,충청남도 태안군 안면읍 백사장1길 124,36.5856614,126.3153381
백사장해수욕장,충남 태안군,041-670-2691,"['가족여행', '관광지', '바다풍경', '백사장해수욕장', '여름여행', '여름휴가', '연인과함께']",https://cdn.visitkorea.or.kr/img/call?cmd=VIEW&id=74fa0277-140c-4a92-ab0a-882b1c72d14e&thumb,충청남도 태안군 안면읍 창기리,36.5817116,126.3390389
백운사(보령),충남 보령시,041-933-5569,"['관광지', '백운사', '불교', '불교문화', '역사', '역사관광지', '자연좋은곳', '자연환경']",https://cdn.visitkorea.or.kr/img/call?cmd=VIEW&id=13bc4e4d-57cd-4c00-a6bf-f87214bedf3f&thumb,충청남도 보령시 성주면 심원계곡로 259-200,36.3521181,126.6735964
백제 오천결사대 충혼탑,충남 부여군,041-830-2880,"['가족여행', '관광지', '교과서속여행', '기념탑', '나들이', '백제오천결사대충혼탑']",https://cdn.visitkorea.or.kr/img/call?cmd=VIEW&id=bcd6bbac-a7ca-4592-89b1-91b00b3f88fe&thumb,충남 부여군 부여읍 동남리,36.2724157,126.9143732
백제문화단지,충남 부여군,041-408-7290,"['관광지', '교과서속여행', '드라마촬영지', '백제문화단지', '아이와함께', '역사관광지']",https://cdn.visitkorea.or.kr/img/call?cmd=VIEW&id=04c3384a-bb56-4a27-9d23-dd1436315050&thumb,충청남도 부여군 규암면 백제문로 455,36.3067451,126.9069269
백화산,충남 태안군,041-670-2772,"['관광지', '자연']",https://cdn.visitkorea.or.kr/img/call?cmd=VIEW&id=850b2bcf-39de-444f-8d14-b0f0b60b44f4&thumb,충청남도 태안군 태안읍 동문리 41-2 일대,36.7500035,126.3080239
벌천포해수욕장,충남 서산시,041-660-2601,"['관광지', '바다내음', '여름피서지', '자연관광지', '자연속으로', '자연여행', '자연좋은곳']",https://cdn.visitkorea.or.kr/img/call?cmd=VIEW&id=48806c1d-17c6-4489-8f99-82651ea77a41&thumb,충청남도 서산시 대산읍 오지리,36.9572752,126.3664187
보덕사(예산),충남 예산군,041-337-4350,"['관광지', '불교', '불교문화', '사찰', '사찰여행', '역사', '역사관광지', '자연속으로']",https://cdn.visitkorea.or.kr/img/call?cmd=VIEW&id=8db3682c-9e1f-498d-8c01-902d326e04c6&thumb,충청남도 예산군 덕산면 가야산로 400-74,36.7189971,126.6356209
보령 냉풍욕장,충남 보령시,041-932-2023,"['가족여행', '관광지', '냉풍욕장', '보령냉풍욕장', '여름여행', '여름피서지', '여름휴가']",https://cdn.visitkorea.or.kr/img/call?cmd=VIEW&id=e49bcde0-b3d7-4bde-bfa0-4990af6a788c&thumb,충청남도 보령시 청라면 냉풍욕장길 190,36.376395,126.671233
보령 방자구이마을,충남 보령시,041-930-0804,"['관광지', '농촌체험', '방자구이마을', '이색체험', '자연마을', '자연환경', '체험']",https://cdn.visitkorea.or.kr/img/call?cmd=VIEW&id=4101a3ec-ea71-4189-937b-3fcf9ed316a7&thumb,충청남도 보령시 천북면 홍보로 793-12,36.5044109,126.5163363
보령 성주사지,충남 보령시,041-930-6553,"['관광지', '보령성주사지', '사적', '역사', '역사공부', '역사관광지', '역사를품은곳']",https://cdn.visitkorea.or.kr/img/call?cmd=VIEW&id=60be3db0-151f-423e-ba1d-85649bacd2b1&thumb,충청남도 보령시 성주면 심원계곡로 99,36.3434153,126.6556847
보령 시민탑광장,충남 보령시,041-930-6553,"['관광지', '구조물', '바다경치', '바다내음', '보령시민탑광장', '산책길', '산책하기']",https://cdn.visitkorea.or.kr/img/call?cmd=VIEW&id=957099e5-38b3-4cb5-a92c-f4242723cd6b&thumb,충청남도 보령시 해수욕장4길 7,36.3054077,126.5160516
보령 천북굴단지,충남 보령시,041-930-0980,"['가족여행', '관광지', '굴구이', '굴무침', '보령가볼만한곳', '보령천북굴단지']",https://cdn.visitkorea.or.kr/img/call?cmd=VIEW&id=d1c0ae1a-4f42-43d6-b8c1-53224a8089b1&thumb,충청남도 보령시 천북면,36.478695,126.5272809
보령 청소역,충남 보령시,041-930-6553,"['관광지', '역사', '역사공부', '역사관광지', '역사를품은곳', '역사문화재', '역사속']",https://cdn.visitkorea.or.kr/img/call?cmd=VIEW&id=4689e96b-e4d1-42c8-a8aa-d08cd7679a4f&thumb,충청남도 보령시 청소면 청소큰길 176,36.4459402,126.5907367
보령 충청수영성,충남 보령시,041-930-4072,"['가족여행', '관광지', '교과서속여행', '보령충청수영성', '아이와함께', '역사']",https://cdn.visitkorea.or.kr/img/call?cmd=VIEW&id=d486c6b5-761a-4fdb-acda-a23800143cb1&thumb,충청남도 보령시 오천면 충청수영로,36.4333943,126.54313
보령 해수욕장 관광특구,충남 보령시,041-932-2023,"['가족과함께', '경치좋은곳', '관광지', '남녀노소', '보령가볼만한곳', '부산경치']",https://cdn.visitkorea.or.kr/img/call?cmd=VIEW&id=787fdcec-7de8-401a-932d-328984891ccd&thumb,충청남도 보령시,36.3331629,126.6129441
보령방조제,충남 보령시,041-930-3114,"['관광지', '바다풍경', '보령방조제', '자연', '충청권', '힐링']",https://cdn.visitkorea.or.kr/img/call?cmd=VIEW&id=fe7ef677-34f4-4b72-a0d6-90b36c22d78c&thumb,충청남도 보령시 오천면,36.4383534,126.5224226
보령석탄박물관,충남 보령시,041-934-1902,"['가족체험여행', '관광지', '박물관', '보령석탄박물관', '산업관광', '석탄박물관']",https://cdn.visitkorea.or.kr/img/call?cmd=VIEW&id=1d47eeda-d9cc-4877-ae72-a8cd029ded07&thumb,충청남도 보령시 성주면 성주산로 508,36.3259737,126.6528805
보령성곽&보령관아문,충남 보령시,041-930-6553,"['관광지', '역사', '역사공부', '역사관광지', '역사를품은곳', '역사문화재', '역사속']",https://cdn.visitkorea.or.kr/img/call?cmd=VIEW&id=dcd26d59-5364-416a-acc0-7b0df8c0847e&thumb,충청남도 보령시 주포면 보령리,36.4136257,126.5929812
보령에너지월드(보령발전본부),충남 보령시,070-7511-2885,"['관광지', '교육여행', '보령발전본부', '보령에너지월드', '산업관광', '신재생에너지']",https://cdn.visitkorea.or.kr/img/call?cmd=VIEW&id=7ef451c4-3096-4968-bc83-281c830890d8&thumb,충청남도 보령시 오천면,36.4383534,126.5224226
보령향교,충남 보령시,041-930-6553,"['관광지', '역사', '역사공부', '역사관광지', '역사를품은곳', '역사문화재', '역사속']",https://cdn.visitkorea.or.kr/img/call?cmd=VIEW&id=f6e7f66f-0ad4-4bfb-b267-9b3769f55133&thumb,충청남도 보령시 주포면 향교말길 45,36.4113574,126.5949707
보령호,충남 보령시,041-933-4301,"['관광지', '자연']",https://cdn.visitkorea.or.kr/img/call?cmd=VIEW&id=2e1f146e-69f4-4f93-aa24-5cd9d54ca8fb&thumb,충청남도 보령시 미산면 보령호로 819,36.2456373,126.6608726
보석사(금산),충남 금산군,041-753-1523,"['관광지', '금산보석사', '금산보석사목조석가여래삼존좌상', '금산보석사은행나무']",https://cdn.visitkorea.or.kr/img/call?cmd=VIEW&id=42fffa5e-de56-4e24-9117-d8944fe0fe7b&thumb,충청남도 금산군 남이면 보석사1길 30,36.0544053,127.4758335
봉곡사,충남 아산시,041-543-4004,"['고찰', '관광지', '봉곡사', '불교', '불교문화', '불교사찰', '사찰', '사찰여행', '역사']",https://cdn.visitkorea.or.kr/img/call?cmd=VIEW&id=2ff81775-b751-436c-ac3a-83441e120fee&thumb,충청남도 아산시 송악면 도송로632번길 138,36.6987411,126.9664775
봉곡서원,충남 논산시,041-746-5412,"['관광지', '봉곡서원', '역사', '역사공부', '역사관광지', '역사를품은곳', '역사문화재']",https://cdn.visitkorea.or.kr/img/call?cmd=VIEW&id=2fc16c61-a975-43e7-901e-f4a2e05c2250&thumb,충청남도 논산시 연무읍 황화로 290,36.0983909,127.0934255
봉서사(서천),충남 서천군,041-951-0255,"['관광지', '불교', '불교문화', '사찰', '사찰여행', '역사', '자연속으로', '자연환경']",https://cdn.visitkorea.or.kr/img/call?cmd=VIEW&id=e0f255e0-480a-423a-80d4-44646a725bb5&thumb,충청남도 서천군 한산면 건지산길 113,36.0882838,126.7916862
봉선저수지,충남 서천군,041-950-6460,"['관광지', '자연']",https://cdn.visitkorea.or.kr/img/call?cmd=VIEW&id=5011c676-2087-4be2-84b1-7388f0460d09&thumb,충청남도 서천군 시초면 봉선리 226,36.1193227,126.7765362
봉수산 자연휴양림,충남 예산군,041-339-8936,"['가족여행', '걷기길', '관광지', '나들이', '봉수산', '봉수산자연휴양림', '숲', '여름여행']",https://cdn.visitkorea.or.kr/img/call?cmd=VIEW&id=6c788490-be6f-446c-9197-c55591dfed53&thumb,충청남도 예산군 대흥면 임존성길 153,36.5988799,126.78253
부사방조제,충남 서천군,041-952-9525,"['관광지', '자연']",https://cdn.visitkorea.or.kr/img/call?cmd=VIEW&id=920f803b-8942-4f47-a22e-2275fc748abf&thumb,충청남도 서천군 서면 부사리,36.1665664,126.552574
부산각서석,충남 부여군,041-830-2623,"['관광지', '문화재', '부산각서석', '역사', '역사공부', '역사관광지', '역사를품은곳']",https://cdn.visitkorea.or.kr/img/call?cmd=VIEW&id=34771187-9dae-4c82-bc86-85b486a1baea&thumb,충청남도 부여군 규암면,36.2752985,126.8841833
부산서원,충남 부여군,041-830-2623,"['관광지', '역사', '역사공부', '역사관광지', '역사를품은곳', '역사문화재', '역사속']",https://cdn.visitkorea.or.kr/img/call?cmd=VIEW&id=undefined&thumb,충청남도 부여군 규암면 진변로136번길 11-5,36.2839693,126.8943528
부석사(서산),충남 서산시,041-662-3824,"['관광지', '문화재', '부석사', '불교', '불교문화', '불교사찰', '사찰', '사찰여행']",https://cdn.visitkorea.or.kr/img/call?cmd=VIEW&id=bb99720c-bbbb-4303-8f28-bab74e2eecd9&thumb,충청남도 서산시 부석면 부석사길 243,36.7037339,126.4123786
부여 가림성,충남 부여군,041-830-2880,"['SNS감성사진', '관광지', '사진찍기', '사진찍기좋은곳', '사진촬영', '사진촬영명소']",https://cdn.visitkorea.or.kr/img/call?cmd=VIEW&id=d2822a21-6c27-40ea-bb20-5dfbfe4264c9&thumb,충청남도 부여군 임천면 성흥로97번길 167,36.1953003,126.8996131
부여 군수리 사지,충남 부여군,041-830-2623,"['관광지', '교과서속여행', '군수리사지', '문화재', '역사', '역사공부', '역사관광지']",https://cdn.visitkorea.or.kr/img/call?cmd=VIEW&id=e5b67eae-f1f8-485e-a6eb-24950a21b3ba&thumb,충청남도 부여군 부여읍,36.2755478,126.9112371
부여 나성 [유네스코 세계문화유산],충남 부여군,041-830-2623,"['관광지', '교과서속여행', '부여나성', '아이와함께', '역사', '역사공부', '역사관광지']",https://cdn.visitkorea.or.kr/img/call?cmd=VIEW&id=02a7bb27-9978-4704-aa21-2d6dce90b3b0&thumb,충청남도 부여군 부여읍 동문로142번길 100-11,36.2554235,126.943154
부여 능산리 고분군 [유네스코 세계유산],충남 부여군,041-830-2890,"['가족여행', '관광지', '부여능산리고분군', '사적', '역사', '역사공부', '역사관광지']",https://cdn.visitkorea.or.kr/img/call?cmd=VIEW&id=7d64faa0-a24c-4edb-9d68-75345e013c6e&thumb,충청남도 부여군 부여읍 왕릉로 61,36.2761461,126.9421079
부여 능안골 고분군,충남 부여군,041-830-2880,"['관광지', '부여능안골고분군', '사적', '사적지', '역사', '역사공부', '역사관광지']",https://cdn.visitkorea.or.kr/img/call?cmd=VIEW&id=2e806bba-fe71-4075-8e0b-356c3e7b6dc1&thumb,충청남도 부여군 부여읍 능산리,36.2750794,126.9615559
부여 반교마을,충남 부여군,041-830-2330,"['관광지', '남녀노소', '돌담길', '산책하기좋은곳', '아이와함께', '연인과함께']",https://cdn.visitkorea.or.kr/img/call?cmd=VIEW&id=a06fb514-5237-49e5-93be-5217e2ffe9ff&thumb,충청남도 부여군 외산면 반교동로 9-8,36.28375,126.7176167
부여 산직리지석묘,충남 부여군,041-830-2880,"['관광지', '역사', '역사공부', '역사관광지', '역사를품은곳', '역사문화재', '역사속']",https://cdn.visitkorea.or.kr/img/call?cmd=VIEW&id=80d36c90-d400-4d96-a7ba-c7c0d3f46483&thumb,충청남도 부여군 초촌면 산직리,36.2561759,127.0466014
부여 세탑리오층석탑,충남 부여군,041-830-2330,"['관광지', '역사', '역사공부', '역사관광지', '역사를품은곳', '역사문화재', '역사속']",https://cdn.visitkorea.or.kr/img/call?cmd=VIEW&id=4e5cb47d-3ce4-455e-b130-a487e383f495&thumb,충청남도 부여군 초촌면 금백로 909-70,36.2773436,127.0183933
부여 송국리 유적,충남 부여군,041-830-2880,"['관광지', '문화재', '부여송국리유적', '역사', '역사공부', '역사관광지', '역사를품은곳']",https://cdn.visitkorea.or.kr/img/call?cmd=VIEW&id=88272981-32ca-4359-8489-f0703979d952&thumb,충청남도 부여군 초촌면 선사로225번길 54,36.2658678,127.0351735
부여 신암친환경마을,충남 부여군,041-830-2914,"['관광지', '농촌마을', '농촌여행', '농촌체험', '신암친환경마을', '이색체험', '자연마을']",https://cdn.visitkorea.or.kr/img/call?cmd=VIEW&id=db5dbae0-b118-4e23-ba20-1d0df91592e2&thumb,충청남도 부여군 초촌면 신암로 178,36.2791141,126.986899
부여 정림사지 오층석탑 [유네스코 세계유산],충남 부여군,041-830-2880,"['가족여행', '가족체험여행', '관광지', '교과서속여행', '부여정림사지', '부여정림사지오층석탑']",https://cdn.visitkorea.or.kr/img/call?cmd=VIEW&id=dfeb9f6f-dcd6-47f6-a129-1cf45216c54b&thumb,충청남도 부여군 부여읍 정림로 83,36.2787109,126.9142501
부여 청마산성,충남 부여군,041-830-2623,"['관광지', '역사', '역사공부', '역사관광지', '역사를품은곳', '역사문화재', '역사속']",https://cdn.visitkorea.or.kr/img/call?cmd=VIEW&id=8809151e-02b5-4556-baf5-17864d860bf0&thumb,충청남도 부여군 부여읍 능산리,36.2750794,126.9615559
부여금사리성당,충남 부여군,041-832-5355,"['관광지', '역사', '역사공부', '역사관광지', '역사를품은곳', '역사문화재', '역사속']",https://cdn.visitkorea.or.kr/img/call?cmd=VIEW&id=b2d92d9e-c58b-4ecd-a01c-4fc2dd5ae865&thumb,충청남도 부여군 구룡면 성충로1342번길 21,36.2494494,126.7981618
부여기와마을,충남 부여군,041-834-8253,"['가족체험여행', '관광지', '농촌마을', '농촌여행', '농촌체험', '농촌체험마을']",https://cdn.visitkorea.or.kr/img/call?cmd=VIEW&id=7790e78e-bc5b-49b5-b1ee-687e26c2d638&thumb,충청남도 부여군 부여읍 월함로 277,36.3040182,126.9373413
부여향교,충남 부여군,041-830-2623,"['관광지', '역사', '역사공부', '역사관광지', '역사를품은곳', '역사문화재', '역사속']",https://cdn.visitkorea.or.kr/img/call?cmd=VIEW&id=0bbea306-e548-43bb-874a-11ff4fdd2bd9&thumb,충청남도 부여군 부여읍 의열로 21-4,36.2804738,126.9150549
부풍사,충남 부여군,041-830-2252,"['관광지', '역사', '역사공부', '역사관광지', '역사를품은곳', '역사문화재', '역사속']",https://cdn.visitkorea.or.kr/img/call?cmd=VIEW&id=null&thumb,충청남도 부여군 규암면 백제문로 7,36.2765102,126.8855566
비인 선도리 쌍도해안,충남 서천군,041-952-9525,"['관광지', '자연']",https://cdn.visitkorea.or.kr/img/call?cmd=VIEW&id=20d3f20e-d2de-40c0-9579-a8c7f5ba98fe&thumb,충청남도 서천군 비인면 선도리,36.1331671,126.5918212
비인향교,충남 서천군,041-950-4741,"['관광지', '역사', '역사공부', '역사관광지', '역사를품은곳', '역사문화재', '역사속']",https://cdn.visitkorea.or.kr/img/call?cmd=VIEW&id=ebc5c868-bc02-4c12-acfc-8262ab3e5a64&thumb,충청남도 서천군 비인면 비인로136번길 68,36.1401832,126.6082928
사목해수욕장,충남 태안군,041-670-2691,"['관광지', '자연']",https://cdn.visitkorea.or.kr/img/call?cmd=VIEW&id=c790ee0a-e15d-4293-a0b3-f20b90b416d5&thumb,충청남도 태안군 이원면 내리,36.9520615,126.2947774
산혜암(홍성),충남 홍성군,041-632-3196,"['관광지', '불교', '불교문화', '사찰', '사찰여행', '역사', '자연속으로', '자연환경']",https://cdn.visitkorea.or.kr/img/call?cmd=VIEW&id=null&thumb,충청남도 홍성군 홍성읍 홍덕서로 185-22,36.6092566,126.6258973
삼길포항,충남 서산시,041-662-0819,"['관광지', '낚시', '삼길포항', '자연', '충청권', '항구']",https://cdn.visitkorea.or.kr/img/call?cmd=VIEW&id=f88e2d5f-b597-4297-89ab-7ac3e7e8491f&thumb,충청남도 서산시 대산읍 삼길포1로 1-15,36.9990379,126.4510788
삼봉해수욕장,충남 태안군,041-670-2691,"['가족여행', '관광지', '나들이', '데이트코스', '바다풍경', '삼봉해수욕장', '아이와함께']",https://cdn.visitkorea.or.kr/img/call?cmd=VIEW&id=49e4081c-ad13-4bc7-8762-c30e2fab747e&thumb,충청남도 태안군 안면읍,36.520472,126.3444969
삽시도,충남 보령시,041-930-3520,"['관광지', '자연']",https://cdn.visitkorea.or.kr/img/call?cmd=VIEW&id=fcb5739f-06de-4af4-ab26-ec5d77a40496&thumb,충청남도 보령시 오천면 삽시도,36.340923,126.3562296
상가리미륵불,충남 예산군,041-339-7332,"['관광지', '역사', '역사공부', '역사관광지', '역사를품은곳', '역사문화재', '역사속']",https://cdn.visitkorea.or.kr/img/call?cmd=VIEW&id=7ea876ed-63ef-420e-a1e3-563290fb8d69&thumb,충청남도 예산군 덕산면 상기리,36.7013072,126.6652355
상양관광농원,충남 보령시,041-931-1817,"['가족과함께', '관광지', '아이와함께', '오토캠핑장', '이색체험', '자연좋은곳']",https://cdn.visitkorea.or.kr/img/call?cmd=VIEW&id=0ce60268-95e5-4a58-a91b-79df8d7d870c&thumb,충청남도 보령시 주교면 문화마을길 178-58,36.3697072,126.5920785
상화원,충남 보령시,041-933-4750,"['가족과함께', '감성사진', '관광지', '사진찍기좋은곳', '사진촬영', '연인과함께']",https://cdn.visitkorea.or.kr/img/call?cmd=VIEW&id=a7ff332c-a95d-4638-9fdc-9aca08b2182f&thumb,충청남도 보령시 남포면 남포방조제로 408-52,36.2773366,126.5376765
샛별해수욕장,충남 태안군,041-670-2691,"['가족여행', '관광지', '바다풍경', '샛별해수욕장', '여름여행', '연인과함께', '자연']",https://cdn.visitkorea.or.kr/img/call?cmd=VIEW&id=bbf0b614-7f83-4da4-9ab1-71ff6b1ffc46&thumb,충청남도 태안군 안면읍 샛별길 184-2,36.4485113,126.3360975
서광사(서산),충남 서산시,041-664-2002,"['관광지', '불교', '불교문화', '사찰', '사찰여행', '역사', '자연속으로', '자연환경']",https://cdn.visitkorea.or.kr/img/call?cmd=VIEW&id=59e5415c-7560-41d9-b0b8-f964e4ac5903&thumb,충청남도 서산시 부춘산1로 44,36.7917299,126.4453992
서대산,충남 금산군,041-750-2626,"['관광지', '자연']",https://cdn.visitkorea.or.kr/img/call?cmd=VIEW&id=4aac47a7-6cdf-4118-ac5c-c447c9e89314&thumb,충청남도 금산군 추부면,36.1948535,127.4760206
서동공원과 궁남지,충남 부여군,041-830-2953,"['19_20한국관광100선', '가족여행', '관광지', '부여백제유적지', '서동공원과궁남지']",https://cdn.visitkorea.or.kr/img/call?cmd=VIEW&id=90fc40dc-2c6e-4f73-9bcd-26843def07b0&thumb,충청남도 부여군 부여읍 궁남로 52,36.2695673,126.9122129
서동요 테마파크,충남 부여군,041-832-9913,"['SNS감성사진', '가족여행', '관광지', '놀이동산&테마파크', '사진찍기', '사진촬영']",https://cdn.visitkorea.or.kr/img/call?cmd=VIEW&id=76fcaab4-fada-4e45-96e9-09a129cc947b&thumb,충청남도 부여군 충화면 충신로 616,36.1453932,126.8235523
서산 경주김씨 고택,충남 서산시,041-660-2247,"['경주김씨고택', '관광지', '국가민속문화재', '서산김기현가옥', '역사', '역사공부']",https://cdn.visitkorea.or.kr/img/call?cmd=VIEW&id=9203414c-aaba-4e05-b895-afbb3d5fa0f3&thumb,충청남도 서산시 음암면 한다리길 45,36.7410307,126.5193237
서산 꽃송아리마을,충남 서산시,041-660-3450,"['경치좋은곳', '관광지', '산책길', '산책하기', '산책하기좋은곳', '자연마을', '자연좋은곳']",https://cdn.visitkorea.or.kr/img/call?cmd=VIEW&id=c799238e-c037-4934-b272-3350ee145fcc&thumb,충청남도 서산시 팔봉면 한월당로 704,36.8084841,126.3985581
서산 버드랜드,충남 서산시,041-661-8054,"['겨울방학가볼만한곳', '관광지', '버드랜드', '생태관광', '생태관광지', '서산버드랜드']",https://cdn.visitkorea.or.kr/img/call?cmd=VIEW&id=04cb3974-2031-4bad-bd5a-86d1076b3aa3&thumb,충청남도 서산시 부석면 천수만로 655-73,36.6313291,126.3783564
서산 보원사지,충남 서산시,041-660-2247,"['관광지', '보원사지', '사적', '역사', '역사를품은곳', '역사문화재', '역사속', '역사속으로']",https://cdn.visitkorea.or.kr/img/call?cmd=VIEW&id=8637700c-3b00-4acd-9632-b0c284948681&thumb,충청남도 서산시 운산면 용현리,36.7562622,126.6028203
서산 용현리 마애여래삼존상,충남 서산시,041-660-2538,"['관광지', '국보', '서산용현리마애여래삼존상', '역사', '역사공부', '역사관광지']",https://cdn.visitkorea.or.kr/img/call?cmd=VIEW&id=38471ffd-ac26-4248-be4b-d877f98e920f&thumb,충청남도 서산시 운산면 마애삼존불길 65-13,36.7737667,126.605246
서산 유기방가옥,충남 서산시,041-663-4326,"['관광지', '역사', '역사공부', '역사관광지', '역사를품은곳', '역사문화재', '역사속']",https://cdn.visitkorea.or.kr/img/call?cmd=VIEW&id=6ce28c64-5119-42c6-be8d-69e384d83914&thumb,충청남도 서산시 운산면 이문안길 72-10,36.8246941,126.5734262
서산 해미읍성,충남 서산시,041-661-8005,"['가족여행', '관광지', '교과서속여행', '서산해미읍성', '아이와함께', '야간관광100선']",https://cdn.visitkorea.or.kr/img/call?cmd=VIEW&id=1db7582c-ccae-4ca1-bfd0-1e4a1a271a23&thumb,충청남도 서산시 해미면 남문2로 143,36.7131204,126.5491704
서산 회포마을,충남 서산시,070-8802-6635,"['가족과함께', '가족체험', '관광지', '농촌마을', '농촌체험', '농촌체험마을', '아이와함께']",https://cdn.visitkorea.or.kr/img/call?cmd=VIEW&id=af27b0dc-7228-4619-b121-3c7445b8f611&thumb,충청남도 서산시 대산읍 윤산리,36.9531373,126.4678827
서산A지구방조제,충남 서산시,,"['관광지', '자연']",https://cdn.visitkorea.or.kr/img/call?cmd=VIEW&id=9dd3d959-a49a-4d41-8250-c9dc734578a8&thumb,충청남도 홍성군 서부면 남당항로,36.5590286,126.4729063
서산객사,충남 서산시,041-660-2247,"['관광지', '서산객사', '역사', '역사공부', '역사관광지', '역사를품은곳', '역사문화재']",https://cdn.visitkorea.or.kr/img/call?cmd=VIEW&id=51d21e1d-5988-4437-a749-a3fbd0dd8037&thumb,충청남도 서산시 동헌로 149,36.7827545,126.4504693
서산관광농원,충남 서산시,041-665-4330,"['가족과함께', '관광지', '산책길', '산책하기', '산책하기좋은곳', '아이와함께']",https://cdn.visitkorea.or.kr/img/call?cmd=VIEW&id=30d3aceb-2757-4982-9027-90c900791428&thumb,충청남도 서산시 수석1길 32,36.7698837,126.4903114
서산관아문 및 외동헌,충남 서산시,041-660-2247,"['관광지', '서산관아문', '역사', '역사공부', '역사관광지', '역사를품은곳', '역사문화재']",https://cdn.visitkorea.or.kr/img/call?cmd=VIEW&id=9852382a-4dc6-4cec-b398-dcd67b16947c&thumb,충청남도 서산시 관아문길 1,36.7844396,126.4501261
서산동문동 오층석탑 및 당간지주,충남 서산시,041-660-3023,"['관광지', '역사', '역사공부', '역사관광지', '역사를품은곳', '역사문화재', '역사속']",https://cdn.visitkorea.or.kr/img/call?cmd=VIEW&id=842c54b2-5066-4e28-a1c6-8c5f206c2593&thumb,충청남도 서산시 탑동2로 15,36.7866131,126.4534511
서산버드랜드,충남 서산시,041-661-8054,"['관광지', '교육여행', '먹거리', '생태관광지', '서산가볼만한곳', '서산버드랜드']",https://cdn.visitkorea.or.kr/img/call?cmd=VIEW&id=9d64123a-8414-4363-bafc-8935a8ee6c92&thumb,충청남도 서산시 부석면 천수만로 655-73,36.6313291,126.3783564
서산시 천수만,충남 서산시,041-664-7455,"['관광지', '박물관', '보령시', '생태관광', '생태관광지', '서산버드랜드', '안면읍']",https://cdn.visitkorea.or.kr/img/call?cmd=VIEW&id=32bf1b98-564d-434a-b2d9-88d335d2735f&thumb,충청남도 서산시 부석면 간월도1길 119-29,36.6036534,126.411209
서산여미리석불입상,충남 서산시,041-660-2247,"['관광지', '불상', '서산여미리석불입상', '역사', '역사공부', '역사관광지', '역사를품은곳']",https://cdn.visitkorea.or.kr/img/call?cmd=VIEW&id=ed4e18e5-2630-4c16-855f-85bc46ee43fa&thumb,충청남도 서산시 운산면 여미리,36.8221626,126.5713864
서산창작예술촌,충남 서산시,041-660-3378,"['공예체험', '관광지', '도자기체험', '문화공간', '복합문화공간', '서산창작예술촌']",https://cdn.visitkorea.or.kr/img/call?cmd=VIEW&id=abf8fca5-ae2a-437b-aa1b-b90ca7f6f434&thumb,충청남도 서산시 지곡면 중왕1길 87-5,36.874014,126.3869879
서산해미읍성회화나무,충남 서산시,041-660-2499,"['가족여행', '관광지', '서산해미읍성회화나무', '아이와함께', '충청권', '충청남도기념물']",https://cdn.visitkorea.or.kr/img/call?cmd=VIEW&id=169ce7b9-afe5-4131-8d70-23d4306261c3&thumb,충청남도 서산시 해미면 동문1길 36-1,36.7121263,126.5516044
서산향교,충남 서산시,041-660-2247,"['관광지', '서산향교', '역사', '역사관광지', '역사를품은곳', '역사문화재', '역사속']",https://cdn.visitkorea.or.kr/img/call?cmd=VIEW&id=130a9bbc-fbc0-4b6f-9d20-358088da6344&thumb,충청남도 서산시 향교1로 26,36.790898,126.4565916
서산향교은행나무,충남 서산시,041-660-2499,"['관광지', '서산향교은행나무', '자연', '충청권', '충청남도기념물']",https://cdn.visitkorea.or.kr/img/call?cmd=VIEW&id=1319193b-9c22-4472-9a66-521c39dde0af&thumb,충청남도 서산시 향교1로 26,36.790898,126.4565916
서천 달고개모시마을,충남 서천군,041-950-6380,"['가족여행', '관광지', '달고개모시마을', '산업관광', '서천달고개모시마을', '아이와함께']",https://cdn.visitkorea.or.kr/img/call?cmd=VIEW&id=6bdfbcf1-470c-424b-9da9-707dc5cc3bd9&thumb,충청남도 서천군 화양면 화한로504번길 5,36.0657209,126.8213308
서천 동자북마을,충남 서천군,041-951-7743,"['관광지', '농촌마을', '동자북문화역사마을', '이색체험', '자연좋은곳', '전통&역사문화체험']",https://cdn.visitkorea.or.kr/img/call?cmd=VIEW&id=69d16076-6ccb-4ff0-be3b-bc41617e4d13&thumb,충청남도 서천군 한산면 신성로 36-16,36.0842085,126.8131551
서천 마량리 동백나무 숲,충남 서천군,041-952-7999,"['가족여행', '관광지', '봄꽃여행', '사진찍기좋은곳', '서천마량리동백나무숲']",https://cdn.visitkorea.or.kr/img/call?cmd=VIEW&id=6a69d9bc-5237-4aa8-9985-63d71c86cd02&thumb,충청남도 서천군 서면 서인로235번길 103,36.1378613,126.4935634
서천 성북리 오층석탑,충남 서천군,041-950-4741,"['관광지', '역사', '역사공부', '역사관광지', '역사를품은곳', '역사문화재', '역사속']",https://cdn.visitkorea.or.kr/img/call?cmd=VIEW&id=72e3c7e1-a489-42c2-a1c8-8e53fc17ed53&thumb,충청남도 서천군 비인면 서인로1243번길,36.1473552,126.597561
서천 이하복 고택,충남 서천군,041-950-4741,"['관광지', '역사', '역사공부', '역사를품은곳', '역사문화재', '역사속', '역사속으로']",https://cdn.visitkorea.or.kr/img/call?cmd=VIEW&id=e53aab68-317c-4126-ac10-f24a8d0e0205&thumb,충청남도 서천군 기산면 신막로57번길 32-3,36.0809383,126.7593627
서천 한산소곡주 양조장,충남 서천군,041-951-0290,"['관광지', '무형문화재', '산업관광', '서천한산소곡주양조장', '양조장', '이색체험']",https://cdn.visitkorea.or.kr/img/call?cmd=VIEW&id=efad6fcd-32c3-43cf-8239-3e346e1ffb07&thumb,충청남도 서천군 한산면 충절로 1118,36.0798898,126.8021099
서천군 조류 생태 전시관,충남 서천군,041-956-4002,"['10월추천가볼만한곳', '11월추천가볼만한곳', '관광지', '금강하구', '생태관광']",https://cdn.visitkorea.or.kr/img/call?cmd=VIEW&id=7bf3871e-19fe-40de-ab25-a8677d5bcccd&thumb,충청남도 서천군 마서면 장산로 916,36.0227534,126.7427377
서천식물예술원,충남 서천군,041-951-0020,"['관광지', '자연']",https://cdn.visitkorea.or.kr/img/call?cmd=VIEW&id=f5dd85a5-f126-448d-86b7-73cb6e0e1f49&thumb,충청남도 서천군 기산면 화출길42번길 17,36.0773763,126.769295
서천이색체험마을,충남 서천군,041-951-1442,"['관광지', '농촌마을', '농촌여행', '농촌체험', '농촌체험마을', '농촌체험여행']",https://cdn.visitkorea.or.kr/img/call?cmd=VIEW&id=20b513a3-ccce-4624-bc3c-9244f9d29215&thumb,충청남도 서천군 기산면 화출길42번길 2-10,36.0758372,126.7682599
서천향교,충남 서천군,041-952-9525,"['관광지', '역사', '역사공부', '역사관광지', '역사를품은곳', '역사문화', '역사문화재']",https://cdn.visitkorea.or.kr/img/call?cmd=VIEW&id=79a10347-64f8-4160-85e5-7ca05bc11179&thumb,충청남도 서천군 서천읍 서천향교길 53-5,36.0797669,126.6968821
서천황새마을,충남 서천군,041-952-9525,"['관광지', '농촌마을', '농촌여행', '농촌전통테마마을', '농촌체험', '자연마을']",https://cdn.visitkorea.or.kr/img/call?cmd=VIEW&id=0ec8ba27-77a1-4b77-9382-99341f9b20de&thumb,충청남도 서천군 마서면 계동길24번길 22-6,36.0652931,126.7040219
석대도,충남 보령시,041-932-2023,"['관광지', '자연']",https://cdn.visitkorea.or.kr/img/call?cmd=VIEW&id=ecb3c078-fe50-4487-8873-5af1b282cbf9&thumb,충청남도 보령시 웅천읍 관당리,36.246464,126.5455865
석련사(홍성),충남 홍성군,041-632-7506,"['관광지', '불교', '불교문화', '사찰', '사찰여행', '역사', '자연속으로', '자연환경']",https://cdn.visitkorea.or.kr/img/call?cmd=VIEW&id=null&thumb,충청남도 홍성군 구항면 구성북로160번길 76,36.6045918,126.6181395
석성향교,충남 부여군,041-830-2623,"['관광지', '역사', '역사공부', '역사관광지', '역사를품은곳', '역사문화재', '역사속']",https://cdn.visitkorea.or.kr/img/call?cmd=VIEW&id=1a925a12-dd78-449f-b5ec-92d7308113bd&thumb,충청남도 부여군 석성면 석성향교길 18,36.2279092,126.990453
선도리갯벌체험마을,충남 서천군,041-952-5212,"['가족여행', '갯벌체험', '관광지', '생태체험학습장', '선도리갯벌체험마을', '자연속으로']",https://cdn.visitkorea.or.kr/img/call?cmd=VIEW&id=e93accc3-56ee-4796-a264-255e81571aa1&thumb,충청남도 서천군 비인면 갯벌체험로 428-13,36.132836,126.5828062
선림사(보령),충남 보령시,041-932-4180,"['관광지', '불교', '불교문화', '사찰', '사찰여행', '역사', '자연속으로', '자연환경']",https://cdn.visitkorea.or.kr/img/call?cmd=VIEW&id=null&thumb,충청남도 보령시 오천면 충청수영로 521-64,36.4378976,126.5501207
선샤인랜드,충남 논산시,041-746-8480,"['가족나들이', '관광지', '논산가볼만한곳', '이색체험', '체험관광지']",https://cdn.visitkorea.or.kr/img/call?cmd=VIEW&id=30474c05-7d93-4e62-9848-d0b7869b8430&thumb,충청남도 논산시 연무읍 봉황로 102,36.0942201,127.1104456
선화당(공주),충남 공주시,041-840-8207,"['관광지', '역사', '역사공부', '역사관광지', '역사를품은곳', '역사문화', '역사문화재']",https://cdn.visitkorea.or.kr/img/call?cmd=VIEW&id=fc010c12-898a-4192-84f3-ed61ff4e3689&thumb,충청남도 공주시 관광단지길 30-8,36.465579,127.1096564
설화산,충남 아산시,1577-6611,"['경치좋은곳', '관광지', '눈꽃&설경여행', '등산', '등산로', '설화산', '자연', '자연좋은곳']",https://cdn.visitkorea.or.kr/img/call?cmd=VIEW&id=fcc81e79-939e-44a8-982e-39a352c3542c&thumb,충청남도 아산시 송악면 외암로,36.7008375,126.9992012
성거산,충남 천안시,1577-3900,"['관광지', '자연']",https://cdn.visitkorea.or.kr/img/call?cmd=VIEW&id=undefined&thumb,충청남도 천안시 동남구 목천읍 송전1길 98,36.834202,127.2226379
성곡사,충남 공주시,041-853-3355,"['가족여행', '관광지', '교과서속여행', '불교', '불교사찰', '사찰', '사찰&산사']",https://cdn.visitkorea.or.kr/img/call?cmd=VIEW&id=05eb91c5-3671-4794-bf8f-3877685f4f7e&thumb,충청남도 공주시 우성면 성곡길 371,36.5063054,127.0700797
성불사(천안),충남 천안시,041-565-4567,"['관광지', '불교', '불교사찰', '사찰', '사찰여행', '역사', '자연속으로', '자연좋은곳']",https://cdn.visitkorea.or.kr/img/call?cmd=VIEW&id=e5c9b70e-d0bc-40b9-bb6b-698de03b1f6c&thumb,충청남도 천안시 동남구 성불사길 144,36.8283618,127.1969955
성암서원,충남 서산시,041-660-2247,"['관광지', '역사', '역사공부', '역사관광지', '역사를품은곳', '역사문화재', '역사속']",https://cdn.visitkorea.or.kr/img/call?cmd=VIEW&id=undefined&thumb,충청남도 서산시 성암1로 45,36.7821428,126.4441982
성주산자연휴양림,충남 보령시,041-934-7133,"['걷기길', '관광지', '등산로', '성주산자연휴양림', '숲치유', '자연', '자연좋은곳']",https://cdn.visitkorea.or.kr/img/call?cmd=VIEW&id=b05f0e10-33bc-4968-9a3a-7d2670656598&thumb,충청남도 보령시 성주면 화장골길 57-228,36.3368122,126.6555164
세계꽃식물원,충남 아산시,041-544-0746,"['관광지', '데이트코스', '미세먼지_피하는_실내여행', '생태관광', '세계꽃식물원']",https://cdn.visitkorea.or.kr/img/call?cmd=VIEW&id=a1f77de9-12b8-4488-8ab8-f23c4e09c476&thumb,충청남도 아산시 도고면 아산만로 37-37,36.7509658,126.8596183
세심사(아산),충남 아산시,041-543-2696,"['관광지', '불교', '불교문화', '불교사찰', '사찰', '사찰여행', '역사', '자연속으로']",https://cdn.visitkorea.or.kr/img/call?cmd=VIEW&id=bd3a6de9-80ab-4918-86fe-2401a6be1e6d&thumb,충청남도 아산시 염치읍 산양길 180,36.8420748,126.9269038
세양사,충남 부여군,041-830-2623,"['관광지', '역사', '역사공부', '역사관광지', '역사를품은곳', '역사문화재', '역사속']",https://cdn.visitkorea.or.kr/img/call?cmd=VIEW&id=d47a6b8d-627f-4fda-a0c6-824f62bf51db&thumb,충청남도 부여군 충화면 칠선로 47,36.1933687,126.8125539
소노벨 천안 오션파크,충남 천안시,1588-4888,"['가족과함께', '관광지', '물놀이장', '실내데이트', '실내수영장', '연인과함께']",https://cdn.visitkorea.or.kr/img/call?cmd=VIEW&id=958f0155-7378-43e8-94fc-103f15e4e613&thumb,충청남도 천안시 동남구 성남면 종합휴양지로 200,36.7571865,127.2241221
소도,충남 보령시,041-932-2023,"['관광지', '자연관광지', '자연속으로', '자연여행', '자연좋은곳', '자연풍경', '자연환경']",https://cdn.visitkorea.or.kr/img/call?cmd=VIEW&id=d389fb01-089a-49e3-99f9-09ce14a60322&thumb,충청남도 보령시 오천면 효자도리,36.3834841,126.4439894
속동전망대,충남 홍성군,070-7763-8450,"['갯벌', '경치좋은곳', '관광지', '데이트코스', '바다경치', '바다전망', '바다전망대']",https://cdn.visitkorea.or.kr/img/call?cmd=VIEW&id=db9df48b-39de-4569-9020-4d451ff4017f&thumb,충청남도 홍성군 서부면 남당항로 689,36.5767826,126.4644756
솔뫼성지,충남 당진시,041-362-5021,"['가족여행', '관광지', '근대문화유산', '솔뫼성지', '아이와함께', '역사', '연인과함께']",https://cdn.visitkorea.or.kr/img/call?cmd=VIEW&id=cc7b8b4f-2568-4123-b27b-545e4bc49605&thumb,충청남도 당진시 우강면 솔뫼로 132,36.819515,126.7865369
솔향기길1,충남 태안군,041-675-2114,"['걷기길', '걷기여행', '관광지', '생태관광', '생태관광지', '솔향기길', '충청권']",https://cdn.visitkorea.or.kr/img/call?cmd=VIEW&id=61b4cca1-7980-472c-8d23-c96b885b4988&thumb,충청남도 태안군 이원면 원이로 2949,36.94246,126.29236
솔향기길2,충남 태안군,041-675-2114,"['걷기길', '걷기여행', '관광지', '생태관광', '생태관광지', '솔향기길', '자연', '충청권']",https://cdn.visitkorea.or.kr/img/call?cmd=VIEW&id=2c7ea84a-78f7-44d6-99f0-c8029827de45&thumb,충청남도 태안군 이원면 꾸지나무길 81-28,36.9358346,126.2939272
솔향기길3,충남 서산시,041-675-2114,"['걷기길', '걷기여행', '관광지', '생태관광', '생태관광지', '솔향기길', '태안']",https://cdn.visitkorea.or.kr/img/call?cmd=VIEW&id=b4a21e7d-8106-441a-838b-95607028c392&thumb,충청남도 서산시 대산읍 가로림로 972,36.9615555,126.3339824
송곡서원,충남 서산시,041-660-2247,"['관광지', '송곡서원', '역사', '역사공부', '역사관광지', '역사를품은곳', '역사문화재']",https://cdn.visitkorea.or.kr/img/call?cmd=VIEW&id=9d9cbbe4-26bf-449c-a590-d7127423ac80&thumb,충청남도 서산시 인지면 무학로 1353-9,36.726958,126.4120416
송덕암(서산),충남 서산시,041-688-2913,"['관광지', '불교', '불교문화', '사찰', '사찰여행', '서산송덕암', '역사', '연중무휴']",https://cdn.visitkorea.or.kr/img/call?cmd=VIEW&id=ec33e1ed-e551-4020-91cc-69876ad94f06&thumb,충청남도 서산시 해미면 큰골로 11-84,36.6851472,126.5798412
송불암(논산),충남 논산시,041-746-5412,"['관광지', '불교', '불교문화', '사찰', '사찰여행', '송불암', '역사', '역사유적지']",https://cdn.visitkorea.or.kr/img/call?cmd=VIEW&id=3fcd8dc9-5198-415c-8516-b9098ee3aeb6&thumb,충청남도 논산시 연산면 황룡재로 92-18,36.2082006,127.2250547
송석마을,충남 서천군,041-952-9878,"['경치좋은곳', '관광지', '바다경치', '일출일몰명소', '자연관광지', '자연마을']",https://cdn.visitkorea.or.kr/img/call?cmd=VIEW&id=8927bb11-8e8b-4974-b0c1-f135fae71899&thumb,충청남도 서천군 마서면,36.062059,126.7067518
송악 오돌개마을,충남 아산시,041-537-3611,"['가족체험', '관광지', '농촌마을', '농촌체험', '농촌체험마을', '농촌체험여행']",https://cdn.visitkorea.or.kr/img/call?cmd=VIEW&id=d4fefc1f-89f5-4439-8280-c8a0f1682453&thumb,충청남도 아산시 송악면 송악로 112,36.7228522,126.9818401
송정그림마을,충남 부여군,041-837-8030,"['SNS감성사진', '감성사진', '관광지', '남녀노소', '데이트장소추천', '벽화마을']",https://cdn.visitkorea.or.kr/img/call?cmd=VIEW&id=a9806577-f266-48e0-bce5-6e37e1a5a612&thumb,충청남도 부여군 양화면 양화북로242번길 11,36.1381623,126.8305133
수덕사,충남 예산군,041-330-7700,"['관광지', '교과서속여행', '기차여행', '나들이', '사찰&산사', '수덕사', '아이와함께']",https://cdn.visitkorea.or.kr/img/call?cmd=VIEW&id=72e6eb2e-7b00-4391-8819-c1b839ce0e61&thumb,충청남도 예산군 덕산면 수덕사안길 79,36.6623679,126.6226843
수락계곡,충남 논산시,041-732-3568,"['경치좋은곳', '관광지', '단풍여행', '대둔산도립공원', '등산', '등산로', '수락계곡']",https://cdn.visitkorea.or.kr/img/call?cmd=VIEW&id=9e43aab8-ae49-451d-8e80-a4d8a109e1a2&thumb,충청남도 논산시 벌곡면,36.205937,127.264865
수리바위,충남 부여군,041-830-2880,"['관광지', '자연']",https://cdn.visitkorea.or.kr/img/call?cmd=VIEW&id=7ee23489-6a65-4169-9334-05b071b918a5&thumb,충청남도 부여군 외산면 만수리,36.3188926,126.6919961
수리치골 성지,충남 공주시,041-841-1135,"['관광지', '역사', '역사공부', '역사관광지', '역사를품은곳', '역사속', '역사속으로']",https://cdn.visitkorea.or.kr/img/call?cmd=VIEW&id=9ce1e6a3-9f2a-47e0-bbcd-5dbc7c6cd0cb&thumb,충청남도 공주시 신풍면 용수봉갑길 544,36.5198535,126.8965255
수북정,충남 부여군,041-830-2623,"['관광지', '역사', '역사공부', '역사관광지', '역사를품은곳', '역사문화재', '역사속']",https://cdn.visitkorea.or.kr/img/call?cmd=VIEW&id=57a307fa-8994-4be6-8133-9f67809166da&thumb,충청남도 부여군 규암면 규암리,36.2748221,126.8878072
수심대,충남 금산군,041-750-2384,"['관광지', '역사', '역사공부', '역사를품은곳', '역사문화재', '역사속', '역사속으로']",https://cdn.visitkorea.or.kr/img/call?cmd=VIEW&id=1ad4c160-447b-4528-9b30-f4d5b02d3ab0&thumb,충청남도 금산군 복수면 수심대길 30,36.1637499,127.3951425
숙모전,충남 공주시,042-825-2570,"['관광지', '불교', '불교문화', '숙모전', '역사', '역사를품은곳', '역사문화재', '역사속']",https://cdn.visitkorea.or.kr/img/call?cmd=VIEW&id=75cae3fc-c5b0-41ec-b2db-3e4745436f2d&thumb,충청남도 공주시 반포면 동학사1로 462,36.3533,127.2196327
순교성지 갈매못,충남 보령시,041-932-1311,"['걷기길', '관광지', '데이트코스', '바다풍경', '순교성지갈매못', '역사', '역사공부']",https://cdn.visitkorea.or.kr/img/call?cmd=VIEW&id=7deeab7a-2107-42ef-aa65-62a99b132d2a&thumb,충청남도 보령시 오천면 오천해안로 610,36.4279567,126.5075501
숭의사,충남 태안군,041-670-5937,"['관광지', '숭의사', '역사', '역사공부', '역사관광지', '역사를품은곳', '역사속']",https://cdn.visitkorea.or.kr/img/call?cmd=VIEW&id=ecd98c76-e6ea-47bf-ac34-c8ee5568ec19&thumb,충청남도 태안군 남면 적돌길 415,36.6581835,126.3255807
스플라스 리솜,충남 예산군,041-330-8000,"['가족여행', '관광지', '리솜스파캐슬(천천향)', '뷰티', '스파', '연인과함께', '온천']",https://cdn.visitkorea.or.kr/img/call?cmd=VIEW&id=407e2a90-f462-43ed-a4be-d9d2d35c3e35&thumb,충청남도 예산군 덕산면 온천단지3로 45-7,36.6939718,126.6562206
신경섭 전통가옥,충남 보령시,041-930-6553,"['가족여행', '관광지', '신경섭전통가옥', '역사', '역사공부', '역사관광지', '역사를품은곳']",https://cdn.visitkorea.or.kr/img/call?cmd=VIEW&id=dcc95424-b827-4d10-bc37-111d972715d1&thumb,충청남도 보령시 청라면 장밭길 62,36.42079,126.6681799
신두리해수욕장,충남 태안군,041-670-2691,"['가족여행', '관광지', '신두리해수욕장', '연인과함께', '자연', '자연속으로', '자연여행']",https://cdn.visitkorea.or.kr/img/call?cmd=VIEW&id=abfcadf3-773d-46c6-a469-22bba86a1433&thumb,충청남도 태안군 원북면 신두리,36.8342278,126.2026206
신성리 갈대밭,충남 서천군,041-952-9525,"['가족여행', '관광지', '기차여행', '나들이', '나홀로여행', '데이트코스', '신성리갈대밭']",https://cdn.visitkorea.or.kr/img/call?cmd=VIEW&id=cb243d57-2a5a-4aff-9bd8-0b592f20539a&thumb,충청남도 서천군 한산면 신성리 125-1,36.0682933,126.8607835
신안사(금산),충남 금산군,041-752-7938,"['관광지', '불교', '불교사찰', '사찰', '사찰여행', '역사', '자연속으로', '자연좋은곳']",https://cdn.visitkorea.or.kr/img/call?cmd=VIEW&id=null&thumb,충청남도 금산군 제원면 신안사로 970,36.170739,127.5825453
신원사,충남 공주시,041-852-4230,"['관광지', '불교', '불교사찰', '사찰', '사찰여행', '역사', '자연속으로', '자연좋은곳']",https://cdn.visitkorea.or.kr/img/call?cmd=VIEW&id=1225fcb4-c38d-468f-8dd0-d92d9c8cae14&thumb,충청남도 공주시 계룡면 신원사동길 1,36.3352417,127.1839734
신정호관광지,충남 아산시,041-540-2518,"['가족여행', '관광지', '나들이', '데이트코스', '산책길', '산책하기', '산책하기좋은곳']",https://cdn.visitkorea.or.kr/img/call?cmd=VIEW&id=b9e9d222-4dd3-4520-92cb-5598da768e55&thumb,충청남도 아산시 신정로 616,36.7731311,126.9858804
신진도,충남 태안군,041-670-2114,"['관광지', '낚시', '신진도', '자연', '충청권', '풍경좋은곳', '휴식']",https://cdn.visitkorea.or.kr/img/call?cmd=VIEW&id=19fbf1c8-6280-4f7a-9414-7d11d2117627&thumb,충청남도 태안군 근흥면 신진도리,36.6797289,126.1421631
신창향교,충남 아산시,041-536-8773,"['관광지', '역사', '역사공부', '역사관광지', '역사를품은곳', '역사문화재', '역사속']",https://cdn.visitkorea.or.kr/img/call?cmd=VIEW&id=f2df3c83-310b-400a-a028-8676b151e58a&thumb,충청남도 아산시 신창면 서부남로840번길 29,36.7798908,126.931848
신평양조장 백련 양조문화원,충남 당진시,041-363-9063,"['가족여행', '관광지', '당진신평양조장', '백련양조문화원', '산업관광', '신평양조장']",https://cdn.visitkorea.or.kr/img/call?cmd=VIEW&id=15f5c66f-2972-4ff6-adb7-c49c018bc2a4&thumb,충청남도 당진시 신평면 신평로 813,36.8836272,126.7747563
신흑마을,충남 보령시,041-932-2023,"['관광지', '자연']",https://cdn.visitkorea.or.kr/img/call?cmd=VIEW&id=a88b8cc8-c710-40f2-aab3-9cb911e72d1a&thumb,충청남도 보령시 신흑동,36.3223038,126.5263893
심연동계곡(성주계곡),충남 보령시,041-933-5301,"['계곡', '관광지', '성주계곡', '심연동계곡', '여름피서지', '자연', '자연발생', '자연속으로']",https://cdn.visitkorea.or.kr/img/call?cmd=VIEW&id=e8813903-1ee1-4d98-ade9-2d56c67865ab&thumb,충청남도 보령시 성주면 심원계곡로 270 심연동계곡,36.3545377,126.6610888
쌍계사(논산),충남 논산시,041-741-2251,"['관광지', '교과서속여행', '나들이', '대웅전', '사찰&산사', '쌍계사', '아이와함께']",https://cdn.visitkorea.or.kr/img/call?cmd=VIEW&id=be75c739-2b5f-4465-83bf-c13ca966eb35&thumb,충청남도 논산시 양촌면 중산길 192,36.1055962,127.205769
쌍수정사적비,충남 공주시,041-840-8207,"['관광지', '쌍수정사적비', '역사', '역사공부', '역사관광지', '역사를품은곳', '역사문화재']",https://cdn.visitkorea.or.kr/img/call?cmd=VIEW&id=0d87d2f9-aca6-4afe-8180-3df78a7032f8&thumb,충청남도 공주시 공산성길 59-22,36.4631287,127.128107
아그로랜드 태신목장,충남 예산군,041-356-3154,"['가족체험', '관광지', '낙농체험', '아그로랜드태신목장', '아이가_좋아하는_여행']",https://cdn.visitkorea.or.kr/img/call?cmd=VIEW&id=65d9ca46-3d2d-45a0-a75b-37b3364c0c92&thumb,충청남도 예산군 고덕면 상몽2길 231,36.7919114,126.7044918
아름다운정원 화수목,충남 천안시,041-585-4200,"['관광지', '데이트코스', '사진찍기', '사진찍기좋은곳', '수목원', '아름다우정원화수목']",https://cdn.visitkorea.or.kr/img/call?cmd=VIEW&id=2764764b-185d-4840-b56c-517a06b14916&thumb,충청남도 천안시 동남구 목천읍 교천지산길 175,36.7823623,127.198938
아리랜드,충남 서천군,041-952-6321,"['관광지', '농촌마을', '농촌체험', '아리랜드', '아이와함께', '이색체험', '자연속으로']",https://cdn.visitkorea.or.kr/img/call?cmd=VIEW&id=f978154b-c5e6-4b9d-bcdd-909d15f82f01&thumb,충청남도 서천군 마서면 합전길68번길 21,36.0465985,126.669926
아미산(부여),충남 부여군,041-830-2880,"['관광지', '자연']",https://cdn.visitkorea.or.kr/img/call?cmd=VIEW&id=c8665389-92bc-46a5-a8b1-24655f31d7c0&thumb,충청남도 부여군 외산면,36.3042776,126.704189
아산 강당골마을,충남 아산시,041-537-3611,"['관광지', '농촌', '농촌길', '농촌여행코스', '농촌체험', '농촌체험마을', '농촌체험여행']",https://cdn.visitkorea.or.kr/img/call?cmd=VIEW&id=34f0ed98-fa37-47c8-9312-38adddd2313c&thumb,충청남도 아산시 송악면 강당로 187-5,36.7169664,127.0156206
아산 공세리성당,충남 아산시,041-533-8181,"['관광지', '나홀로여행', '성당', '아산공세리성당', '역사', '역사이야기', '종교']",https://cdn.visitkorea.or.kr/img/call?cmd=VIEW&id=f09b280a-069d-48c4-a24f-ba52b8fe685a&thumb,충청남도 아산시 인주면 공세리성당길 10,36.8829251,126.913515
아산 기쁨두배마을,충남 아산시,041-532-6754,"['관광지', '농촌마을', '농촌여행', '농촌체험', '농촌체험마을', '농촌체험여행']",https://cdn.visitkorea.or.kr/img/call?cmd=VIEW&id=17b35b02-6dcc-49d2-adf7-87e0def6a64f&thumb,충청남도 아산시 둔포면 석곡길 101,36.9121101,127.056326
아산 내이랑마을,충남 아산시,041-544-4633,"['관광지', '내이랑마을', '농촌마을', '농촌여행', '농촌체험', '농촌체험마을', '농촌체험여행']",https://cdn.visitkorea.or.kr/img/call?cmd=VIEW&id=4817cda2-8fa5-4ad9-b3b5-9d9fa4030567&thumb,충청남도 아산시 영인면 신봉길 248,36.899657,126.996258
아산 대통령마을 [농촌전통테마],충남 아산시,041-537-3641,"['가족과함께', '가족체험', '관광지', '농촌마을', '농촌체험여행', '농촌체험학습']",https://cdn.visitkorea.or.kr/img/call?cmd=VIEW&id=c5e5fc1e-2753-4aef-9221-abe5d131f20c&thumb,충청남도 아산시 음봉면 충무로604번길 106-20,36.8343953,127.0229543
아산 맹씨 행단(맹사성 고택),충남 아산시,041-536-8773,"['고택', '관광지', '맹사성고택', '사적', '아산맹씨행단', '역사', '역사공부', '역사를품은곳']",https://cdn.visitkorea.or.kr/img/call?cmd=VIEW&id=3ef17091-ae7d-4100-8a6b-f454fa4a073f&thumb,충청남도 아산시 배방읍 행단길 23-4,36.7469448,127.042057
아산 스파비스,충남 아산시,041-539-2000,"['가족여행', '관광지', '스파', '아산스파비스', '아이와함께', '연인과함께', '온천']",https://cdn.visitkorea.or.kr/img/call?cmd=VIEW&id=4731f7e1-a12c-400a-a289-23cf4e2fe223&thumb,충청남도 아산시 음봉면 아산온천로157번길 67,36.8553091,126.9781516
아산 외암마을 참판댁,충남 아산시,041-536-8773,"['관광지', '역사', '역사공부', '역사관광지', '역사를품은곳', '역사문화재', '역사속']",https://cdn.visitkorea.or.kr/img/call?cmd=VIEW&id=0ef7233e-5070-4d36-b5ba-5a2fcffc46fc&thumb,충청남도 아산시 송악면 외암민속길 42-15,36.7302995,127.0186121
아산 용궁댁,충남 아산시,041-536-8773,"['관광지', '역사', '역사공부', '역사관광지', '역사를품은곳', '역사문화재', '역사속']",https://cdn.visitkorea.or.kr/img/call?cmd=VIEW&id=cf161285-4717-4358-95aa-afc4f8133e53&thumb,충청남도 아산시 도고면 도고산로587번길 73-21,36.7403253,126.8923642
아산 윤보선 대통령 생가,충남 아산시,041-536-8773,"['관광지', '역사', '역사공부', '역사관광지', '역사를품은곳', '역사문화재', '역사속']",https://cdn.visitkorea.or.kr/img/call?cmd=VIEW&id=ce739415-6a00-45cc-9f3a-e7a656f836df&thumb,충청남도 아산시 둔포면 해위길52번길 29,36.8972975,127.0185514
아산 이충무공 유허,충남 아산시,041-536-8773,"['관광지', '사적', '아산이충무공유허', '아산현충사', '역사', '역사공부', '역사관광지']",https://cdn.visitkorea.or.kr/img/call?cmd=VIEW&id=b916972a-c089-4d3c-908d-1920c797231c&thumb,충청남도 아산시 염치읍 현충사길 126,36.806513,127.0308048
아산 이충무공묘,충남 아산시,041-536-8773,"['가족여행', '관광지', '교과서속여행', '사적', '아이와함께', '역사', '역사관광지']",https://cdn.visitkorea.or.kr/img/call?cmd=VIEW&id=9c8fb9c2-4d85-438e-a5a7-2da08c943743&thumb,충청남도 아산시 음봉면 고룡산로 12-38,36.8502447,127.0124972
아산 평촌리 석조약사여래입상,충남 아산시,041-536-8773,"['관광지', '보물', '불상', '아산평촌리석조약사여래입상', '역사', '역사공부', '역사관광지']",https://cdn.visitkorea.or.kr/img/call?cmd=VIEW&id=820d259f-989b-4bd2-ad59-92d5c854d3e6&thumb,충청남도 아산시 송악면 평촌길50번길 147-20,36.7443271,127.0080858
아산 환경과학공원,충남 아산시,041-538-1900,"['가족여행', '가족체험여행', '관광지', '산책', '산책코스', '산책하기좋은곳', '아산환경과학공원']",https://cdn.visitkorea.or.kr/img/call?cmd=VIEW&id=2ea6b2ef-e4ed-4f41-b652-82be08aed6b9&thumb,충청남도 아산시 실옥로 220,36.7987254,126.9776544
아산 희안마을,충남 아산시,041-537-3751,"['관광지', '농촌마을', '농촌여행', '농촌체험', '아이와함께', '이색체험', '자연마을']",https://cdn.visitkorea.or.kr/img/call?cmd=VIEW&id=ba7f4e78-a491-4fd2-a2b7-27bb89a8b939&thumb,충청남도 아산시 남부로8번길 41-10,36.7676774,126.9824116
아산만방조제,충남 아산시,1577-6611,"['경치좋은곳', '관광지', '드라이브여행', '드라이브코스', '바다풍경', '연인과함께']",https://cdn.visitkorea.or.kr/img/call?cmd=VIEW&id=f9cff3ab-3e63-46d3-91f5-f6d99557b507&thumb,충청남도 아산시 인주면 공세리,36.8879575,126.9150088
아산시 생활자원처리장,충남 아산시,041-538-1911,"['견학', '관광지', '산업관광', '생활자원처리장', '아산시생활자원처리장', '아이와함께']",https://cdn.visitkorea.or.kr/img/call?cmd=VIEW&id=10b89957-e793-4ec1-8a98-c1b1539bf30c&thumb,충청남도 아산시 배미로 154,36.7910867,126.9742047
아산시 온천 관광특구,충남 아산시,041-540-2689,"['가족여행', '관광지', '아산시온천관광특구', '아이와함께', '연인과함께', '온천']",https://cdn.visitkorea.or.kr/img/call?cmd=VIEW&id=478236de-6c0f-4bae-bee4-25ae45de3f54&thumb,충청남도 아산시,36.789796,127.0018494
아산온천,충남 아산시,041-541-5526,"['가족여행', '가족체험여행', '관광지', '아산온천', '아이와함께', '연인과함께']",https://cdn.visitkorea.or.kr/img/call?cmd=VIEW&id=9ab9dd73-5c91-48a8-9abb-c8dac63e2b43&thumb,충청남도 아산시 음봉면 아산온천로 217-7,36.8540514,126.9804951
아산향교,충남 아산시,041-536-8773,"['관광지', '아산향교', '아이와함께', '역사', '역사공부', '역사관광지', '역사를품은곳']",https://cdn.visitkorea.or.kr/img/call?cmd=VIEW&id=002844a6-6a97-4b59-a9df-fcc4703f9e1d&thumb,충청남도 아산시 영인면 여민루길 82,36.8493414,126.9520344
아인리석탑,충남 금산군,041-750-2384,"['관광지', '역사', '역사공부', '역사관광지', '역사를품은곳', '역사문화재', '역사속']",https://cdn.visitkorea.or.kr/img/call?cmd=VIEW&id=dc13dd3c-a666-44c1-b4ef-c0a74eab93e2&thumb,충청남도 금산군 금산읍 용머리길 29,36.1053962,127.4817513
아일랜드 리솜 오아식스 선셋스파,충남 태안군,041-671-7000,"['가족과함께', '가족여행', '관광지', '리솜오션캐슬아쿠아월드', '스파', '아이와함께']",https://cdn.visitkorea.or.kr/img/call?cmd=VIEW&id=9b54674a-2f4a-45b0-895a-c54aa405b1c0&thumb,충청남도 태안군 안면읍 꽃지해안로 204,36.488864,126.336883
안면도,충남 태안군,041-673-3081,"['관광지', '자연']",https://cdn.visitkorea.or.kr/img/call?cmd=VIEW&id=540156c4-d729-4deb-8dd3-b608bf60cfdc&thumb,충청남도 태안군 안면읍 장터로 149,36.5203881,126.3447279
안면도 미로공원,충남 태안군,041-673-4101,"['가족힐링', '경치좋은곳', '관광지', '미로공원', '미로정원', '사진찍기', '사진찍기좋은곳']",https://cdn.visitkorea.or.kr/img/call?cmd=VIEW&id=49bac312-659a-47a8-ba8e-8accf3e741a9&thumb,충청남도 태안군 고남면 대야로 13-6,36.4480992,126.3911524
안면도수목원,충남 태안군,041-674-5019,"['가족과함께', '관광지', '산책하기좋은곳', '아이와함께', '안면도', '연인과함께']",https://cdn.visitkorea.or.kr/img/call?cmd=VIEW&id=4b3504e7-8121-47aa-9c4d-a594cd584cca&thumb,충청남도 태안군 안면읍 안면대로 3195-6,36.4972055,126.3617957
안면도자연휴양림,충남 태안군,041-674-5019,"['가족여행', '관광지', '기차여행', '나들이', '데이트코스', '등산로', '사계절', '아이와함께']",https://cdn.visitkorea.or.kr/img/call?cmd=VIEW&id=af50a18a-0024-4de2-aad1-38ad525535de&thumb,충청남도 태안군 안면읍 안면대로 3195-6,36.4972055,126.3617957
안면암(태안),충남 태안군,041-673-2333,"['가족여행', '관광지', '바다', '불교', '불교문화', '사찰', '안면암', '역사', '자연']",https://cdn.visitkorea.or.kr/img/call?cmd=VIEW&id=a609de24-db02-4655-9943-de0886fec1e9&thumb,충청남도 태안군 안면읍 여수해길 198-160,36.559436,126.3746987
안면해수욕장,충남 태안군,041-670-2691,"['가족여행', '관광지', '레포츠', '바다낚시', '바다풍경', '안면해수욕장', '자연']",https://cdn.visitkorea.or.kr/img/call?cmd=VIEW&id=bfcf922a-a4f2-4fb7-95c2-8a651ad60946&thumb,충청남도 태안군 안면읍 정당리,36.5508737,126.3576326
안회당과 여하정,충남 홍성군,041-630-1688,"['관광지', '역사', '역사공부', '역사관광지', '역사를품은곳', '역사문화재', '역사속']",https://cdn.visitkorea.or.kr/img/call?cmd=VIEW&id=7ed614b6-d980-40c4-a350-4786b5194771&thumb,충청남도 홍성군 홍성읍 아문길 27,36.6013022,126.6608855
안흥성,충남 태안군,041-670-5937,"['관광지', '역사', '역사공부', '역사관광지', '역사를품은곳', '역사문화재', '역사속']",https://cdn.visitkorea.or.kr/img/call?cmd=VIEW&id=71b428d4-a19e-43bd-acd7-c688086dd3f4&thumb,충청남도 태안군 근흥면 안흥성길 33-6,36.6816929,126.158717
안흥항,충남 태안군,041-670-2885,"['관광지', '바다풍경', '섬여행', '안흥항', '자연', '충청권']",https://cdn.visitkorea.or.kr/img/call?cmd=VIEW&id=88787518-8120-4ed4-9ca1-809f98ae06b6&thumb,충청남도 태안군 근흥면 안흥1길 49-2,36.6796222,126.1528965
알프스마을,충남 청양군,041-942-0797,"['가족체험', '가족체험학습', '관광지', '농촌', '농촌마을', '농촌여행', '농촌체험']",https://cdn.visitkorea.or.kr/img/call?cmd=VIEW&id=879738e6-9ffc-4ae7-a20f-7bfb5fffb234&thumb,충청남도 청양군 정산면 천장호길 223-35,36.4097434,126.914249
어은돌해수욕장,충남 태안군,041-670-2691,"['관광지', '바다풍경', '어은돌해수욕장', '여름여행', '여름휴가', '연인과함께']",https://cdn.visitkorea.or.kr/img/call?cmd=VIEW&id=432d3e8a-8433-4fb5-b44f-19dc33e55e5e&thumb,충청남도 태안군 소원면 연들길 92,36.7526737,126.131321
에너지자립섬 자급자족 죽도,충남 홍성군,010-8804-9171,"['걷기길', '걷기여행', '관광지', '생태관광', '생태관광지', '죽도', '죽도둘레길']",https://cdn.visitkorea.or.kr/img/call?cmd=VIEW&id=62bac3d8-b5be-432c-9e59-115404097bfc&thumb,충청남도 홍성군 서부면 죽도리,36.5164219,126.4405805
에덴힐스 힐링파크,충남 홍성군,041-633-9766,"['가족과함께', '관광지', '국내힐링여행', '이색체험', '체험프로그램', '휴식공간']",https://cdn.visitkorea.or.kr/img/call?cmd=VIEW&id=d94687e7-03a8-408f-879c-d9f5e4cd0f21&thumb,충청남도 홍성군 서부면 와룡로126번길 90,36.5749547,126.5277992
에코힐링 황톳길,충남 천안시,1577-6611,"['건강여행', '걷기길', '관광지', '남녀노소', '맨발로숲길걷기', '산책길', '산책로']",https://cdn.visitkorea.or.kr/img/call?cmd=VIEW&id=e16d4c86-fb6c-4ed7-a679-d4b518f6e033&thumb,충청남도 천안시 서북구 공원로 159,36.8001686,127.1064013
여민루,충남 아산시,041-536-8773,"['관광지', '여민루', '역사', '역사공부', '역사관광지', '역사를품은곳', '역사문화재']",https://cdn.visitkorea.or.kr/img/call?cmd=VIEW&id=391e664f-292b-4b8c-a865-4c81b5c76f48&thumb,충청남도 아산시 영인면 아산리길 26,36.8550376,126.9540962
연미산 자연미술공원,충남 공주시,041-853-8828,"['관광지', '금강자연미술비엔날레', '문화예술공간', '문화예술활동', '산책길']",https://cdn.visitkorea.or.kr/img/call?cmd=VIEW&id=0fb33ff7-dc9f-4a60-ae27-f8cbd1e8d2d4&thumb,충청남도 공주시 우성면 연미산고개길 98,36.4766683,127.0983914
연산역 (철도체험학습장),충남 논산시,041-735-0804,"['견학', '관광지', '산업관광', '안전교육', '연산역', '이색체험', '직업체험', '진로상담']",https://cdn.visitkorea.or.kr/img/call?cmd=VIEW&id=ecc21c56-7faf-474f-9ece-12119fedbdf0&thumb,충청남도 논산시 연산면 선비로275번길 31-2,36.212811,127.20209
연산향교,충남 논산시,041-746-5412,"['관광지', '역사', '역사공부', '역사관광지', '역사를품은곳', '역사문화재', '역사속']",https://cdn.visitkorea.or.kr/img/call?cmd=VIEW&id=92f73c73-a112-4971-9b41-b47dd6c0388b&thumb,충청남도 논산시 연산면 관동1길 88-12,36.2236337,127.2098897
연산향교 대성전,충남 논산시,041-746-5412,"['관광지', '역사', '역사공부', '역사관광지', '역사를품은곳', '역사문화재', '역사속']",https://cdn.visitkorea.or.kr/img/call?cmd=VIEW&id=9eb2ceda-1195-4e2e-aa86-229e74a204a0&thumb,충청남도 논산시 연산면 관동1길 88-12,36.2236337,127.2098897
연포해수욕장,충남 태안군,041-670-2691,"['관광지', '바다풍경', '여름휴가', '연포해수욕장', '자연', '충청권', '친구와함께']",https://cdn.visitkorea.or.kr/img/call?cmd=VIEW&id=ffd903ad-dfbc-492f-bf38-bb3728f0103d&thumb,충청남도 태안군 근흥면 도황리,36.6953051,126.2020427
염선재,충남 계룡시,042-840-2403,"['관광지', '역사', '역사공부', '역사관광지', '역사를품은곳', '역사문화재', '역사속']",https://cdn.visitkorea.or.kr/img/call?cmd=VIEW&id=66dbef10-e1b4-44ec-bedd-e87bd5056952&thumb,충청남도 계룡시 사계로 5-16,36.2693923,127.2618727
영괴대,충남 아산시,041-536-8773,"['관광지', '역사', '역사공부', '역사관광지', '역사를품은곳', '역사문화재', '역사속']",https://cdn.visitkorea.or.kr/img/call?cmd=VIEW&id=9d87e446-d3aa-40e7-833c-427906614c67&thumb,충청남도 아산시 온천대로 1459,36.7831061,126.999949
영남루(천안),충남 천안시,041-521-5163,"['관광지', '역사', '역사공부', '역사관광지', '역사를품은곳', '역사문화재', '역사속']",https://cdn.visitkorea.or.kr/img/call?cmd=VIEW&id=f75c100c-e438-4c4a-86a4-816559f374ef&thumb,충청남도 천안시 동남구 충절로 410,36.7837024,127.168094
영랑사(당진),충남 당진시,041-353-8053,"['관광지', '불교', '불교문화', '사찰', '사찰여행', '역사', '자연속으로', '자연환경']",https://cdn.visitkorea.or.kr/img/call?cmd=VIEW&id=216c8d82-219c-48d4-b79c-32a5afd17c43&thumb,충청남도 당진시 고대면 진관로 142-52,36.912387,126.5940201
영목항,충남 태안군,041-673-9887,"['가족과함께', '관광지', '남녀노소', '바다경치', '바다내음', '어촌마을', '자연']",https://cdn.visitkorea.or.kr/img/call?cmd=VIEW&id=8632b0e0-5c57-4002-97a1-2ea48bf969ee&thumb,충청남도 태안군 고남면 월고지길 55,36.3995788,126.4267807
영수암(서천),충남 서천군,041-953-3327,"['관광지', '불교', '불교문화', '불교사찰', '사찰', '사찰여행', '역사', '자연속으로']",https://cdn.visitkorea.or.kr/img/call?cmd=VIEW&id=76279d41-8fba-4eca-aa86-720ac72ec399&thumb,충청남도 서천군 종천면 충서로143번길 64,36.0909614,126.6642588
영은사(공주),충남 공주시,041-855-3976,"['관광지', '불교', '불교문화', '불교문화', '사찰여행', '역사', '연중무휴', '영은사']",https://cdn.visitkorea.or.kr/img/call?cmd=VIEW&id=c8cb128b-9d72-4350-8a30-8483b4c73e15&thumb,충청남도 공주시 공산성길 59-22,36.4631287,127.128107
영인산,충남 아산시,1577-6611,"['관광지', '등산', '영인산', '자연', '자연좋은곳', '전망좋은곳', '충청권']",https://cdn.visitkorea.or.kr/img/call?cmd=VIEW&id=bdd8f573-bc63-4a13-a9b3-e163c1299e52&thumb,충청남도 아산시 염치읍 아산온천로,36.848624,126.9652422
영인산자연휴양림,충남 아산시,041-538-1958,"['관광지', '숲치유', '아이와함께', '영인산자연휴양림', '자연', '자연속으로', '자연좋은곳']",https://cdn.visitkorea.or.kr/img/call?cmd=VIEW&id=2cf9e7c1-3227-48eb-894b-962dd2bbca98&thumb,충청남도 아산시 영인면 아산온천로 16-26,36.8402934,126.9513585
영인석불,충남 아산시,041-536-8773,"['관광지', '불상', '역사', '역사공부', '역사관광지', '역사를품은곳', '역사문화재']",https://cdn.visitkorea.or.kr/img/call?cmd=VIEW&id=a7cda65f-18ad-4c57-a9b7-d615e0afd134&thumb,충청남도 아산시 영인면 영인로96번길 16-6,36.8582449,126.9521618
영인신현리미륵불,충남 아산시,041-536-8773,"['관광지', '불상', '역사', '역사공부', '역사관광지', '역사를품은곳', '역사문화재']",https://cdn.visitkorea.or.kr/img/call?cmd=VIEW&id=9d7e2ed9-1c7c-47e3-8890-943794a2d20c&thumb,충청남도 아산시 영인면 영인산로 511-21,36.8609517,126.9283916
영천암(금산),충남 금산군,041-753-0095,"['관광지', '불교', '불교문화', '사찰', '사찰여행', '역사', '자연속으로', '자연환경']",https://cdn.visitkorea.or.kr/img/call?cmd=VIEW&id=null&thumb,충청남도 금산군 남이면 보석사1길 148,36.0603064,127.4693651
영탑사(당진),충남 당진시,041-356-3204,"['관광지', '불교', '불교문화', '불교사찰', '사찰', '사찰여행', '역사', '자연속으로']",https://cdn.visitkorea.or.kr/img/call?cmd=VIEW&id=10e7dba6-9bfa-4281-a14e-df25d2c34d75&thumb,충청남도 당진시 면천면 성하로 139-33,36.8107524,126.6503316
예당관광지,충남 예산군,041-339-8281,"['가족여행', '경치좋은곳', '관광지', '산책길', '산책하기', '산책하기좋은곳', '예당관광지']",https://cdn.visitkorea.or.kr/img/call?cmd=VIEW&id=50e6563f-4ea8-4254-983e-3a681846d27c&thumb,충청남도 예산군 응봉면 예당관광로 161,36.6380724,126.7994234
예당호 조각공원,충남 예산군,041-339-8930,"['가족여행', '관광지', '산책길', '산책로', '산책하기', '산책하기좋은곳', '아이와함께']",https://cdn.visitkorea.or.kr/img/call?cmd=VIEW&id=b7edde6e-3159-4792-af7b-09f8d869ba6d&thumb,충청남도 예산군 응봉면 예당관광로 123,36.6363324,126.7950255
예당호 출렁다리(음악분수),충남 예산군,041-339-8282,"['관광지', '야간관광100선', '예당호', '예당호출렁다리', '출렁다리']",https://cdn.visitkorea.or.kr/img/call?cmd=VIEW&id=998942e3-50f3-49ee-9972-53d3bf9d298e&thumb,충청남도 예산군 응봉면,36.6586111,126.7611336
예덕상무사,충남 예산군,041-339-8231,"['가족여행', '가족체험여행', '관광지', '교육여행', '아이와함께', '역사', '역사공부']",https://cdn.visitkorea.or.kr/img/call?cmd=VIEW&id=4c2bd1bd-45a8-458d-a341-284ca57872ee&thumb,충청남도 예산군 덕산면 덕산온천로 183-9,36.6869605,126.6523538
예산 알토란사과마을,충남 예산군,,"['가족여행', '관광지', '농촌마을', '농촌전통테마마을', '농촌체험', '농촌체험마을']",https://cdn.visitkorea.or.kr/img/call?cmd=VIEW&id=7c2428b2-e68e-4801-8cb2-f933160d3e89&thumb,충청남도 예산군 응봉면 운곡길 88,36.651935,126.7796553
예산 용궁리 백송,충남 예산군,041-339-8930,"['관광지', '자연관광지', '자연발생', '자연속으로', '자연여행', '자연좋은곳', '자연풍경']",https://cdn.visitkorea.or.kr/img/call?cmd=VIEW&id=9d042acb-b57a-43a5-842a-7fbefca9cf75&thumb,충청남도 예산군 신암면 용궁리 산 73-28,36.750861,126.7966426
예산 임존성,충남 예산군,041-339-7332,"['가족여행', '관광지', '사적', '역사', '역사공부', '역사관광지', '역사관광지', '역사를품은곳']",https://cdn.visitkorea.or.kr/img/call?cmd=VIEW&id=294e4435-0167-469e-b290-5325e2730131&thumb,충청남도 예산군 광시면 마사리,36.5809665,126.7685234
예산 화전리 석조사면불상,충남 예산군,041-339-7332,"['관광지', '역사', '역사공부', '역사관광지', '역사를품은곳', '역사문화재', '역사속']",https://cdn.visitkorea.or.kr/img/call?cmd=VIEW&id=527ca44e-89f4-43be-ac48-019fcdfac2ad&thumb,충청남도 예산군 봉산면 화전2길 19-6,36.7534491,126.6793963
예산 황새공원,충남 예산군,041-339-8271,"['관광지', '언택트관광지_100선', '예산황새공원', '자연관광지', '자연좋은곳']",https://cdn.visitkorea.or.kr/img/call?cmd=VIEW&id=8266342d-c1d0-492b-b379-3d53cdafa9ae&thumb,충청남도 예산군 광시면 시목대리길 62-19,36.5438393,126.7978947
예산향교,충남 예산군,041-339-7332,"['관광지', '역사', '역사공부', '역사관광지', '역사를품은곳', '역사문화재', '역사속']",https://cdn.visitkorea.or.kr/img/call?cmd=VIEW&id=3f5ce8c0-c2de-4090-b076-cf4b9255b698&thumb,충청남도 예산군 예산읍 향교길 31,36.6837988,126.8529923
오덕사(부여),충남 부여군,041-834-8245,"['관광지', '불교', '불교문화', '사찰', '사찰여행', '역사', '자연속으로', '자연환경']",https://cdn.visitkorea.or.kr/img/call?cmd=VIEW&id=null&thumb,충청남도 부여군 충화면 오덕로86번길 105,36.1555293,126.7967908
오서산,충남 보령시,041-932-2023,"['관광지', '등산', '등산로', '오서산', '자연', '전망좋은곳', '충청권']",https://cdn.visitkorea.or.kr/img/call?cmd=VIEW&id=d42cd188-b6fc-4377-9d5b-9533c7af98c3&thumb,충청남도 보령시 청소면 성연리,36.4500512,126.6393969
오천항,충남 보령시,041-932-4301,"['가족과함께', '가족여행', '관광지', '바다경치', '바다내음', '바다전망', '어촌마을']",https://cdn.visitkorea.or.kr/img/call?cmd=VIEW&id=31892d26-6d64-466c-b5ec-8fad656edab7&thumb,충청남도 보령시 오천면 오천해안로 782-5,36.4393372,126.5209232
오천향교,충남 보령시,041-930-6553,"['관광지', '역사', '역사공부', '역사관광지', '역사를품은곳', '역사문화재', '역사속']",https://cdn.visitkorea.or.kr/img/call?cmd=VIEW&id=8f77f36f-e490-4920-8f47-0f489957fcac&thumb,충청남도 보령시 오천면 향교길 45-26,36.418185,126.545404
온양관광호텔 온천탕,충남 아산시,041-540-1500,"['가족여행', '관광지', '뷰티&스파', '실내여행지', '온양관광호텔', '온천&스파']",https://cdn.visitkorea.or.kr/img/call?cmd=VIEW&id=3391103d-12e6-4b19-a8cf-010376b8084c&thumb,충청남도 아산시 온천대로 1459,36.7831061,126.999949
온양온천지구,충남 아산시,041-540-1234,"['가족여행', '관광지', '나들이', '데이트코스', '스파', '아이와함께', '연인과함께']",https://cdn.visitkorea.or.kr/img/call?cmd=VIEW&id=26d50291-99bd-464b-81ed-6577ecce2e2a&thumb,충청남도 아산시 온천동,36.7881586,127.0009043
온양이씨어필각,충남 금산군,041-750-2384,"['관광지', '역사', '역사공부', '역사를품은곳', '역사문화재', '역사속', '역사속으로']",https://cdn.visitkorea.or.kr/img/call?cmd=VIEW&id=6e50fd67-ffeb-47c4-ad94-e3b4abe87bc0&thumb,충청남도 금산군 금성면 어필각로 412,36.1519466,127.4873518
온양향교,충남 아산시,041-536-8773,"['가족여행', '관광지', '아이와함께', '역사', '역사공부', '역사관광지', '역사를품은곳']",https://cdn.visitkorea.or.kr/img/call?cmd=VIEW&id=ce7da93d-43bb-4992-835a-98cdfac95454&thumb,충청남도 아산시 외암로 1414-11,36.7626925,127.0158687
온주아문 및 동헌,충남 아산시,041-536-8773,"['관광지', '동헌', '역사', '역사공부', '역사를품은곳', '역사문화재', '역사속', '역사속으로']",https://cdn.visitkorea.or.kr/img/call?cmd=VIEW&id=958e0cd6-1a60-4727-b2ab-416ed0418c07&thumb,충청남도 아산시 온주길 27,36.7621586,127.0185524
옹도 등대,충남 태안군,041-670-2114,"['관광지', '자연']",https://cdn.visitkorea.or.kr/img/call?cmd=VIEW&id=41940cbf-03cb-4bba-bb23-0cb16a368937&thumb,충청남도 태안군 근흥면 가의도리,36.6756569,126.0693781
왕대사(보령),충남 보령시,041-936-4796,"['관광지', '불교', '불교문화', '사찰', '사찰여행', '역사', '자연속으로', '자연환경']",https://cdn.visitkorea.or.kr/img/call?cmd=VIEW&id=30ef5638-c0d3-45aa-8f07-a083b3da8fac&thumb,충청남도 보령시 절길 44,36.3455793,126.5595763
왕의영당,충남 부여군,041-830-2623,"['관광지', '역사', '역사공부', '역사관광지', '역사를품은곳', '역사문화재', '역사속']",https://cdn.visitkorea.or.kr/img/call?cmd=VIEW&id=5e850df3-5f65-4410-b89e-a96243eba026&thumb,충청남도 부여군 양화면 오초로172번길 16-12,36.1489552,126.8637151
왜목마을,충남 당진시,041-354-1713,"['가족여행', '경치좋은곳', '관광지', '수상지관광코스', '연인과함께', '연중무휴']",https://cdn.visitkorea.or.kr/img/call?cmd=VIEW&id=89f7e104-0ff5-4132-8ee7-69593365241b&thumb,충청남도 당진시 석문면 왜목길 26,37.0444351,126.5260959
왜목해수욕장,충남 당진시,041-350-3592,"['가족여행', '관광지', '마을축제', '미식여행', '바다내음', '바다풍경', '여름방학가볼만한곳']",https://cdn.visitkorea.or.kr/img/call?cmd=VIEW&id=aa9d4051-9a20-498e-b03e-f5c1ac985aea&thumb,충청남도 당진시 석문면 왜목길 26,37.0444351,126.5260959
외암민속마을,충남 아산시,041-541-0848,"['가족여행', '가족체험여행', '관광지', '교과서속여행', '아산외암민속마을', '아이와함께']",https://cdn.visitkorea.or.kr/img/call?cmd=VIEW&id=1a847a49-ca4c-429b-8126-26b77e268c03&thumb,충청남도 아산시 송악면 외암민속길9번길 13-2,36.7310028,127.0144092
외연도,충남 보령시,041-932-2023,"['관광지', '자연']",https://cdn.visitkorea.or.kr/img/call?cmd=VIEW&id=3eda2bbb-15b1-4b72-9d22-a0048e07d1bd&thumb,충청남도 보령시 오천면 외연도1길 64,36.2286264,126.0817868
용강서원,충남 금산군,041-750-2384,"['관광지', '역사', '역사공부', '역사관광지', '역사를품은곳', '역사문화재', '역사속']",https://cdn.visitkorea.or.kr/img/call?cmd=VIEW&id=c45919e2-b2c2-4cba-b609-4decac3cb6ef&thumb,충청남도 금산군 제원면 용화로 258,36.0992089,127.5886423
용도어촌체험마을,충남 서산시,041-666-0997,"['가족과함께', '관광지', '교육여행', '바다내음', '아이와함께', '어촌체험', '어촌체험마을']",https://cdn.visitkorea.or.kr/img/call?cmd=VIEW&id=7bdcbb5c-2da0-447a-b121-133133647965&thumb,충청남도 서산시 대산읍 웅도리,36.923035,126.3776411
용두해수욕장,충남 보령시,041-933-0301,"['가족여행', '관광지', '나들이', '바다풍경', '아이와함께', '여름방학가볼만한곳']",https://cdn.visitkorea.or.kr/img/call?cmd=VIEW&id=93149b7b-9fbc-4dfb-b95e-889a6133ab48&thumb,충청남도 보령시 남포면 열린바다로 82-45,36.2601197,126.5427868
용문서원,충남 공주시,041-840-8207,"['관광지', '역사', '역사공부', '역사관광지', '역사를품은곳', '역사문화재', '역사속']",https://cdn.visitkorea.or.kr/img/call?cmd=VIEW&id=2e9bef4d-1cf3-486f-890d-0bf6687670d9&thumb,충청남도 공주시 중동골길 54-12,36.453611,127.1259369
용봉사(홍성),충남 홍성군,041-632-8917,"['관광지', '불교', '불교문화', '불교사찰', '사찰', '사찰여행', '역사', '자연속으로']",https://cdn.visitkorea.or.kr/img/call?cmd=VIEW&id=undefined&thumb,충청남도 홍성군 홍북면 용봉산1길 109,36.6502438,126.6557194
용봉산,충남 홍성군,041-630-1785,"['관광지', '자연']",https://cdn.visitkorea.or.kr/img/call?cmd=VIEW&id=0ea0a445-d4d6-4fd7-a956-b0807211757d&thumb,충청남도 홍성군 홍북면 용봉산2길 87,36.6449358,126.6568158
용봉산자연휴양림,충남 홍성군,041-630-1785,"['관광지', '자연']",https://cdn.visitkorea.or.kr/img/call?cmd=VIEW&id=2869479d-2906-4c2f-ad1a-96e5c1e0b123&thumb,충청남도 홍성군 홍북면 용봉산2길 87,36.6449358,126.6568158
용비저수지,충남 서산시,041-660-2114,"['경치여행', '경치좋은곳', '관광지', '산책하기좋은곳', '자연관광지', '자연속으로']",https://cdn.visitkorea.or.kr/img/call?cmd=VIEW&id=fe923267-2c7e-492e-817c-a93b810ab891&thumb,충청남도 서산시 운산면 용현리,36.7562622,126.6028203
용암사(논산),충남 논산시,041-745-4952,"['관광지', '불교', '불교문화', '사찰', '사찰여행', '역사', '자연속으로', '자연환경']",https://cdn.visitkorea.or.kr/img/call?cmd=VIEW&id=null&thumb,충청남도 논산시 강경읍 강경로66번길 28,36.1514542,127.0165474
용장천들,충남 서산시,,"['관광지', '꽃밭', '사진찍기좋은곳', '사진촬영', '사진촬영명소', '산책코스', '산책하기좋은곳']",https://cdn.visitkorea.or.kr/img/call?cmd=VIEW&id=3fb6d001-ce20-41f5-95b3-35631ba303c8&thumb,충청남도 서산시 운산면,36.8106976,126.5806326
우도(서산),충남 서산시,041-660-2114,"['관광지', '자연']",https://cdn.visitkorea.or.kr/img/call?cmd=VIEW&id=c036a377-8ff2-4445-ac62-4c11486c4858&thumb,충청남도 서산시 지곡면 도성마동길,36.876804,126.4011115
우산성,충남 청양군,041-940-2278,"['관광지', '역사', '역사공부', '역사관광지', '역사를품은곳', '역사문화재', '역사속']",https://cdn.visitkorea.or.kr/img/call?cmd=VIEW&id=ad189833-a567-4645-8bc9-e1f301d99cee&thumb,충청남도 청양군 청양읍 백천리,36.4672178,126.8192223
운여해변,충남 태안군,041-670-2543,"['관광지', '운여해변', '태안', '해수욕장']",https://cdn.visitkorea.or.kr/img/call?cmd=VIEW&id=207e7d34-b478-473c-9cc6-1aca243d21ba&thumb,충청남도 태안군 고남면 장삼포로 535-57,36.4295965,126.3597273
웅도,충남 서산시,,"['가족과함께', '관광지', '아이와함께', '언택트관광지_100선', '자연', '자연마을']",https://cdn.visitkorea.or.kr/img/call?cmd=VIEW&id=af3e8140-c7d9-45b5-84ed-5bcb784f89e6&thumb,충청남도 서산시 대산읍 웅도1길 92,36.9195329,126.3832902
웅비탑,충남 공주시,041-856-7700,"['관광지', '기차여행', '나들이', '아이와함께', '역사속', '역사속으로', '역사여행']",https://cdn.visitkorea.or.kr/img/call?cmd=VIEW&id=36159854-8e5c-4543-924c-833d8812d90b&thumb,충청남도 공주시 백제큰길 2104,36.4714997,127.1116808
웅천돌문화공원,충남 보령시,041-931-7688,"['가족과함께', '관광지', '기획전시', '보령가볼만한곳', '산책하기좋은곳', '아이와함께']",https://cdn.visitkorea.or.kr/img/call?cmd=VIEW&id=911467f0-1ce3-4b9c-8b16-97555818c8b2&thumb,충청남도 보령시 웅천읍 구장터3길 102,36.2393112,126.5908877
원산도,충남 보령시,041-932-2023,"['2020_휴가철찾아가고싶은_33섬', '가족과함께', '관광지', '바다내음', '아이와함께']",https://cdn.visitkorea.or.kr/img/call?cmd=VIEW&id=26cf570b-cf9d-4beb-9a03-e36c5770f9d5&thumb,충청남도 보령시 오천면 원산도3길 37,36.3689385,126.4211646
원청리 해안사구,충남 태안군,041-670-2762,"['걷기길', '걷기여행', '관광지', '달산포해수욕장', '드르니항', '마검포', '마검포']",https://cdn.visitkorea.or.kr/img/call?cmd=VIEW&id=c6f27753-0e67-4f08-8d1b-bf02c55ecfff&thumb,충청남도 태안군 남면 몽산포길 65-27,36.6699444,126.2875478
월성위김한신묘,충남 예산군,041-339-7332,"['관광지', '역사', '역사공부', '역사관광', '역사관광지', '역사를품은곳', '역사문화재']",https://cdn.visitkorea.or.kr/img/call?cmd=VIEW&id=c6e3c4c2-1fa8-4fe5-a4a0-750e8d511a1a&thumb,충청남도 예산군 신암면 용궁리,36.7498587,126.80153
월하성어촌체험마을,충남 서천군,041-952-7060,"['가족과함께', '갯벌체험', '관광지', '바다', '바다풍경', '아이와함께', '어촌', '어촌마을']",https://cdn.visitkorea.or.kr/img/call?cmd=VIEW&id=7d5e72e6-9529-488e-8001-efa20baccb67&thumb,충청남도 서천군 서면 월하성길 96,36.1328548,126.5623066
위례산과 위례성지,충남 천안시,041-521-5163,"['관광지', '역사', '역사공부', '역사를품은곳', '역사문화재', '역사속', '역사속']",https://cdn.visitkorea.or.kr/img/call?cmd=VIEW&id=11988372-dba1-47c4-bce6-ff4a20f3a227&thumb,충청남도 천안시 동남구 북면,36.8274371,127.2732331
유부도,충남 서천군,041-950-4114,"['관광지', '자연']",https://cdn.visitkorea.or.kr/img/call?cmd=VIEW&id=undefined&thumb,충청남도 서천군 장항읍 유부도길,35.993869,126.6016636
윤창암(보령),충남 보령시,041-934-2142,"['관광지', '불교', '불교문화', '사찰', '사찰여행', '역사', '자연속으로', '자연환경']",https://cdn.visitkorea.or.kr/img/call?cmd=VIEW&id=null&thumb,충청남도 보령시 남포면 창동1길 233-25,36.3138329,126.6283981
은선폭포,충남 공주시,042-825-3002,"['관광지', '자연']",https://cdn.visitkorea.or.kr/img/call?cmd=VIEW&id=45ffc745-2f05-4037-8bdb-8faabce837c0&thumb,충남 공주시 반포면 학봉리,36.3521852,127.2526249
은진향교,충남 논산시,041-746-5412,"['관광지', '역사', '역사공부', '역사관광지', '역사를품은곳', '역사문화재', '역사속']",https://cdn.visitkorea.or.kr/img/call?cmd=VIEW&id=8192ebed-0731-4849-a0c6-10a2b9fa4e6c&thumb,충청남도 논산시 은진면 탑정로427번길 14-1,36.1709594,127.1120882
은진향교 대성전,충남 논산시,041-746-5412,"['관광지', '역사', '역사공부', '역사관광지', '역사를품은곳', '역사문화재', '역사속']",https://cdn.visitkorea.or.kr/img/call?cmd=VIEW&id=582331c9-e525-42f5-a4ed-602e7c7a5203&thumb,충청남도 논산시 은진면 탑정로427번길 14-1,36.1709594,127.1120882
은포리해안도로,충남 보령시,041-930-0980,"['경치좋은곳', '관광지', '남녀노소', '드라이브여행', '드라이브코스', '바다경치']",https://cdn.visitkorea.or.kr/img/call?cmd=VIEW&id=e694f95e-e297-4978-af1d-010f6e596fee&thumb,충청남도 보령시 주교면 송학리,36.3863097,126.5295863
음봉 꾀꼴성마을,충남 아산시,041-537-3641,"['가족과함께', '관광지', '농촌마을', '농촌여행', '산책하기좋은곳', '아이와함께']",https://cdn.visitkorea.or.kr/img/call?cmd=VIEW&id=0b8b546a-f0b5-4dc6-8bac-3cbf5e195564&thumb,충청남도 아산시 음봉면 음봉로337번길 7-115,36.850229,127.0457721
의병승장비,충남 금산군,041-750-2384,"['관광지', '역사', '역사공부', '역사관광지', '역사를품은곳', '역사문화재', '역사속']",https://cdn.visitkorea.or.kr/img/call?cmd=VIEW&id=b598dc8b-f0d9-4d26-ac62-b779dbb4284d&thumb,충청남도 금산군 남이면 심천길 8-9,36.052206,127.4762033
의열사(부여),충남 부여군,041-830-2623,"['관광지', '역사', '역사공부', '역사관광지', '역사를품은곳', '역사문화재', '역사속']",https://cdn.visitkorea.or.kr/img/call?cmd=VIEW&id=fc091d2f-9d09-414b-84a7-94ab60b2864b&thumb,충청남도 부여군 부여읍 의열로29번길 11-33,36.2803555,126.9162241
의항해수욕장,충남 태안군,041-670-2691,"['가족여행', '관광지', '바다낚시', '바다풍경', '아이와함께', '의항해수욕장', '자연']",https://cdn.visitkorea.or.kr/img/call?cmd=VIEW&id=b3e31edc-936f-4c75-ac05-83cc25b5c96c&thumb,충청남도 태안군 소원면 의항리,36.7979007,126.1519171
이동녕선생 생가지,충남 천안시,,"['관광지', '역사', '역사공부', '역사관광지', '역사를품은곳', '역사문화재', '역사속']",https://cdn.visitkorea.or.kr/img/call?cmd=VIEW&id=17cb2224-ffd9-4147-8e84-1ae21abe6e05&thumb,충청남도 천안시 동남구 목천읍 동리4길 36,36.7905069,127.2394098
이상재선생 생가지,충남 서천군,041-950-4741,"['관광지', '역사', '역사공부', '역사관광', '역사관광지', '역사를품은곳', '역사문화']",https://cdn.visitkorea.or.kr/img/call?cmd=VIEW&id=f769de89-a414-442b-acd3-3aecdb5b8ec8&thumb,충청남도 서천군 한산면 종단길 71,36.0998815,126.8062152
이심원충신정려현판,충남 계룡시,042-840-2403,"['관광지', '역사', '역사공부', '역사관광지', '역사를품은곳', '역사문화재', '역사속']",https://cdn.visitkorea.or.kr/img/call?cmd=VIEW&id=f91f598f-f732-4d72-a53e-7ba2dc08ff2d&thumb,충청남도 계룡시 금암1길 7,36.2799907,127.2469363
이안숲속,충남 공주시,041-855-2008,"['가족여행', '관광지', '수목원', '여름여행', '이안숲속', '자연', '자연&숲', '충청권']",https://cdn.visitkorea.or.kr/img/call?cmd=VIEW&id=0b6c0017-c9ec-4264-99db-1b223359d274&thumb,충청남도 공주시 반포면 수목원길 25,36.4225733,127.199946
이원반도,충남 태안군,041-670-2885,"['관광지', '자연']",https://cdn.visitkorea.or.kr/img/call?cmd=VIEW&id=b31ccce5-76c4-4ada-a2f5-1fe517691636&thumb,충청남도 태안군 이원면 내리,36.9520615,126.2947774
이응로선생사적지(수덕여관),충남 예산군,041-339-7332,"['관광지', '역사', '역사공부', '역사관광지', '역사를품은곳', '역사문화재', '역사속']",https://cdn.visitkorea.or.kr/img/call?cmd=VIEW&id=dc05310d-7d72-4631-acec-90b4451e678d&thumb,충청남도 예산군 덕산면 사천리,36.653595,126.6204101
이종일선생생가지,충남 태안군,041-670-5937,"['가족여행', '관광지', '아이와함께', '역사', '역사공부', '역사관광지', '역사를품은곳']",https://cdn.visitkorea.or.kr/img/call?cmd=VIEW&id=563e2972-acef-42f8-8e65-d948371dc368&thumb,충청남도 태안군 원북면 옥파로 199-7,36.8997931,126.205045
이지함선생묘,충남 보령시,041-930-6553,"['관광지', '역사', '역사공부', '역사관광지', '역사문화재', '역사속', '역사속으로']",https://cdn.visitkorea.or.kr/img/call?cmd=VIEW&id=7582e7a0-a3cb-4ee9-8604-94e90244cb27&thumb,충청남도 보령시 주교면 토정로 1048,36.3890437,126.50762
이충무공사적비,충남 아산시,041-536-8773,"['관광지', '기록유산', '역사', '역사공부', '역사를품은곳', '역사문화재', '역사속']",https://cdn.visitkorea.or.kr/img/call?cmd=VIEW&id=b4cb2714-858f-4a14-93ea-0a876014f94a&thumb,충청남도 아산시 온천대로 1496,36.7804269,127.0034914
인취사(아산),충남 아산시,041-542-6441,"['관광지', '불교', '불교문화', '불교사찰', '사찰', '사찰여행', '산사', '역사', '연중무휴']",https://cdn.visitkorea.or.kr/img/call?cmd=VIEW&id=b8f7ef6d-60fc-4178-a39e-2c969932c770&thumb,충청남도 아산시 신창면 서부남로790번길 20-52,36.78491,126.9270202
일락사(서산),충남 서산시,041-688-0812,"['관광지', '불교', '불교문화', '사찰', '사찰여행', '역사', '자연속으로', '자연환경']",https://cdn.visitkorea.or.kr/img/call?cmd=VIEW&id=2a69dddb-d5fe-4b96-9db9-dbeaac28a307&thumb,충청남도 서산시 해미면 일락골길 501,36.7280504,126.5887617
임천향교,충남 부여군,041-830-2623,"['관광지', '역사', '역사공부', '역사관광지', '역사를품은곳', '역사문화재', '역사속']",https://cdn.visitkorea.or.kr/img/call?cmd=VIEW&id=4f7a022e-a9ed-411b-8bee-20e2f43188b3&thumb,충청남도 부여군 임천면 성흥로75번길 6-7,36.1925838,126.892363
자온대,충남 부여군,041-830-2623,"['경치좋은곳', '관광지', '역사', '역사유적지', '자연좋은곳', '자연환경', '자온대']",https://cdn.visitkorea.or.kr/img/call?cmd=VIEW&id=427ec040-5ea2-48b0-9c6d-31ee98435522&thumb,충청남도 부여군 규암면 규암리,36.2748221,126.8878072
작천계곡,충남 청양군,041-940-2492,"['관광지', '여름피서지', '자연', '작천계곡', '충청권']",https://cdn.visitkorea.or.kr/img/call?cmd=VIEW&id=8633dae0-6ea7-4bf4-a051-a9d1670bfdf7&thumb,충청남도 청양군 대치면,36.4444167,126.8321305
장고도,충남 보령시,041-932-2023,"['2020_휴가철찾아가고싶은_33섬', '가족과함께', '관광지', '낚시', '섬', '아이와함께']",https://cdn.visitkorea.or.kr/img/call?cmd=VIEW&id=934b2ae4-0636-4efe-a3b6-a5e40c4f84e9&thumb,충청남도 보령시 오천면,36.4383534,126.5224226
장곡사(충남),충남 청양군,041-942-6769,"['관광지', '불교', '불교사찰', '사찰', '사찰여행', '역사', '자연좋은곳', '자연환경']",https://cdn.visitkorea.or.kr/img/call?cmd=VIEW&id=1b7c98c9-5382-467d-a028-4c38ca2483c2&thumb,충청남도 청양군 대치면 장곡길 241,36.4172886,126.8595665
장돌해수욕장,충남 태안군,041-670-2114,"['관광지', '자연']",https://cdn.visitkorea.or.kr/img/call?cmd=VIEW&id=a6db2436-d8df-4a33-88e2-2d8fad11b84c&thumb,충청남도 태안군 고남면 장곡리,36.4309938,126.3780996
장삼포해수욕장,충남 태안군,041-670-2691,"['가족여행', '관광지', '레포츠', '바다낚시', '바다풍경', '아이와함께', '연인과함께']",https://cdn.visitkorea.or.kr/img/call?cmd=VIEW&id=52e60758-6556-44a6-a5fa-81b853250c71&thumb,충청남도 태안군 고남면 장곡리,36.4309938,126.3780996
장안해수욕장,충남 보령시,041-930-3901,"['가족여행', '관광지', '나들이', '바다풍경', '아이와함께', '여름방학가볼만한곳']",https://cdn.visitkorea.or.kr/img/call?cmd=VIEW&id=76ccf666-85df-46db-90c2-c81709cc8772&thumb,충청남도 보령시 웅천읍 장안1길 35,36.1991894,126.5409316
장항 스카이워크 (기벌포 해전 전망대),충남 서천군,041-956-5505,"['가족여행', '경치좋은곳', '관광지', '바다경치', '이색체험', '장항스카이워크']",https://cdn.visitkorea.or.kr/img/call?cmd=VIEW&id=cf1bf9af-64b6-4366-a4eb-50c1997468c9&thumb,충청남도 서천군 장항읍 장항산단로34번길 74-45,36.0223212,126.6653907
장항송림산림욕장 (장항 솔숲),충남 서천군,041-950-6300,"['가족과함께', '걷기길', '관광지', '바다풍경', '산책하기좋은곳', '자연', '장항솔숲']",https://cdn.visitkorea.or.kr/img/call?cmd=VIEW&id=1fa63691-374f-479a-a916-2fb1c16ec71c&thumb,충청남도 서천군 장항읍,36.0105645,126.7002835
적벽강 휴양의 집,충남 금산군,041-751-7142,"['관광지', '농촌체험휴양마을', '드라마촬영지', '레포츠여행', '레포츠체험', '복합레포츠']",https://cdn.visitkorea.or.kr/img/call?cmd=VIEW&id=4a5e3e98-aa33-4fae-a287-22fda0068082&thumb,충청남도 금산군 부리면 수통1길 17,36.0505608,127.5913195
적벽강(금산),충남 금산군,041-750-2371,"['관광지', '자연']",https://cdn.visitkorea.or.kr/img/call?cmd=VIEW&id=520a77a4-1aef-48cd-b78e-cd87e399f193&thumb,충청남도 금산군 부리면 적벽강로 697 일원,36.0505608,127.5913195
전견훤묘(견훤왕릉),충남 논산시,041-746-5412,"['견훤왕릉', '관광지', '역사', '역사공부', '역사관광지', '역사를품은곳', '역사문화재']",https://cdn.visitkorea.or.kr/img/call?cmd=VIEW&id=e3e653b8-084a-4f2d-a50f-bad8f02dbc0b&thumb,충청남도 논산시 연무읍 왕릉로 122,36.1187419,127.0859024
정각사(부여),충남 부여군,041-836-6413,"['관광지', '불교', '불교문화', '사찰', '사찰여행', '역사', '연중무휴', '자연속으로']",https://cdn.visitkorea.or.kr/img/call?cmd=VIEW&id=92d60667-2c0d-410f-a819-e8bcf87f597e&thumb,충청남도 부여군 석성면 왕릉로정각사길 165,36.2562928,126.9831388
정동호 가옥,충남 예산군,041-339-7332,"['관광지', '역사', '역사공부', '역사관광지', '역사를품은곳', '역사문화재', '역사속']",https://cdn.visitkorea.or.kr/img/call?cmd=VIEW&id=67da5eca-1fad-4fa4-8d8e-06d889be792e&thumb,충청남도 예산군 고덕면 지곡오추길 133-62,36.7638032,126.7198067
정산향교,충남 청양군,041-940-4982,"['관광지', '역사', '역사공부', '역사관광지', '역사를품은곳', '역사문화재', '역사속']",https://cdn.visitkorea.or.kr/img/call?cmd=VIEW&id=1b372748-0d90-4df8-9285-9294e4739838&thumb,충청남도 청양군 정산면 칠갑산로 1849-29,36.4157573,126.9441112
정순왕후생가,충남 서산시,041-660-2247,"['관광지', '역사', '역사공부', '역사관광지', '역사를품은곳', '역사문화재', '역사속']",https://cdn.visitkorea.or.kr/img/call?cmd=VIEW&id=a383c0d7-b353-4dac-80c6-1aa924d99685&thumb,충청남도 서산시 음암면 한다리길 39,36.7408205,126.5190131
정암사(홍성),충남 홍성군,041-641-0488,"['관광지', '불교', '불교문화', '사찰', '사찰여행', '역사', '자연속으로', '자연환경']",https://cdn.visitkorea.or.kr/img/call?cmd=VIEW&id=null&thumb,충청남도 홍성군 광천읍 오서길 625,36.4707785,126.64667
정혜사(청양),충남 청양군,041-943-7976,"['관광지', '역사', '역사공부', '역사관광지', '역사를품은곳', '역사문화재', '역사속']",https://cdn.visitkorea.or.kr/img/call?cmd=VIEW&id=f12b299a-1bf6-4675-ae8b-29b0479dff3e&thumb,충청남도 청양군 장평면 상지길 165-10,36.3693206,126.8558041
조개부리마을,충남 태안군,041-673-7006,"['가족과함께', '갯벌', '갯벌체험', '관광지', '바다', '바다경치', '바다내음', '생태']",https://cdn.visitkorea.or.kr/img/call?cmd=VIEW&id=388e9511-7c07-4daa-a79a-bfdb5409278d&thumb,충청남도 태안군 고남면 옷점길 141-26,36.4141975,126.4016933
조류생태전시관,충남 서천군,041-956-4002,"['가족여행', '관광지', '기차여행', '나들이', '박물관', '아이와함께', '이색체험']",https://cdn.visitkorea.or.kr/img/call?cmd=VIEW&id=06c4a34f-107c-4184-afbe-1ee75cdb0264&thumb,충청남도 서천군 마서면 장산로 916,36.0227534,126.7427377
조병옥박사 생가지,충남 천안시,041-521-5163,"['갇기여행', '관광지', '교과서속여행', '사계절', '아이와함께', '역사', '역사관광지']",https://cdn.visitkorea.or.kr/img/call?cmd=VIEW&id=14910f47-f599-4620-8f1f-5aa9b0d53c60&thumb,충청남도 천안시 동남구 병천면 유관순길 249,36.7516571,127.3147218
조양문,충남 홍성군,041-630-1688,"['관광지', '역사', '역사공부', '역사관광지', '역사를품은곳', '역사문화재', '역사속']",https://cdn.visitkorea.or.kr/img/call?cmd=VIEW&id=96ab769b-2ec1-4498-b896-e919128ad587&thumb,충청남도 홍성군 홍성읍 아문길 27,36.6013022,126.6608855
조왕사(부여),충남 부여군,041-835-4091,"['관광지', '불교', '불교문화', '사찰', '사찰여행', '역사', '연중무휴', '자연환경']",https://cdn.visitkorea.or.kr/img/call?cmd=VIEW&id=472d7551-73da-4062-bc1c-88a845b3c5c8&thumb,충청남도 부여군 부여읍 계백로 334-47,36.2777266,126.9213004
조헌사당(표충사),충남 금산군,041-750-2384,"['관광지', '역사', '역사공부', '역사관광지', '역사를품은곳', '역사문화재', '역사속']",https://cdn.visitkorea.or.kr/img/call?cmd=VIEW&id=87e682aa-d249-4918-8b9f-c165838a5373&thumb,충청남도 금산군 복수면 수심대길 32,36.1640062,127.3948415
죽도(보령),충남 보령시,041-932-2023,"['관광지', '자연']",https://cdn.visitkorea.or.kr/img/call?cmd=VIEW&id=9a22a973-2b24-4f34-b9b1-c1ad92fafbf7&thumb,충청남도 보령시 남포면 남포방조제로 408-54,36.2773366,126.5376765
죽도(홍성),충남 홍성군,041-630-9609,"['관광지', '자연']",https://cdn.visitkorea.or.kr/img/call?cmd=VIEW&id=9afa5e44-8e9a-45a2-962f-15211e62daab&thumb,충청남도 홍성군 서부면 죽도길 8,36.5193052,126.4411779
죽림서원,충남 논산시,041-730-3226,"['관광지', '역사', '역사공부', '역사관광지', '역사를품은곳', '역사문화재', '역사속']",https://cdn.visitkorea.or.kr/img/call?cmd=VIEW&id=1ddfd5aa-6766-4f03-b6c5-4c37a8eb0c2f&thumb,충청남도 논산시 강경읍 금백로 20-3,36.1552392,127.0093077
죽사(서산),충남 서산시,041-662-2438,"['관광지', '불교', '불교문화', '사찰', '사찰여행', '역사', '전통사찰', '종교', '한국불교']",https://cdn.visitkorea.or.kr/img/call?cmd=VIEW&id=00d2da59-2fce-4685-a905-c503d4691420&thumb,충청남도 서산시 인지면 갓고개길 242-24,36.7930997,126.4126626
중리어촌체험마을,충남 서산시,041-665-9498,"['가족체험여행', '관광지', '레포츠체험', '마을축제', '이색체험', '전시관', '중리어촌체험마을']",https://cdn.visitkorea.or.kr/img/call?cmd=VIEW&id=d107f2c3-d812-46f9-9dd0-6775c345e30c&thumb,충청남도 서산시 지곡면 어름들2길 66,36.8803605,126.3845472
중앙호수공원 카페거리,충남 서산시,041-660-2511,"['관광지', '산책로', '산책하기', '산책하기좋은곳', '아이와함께', '연인과함께']",https://cdn.visitkorea.or.kr/img/call?cmd=VIEW&id=8bca4007-9b9b-4581-b0cc-93bdc4535d5e&thumb,충청남도 서산시 호수공원4로 27,36.7748259,126.4490918
지장정사(논산),충남 논산시,041-732-5629,"['관광지', '불교', '불교문화', '사찰', '사찰여행', '역사', '자연좋은곳', '자연환경']",https://cdn.visitkorea.or.kr/img/call?cmd=VIEW&id=ec07967c-d184-47b4-acdf-496e9d6fc6f4&thumb,충청남도 논산시 노성면 화곡안길 103,36.3296739,127.1130039
지중해마을,충남 아산시,041-547-2246,"['감성사진', '관광지', '데이트장소추천', '사진찍기', '사진찍기좋은곳', '사진촬영']",https://cdn.visitkorea.or.kr/img/call?cmd=VIEW&id=6864a352-2949-4909-b95a-b5691a0f3df4&thumb,충청남도 아산시 탕정면 탕정면로8번길 55-7,36.7975413,127.0605217
지천구곡,충남 청양군,041-940-2700,"['관광지', '영화촬영지', '자연', '적과의동침', '지천구곡', '충청권']",https://cdn.visitkorea.or.kr/img/call?cmd=VIEW&id=7f20d1d1-e5ec-4a30-b352-5356afa99fed&thumb,충청남도 청양군 대치면 지천구곡로 424-7,36.3975955,126.8352697
직산향교,충남 천안시,041-521-5163,"['관광지', '역사', '역사공부', '역사관광지', '역사를품은곳', '역사문화재', '역사속']",https://cdn.visitkorea.or.kr/img/call?cmd=VIEW&id=22bf572a-aed6-415e-a6c1-b1cf0f4dfd0e&thumb,충청남도 천안시 서북구 직산읍 군서1길 35-6,36.9027583,127.1589353
진산향교,충남 금산군,041-750-2384,"['관광지', '역사', '역사공부', '역사관광지', '역사를품은곳', '역사문화재', '역사속']",https://cdn.visitkorea.or.kr/img/call?cmd=VIEW&id=3dc78edb-e381-4cc2-b671-cc160b76a756&thumb,충청남도 금산군 진산면 교촌1길 45-20,36.1544166,127.3769115
진악산,충남 금산군,041-750-2626,"['관광지', '자연']",https://cdn.visitkorea.or.kr/img/call?cmd=VIEW&id=undefined&thumb,충청남도 금산군 남이면,36.0453507,127.4367046
차브민,충남 당진시,041-352-7261,"['관광지', '이색체험', '자연속으로', '자연여행', '자연좋은곳', '자연환경', '차브민']",https://cdn.visitkorea.or.kr/img/call?cmd=VIEW&id=476987cd-52cb-4a5c-b488-db23ee89b2c8&thumb,충청남도 당진시 송산면 석문방조제로 486-39,36.9803747,126.669972
참샘골 호박농원,충남 서산시,041-663-8180,"['관광지', '농촌마을', '농촌여행', '농촌체험', '농촌체험학습', '아이와함께', '이색체험']",https://cdn.visitkorea.or.kr/img/call?cmd=VIEW&id=f4091b23-d761-4a9a-b743-358ed1f67692&thumb,충청남도 서산시 대산읍 운산나루터길 71,36.9287956,126.4673359
창강서원,충남 부여군,041-830-2623,"['관광지', '역사', '역사공부', '역사관광지', '역사를품은곳', '역사문화재', '역사속']",https://cdn.visitkorea.or.kr/img/call?cmd=VIEW&id=bc4f7c0a-e21b-4d3c-a871-78fdf80213fd&thumb,충청남도 부여군 부여읍 삼충로서원북길 13-2,36.3344117,126.9777236
창렬사,충남 부여군,041-830-2623,"['관광지', '역사', '역사공부', '역사관광지', '역사를품은곳', '역사문화재', '역사속']",https://cdn.visitkorea.or.kr/img/call?cmd=VIEW&id=9c095aea-cd3b-44e9-a7b8-988bc9528ef3&thumb,충청남도 부여군 구룡면 금사남로 78,36.2451979,126.7966816
천내강,충남 금산군,041-750-2371,"['관광지', '자연']",https://cdn.visitkorea.or.kr/img/call?cmd=VIEW&id=d5cc9d65-1236-4b6a-8707-53cb85325267&thumb,충청남도 금산군 제원면,36.1125373,127.5460902
천리포수목원,충남 태안군,041-672-9982,"['가족여행', '관광지', '수목원', '자연', '자연좋은곳', '천리포수목원', '힐링']",https://cdn.visitkorea.or.kr/img/call?cmd=VIEW&id=a29f4fc4-e757-4323-994a-278575198f1c&thumb,충청남도 태안군 소원면 천리포1길 187,36.7987541,126.1496077
천리포해수욕장,충남 태안군,041-670-2691,"['가족여행', '관광지', '나들이', '데이트코스', '바다풍경', '아이와함께', '여름여행']",https://cdn.visitkorea.or.kr/img/call?cmd=VIEW&id=0775300d-be17-4bda-a2a6-37979cc022ba&thumb,충청남도 태안군 소원면 의항리,36.7979007,126.1519171
천마산,충남 계룡시,042-840-2114,"['관광지', '자연']",https://cdn.visitkorea.or.kr/img/call?cmd=VIEW&id=undefined&thumb,충남 계룡시 금암동,36.2732826,127.2522952
천방산,충남 서천군,041-952-9525,"['관광지', '자연']",https://cdn.visitkorea.or.kr/img/call?cmd=VIEW&id=851a02cb-dcb6-4443-b449-39a1343b62e4&thumb,충청남도 서천군 문산면 신농리,36.1374142,126.7497248
천수만(철새도래지),충남 서산시,041-661-8054,"['관광지', '자연', '천수만', '철새도래지', '충청권', '탐조관광명소']",https://cdn.visitkorea.or.kr/img/call?cmd=VIEW&id=b0668b0d-a21b-4a24-8745-bff840eaeae4&thumb,충남 서산시 부석면,36.7148465,126.3935442
천안 노은정,충남 천안시,041-521-5163,"['관광지', '역사', '역사관광', '역사관광지', '역사를품은곳', '역사문화재', '역사속']",https://cdn.visitkorea.or.kr/img/call?cmd=VIEW&id=bf408315-f360-4088-9c37-912a317bfeb7&thumb,충청남도 천안시 동남구 병천면 도원리,36.7828555,127.3145177
천안 두아람마을 [농촌전통테마],충남 천안시,041-521-4701,"['가족여행', '가족체험', '관광지', '농촌마을', '농촌체험', '두아람마을', '아이와함께']",https://cdn.visitkorea.or.kr/img/call?cmd=VIEW&id=bdd57e96-3c4e-4b66-b717-fa8af49e1d94&thumb,충청남도 천안시 동남구 광덕면 보산원4길 11,36.6915386,127.0759499
천안 병천순대거리,충남 천안시,1577-3900,"['관광지', '남녀노소', '맛집', '먹방', '먹자골목', '순대', '순대국밥', '숨은맛집']",https://cdn.visitkorea.or.kr/img/call?cmd=VIEW&id=c394e8e0-6437-426a-aa79-7a4723be9f65&thumb,충청남도 천안시 동남구 병천면 아우내순대길 28,36.7600841,127.2986452
천안 봉선홍경사 갈기비,충남 천안시,041-521-2038,"['가족여행', '관광지', '교과서속여행', '아이와함께', '역사공부', '역사관광지']",https://cdn.visitkorea.or.kr/img/call?cmd=VIEW&id=91beeba8-b58b-4b27-9b69-493f66768ae9&thumb,충청남도 천안시 서북구 성환읍 대홍3길 77-48,36.9431105,127.1347025
천안 유관순 열사 유적,충남 천안시,041-564-1223,"['3·1운동_100주년_여행지추천', '가족여행', '관광지', '교과서속여행', '아이와함께']",https://cdn.visitkorea.or.kr/img/call?cmd=VIEW&id=75da626e-b6ce-4891-9498-fe271082bbbd&thumb,충청남도 천안시 동남구 병천면 유관순길 38,36.7596383,127.3074615
천안 천흥사지 당간지주·오층석탑,충남 천안시,041-521-5163,"['관광지', '불교', '불교사찰', '사찰', '사찰여행', '석탑', '역사', '역사공부', '역사관광지']",https://cdn.visitkorea.or.kr/img/call?cmd=VIEW&id=00ddec28-49e2-4ea4-b923-1fb6aa96d511&thumb,충청남도 천안시 서북구 성거읍 천흥4길 115-5,36.8722858,127.213669
천안삼거리공원,충남 천안시,041-550-2445,"['가족여행', '걷기길', '관광지', '문화행사', '삼거리공원', '아이와함께', '연인과함께']",https://cdn.visitkorea.or.kr/img/call?cmd=VIEW&id=d7f3f0ec-6828-470f-9e5f-0eb14e880f6c&thumb,충청남도 천안시 동남구 충절로 410,36.7837024,127.168094
천안상록리조트,충남 천안시,041-560-9114,"['가족과함께', '관광지', '숙박시설', '아이와함께', '천안가볼만한곳', '추천숙박']",https://cdn.visitkorea.or.kr/img/call?cmd=VIEW&id=23687917-2608-4de5-9137-d8b0ac0275c3&thumb,충청남도 천안시 동남구 수신면 수신로 576,36.7420428,127.2873208
천안상록리조트 아쿠아피아,충남 천안시,041-560-9000,"['가족과함께', '가족휴양', '관광지', '수영장', '실내수영장', '연인과함께', '온천']",https://cdn.visitkorea.or.kr/img/call?cmd=VIEW&id=3ff07401-4bb2-4d35-8664-9e7667386f77&thumb,충청남도 천안시 동남구 수신면 수신로 576,36.7420428,127.2873208
천안역 (철도체험학습장),충남 천안시,041-557-7788,"['견학', '관광지', '산업관광', '안전교육', '이색체험', '직업체험', '진로상담', '천안역']",https://cdn.visitkorea.or.kr/img/call?cmd=VIEW&id=0de72c73-d28c-4872-8715-c4836e04c991&thumb,충청남도 천안시 동남구 대흥로 239,36.810144,127.1466733
천안향교,충남 천안시,041-521-5163,"['관광지', '역사', '역사공부', '역사관광지', '역사를품은곳', '역사문화재', '역사속']",https://cdn.visitkorea.or.kr/img/call?cmd=VIEW&id=5cd30e32-e527-4805-8cbb-4460bd9358ca&thumb,충청남도 천안시 동남구 향교1길 89,36.8176692,127.1728892
천장사(서산),충남 서산시,041-663-2074,"['관광지', '불교', '불교문화', '사찰여행', '역사', '자연속으로', '자연좋은곳', '자연환경']",https://cdn.visitkorea.or.kr/img/call?cmd=VIEW&id=fb0b1068-5df3-4ca9-99f1-9c2085a99bbc&thumb,충청남도 서산시 고북면 천장사길 100,36.6698313,126.571728
천장호,충남 청양군,041-940-2723,"['관광지', '낚시', '자연', '천장호', '충청권']",https://cdn.visitkorea.or.kr/img/call?cmd=VIEW&id=44355751-e424-4e22-afc3-c618980841e0&thumb,충청남도 청양군 정산면 천장호길 24-23,36.4139521,126.9191243
천장호 출렁다리,충남 청양군,041-940-2723,"['가족과함께', '경치좋은곳', '관광지', '남녀노소', '담양가볼만한곳', '사진찍기좋은곳']",https://cdn.visitkorea.or.kr/img/call?cmd=VIEW&id=76e86ce4-4af2-4c8c-a980-c3f5911495ca&thumb,충청남도 청양군 정산면 천장호길 24,36.4145314,126.9217978
천정대,충남 부여군,041-830-2623,"['관광지', '역사', '역사공부', '역사관광지', '역사를품은곳', '역사문화재', '역사속']",https://cdn.visitkorea.or.kr/img/call?cmd=VIEW&id=42da07d8-fe81-4b91-a1bd-032ebe627a9e&thumb,충청남도 부여군 규암면 호암리,36.3082298,126.918918
천호지(단대호수),충남 천안시,1577-3900,"['걷기여행', '걷기좋은길', '관광지', '데이트코스', '사계절', '산책하기', '아이와함께']",https://cdn.visitkorea.or.kr/img/call?cmd=VIEW&id=c03679a0-0867-410c-8e47-d457ce8d508b&thumb,충청남도 천안시 안서동,36.8392816,127.1895989
청라 은행마을 (보령),충남 보령시,070-7845-5060,"['관광지', '나홀로여행', '보령은행마을', '연인과함께', '은행나무', '자연', '자연마을']",https://cdn.visitkorea.or.kr/img/call?cmd=VIEW&id=e1521fa6-2da7-47c6-8788-5102c89eb23f&thumb,충청남도 보령시 청라면 오서산길 150-65,36.4273531,126.6753732
청산수목원,충남 태안군,041-675-0656,"['가족과함께', '가족여행', '관광지', '산책하기좋은곳', '수목원', '자연', '자연여행']",https://cdn.visitkorea.or.kr/img/call?cmd=VIEW&id=4868554b-214f-4da6-820f-70cbe66234e9&thumb,충청남도 태안군 남면 연꽃길 70,36.6871894,126.2973994
청양 다락골 줄무덤 성지,충남 청양군,041-943-8123,"['관광지', '다락골줄무덤성지', '성지순례', '역사', '역사를품은곳', '역사속', '역사속으로']",https://cdn.visitkorea.or.kr/img/call?cmd=VIEW&id=5c3e0dc8-3276-4ad8-af15-de3389fa7dbf&thumb,충청남도 청양군 화성면 다락골길 78-6,36.4433962,126.6924859
청양 은골구기자마을,충남 청양군,041-943-0670,"['가족과함께', '가족여행', '가족체험', '관광지', '농촌', '농촌마을', '농촌체험']",https://cdn.visitkorea.or.kr/img/call?cmd=VIEW&id=c59676e9-2805-4fac-9377-40a15d8feabe&thumb,충청남도 청양군 비봉면 은골길 119,36.5206881,126.7985053
청양 칠갑사니마을,충남 청양군,1557-1417,"['가족과함께', '관광지', '수상레포츠', '연인과함께', '자연마을', '자연환경', '체험']",https://cdn.visitkorea.or.kr/img/call?cmd=VIEW&id=83ca18a8-b61e-4b49-8df0-8ceeef18ca7d&thumb,충청남도 청양군 대치면 칠갑산로 668-23,36.4381001,126.8455246
청양 칠갑산 산꽃마을,충남 청양군,041-940-4163,"['가족과함께', '관광지', '농촌마을', '농촌여행', '농촌체험', '아이와함께', '체험']",https://cdn.visitkorea.or.kr/img/call?cmd=VIEW&id=ffb68a13-d685-42bf-b40d-074469d49307&thumb,충청남도 청양군 대치면 까치내로 1063-1,36.4093557,126.8358758
청양향교,충남 청양군,041-940-4982,"['관광지', '역사', '역사공부', '역사관광지', '역사를품은곳', '역사문화재', '역사속']",https://cdn.visitkorea.or.kr/img/call?cmd=VIEW&id=c864bb00-4a84-48b5-a547-ed3486e5a053&thumb,충청남도 청양군 청양읍 향교길 20-6,36.4548524,126.8155522
청일사,충남 부여군,041-830-2623,"['관광지', '역사', '역사공부', '역사관광지', '역사를품은곳', '역사문화재', '역사속']",https://cdn.visitkorea.or.kr/img/call?cmd=VIEW&id=19bf89b8-fa2e-4de0-bf8a-20730882a533&thumb,충청남도 부여군 홍산면 홍내로29번길 35-4,36.2273668,126.7633062
청포대해수욕장,충남 태안군,041-670-2691,"['가족여행', '관광지', '나들이', '데이트코스', '바다풍경', '아이와함께', '여름여행']",https://cdn.visitkorea.or.kr/img/call?cmd=VIEW&id=8af189e2-a9fc-4f45-a7b9-439c83f6fa9d&thumb,충청남도 태안군 남면 신온리,36.6151262,126.3014989
청풍사,충남 금산군,041-750-2384,"['관광지', '역사', '역사공부', '역사관광지', '역사를품은곳', '역사문화재', '역사속']",https://cdn.visitkorea.or.kr/img/call?cmd=VIEW&id=2cf5b621-57b0-4931-9c41-60aaa27645a6&thumb,충청남도 금산군 부리면 무금로 1688,36.063969,127.5472967
최영장군 사당,충남 홍성군,041-630-1688,"['관광지', '역사', '역사공부', '역사관광지', '역사를품은곳', '역사문화재', '역사속']",https://cdn.visitkorea.or.kr/img/call?cmd=VIEW&id=3b0baa0e-fde0-4d35-b3fd-e53411968a91&thumb,충청남도 홍성군 홍북읍 대안리,36.6371069,126.7394865
추사고택,충남 예산군,041-339-8242,"['가족여행', '가족체험여행', '관광지', '아이와함께', '역사', '전시관', '전통&역사문화체험']",https://cdn.visitkorea.or.kr/img/call?cmd=VIEW&id=c977daa1-a6f6-462e-bc36-1cd5c96e4876&thumb,충청남도 예산군 신암면 추사고택로 261,36.7468473,126.7997644
추사김정희선생고택·묘,충남 예산군,041-339-7332,"['관광지', '역사', '역사공부', '역사관광지', '역사를품은곳', '역사문화재', '역사속']",https://cdn.visitkorea.or.kr/img/call?cmd=VIEW&id=da75d055-85d0-41e7-a2d8-dd39591e8f63&thumb,충청남도 예산군 신암면 추사고택로 261,36.7468473,126.7997644
춘장대해수욕장,충남 서천군,041-950-4018,"['가족여행', '관광지', '바다풍경', '여름여행', '여름휴가', '연인과함께', '연중무휴']",https://cdn.visitkorea.or.kr/img/call?cmd=VIEW&id=dc4f081c-8a04-4110-8169-50bcd29f7331&thumb,충청남도 서천군 서면 춘장대길 20,36.1632311,126.5244154
충곡서원,충남 논산시,041-746-5412,"['관광지', '역사', '역사공부', '역사관광지', '역사를품은곳', '역사문화재', '역사속']",https://cdn.visitkorea.or.kr/img/call?cmd=VIEW&id=e26c1f65-f5af-4af6-abc3-c86a81de99c0&thumb,충청남도 논산시 부적면 충곡로269번길 60-7,36.198594,127.1772243
충남 서산빛들마을,충남 서산시,041-662-4001,"['관광지', '산책하기좋은곳', '서산빛들마을', '자연', '자연마을', '자연속으로']",https://cdn.visitkorea.or.kr/img/call?cmd=VIEW&id=6d3ad592-a3af-4970-8231-85a3c786e9a4&thumb,충청남도 서산시 부석면 마룡심포길 77-7,36.655534,126.3751289
충남 예산 대흥&응봉 [슬로시티],충남 예산군,041-331-3727,"['관광지', '역사', '역사관광지', '역사를품은곳', '역사속', '역사탐방', '자연마을']",https://cdn.visitkorea.or.kr/img/call?cmd=VIEW&id=3898fe66-0102-496c-af47-5cc0b3d78704&thumb,충청남도 예산군 대흥면 중리길 49,36.6066655,126.790366
충남 예산군,충남 예산군,041-339-7321,"['걷기길', '걷기여행', '관광지', '대흥면', '비석거리', '생태관광', '생태관광지']",https://cdn.visitkorea.or.kr/img/call?cmd=VIEW&id=0d6da79c-b195-40c6-b8e4-235e799aec13&thumb,충청남도 예산군 대흥면 전역,36.6067503,126.7883646
충의사 (매헌 윤봉길 의사 유적),충남 예산군,041-339-8232,"['가족여행', '관광지', '기념관', '아이와함께', '애국심', '애국정신', '애국지사']",https://cdn.visitkorea.or.kr/img/call?cmd=VIEW&id=b0675bf7-0470-4d97-a9b8-f7c7d58340d4&thumb,충청남도 예산군 덕산면 덕산온천로 183-5,36.6864601,126.6514507
충청남도 안전체험관,충남 천안시,041-559-9700,"['관광지', '교육여행', '교육프로그램', '아이와함께', '안전교육', '여름방학가볼만한곳']",https://cdn.visitkorea.or.kr/img/call?cmd=VIEW&id=2bfdb6f7-3372-419d-bc3b-44ce73f341b6&thumb,충청남도 천안시 동남구 태조산길 267-17,36.8186661,127.1965834
충현서원,충남 공주시,041-840-8207,"['관광지', '역사', '역사공부', '역사관광지', '역사를품은곳', '역사문화재', '역사속']",https://cdn.visitkorea.or.kr/img/call?cmd=VIEW&id=03ef3cd3-1538-4d23-a3f0-6756a46f1112&thumb,충청남도 공주시 반포면 공암장터길 28-6,36.3977257,127.2498064
칠갑산 장승공원,충남 청양군,041-940-2722,"['관광지', '문화예술', '산책길', '산책하기', '산책하기좋은곳', '자연좋은곳', '장승']",https://cdn.visitkorea.or.kr/img/call?cmd=VIEW&id=70d8dece-e2e0-4ec4-8626-f3d7fba27b31&thumb,충청남도 청양군 대치면 장곡리,36.412458,126.854967
칠갑산도립공원,충남 청양군,041-635-7690,"['가족여행', '관광지', '나들이', '데이트코스', '등산', '등산로', '아이와함께', '언택트관광지_100선']",https://cdn.visitkorea.or.kr/img/call?cmd=VIEW&id=12b69ed5-fbc0-4ce9-9138-f463a6049379&thumb,충청남도 청양군 대치면 장곡길 241,36.4172886,126.8595665
칠갑산자연휴양림,충남 청양군,041-940-2428,"['가족여행', '관광지', '나들이', '데이트코스', '등산로', '아이와함께', '연인과함께']",https://cdn.visitkorea.or.kr/img/call?cmd=VIEW&id=e0292f72-fc9a-4d63-ab6b-b13d52ed1ba0&thumb,충청남도 청양군 대치면 칠갑산로 668-103,36.431286,126.8421516
칠갑산천문대 스타파크,충남 청양군,041-940-2790,"['가족과함께', '경치좋은곳', '관광지', '교육여행', '아이와함께', '이색체험', '자연']",https://cdn.visitkorea.or.kr/img/call?cmd=VIEW&id=a53b2ae3-e90f-4b21-af14-70a4198e6fbd&thumb,충청남도 청양군 정산면 한티고개길 178-46,36.4335417,126.8898792
칠산서원,충남 부여군,041-830-2241,"['관광지', '역사', '역사공부', '역사관광지', '역사를품은곳', '역사문화재', '역사속']",https://cdn.visitkorea.or.kr/img/call?cmd=VIEW&id=06b723bc-f890-4764-abeb-f16476fcc135&thumb,충청남도 부여군 임천면 부흥로171번길 73,36.1656879,126.9127778
탑선리석탑,충남 금산군,041-750-2384,"['관광지', '문화재', '역사', '역사공부', '역사를품은곳', '역사문화재', '역사속']",https://cdn.visitkorea.or.kr/img/call?cmd=VIEW&id=b056d2f9-2a58-482d-93fd-a405ccb29b67&thumb,충청남도 금산군 금산읍 탑선길 36,36.1055458,127.4978293
탑정저수지,충남 논산시,041-741-2590,"['가족여행', '걷기길', '걷기여행', '관광지', '데이트코스', '사계절', '연인과함께']",https://cdn.visitkorea.or.kr/img/call?cmd=VIEW&id=270b21f7-cc4b-4ee5-8f54-34e10da32e5e&thumb,충남 논산시 부적면 신풍리,36.1829802,127.176227
태국사(태안),충남 태안군,041-675-1228,"['관광지', '불교', '불교문화', '사찰', '사찰여행', '역사', '자연속으로', '자연환경']",https://cdn.visitkorea.or.kr/img/call?cmd=VIEW&id=7b02ad1c-c0dc-4d90-97db-0f99348f7ea2&thumb,충청남도 태안군 근흥면 안흥성길 9-29,36.6833497,126.1582892
태안 노을지는갯마을,충남 태안군,041-674-5842,"['가족과함께', '가족체험', '관광지', '농촌체험', '농촌체험마을', '바다낚시', '바다전망']",https://cdn.visitkorea.or.kr/img/call?cmd=VIEW&id=094cb700-cad0-403a-9462-c30ad30169aa&thumb,충청남도 태안군 소원면 법산길 274-7,36.7415665,126.1957805
태안 동문리 마애삼존불입상,충남 태안군,041-672-1440,"['관광지', '역사', '역사공부', '역사관광지', '역사를품은곳', '역사문화재', '역사속']",https://cdn.visitkorea.or.kr/img/call?cmd=VIEW&id=b85f49d6-06ba-4cca-a938-cbb1419ec97b&thumb,충청남도 태안군 태안읍 원이로 78-132,36.7669674,126.2986777
태안 볏가리마을,충남 태안군,041-672-7296,"['경치좋은곳', '관광지', '농어촌체험마을', '농촌마을', '농촌여행', '농촌체험학습']",https://cdn.visitkorea.or.kr/img/call?cmd=VIEW&id=4d297057-69e2-466a-9582-1f60f5741b1c&thumb,충청남도 태안군 이원면 볏가리길 62,36.8984023,126.2939645
태안 신두리 해안사구,충남 태안군,041-670-5937,"['가족과함께', '가족여행', '걷기길', '관광지', '바다', '아이와함께', '연인과함께']",https://cdn.visitkorea.or.kr/img/call?cmd=VIEW&id=aefe2f52-e8bd-41da-872a-1ddf073a5bdc&thumb,충청남도 태안군 원북면 신두리,36.8342278,126.2026206
태안 안면도 모감주나무군락,충남 태안군,041-670-2114,"['관광지', '모감주나무', '모감주나무군락', '안면도가볼만한곳', '자연속으로']",https://cdn.visitkorea.or.kr/img/call?cmd=VIEW&id=9b395564-a57e-40dd-a077-59cb2a40239b&thumb,충청남도 태안군 안면읍 방포항길,36.5055765,126.336036
태안군 신두리 해안사구,충남 태안군,041-670-2692,"['관광지', '생태관광', '생태관광지', '신두리', '주말추천여행지', '태안', '태안신두리해안사구']",https://cdn.visitkorea.or.kr/img/call?cmd=VIEW&id=b5772bc4-0654-4d66-9f64-e9d2bbe4bd2c&thumb,충청남도 태안군 원북면 신두해변길 201-122,36.8436507,126.1950067
태안해안 국립공원,충남 태안군,041-672-9737,"['걷기길', '걷기여행', '관광지', '생태관광', '생태관광지', '안면도', '태안해안국립공원']",https://cdn.visitkorea.or.kr/img/call?cmd=VIEW&id=18bc4000-be3b-4ea0-b9dd-024b440bc06c&thumb,충청남도 태안군 태안읍 귀실길 9,36.7463975,126.2923265
태안해안국립공원,충남 태안군,041-672-9737,"['가족여행', '관광지', '나들이', '데이트코스', '바다풍경', '아이와함께', '연인과함께']",https://cdn.visitkorea.or.kr/img/call?cmd=VIEW&id=65156be6-f016-47d4-9b05-f3495668b102&thumb,충청남도 태안군 태안읍 귀실길 9,36.7463975,126.2923265
태안향교,충남 태안군,041-670-5937,"['관광지', '역사', '역사공부', '역사관광지', '역사를품은곳', '역사문화재', '역사속']",https://cdn.visitkorea.or.kr/img/call?cmd=VIEW&id=6d5023e8-f59f-4558-802b-b96a1277ae72&thumb,충청남도 태안군 태안읍 백화1길 7,36.7575758,126.2963338
태을암(태안),충남 태안군,041-672-1440,"['관광지', '불교', '불교문화', '사찰', '사찰여행', '역사', '자연속으로', '자연환경']",https://cdn.visitkorea.or.kr/img/call?cmd=VIEW&id=d4ddea69-7e82-4611-a50a-365b83bc5081&thumb,충청남도 태안군 태안읍 원이로 78-132,36.7669674,126.2986777
태조대왕 태실,충남 금산군,041-750-2384,"['관광지', '역사', '역사공부', '역사관광지', '역사를품은곳', '역사문화재', '역사속']",https://cdn.visitkorea.or.kr/img/call?cmd=VIEW&id=cb2163cb-b206-484b-9a81-c8be9ffa7126&thumb,충청남도 금산군 추부면 마전리,36.1935052,127.4616519
태조산(태조봉),충남 천안시,041-529-5116,"['관광지', '자연']",https://cdn.visitkorea.or.kr/img/call?cmd=VIEW&id=null&thumb,충청남도 천안시 동남구 목천읍 덕전리,36.8142139,127.2142563
태학산자연휴양림,충남 천안시,041-529-5108,"['관광지', '자연']",https://cdn.visitkorea.or.kr/img/call?cmd=VIEW&id=001c50a6-fa99-4136-b7a8-594a932e92f4&thumb,충청남도 천안시 동남구 풍세면 돈마루1길 188,36.7315705,127.0938931
퇴수서원,충남 부여군,041-830-2623,"['관광지', '역사', '역사공부', '역사관광지', '역사를품은곳', '역사문화재', '역사속']",https://cdn.visitkorea.or.kr/img/call?cmd=VIEW&id=21ab6d54-975d-4695-a7b1-b19bf999bb4e&thumb,충청남도 부여군 임천면 충절로1001번길 24,36.1755207,126.8921653
파도리해수욕장,충남 태안군,041-670-2691,"['가족과함께', '관광지', '바다풍경', '여름휴가', '자연', '충청권', '파도리해수욕장']",https://cdn.visitkorea.or.kr/img/call?cmd=VIEW&id=109fe720-473e-4f04-80ca-bfad212c5173&thumb,충청남도 태안군 소원면 모항파도로 49,36.7490506,126.135434
파라다이스 스파도고,충남 아산시,041-537-7100,"['가족과함께', '가족여행', '관광지', '데이트코스', '뷰티&스파', '실내수영장']",https://cdn.visitkorea.or.kr/img/call?cmd=VIEW&id=97a0161a-74e2-45a4-ac32-24c048b0d8f6&thumb,충청남도 아산시 도고면 도고온천로 176,36.7662476,126.8865625
팔괘정,충남 논산시,041-746-5412,"['관광지', '역사', '역사공부', '역사관광지', '역사를품은곳', '역사문화재', '역사속']",https://cdn.visitkorea.or.kr/img/call?cmd=VIEW&id=fa773c90-df57-49ed-ab2d-7cc0be9c456b&thumb,충청남도 논산시 강경읍,36.1581125,127.0179975
팔봉산(서산),충남 서산시,041-662-2004,"['가족여행', '관광지', '등산', '등산로', '사계절', '아이와함께', '연인과함께', '자연']",https://cdn.visitkorea.or.kr/img/call?cmd=VIEW&id=8084ced6-56ce-4e12-a759-94de85fa3dc9&thumb,충청남도 서산시 팔봉면 양길리,36.825086,126.3785787
팜카밀레,충남 태안군,041-675-3636,"['관광지', '남녀노소', '반려견동반여행지', '사진찍기좋은곳', '아이와함께', '연인과함께']",https://cdn.visitkorea.or.kr/img/call?cmd=VIEW&id=ebd72efe-831a-4a20-bfa3-46fdd145eb62&thumb,충청남도 태안군 남면 우운길 56-19,36.6873196,126.2825037
평강뜰애,충남 보령시,041-934-7577,"['가족과함께', '가족여행', '가족체험', '관광지', '농촌체험마을', '농촌체험학습']",https://cdn.visitkorea.or.kr/img/call?cmd=VIEW&id=5bdb0f20-9415-4f7a-9699-f7e78837c6b8&thumb,충청남도 보령시 청라면 가느실길 106,36.3892202,126.6427451
푸레기마을,충남 당진시,041-353-5008,"['가족체험', '가족체험여행', '갯벌체험', '관광지', '농촌마을', '농촌여행', '농촌체험']",https://cdn.visitkorea.or.kr/img/call?cmd=VIEW&id=73bbf305-7502-4555-9079-110fe66f88a3&thumb,충청남도 당진시 석문면 초락1로 147,36.9930124,126.5024733
피나클랜드,충남 아산시,041-534-2580,"['가족여행', '걷기길', '관광지', '데이트코스', '뷰티&스파', '사진찍기', '사진찍기좋은곳']",https://cdn.visitkorea.or.kr/img/call?cmd=VIEW&id=4aa46276-2765-4986-baad-a9e608e6a9b2&thumb,충청남도 아산시 영인면 월선길 20-42,36.8739509,126.9270233
하늘물빛정원,충남 금산군,041-751-7711,"['가족여행', '걷기길', '관광지', '꽃여행', '먹거리', '미식여행', '사계절', '산책길']",https://cdn.visitkorea.or.kr/img/call?cmd=VIEW&id=84832daa-d9e8-4003-b287-deeb44cb6fa3&thumb,충청남도 금산군 추부면 검한1길 156,36.2249613,127.4838402
학림사(공주),충남 공주시,042-825-0515,"['관광지', '불교', '불교문화', '사찰', '사찰여행', '역사', '자연환경', '전통사찰']",https://cdn.visitkorea.or.kr/img/call?cmd=VIEW&id=a32323c5-d0b5-44b6-8cf9-61db11928387&thumb,충청남도 공주시 반포면 제석골길 67,36.3649326,127.2475126
학암포해수욕장,충남 태안군,041-670-2691,"['관광지', '바다풍경', '자연', '충청권', '친구와함께', '학암포해수욕장']",https://cdn.visitkorea.or.kr/img/call?cmd=VIEW&id=a1dd418d-bc13-4aa8-8f55-c4c4f8ac11e7&thumb,충청남도 태안군 원북면 방갈리,36.8948887,126.2247896
한국문화연수원,충남 공주시,041-841-5050,"['관광지', '문화콘텐츠산업', '여름휴가', '이색체험', '체험', '체험프로그램', '체험학습']",https://cdn.visitkorea.or.kr/img/call?cmd=VIEW&id=43791b2d-8549-435a-93ae-521130ae655e&thumb,충청남도 공주시 사곡면 마곡사로 1065,36.5655727,127.010108
한국최초 성경전래지 기념관,충남 서천군,041-951-1816,"['가족여행', '관광지', '기념관', '박물관', '아이와함께', '역사', '이색체험', '자연좋은곳']",https://cdn.visitkorea.or.kr/img/call?cmd=VIEW&id=bb31fe1b-8303-4d24-982e-0b156ea0838e&thumb,충청남도 서천군 서면 서인로 89-16,36.1316488,126.5012031
한민족역사문화공원,충남 천안시,041-620-6700,"['관광지', '교과서속여행', '산책길', '산책하기', '산책하기좋은곳', '아이와함께']",https://cdn.visitkorea.or.kr/img/call?cmd=VIEW&id=30b73a56-9cd6-4fda-9191-f051c9604402&thumb,충청남도 천안시 동남구 목천읍 교천지산길 284-88,36.7938464,127.1994209
한산소곡주갤러리,충남 서천군,041-951-5856,"['관광지', '복합문화공간', '역사를품은곳', '역사속', '역사이야기', '열린문화공간']",https://cdn.visitkorea.or.kr/img/call?cmd=VIEW&id=7ed334f0-af42-474c-b041-fca4ba531a0b&thumb,충청남도 서천군 한산면 충절로1173번길 21-1,36.0845374,126.8045342
한산향교,충남 서천군,041-952-9525,"['관광지', '역사', '역사공부', '역사관광지', '역사를품은곳', '역사문화재', '역사속']",https://cdn.visitkorea.or.kr/img/call?cmd=VIEW&id=a1fc953c-69af-4383-9df4-ef39df43ab53&thumb,충청남도 서천군 한산면 한산향교길 76-31,36.0846635,126.7942787
한우목장,충남 서산시,041-660-2499,"['경치여행', '경치좋은곳', '관광지', '서산목장', '서산여행', '자연관광지', '자연좋은곳']",https://cdn.visitkorea.or.kr/img/call?cmd=VIEW&id=f8a56534-07db-49cc-9705-ae2c1fe74d00&thumb,충청남도 서산시 운산면 태봉리 산,36.778874,126.5900011
합덕성당,충남 당진시,041-363-1061,"['관광지', '성지순례', '역사', '역사공부', '역사를품은곳', '역사속', '역사속으로']",https://cdn.visitkorea.or.kr/img/call?cmd=VIEW&id=5af68eff-5a71-4168-a43a-f2082a025179&thumb,충청남도 당진시 합덕읍 합덕성당2길 16,36.7927917,126.7855378
해미순교성지(여숫골),충남 서산시,041-688-3183,"['관광지', '교과서속여행', '아이와함께', '여숫골', '역사', '역사관광지', '역사속']",https://cdn.visitkorea.or.kr/img/call?cmd=VIEW&id=822ed1b1-aaf7-4199-8ee9-1d3e9f5e2be3&thumb,충청남도 서산시 해미면 성지1로 13,36.7126867,126.5380309
해미향교,충남 서산시,041-660-2247,"['관광지', '역사', '역사공부', '역사관광지', '역사를품은곳', '역사문화재', '역사속']",https://cdn.visitkorea.or.kr/img/call?cmd=VIEW&id=086df4d8-02e2-4912-920f-a7fd99ff77ea&thumb,충청남도 서산시 해미면 해미향교길 2-13,36.7209984,126.5502435
해변기암절벽,충남 보령시,041-932-2023,"['관광지', '기암괴석', '충청권', '해변기암절벽', '호도']",https://cdn.visitkorea.or.kr/img/call?cmd=VIEW&id=8eb65c1d-2c7e-486d-98df-df56239be1e8&thumb,충청남도 보령시 오천면,36.4383534,126.5224226
해상인도교 (대하랑꽃게랑),충남 태안군,041-674-1900,"['경치좋은곳', '관광지', '남녀노소', '바다경치', '바다내음', '사진찍기', '사진찍기좋은곳']",https://cdn.visitkorea.or.kr/img/call?cmd=VIEW&id=5a3da4f3-5d44-45ff-92a8-27a67818ac47&thumb,충청남도 태안군 안면읍 창기리,36.5817116,126.3390389
행림서원,충남 논산시,041-746-5412,"['관광지', '역사', '역사공부', '역사관광지', '역사를품은곳', '역사문화재', '역사속']",https://cdn.visitkorea.or.kr/img/call?cmd=VIEW&id=997c7334-f8ac-4858-8587-7e0dedc4ff3b&thumb,충청남도 논산시 가야곡면 육곡길 27-1,36.1344394,127.1614655
행복한여행나눔 (관광두레 주민사업체),충남 홍성군,041-977-0700,"['관광두레', '관광두레_주민사업체', '관광지', '귀촌', '남녀노소', '워크샵', '이색체험']",https://cdn.visitkorea.or.kr/img/call?cmd=VIEW&id=512a9850-6080-4c09-b4b0-a63892d63cee&thumb,충청남도 홍성군 홍성읍 대학길 25,36.5811832,126.662175
향천사(예산),충남 예산군,041-335-3556,"['관광지', '불교', '불교문화', '사찰', '사찰여행', '역사', '자연좋은곳', '자연환경']",https://cdn.visitkorea.or.kr/img/call?cmd=VIEW&id=5ab5d024-6443-4df5-9d61-d1bf30957839&thumb,충청남도 예산군 예산읍 향천사로 117-20,36.6903333,126.8609943
현대트랜시스,충남 서산시,031-645-9099,"['견학', '관광지', '산업관광', '아이와함께', '이색체험', '자동차', '체험학습', '충청권']",https://cdn.visitkorea.or.kr/img/call?cmd=VIEW&id=47622cd6-0286-42c4-9f97-6aa9844fd85a&thumb,충청남도 서산시 지곡면 충의로 958,36.8590251,126.44084
현충사,충남 아산시,041-539-4600,"['가족여행', '관광지', '교과서속여행', '아이와함께', '역사', '역사공부', '역사를품은곳']",https://cdn.visitkorea.or.kr/img/call?cmd=VIEW&id=f6b98efe-1e9b-4ded-8e88-bff22a2b2e3c&thumb,충청남도 아산시 염치읍 현충사길 126,36.806513,127.0308048
호도,충남 보령시,,"['가족과함께', '관광지', '바다경치', '바다내음', '자연', '자연속으로', '자연여행']",https://cdn.visitkorea.or.kr/img/call?cmd=VIEW&id=b58ed4d2-7a59-43d6-aad8-4478b5b1fd6f&thumb,충청남도 보령시 오천면 호도길 22,36.3017413,126.2644708
호도해수욕장,충남 보령시,041-932-4301,"['관광지', '자연']",https://cdn.visitkorea.or.kr/img/call?cmd=VIEW&id=8502211c-a0d6-40d2-9d6d-673cfe5df9fd&thumb,충청남도 보령시 오천면 녹도1길 3,36.2676531,126.2664786
홍도마을,충남 금산군,041-752-6861,"['가족여행', '관광지', '농촌체험', '아이와함께', '자연마을', '자연여행', '자연좋은곳']",https://cdn.visitkorea.or.kr/img/call?cmd=VIEW&id=1438630f-8835-45d8-9352-f64e4b6ed556&thumb,충청남도 금산군 남일면 홍도1길 57,36.0176396,127.5197263
홍산객사,충남 부여군,041-830-2623,"['관광지', '역사', '역사공부', '역사관광지', '역사를품은곳', '역사문화재', '역사속']",https://cdn.visitkorea.or.kr/img/call?cmd=VIEW&id=f062c54f-ec0a-4704-bbc1-d9df984761d6&thumb,충청남도 부여군 홍산면 북촌로 47,36.2157253,126.7566519
홍산동헌,충남 부여군,041-830-2623,"['관광지', '역사', '역사공부', '역사관광지', '역사를품은곳', '역사문화재', '역사속']",https://cdn.visitkorea.or.kr/img/call?cmd=VIEW&id=e2f6cc1d-ffcd-4f31-8c2f-272892be1c27&thumb,충청남도 부여군 홍산면 동헌로 38,36.2152381,126.7551227
홍산향교,충남 부여군,041-830-2623,"['관광지', '역사', '역사공부', '역사관광지', '역사를품은곳', '역사문화재', '역사속']",https://cdn.visitkorea.or.kr/img/call?cmd=VIEW&id=35e43560-eb45-40ee-ae40-ba9c7e23f47a&thumb,충청남도 부여군 홍산면 홍내로21번길 61,36.2284532,126.7617841
홍성 문당환경농업마을,충남 홍성군,041-631-3537,"['가족여행지', '가족체험', '가족휴양', '가족힐링', '관광지', '농촌마을', '농촌체험']",https://cdn.visitkorea.or.kr/img/call?cmd=VIEW&id=undefined&thumb,충청남도 홍성군 홍동면 문당길 141,36.5354789,126.7022595
홍성 속동갯벌마을,충남 홍성군,070-7763-8450,"['갯벌', '갯벌', '갯벌체험', '갯벌체험장', '관광지', '속동갯벌', '속동갯벌마을']",https://cdn.visitkorea.or.kr/img/call?cmd=VIEW&id=3758909b-40da-4e1b-acc5-6428d49df511&thumb,충청남도 홍성군 서부면 남당항로 689,36.5767826,126.4644756
홍성 오관리 당간지주,충남 홍성군,041-630-1688,"['관광지', '역사', '역사공부', '역사관광지', '역사를품은곳', '역사문화재', '역사속']",https://cdn.visitkorea.or.kr/img/call?cmd=VIEW&id=cbb6abf9-ace4-4ffb-b851-e9997bc6a0fe&thumb,충청남도 홍성군 홍성읍 오관리,36.5990636,126.6637343
홍성 용봉산체험마을,충남 홍성군,041-632-0090,"['가족체험', '관광지', '농촌', '농촌체험', '농촌체험마을', '농촌체험여행', '아이와함께']",https://cdn.visitkorea.or.kr/img/call?cmd=VIEW&id=aad8607e-3c90-4277-b662-c9902bfe34f3&thumb,충청남도 홍성군 홍북읍 이응노로 287,36.6312906,126.6513762
홍성 하누리마을,충남 홍성군,070-4114-0262,"['가족과함께', '가족체험', '관광지', '녹색농촌체험마을', '농촌마을', '농촌체험']",https://cdn.visitkorea.or.kr/img/call?cmd=VIEW&id=53b5ff54-3e45-4543-ac29-2aafab2f820c&thumb,충청남도 홍성군 광천읍 매현1길 7-4,36.5228635,126.6339127
홍성 한솔기마을,충남 홍성군,041-630-9963,"['가족체험', '관광지', '농촌체험', '농촌체험학습', '아이와함께', '이색체험', '자연마을']",https://cdn.visitkorea.or.kr/img/call?cmd=VIEW&id=f2272da1-d31b-4e77-97ca-13832e801d2f&thumb,충청남도 홍성군 홍북읍 매죽헌길 351-26,36.6433556,126.7238091
홍성 홍주읍성,충남 홍성군,041-630-1688,"['관광지', '역사', '역사공부', '역사관광지', '역사를품은곳', '역사문화재', '역사속']",https://cdn.visitkorea.or.kr/img/call?cmd=VIEW&id=bfa3a6b2-3111-43c9-b18e-de8930043761&thumb,충청남도 홍성군 홍성읍 오관리,36.5990636,126.6637343
홍성 홍주의사총,충남 홍성군,041-642-6716,"['관광지', '역사', '역사공부', '역사관광지', '역사를품은곳', '역사문화재', '역사속']",https://cdn.visitkorea.or.kr/img/call?cmd=VIEW&id=2170ab06-bb49-49a0-bcb5-e5b5dd7d9a65&thumb,충청남도 홍성군 홍성읍 의사로 79,36.6051537,126.6710246
홍성방조제,충남 홍성군,041-633-1141,"['관광지', '바다풍경', '자연', '충청권', '홍성방조제', '힐링']",https://cdn.visitkorea.or.kr/img/call?cmd=VIEW&id=de322366-2bf4-41d2-abc9-454c9da95c79&thumb,충청남도 홍성군 서부면,36.5802645,126.5172309
홍성상하리미륵불,충남 홍성군,041-630-1256,"['관광지', '역사', '역사공부', '역사관광지', '역사를품은곳', '역사문화재', '역사속']",https://cdn.visitkorea.or.kr/img/call?cmd=VIEW&id=b509dd0e-d019-47e4-8343-d6bfe09e6e83&thumb,충청남도 홍성군 홍북읍,36.650011,126.6917318
홍성온천,충남 홍성군,041-633-7777,"['가족힐링', '건강여행', '관광지', '목욕탕', '사우나', '온천', '찜질방', '휴식공간']",https://cdn.visitkorea.or.kr/img/call?cmd=VIEW&id=bef63d80-c9be-4ad4-9189-add12eeeec0a&thumb,충청남도 홍성군 홍성읍 내포로 42,36.5991133,126.6636134
홍원항,충남 서천군,041-952-9525,"['가족여행', '관광지', '나들이', '데이트코스', '바다풍경', '아이와함께', '여름방학가볼만한곳']",https://cdn.visitkorea.or.kr/img/call?cmd=VIEW&id=4528a0b9-e6c3-4004-9440-3614bec8de6a&thumb,충청남도 서천군 서면 홍원길 130-3,36.1586932,126.4992204
홍주아문,충남 홍성군,041-630-1688,"['강원권', '관광지', '사적', '역사', '역사공부', '역사관광지', '역사를품은곳', '역사문화재']",https://cdn.visitkorea.or.kr/img/call?cmd=VIEW&id=a6eb07eb-c53c-4bec-b7c4-fa346d01681f&thumb,충청남도 홍성군 홍성읍 아문길 27,36.6013022,126.6608855
홍주향교,충남 홍성군,041-630-1688,"['관광지', '역사', '역사공부', '역사관광지', '역사를품은곳', '역사문화재', '역사속']",https://cdn.visitkorea.or.kr/img/call?cmd=VIEW&id=0dedf802-c6f2-41fa-ad71-c1358dd18a88&thumb,충청남도 홍성군 홍성읍 충서로1575번길 93,36.6097106,126.6664038
화암사(부여),충남 부여군,041-836-5251,"['관광지', '불교', '불교문화', '사찰', '사찰여행', '역사', '자연속으로', '자연환경']",https://cdn.visitkorea.or.kr/img/call?cmd=VIEW&id=null&thumb,충청남도 부여군 외산면 조령서로73번길 142,36.3354168,126.7397466
화암사(예산),충남 예산군,041-332-9250,"['관광지', '나홀로여행', '불교', '불교문화', '사찰&산사', '사찰여행', '역사', '자연속으로']",https://cdn.visitkorea.or.kr/img/call?cmd=VIEW&id=undefined&thumb,충청남도 예산군 신암면 용궁1길 21-29,36.7383801,126.8003833
화암서원,충남 보령시,041-930-6553,"['관광지', '역사', '역사공부', '역사관광지', '역사를품은곳', '역사문화재', '역사속']",https://cdn.visitkorea.or.kr/img/call?cmd=VIEW&id=13081f9b-4009-49b3-91ab-67c83ec73d56&thumb,충청남도 보령시 청라면 죽성로 411,36.3942086,126.6273238
화장골계곡,충남 보령시,041-933-5301,"['계곡', '관광지', '자연', '충청권', '피서', '화장골계곡']",https://cdn.visitkorea.or.kr/img/call?cmd=VIEW&id=41718e79-e986-430b-bcca-97d663850d19&thumb,충청남도 보령시 성주면 화장골길 85,36.3368122,126.6555164
효암서원,충남 논산시,041-746-5412,"['관광지', '역사', '역사공부', '역사관광', '역사관광지', '역사를품은곳', '역사문화재']",https://cdn.visitkorea.or.kr/img/call?cmd=VIEW&id=01e60aeb-31d8-43a6-8553-ad0fa93ea17b&thumb,충청남도 논산시 가야곡면 덕은로470번길 18-8,36.1657366,127.1901454
효자도,충남 보령시,041-932-2023,"['관광지', '자연']",https://cdn.visitkorea.or.kr/img/call?cmd=VIEW&id=3a0659d5-3b96-4b8a-bfbc-48f5961bc6ed&thumb,충청남도 보령시 오천면 효자도길 82,36.3827233,126.4411159
훼미리랜드 충무풀장,충남 아산시,041-544-2155,"['가족과함께', '관광지', '아이와함께', '여름날', '여름방학', '여름방학가기좋은곳']",https://cdn.visitkorea.or.kr/img/call?cmd=VIEW&id=undefined&thumb,충청남도 아산시 염치읍 충무로 547,36.8278999,127.0094618
휴정서원,충남 논산시,041-746-5412,"['관광지', '역사', '역사공부', '역사관광지', '역사를품은곳', '역사문화재', '역사속']",https://cdn.visitkorea.or.kr/img/call?cmd=VIEW&id=004298cb-3b27-475f-ad31-4f5926219faf&thumb,충청남도 논산시 부적면 신풍길 87,36.181872,127.1789267
흑성산성,충남 천안시,041-521-5163,"['관광지', '역사', '역사공부', '역사관광', '역사관광지', '역사를품은곳', '역사문화']",https://cdn.visitkorea.or.kr/img/call?cmd=VIEW&id=182fabf8-c003-4cb3-a26c-6f5e9021db34&thumb,충청남도 천안시 동남구 목천읍 교촌리,36.7962003,127.225339
흥주사(태안),충남 태안군,041-674-3473,"['관광지', '불교', '불교문화', '사찰', '사찰여행', '역사', '자연좋은곳', '자연환경']",https://cdn.visitkorea.or.kr/img/call?cmd=VIEW&id=3ff78340-099b-4daa-9c06-1d9e9b3ec804&thumb,충청남도 태안군 태안읍 속말1길 61-61,36.7712115,126.3140576
히흣 도예공방,충남 천안시,041-557-3422,"['가족체험', '공방', '공예체험', '공예품', '관광지', '도자기공방', '목공예', '목공체험']",https://cdn.visitkorea.or.kr/img/call?cmd=VIEW&id=9146d7ff-9055-4ad3-a2a3-75e6cfe0e54d&thumb,충청남도 천안시 동남구 대흥로 323,36.8166513,127.1505755
