name,region,tel,keyword,photo,address,lat,lon
CJ 블로썸 캠퍼스 (CJ제일제당),충북 진천군,1855-1996 - -,"['CJ제일제당', '공장견학', '관광지', '만뢰산자연생태공원', '산업관광', '생거진천전통시장']",https://cdn.visitkorea.or.kr/img/call?cmd=VIEW&id=cd4688b6-b609-4c66-b0bf-23c8714be26b&thumb,충청북도 진천군 진천읍 씨제이로 110,36.8782964,127.4615591
가락공방,충북 청주시,043-904-4688,"['관광지', '교육프로그램', '문화공간', '문화예술활동', '복합문화공간', '아이와함께']",https://cdn.visitkorea.or.kr/img/call?cmd=VIEW&id=bdd45504-ee36-4e76-9630-604a0be740a9&thumb,충청북도 청주시 상당구 탑동로 95-5,36.6335701,127.502508
가산사,충북 옥천군,043-732-6755,"['관광지', '불교', '불교문화', '사찰', '사찰여행', '역사', '자연속으로', '자연환경']",https://cdn.visitkorea.or.kr/img/call?cmd=VIEW&id=7b6a786b-4f6a-4a42-80d8-e1b8b0eab3eb&thumb,충청북도 옥천군 안내면 안내회남로 671,36.4015241,127.5974932
가섭사,충북 음성군,043-872-3104,"['관광지', '불교', '불교문화', '사찰', '사찰여행', '역사', '자연속으로', '자연환경']",https://cdn.visitkorea.or.kr/img/call?cmd=VIEW&id=0fa67395-72f6-4f5b-9a4b-218fd510dad4&thumb,충청북도 음성군 음성읍 가섭길 494,36.9665974,127.7030402
각연사(괴산),충북 괴산군,043-832-6148,"['관광지', '불교', '불교사찰', '사찰', '사찰여행', '역사', '자연속으로', '자연좋은곳']",https://cdn.visitkorea.or.kr/img/call?cmd=VIEW&id=3c3eb5cd-b503-4a09-8a1b-26b8f00742cf&thumb,충청북도 괴산군 칠성면 각연길 451,36.7548201,127.9272744
갈기산,충북 영동군,043-740-3205,"['관광지', '자연']",https://cdn.visitkorea.or.kr/img/call?cmd=VIEW&id=undefined&thumb,충청북도 영동군 양산면 호탄리,36.1328522,127.6329943
갈론계곡(갈은구곡),충북 괴산군,043-832-5550,"['갈론계곡', '계곡', '관광지', '언택트관광지_100선', '자연', '충청권', '피서']",https://cdn.visitkorea.or.kr/img/call?cmd=VIEW&id=2d18acc4-c938-4a21-949e-c5758d17c22c&thumb,충청북도 괴산군 칠성면 사은리,36.7357961,127.8566438
감곡매괴성모순례지성당,충북 음성군,043-881-2808,"['가족여행', '감곡매괴성모순례지성당', '관광지', '교과서속여행', '성지순례']",https://cdn.visitkorea.or.kr/img/call?cmd=VIEW&id=7835f3b9-b212-4272-b4c9-beb67f28b2c4&thumb,충청북도 음성군 감곡면 성당길 10,37.1219476,127.6411531
강천사(제천),충북 제천시,043-647-0711,"['강천사', '관광지', '불교', '불교문화', '사찰', '사찰여행', '역사', '자연속으로']",https://cdn.visitkorea.or.kr/img/call?cmd=VIEW&id=957387d0-bfb0-4d5d-ab05-833cfe50316c&thumb,충청북도 제천시 송학면 옥천3길 56-10,37.2065293,128.2667458
개심사 목조여래좌상과 목조관음보살좌상,충북 괴산군,043-832-2633,"['관광지', '불교', '불교사찰', '역사', '역사공부', '역사관광지', '역사문화', '역사문화재']",https://cdn.visitkorea.or.kr/img/call?cmd=VIEW&id=04b59268-33cb-43e7-916c-dee999ef27e7&thumb,충청북도 괴산군 괴산읍 역말길 22,36.8151016,127.7945922
개심사(괴산),충북 괴산군,043-832-2633,"['관광지', '괴산개심사', '목조관음보살좌상', '목조여래좌상', '불교', '불교문화']",https://cdn.visitkorea.or.kr/img/call?cmd=VIEW&id=53204a23-728f-46e1-ab3d-bece4de8d90f&thumb,충청북도 괴산군 괴산읍 역말길 22,36.8151016,127.7945922
검암서원,충북 청주시,043-201-2021,"['검암서원', '관광지', '역사', '역사공부', '역사관광지', '역사를품은곳', '역사문화재']",https://cdn.visitkorea.or.kr/img/call?cmd=VIEW&id=3e1166f0-7e33-4d58-93a4-cb982e786063&thumb,충청북도 청주시 상당구 가덕면 병암리 215-2,36.5788978,127.5715502
계담서원,충북 괴산군,043-830-3433,"['관광지', '역사', '역사공부', '역사관광지', '역사를품은곳', '역사문화재', '역사속']",https://cdn.visitkorea.or.kr/img/call?cmd=VIEW&id=252e938e-9eb0-4d5c-8150-0c5c87b4af53&thumb,충청북도 괴산군 감물면 감물로이담5길 19,36.870928,127.8641927
계명산자연휴양림,충북 충주시,043-870-7930,"['가족여행', '걷기길', '계명산', '계명산자연휴양림', '관광지', '자연', '충청권']",https://cdn.visitkorea.or.kr/img/call?cmd=VIEW&id=dfd1fe3f-b4c1-47ca-8cee-a085c5324008&thumb,충청북도 충주시 충주호수로 1170,37.0000143,127.9700503
고미술거리,충북 충주시,043-842-4955,"['고미술', '고미술품', '관광지', '광주왕실도자기축제', '문화예술', '미술품', '예술']",https://cdn.visitkorea.or.kr/img/call?cmd=VIEW&id=58b39164-9ee0-48af-813d-c33c436d9fe1&thumb,충청북도 충주시 중앙탑면 가곡로 2077,37.0749439,127.858536
고산 9경,충북 괴산군,043-830-3114,"['관광지', '자연']",https://cdn.visitkorea.or.kr/img/call?cmd=VIEW&id=74b9a1ad-5cca-493e-88fb-8d8eff3fe41f&thumb,충청북도 괴산군 괴산읍 제월리,36.8227541,127.8266657
고산사 석조관음보살좌상,충북 제천시,043-641-6731,"['관광지', '불교', '불교문화', '역사', '역사공부', '역사를품은곳', '역사문화재']",https://cdn.visitkorea.or.kr/img/call?cmd=VIEW&id=93662c3e-0a9b-4cb7-bde1-419ea44a593a&thumb,충청북도 제천시 덕산면 월악로9길 113,36.9278334,128.1154633
고산사 석조나한상,충북 제천시,043-641-6731,"['관광지', '불교', '불교문화', '역사', '역사공부', '역사관광지', '역사를품은곳']",https://cdn.visitkorea.or.kr/img/call?cmd=VIEW&id=b313bba9-0474-4983-a04a-317183b3c093&thumb,충청북도 제천시 덕산면 월악로9길 113,36.9278334,128.1154633
공림사,충북 괴산군,043-833-1029,"['공림사', '관광지', '교과서속여행', '불교', '불교문화', '사찰', '사찰여행', '아이와함께']",https://cdn.visitkorea.or.kr/img/call?cmd=VIEW&id=21a31470-96e4-4f28-99a2-dc7fbde3ac87&thumb,충청북도 괴산군 청천면 괴산로공림길 104,36.6318163,127.8166426
공전자연학교,충북 제천시,043-645-6758,"['공전자연학교', '관광지', '복합문화공간', '아이와함께', '역사유적지', '열린문화공간']",https://cdn.visitkorea.or.kr/img/call?cmd=VIEW&id=3d217e0c-7ff1-4a25-9b97-d48ffc488bb2&thumb,충청북도 제천시 봉양읍 의암로 345,37.1142925,128.0793649
과일나라테마공원,충북 영동군,043-740-3651,"['가족과함께', '관광지', '교육프로그램', '남녀노소', '아이와함께', '이색체험']",https://cdn.visitkorea.or.kr/img/call?cmd=VIEW&id=e2522aaa-b842-4d65-bd75-a100ec5010d9&thumb,충청북도 영동군 영동읍 영동힐링로 248,36.1750235,127.7834305
관음암(충북),충북 보은군,043-544-3559,"['관광지', '불교', '불교문화', '사찰', '사찰여행', '역사', '자연속으로', '자연환경']",https://cdn.visitkorea.or.kr/img/call?cmd=VIEW&id=null&thumb,충청북도 보은군 속리산면 법주사로 658-191,36.5575014,127.8674678
광덕사,충북 증평군,043-836-8379,"['관광지', '불교', '불교문화', '사찰', '사찰여행', '역사', '자연속으로', '자연환경']",https://cdn.visitkorea.or.kr/img/call?cmd=VIEW&id=aac53a23-74c3-4498-b859-e7b93c81cfdb&thumb,충청북도 증평군 도안면 상그린로 239,36.832667,127.6246296
광운농촌교육농장,충북 영동군,043-743-8851,"['가족과함께', '관광지', '광운농촌교육농장', '교육여행', '교육프로그램', '아이와함께']",https://cdn.visitkorea.or.kr/img/call?cmd=VIEW&id=bece4f6f-7c9e-423b-9c52-4d338c6e65a9&thumb,충북 영동군 양산면 수두리,36.1415123,127.6546478
괴산 고산정 및 제월대,충북 괴산군,043-830-3433,"['관광지', '역사', '역사공부', '역사관광지', '역사를품은곳', '역사문화재', '역사속']",https://cdn.visitkorea.or.kr/img/call?cmd=VIEW&id=b7fa5638-fee0-4f65-9d06-6015815b2f63&thumb,충청북도 괴산군 괴산읍 제월리,36.8227541,127.8266657
괴산 김항묵 고택,충북 괴산군,043-830-3433,"['고택', '관광지', '교과서속여행', '김항묵고택', '문화재', '역사', '역사공부', '역사관광지']",https://cdn.visitkorea.or.kr/img/call?cmd=VIEW&id=679284fb-393a-4501-8b01-45df472ef839&thumb,충청북도 괴산군 칠성면 칠성로4길 20,36.7816481,127.85932
괴산 둔율 올갱이마을,충북 괴산군,043-830-3903,"['가족여행', '가족체험', '관광지', '괴산둔율올갱이마을', '김장체험', '농촌마을']",https://cdn.visitkorea.or.kr/img/call?cmd=VIEW&id=d457b4d9-b0b6-4093-a7b1-89eae725a257&thumb,충청북도 괴산군 칠성면 둔율길 142,36.7830176,127.8487827
괴산 문당리 서낭단,충북 괴산군,043-830-3433,"['관광지', '역사', '역사공부', '역사를품은곳', '역사문화재', '역사속', '역사속으로']",https://cdn.visitkorea.or.kr/img/call?cmd=VIEW&id=e61bed09-1bc8-4147-8ab9-e4a140a0094c&thumb,충청북도 괴산군 청안면 문당리,36.7511113,127.6782451
괴산 미륵산성,충북 괴산군,043-830-3433,"['관광지', '역사', '역사공부', '역사관광지', '역사관광지', '역사를품은곳', '역사문화재']",https://cdn.visitkorea.or.kr/img/call?cmd=VIEW&id=4adaad96-034a-46de-859b-93be6024020d&thumb,충청북도 괴산군 청천면 고성리,36.6533135,127.7930389
괴산 백운사 승탑군,충북 괴산군,043-836-8813,"['관광지', '불교', '불교사찰', '역사', '역사관광지', '역사를품은곳', '역사문화재']",https://cdn.visitkorea.or.kr/img/call?cmd=VIEW&id=4cfa4150-0a38-4442-8197-73bcc1504d62&thumb,충청북도 괴산군 사리면 사리로소매2길 125-146,36.8548635,127.6674723
괴산 보안사 삼층석탑,충북 괴산군,043-836-9149,"['관광지', '역사', '역사공부', '역사관광지', '역사를품은곳', '역사문화재', '역사속']",https://cdn.visitkorea.or.kr/img/call?cmd=VIEW&id=f4c8f5c5-4536-436f-952c-fef0e7932c0e&thumb,충청북도 괴산군 청안면 효근1길 3-8,36.7580821,127.6546499
괴산 봉학사지 석조여래좌상,충북 괴산군,043-833-4538,"['관광지', '불교', '불교문화', '사찰여행', '역사', '역사공부', '역사를품은곳', '역사문화재']",https://cdn.visitkorea.or.kr/img/call?cmd=VIEW&id=9ad1d778-f2ac-4d69-90c8-897af3cf35fc&thumb,충청북도 괴산군 사리면 모래재로시동2길 231,36.8194504,127.6838752
괴산 봉학사지 오층석탑,충북 괴산군,043-833-4538,"['관광지', '불교', '불교문화', '역사', '역사공부', '역사관광지', '역사를품은곳']",https://cdn.visitkorea.or.kr/img/call?cmd=VIEW&id=2a0bbb84-7661-4bbd-bd8a-a9eaa72801a3&thumb,충청북도 괴산군 사리면 사담리,36.8180861,127.655245
괴산 사담리 망개나무 자생지,충북 괴산군,043-830-3114,"['관광지', '사담망개나무', '자연', '천연기념물', '충청권']",https://cdn.visitkorea.or.kr/img/call?cmd=VIEW&id=638a4c4a-209e-478d-8d74-f33f281e47ba&thumb,충청북도 괴산군 청천면 사담리,36.6253227,127.8312852
괴산 삼방리 마애여래좌상,충북 괴산군,043-830-3433,"['관광지', '역사', '역사공부', '역사관광지', '역사를품은곳', '역사문화재', '역사속']",https://cdn.visitkorea.or.kr/img/call?cmd=VIEW&id=f5a2941b-f56f-47ea-9362-81c7804ef5c1&thumb,충청북도 괴산군 불정면 삼방리,36.9328094,127.7995234
괴산 삼방리 삼층석탑,충북 괴산군,043-830-3433,"['관광지', '괴산삼방리삼층석탑', '역사', '역사공부', '역사관광지', '역사를품은곳']",https://cdn.visitkorea.or.kr/img/call?cmd=VIEW&id=c4df5307-afe8-4311-9c89-56e7352995a3&thumb,충청북도 괴산군 불정면 삼방연지길 49,36.934228,127.8095434
괴산 송덕리 미선나무 자생지,충북 괴산군,043-830-3114,"['관광지', '자연']",https://cdn.visitkorea.or.kr/img/call?cmd=VIEW&id=50c42fb6-dcad-46a3-96de-781452cb324d&thumb,충청북도 괴산군 장연면 송덕리,36.7990687,127.950576
괴산 송시열 유적,충북 괴산군,043-830-3433,"['관광지', '역사', '역사공부', '역사관광지', '역사를품은곳', '역사문화재', '역사속']",https://cdn.visitkorea.or.kr/img/call?cmd=VIEW&id=6f166e71-a530-436e-887d-7abdd8cd3350&thumb,충청북도 괴산군 청천면 화양동길 188,36.6687714,127.8114156
괴산 수월정,충북 괴산군,043-830-3433,"['관광지', '역사', '역사공부', '역사관광지', '역사를품은곳', '역사문화재', '역사속']",https://cdn.visitkorea.or.kr/img/call?cmd=VIEW&id=97351d54-c11e-457c-a26f-74700921cd39&thumb,충청북도 괴산군 칠성면 산막이옛길 315-38,36.7469298,127.8388477
괴산 오가리 느티나무,충북 괴산군,043-830-3114,"['관광지', '자연관광지', '자연발생', '자연속으로', '자연여행', '자연좋은곳', '자연풍경']",https://cdn.visitkorea.or.kr/img/call?cmd=VIEW&id=18dd333c-6af4-486d-ac10-edb080926850&thumb,충청북도 괴산군 장연면 미선로오가7길 19-7,36.8261758,127.9574671
괴산 올갱이국 거리,충북 괴산군,,"['건강식맛집', '관광지', '괴산올갱이국거리', '다슬기', '맛집여행', '보양식', '숨은맛집']",https://cdn.visitkorea.or.kr/img/call?cmd=VIEW&id=8bd71817-96b6-40d5-a0a6-b76c82706c03&thumb,충청북도 괴산군 괴산읍 동부리,36.8104487,127.7998226
괴산 외사리 당간지주,충북 괴산군,043-830-3433,"['관광지', '역사', '역사공부', '역사관광지', '역사를품은곳', '역사문화', '역사문화재']",https://cdn.visitkorea.or.kr/img/call?cmd=VIEW&id=7d995ec8-e819-4123-b718-8f146081aff8&thumb,충청북도 괴산군 칠성면 외사리,36.7713707,127.8420498
괴산 원풍리 마애불좌상,충북 괴산군,043-830-3433,"['관광지', '역사', '역사공부', '역사관광지', '역사를품은곳', '역사문화재', '역사속']",https://cdn.visitkorea.or.kr/img/call?cmd=VIEW&id=38071461-7c43-4cbb-8fa1-689d0751f221&thumb,충청북도 괴산군 연풍면 원풍리,36.7996,128.0302148
괴산 율지리 미선나무 자생지,충북 괴산군,043-830-3114,"['관광지', '자연']",https://cdn.visitkorea.or.kr/img/call?cmd=VIEW&id=13acd56f-644e-422a-a37c-ea4a647ac655&thumb,충청북도 괴산군 칠성면 율지리,36.7711491,127.8700453
괴산 읍내리 은행나무,충북 괴산군,043-830-3114,"['관광지', '자연관광지', '자연발생', '자연속으로', '자연여행', '자연좋은곳', '자연풍경']",https://cdn.visitkorea.or.kr/img/call?cmd=VIEW&id=c91ae370-2031-497b-bdc0-ce34f5ac5be6&thumb,충청북도 괴산군 청안면 청안읍내로3길 8,36.7722516,127.6394826
괴산 이창훈 고가,충북 괴산군,043-830-3433,"['관광지', '역사', '역사공부', '역사관광지', '역사를품은곳', '역사문화재', '역사속']",https://cdn.visitkorea.or.kr/img/call?cmd=VIEW&id=e8dc93ba-9835-4d04-8e1c-a3d448ab0148&thumb,충청북도 괴산군 감물면 충민로오간길 64,36.8408669,127.8592643
괴산 장담 충신각,충북 괴산군,043-830-3433,"['관광지', '역사', '역사공부', '역사관광지', '역사를품은곳', '역사문화재', '역사속']",https://cdn.visitkorea.or.kr/img/call?cmd=VIEW&id=91e4ff42-4b3d-4981-aa9a-76491958cd5f&thumb,충청북도 괴산군 청안면 청안읍내로 151,36.783495,127.6395375
괴산 적석리 소나무,충북 괴산군,043-830-3114,"['가족여행', '관광명소', '관광지', '괴산적석리소나무', '천연기념물', '충청권']",https://cdn.visitkorea.or.kr/img/call?cmd=VIEW&id=961a5dbc-a514-4cd7-9184-cd43e48c2019&thumb,충청북도 괴산군 연풍면 적석리,36.7571197,127.9625482
괴산 정인지 묘소,충북 괴산군,043-830-3433,"['관광지', '역사', '역사공부', '역사관광지', '역사를품은곳', '역사문화', '역사문화재']",https://cdn.visitkorea.or.kr/img/call?cmd=VIEW&id=6a8cffc8-aae4-4488-9383-307f0a530747&thumb,충청북도 괴산군 불정면 외령로1길 24,36.9256291,127.8199913
괴산 청안 안민헌,충북 괴산군,043-830-3433,"['관광지', '문화재', '역사', '역사공부', '역사관광지', '역사를품은곳', '역사문화재']",https://cdn.visitkorea.or.kr/img/call?cmd=VIEW&id=1fb5133a-7f5a-43fd-953a-b9e83b9b85d2&thumb,충청북도 괴산군 청안면 청안읍내로2길 5,36.7719554,127.6392823
괴산 청천리 고가,충북 괴산군,043-830-3433,"['고가', '관광지', '교과서속여행', '문화재', '역사', '역사공부', '역사관광지', '역사를품은곳']",https://cdn.visitkorea.or.kr/img/call?cmd=VIEW&id=ae936bea-d7cf-4ad7-8d30-440c72a99e48&thumb,충청북도 괴산군 청천면 청천4길 17,36.6618033,127.7380888
괴산 칠충사와 피세정,충북 괴산군,043-830-3433,"['관광지', '역사', '역사공부', '역사관광지', '역사를품은곳', '역사문화재', '역사속']",https://cdn.visitkorea.or.kr/img/call?cmd=VIEW&id=921d07ec-97fc-49f7-ac00-3c43c6798874&thumb,충청북도 괴산군 문광면 괴산로 3440-14,36.7890002,127.7822349
"괴산 홍범식 고가(벽초 홍명희 생가, 일완 홍범식 고택)",충북 괴산군,043-830-3433,"['관광지', '역사', '역사공부', '역사관광지', '역사를품은곳', '역사문화재', '역사속']",https://cdn.visitkorea.or.kr/img/call?cmd=VIEW&id=41a9fe03-60cd-47f4-baba-a19548b67541&thumb,충청북도 괴산군 괴산읍 임꺽정로 16,36.8136522,127.7948942
괴산군수 관사,충북 괴산군,043-830-3433,"['관광지', '역사', '역사공부', '역사관광지', '역사를품은곳', '역사문화', '역사문화재']",https://cdn.visitkorea.or.kr/img/call?cmd=VIEW&id=df64d135-76a1-4ac8-8a86-0306410c8051&thumb,충청북도 괴산군 괴산읍 읍내로13길 12,36.8106709,127.7943014
괴산동헌,충북 괴산군,043-830-3433,"['관광지', '역사', '역사공부', '역사관광지', '역사를품은곳', '역사문화재', '역사속']",https://cdn.visitkorea.or.kr/img/call?cmd=VIEW&id=db4f0f22-8cb1-4d87-b5a9-6b9c43f3071a&thumb,충청북도 괴산군 괴산읍 향교길 23,36.8153035,127.7889001
괴산중학교 구 본관,충북 괴산군,043-830-3433,"['관광지', '역사', '역사공부', '역사관광지', '역사를품은곳', '역사문화재', '역사속']",https://cdn.visitkorea.or.kr/img/call?cmd=VIEW&id=42b05fc2-4b3a-43e8-a1f1-58b0ba70ced0&thumb,충청북도 괴산군 괴산읍 괴산로 3527,36.7969351,127.7836928
괴산향교,충북 괴산군,043-830-3433,"['가족여행', '관광지', '괴산향교', '역사', '역사관광지', '역사를품은곳', '역사문화재']",https://cdn.visitkorea.or.kr/img/call?cmd=VIEW&id=6fadb483-8e72-4189-adc0-60aeb5b9c263&thumb,충청북도 괴산군 괴산읍 향교길 23,36.8153035,127.7889001
괴산호,충북 괴산군,043-830-3114,"['관광지', '자연']",https://cdn.visitkorea.or.kr/img/call?cmd=VIEW&id=a434d28f-611c-475d-9dc9-d51b325046de&thumb,충청북도 괴산군 칠성면,36.7879634,127.86395
교동민화마을(관광두레 주민사업체),충북 제천시,010-4877-3275,"['걷기길', '관광두레', '관광두레_주민사업체', '관광지', '교동민화마을', '근대산업유산']",https://cdn.visitkorea.or.kr/img/call?cmd=VIEW&id=5912e496-aba6-48ba-8767-460e4100ad99&thumb,충청북도 제천시 용두천로20길 18,37.1410208,128.2167462
구계서원,충북 청주시,043-201-0916,"['관광지', '구계서원', '역사', '역사공부', '역사관광지', '역사를품은곳', '역사문화재']",https://cdn.visitkorea.or.kr/img/call?cmd=VIEW&id=2494b54a-b2b0-4999-be60-422e6da57901&thumb,충청북도 청주시 서원구 안뜸로47번길 28,36.6133724,127.4824318
구녀산,충북 청주시,043-201-2343,"['관광지', '자연']",https://cdn.visitkorea.or.kr/img/call?cmd=VIEW&id=66d14dec-aade-4fb5-8d69-be345552f9ef&thumb,충청북도 청주시 청원구 내수읍 초정리,36.7190076,127.5986652
구담봉.옥순봉,충북 단양군,043-422-1146,"['관광지', '구담봉', '옥순봉', '자연', '자연관광', '자연관광지', '자연속으로', '자연속힐링']",https://cdn.visitkorea.or.kr/img/call?cmd=VIEW&id=ce8389d8-a7a5-48e7-963d-b1e47257ed5c&thumb,충청북도 단양군 단성면 장회리,36.9295517,128.2635426
구룡산 장승공원,충북 청주시,043-201-6583,"['경치좋은곳', '관광지', '산책길', '산책코스', '산책하기', '산책하기좋은곳', '아침운동']",https://cdn.visitkorea.or.kr/img/call?cmd=VIEW&id=4b4f1ca3-d87f-405d-8fdc-e9644ff98ab4&thumb,충청북도 청주시 서원구 현도면 하석2길 153,36.6424341,127.4890319
구병리아름마을,충북 보은군,043-544-0708,"['가족과함께', '가족체험', '관광지', '농촌마을', '농촌체험', '농촌체험마을', '아이와함께']",https://cdn.visitkorea.or.kr/img/call?cmd=VIEW&id=37e958eb-c142-4b1f-84ef-2c07a9bc7c87&thumb,충청북도 보은군 속리산면 구병길 6,36.4801481,127.8711831
구병산,충북 보은군,043-542-3006,"['관광지', '자연']",https://cdn.visitkorea.or.kr/img/call?cmd=VIEW&id=7692e702-afb3-43a0-b01a-cd4fa9e7a047&thumb,충청북도 보은군 마로면 적암리,36.4552977,127.8651029
구인사(단양),충북 단양군,043-423-7100,"['관광지', '구인사(단양)', '나홀로여행', '불교', '불교문화', '사찰', '산사', '역사']",https://cdn.visitkorea.or.kr/img/call?cmd=VIEW&id=ed445ac3-eac8-49d4-9f17-b7189fb3916a&thumb,충청북도 단양군 영춘면 구인사길 73,37.0322228,128.4805528
구절사,충북 옥천군,043-732-5888,"['관광지', '구절사', '불교', '불교문화', '사찰', '사찰여행', '역사', '자연속으로']",https://cdn.visitkorea.or.kr/img/call?cmd=VIEW&id=885d4609-15b3-4cda-a710-04d3b3063827&thumb,충청북도 옥천군 군서면 상중길 226,36.305013,127.5001624
국계서원,충북 청주시,043-201-0916,"['관광지', '역사', '역사공부', '역사관광지', '역사를품은곳', '역사문화재', '역사속']",https://cdn.visitkorea.or.kr/img/call?cmd=VIEW&id=70858f18-09a5-410e-91b5-fce5ab0f4330&thumb,충청북도 청주시 청원구 내수읍,36.723897,127.535439
국립 황정산자연휴양림,충북 단양군,043-421-0608,"['관광지', '자연']",https://cdn.visitkorea.or.kr/img/call?cmd=VIEW&id=c7dff3f6-c53f-4b17-81f3-3581e525a73a&thumb,충청북도 단양군 대강면 황정산로 239-11,36.8412875,128.3497368
국립현대미술관(청주관),충북 청주시,043-261-1400,"['관광지', '국립현대미술관', '기획전시', '문화시설', '문화예술공간', '미세먼지_피하는_실내여행']",https://cdn.visitkorea.or.kr/img/call?cmd=VIEW&id=1635e09d-04db-49a2-b27d-936bc2734b93&thumb,충청북도 청주시 청원구 상당로 314,36.6554335,127.4901913
군자산,충북 괴산군,043-542-5267,"['관광지', '자연']",https://cdn.visitkorea.or.kr/img/call?cmd=VIEW&id=09b41cbb-a77c-43a0-8117-ad429e8e9928&thumb,충청북도 괴산군 칠성면 쌍곡리,36.7362656,127.9087001
금강유원지,충북 옥천군,043-731-2233,"['가족여행', '경치좋은곳', '고속도로', '관광지', '금강유원지', '민물낚시', '연중무휴']",https://cdn.visitkorea.or.kr/img/call?cmd=VIEW&id=d397b29d-93a6-4dda-a70a-a182add21293&thumb,충청북도 옥천군 동이면 금강로 596,36.2792461,127.6740378
금당서원,충북 증평군,043-835-4111,"['관광지', '금당서원', '역사', '역사공부', '역사관광지', '역사를품은곳', '역사문화재']",https://cdn.visitkorea.or.kr/img/call?cmd=VIEW&id=7e45311f-889b-4f2a-a162-bd8816c2fca2&thumb,충청북도 증평군 도안면 금당1길 34-5,36.8049528,127.6231456
금성사(영동),충북 영동군,043-743-1110,"['가족여행', '관광지', '금성사(영동)', '불교', '불교문화', '사찰', '사찰&산사', '사찰여행']",https://cdn.visitkorea.or.kr/img/call?cmd=VIEW&id=null&thumb,충청북도 영동군 영동읍 난계로 1120-28,36.177188,127.7672328
금수산,충북 단양군,043-653-3251,"['관광지', '자연']",https://cdn.visitkorea.or.kr/img/call?cmd=VIEW&id=402d2737-b193-42d4-9a8f-b9290ca70f7e&thumb,충청북도 단양군 적성면 상학1길 210,36.9760201,128.2733714
금월봉,충북 제천시,043-641-6731,"['관광지', '금월봉', '기암괴석', '드라마촬영지', '영화촬영지', '충청권']",https://cdn.visitkorea.or.kr/img/call?cmd=VIEW&id=dab2f059-01c3-4794-b7a3-3851956ffff1&thumb,충청북도 제천시 금성면 월굴리,37.0484707,128.1602707
금화서원,충북 보은군,043-540-3407,"['관광지', '금화서원', '역사공부', '역사관광지', '역사를품은곳', '역사문화재']",https://cdn.visitkorea.or.kr/img/call?cmd=VIEW&id=e7012090-8c71-4084-854c-eac3eb4d4e8e&thumb,충청북도 보은군 삼승면 선곡리,36.4298966,127.715171
기암서원,충북 청주시,043-201-2021,"['관광지', '기암서원', '역사', '역사공부', '역사관광지', '역사를품은곳', '역사문화재']",https://cdn.visitkorea.or.kr/img/call?cmd=VIEW&id=171da349-6ee9-4421-86b1-e584760694d4&thumb,충청북도 청주시 상당구 낭성면 갈산3길 15,36.6555173,127.5698266
김시민장군 충민사,충북 괴산군,043-830-3433,"['관광지', '역사', '역사공부', '역사관광지', '역사를품은곳', '역사를품은곳', '역사문화재']",https://cdn.visitkorea.or.kr/img/call?cmd=VIEW&id=522127cd-e171-4d9c-a17f-ffecff987675&thumb,충청북도 괴산군 괴산읍 충민사길 46,36.8362083,127.8472363
깊은산속 옹달샘,충북 충주시,043-723-2033,"['관광지', '자연관광지', '자연속으로', '자연여행', '자연좋은곳', '자연풍경', '자연환경']",https://cdn.visitkorea.or.kr/img/call?cmd=VIEW&id=437d44ec-7dfb-438f-8c72-44c818c350da&thumb,충청북도 충주시 노은면 우성1길 201-61,37.0274817,127.7523836
꽃단지마을,충북 제천시,043-653-0880,"['가족과함께', '가족체험', '관광지', '농촌체험', '농촌체험마을', '농촌체험여행']",https://cdn.visitkorea.or.kr/img/call?cmd=VIEW&id=ddd202e9-2784-424d-a498-27d311b71fce&thumb,충청북도 제천시 한수면 월악로7길 94,36.9276172,128.1026443
꽃절(화사),충북 음성군,043-871-3411,"['관광지', '꽃절', '불교', '불교문화', '사찰', '사찰여행', '역사', '자연속으로', '자연환경']",https://cdn.visitkorea.or.kr/img/call?cmd=VIEW&id=faeab5b0-ced5-43e9-ab1d-eb041c131fee&thumb,충청북도 음성군 원남면 보덕로 330,36.8994102,127.6345811
낙영산,충북 괴산군,043-830-3114,"['관광지', '자연']",https://cdn.visitkorea.or.kr/img/call?cmd=VIEW&id=undefined&thumb,충청북도 괴산군 청천면 고성리,36.6533135,127.7930389
난계 박연선생 생가,충북 영동군,043-740-3204,"['가족여행', '관광지', '난계박연선생생가', '역사', '역사공부', '역사관광지', '역사를품은곳']",https://cdn.visitkorea.or.kr/img/call?cmd=VIEW&id=2e5bee66-8918-442a-b424-07b84a155358&thumb,충청북도 영동군 심천면 하고당1길 14-17,36.2179988,127.7025066
남천계곡,충북 단양군,043-423-0708,"['가족여행', '계곡', '관광지', '남천계곡', '단풍여행', '자연', '충청권', '피서']",https://cdn.visitkorea.or.kr/img/call?cmd=VIEW&id=e9eea97f-768a-4596-8209-c9693a8fdedd&thumb,충청북도 단양군 영춘면 남천계곡로 375,37.0400862,128.513275
낭추골 현장체험학습원,충북 청주시,043-297-1122,"['관광지', '낭추골현장체험학습원', '생태관광지', '아이와함께', '자연좋은곳']",https://cdn.visitkorea.or.kr/img/call?cmd=VIEW&id=2f4fa4b4-c059-4011-b146-31c71583046d&thumb,충청북도 청주시 상당구 낭성면 단재로 1890,36.598121,127.6180379
노목계곡,충북 제천시,043-641-6731,"['가족여행', '관광지', '노목계곡', '아이와함께', '여름방학가볼만한곳', '여름여행']",https://cdn.visitkorea.or.kr/img/call?cmd=VIEW&id=5c13aaf1-5dd9-469c-87b5-59c8d4c2d79c&thumb,충청북도 제천시 봉양읍 옥전길,37.176978,128.0862699
노은영당,충북 진천군,043-539-3624,"['관광지', '역사', '역사공부', '역사관광지', '역사를품은곳', '역사문화재', '역사속']",https://cdn.visitkorea.or.kr/img/call?cmd=VIEW&id=c92ea56a-cdd7-40c4-916a-aee388172f2d&thumb,충청북도 진천군 이월면 논실길 113-10,36.9235465,127.4161076
높은벌,충북 옥천군,043-730-4622,"['경치좋은곳', '관광지', '산책길', '산책하기', '산책하기좋은곳', '자연마을', '자연환경']",https://cdn.visitkorea.or.kr/img/call?cmd=VIEW&id=c43121a0-b47e-4387-bb3e-03b4ef792b94&thumb,충청북도 옥천군 청성면 고당로1길,36.2848585,127.7022551
"능강계곡, 얼음골",충북 제천시,043-641-6731,"['경치좋은곳', '관광지', '기상관광', '능강계곡', '얼음골', '여름방학가볼만한곳']",https://cdn.visitkorea.or.kr/img/call?cmd=VIEW&id=3e75cc5a-5c23-4b17-8029-02368bf10c16&thumb,충청북도 제천시 수산면 옥순봉로 1185,36.955213,128.2153962
능암온천랜드,충북 충주시,043-844-2020,"['관광지', '남녀노소', '목욕탕', '온천수', '휴식공간', '휴식여행', '휴식하기', '휴식하기좋은곳']",https://cdn.visitkorea.or.kr/img/call?cmd=VIEW&id=ffc198fe-6678-4db4-94e9-82777a2f3e07&thumb,충청북도 충주시 앙성면 새바지길 37,37.0935915,127.8020437
다리안계곡,충북 단양군,043-422-1146,"['가족여행', '계곡', '관광지', '다리안계곡', '자연', '충청권', '피서']",https://cdn.visitkorea.or.kr/img/call?cmd=VIEW&id=aaae1f5a-a4b8-46e3-a2e6-c1e664c186bb&thumb,충청북도 단양군 단양읍 다리안로 528-10,36.9731031,128.4173187
단양 감골 바람개비마을,충북 단양군,043-420-3977,"['가족여행', '감골바람개비마을', '관광지', '농촌마을', '농촌전통테마마을', '농촌체험']",https://cdn.visitkorea.or.kr/img/call?cmd=VIEW&id=77674b49-40ae-455e-93ae-d03120df7803&thumb,충청북도 단양군 적성면 금수산로 784-10,36.9737851,128.2844118
단양 고수동굴,충북 단양군,043-422-3072,"['가족과함께', '관광지', '교육여행', '단양가볼만한곳', '단양고수동굴', '미세먼지탈출_이색동굴여행']",https://cdn.visitkorea.or.kr/img/call?cmd=VIEW&id=99050234-8e18-481c-a712-c309af77a975&thumb,충청북도 단양군 단양읍 고수동굴길 8,36.9884069,128.3816062
단양 관광특구,충북 단양군,043-420-3035,"['가족과함께', '관광지', '남녀노소', '아이와함께', '자연관광지', '자연마을', '자연여행']",https://cdn.visitkorea.or.kr/img/call?cmd=VIEW&id=04269b1d-c824-4731-bad0-b6b9bd953e44&thumb,충청북도 단양군 단양읍 고수동굴길 3-11,36.9874129,128.3816069
단양 금굴 구석기유적지,충북 단양군,043-420-2556,"['관광지', '교과서속여행', '단양금굴구석기유적지', '아이와함께', '역사', '역사공부']",https://cdn.visitkorea.or.kr/img/call?cmd=VIEW&id=9b3a0073-bda0-4493-8573-95e6679d48e6&thumb,충청북도 단양군 단양읍 도담리,36.9984905,128.3627411
단양 다리안관광지,충북 단양군,043-423-1243,"['가족여행', '관광지', '나들이', '다리안폭포', '단양다리안관광지', '데이트코스']",https://cdn.visitkorea.or.kr/img/call?cmd=VIEW&id=a27c16f7-3724-4477-99ec-bf949f20a8e9&thumb,충청북도 단양군 단양읍 소백산등산길 12,36.9636055,128.4204742
단양 방곡도깨비마을,충북 단양군,043-422-1146,"['관광지', '도자기체험', '방곡도깨비마을', '이색체험', '자연마을', '자연속으로']",https://cdn.visitkorea.or.kr/img/call?cmd=VIEW&id=9079e7e6-6f87-43a9-891d-61930369ec14&thumb,충청북도 단양군 대강면 선암계곡로 148,36.8282431,128.3114135
단양 사인암,충북 단양군,043-422-1146,"['가족여행', '관광지', '기차여행', '단양사인암', '문화재', '아이와함께', '유적지']",https://cdn.visitkorea.or.kr/img/call?cmd=VIEW&id=046cca8b-4c97-4e47-83dd-efbd96dc8834&thumb,충청북도 단양군 대강면 사인암2길 42,36.8943884,128.3403949
단양 수양개빛터널,충북 단양군,043-421-5453,"['가족과함께', '가족여행', '관광지', '남녀노소', '단양가볼만한곳', '빛터널', '사진찍기좋은곳']",https://cdn.visitkorea.or.kr/img/call?cmd=VIEW&id=fc9122ff-9545-4894-9c42-d58346cc104b&thumb,충청북도 단양군 적성면 수양개유적로 390,36.9601957,128.3325843
단양 신라 적성비,충북 단양군,043-422-1146,"['가족여행', '관광지', '단양신라적성비', '역사', '역사공부', '역사관광지', '역사를품은곳']",https://cdn.visitkorea.or.kr/img/call?cmd=VIEW&id=b915ead3-e68e-456c-b18a-9627736926ba&thumb,충청북도 단양군 단성면 하방3길,36.9395935,128.3207627
단양 온달동굴,충북 단양군,043-423-8820,"['관광지', '미세먼지탈출_이색동굴여행', '자연']",https://cdn.visitkorea.or.kr/img/call?cmd=VIEW&id=f317e8a9-d1cb-4c4d-858e-a525953aefa5&thumb,충청북도 단양군 영춘면 온달로 23,37.0626113,128.4926074
단양 온달산성,충북 단양군,043-423-8820,"['가족여행', '관광지', '교과서속여행', '단양온달산성', '아이와함께', '역사', '역사유적지']",https://cdn.visitkorea.or.kr/img/call?cmd=VIEW&id=bb9e2223-8d4f-4c72-8122-e95549c317ca&thumb,충청북도 단양군 영춘면 하리,37.0670117,128.4858333
단양 장익는 마을,충북 단양군,043-422-5790,"['관광지', '농촌마을', '농촌여행', '산업관광', '이색체험', '장익는마을', '전통산업']",https://cdn.visitkorea.or.kr/img/call?cmd=VIEW&id=d31c9446-954a-405f-ba55-99d42dadcc52&thumb,충청북도 단양군 대강면 도예로 427-48,36.8176988,128.321063
단양 적성,충북 단양군,043-420-3114,"['가족여행', '관광지', '단양적성', '사적', '역사', '역사공부', '역사관광지', '역사를품은곳']",https://cdn.visitkorea.or.kr/img/call?cmd=VIEW&id=6966ddbf-7627-4b3c-af49-eebc4182916e&thumb,충청북도 단양군 단성면,36.9371158,128.3234095
단양 천동동굴,충북 단양군,043-422-2972,"['관광지', '미세먼지탈출_이색동굴여행', '자연']",https://cdn.visitkorea.or.kr/img/call?cmd=VIEW&id=ff5aad8b-85e2-4f88-aebe-8a14882addb9&thumb,충청북도 단양군 단양읍 천동2길,36.9710168,128.4247655
단양 팔경,충북 단양군,043-422-1146,"['관광지', '자연', '충청권']",https://cdn.visitkorea.or.kr/img/call?cmd=VIEW&id=4ddf3712-07c6-4ac0-94ab-738be9387245&thumb,충청북도 단양군 단성면,36.9371158,128.3234095
단양 향산리 삼층석탑,충북 단양군,043-420-2556,"['가족여행', '관광지', '단양향산리삼층석탑', '보물', '역사', '역사공부', '역사관광']",https://cdn.visitkorea.or.kr/img/call?cmd=VIEW&id=d5e39220-f2f9-4dc2-8ac1-699ae0565e2c&thumb,충청북도 단양군 가곡면 향산1길 14-3,37.0543631,128.417173
단양강 잔도,충북 단양군,043-422-1146,"['가족과함께', '경치좋은곳', '관광지', '산책길', '산책하기좋은곳', '아이와함께']",https://cdn.visitkorea.or.kr/img/call?cmd=VIEW&id=41ae5053-c368-416d-8d04-6e7c56b572b9&thumb,충청북도 단양군 단양읍 삼봉로 31,36.9820869,128.3485245
단양고수동굴,충북 단양군,043-422-3072,"['고수동굴', '고수리', '관광지', '단양고수동굴', '미세먼지탈출_이색동굴여행']",https://cdn.visitkorea.or.kr/img/call?cmd=VIEW&id=10ea1ea4-d39f-4c34-938b-636679090970&thumb,충청북도 단양군 단양읍 고수동굴길 8,36.9884069,128.3816062
단양조자형가옥,충북 단양군,043-420-2556,"['가옥', '관광지', '교과서속여행', '문화재', '역사', '역사공부', '역사관광지', '역사를품은곳']",https://cdn.visitkorea.or.kr/img/call?cmd=VIEW&id=c3b4f1a8-0a28-45fa-9836-6fabd391a952&thumb,충청북도 단양군 가곡면 덕천1길 19,37.0033149,128.3837548
단양향교,충북 단양군,043-420-2556,"['관광지', '역사', '역사공부', '역사관광지', '역사를품은곳', '역사문화재', '역사속']",https://cdn.visitkorea.or.kr/img/call?cmd=VIEW&id=87b517d7-bcc2-48d5-bed1-cfca76f93daf&thumb,충청북도 단양군 단성면 충혼로 26,36.937277,128.3228852
단호사(충주),충북 충주시,043-851-7879,"['관광지', '교과서속여행', '단호사', '불교', '불교문화', '사찰', '사찰여행', '아이와함께']",https://cdn.visitkorea.or.kr/img/call?cmd=VIEW&id=2a7ea5c2-7a40-4e3e-aad0-77adf9efff7c&thumb,충청북도 충주시 충원대로 201,36.94676,127.9007175
달천,충북 괴산군,043-830-3454,"['감천', '강', '관광지', '달래강', '달천', '자연', '충청권']",https://cdn.visitkorea.or.kr/img/call?cmd=VIEW&id=5c65da31-06c4-4975-be67-890f1501bcd8&thumb,충청북도 괴산군 칠성면 두천리,36.7945362,127.8421476
대성사(옥천),충북 옥천군,043-732-5560,"['가족여행', '관광지', '대성사(옥천)', '불교', '불교문화', '사찰', '사찰&산사', '사찰여행']",https://cdn.visitkorea.or.kr/img/call?cmd=VIEW&id=844cb14e-2768-411f-8fe0-54d4c4a1bbc2&thumb,충청북도 옥천군 옥천읍 지용로 142,36.3165316,127.59086
대성사(이원),충북 옥천군,043-732-2274,"['관광지', '불교', '불교문화', '사찰', '사찰여행', '역사', '자연속으로', '자연환경']",https://cdn.visitkorea.or.kr/img/call?cmd=VIEW&id=dc7c3065-6cc8-4243-acb7-932f528eaabf&thumb,충청북도 옥천군 이원면 강청길 36-9,36.2456574,127.613704
대원사(충주),충북 충주시,043-847-4059,"['관광지', '교과서속여행', '대원사', '불교', '불교문화', '사찰', '사찰여행', '아이와함께']",https://cdn.visitkorea.or.kr/img/call?cmd=VIEW&id=ec78a5b4-d621-4042-87f3-6b988b340dd3&thumb,충청북도 충주시 사직산12길 55,36.9693096,127.9292485
대청댐,충북 청주시,042-930-7332,"['가족여행', '관광지', '대청댐', '생태관광', '자연', '자연좋은곳', '충청권']",https://cdn.visitkorea.or.kr/img/call?cmd=VIEW&id=07868224-5ad0-4103-af7a-95e8490df882&thumb,대전광역시 대덕구 대청로 618-136,36.4743145,127.4816416
대한성공회 진천성당,충북 진천군,043-533-2246,"['관광지', '역사', '역사공부', '역사관광지', '역사를품은곳', '역사문화재', '역사속으로']",https://cdn.visitkorea.or.kr/img/call?cmd=VIEW&id=7e8520aa-1b0a-4f3d-be0e-8dd780ae7a1a&thumb,충청북도 진천군 진천읍 문화3길 72,36.8435331,127.4425913
대흥사(진천),충북 진천군,043-533-2696,"['관광지', '불교', '불교문화', '사찰', '사찰여행', '역사', '자연속으로', '자연환경']",https://cdn.visitkorea.or.kr/img/call?cmd=VIEW&id=b0cadf16-b665-4759-9083-bec3a59d8ccd&thumb,충청북도 진천군 진천읍 문진로 1300-80,36.8405225,127.4226245
덕동계곡,충북 제천시,043-641-6731,"['가족여행', '관광지', '덕동계곡', '드라이브여행', '여름방학가볼만한곳', '여름여행']",https://cdn.visitkorea.or.kr/img/call?cmd=VIEW&id=d2f9ec4d-0013-4dcf-ae8f-42ad5b88eac4&thumb,충청북도 제천시 백운면 화당로2길 19,37.1721273,127.9877707
덕동생태숲,충북 제천시,043-220-5517,"['관광지', '덕동생태숲', '생태숲', '이색체험', '자연', '체험', '충청권']",https://cdn.visitkorea.or.kr/img/call?cmd=VIEW&id=ab377151-dcb1-4576-b043-849daf6e3fc9&thumb,충청북도 제천시 백운면 덕동로 435,37.2098886,127.9629265
덕주사 마애여래입상 (덕주사 마애불),충북 제천시,043-653-1773,"['관광지', '덕주사마애불', '덕주사마애여래입상', '보물', '불교', '불교문화', '사찰']",https://cdn.visitkorea.or.kr/img/call?cmd=VIEW&id=a816ebac-283a-42fe-aa33-6915ac199375&thumb,충청북도 제천시 한수면 미륵송계로2길 87,36.8618164,128.0990167
덕주사 약사여래입상,충북 제천시,043-653-1773,"['관광지', '덕주사약사여래입상', '불교', '불교문화', '사찰', '사찰여행', '역사']",https://cdn.visitkorea.or.kr/img/call?cmd=VIEW&id=0818c43b-0dd5-41e3-9e8f-d2135778d41c&thumb,충청북도 제천시 한수면 미륵송계로2길 87,36.8618164,128.0990167
덕주사(제천),충북 제천시,043-653-1773,"['관광지', '교과서속여행', '기차여행', '나들이', '덕주사', '사찰&산사', '아이와함께']",https://cdn.visitkorea.or.kr/img/call?cmd=VIEW&id=dfcec046-ac6f-4741-b096-5f721c9be934&thumb,충청북도 제천시 한수면 미륵송계로2길 87,36.8618164,128.0990167
덕천서원,충북 청주시,043-201-2021,"['관광지', '덕천서원', '역사', '역사공부', '역사관광지', '역사를품은곳', '역사문화재']",https://cdn.visitkorea.or.kr/img/call?cmd=VIEW&id=8031d725-2e9a-4a08-9c73-49390f59b0fc&thumb,충청북도 청주시 상당구 가덕면 노동3길 16-30,36.5435554,127.5344768
도담삼봉,충북 단양군,042-422-3037,"['가족여행', '관광지', '교과서속여행', '도담삼봉', '아이와함께', '역사유적지']",https://cdn.visitkorea.or.kr/img/call?cmd=VIEW&id=6b972a85-d65c-4d71-9dc5-99c5a64b72cf&thumb,충청북도 단양군 매포읍 삼봉로 644-33,37.0029983,128.3432616
도담삼봉 음악분수,충북 단양군,043-422-1146,"['가족여행', '관광지', '도담삼봉', '도담삼봉음악분수', '산책길', '산책하기', '산책하기좋은곳']",https://cdn.visitkorea.or.kr/img/call?cmd=VIEW&id=44c6a83c-6165-4cbe-8c86-d29ea1c06e9f&thumb,충청북도 단양군 매포읍 삼봉로 644-13,37.0007407,128.3417706
도락산,충북 단양군,043-653-3251,"['관광지', '자연']",https://cdn.visitkorea.or.kr/img/call?cmd=VIEW&id=536c4e98-fc8a-433d-8d5d-68e39c879ee4&thumb,충청북도 단양군 단성면 가산리,36.8776051,128.3036204
도란원 샤토미소,충북 영동군,043-743-2109,"['관광지', '남녀노소', '연인과함께', '와인체험', '이색체험', '체험프로그램', '친구와함께']",https://cdn.visitkorea.or.kr/img/call?cmd=VIEW&id=cdd14303-2daf-4000-a381-76f54407892d&thumb,충청북도 영동군 매곡면 유전장척길 143,36.192102,127.9367511
도마령,충북 영동군,043-745-7741,"['가족과함께', '관광지', '구불길', '꼬부랑길', '도마령', '드라이브여행', '드라이브코스']",https://cdn.visitkorea.or.kr/img/call?cmd=VIEW&id=3634c4cd-3b66-4a88-9805-7de2f5ebd1c0&thumb,충청북도 영동군 용화면 조동리,36.0573434,127.8251649
도명산,충북 괴산군,043-832-4347,"['관광지', '자연']",https://cdn.visitkorea.or.kr/img/call?cmd=VIEW&id=null&thumb,충청북도 괴산군 청천면 화양동길 12,36.6788696,127.802618
독수리봉,충북 보은군,043-540-3392,"['경치여행', '경치좋은곳', '관광지', '자연관광지', '자연발생', '자연속으로', '자연여행']",https://cdn.visitkorea.or.kr/img/call?cmd=VIEW&id=21985e62-c996-4a63-b20e-b400214a7ac5&thumb,충청북도 보은군 회남면 안내회남로 1390-1,36.4214837,127.5806898
동락전승비,충북 충주시,,"['관광지', '역사관광지', '역사를품은곳', '역사문화재', '역사속', '역사속으로']",https://cdn.visitkorea.or.kr/img/call?cmd=VIEW&id=07cdb558-41d6-45d5-8d6f-d3794babb199&thumb,충청북도 충주시 신니면 신덕로,36.9966891,127.7212227
동래부사송상현충렬사(청주),충북 청주시,043-201-0916,"['관광지', '교과서속여행', '동래부사송상현충렬사', '역사', '역사공부', '역사관광지']",https://cdn.visitkorea.or.kr/img/call?cmd=VIEW&id=b9b48ebd-2942-47bc-8aa1-5ec0f83dde1f&thumb,충청북도 청주시 흥덕구 강상로18번길 44,36.6218601,127.3920169
동부창고,충북 청주시,043-715-6861,"['가볼만한한축제', '관광지', '도시재생', '동부창고', '문화예술공간', '복합문화공간']",https://cdn.visitkorea.or.kr/img/call?cmd=VIEW&id=8fdd69e7-29c1-4beb-bb9c-03274c7f43e6&thumb,충청북도 청주시 청원구 상당로 314,36.6554335,127.4901913
동화사(충북),충북 청주시,043-260-9477,"['관광지', '교과서속여행', '동화사', '불교', '불교문화', '사찰', '사찰여행', '역사']",https://cdn.visitkorea.or.kr/img/call?cmd=VIEW&id=997acf1e-2411-462e-873d-702c22c16842&thumb,충청북도 청주시 서원구 남이면 척산화당로 444,36.5454862,127.4852391
두타산(충북),충북 진천군,043-539-3623,"['관광지', '자연']",https://cdn.visitkorea.or.kr/img/call?cmd=VIEW&id=null&thumb,충청북도 진천군 초평면 용정리,36.8399176,127.5227837
둔주봉,충북 옥천군,043-730-4544,"['경치좋은곳', '관광지', '남녀노소', '등산객', '사진찍기좋은곳', '사진촬영', '사진촬영명소']",https://cdn.visitkorea.or.kr/img/call?cmd=VIEW&id=99cb15ee-292f-48cb-81fd-0148fc7000e9&thumb,충청북도 옥천군 안남면,36.3562127,127.6727809
만동묘정비,충북 괴산군,043-830-3433,"['가족여행', '관광지', '만동묘정비', '역사', '역사공부', '역사관광지', '역사관광지']",https://cdn.visitkorea.or.kr/img/call?cmd=VIEW&id=526fb2bf-2b9f-41af-a714-29195882a088&thumb,충청북도 괴산군 청천면 화양동길 188,36.6687714,127.8114156
만뢰사,충북 진천군,043-539-3624,"['관광지', '만뢰사', '사당', '역사', '역사공부', '역사관광지', '역사를품은곳', '역사문화재']",https://cdn.visitkorea.or.kr/img/call?cmd=VIEW&id=20cb791a-7fc3-4904-8b9f-7d64a085658c&thumb,충청북도 진천군 백곡면 강당길 50-6,36.891485,127.3222362
만뢰산,충북 진천군,043-539-3623,"['관광지', '자연']",https://cdn.visitkorea.or.kr/img/call?cmd=VIEW&id=ecc2f5cf-9749-46c9-bf94-e486ec0ecf34&thumb,충청북도 진천군 백곡면 대문리,36.8672644,127.3328985
만성사(문수암),충북 진천군,043-532-9350,"['관광지', '불교', '불교문화', '사찰', '사찰여행', '역사', '자연속으로', '자연환경']",https://cdn.visitkorea.or.kr/img/call?cmd=VIEW&id=99979ba4-27ec-4ae3-b3ec-03480362a8d8&thumb,충청북도 진천군 진천읍 금사로 252-106,36.8212592,127.392109
만수계곡,충북 보은군,043-542-3006,"['가족여행', '관광지', '나들이', '데이트코스', '만수계곡', '아이와함께', '여름방학가볼만한곳']",https://cdn.visitkorea.or.kr/img/call?cmd=VIEW&id=47915531-1de7-4eb8-8f39-dc735a7c2230&thumb,충청북도 보은군 속리산면 만수길 136,36.495315,127.8678127
만천하 알파인코스터,충북 단양군,043-421-0014,"['관광지', '남녀노소', '만천하', '만천하알파인코스터', '연인과함께', '이색체험']",https://cdn.visitkorea.or.kr/img/call?cmd=VIEW&id=a0daf5f4-6843-40e1-bf5a-1b10e68a6f83&thumb,충청북도 단양군 적성면 옷바위길 10,36.9770829,128.3369439
만천하 짚와이어,충북 단양군,043-421-0014,"['경치좋은곳', '관광지', '만천하', '연인과함께', '이색체험', '자연좋은곳', '자연환경']",https://cdn.visitkorea.or.kr/img/call?cmd=VIEW&id=7c055c56-9703-4700-9b36-b7072f40208f&thumb,충청북도 단양군 적성면 옷바위길 10,36.9770829,128.3369439
매학폭포,충북 충주시,043-845-7829,"['관광지', '매학폭포', '자연', '충청권', '폭포']",https://cdn.visitkorea.or.kr/img/call?cmd=VIEW&id=07f9d5d7-b458-4dd6-8625-d304360ffae0&thumb,충청북도 충주시 수안보면 사문리,36.8343464,128.0447125
멍딩이마을,충북 괴산군,043-832-4710,"['가족과함께', '가족체험', '공예', '공예체험', '관광지', '농촌마을', '농촌여행']",https://cdn.visitkorea.or.kr/img/call?cmd=VIEW&id=8f8e40f8-b5a8-4fa1-86ad-2562211a762e&thumb,충청북도 괴산군 소수면 원소로명덕2길 3,36.8404881,127.717723
명암산채건강마을,충북 제천시,043-653-7788,"['건강', '건강여행', '관광지', '명상', '약초생활건강', '자연속으로', '자연좋은곳']",https://cdn.visitkorea.or.kr/img/call?cmd=VIEW&id=6ba0f590-f3c0-4e1e-bf71-1c5701e933ce&thumb,충청북도 제천시 봉양읍 명암로3길 91,37.1854332,128.120489
명암유원지,충북 청주시,043-201-2752,"['가족여행', '관광지', '명암유원지', '산책길', '산책하기', '산책하기좋은곳', '생태관광지']",https://cdn.visitkorea.or.kr/img/call?cmd=VIEW&id=76a25e31-eaf9-464a-8594-fd91f5efefe1&thumb,충청북도 청주시 상당구 성내로124번길 14,36.6646083,127.5426991
목계나루,충북 충주시,043-848-4079,"['강', '관광지', '목계나루', '이색체험', '전통문화체험', '체험학습', '충청권']",https://cdn.visitkorea.or.kr/img/call?cmd=VIEW&id=b5553f12-8755-4e6a-8c0d-8d2c15516460&thumb,충청북도 충주시 엄정면 동계길 29-1,37.0746311,127.8886041
목계솔밭(충주),충북 충주시,043-842-0531,"['가족여행', '관광지', '목계솔밭', '산책하기', '산책하기좋은곳', '자연', '충청권']",https://cdn.visitkorea.or.kr/img/call?cmd=VIEW&id=11bf3f55-165d-450b-bc49-25a64a68f22e&thumb,충청북도 충주시 중앙탑면 첨단산업로,37.0460598,127.8587064
목담서원,충북 옥천군,043-730-3728,"['관광지', '역사', '역사공부', '역사관광지', '역사를품은곳', '역사문화재', '역사속']",https://cdn.visitkorea.or.kr/img/call?cmd=VIEW&id=undefined&thumb,충청북도 옥천군 동이면 옥천동이로 788-30,36.286528,127.6408757
목도강변유원지,충북 괴산군,043-830-3454,"['가족과함께', '경치좋은곳', '관광지', '괴산가볼만한곳', '아이와함께', '자연여행']",https://cdn.visitkorea.or.kr/img/call?cmd=VIEW&id=62ea8486-ed14-4a44-872b-c1ed2d2feeed&thumb,충청북도 괴산군 불정면 목도리,36.8755787,127.8435926
목은영당,충북 청주시,043-201-0916,"['관광지', '교과서속여행', '목은영당', '역사', '역사공부', '역사관광지', '역사를품은곳']",https://cdn.visitkorea.or.kr/img/call?cmd=VIEW&id=8a9dade9-10d2-4585-945b-add432b69f4f&thumb,충청북도 청주시 청원구 충청대로272번길 230-14,36.6772818,127.5085313
무극전적 국민관광지,충북 음성군,043-871-5930,"['가족여행', '관광지', '기념관', '무극전적국민관광지', '아이와함께', '역사를품은곳']",https://cdn.visitkorea.or.kr/img/call?cmd=VIEW&id=273f2e13-39b0-420a-9be9-ac6a7ffbabbc&thumb,충청북도 음성군 음성읍 생음대로 594,36.9511967,127.6468141
무암사,충북 제천시,043-652-0897,"['관광지', '불교', '불교문화', '불교사찰', '사찰', '사찰여행', '역사', '자연속으로']",https://cdn.visitkorea.or.kr/img/call?cmd=VIEW&id=91428bec-26f3-4a98-8370-c21a03c9e842&thumb,충청북도 제천시 금성면 청풍호로39길 285,37.0307898,128.2052353
묵정서원,충북 청주시,043-201-0916,"['관광지', '역사', '역사공부', '역사관광지', '역사를품은곳', '역사문화재', '역사속']",https://cdn.visitkorea.or.kr/img/call?cmd=VIEW&id=54bcb827-76c7-4f89-9c1f-1633ed8a6590&thumb,충청북도 청주시 상당구 낭성면 관정길 71-29,36.6143002,127.6296392
문성자연휴양림,충북 충주시,043-870-7911,"['걷기길', '관광지', '등산', '문성자연휴양림', '오토캠핑', '자연', '자연&숲치유']",https://cdn.visitkorea.or.kr/img/call?cmd=VIEW&id=3448cbc1-c3d5-48f4-9c92-39e9a8d7739e&thumb,충청북도 충주시 노은면 우성1길 191,37.0274709,127.7544342
문수암(옥천),충북 옥천군,043-732-9882,"['관광지', '불교', '불교문화', '사찰', '사찰여행', '역사', '자연속으로', '자연환경']",https://cdn.visitkorea.or.kr/img/call?cmd=VIEW&id=e697255d-415c-4b12-98cb-31d702fe41f0&thumb,충청북도 옥천군 청성면 도장1길 33,36.3792402,127.731047
문암생태공원,충북 청주시,043-201-0732,"['관광지', '산책길', '산책하기좋은곳', '자연여행', '자연좋은곳', '자연풍경', '자연환경']",https://cdn.visitkorea.or.kr/img/call?cmd=VIEW&id=2defb835-afa1-4b34-bdf8-168e581465d6&thumb,충청북도 청주시 흥덕구 문암동 100,36.6741613,127.4512318
문의문화재단지,충북 청주시,043-201-0915,"['가족여행', '관광지', '문의문화재단지', '박물관', '아이와함께', '역사', '역사공부']",https://cdn.visitkorea.or.kr/img/call?cmd=VIEW&id=0689d604-9b09-4c43-b5bb-400ee3d5445f&thumb,충청북도 청주시 상당구 문의면 대청호반로 721,36.5070855,127.4937073
문의향교,충북 청주시,043-201-0916,"['관광지', '역사', '역사공부', '역사관광지', '역사를품은곳', '역사문화재', '역사속']",https://cdn.visitkorea.or.kr/img/call?cmd=VIEW&id=b3d1f061-efea-4eca-b7a6-52bdbfafbae5&thumb,충청북도 청주시 상당구 문의면 문의시내1길 11-14,36.5177548,127.4961708
물안뜰체험관,충북 진천군,043-536-0411,"['가족체험여행', '관광지', '농촌체험', '물안뜰체험관', '자연마을', '자연좋은곳']",https://cdn.visitkorea.or.kr/img/call?cmd=VIEW&id=7b2e1f7f-436c-4294-a0ca-766ee4bcb91f&thumb,충청북도 진천군 백곡면 백곡로 964,36.8870811,127.3490356
물한계곡,충북 영동군,043-743-4301,"['가족여행', '관광지', '나들이', '데이트코스', '물한계곡', '아이와함께', '여름방학가볼만한곳']",https://cdn.visitkorea.or.kr/img/call?cmd=VIEW&id=52357166-a0ac-486f-ab06-b33ad48ef522&thumb,충청북도 영동군 상촌면,36.1488053,127.9142032
미동산수목원,충북 청주시,043-220-6101,"['관광지', '미동산수목원', '생태관광', '수목원', '연인과함께', '자연', '자연좋은곳']",https://cdn.visitkorea.or.kr/img/call?cmd=VIEW&id=0249b07a-8c5b-4ae8-85bf-b7aafc635102&thumb,충청북도 청주시 상당구 미원면 수목원길 51,36.6259601,127.6671926
미륵대흥사(단양),충북 단양군,043-442-9108,"['관광지', '미륵대흥사', '불교', '불교문화', '사찰', '사찰여행', '역사', '자연환경']",https://cdn.visitkorea.or.kr/img/call?cmd=VIEW&id=29523825-7742-45d2-a098-44ca0b1e1916&thumb,충청북도 단양군 대강면 황정산로 423,36.8564792,128.3476899
미륵리 불두,충북 충주시,043-850-5980,"['관광지', '역사', '역사공부', '역사관광지', '역사를품은곳', '역사문화', '역사문화재']",https://cdn.visitkorea.or.kr/img/call?cmd=VIEW&id=2cbd7449-33b8-4326-8d25-0901658de68e&thumb,충청북도 충주시 수안보면 미륵리,36.8205886,128.0940826
미륵사(증평),충북 증평군,043-836-3689,"['관광지', '불교', '불교문화', '사찰', '사찰여행', '역사', '역사관광지', '자연속으로']",https://cdn.visitkorea.or.kr/img/call?cmd=VIEW&id=360e5019-58b1-48fc-938a-0e206b91659d&thumb,충청북도 증평군 증평읍 미륵댕이1길 13-5,36.7950573,127.5853647
미타사(음성),충북 음성군,043-872-0522,"['관광지', '불교', '불교문화', '사찰', '사찰여행', '역사', '자연속으로', '자연환경']",https://cdn.visitkorea.or.kr/img/call?cmd=VIEW&id=b6896cdb-679a-4996-afae-39140263f02e&thumb,충청북도 음성군 소이면 소이로61번길 164,36.9551103,127.7314399
민주지산,충북 영동군,043-740-3205,"['관광지', '자연']",https://cdn.visitkorea.or.kr/img/call?cmd=VIEW&id=null&thumb,충청북도 영동군 상촌면 물한리,36.059221,127.8743293
민주지산 자연휴양림,충북 영동군,043-740-3437,"['관광지', '민주지산자연휴양림', '자연', '자연휴양림', '충청권', '힐링']",https://cdn.visitkorea.or.kr/img/call?cmd=VIEW&id=7c4c5695-51f6-4c38-81bd-d54abd125444&thumb,충청북도 영동군 용화면 휴양림길 60,36.0537347,127.8268477
박달산(괴산),충북 괴산군,043-830-3114,"['관광지', '자연']",https://cdn.visitkorea.or.kr/img/call?cmd=VIEW&id=48d934b6-1d56-4b31-bb0f-a461f763926e&thumb,충청북도 괴산군 장연면,36.8242064,127.9552112
박달재,충북 제천시,043-642-9398,"['관광지', '자연']",https://cdn.visitkorea.or.kr/img/call?cmd=VIEW&id=b0c6de93-2eef-41a0-8cbc-e0d162ad051b&thumb,충청북도 제천시 봉양읍 원박리,37.1334392,128.0772171
박달재자연휴양림,충북 제천시,043-652-0910,"['관광지', '자연']",https://cdn.visitkorea.or.kr/img/call?cmd=VIEW&id=5176e2f6-d58f-4167-a898-d5d255cb54f4&thumb,충청북도 제천시 백운면 금봉로 228,37.1508881,128.0439019
박약재,충북 제천시,043-641-6731,"['관광지', '역사', '역사공부', '역사관광지', '역사를품은곳', '역사문화재', '역사속']",https://cdn.visitkorea.or.kr/img/call?cmd=VIEW&id=e3011cf8-e8c1-4979-82cd-99541e84d668&thumb,충청북도 제천시 중말16길 5-4,37.1365649,128.2645821
반기문 유엔사무총장 생가마을,충북 음성군,043-871-5932,"['관광지', '교과서속여행', '교육여행', '반기문유엔사무총장생가마을', '아이와함께']",https://cdn.visitkorea.or.kr/img/call?cmd=VIEW&id=d28e7589-af8d-4d52-b423-b95b00b91651&thumb,충청북도 음성군 원남면 행치길 17-1,36.8924433,127.6651866
반야사,충북 영동군,043-742-4199,"['관광지', '반야사', '불교문화', '사찰', '사찰여행', '역사', '자연환경', '전통사찰']",https://cdn.visitkorea.or.kr/img/call?cmd=VIEW&id=81a910f3-d203-458b-8a23-8a791c3df1e7&thumb,충청북도 영동군 황간면 백화산로 652,36.2803361,127.9089149
방곡 도예촌,충북 단양군,043-421-5020,"['가족과함께', '관광지', '도예촌', '도자기공방', '도자기만들기체험', '도자기수강']",https://cdn.visitkorea.or.kr/img/call?cmd=VIEW&id=62f32530-05e7-4397-b57d-4f712d3e23ed&thumb,충청북도 단양군 대강면 선암계곡로 133,36.8266532,128.3111605
배론성지,충북 제천시,043-651-4527,"['가족여행', '관광지', '근대문화유산', '기념관', '배론성지', '성지순례', '아이와함께']",https://cdn.visitkorea.or.kr/img/call?cmd=VIEW&id=dc480806-2ba9-46eb-b9aa-4ab40cc84faa&thumb,충청북도 제천시 봉양읍 배론성지길 296,37.1602799,128.0838569
백곡저수지,충북 진천군,043-539-3623,"['관광지', '자연']",https://cdn.visitkorea.or.kr/img/call?cmd=VIEW&id=e0da98cc-de78-4e0a-8e03-f71025b8a3b9&thumb,충북 진천군 진천읍 건송리,36.8668497,127.3991198
백련사(제천),충북 제천시,043-653-4996,"['관광지', '불교', '불교문화', '사찰', '사찰여행', '역사', '자연속으로', '자연환경']",https://cdn.visitkorea.or.kr/img/call?cmd=VIEW&id=653eba46-ae1e-4ac1-9718-7385e8bbb4c4&thumb,충청북도 제천시 봉양읍 명암로5길 414,37.2281528,128.1387645
백록서원,충북 청주시,043-201-0916,"['관광지', '역사', '역사공부', '역사관광지', '역사를품은곳', '역사문화재', '역사속']",https://cdn.visitkorea.or.kr/img/call?cmd=VIEW&id=0f0217f7-26dd-4e55-8d13-156bf4ca4b46&thumb,충청북도 청주시 흥덕구 옥산면 환희3길 38-20,36.6742064,127.3593847
백마권역마을,충북 괴산군,043-836-9911,"['가족여행지', '가족체험', '관광지', '농촌', '농촌길', '농촌체험', '농촌체험마을']",https://cdn.visitkorea.or.kr/img/call?cmd=VIEW&id=56ac8edb-4dc2-4cbf-899e-d41a2407c626&thumb,충청북도 괴산군 사리면 사리로 517,36.8254627,127.6496129
백마산,충북 음성군,043-871-3061,"['관광지', '자연']",https://cdn.visitkorea.or.kr/img/call?cmd=VIEW&id=undefined&thumb,충북 음성군 원남면 주봉리,36.8669019,127.6774186
백악산,충북 괴산군,043-830-3114,"['관광지', '자연']",https://cdn.visitkorea.or.kr/img/call?cmd=VIEW&id=undefined&thumb,충청북도 괴산군 청천면 사담리,36.6253227,127.8312852
백운사(괴산),충북 괴산군,043-836-8813,"['관광지', '불교', '불교문화', '사찰', '사찰여행', '역사', '자연속으로', '자연환경']",https://cdn.visitkorea.or.kr/img/call?cmd=VIEW&id=660b567f-9b24-4144-b95e-ae599b4c2efd&thumb,충청북도 괴산군 사리면 사리로소매2길 125-146,36.8548635,127.6674723
백운암(충주),충북 충주시,043-857-3414,"['관광지', '교과서속여행', '백운암', '불교', '불교문화', '사찰', '사찰여행', '아이와함께']",https://cdn.visitkorea.or.kr/img/call?cmd=VIEW&id=5c934cae-2083-4da3-977f-80a20d4281da&thumb,충청북도 충주시 엄정면 내창로 617-80,37.1147524,127.921095
백족사(충북),충북 청주시,043-298-5601,"['관광지', '교과서속여행', '백족사', '불교', '불교문화', '사찰', '사찰여행', '아이와함께']",https://cdn.visitkorea.or.kr/img/call?cmd=VIEW&id=64f96334-a4e6-4cbc-a393-c53f80068b19&thumb,충청북도 청주시 상당구 가덕면 은행상야로 441-122,36.593092,127.5840482
백화산,충북 영동군,043-740-3205,"['관광지', '자연']",https://cdn.visitkorea.or.kr/img/call?cmd=VIEW&id=null&thumb,충청북도 영동군 황간면 우매리,36.2707579,127.9016706
벌랏한지마을,충북 청주시,010-7750-3975,"['관광지', '농촌체험', '농촌체험마을', '농촌체험여행', '농촌체험학습', '아이와함께']",https://cdn.visitkorea.or.kr/img/call?cmd=VIEW&id=5bcc967c-f186-4c6e-bb92-ea24f053fdb4&thumb,충청북도 청주시 상당구 문의면 염티소전로 708,36.6510445,127.4870295
별새꽃돌 자연탐사과학관,충북 제천시,043-653-6534,"['관광지', '별새꽃돌자연탐사과학관', '생태관광지', '아이와함께', '자연', '전시관']",https://cdn.visitkorea.or.kr/img/call?cmd=VIEW&id=54a70f96-be4c-4350-97dd-c0142e1cfe62&thumb,충청북도 제천시 봉양읍 옥전4길 45,37.1857506,128.0580581
보강천미루나무숲,충북 증평군,043-535-3114,"['가족여행', '걷기여행', '관광지', '나들이', '당일치기여행', '데이트코스', '보강천미루나무숲']",https://cdn.visitkorea.or.kr/img/call?cmd=VIEW&id=d393e457-6c60-4f62-b3b6-f7fab76fc501&thumb,충청북도 증평군 증평읍 인삼로 104-48,36.7884519,127.5802944
보광사(괴산),충북 괴산군,043-833-4538,"['관광지', '불교', '불교문화', '사찰', '사찰여행', '역사', '자연속으로', '자연환경']",https://cdn.visitkorea.or.kr/img/call?cmd=VIEW&id=56e5f46f-b39a-46f7-99da-5b07343a861f&thumb,충청북도 괴산군 사리면 모래재로시동2길 231,36.8194504,127.6838752
보광산관광농원,충북 괴산군,043-833-3333,"['가족여행', '관광지', '농촌', '농촌여행코스', '농촌체험', '농촌체험마을', '보광산관광농원']",https://cdn.visitkorea.or.kr/img/call?cmd=VIEW&id=55fb5e20-4c7f-429b-be42-b55a87e022e7&thumb,충청북도 괴산군 사리면 모래재로 646-8,36.8062322,127.6813205
보련마을,충북 진천군,010-9416-8251,"['가족과함께', '관광지', '농촌마을', '농촌여행', '농촌체험', '농촌체험마을', '농촌체험여행']",https://cdn.visitkorea.or.kr/img/call?cmd=VIEW&id=70bbe691-2e3d-4e24-8f59-3dc17b69dbbb&thumb,충청북도 진천군 진천읍 보련골길 41-22,36.8462722,127.3510395
보련산,충북 충주시,043-842-0531,"['관광지', '자연']",https://cdn.visitkorea.or.kr/img/call?cmd=VIEW&id=345a8ad7-5ccc-441a-9774-0a78fa401b18&thumb,충청북도 충주시 노은면 수룡봉황길 249,37.0600899,127.8016641
보살사(청주),충북 청주시,043-297-7526,"['관광지', '교과서속여행', '보살사', '불교', '불교문화', '사찰', '사찰여행', '아이와함께']",https://cdn.visitkorea.or.kr/img/call?cmd=VIEW&id=ebdcb798-95ed-46c1-9f80-a8a846970112&thumb,충청북도 청주시 상당구 낙가산로 168,36.6284387,127.536241
보안사 석조여래좌상,충북 괴산군,043-836-9149,"['관광지', '역사', '역사공부', '역사관광지', '역사를품은곳', '역사문화재', '역사속']",https://cdn.visitkorea.or.kr/img/call?cmd=VIEW&id=a9efdd95-cccd-42a7-b36a-fc290e5df368&thumb,충청북도 괴산군 청안면 효근1길 3-8,36.7580821,127.6546499
보안사(괴산),충북 괴산군,043-836-9149,"['관광지', '불교', '불교문화', '불교사찰', '사찰', '사찰여행', '역사', '자연속으로']",https://cdn.visitkorea.or.kr/img/call?cmd=VIEW&id=0ced1879-62c7-4af7-9cf2-305debbfe7fc&thumb,충청북도 괴산군 청안면 효근1길 3-8,36.7580821,127.6546499
보은 법주사[유네스코 세계문화유산],충북 보은군,043-543-3615,"['가족여행', '관광지', '교과서속여행', '보은법주사', '불교', '불교문화', '사찰&산사']",https://cdn.visitkorea.or.kr/img/call?cmd=VIEW&id=d8e535aa-280c-4730-ab7f-6209cde95cb0&thumb,충청북도 보은군 속리산면 법주사로 405,36.5420409,127.833111
보은 분저실마을,충북 보은군,070-7723-8592,"['관광지', '농촌', '농촌체험', '농촌체험마을', '농촌체험여행', '농촌체험학습']",https://cdn.visitkorea.or.kr/img/call?cmd=VIEW&id=b062745a-2393-49c2-a61b-0ce0e0811ab9&thumb,충청북도 보은군 회남면 군막길 8,36.4233094,127.5750049
보은 삼년산성,충북 보은군,043-540-3406,"['관광지', '역사', '역사공부', '역사관광지', '역사를품은곳', '역사문화재', '역사속']",https://cdn.visitkorea.or.kr/img/call?cmd=VIEW&id=7c82689c-16b6-4016-a809-955e7b73cde1&thumb,충청북도 보은군 보은읍 어암리,36.477961,127.7424231
보은 서원리 소나무,충북 보은군,043-540-3407,"['관광지', '보은서원리소나무', '소나무', '역사공부', '역사관광지', '역사를품은곳']",https://cdn.visitkorea.or.kr/img/call?cmd=VIEW&id=d32c9945-b1d5-4e9b-837a-f6759ea8d91e&thumb,충청북도 보은군 장안면 서원리,36.4793391,127.8241342
보은 선병국가옥,충북 보은군,043-540-3407,"['가옥', '관광지', '교과서속여행', '문화재', '선병국가옥', '역사', '역사공부', '역사관광지']",https://cdn.visitkorea.or.kr/img/call?cmd=VIEW&id=a279b73b-f560-4f96-81d2-55f55b959048&thumb,충청북도 보은군 장안면 개안길 10-2,36.4685558,127.7906173
보은 속리 정이품송,충북 보은군,043-540-3407,"['가족여행', '관광지', '교과서속여행', '보은속리정이품송', '아이와함께', '역사']",https://cdn.visitkorea.or.kr/img/call?cmd=VIEW&id=bf22854f-2e5e-40c1-8ce9-a935414db2d2&thumb,충청북도 보은군 속리산면 상판리,36.5141178,127.8260988
보은 하얀민들레마을,충북 보은군,043-542-9523,"['가족과함께', '가족체험', '관광지', '농촌체험', '농촌체험마을', '농촌체험여행']",https://cdn.visitkorea.or.kr/img/call?cmd=VIEW&id=86a6c842-3135-45e8-b931-1363accc4216&thumb,충청북도 보은군 회인면 부수길 111-2,36.491936,127.6096295
보은동헌,충북 보은군,043-540-3407,"['관광지', '역사', '역사공부', '역사관광지', '역사를품은곳', '역사문화재', '역사속']",https://cdn.visitkorea.or.kr/img/call?cmd=VIEW&id=ff8b7077-aa60-4faa-b02b-1151867851ac&thumb,충청북도 보은군 보은읍 삼산로 56-14,36.4845026,127.7154182
보은향교,충북 보은군,043-540-3407,"['관광지', '역사']",https://cdn.visitkorea.or.kr/img/call?cmd=VIEW&id=a0ce87d3-3120-494b-8a14-888838384b79&thumb,충청북도 보은군 보은읍 향교2길 21-5,36.4919883,127.7135414
보타사(증평),충북 증평군,043-836-3542,"['관광지', '불교', '불교문화', '사찰', '사찰여행', '역사', '자연속으로', '자연환경']",https://cdn.visitkorea.or.kr/img/call?cmd=VIEW&id=4ce4788b-7788-4152-bf1b-5e55d79c7ae0&thumb,충청북도 증평군 증평읍 초평로 1571,36.8045752,127.5471757
보탑사(진천),충북 진천군,043-533-0206,"['관광지', '불교', '불교문화', '불교사찰', '사찰', '사찰여행', '역사', '자연속으로']",https://cdn.visitkorea.or.kr/img/call?cmd=VIEW&id=4d30cc1e-117e-41e5-8891-1d01fe9e65f9&thumb,충청북도 진천군 진천읍 김유신길 641,36.8397967,127.3409364
보현사(청주),충북 청주시,043-259-4926,"['관광지', '등산', '보현사', '불교', '불교문화', '사찰', '사찰여행', '역사', '자연속으로']",https://cdn.visitkorea.or.kr/img/call?cmd=VIEW&id=7701629b-2e80-4588-b9eb-cf85cfffb563&thumb,충청북도 청주시 청원구 우암산로 190-37,36.6505762,127.500853
복천사(제천),충북 제천시,043-645-1165,"['관광지', '불교', '불교문화', '사찰', '사찰여행', '역사', '자연속으로', '자연환경']",https://cdn.visitkorea.or.kr/img/call?cmd=VIEW&id=6701fcc8-a20a-4284-940d-c57208a9d589&thumb,충청북도 제천시 독순로21길 14,37.1385338,128.2176699
복천암(보은),충북 보은군,043-543-4774,"['관광지', '복천암', '불교', '불교문화', '사찰', '사찰여행', '역사', '자연속으로']",https://cdn.visitkorea.or.kr/img/call?cmd=VIEW&id=948789dc-f19e-4158-8682-34e77d3d92f7&thumb,충청북도 보은군 속리산면 법주사로 702-5,36.5514668,127.8528731
복천암(청주),충북 청주시,043-259-4043,"['관광지', '복천암', '불교', '불교문화', '사찰', '사찰여행', '역사', '자연', '자연속으로']",https://cdn.visitkorea.or.kr/img/call?cmd=VIEW&id=b7cfc113-e71c-49a3-be20-b8a34b03da1d&thumb,충청북도 청주시 상당구 교동로71번길 120,36.6432814,127.5001094
봉유재,충북 영동군,043-740-3204,"['관광지', '봉유재', '역사', '역사공부', '역사관광지', '역사를품은곳', '역사문화재']",https://cdn.visitkorea.or.kr/img/call?cmd=VIEW&id=71287f52-c10c-477c-8cae-8c578837d751&thumb,충청북도 영동군 매곡면 내동1길 40-2,36.2060754,127.9271303
봉학골산림욕장,충북 음성군,043-871-5921,"['걷기길', '관광지', '봉학골산림욕장', '수목원', '아이와함께', '자연', '자연&숲']",https://cdn.visitkorea.or.kr/img/call?cmd=VIEW&id=b4eec691-b2e0-44e2-8d60-eab71aaac251&thumb,충청북도 음성군 음성읍 용광로230번길 138,36.9719739,127.691103
봉학사(충주),충북 충주시,043-853-5723,"['관광지', '봉학사', '불교', '불교문화', '사찰', '사찰여행', '역사', '자연속으로']",https://cdn.visitkorea.or.kr/img/call?cmd=VIEW&id=ed603957-a23f-4989-912f-65a707173359&thumb,충청북도 충주시 중앙탑면 장천윗말1길 173,37.0501348,127.8559681
봉황경(능암리섬),충북 충주시,1577-4359,"['관광지', '능암리섬', '봉황경', '자연', '충청권']",https://cdn.visitkorea.or.kr/img/call?cmd=VIEW&id=0d392ce3-c279-452a-9689-039248f4fb1a&thumb,충북 충주시 가금면 가흥리,37.0672072,127.8531011
봉황자연휴양림,충북 충주시,043-870-7920,"['가족여행', '관광지', '봉황자연휴양림', '자연', '충청권']",https://cdn.visitkorea.or.kr/img/call?cmd=VIEW&id=78432a2a-580f-42bf-aa24-1ccbd341cbc9&thumb,충북 충주시 가금면 수룡봉황길 540,37.0577395,127.8268634
부소담악(추소정),충북 옥천군,043-730-3412,"['가을경치', '가족과함께', '경치여행', '경치좋은곳', '관광지', '등산로', '부소담악']",https://cdn.visitkorea.or.kr/img/call?cmd=VIEW&id=37c98440-f103-4db6-b8bf-79b0c9ccd4c1&thumb,충청북도 옥천군 군북면 추소리 519-1,36.3481342,127.5579871
북단양리조트,충북 단양군,1899-8021,"['가족과함께', '관광지', '아이와함께', '자연여행', '자연좋은곳', '자연환경', '휴식공간']",https://cdn.visitkorea.or.kr/img/call?cmd=VIEW&id=fca41112-0406-40b6-886f-cc51bc5bac96&thumb,충청북도 단양군 적성면 적성로 172-64,37.0260136,128.2893305
북벽,충북 단양군,043-420-3035,"['관광지', '기암괴석', '단풍여행', '봄꽃여행', '북벽', '자연', '충청권']",https://cdn.visitkorea.or.kr/img/call?cmd=VIEW&id=625e7636-39ae-4c81-addd-4fa8b0e3015a&thumb,충청북도 단양군 영춘면 북벽길 51-3,37.084506,128.4924566
불휘농장,충북 영동군,043-742-5275,"['관광지', '남녀노소', '영동가볼만한곳', '영동여행', '와인체험', '이색체험', '체험프로그램']",https://cdn.visitkorea.or.kr/img/call?cmd=VIEW&id=48270982-c627-453c-b4bd-f5e50682471b&thumb,충청북도 영동군 심천면 약목2길 26,36.2018604,127.720418
비학봉마을,충북 괴산군,043-832-3527,"['가족여행', '계절별체험', '관광지', '농촌', '농촌체험', '농촌체험마을', '농촌체험여행']",https://cdn.visitkorea.or.kr/img/call?cmd=VIEW&id=7a83fd8a-b648-4863-abd2-c9839240c330&thumb,충청북도 괴산군 칠성면 명태재로 265,36.7691756,127.8400479
사담계곡,충북 괴산군,043-830-3452,"['계곡', '관광지', '사담계곡', '자연', '충청권', '피서']",https://cdn.visitkorea.or.kr/img/call?cmd=VIEW&id=c85b7abf-a88a-4fb0-8a6d-ae2d8b7282be&thumb,충청북도 괴산군 청천면 괴산로대방래길 158,36.6185224,127.8237475
사담계곡유원지,충북 괴산군,043-830-3452,"['가족과함께', '관광지', '아이와함께', '여름방학가볼한곳', '여름피서지', '자연좋은곳']",https://cdn.visitkorea.or.kr/img/call?cmd=VIEW&id=79f973a1-85d5-4ab4-b488-0a91fdc84bb8&thumb,충청북도 괴산군 청천면 괴산로대방래길 158,36.6185224,127.8237475
산막와이너리,충북 영동군,043-745-3888,"['관광지', '연인과함께', '와인체험', '이색체험', '체험프로그램', '휴식공간', '휴식여행']",https://cdn.visitkorea.or.kr/img/call?cmd=VIEW&id=830351b9-d784-4869-a352-6f90308d36a4&thumb,충청북도 영동군 영동읍 산막골길 31-45,36.1666201,127.8198451
산모랭이풀내음,충북 보은군,043-542-5257,"['가족여행', '가족체험여행', '관광지', '농촌체험', '산모랭이풀내음', '이색체험']",https://cdn.visitkorea.or.kr/img/call?cmd=VIEW&id=077ea674-1795-42fe-90ef-7bdaa9abaa6f&thumb,충청북도 보은군 내북면 산척상궁로 421-100,36.5142585,127.6469239
삼가저수지,충북 보은군,043-542-3006,"['관광지', '자연']",https://cdn.visitkorea.or.kr/img/call?cmd=VIEW&id=a0de378e-22b0-44c3-bd88-f9380c2cc6a1&thumb,충청북도 보은군 속리산면,36.5121012,127.8103758
삼탄유원지,충북 충주시,043-850-6731,"['가족여행', '경치좋은곳', '관광지', '삼탄유원지', '자연속으로', '자연여행', '자연좋은곳']",https://cdn.visitkorea.or.kr/img/call?cmd=VIEW&id=078d97e0-37b5-47f6-8ea1-5b9a3f2c18fe&thumb,충청북도 충주시 산척면 인등로 177,37.0739498,127.9811433
삼형제 저수지,충북 음성군,043-871-3114,"['관광지', '자연']",https://cdn.visitkorea.or.kr/img/call?cmd=VIEW&id=a8cf0f15-943d-4cbe-8ce8-542dd4559c22&thumb,"충북 음성군 음성읍, 사정리, 금왕읍 육령리.백야리",36.9437246,127.6529137
상선암,충북 단양군,043-422-1146,"['계곡', '관광지', '상선암', '여름피서지', '자연', '충청권', '힐링']",https://cdn.visitkorea.or.kr/img/call?cmd=VIEW&id=fb8ba3fb-a066-4f1c-bcc0-65f807f8f4bc&thumb,충청북도 단양군 단성면 선암계곡로 790,36.8722173,128.2906796
상수허브랜드,충북 청주시,043-277-6633,"['관광지', '상수허브랜드', '수목원', '아이와함께', '연인과함께', '연중무휴', '자연좋은곳']",https://cdn.visitkorea.or.kr/img/call?cmd=VIEW&id=1ae57162-52b3-4451-8be0-2f2de4c3dd47&thumb,충청북도 청주시 서원구 남이면 부용외천길 18,36.5299466,127.426205
상천민속마을,충북 제천시,043-653-5501,"['가족과함께', '가족체험', '관광지', '농촌', '농촌마을', '농촌체험', '농촌체험마을']",https://cdn.visitkorea.or.kr/img/call?cmd=VIEW&id=undefined&thumb,충청북도 제천시 수산면 상천1길 16,36.9658472,128.2383545
상현서원,충북 보은군,043-540-3407,"['관광지', '상현서원', '역사', '역사공부', '역사관광지', '역사를품은곳', '역사문화재']",https://cdn.visitkorea.or.kr/img/call?cmd=VIEW&id=628883d3-59be-4683-a956-7b2aa6c0a608&thumb,충청북도 보은군 장안면 장안로 225,36.479996,127.7989486
상환암(충북),충북 보은군,043-544-3690,"['관광지', '불교', '불교문화', '사찰', '사찰여행', '역사', '자연속으로', '자연환경']",https://cdn.visitkorea.or.kr/img/call?cmd=VIEW&id=null&thumb,충청북도 보은군 속리산면 법주사로 658-22,36.547124,127.8598277
새밭계곡,충북 단양군,043-422-1146,"['계곡', '관광지', '낚시', '새밭계곡', '자연', '충청권', '캠핑', '피서']",https://cdn.visitkorea.or.kr/img/call?cmd=VIEW&id=a0dee15b-1885-4f71-a804-f339065fe8ae&thumb,충청북도 단양군 가곡면 새밭로 845,36.9880498,128.4625246
서문풍물야시장 & 서문시장삼겹살거리,충북 청주시,043-221-6633,"['관광지', '남녀노소', '맛집', '맛집탐방', '먹자골목', '삼겹살구이', '생삼겹살']",https://cdn.visitkorea.or.kr/img/call?cmd=VIEW&id=74976e60-9b0f-43a0-89df-898b51cbcffe&thumb,충청북도 청주시 상당구,36.6510445,127.4870295
서원계곡,충북 보은군,043-542-3006,"['가족여행', '경치좋은곳', '계곡', '관광지', '서원계곡', '여름여행', '연인과함께']",https://cdn.visitkorea.or.kr/img/call?cmd=VIEW&id=bcf3879b-2a52-4557-8f5e-096755d13f9e&thumb,충청북도 보은군 장안면 장안로 491-4,36.4801332,127.8181545
서정우 가옥,충북 음성군,043-871-3414,"['관광지', '역사', '역사공부', '역사를품은곳', '역사문화재', '역사속', '역사속으로']",https://cdn.visitkorea.or.kr/img/call?cmd=VIEW&id=495217fc-c30b-4ca8-977d-3f8bbac77078&thumb,충청북도 음성군 감곡면 영산로55번길,37.0782689,127.6371846
서한순 효자문,충북 진천군,043-539-3624,"['관광지', '역사', '역사공부', '역사관광지', '역사를품은곳', '역사문화재', '역사속']",https://cdn.visitkorea.or.kr/img/call?cmd=VIEW&id=c43938ce-f90a-496e-9f0a-cdab56cfef6b&thumb,충청북도 진천군 진천읍 사석리,36.8311502,127.4113189
석문,충북 단양군,043-422-1146,"['경치좋은곳', '관광지', '자연', '자연관광지', '자연발생', '자연속으로', '자연좋은곳']",https://cdn.visitkorea.or.kr/img/call?cmd=VIEW&id=99d97766-28ab-4cb4-916e-0afc6c14d146&thumb,충청북도 단양군 매포읍 삼봉로 644-33,37.0029983,128.3432616
석보군묘각,충북 괴산군,043-830-3433,"['관광지', '역사', '역사공부', '역사관광지', '역사를품은곳', '역사문화재', '역사속']",https://cdn.visitkorea.or.kr/img/call?cmd=VIEW&id=49856b23-9ce5-4c08-97de-5ecfc6f24b25&thumb,충청북도 괴산군 청안면 조천상길 74-21,36.7799441,127.6621901
석종사(충주),충북 충주시,043-854-4505,"['관광지', '불교', '불교문화', '사찰', '사찰여행', '석종사', '역사', '자연', '자연환경']",https://cdn.visitkorea.or.kr/img/call?cmd=VIEW&id=4742489c-2cc6-4a47-9e0d-ce5f2b5441d7&thumb,충청북도 충주시 직동길 271-56,36.9482764,127.9694412
석천암(괴산),충북 괴산군,043-833-8275,"['관광지', '불교', '불교문화', '사찰', '사찰여행', '석천암', '역사', '자연속으로']",https://cdn.visitkorea.or.kr/img/call?cmd=VIEW&id=0aebf7e2-483a-4fab-880e-2cc79c9948e5&thumb,충청북도 괴산군 청천면 삼송길 205-182,36.6722912,127.9017067
선암계곡(하선암),충북 단양군,043-422-1146,"['가족여행', '계곡', '관광지', '선암계곡', '자연', '충청권', '피서', '하선암']",https://cdn.visitkorea.or.kr/img/call?cmd=VIEW&id=35ee75d8-b500-4b7a-8b96-57affea48a17&thumb,충청북도 단양군 단성면 선암계곡로 1337,36.90788,128.3093556
선암골생태유람길(고개넘어길),충북,043-420-2552,"['걷기길', '관광지', '드라이브여행', '생태관광', '생태관광', '생태관광지', '생태관광지']",https://cdn.visitkorea.or.kr/img/call?cmd=VIEW&id=421a2006-944c-400e-a8f2-b8cb40842c6e&thumb,충청북도 단양군 단성면 벌천리 일대,36.8726937,128.2626233
선암골생태유람길(농촌풍경길),충북 단양군,043-420-2552,"['걷기길', '관광지', '드라이브여행', '생태관광', '생태관광지', '선암계곡', '충청권']",https://cdn.visitkorea.or.kr/img/call?cmd=VIEW&id=32d94db2-e961-4f6c-b3ce-0e7e8f387b5f&thumb,충청북도 단양군 대강면 사인암리 일대,36.894303,128.3406567
선암골생태유람길(물소리길),충북 단양군,043-420-2552,"['걷기길', '관광지', '드라이브여행', '물소리길', '생태관광', '생태관광지', '선암계곡']",https://cdn.visitkorea.or.kr/img/call?cmd=VIEW&id=bf947599-aae3-4e13-8420-41cc0dd70020&thumb,충청북도 단양군 단성면 하방리 일대,36.9428975,128.3189927
선암골생태유람길(숲소리길),충북 단양군,043-420-2552,"['걷기길', '관광지', '드라이브여행', '생태관광', '생태관광지', '선암계곡', '선암골생태유람길']",https://cdn.visitkorea.or.kr/img/call?cmd=VIEW&id=5f25aa64-02ed-429c-a540-c424bd7532e8&thumb,충청북도 단양군 대강면 방곡리 일대,36.8296889,128.3236577
선유구곡(선유동계곡),충북 괴산군,043-832-4347,"['계곡', '관광지', '선유구곡', '선유동계곡', '자연', '충청권', '피서']",https://cdn.visitkorea.or.kr/img/call?cmd=VIEW&id=abf1d8c8-49c7-4385-9f53-00c3d96cb723&thumb,충청북도 괴산군 청천면 선유동길 179,36.6847204,127.8807275
설성공원,충북 음성군,043-871-3755,"['걷기길', '관광지', '나들이', '설성공원', '자연', '자연좋은곳', '주말가볼만한곳']",https://cdn.visitkorea.or.kr/img/call?cmd=VIEW&id=8cb9082c-c4e9-45cd-b48c-2e70c5a09bba&thumb,충청북도 음성군 음성읍 설성공원길 28,36.9327088,127.6909135
성내동 관아골,충북 충주시,043-842-0531,"['관광지', '데이트명소', '문화공간', '복합문화공간', '산책하기좋은곳', '연인과함께']",https://cdn.visitkorea.or.kr/img/call?cmd=VIEW&id=ebb01575-f044-42c8-9e0a-b59e54aafcad&thumb,충청북도 충주시 관아4길 15,36.9707192,127.9343933
성림사(진천),충북 진천군,043-536-4617,"['관광지', '불교', '불교문화', '사찰', '사찰여행', '역사', '자연속으로', '자연환경']",https://cdn.visitkorea.or.kr/img/call?cmd=VIEW&id=22df60c1-0084-4851-b6b2-110c9dd26fa1&thumb,충청북도 진천군 덕산면 인화길 83,36.8814456,127.4887625
성불산자연휴양림,충북 괴산군,043-830-2679,"['관광지', '성불산산림휴양단지', '자연', '충청권', '휴양여행', '힐링']",https://cdn.visitkorea.or.kr/img/call?cmd=VIEW&id=51587404-cbd4-4dff-b293-6612da5fd736&thumb,충청북도 괴산군 괴산읍 충민로기곡길 78,36.807843,127.84621
소노문 단양 오션플레이,충북 단양군,1588-4888,"['관광지', '대명리조트', '사우나', '수영장', '실내수영장', '연인과함께', '주말가족여행']",https://cdn.visitkorea.or.kr/img/call?cmd=VIEW&id=ff3b2621-b4d7-45b6-85fc-26ce3c2ac328&thumb,충청북도 단양군 단양읍 삼봉로 187-17,36.9776625,128.3622929
소백산 가리점마을(마조리마을),충북 단양군,043-420-3552,"['관광지', '농촌', '농촌여행코스', '농촌체험', '농촌체험마을', '농촌체험여행']",https://cdn.visitkorea.or.kr/img/call?cmd=VIEW&id=277fbabb-deb6-441a-97f2-a3631e382d7b&thumb,충청북도 단양군 단양읍 마조로 237,36.9449013,128.3913713
소백산 천문대,충북 단양군,043-422-1108,"['가족체험', '관광지', '등산객', '등산여행', '별밤', '별자리', '소백산국립공원']",https://cdn.visitkorea.or.kr/img/call?cmd=VIEW&id=07bfcd14-21c4-4b90-94fc-45b6832051ee&thumb,충청북도 단양군 단양읍 소백산길 639,36.9345692,128.4584765
소백산국립공원,충북 단양군,043-423-0708,"['걷기길', '걷기길', '고수동굴', '관광지', '국망봉', '눈꽃&설경여행', '단풍여행']",https://cdn.visitkorea.or.kr/img/call?cmd=VIEW&id=9af5bc69-dedb-4db3-93de-ab213fb428b7&thumb,충청북도 단양군 가곡면 남한강로 494,37.0244188,128.3841161
소백산국립공원(북부),충북 단양군,043-423-0708,"['관광지', '자연']",https://cdn.visitkorea.or.kr/img/call?cmd=VIEW&id=87532a0d-00e1-4e7e-a820-6e7c9444c176&thumb,충청북도 단양군 가곡면 남한강로 494,37.0244188,128.3841161
소선암자연휴양림,충북 단양군,043-422-7839,"['관광지', '생태관광지', '소선암자연휴양림', '자연', '자연관광지', '자연발생']",https://cdn.visitkorea.or.kr/img/call?cmd=VIEW&id=4c8ef971-e539-4985-8349-4658ce8635f1&thumb,충청북도 단양군 단성면 대잠2길 15,36.9194166,128.3107984
속리산 관광특구,충북 보은군,043-540-3393,"['관광지', '남녀노소', '등산로', '사찰&산사', '속리산관광특구', '자연속으로']",https://cdn.visitkorea.or.kr/img/call?cmd=VIEW&id=cbc2eb20-9d3f-4f98-a027-7442cb70e733&thumb,충청북도 보은군 속리산면 법주사로 405,36.5420409,127.833111
속리산 산채비빔밥 거리,충북 보은군,043-542-3006,"['건강식', '관광지', '남녀노소', '등산객', '비빙밥', '산채비빔밥', '산채정식', '산채한정식']",https://cdn.visitkorea.or.kr/img/call?cmd=VIEW&id=4cb2fc56-5192-41a0-aebb-52edd664c42b&thumb,충청북도 보은군 속리산면 법주사로 223,36.528565,127.8195677
속리산 숲체험휴양마을,충북 보은군,043-540-3220,"['가족과함께', '경치좋은곳', '관광지', '자연관광지', '자연마을', '자연여행', '자연좋은곳']",https://cdn.visitkorea.or.kr/img/call?cmd=VIEW&id=ca5cabdf-4b9b-4634-a978-f4dd06b4d593&thumb,충청북도 보은군 속리산면 속리산로 596,36.5227181,127.7955243
속리산국립공원,충북 보은군,043-542-5267,"['관광지', '국립공원', '단풍여행', '봄꽃여행', '생태관광', '생태관광지', '속리산']",https://cdn.visitkorea.or.kr/img/call?cmd=VIEW&id=a83c6c42-b588-4d91-a3ea-37a9ae2ae638&thumb,충청북도 보은군 속리산면 법주사로 84,36.5172567,127.8174804
속리산국립공원(충북),충북 보은군,043-542-5267,"['관광지', '사계절', '속리산국립공원충북', '자연', '자연좋은곳', '충청권']",https://cdn.visitkorea.or.kr/img/call?cmd=VIEW&id=29a33115-a9b5-4535-9f96-23cdb15efe86&thumb,충북 보은군 속리산면 상판리,36.5141178,127.8260988
속리산조각공원,충북 보은군,043-542-5267,"['가족과함께', '공원', '관광지', '남녀노소', '산책길', '산책하기', '산책하기좋은곳']",https://cdn.visitkorea.or.kr/img/call?cmd=VIEW&id=aa685ed3-a39b-444c-9002-3ac087949f8a&thumb,충청북도 보은군 속리산면 법주사로 293,36.5341792,127.8253317
솔밭관광농원,충북 괴산군,043-833-3222,"['가족과함께', '관광지', '아이와함께', '이색체험', '자연속으로', '자연좋은곳']",https://cdn.visitkorea.or.kr/img/call?cmd=VIEW&id=0f13aada-4c9a-4ea2-be4f-c40188975d43&thumb,충청북도 괴산군 괴산읍 능촌로5길 39,36.8395895,127.8507333
송계계곡,충북 제천시,043-653-3250,"['가족여행', '관광지', '나들이', '데이트코스', '송계계곡', '아이와함께', '여름방학가볼만한곳']",https://cdn.visitkorea.or.kr/img/call?cmd=VIEW&id=3c21063d-c608-4cc1-ac5f-e01dbfe01cfe&thumb,충청북도 제천시 한수면 미륵송계로,36.8811445,128.0809593
송계서원,충북 청주시,043-201-0916,"['관광지', '역사', '역사공부', '역사관광지', '역사를품은곳', '역사문화재', '역사속']",https://cdn.visitkorea.or.kr/img/call?cmd=VIEW&id=e7932507-52a6-4875-a93b-69d9e9f45415&thumb,충청북도 청주시 흥덕구 내곡로 40-18,36.6616791,127.429632
송천서원,충북 청주시,043-201-0916,"['관광지', '송천서원', '역사', '역사공부', '역사관광지', '역사를품은곳', '역사문화재']",https://cdn.visitkorea.or.kr/img/call?cmd=VIEW&id=658b600e-cdd0-43c1-8a96-6f53bf855809&thumb,충청북도 청주시 청원구 오창읍 오창양지길 22-3,36.73887,127.4439379
수레의산자연휴양림,충북 음성군,043-878-2013,"['가족여행', '걷기길', '관광지', '등산', '수레의산자연휴양림', '자연', '자연&숲']",https://cdn.visitkorea.or.kr/img/call?cmd=VIEW&id=89ed0874-d259-4d1a-8036-92ea0bcc3ea6&thumb,충청북도 음성군 생극면 차생로 310-108,37.0378111,127.6525284
수룡폭포,충북 충주시,043-842-0531,"['관광지', '자연']",https://cdn.visitkorea.or.kr/img/call?cmd=VIEW&id=6d463494-58b7-4eb9-81ea-8ed816437d90&thumb,충청북도 충주시 노은면 수룡봉황길 249,37.0600899,127.8016641
수문폭포,충북 제천시,043-653-3250,"['관광지', '자연']",https://cdn.visitkorea.or.kr/img/call?cmd=VIEW&id=c1219be0-3365-4dc1-8435-a7c7e8cfc8b2&thumb,충청북도 제천시 덕산면 월악산로,36.894082,128.1352872
수안보 인공암벽장,충북 충주시,043-850-6640,"['관광지', '레포츠', '수안보인공암벽장', '연중무휴', '체험', '충청권']",https://cdn.visitkorea.or.kr/img/call?cmd=VIEW&id=a9ac398c-03bf-4b53-90ea-a50b72035a7f&thumb,충청북도 충주시 수안보면 수안보로 129,36.8421731,127.9986826
수안보 하이스파,충북 충주시,043-846-8898,"['관광지', '목욕탕', '부모님과함께', '수안보온천', '온천', '온천수', '온천지구']",https://cdn.visitkorea.or.kr/img/call?cmd=VIEW&id=ec8eb973-c2b0-47ec-9df8-8cc4b2f661a9&thumb,충청북도 충주시 수안보면 물탕2길 17,36.8469301,127.9908861
수안보온천 관광특구,충북 충주시,043-846-3605,"['가족과함께', '가족여행', '관광지', '남녀노소', '사계절', '수안보온천', '야간관광100선']",https://cdn.visitkorea.or.kr/img/call?cmd=VIEW&id=b953d342-ca5a-490f-9c62-269371397c17&thumb,충청북도 충주시 수안보면 주정산로 12,36.848325,127.9892365
수암골 벽화마을,충북 청주시,043-201-0916,"['가족여행', '감성사진', '관광지', '드라마촬영지', '사진찍기좋은곳', '수암골벽화마을']",https://cdn.visitkorea.or.kr/img/call?cmd=VIEW&id=939518be-bad2-4715-9745-3b6b56aae221&thumb,충청북도 청주시 상당구 수암로 58,36.6472564,127.4942949
수암골전망대,충북 청주시,043-201-0001,"['가족여행', '걷기여행데이트코스', '경치좋은곳', '관광지', '데이트코스', '산책하기좋은곳']",https://cdn.visitkorea.or.kr/img/call?cmd=VIEW&id=d818c64a-6f86-4242-a7dc-c9970b1f2801&thumb,충청북도 청주시 상당구 수동로5번길 2,36.6464284,127.4954098
수옥정관광지,충북 괴산군,043-833-8898,"['가족여행', '관광지', '수옥정관광지', '여름가볼만한곳', '여름여행', '여름피서지']",https://cdn.visitkorea.or.kr/img/call?cmd=VIEW&id=88cd7422-c86f-4427-b0cb-76c5942a3b07&thumb,충청북도 괴산군 연풍면 수옥정길 174,36.8135126,128.0362539
수옥폭포,충북 괴산군,043-830-3114,"['가족여행', '관광지', '수옥폭포', '여름가볼만한곳', '여름여행', '자연', '충청권']",https://cdn.visitkorea.or.kr/img/call?cmd=VIEW&id=92abf2d5-6a0f-4bb2-b403-23a01ca570ed&thumb,충청북도 괴산군 연풍면 원풍리 141-2,36.8054261,128.026509
수운정(단양),충북 단양군,043-420-3035,"['관광지', '역사', '역사공부', '역사관광지', '역사를품은곳', '역사문화재', '역사속']",https://cdn.visitkorea.or.kr/img/call?cmd=VIEW&id=5e5895c9-69e8-424d-a46a-4ad7d0ce122f&thumb,충청북도 단양군 대강면 황정리,36.8623999,128.3481818
수정암(충북),충북 보은군,043-543-3713,"['관광지', '불교', '불교문화', '사찰', '사찰여행', '역사', '자연속으로', '자연환경']",https://cdn.visitkorea.or.kr/img/call?cmd=VIEW&id=b0c20245-3959-471d-a4f4-7d6bfdb15f75&thumb,충청북도 보은군 속리산면 법주사로 379,36.5420409,127.833111
수주팔봉,충북 충주시,043-842-0531,"['관광지', '자연']",https://cdn.visitkorea.or.kr/img/call?cmd=VIEW&id=fcc4d359-2c8f-4478-bdaa-a29bf80c826e&thumb,충청북도 충주시 살미면,36.9053519,127.9645788
슬로시티 제천(수산면측백숲과 옥순봉생태공원),충북 제천시,043-642-9398,"['관광지', '생태관광', '생태관광지', '수산면측백숲', '슬로시티', '슬로시티제천']",https://cdn.visitkorea.or.kr/img/call?cmd=VIEW&id=68cd0aad-9c48-47b2-83d3-9e13a03ad472&thumb,충청북도 제천시 수산면 월악로26길 39,36.9337382,128.1809731
신륵사(제천),충북 제천시,043-653-3803,"['관광지', '불교', '불교문화', '사찰', '사찰여행', '신륵사', '역사', '자연속으로']",https://cdn.visitkorea.or.kr/img/call?cmd=VIEW&id=b40e3b28-09f4-4139-87fd-a070ee5c3403&thumb,충청북도 제천시 덕산면 월악산로4길 180,36.8792246,128.1306395
신선봉,충북 괴산군,043-830-3114,"['관광지', '자연']",https://cdn.visitkorea.or.kr/img/call?cmd=VIEW&id=15e3bbef-1f22-457e-b25b-5bcb5e4d691d&thumb,충청북도 괴산군 연풍면 원풍리,36.7996,128.0302148
신풍전통한지체험,충북 괴산군,043-832-3223,"['관광지', '신풍전통한지체험', '아이와함께', '역사', '역사공부', '역사관광지']",https://cdn.visitkorea.or.kr/img/call?cmd=VIEW&id=1740699b-f7ce-42b3-ab68-3361cbeb6d49&thumb,충청북도 괴산군 연풍면 원풍로 224-11,36.7839046,128.0173705
신항서원,충북 청주시,043-201-0916,"['관광지', '교과서속여행', '신항서원', '아이와함께', '역사', '역사공부', '역사관광지']",https://cdn.visitkorea.or.kr/img/call?cmd=VIEW&id=e134cead-d457-450e-936e-05017c6c4e55&thumb,충청북도 청주시 상당구 이정골로 115-8,36.6359994,127.5260556
신흥사(충주),충북 충주시,043-852-4261,"['관광지', '불교', '불교문화', '사찰', '사찰여행', '신흥사', '역사', '자연', '자연환경']",https://cdn.visitkorea.or.kr/img/call?cmd=VIEW&id=0db033d1-6d1b-42bf-9e11-e4602d5f4ec9&thumb,충청북도 충주시 엄정면 족동2길 197,37.1121962,127.9457114
심천역(영동),충북 영동군,1544-7788,"['건축물여행', '관광지', '근대문화유산', '사진찍기', '사진촬영', '심천역영동']",https://cdn.visitkorea.or.kr/img/call?cmd=VIEW&id=969dfb11-b4cb-4725-9254-91e769a923a8&thumb,충청북도 영동군 심천면 심천로5길 5-1,36.2364767,127.7216276
쌍곡구곡,충북 괴산군,043-542-5267,"['가족여행', '경치좋은곳', '관광지', '쌍곡구곡', '여름가볼만한곳', '여름여행']",https://cdn.visitkorea.or.kr/img/call?cmd=VIEW&id=1c89138a-eef9-4395-a2e9-69c26476e5a0&thumb,충청북도 괴산군 칠성면 쌍곡로 242,36.7617151,127.88971
악어봉,충북 충주시,043-842-0531,"['경치좋은곳', '관광지', '악어섬', '자연&숲', '자연경관', '자연발생', '자연생태']",https://cdn.visitkorea.or.kr/img/call?cmd=VIEW&id=ec12666b-e3fc-453a-a7a5-09f17c627aca&thumb,충청북도 충주시 살미면 신당리,36.918123,128.0562083
악휘봉,충북 괴산군,043-830-3114,"['관광지', '자연']",https://cdn.visitkorea.or.kr/img/call?cmd=VIEW&id=undefined&thumb,충청북도 괴산군 연풍면 입석길 172,36.7643101,127.9579471
안골관광농원,충북 진천군,043-532-0405,"['가족과함께', '경치좋은곳', '관광지', '이색체험', '자연속', '자연여행', '자연좋은곳']",https://cdn.visitkorea.or.kr/img/call?cmd=VIEW&id=3f002bc6-8869-4aaf-82e0-c240a57fbf71&thumb,충청북도 진천군 백곡면 용암2길 108-36,36.8748075,127.3667183
안심사(청원),충북 청주시,043-260-6165,"['관광지', '교과서속여행', '아이와함께', '안심사', '역사', '역사공부', '역사관광지']",https://cdn.visitkorea.or.kr/img/call?cmd=VIEW&id=1c25b0d6-d6a6-4692-87cd-6ea89a44cfad&thumb,충청북도 청주시 서원구 남이면 사동길 169-28,36.5523393,127.4132802
안터선사공원,충북 옥천군,043-730-3728,"['관광지', '안터선사공원', '역사', '역사공부', '역사관광지', '역사를품은곳', '역사문화재']",https://cdn.visitkorea.or.kr/img/call?cmd=VIEW&id=52e341ef-caca-4e1e-809d-0905f0df2ac9&thumb,충청북도 옥천군 동이면 안터1길 36,36.3190253,127.6186568
암서재,충북 괴산군,043-830-3433,"['관광지', '암서재', '역사', '역사공부', '역사를품은곳', '역사문화재', '역사속으로']",https://cdn.visitkorea.or.kr/img/call?cmd=VIEW&id=cdcf9f77-7f09-4984-8e5d-5be6d4ca11a8&thumb,충청북도 괴산군 청천면 화양동2길 30,36.6685945,127.8147487
앙성온천지구,충북 충주시,043-850-2363,"['가족여행', '관광지', '스파', '앙성온천지구', '에너제틱_청춘여행', '온천', '충청권']",https://cdn.visitkorea.or.kr/img/call?cmd=VIEW&id=7800edc3-c813-495a-b836-6faedff9b46b&thumb,충청북도 충주시 앙성면 가곡로,37.0974611,127.7771704
앙성탄산온천,충북 충주시,043-855-7361,"['가족과함께', '가족힐링', '건강', '관광지', '사우나', '양성탄산온천', '온천욕']",https://cdn.visitkorea.or.kr/img/call?cmd=VIEW&id=3c6ed55d-5a53-4ca5-9f9d-d113edce6e0a&thumb,충청북도 충주시 앙성면 가곡로 1457,37.0937823,127.7970789
애한정,충북 괴산군,043-830-3433,"['관광지', '역사', '역사공부', '역사관광지', '역사를품은곳', '역사문화재', '역사속']",https://cdn.visitkorea.or.kr/img/call?cmd=VIEW&id=94a3cf5f-08bd-40a4-9106-9a32712cb278&thumb,충청북도 괴산군 괴산읍 충민로검승1길 18-9,36.8058119,127.8230032
양방산전망대,충북 단양군,,"['가족과함께', '경치좋은곳', '관광지', '양방산전망대', '자연관광지', '자연속으로']",https://cdn.visitkorea.or.kr/img/call?cmd=VIEW&id=d1b9e30b-2b17-404b-bcfe-38bb7a0a7fa8&thumb,충청북도 단양군 단양읍 양방산길 350,36.9682771,128.3817898
어제 달천 충렬사비,충북 충주시,043-850-5980,"['관광지', '근대문화역사거리', '역사', '역사공부', '역사관광지', '역사를품은곳']",https://cdn.visitkorea.or.kr/img/call?cmd=VIEW&id=e665f127-8f6e-4812-a808-3c35edae6554&thumb,충청북도 충주시 충열1길 6,36.946158,127.9050858
에이스 침대 음성공장,충북 음성군,031-746-7111,"['견학', '관광지', '산업관광', '아이와함께', '에이스침대', '에이스침대음성공장']",https://cdn.visitkorea.or.kr/img/call?cmd=VIEW&id=aa89f8c9-a7da-4139-b561-3d89453b6ec9&thumb,충청북도 음성군 삼성면 상곡로 55-35,37.0007101,127.4504006
여적암(보은),충북 보은군,043-543-5920,"['관광지', '불교', '불교문화', '사찰여행', '여적암', '여적암다층석탑', '역사', '자연']",https://cdn.visitkorea.or.kr/img/call?cmd=VIEW&id=858c446c-5633-443a-b214-41aa5fd9242e&thumb,충청북도 보은군 속리산면 사내1길 407,36.5560753,127.8314745
연곡계곡,충북 진천군,043-539-3623,"['경치좋은곳', '계곡', '관광지', '등산', '여름여행', '연곡계곡', '자연', '자연좋은곳']",https://cdn.visitkorea.or.kr/img/call?cmd=VIEW&id=6c115298-10f4-464a-87b3-420461f09af8&thumb,충청북도 진천군 진천읍 연곡리,36.8441844,127.352566
연곡저수지,충북 진천군,043-539-3623,"['관광지', '자연']",https://cdn.visitkorea.or.kr/img/call?cmd=VIEW&id=46d1dde9-f2f4-45d1-b763-3178ea7a09e5&thumb,충청북도 진천군 진천읍 연곡리,36.8441844,127.352566
연안이씨 쌍효각,충북 충주시,043-850-5980,"['관광지', '역사', '역사공부', '역사관광', '역사관광지', '역사문화', '역사문화재']",https://cdn.visitkorea.or.kr/img/call?cmd=VIEW&id=0eedb791-b68d-413e-919e-44d3dfbe00a2&thumb,충청북도 충주시 동량면 대전리1길 25,37.0517694,127.9328609
연제 안승갑 고가,충북 진천군,043-539-3624,"['관광지', '역사', '역사공부', '역사관광지', '역사를품은곳', '역사문화재', '역사속']",https://cdn.visitkorea.or.kr/img/call?cmd=VIEW&id=b7b0f933-77a7-431b-9153-d62c3dc7ce98&thumb,충청북도 진천군 진천읍 보련골길 46,36.8461612,127.3533278
연풍성지,충북 괴산군,043-833-5061,"['관광지', '성지순례', '역사', '역사공부', '역사관광지', '역사관광지', '역사를품은곳']",https://cdn.visitkorea.or.kr/img/call?cmd=VIEW&id=3e2df171-5be1-497f-83e6-2fb856ecc254&thumb,충청북도 괴산군 연풍면 중앙로홍문2길 14,36.7637857,127.9940087
연풍향교,충북 괴산군,043-830-3433,"['관광지', '역사', '역사공부', '역사관광지', '역사를품은곳', '역사문화', '역사문화재']",https://cdn.visitkorea.or.kr/img/call?cmd=VIEW&id=8752bed9-cb3f-4ce8-b54b-32751a782039&thumb,충청북도 괴산군 연풍면 향교로 40-2,36.7649961,127.9984185
연풍향청,충북 괴산군,043-830-3433,"['관광지', '역사', '역사공부', '역사관광지', '역사를품은곳', '역사문화재', '역사속']",https://cdn.visitkorea.or.kr/img/call?cmd=VIEW&id=dd16b263-d47a-4b1e-86fc-289d41e2594b&thumb,충청북도 괴산군 연풍면 중앙로 44,36.7631162,127.9960058
연화사(청주),충북 청주시,043-232-3807,"['관광지', '불교', '불교문화', '사찰', '사찰여행', '역사', '자연속으로', '자연환경']",https://cdn.visitkorea.or.kr/img/call?cmd=VIEW&id=d5eae1d8-8279-4678-9db3-1a678f746f27&thumb,충청북도 청주시 흥덕구 부모산로 134,36.6348484,127.4119855
영국사(영동),충북 영동군,043-743-8843,"['관광지', '불교', '불교문화', '사찰', '사찰여행', '산사', '역사', '연중무휴', '영국사']",https://cdn.visitkorea.or.kr/img/call?cmd=VIEW&id=5851e7c8-c4f5-4543-ba4a-e0e5a35f7e97&thumb,충청북도 영동군 양산면 영국동길 225-35,36.158107,127.610484
영동 가학루,충북 영동군,043-740-3204,"['관광지', '역사', '역사공부', '역사관광지', '역사를품은곳', '역사문화재', '역사속']",https://cdn.visitkorea.or.kr/img/call?cmd=VIEW&id=5658672c-cee6-425f-b28d-2afa857dc415&thumb,충청북도 영동군 황간면 남성리,36.2313473,127.9214693
영동 국악체험촌,충북 영동군,043-740-3891,"['가족체험여행', '경상권', '관광지', '교과서속여행', '문화행사', '상설공연', '아이와함께']",https://cdn.visitkorea.or.kr/img/call?cmd=VIEW&id=d4546b08-5806-4625-90f1-ba357c4e13f2&thumb,충청북도 영동군 심천면 국악로1길 33,36.2121126,127.6996011
영동 금강모치마을,충북 영동군,043-744-4488,"['관광지', '금강모치마을', '생태관찰', '아이와함께', '자연마을', '자연속으로']",https://cdn.visitkorea.or.kr/img/call?cmd=VIEW&id=f4d68509-6e96-4e28-8020-d1a715703191&thumb,충청북도 영동군 학산면 모리1길 38,36.1117833,127.6476432
영동 난계사,충북 영동군,043-740-3204,"['관광지', '난계사', '역사', '역사공부', '역사관광지', '역사를품은곳', '역사문화재']",https://cdn.visitkorea.or.kr/img/call?cmd=VIEW&id=094a8de7-506e-4786-bbb1-7b52e2dd1472&thumb,충청북도 영동군 심천면 국악로 13-34,36.2105315,127.7031455
영동 덕수이씨 육세팔효정문,충북 영동군,043-740-3204,"['관광지', '역사', '역사공부', '역사관광지', '역사를품은곳', '역사문화재', '역사속']",https://cdn.visitkorea.or.kr/img/call?cmd=VIEW&id=0da11982-2c49-4294-b12b-1df046ea4274&thumb,충청북도 영동군 양산면 원당리,36.1188064,127.6861896
영동 비단강숲마을,충북 영동군,043-745-5432,"['가족체험', '관광지', '농촌', '농촌길', '농촌체험', '농촌체험마을', '농촌체험여행']",https://cdn.visitkorea.or.kr/img/call?cmd=VIEW&id=6cef0a8a-cc82-498b-81dd-f69256e1986d&thumb,충청북도 영동군 양산면 수두1길 20-27,36.1327036,127.6580591
영동 사로당,충북 영동군,043-740-3204,"['관광지', '역사', '역사공부', '역사관광지', '역사를품은곳', '역사문화재', '역사속']",https://cdn.visitkorea.or.kr/img/call?cmd=VIEW&id=898d901d-7634-426c-9ccd-350af0dba295&thumb,충청북도 영동군 매곡면 내동1길 8,36.2053004,127.9303283
영동 삼괴당,충북 영동군,043-740-3204,"['관광지', '교과서속여행', '아이와함께', '역사', '역사공부', '역사관광지', '역사를품은곳']",https://cdn.visitkorea.or.kr/img/call?cmd=VIEW&id=02dbf9cf-95e4-4bc6-92cc-16d98278f434&thumb,충청북도 영동군 상촌면 임산3길 28-13,36.1483176,127.9113814
영동 성위제가옥,충북 영동군,043-740-3204,"['관광지', '교과서속여행', '문화재', '성위제가옥', '역사', '역사공부', '역사관광지']",https://cdn.visitkorea.or.kr/img/call?cmd=VIEW&id=661fd108-9ae0-4377-a901-d7a459b398c9&thumb,충청북도 영동군 학산면 미촌길 67-11,36.1209934,127.710477
영동 세천재,충북 영동군,043-740-3204,"['관광지', '역사', '역사공부', '역사관광지', '역사를품은곳', '역사문화재', '역사속']",https://cdn.visitkorea.or.kr/img/call?cmd=VIEW&id=26e4d6c4-4044-4f9b-9fef-395d4a16db38&thumb,충청북도 영동군 매곡면 내오곡길 94-97,36.1791578,127.9422445
영동 영모재,충북 영동군,043-740-3204,"['관광지', '교과서속여행', '아이와함께', '역사', '역사공부', '역사관광지', '역사를품은곳']",https://cdn.visitkorea.or.kr/img/call?cmd=VIEW&id=876f2528-b0e5-4e88-8889-0a0f3a69765d&thumb,충청북도 영동군 상촌면 관기길 16-5,36.1507324,127.916633
영동 와인터널,충북 영동군,043-740-3636,"['관광지', '데이트코스', '영동와인터널', '와인터널', '포토존']",https://cdn.visitkorea.or.kr/img/call?cmd=VIEW&id=c89762b4-6af2-4b33-baf7-6656e33b5dc4&thumb,충청북도 영동군 영동읍 영동힐링로 30,36.1626316,127.7864597
영동 추풍령 전적 및 장지현 순절비,충북 영동군,043-740-3204,"['관광지', '역사', '역사공부', '역사관광', '역사관광지', '역사를품은곳', '역사문화재']",https://cdn.visitkorea.or.kr/img/call?cmd=VIEW&id=ddb8c305-81f7-4596-90fb-0dbfd30a9f4b&thumb,충청북도 영동군 추풍령면,36.2144945,127.998893
영동 한천정사,충북 영동군,043-740-3204,"['관광지', '역사', '역사공부', '역사관광지', '역사를품은곳', '역사문화재', '역사속']",https://cdn.visitkorea.or.kr/img/call?cmd=VIEW&id=b222103c-00fa-4814-aba5-8aaa2b806e23&thumb,충청북도 영동군 황간면 원촌동1길 48,36.2340869,127.8921633
영동 화수루,충북 영동군,043-740-3204,"['관광지', '역사', '역사공부', '역사관광지', '역사를품은곳', '역사문화재', '역사속']",https://cdn.visitkorea.or.kr/img/call?cmd=VIEW&id=1b05edb3-b572-4701-8dfd-fdb2ce0e2b23&thumb,충청북도 영동군 상촌면 하도대3안길 33-18,36.1346655,127.8954072
영동 흥학당,충북 영동군,043-740-3204,"['관광지', '역사', '역사공부', '역사관광지', '역사를품은곳', '역사문화재', '역사속']",https://cdn.visitkorea.or.kr/img/call?cmd=VIEW&id=076c222f-6a99-4a6b-a8ac-40c970bab0d1&thumb,충청북도 영동군 매곡면 내동1길 42,36.2059075,127.9266645
영동규당고택,충북 영동군,043-740-3204,"['고택', '관광지', '교과서속여행', '규당고택', '문화재', '역사', '역사공부', '역사관광지']",https://cdn.visitkorea.or.kr/img/call?cmd=VIEW&id=e35a75f9-f210-4080-bff9-c7f11b05e06a&thumb,충청북도 영동군 영동읍 금동로4길 9-9,36.1806701,127.7764766
영동김참판고택(김선조가옥),충북 영동군,043-740-3204,"['관광지', '교과서속여행', '김선조가옥', '역사', '역사공부', '역사관광지', '역사를품은곳']",https://cdn.visitkorea.or.kr/img/call?cmd=VIEW&id=cf9b8baa-114e-4a6c-9a34-965e3d67204f&thumb,충청북도 영동군 양강면 괴목1길 13-5,36.1530519,127.7547461
영동블루와인농원,충북 영동군,043-744-9956,"['관광지', '남녀노소', '연인과함께', '와인체험', '이색체험', '체험프로그램', '휴식여행']",https://cdn.visitkorea.or.kr/img/call?cmd=VIEW&id=9152588c-6759-4d77-940e-cb311600388a&thumb,충청북도 영동군 양산면 호탄길 53-23,36.1323327,127.637082
영동소석고택,충북 영동군,043-740-3204,"['고택', '관광지', '교과서속여행', '문화재', '소석고택', '역사', '역사공부', '역사관광지']",https://cdn.visitkorea.or.kr/img/call?cmd=VIEW&id=7e759ff2-bc53-4279-b283-48f22447998a&thumb,충청북도 영동군 심천면 초강로6길 26,36.21802,127.7126614
영동향교,충북 영동군,043-740-3204,"['관광지', '역사', '역사공부', '역사관광지', '역사를품은곳', '역사문화재', '역사속']",https://cdn.visitkorea.or.kr/img/call?cmd=VIEW&id=6a7e795d-063a-4b67-aa58-c27f2fad9f14&thumb,충청북도 영동군 영동읍 성안길 20-9,36.1757361,127.7700774
영모사,충북 충주시,043-850-5980,"['관광지', '역사', '역사공부', '역사관광', '역사관광지', '역사를품은곳', '역사문화']",https://cdn.visitkorea.or.kr/img/call?cmd=VIEW&id=9f81b77e-94fa-4291-8080-02ab9d343441&thumb,충청북도 충주시 동량면 내동1길,37.0553714,127.9532699
영수사(진천),충북 진천군,043-534-0966,"['관광지', '교과서속여행', '불교', '불교문화', '사찰', '사찰여행', '역사', '영수사']",https://cdn.visitkorea.or.kr/img/call?cmd=VIEW&id=e612a372-3991-4afd-9d8c-d8bb7cc7f3d4&thumb,충청북도 진천군 초평면 영구리길 60-125,36.8352696,127.5512832
영천사(충북),충북 영동군,043-742-4344,"['관광지', '불교', '불교문화', '사찰', '사찰여행', '역사', '영천사', '자연속으로']",https://cdn.visitkorea.or.kr/img/call?cmd=VIEW&id=fc977e06-cb73-400c-88a4-c2faf7f55881&thumb,충청북도 영동군 황간면 신흥2길 12-127,36.2419701,127.9069211
영축선원(충북),충북 영동군,043-743-8300,"['관광지', '불교', '불교문화', '사찰', '사찰여행', '역사', '영축선원', '자연속으로']",https://cdn.visitkorea.or.kr/img/call?cmd=VIEW&id=64bee420-da65-436d-84c9-4a78196e7a1c&thumb,충청북도 영동군 매곡면 해평길 240-29,36.1466339,127.9479335
영춘향교,충북 단양군,043-420-2556,"['관광지', '역사', '역사공부', '역사관광지', '역사를품은곳', '역사문화재', '역사속']",https://cdn.visitkorea.or.kr/img/call?cmd=VIEW&id=f10da1b6-51b8-4033-bba8-f7bd7dfd46dc&thumb,충청북도 단양군 영춘면 영부로 2884-3,37.081477,128.4886084
오갑사지 석불좌상,충북 충주시,043-850-5980,"['관광지', '불교', '불교사찰', '사찰', '사찰여행', '역사', '역사공부', '역사관광지']",https://cdn.visitkorea.or.kr/img/call?cmd=VIEW&id=a2fbe29b-6d63-4838-b1af-11d365f14a8a&thumb,충청북도 충주시 앙성면 모점1길 404,37.1509851,127.7126847
오뚜기 대풍공장,충북 음성군,02-2010-0716,"['견학', '관광지', '산업관광', '아이와함께', '오뚜기', '오뚜기대풍공장', '충청권']",https://cdn.visitkorea.or.kr/img/call?cmd=VIEW&id=7c4052fc-774b-4128-9078-295c744002d5&thumb,충청북도 음성군 대소면 대풍산단로 128,36.9661747,127.4646555
옥계폭포,충북 영동군,043-740-3225,"['관광지', '박연폭포', '옥계폭포', '자연', '충청권']",https://cdn.visitkorea.or.kr/img/call?cmd=VIEW&id=28bf3181-e91e-412e-a44d-fa48558e9beb&thumb,충청북도 영동군 심천면 고당리,36.2115459,127.6870777
옥순대교,충북 제천시,043-641-6731,"['경치좋은곳', '관광지', '드라이브여행', '드라이브코스', '사진찍기좋은곳', '사진촬영']",https://cdn.visitkorea.or.kr/img/call?cmd=VIEW&id=2344e530-5a92-45f8-a0f8-475d47525926&thumb,충청북도 제천시 수산면 옥순봉로 399,36.9491725,128.231751
옥천 경율당,충북 옥천군,043-730-3728,"['경율당', '관광지', '역사', '역사공부', '역사를품은곳', '역사문화재', '역사속']",https://cdn.visitkorea.or.kr/img/call?cmd=VIEW&id=9aac3f4f-9f98-4f25-84c0-e4d52efe88fe&thumb,충청북도 옥천군 안남면 종미3길 120,36.3414059,127.6693831
옥천 독락정,충북 옥천군,043-730-3728,"['관광지', '역사', '역사공부', '역사관광지', '역사를품은곳', '역사문화재', '역사속']",https://cdn.visitkorea.or.kr/img/call?cmd=VIEW&id=f6eb5f46-b408-4a3d-ada8-95d0f96847ce&thumb,충청북도 옥천군 안남면 연주길 170,36.3475564,127.665284
옥천 석탄리 고인돌,충북 옥천군,043-730-3728,"['고인돌유적', '관광지', '역사', '역사공부', '역사관광지', '역사를품은곳', '역사문화재']",https://cdn.visitkorea.or.kr/img/call?cmd=VIEW&id=c605eb9e-f693-46c2-a8fc-d9210f6cffb5&thumb,충청북도 옥천군 동이면 안터1길 36,36.3190253,127.6186568
옥천 석탄리 선돌,충북 옥천군,043-730-3728,"['관광지', '역사', '역사공부', '역사관광지', '역사를품은곳', '역사문화재', '역사속']",https://cdn.visitkorea.or.kr/img/call?cmd=VIEW&id=a7807228-21ef-440e-9d61-1a907bbab4b2&thumb,충청북도 옥천군 동이면 안터1길 36,36.3190253,127.6186568
옥천 수생식물학습원,충북 옥천군,043-733-9020,"['경치여행', '경치좋은곳', '관광지', '남녀노소', '수생식물원', '아이와함께', '옥천가볼만한곳']",https://cdn.visitkorea.or.kr/img/call?cmd=VIEW&id=39ed6b34-bab2-4b83-98c8-c819219fcd2f&thumb,충청북도 옥천군 군북면 방아실길 255,36.3914091,127.5530649
옥천 육영수 생가,충북 옥천군,043-730-3417,"['관광지', '교과서속여행', '역사', '역사공부', '역사관광지', '역사를품은곳', '역사문화재']",https://cdn.visitkorea.or.kr/img/call?cmd=VIEW&id=f8cbf2e0-248d-47d3-8245-5cf75057ccab&thumb,충청북도 옥천군 옥천읍 향수길 119,36.3180285,127.5874421
옥천 이지당,충북 옥천군,043-730-3728,"['관광지', '역사', '역사공부', '역사관광지', '역사를품은곳', '역사문화재', '역사속으로']",https://cdn.visitkorea.or.kr/img/call?cmd=VIEW&id=69c9de81-4d57-43fe-858b-859668cbeec0&thumb,충청북도 옥천군 군북면 이백6길 126,36.3295237,127.5559057
옥천 장수마을,충북 옥천군,043-733-9453,"['가족과함께', '관광지', '농촌마을', '농촌여행', '농촌체험', '이색체험', '자연관광지']",https://cdn.visitkorea.or.kr/img/call?cmd=VIEW&id=9ce5b2b9-9b6c-4820-b471-20ef5408e307&thumb,충청북도 옥천군 청성면 장수로1길 79-1,36.3158186,127.7436776
옥천 후율당,충북 옥천군,043-730-3728,"['관광지', '역사', '역사공부', '역사관광지', '역사를품은곳', '역사문화재', '역사속']",https://cdn.visitkorea.or.kr/img/call?cmd=VIEW&id=f8753c88-3c52-4326-9d15-fc0b9235b578&thumb,충청북도 옥천군 안내면 도이길 42,36.4024349,127.6719577
옥천향교,충북 옥천군,043-730-3728,"['관광지', '역사', '역사공부', '역사관광지', '역사를품은곳', '역사문화재', '역사속']",https://cdn.visitkorea.or.kr/img/call?cmd=VIEW&id=5e888a4d-9b98-4218-80e2-74f2dad972c9&thumb,충청북도 옥천군 옥천읍 향수8길 8-5,36.3181173,127.5865307
옥화9경,충북 청주시,043-201-0001,"['관광지', '자연']",https://cdn.visitkorea.or.kr/img/call?cmd=VIEW&id=6e6b44cc-5668-4bf8-b7a9-071e9ee0e14b&thumb,충청북도 청주시 상당구 미원면 운암2길,36.5985806,127.6970425
옥화자연휴양림,충북 청주시,043-270-7384,"['관광지', '옥화자연휴양림', '자연', '충청권', '휴양여행', '힐링']",https://cdn.visitkorea.or.kr/img/call?cmd=VIEW&id=87e1c2e6-c83d-4182-9983-9774fe2372e6&thumb,충청북도 청주시 상당구 미원면 운암옥화길 140,36.5985806,127.6970425
온달관광지,충북 단양군,043-423-8820,"['가족과함께', '관광지', '남녀노소', '단양가볼만한곳', '드라마촬영장', '사진찍기좋은곳']",https://cdn.visitkorea.or.kr/img/call?cmd=VIEW&id=e706e5d2-0334-47f9-b977-648c7adbe06b&thumb,충청북도 단양군 영춘면 온달로 23,37.0626113,128.4926074
용담사(충주),충북 충주시,043-852-0546,"['관광지', '불교', '불교문화', '사찰', '사찰여행', '역사', '자연속으로', '자연환경']",https://cdn.visitkorea.or.kr/img/call?cmd=VIEW&id=d885bca2-35d5-4196-92ed-d1263a645588&thumb,충청북도 충주시 신니면 내포길 27-110,37.0071613,127.7118279
용담폭포,충북 제천시,043-641-6731,"['관광지', '자연']",https://cdn.visitkorea.or.kr/img/call?cmd=VIEW&id=21d4e604-544e-4907-9bc3-299e79827717&thumb,충청북도 제천시 수산면 상천1길,36.9671725,128.2394971
용두산 산림욕장,충북 제천시,043-641-6731,"['가족여행', '관광지', '사계절', '스포츠센터', '아이와함께', '여름휴가', '용두산산림욕장']",https://cdn.visitkorea.or.kr/img/call?cmd=VIEW&id=a3c76a47-2137-4c2f-9ed7-7aeb90e4b6ec&thumb,충청북도 제천시 명암로,37.184171,128.1420492
용암사(옥천),충북 옥천군,043-732-1400,"['가족여행', '관광지', '불교', '불교문화', '사찰', '사찰여행', '산사', '역사', '연중무휴']",https://cdn.visitkorea.or.kr/img/call?cmd=VIEW&id=ced8a72b-ce2a-4be9-8570-9a231c067153&thumb,충청북도 옥천군 옥천읍 삼청2길 400,36.2594581,127.5640179
용하구곡,충북 제천시,043-653-3250,"['경치좋은곳', '관광지', '단풍여행', '여름여행', '여름피서지', '용하구곡', '자연']",https://cdn.visitkorea.or.kr/img/call?cmd=VIEW&id=459d8ec4-75e2-4572-8d27-2aa3dbc18d42&thumb,충북 제천시 덕산면 억수리,36.871492,128.151321
용화사(진천),충북 진천군,043-533-3204,"['관광지', '불교', '불교문화', '사찰', '사찰여행', '역사', '자연속으로', '자연환경']",https://cdn.visitkorea.or.kr/img/call?cmd=VIEW&id=a06f9f30-5adb-4ede-aad3-d6f4d736cdf2&thumb,충청북도 진천군 진천읍 소강정1길 83,36.8553649,127.4511884
용화사(청주),충북 청주시,043-274-2159,"['가족여행', '관광지', '불교', '불교문화', '사찰', '사찰&산사', '사찰여행', '역사']",https://cdn.visitkorea.or.kr/img/call?cmd=VIEW&id=be9c9968-3ec7-4121-a0b6-ad7683177a84&thumb,충청북도 청주시 서원구 무심서로 565,36.6416246,127.4820829
우드트레인,충북 제천시,070-4418-5120,"['가족여행', '공예체험', '공예품', '관광지', '목공예', '목공체험', '수공예', '아이와함께']",https://cdn.visitkorea.or.kr/img/call?cmd=VIEW&id=4571fa20-0407-40a3-b82d-b86b5bc6daae&thumb,충청북도 제천시 봉양읍 의암로 698,37.1008466,128.0779727
우록서원,충북 청주시,043-201-0916,"['관광지', '역사', '역사공부', '역사관광지', '역사를품은곳', '역사문화재', '역사속']",https://cdn.visitkorea.or.kr/img/call?cmd=VIEW&id=e9e9e5ee-9e26-4357-ab1c-e3baa8f35696&thumb,충청북도 청주시 서원구 현도면 우록리,36.5080121,127.4307948
우암 송시열묘,충북 괴산군,043-830-3433,"['관광지', '역사', '역사공부', '역사관광지', '역사를품은곳', '역사문화재', '역사속']",https://cdn.visitkorea.or.kr/img/call?cmd=VIEW&id=2d8d9b02-25df-4a6b-96e1-1a69e807d9eb&thumb,충청북도 괴산군 청천면 청천8길 19,36.662285,127.7362325
우암산,충북 청주시,043-201-2044,"['관광지', '자연']",https://cdn.visitkorea.or.kr/img/call?cmd=VIEW&id=3a00b23d-64d4-4013-bfec-abc71adefc90&thumb,충청북도 청주시 상당구 교동로71번길 91,36.6419211,127.4993734
"우천석, 우팽 부자 묘소",충북 충주시,043-850-5980,"['관광지', '역사', '역사공부', '역사관광지', '역사를품은곳', '역사문화재', '역사속']",https://cdn.visitkorea.or.kr/img/call?cmd=VIEW&id=8f3f8b86-eae5-4ad0-ad76-bea52f4dbc65&thumb,충청북도 충주시 산척면 송강행정길 53,37.0813147,127.9645864
운곡서원,충북 청주시,043-201-0916,"['관광지', '역사', '역사공부', '역사관광지', '역사를품은곳', '역사문화재', '역사속']",https://cdn.visitkorea.or.kr/img/call?cmd=VIEW&id=c06fec99-b6e2-4e64-ab87-a075230ddc4c&thumb,충청북도 청주시 상당구 목련로214번길 37-3,36.6058601,127.5280777
운곡서원(음성),충북 음성군,043-871-3414,"['관광지', '역사', '역사공부', '역사관광지', '역사를품은곳', '역사문화재', '역사속']",https://cdn.visitkorea.or.kr/img/call?cmd=VIEW&id=6c7f985a-53e4-42e1-97b7-3a66a0d8eb5c&thumb,충청북도 음성군 삼성면 청용로365번길 22,37.0173876,127.4669778
운용사(충북),충북 청주시,043-225-0909,"['가족여행', '관광지', '불교', '불교문화', '사찰', '사찰&산사', '사찰여행', '역사']",https://cdn.visitkorea.or.kr/img/call?cmd=VIEW&id=d895136f-22e8-4154-bc07-1fd27b899d93&thumb,충청북도 청주시 상당구 미원면 운용길,36.6361046,127.6584298
원각사(충북),충북 제천시,043-647-2840,"['관광지', '불교', '불교문화', '사찰', '사찰여행', '역사', '자연속으로', '자연환경']",https://cdn.visitkorea.or.kr/img/call?cmd=VIEW&id=2da7d01e-2e7c-45d7-a97b-ba8533e034f6&thumb,충청북도 제천시 의병대로 118,37.1348329,128.2136535
원호 유허비 및 관란정,충북 제천시,043-641-5114,"['관광지', '역사', '역사공부', '역사관광지', '역사를품은곳', '역사문화재', '역사속']",https://cdn.visitkorea.or.kr/img/call?cmd=VIEW&id=592e910a-9517-4733-a5f1-d954e7d7cf6a&thumb,충청북도 제천시 송학면 장곡리,37.2077457,128.3175693
월류봉(한천팔경),충북 영동군,043-740-3205,"['경치여행', '경치좋은곳', '관광지', '자연관광지', '자연발생', '자연속으로', '자연여행']",https://cdn.visitkorea.or.kr/img/call?cmd=VIEW&id=b5131809-e0b0-42d7-a57b-195f0eedfc01&thumb,충청북도 영동군 황간면 원촌리 48-3,36.234255,127.8917226
월리사(청주),충북 청주시,043-221-7600,"['관광지', '불교문화', '사찰', '사찰여행', '역사', '월리사', '자연', '자연속으로']",https://cdn.visitkorea.or.kr/img/call?cmd=VIEW&id=f495da81-766d-4344-a728-127974af5c73&thumb,충청북도 청주시 상당구 문의면 염티소전로 55-100,36.6510445,127.4870295
월명사(제천),충북 제천시,043-643-4733,"['관광지', '불교', '불교문화', '사찰', '사찰여행', '역사', '월명사', '자연속으로']",https://cdn.visitkorea.or.kr/img/call?cmd=VIEW&id=b90246d2-d45b-4bb3-837d-389e3444cbb0&thumb,충청북도 제천시 송학면 시곡5길 3,37.1916984,128.2804579
월악산 약초마을,충북 제천시,043-641-4853,"['가족여행', '경치좋은곳', '관광지', '산촌체험', '아이와함께', '월악산약초마을']",https://cdn.visitkorea.or.kr/img/call?cmd=VIEW&id=94e1e3f8-674c-4567-b4d4-974ed2c5c098&thumb,충청북도 제천시 덕산면 약초로 78,36.9102063,128.1645824
월악산국립공원,충북 제천시,043-653-3250,"['가족여행', '관광지', '나들이', '데이트코스', '등산', '등산로', '아이와함께', '연인과함께']",https://cdn.visitkorea.or.kr/img/call?cmd=VIEW&id=11b68cce-6606-4dbd-afa7-e54c68e07d27&thumb,충청북도 제천시 한수면 미륵송계로 1647,36.8870188,128.0785411
월악산국립공원,충북 제천시,043-653-3250,"['걷기길', '관광지', '눈꽃&설경여행', '단풍여행', '생태관광', '생태관광지', '소백산']",https://cdn.visitkorea.or.kr/img/call?cmd=VIEW&id=9e072049-4a1a-42a7-aec6-f2ebf869b6de&thumb,충청북도 제천시 한수면 미륵송계로 1647,36.8870188,128.0785411
위정사,충북 괴산군,043-830-3433,"['관광지', '역사', '역사공부', '역사관광지', '역사를품은곳', '역사문화재', '역사속']",https://cdn.visitkorea.or.kr/img/call?cmd=VIEW&id=2c75c746-efab-4cb6-a37b-d87f08d16989&thumb,충청북도 괴산군 장연면 충민로광진8길 53-1,36.8803959,127.9434416
율리휴양촌,충북 증평군,043-835-4581,"['관광지', '율리휴양촌', '자연', '충청권', '휴양여행', '힐링']",https://cdn.visitkorea.or.kr/img/call?cmd=VIEW&id=f34eb9cb-17b5-465a-9358-66238ca642f1&thumb,충청북도 증평군 증평읍 율리휴양로 287,36.7172611,127.6366367
음성 경호정,충북 음성군,043-871-3411,"['관광지', '산책하기좋은곳', '역사', '역사공부', '역사를품은곳', '역사문화재']",https://cdn.visitkorea.or.kr/img/call?cmd=VIEW&id=94f0c1cf-2956-4e24-a6fb-01ffda0cea16&thumb,충청북도 음성군 음성읍 설성공원길 28,36.9327088,127.6909135
음성 읍내리 삼층석탑,충북 음성군,043-871-3114,"['관광지', '역사', '역사공부', '역사관광지', '역사를품은곳', '역사문화재', '역사속']",https://cdn.visitkorea.or.kr/img/call?cmd=VIEW&id=85dd8fe4-66ce-4bce-97f8-68ebb2ec9658&thumb,충청북도 음성군 음성읍 설성공원길 28,36.9327088,127.6909135
음성 하당골녹색체험마을,충북 음성군,043-872-7301,"['가족과함께', '가족체험', '관광지', '농촌마을', '농촌체험', '농촌체험마을', '아이와함께']",https://cdn.visitkorea.or.kr/img/call?cmd=VIEW&id=06c49800-6f58-410c-94bf-72eaa086138f&thumb,충청북도 음성군 원남면 하초로 74,36.9077114,127.6767402
음성 흥미진진한 팩토리 투어센터,충북 음성군,043-530-1007,"['문화공간', '가족과함께', '관광지', '아이와함께', '연중무휴', '열린문화공간']",https://cdn.visitkorea.or.kr/img/call?cmd=VIEW&id=71b95c18-c9a8-4f95-8f55-f0e9dc7224ab&thumb,충청북도 음성군 대소면 대풍산단로 78,36.9711275,127.464668
음성김주태가옥,충북 음성군,043-871-3411,"['가옥', '관광지', '교과서속여행', '김주태가옥', '문화재', '역사', '역사공부', '역사관광지']",https://cdn.visitkorea.or.kr/img/call?cmd=VIEW&id=7efa8ec9-b288-4c16-9117-b9ed6cbefd53&thumb,충청북도 음성군 감곡면 영산안길 47-13,37.0808928,127.6577025
음성동요마을,충북 음성군,043-878-9966,"['걷기길', '관광지', '교과서속여행', '남녀노소', '산책하기', '산책하기좋은곳']",https://cdn.visitkorea.or.kr/img/call?cmd=VIEW&id=d84aa57b-45d1-4697-8be6-29be7a26d384&thumb,충청북도 음성군 생극면 오신로342번길 27,37.0273912,127.6299239
음성큰바위얼굴조각공원,충북 음성군,043-882-4111,"['관광지', '기차여행', '나들이', '데이트코스', '사진찍기', '사진찍기좋은곳', '산책길']",https://cdn.visitkorea.or.kr/img/call?cmd=VIEW&id=43c6a61c-8058-4c3e-8551-19641dcefa30&thumb,충청북도 음성군 생극면 일생로 500,37.0328814,127.5759173
음성향교,충북 음성군,043-871-3414,"['관광지', '역사', '역사공부', '역사관광지', '역사를품은곳', '역사문화재', '역사속']",https://cdn.visitkorea.or.kr/img/call?cmd=VIEW&id=816e634b-ee33-46fc-81c0-ef14435aa24e&thumb,충청북도 음성군 음성읍 중앙로 223,36.9417319,127.6946336
이시진 효자각,충북 충주시,043-850-5980,"['관광지', '역사', '역사공부', '역사관광지', '역사를품은곳', '역사문화관광', '역사문화재']",https://cdn.visitkorea.or.kr/img/call?cmd=VIEW&id=a06f8b68-3d12-448f-80da-3c4b28a27a85&thumb,충청북도 충주시 동량면 대전리1길 149,37.0556323,127.9463667
임경업 장군 묘소,충북 충주시,043-850-5980,"['관광지', '역사', '역사공부', '역사관광지', '역사를품은곳', '역사문화재', '역사속']",https://cdn.visitkorea.or.kr/img/call?cmd=VIEW&id=d3386a11-d6d8-4935-8206-78a7e02d2442&thumb,충청북도 충주시 풍동,36.9290342,127.9093948
자연드림파크(괴산),충북 괴산군,1833-5753,"['관광지', '산업관광', '산업관광지']",https://cdn.visitkorea.or.kr/img/call?cmd=VIEW&id=3ccce461-58f6-464a-876a-48b6e4783505&thumb,충청북도 괴산군 칠성면 자연드림길 240,36.766995,127.8602978
장락사(제천),충북 제천시,043-643-7502,"['관광지', '불교', '불교문화', '사찰', '사찰여행', '역사', '자연속으로', '자연환경']",https://cdn.visitkorea.or.kr/img/call?cmd=VIEW&id=9a22b32d-5527-4352-84f0-8114bb952c60&thumb,충청북도 제천시 탑안로8길 24,37.14787,128.2308136
"장령산자연휴양림(구, 장용산자연휴양림)",충북 옥천군,043-733-9615,"['가족과함께', '관광지', '아이와함께', '자연', '자연속으로', '자연여행', '자연좋은곳']",https://cdn.visitkorea.or.kr/img/call?cmd=VIEW&id=d26883cb-0175-4048-8865-0236fd73628a&thumb,충청북도 옥천군 군서면 장령산로 519,36.232468,127.5625848
장암 정호 묘소,충북 괴산군,043-830-3433,"['관광지', '역사', '역사공부', '역사관광지', '역사를품은곳', '역사문화재', '역사속']",https://cdn.visitkorea.or.kr/img/call?cmd=VIEW&id=f028bb75-567e-4759-8673-bc687313667f&thumb,충청북도 괴산군 불정면 지장리,36.8642181,127.8323692
장회나루,충북 단양군,043-422-1146,"['경치좋은곳', '관광지', '사진찍기좋은곳', '사진촬영명소', '자연관광지', '자연발생']",https://cdn.visitkorea.or.kr/img/call?cmd=VIEW&id=99e3180a-0d07-4713-8d9c-80f87f908fee&thumb,충청북도 단양군 단성면 장회리,36.9295517,128.2635426
정방사,충북 제천시,043-647-7399,"['관광지', '불교', '불교문화', '사찰', '사찰여행', '역사', '자연환경', '전통사찰']",https://cdn.visitkorea.or.kr/img/call?cmd=VIEW&id=4a6f19fd-2d77-4e0f-ac7d-07b5edd79d8f&thumb,충청북도 제천시 수산면 옥순봉로12길 165,36.9989833,128.2074024
정심사(충주),충북 충주시,043-848-2072,"['관광지', '불교', '불교문화', '사찰', '사찰여행', '역사', '자연', '자연속으로', '자연환경']",https://cdn.visitkorea.or.kr/img/call?cmd=VIEW&id=9496c0c9-4c5a-4ca9-a335-e9e69c79f09e&thumb,충청북도 충주시 유주막로 248,36.93818,127.9283635
정안둥구나무마을,충북 증평군,043-838-8228,"['관광지', '농촌', '농촌마을', '농촌여행', '농촌체험마을', '체험', '휴식공간', '휴식여행']",https://cdn.visitkorea.or.kr/img/call?cmd=VIEW&id=d6184dd3-2e89-473b-bd59-8c8b7765eb14&thumb,충청북도 증평군 증평읍 증안2길 22,36.7713245,127.5738526
정지용 생가,충북 옥천군,043-730-3407,"['관광지', '교과서속여행', '아이와함께', '역사', '역사공부', '역사관광지', '역사를품은곳']",https://cdn.visitkorea.or.kr/img/call?cmd=VIEW&id=a4d5f5eb-9321-4f68-ba5f-036df8ec2124&thumb,충청북도 옥천군 옥천읍 향수길 56,36.3149497,127.5817065
제3한방명의촌 한방자연치유센터,충북 제천시,043-653-8850,"['건강여행', '관광지', '약초생활건강', '이색카페', '자연&숲치유', '제3한방명의촌한방자연치유센터']",https://cdn.visitkorea.or.kr/img/call?cmd=VIEW&id=4c8e48b5-469c-421e-a92d-bf55e8bc6a28&thumb,충청북도 제천시 청풍면 학현소야로 324,37.0115611,128.2210115
제비봉,충북 단양군,043-653-3250,"['관광지', '자연']",https://cdn.visitkorea.or.kr/img/call?cmd=VIEW&id=c20cc2fa-ad35-48a5-b51a-b656db26c7c6&thumb,충청북도 단양군 단성면 장회리,36.9295517,128.2635426
제원 송계리 망개나무,충북 제천시,043-641-6731,"['관광지', '자연', '제원송계리망개나무', '천연기념물', '충청권']",https://cdn.visitkorea.or.kr/img/call?cmd=VIEW&id=09481112-d29d-4d1f-9748-d3da633f3e59&thumb,충청북도 제천시 한수면 미륵송계로 1405,36.8661603,128.0872468
제천 교리 방단석조물,충북 제천시,043-641-6731,"['관광지', '역사', '역사공부', '역사관광지', '역사를품은곳', '역사문화재', '역사속']",https://cdn.visitkorea.or.kr/img/call?cmd=VIEW&id=d05a9a04-374f-4fc0-aeca-155288330450&thumb,충청북도 제천시 청풍면 교리,37.0169056,128.1899343
제천 덕주산성,충북 제천시,043-641-6731,"['관광지', '덕주산성', '역사', '역사공부', '역사관광지', '역사를품은곳', '역사문화재']",https://cdn.visitkorea.or.kr/img/call?cmd=VIEW&id=a86961b9-7e18-4303-9cf1-4a025cec7dc5&thumb,충청북도 제천시 한수면 송계리,36.863527,128.0785028
제천 무암사 목조아미타여래좌상,충북 제천시,043-641-6731,"['관광지', '불교', '불교문화', '역사', '역사공부', '역사관광지', '역사를품은곳']",https://cdn.visitkorea.or.kr/img/call?cmd=VIEW&id=ececb5c4-726e-468a-affa-ff23bb4dbbe3&thumb,충청북도 제천시 금성면 청풍호로39길 285,37.0307898,128.2052353
제천 백련사 목조아미타여래좌상,충북 제천시,043-641-6731,"['관광지', '불교', '불교문화', '역사', '역사공부', '역사를품은곳', '역사문화재']",https://cdn.visitkorea.or.kr/img/call?cmd=VIEW&id=69491f9d-fb00-4b47-befc-a90e9caf752c&thumb,충청북도 제천시 봉양읍 명암로5길 414,37.2281528,128.1387645
제천 사자빈신사지 사사자 구층석탑,충북 제천시,043-641-5133,"['관광지', '보물', '사자빈신사지사사자구층석탑', '역사', '역사공부', '역사관광지']",https://cdn.visitkorea.or.kr/img/call?cmd=VIEW&id=81ebb3f2-62af-4933-8169-5325d5c7b3af&thumb,충청북도 제천시 한수면 송계리 1002-1,36.8739048,128.0878186
제천 산야초마을,충북 제천시,043-651-1357,"['관광지', '농촌체험', '아이와함께', '자연마을', '자연속으로', '자연좋은곳', '자연환경']",https://cdn.visitkorea.or.kr/img/call?cmd=VIEW&id=d9095ad2-2d8a-4375-99fc-214c6b112933&thumb,충청북도 제천시 수산면 옥순봉로6길 3,36.9701165,128.2265966
제천 소악사지 삼층석탑,충북 제천시,043-641-6731,"['관광지', '소악사지삼층석탑', '역사', '역사공부', '역사관광지', '역사를품은곳']",https://cdn.visitkorea.or.kr/img/call?cmd=VIEW&id=4ceb695d-2b33-46b6-bc6f-b3c0182ca57a&thumb,충청북도 제천시 송학면,37.1847701,128.2608167
제천 송계리 대불정주 범자비,충북 제천시,043-641-6731,"['관광지', '대불정주범자비', '문화재', '역사', '역사공부', '역사관광지', '역사를품은곳']",https://cdn.visitkorea.or.kr/img/call?cmd=VIEW&id=196d5a96-a2b3-4eb8-8180-6043ce28dac0&thumb,충청북도 제천시 한수면 송계리,36.863527,128.0785028
제천 시곡리 석조여래입상,충북 제천시,043-641-6731,"['관광지', '역사', '역사공부', '역사관광지', '역사를품은곳', '역사문화재', '역사속']",https://cdn.visitkorea.or.kr/img/call?cmd=VIEW&id=a6aef9a5-c1d2-4198-9207-8e08b312c9ac&thumb,충청북도 제천시 송학면 시곡리,37.1983181,128.2703105
제천 엽연초생산조합 구사옥,충북 제천시,043-641-6731,"['관광지', '문화재', '역사', '역사공부', '역사관광지', '역사를품은곳', '역사문화재']",https://cdn.visitkorea.or.kr/img/call?cmd=VIEW&id=c06f1eb3-72c7-459f-b6ca-ea71fdc417b2&thumb,충청북도 제천시 의병대로12길 8,37.1364868,128.2068891
제천 엽연초수납 취급소,충북 제천시,043-641-6731,"['가족여행', '관광지', '역사', '역사공부', '역사관광지', '역사를품은곳', '역사문화재']",https://cdn.visitkorea.or.kr/img/call?cmd=VIEW&id=4b6e03a9-04d9-469c-b48e-cf954050b5ea&thumb,충청북도 제천시 의병대로12길 14-1,37.1370371,128.2065552
제천 옥순봉,충북 제천시,043-653-3250,"['관광지', '자연']",https://cdn.visitkorea.or.kr/img/call?cmd=VIEW&id=2887938e-3881-4bd2-83d2-cc5a53142db3&thumb,충청북도 제천시 수산면,36.9337865,128.1809975
제천 의림지와 제림,충북 제천시,043-651-7101,"['가족여행', '관광지', '생태관광지', '자연', '자연좋은곳', '제천의림지와제림']",https://cdn.visitkorea.or.kr/img/call?cmd=VIEW&id=46a3a498-d920-4ded-80a9-57b4488dbfc0&thumb,충청북도 제천시 의림지로 33,37.1740612,128.2080737
제천 입석리 선돌,충북 제천시,043-641-6731,"['관광지', '역사', '역사공부', '역사관광지', '역사를품은곳', '역사문화재', '역사속']",https://cdn.visitkorea.or.kr/img/call?cmd=VIEW&id=a2ab006c-d29a-42ac-a625-d61fe327a6a7&thumb,충청북도 제천시 송학면 입석리,37.2078473,128.2948605
제천 자양영당,충북 제천시,043-641-4811,"['가족여행', '관광지', '역사', '역사공부', '역사관광지', '역사를품은곳', '역사문화재']",https://cdn.visitkorea.or.kr/img/call?cmd=VIEW&id=f307f08d-eb22-44a7-8af4-9b5ee4303c9e&thumb,충청북도 제천시 봉양읍 의암로 566-7,37.0992402,128.0864738
제천 장락동 칠층모전석탑,충북 제천시,043-641-6731,"['관광지', '역사', '역사공부', '역사관광지', '역사를품은곳', '역사문화재', '역사속']",https://cdn.visitkorea.or.kr/img/call?cmd=VIEW&id=c838552f-da28-4255-b21b-51c732b00a7b&thumb,충청북도 제천시 탑안로8길 24,37.14787,128.2308136
제천 점말동굴유적,충북 제천시,043-641-6731,"['관광지', '역사', '역사공부', '역사관광지', '역사를품은곳', '역사문화재', '역사속']",https://cdn.visitkorea.or.kr/img/call?cmd=VIEW&id=cd9fa584-f3a3-4d45-850e-712f4aa7467e&thumb,충청북도 제천시 송학면 포전리,37.1978564,128.2354484
제천 중전리 고가,충북 제천시,043-641-6731,"['관광지', '역사', '역사공부', '역사관광지', '역사를품은곳', '역사문화재', '역사속']",https://cdn.visitkorea.or.kr/img/call?cmd=VIEW&id=99a0fff2-d728-4021-b30d-9a66a76238aa&thumb,충청북도 제천시 금성면 신담길 278,37.0624162,128.1909105
제천 지곡리 고가,충북 제천시,043-641-5532,"['관광지', '역사', '역사공부', '역사관광지', '역사를품은곳', '역사문화재', '역사속']",https://cdn.visitkorea.or.kr/img/call?cmd=VIEW&id=932a1eaf-42a7-49a9-b613-9e0d84f029e1&thumb,충청북도 제천시 청풍면 청풍호로 2048,37.0043169,128.171511
제천 청풍 금남루,충북 제천시,043-641-5532,"['관광지', '역사', '역사공부', '역사관광지', '역사를품은곳', '역사문화재', '역사속']",https://cdn.visitkorea.or.kr/img/call?cmd=VIEW&id=ca729a89-b777-40e0-9b75-76cca8b0fa21&thumb,충청북도 제천시 청풍면 청풍호로 2048,37.0043169,128.171511
제천 청풍 금병헌,충북 제천시,043-641-6731,"['관광지', '역사', '역사공부', '역사관광지', '역사를품은곳', '역사문화재', '역사속']",https://cdn.visitkorea.or.kr/img/call?cmd=VIEW&id=38bb48dd-1cad-4aa0-9481-2868477f237c&thumb,충청북도 제천시 청풍면 청풍호로 2048,37.0043169,128.171511
제천 청풍 망월산성,충북 제천시,043-641-6731,"['관광지', '기념물', '역사', '역사공부', '역사관광지', '역사를품은곳', '역사문화재']",https://cdn.visitkorea.or.kr/img/call?cmd=VIEW&id=a036a8b4-30b4-4459-81a1-d6f75cb6e932&thumb,충청북도 제천시 청풍면 청풍호로 2048,37.0043169,128.171511
제천 청풍 응청각,충북 제천시,043-641-5532,"['관광지', '역사', '역사공부', '역사관광지', '역사를품은곳', '역사문화재', '역사속']",https://cdn.visitkorea.or.kr/img/call?cmd=VIEW&id=93c5d256-21e9-4087-b9fa-3c887b55cdd0&thumb,충청북도 제천시 청풍면 청풍호로 2048,37.0043169,128.171511
제천 청풍 한벽루,충북 제천시,043-641-5532,"['관광지', '역사', '역사공부', '역사관광지', '역사를품은곳', '역사문화재', '역사속']",https://cdn.visitkorea.or.kr/img/call?cmd=VIEW&id=d5bbce40-ab18-4460-8bd4-b0231de1eef1&thumb,충청북도 제천시 청풍면 청풍호로 2048,37.0043169,128.171511
제천 청풍관광마을,충북 제천시,043-641-4939,"['가족체험', '관광지', '농촌체험', '농촌체험여행', '농촌체험학습', '아이와함께']",https://cdn.visitkorea.or.kr/img/call?cmd=VIEW&id=c7e9ea39-a0f8-4f04-a175-67826d7ca987&thumb,충청북도 제천시 청풍면 배시론로 3,36.9965078,128.1661917
제천 한산사 석조여래입상,충북 제천시,043-641-6731,"['관광지', '불교', '불교문화', '역사', '역사공부', '역사를품은곳', '역사문화재']",https://cdn.visitkorea.or.kr/img/call?cmd=VIEW&id=5bc5217d-6065-4892-823f-73ea9230aade&thumb,충청북도 제천시 용두천로8길 27,37.1344496,128.2133711
제천솔방죽 생태공원,충북 제천시,043-641-6731,"['걷기길', '관광지', '생태관광', '생태관광지', '솔방죽', '주말추천여행지', '충청권']",https://cdn.visitkorea.or.kr/img/call?cmd=VIEW&id=f5e25e69-044d-4206-ab3a-5d8166bc34dd&thumb,충청북도 제천시 청전동 240-1 일원,37.1572737,128.2081943
제천역 (철도체험학습장),충북 제천시,043-641-2173,"['관광지', '테마']",https://cdn.visitkorea.or.kr/img/call?cmd=VIEW&id=df3e5e84-27b6-4aa0-99cb-31592e299955&thumb,충청북도 제천시 의림대로 1,37.1277513,128.2047664
제천한방엑스포공원,충북 제천시,043-647-1011,"['가족과함께', '가족여행', '가족체험여행', '건강여행', '관광지', '교육여행', '교육프로그램']",https://cdn.visitkorea.or.kr/img/call?cmd=VIEW&id=c7dde58b-b651-4327-9a01-d788f80cdd63&thumb,충청북도 제천시 한방엑스포로 19,37.1431993,128.1603772
제천향교,충북 제천시,043-641-6731,"['관광지', '문화재', '역사', '역사공부', '역사관광지', '역사를품은곳', '역사문화재']",https://cdn.visitkorea.or.kr/img/call?cmd=VIEW&id=f240e777-d037-4bac-b60d-4cbfd5d945e8&thumb,충청북도 제천시 칠성로 117,37.1417307,128.2178817
조동산촌마을,충북 영동군,070-8861-6038,"['관광지', '수련원', '시골여행', '자연마을', '자연여행', '자연좋은곳', '자연체험']",https://cdn.visitkorea.or.kr/img/call?cmd=VIEW&id=1c35f563-7b7f-44fa-8968-57458857ce4a&thumb,충청북도 영동군 용화면 민주지산로 765,36.0463553,127.8147179
조령민속공예촌,충북 괴산군,,"['가족과함께', '가족여행', '공예체험', '공예품', '관광지', '민속공예품제작체험']",https://cdn.visitkorea.or.kr/img/call?cmd=VIEW&id=8e6c0ad6-401d-4f72-8c5c-f1551d73026e&thumb,충청북도 괴산군 연풍면 원풍로 224-11,36.7839046,128.0173705
조령산자연휴양림,충북 괴산군,043-833-7994,"['가족여행', '관광지', '자연', '조령산자연휴양림', '충청권', '휴양여행', '힐링']",https://cdn.visitkorea.or.kr/img/call?cmd=VIEW&id=0f1f8637-347f-421d-9248-f225b9687d73&thumb,충청북도 괴산군 연풍면 새재로 1795,36.8120957,128.0470655
조산공원,충북 충주시,043-840-2011,"['관광지', '산림욕', '산책길', '산책하기', '산책하기좋은곳', '수안보연수원', '수안보온천']",https://cdn.visitkorea.or.kr/img/call?cmd=VIEW&id=03b17763-5c7b-4654-91c3-5cb9ec5be2ec&thumb,충청북도 충주시 수안보면 조산공원길 64,36.8438634,127.991178
좌구산자연휴양림,충북 증평군,043-835-4551,"['관광지', '자연', '좌구산자연휴양림', '충청권', '휴양여행']",https://cdn.visitkorea.or.kr/img/call?cmd=VIEW&id=47e4fc9c-52b0-40a9-ae8e-470adce17068&thumb,충청북도 증평군 증평읍 솟점말길 107,36.7054168,127.6511754
주정산 봉수,충북 충주시,043-850-5980,"['관광지', '역사', '역사공부', '역사관광', '역사관광지', '역사를품은곳', '역사문화재']",https://cdn.visitkorea.or.kr/img/call?cmd=VIEW&id=ee5cda24-79f9-45e6-8444-72ea33d4fe31&thumb,충청북도 충주시 수안보면 온천리,36.851824,127.9870796
죽계서원(청주),충북 청주시,043-201-2021,"['관광지', '역사', '역사공부', '역사관광지', '역사를품은곳', '역사문화재', '역사속']",https://cdn.visitkorea.or.kr/img/call?cmd=VIEW&id=bf929025-c391-4775-a53b-1a6f3a4f2e47&thumb,충청북도 청주시 청원구 북이면 용계4길 8-12,36.7584842,127.5221022
죽령폭포,충북 단양군,043-423-0708,"['관광지', '소백산', '자연', '죽령폭포', '충청권']",https://cdn.visitkorea.or.kr/img/call?cmd=VIEW&id=e5ab4bb5-0a92-425e-8ea3-d328582a82d8&thumb,충청북도 단양군 대강면 죽령로,36.9120651,128.4001915
중부내륙순환열차(O-트레인),충북 제천시,1544-7788,"['가족여행', '관광지', '기차여행', '데이트코스', '봄나들이', '연인과함께', '이색열차']",https://cdn.visitkorea.or.kr/img/call?cmd=VIEW&id=54c6515e-a73c-4527-8eb1-32b93ca62be7&thumb,서울특별시 용산구 한강대로 405,37.5490645,126.9704658
중사자암,충북 보은군,043-542-5093,"['관광지', '불교', '불교문화', '사찰', '사찰여행', '역사', '자연속으로', '자연환경']",https://cdn.visitkorea.or.kr/img/call?cmd=VIEW&id=null&thumb,충청북도 보은군 속리산면 법주사로 832,36.5613833,127.853872
중선암,충북 단양군,043-422-1146,"['관광지', '명경대', '옥염대', '자연', '중선암', '충청권']",https://cdn.visitkorea.or.kr/img/call?cmd=VIEW&id=663dc1ad-3d53-4809-ad09-3bb2c606be64&thumb,충청북도 단양군 단성면,36.9371158,128.3234095
중앙탑공원(충주),충북 충주시,043-842-0531,"['관광지', '교과서속여행', '아이와함께', '야간관광100선', '역사유적지', '연중무휴']",https://cdn.visitkorea.or.kr/img/call?cmd=VIEW&id=1c373c43-6dd7-41e7-95b4-ca9902184c40&thumb,충청북도 충주시 중앙탑면 중앙탑길 112-28,37.0163939,127.8652604
중원 문주리 와요지,충북 충주시,043-850-5980,"['관광지', '역사', '역사공부', '역사를품은곳', '역사를품은곳', '역사문화재', '역사속']",https://cdn.visitkorea.or.kr/img/call?cmd=VIEW&id=d7ad1a7d-3c40-48ff-92c7-7c94ed652536&thumb,충청북도 충주시 대소원면 문주리,36.9053823,127.8921123
중원 미륵리 도요지,충북 충주시,043-850-5980,"['관광지', '도요지', '역사', '역사공부', '역사를품은곳', '역사문화재', '역사속']",https://cdn.visitkorea.or.kr/img/call?cmd=VIEW&id=ea082638-38ef-49cd-b976-06895114913e&thumb,충청북도 충주시 수안보면 미륵송계로 835,36.8239221,128.088155
중원 미륵리 사지 석조보살의상,충북 충주시,043-850-5980,"['관광지', '역사', '역사공부', '역사관광지', '역사를품은곳', '역사문화재', '역사속']",https://cdn.visitkorea.or.kr/img/call?cmd=VIEW&id=0ff3823f-7f1f-42f3-ae26-a057df6e07f3&thumb,충청북도 충주시 수안보면 미륵리,36.8205886,128.0940826
중원 미륵리 삼층석탑,충북 충주시,043-850-5980,"['관광지', '역사', '역사공부', '역사관광지', '역사를품은곳', '역사문화', '역사문화재']",https://cdn.visitkorea.or.kr/img/call?cmd=VIEW&id=74e73ceb-674b-4a54-83e3-8cda6b74d360&thumb,충청북도 충주시 수안보면 미륵리,36.8205886,128.0940826
중원 미륵리 석등,충북 충주시,043-850-5980,"['관광지', '역사', '역사공부', '역사관광지', '역사를품은곳', '역사문화재', '역사속']",https://cdn.visitkorea.or.kr/img/call?cmd=VIEW&id=2c039301-6ac8-48ec-8332-bfbb4306eadb&thumb,충청북도 충주시 수안보면 미륵리,36.8205886,128.0940826
중원 원평리 미륵석불,충북 충주시,043-850-5980,"['관광지', '역사', '역사공부', '역사관광', '역사관광지', '역사를품은곳', '역사문화']",https://cdn.visitkorea.or.kr/img/call?cmd=VIEW&id=e1065ac7-cd17-4dbb-9781-8d69ecd2467c&thumb,충청북도 충주시 신니면 원평리 108,37.0000156,127.7207005
중원당 (청명주 양조장),충북 충주시,043-842-5005,"['관광지', '무형문화재', '산업관광', '아이와함께', '양조장', '연인과함께', '이색체험']",https://cdn.visitkorea.or.kr/img/call?cmd=VIEW&id=d6ff529a-3341-409b-bcd4-811a6e26acb5&thumb,충청북도 충주시 중앙탑면 청금로 112-10,36.99724,127.8788279
중화사(영동),충북 영동군,043-742-2057,"['관광지', '불교', '불교문화', '사찰', '사찰여행', '역사', '자연속으로', '자연환경']",https://cdn.visitkorea.or.kr/img/call?cmd=VIEW&id=null&thumb,충청북도 영동군 영동읍 화신로 529,36.1481621,127.8390489
증평 남하리 석조보살입상,충북 증평군,043-835-4146,"['관광지', '역사', '역사공부', '역사관광지', '역사를품은곳', '역사문화재', '역사속']",https://cdn.visitkorea.or.kr/img/call?cmd=VIEW&id=d858191f-8c05-4f12-92d9-5ae1a21b6191&thumb,충청북도 증평군 증평읍 남하리,36.7556962,127.597704
증평 미암리 석조관음보살입상,충북 증평군,043-835-4146,"['관광지', '역사', '역사공부', '역사관광지', '역사를품은곳', '역사문화재', '역사속']",https://cdn.visitkorea.or.kr/img/call?cmd=VIEW&id=bc95ae97-7a56-4bf0-8cac-cfc630d4f18b&thumb,충청북도 증평군 증평읍 송산리,36.803473,127.5763313
증평 에듀팜(블랙스톤 벨포레 리조트),충북 증평군,043-926-1000,"['가족과함께', '관광지', '이색체험', '체험프로그램', '친구와함께', '휴식공간']",https://cdn.visitkorea.or.kr/img/call?cmd=VIEW&id=41966d9b-3cf2-4e9c-b71e-04c84e22b6ae&thumb,충청북도 증평군 도안면 벨포레길 346,36.8388255,127.5821424
증평 연병호 생가,충북 증평군,043-835-4111,"['관광지', '역사', '역사공부', '역사관광지', '역사를품은곳', '역사문화재', '역사속']",https://cdn.visitkorea.or.kr/img/call?cmd=VIEW&id=d3843083-8128-4dca-80b3-8759b520fa87&thumb,충청북도 증평군 도안면 산정길 21,36.828426,127.62034
증평 장이익어가는마을,충북 증평군,043-835-3894,"['가족과함께', '가족체험', '가족힐링', '관광지', '농촌체험', '농촌체험마을', '농촌체험학습']",https://cdn.visitkorea.or.kr/img/call?cmd=VIEW&id=35c80fc6-90e4-4ca7-a477-aff1229b2676&thumb,충청북도 증평군 증평읍 송티로 76-12,36.8000819,127.5783338
증평 좌구산 구름다리 & 좌구산 숲 명상의 집,충북 증평군,043-835-4554,"['경치여행', '경치좋은곳', '관광지', '휴식공간', '휴식여행', '휴식하기', '휴식하기좋은곳']",https://cdn.visitkorea.or.kr/img/call?cmd=VIEW&id=0e2f8d54-f264-425a-9737-aac5bc46bd38&thumb,충청북도 증평군 증평읍 솟점말길 107,36.7054168,127.6511754
증평 좌구산천문대,충북 증평군,043-835-4571,"['가족여행', '관광지', '아이와함께', '야경투어', '자연', '전시관', '증평좌구산천문대']",https://cdn.visitkorea.or.kr/img/call?cmd=VIEW&id=693bb2da-0d61-49e6-8d80-37954b690d05&thumb,충청북도 증평군 증평읍 솟점말길 187,36.7103022,127.6491052
증평 증안골마을,충북 증평군,043-835-3893,"['가족과함께', '관광지', '농촌체험', '농촌체험마을', '농촌체험학습', '아이와함께']",https://cdn.visitkorea.or.kr/img/call?cmd=VIEW&id=16b89852-4acc-4574-b047-f8aca8d02ff5&thumb,충청북도 증평군 증평읍 삼보로 113,36.7807001,127.577053
"지장사(구, 대각사)",충북 영동군,043-745-5738,"['관광지', '불교', '불교문화', '사찰', '사찰여행', '역사', '자연속으로', '자연환경']",https://cdn.visitkorea.or.kr/img/call?cmd=VIEW&id=null&thumb,충청북도 영동군 황간면 황간동로 284-28,36.246422,127.9200709
지천서원,충북 음성군,043-871-3414,"['관광지', '역사', '역사공부', '역사관광지', '역사를품은곳', '역사속', '역사속으로']",https://cdn.visitkorea.or.kr/img/call?cmd=VIEW&id=bd6e8547-37f2-428e-b4d4-5c072f672a12&thumb,충청북도 음성군 생극면 팔성길 88,37.0468572,127.5933944
진천 금성대군 사당,충북 진천군,043-539-3624,"['관광지', '역사', '역사공부', '역사관광지', '역사를품은곳', '역사문화재', '역사속']",https://cdn.visitkorea.or.kr/img/call?cmd=VIEW&id=6e436d58-541d-4593-a350-6c98b4679f0a&thumb,충청북도 진천군 초평면 수의1길 75-7,36.790343,127.5510299
진천 길상사,충북 진천군,043-539-3624,"['관광지', '역사', '역사공부', '역사관광지', '역사를품은곳', '역사문화재', '역사속']",https://cdn.visitkorea.or.kr/img/call?cmd=VIEW&id=6e868263-6e82-4593-8a07-02e76d594572&thumb,충청북도 진천군 진천읍 문진로 1411-38,36.8535609,127.4239809
진천 김유신 탄생지와 태실,충북 진천군,043-539-3624,"['관광지', '역사', '역사공부', '역사관광지', '역사를품은곳', '역사문화재', '역사속']",https://cdn.visitkorea.or.kr/img/call?cmd=VIEW&id=b160a6cf-33fe-46c3-bc78-c520d6036f52&thumb,충청북도 진천군 진천읍 김유신길 170-4,36.8404378,127.3755666
진천 노원리 왜가리 번식지,충북 진천군,043-539-3624,"['관광지', '자연']",https://cdn.visitkorea.or.kr/img/call?cmd=VIEW&id=edf6e3c2-f5d1-48b6-8866-dbbff417337a&thumb,충청북도 진천군 이월면 논실길 113-12,36.9231897,127.4157489
진천 농다리,충북 진천군,043-539-3624,"['가족여행', '관광지', '교과서속여행', '아이와함께', '여름방학가볼만한곳', '역사']",https://cdn.visitkorea.or.kr/img/call?cmd=VIEW&id=91fb86b1-ab0a-40d1-9377-256c0df4b480&thumb,충청북도 진천군 문백면 구곡리,36.8345396,127.4904527
진천 덕산양조(주),충북 진천군,043-536-3567,"['관광지', '근대문화유산', '덕산양조', '산업관광', '식객', '양조장', '전통산업']",https://cdn.visitkorea.or.kr/img/call?cmd=VIEW&id=62547347-ac74-4f51-a0fe-706871e8794a&thumb,충청북도 진천군 덕산면 초금로 712,36.9082437,127.5086787
진천 배티 성지,충북 진천군,043-533-5710,"['관광지', '역사', '역사공부', '역사관광지', '역사를품은곳', '역사속', '역사속으로']",https://cdn.visitkorea.or.kr/img/call?cmd=VIEW&id=8047154d-e788-4be6-8c98-ca964cbb308c&thumb,충청북도 진천군 백곡면 배티로 663-13,36.927,127.3262737
진천 산수리와 삼용리 요지,충북 진천군,043-539-3624,"['관광지', '역사', '역사공부', '역사관광지', '역사를품은곳', '역사문화재', '역사속']",https://cdn.visitkorea.or.kr/img/call?cmd=VIEW&id=7f08ab44-4918-401d-9917-5e423600298b&thumb,충청북도 진천군 이월면 삼용리,36.9028265,127.4677154
진천 생거진천화랑촌,충북 진천군,010-6266-6335,"['가족과함께', '관광지', '아이와함께', '자연좋은곳', '자연환경', '체험', '휴식공간']",https://cdn.visitkorea.or.kr/img/call?cmd=VIEW&id=32a52006-ce62-4409-8979-fc5a9cf61033&thumb,충청북도 진천군 진천읍 보련골길 40-4,36.8456408,127.3530855
진천 신헌 고가,충북 진천군,043-539-3624,"['관광지', '역사', '역사공부', '역사관광지', '역사를품은곳', '역사문화재', '역사속']",https://cdn.visitkorea.or.kr/img/call?cmd=VIEW&id=18e85795-ad01-45a1-bf05-2386f8e604ab&thumb,충청북도 진천군 이월면 논실안길 58-1,36.9236447,127.4164671
진천 연곡리 석비,충북 진천군,043-539-3624,"['관광지', '역사', '역사공부', '역사관광지', '역사를품은곳', '역사문화재', '역사속']",https://cdn.visitkorea.or.kr/img/call?cmd=VIEW&id=cfd88147-83c2-4e07-b2a6-5dbf5aa8e9e0&thumb,충청북도 진천군 진천읍 김유신길 641,36.8397967,127.3409364
진천 이시발 신도비,충북 진천군,043-539-3624,"['관광지', '문화재', '역사', '역사공부', '역사관광지', '역사를품은곳', '역사문화재']",https://cdn.visitkorea.or.kr/img/call?cmd=VIEW&id=ea0ad5ac-a6f9-4e7f-9618-571e3dd635ae&thumb,충청북도 진천군 초평면 용정리,36.8399176,127.5227837
진천 이영남 묘소,충북 진천군,043-539-3624,"['관광지', '역사', '역사공부', '역사관광지', '역사를품은곳', '역사문화재', '역사속']",https://cdn.visitkorea.or.kr/img/call?cmd=VIEW&id=26c90479-90de-4943-b57f-00cc3964d458&thumb,충청북도 진천군 덕산읍 기전리,36.8881063,127.5328525
진천 정송강사,충북 진천군,043-539-3624,"['관광지', '역사', '역사공부', '역사관광지', '역사를품은곳', '역사문화재', '역사속']",https://cdn.visitkorea.or.kr/img/call?cmd=VIEW&id=6e6c1ec6-99ff-45e6-bc08-08d2f40141db&thumb,충청북도 진천군 문백면 송강로 523,36.7987599,127.4093409
진천 태화4년명 마애여래입상,충북 진천군,043-539-3624,"['관광지', '역사', '역사공부', '역사관광지', '역사를품은곳', '역사문화재', '역사속']",https://cdn.visitkorea.or.kr/img/call?cmd=VIEW&id=25acbec7-653e-4d0a-8966-e74c207c610d&thumb,충청북도 진천군 초평면 용정리,36.8399176,127.5227837
진천공예마을,충북 진천군,043-532-3938,"['관광지', '체험']",https://cdn.visitkorea.or.kr/img/call?cmd=VIEW&id=f50318b5-5315-4931-916b-985a2cb6789d&thumb,충청북도 진천군 문백면 공예촌길 116-3,36.7898013,127.4567948
진천만뢰산 자연생태공원,충북 진천군,043-539-3448,"['관광지', '만뢰산', '생태관광', '생태관광지', '수목원', '언택트관광지_100선']",https://cdn.visitkorea.or.kr/img/call?cmd=VIEW&id=0d75987f-63b0-4177-a2ab-3cd7ae442154&thumb,충청북도 진천군 진천읍 김유신길 340-38,36.8498849,127.3657174
진천향교,충북 진천군,043-539-3624,"['관광지', '역사', '역사공부', '역사관광지', '역사를품은곳', '역사문화재', '역사속']",https://cdn.visitkorea.or.kr/img/call?cmd=VIEW&id=07d68d1e-f447-4243-909b-e925caed7737&thumb,충청북도 진천군 진천읍 문화5길 30,36.8494576,127.4350152
창룡사(충주),충북 충주시,,"['관광지', '불교', '불교문화', '사찰', '사찰여행', '역사', '자연', '자연속으로', '자연환경']",https://cdn.visitkorea.or.kr/img/call?cmd=VIEW&id=4775f3b2-3c3c-4fec-a9b5-b49cbd788b26&thumb,충청북도 충주시 고든골길 63-89,36.9516043,127.9599284
채운암,충북 괴산군,043-832-4330,"['관광지', '역사', '역사공부', '역사관광지', '역사를품은곳', '역사문화관광', '역사문화재']",https://cdn.visitkorea.or.kr/img/call?cmd=VIEW&id=52fa676f-4b0d-4a5f-b28f-36c40a667e55&thumb,충청북도 괴산군 청천면 화양동2길 30,36.6685945,127.8147487
채운암 대웅전,충북 괴산군,043-832-4330,"['관광지', '역사', '역사공부', '역사관광지', '역사를품은곳', '역사문화재', '역사속']",https://cdn.visitkorea.or.kr/img/call?cmd=VIEW&id=40dced49-392c-42f9-aba1-5ac92215dbe6&thumb,충청북도 괴산군 청천면 화양동2길 30,36.6685945,127.8147487
천동관광지,충북 단양군,043-423-1243,"['가족여행', '관광지', '데이트코스', '사계절', '아이와함께', '여름여행', '연인과함께']",https://cdn.visitkorea.or.kr/img/call?cmd=VIEW&id=28bae257-d302-49b8-9c0d-bdabf8593ad8&thumb,충청북도 단양군 단양읍 다리안로 534,36.9731031,128.4173187
천동동굴,충북 단양군,043-422-2972,"['관광지', '미세먼지탈출_이색동굴여행', '생태관광', '생태관광지', '역사유적지']",https://cdn.visitkorea.or.kr/img/call?cmd=VIEW&id=58d9fcad-95c5-46ca-9bf3-b744934a1505&thumb,충청북도 단양군 단양읍 천동2길 18,36.9724281,128.4201296
천등산전통발효식품,충북 충주시,043-847-8074,['관광지'],https://cdn.visitkorea.or.kr/img/call?cmd=VIEW&id=null&thumb,충청북도 충주시 산척면 세고개로 277,37.092339,127.9584075
천태산,충북 영동군,043-740-3205,"['관광지', '자연']",https://cdn.visitkorea.or.kr/img/call?cmd=VIEW&id=a114859f-9f15-4104-9ccb-4187054b3857&thumb,충청북도 영동군 양산면 누교리,36.1645147,127.623615
청남대,충북 청주시,043-257-5080,"['19_20한국관광100선', '가족여행', '관광지', '산책길', '산책하기', '산책하기좋은곳']",https://cdn.visitkorea.or.kr/img/call?cmd=VIEW&id=170bedd6-6e02-4a53-9db1-3de5c132f339&thumb,충청북도 청주시 상당구 문의면 청남대길 646,36.4612029,127.4885521
청덕사,충북 괴산군,043-830-3433,"['관광지', '역사', '역사공부', '역사관광지', '역사를품은곳', '역사문화재', '역사속']",https://cdn.visitkorea.or.kr/img/call?cmd=VIEW&id=e0d6eed5-cb3e-45cd-971e-b3dd19a4ef5b&thumb,충청북도 괴산군 불정면 한불로청덕2길 14,36.8719962,127.850488
청련암(단양),충북 단양군,043-422-1330,"['관광지', '불교', '불교문화', '사찰', '사찰여행', '역사', '자연속으로', '자연환경']",https://cdn.visitkorea.or.kr/img/call?cmd=VIEW&id=0854615b-3fce-4219-8f39-d130e4771727&thumb,충청북도 단양군 대강면 사인암2길 42,36.8943884,128.3403949
청룡사(청주),충북 청주시,043-233-6078,"['관광지', '불교', '불교문화', '사찰', '사찰여행', '역사', '자연속으로', '자연환경']",https://cdn.visitkorea.or.kr/img/call?cmd=VIEW&id=c0271734-8d29-4d6b-aec5-22f137e8bae0&thumb,충청북도 청주시 흥덕구 청정로 116,36.6062257,127.3795455
청룡사(충주),충북 충주시,043-855-8856,"['가족여행', '관광지', '불교', '불교문화', '역사', '역사관광지', '역사문화재', '자연속으로']",https://cdn.visitkorea.or.kr/img/call?cmd=VIEW&id=b5a520bf-6e92-41b9-985f-4f4c4e240f3f&thumb,충청북도 충주시 소태면 청룡사지길 147,37.1323331,127.840051
청룡사지,충북 충주시,043-850-5980,"['관광지', '불교', '불교문화', '사찰', '사찰여행', '역사', '자연속으로', '자연좋은곳']",https://cdn.visitkorea.or.kr/img/call?cmd=VIEW&id=37e7dc65-fac3-4b92-935f-f0313460a597&thumb,충청북도 충주시 소태면 청룡사지길 147,37.1323331,127.840051
청목화랑,충북 보은군,,"['가족과함께', '관광지', '낙화', '문화예술', '문화예술공간', '문화체험', '문화체험장']",https://cdn.visitkorea.or.kr/img/call?cmd=VIEW&id=9803418c-a87f-443d-bbc3-c328c88c409b&thumb,충청북도 보은군 보은읍 보청대로 1471,36.4877066,127.7539644
청산향교,충북 옥천군,043-730-3728,"['관광지', '역사', '역사공부', '역사관광지', '역사를품은곳', '역사문화재', '역사속']",https://cdn.visitkorea.or.kr/img/call?cmd=VIEW&id=959fb2e7-00b1-4391-ade9-fd0835312781&thumb,충청북도 옥천군 청산면 교평2길 18,36.3457225,127.7972378
청안 사마소,충북 괴산군,043-830-3433,"['관광지', '역사', '역사공부', '역사관광지', '역사를품은곳', '역사문화', '역사문화재']",https://cdn.visitkorea.or.kr/img/call?cmd=VIEW&id=ad1462b2-1fb8-4bff-b0ef-44834b5c93af&thumb,충청북도 괴산군 청안면 청안읍내로5길 33-13,36.7748408,127.6413076
청안향교,충북 괴산군,043-830-3433,"['관광지', '역사', '역사공부', '역사관광지', '역사를품은곳', '역사문화재', '역사속']",https://cdn.visitkorea.or.kr/img/call?cmd=VIEW&id=b8449a9c-7b91-40a2-8a86-955affa7a9bf&thumb,충청북도 괴산군 청안면 청안읍내로5길 33-14,36.7753637,127.6419897
청원 연꽃마을,충북 청주시,043-232-8400,"['가족체험', '관광지', '농촌', '농촌마을', '농촌체험', '농촌체험마을', '농촌체험여행']",https://cdn.visitkorea.or.kr/img/call?cmd=VIEW&id=671c1f22-b035-435b-ab7f-150ac558b998&thumb,충청북도 청주시 흥덕구 강내면 궁현연꽃2길 33-6,36.5812996,127.367774
청주 무농정,충북 청주시,043-201-0916,"['관광지', '역사', '역사공부', '역사관광지', '역사를품은곳', '역사문화재', '역사속']",https://cdn.visitkorea.or.kr/img/call?cmd=VIEW&id=e991258d-8995-40b5-8784-f652cd25cc50&thumb,충청북도 청주시 상당구 단재로 273,36.6057506,127.5020429
청주 문의문산관,충북 청주시,043-201-0915,"['관광지', '문의문산관', '역사', '역사공부', '역사관광지', '역사를품은곳', '역사문화재']",https://cdn.visitkorea.or.kr/img/call?cmd=VIEW&id=af9071ac-9cee-4d50-90d6-46849b467bc1&thumb,충청북도 청주시 상당구 문의면 대청호반로 721,36.5070855,127.4937073
청주 상당산성,충북 청주시,043-201-0202,"['가족여행', '관광지', '교과서속여행', '아이와함께', '역사', '역사유적지', '연인과함께']",https://cdn.visitkorea.or.kr/img/call?cmd=VIEW&id=11ae422a-5563-4fbf-b712-70827aece97b&thumb,충청북도 청주시 상당구 산성동 산28-2,36.6651471,127.5331628
청주 성공회 성당,충북 청주시,043-201-0916,"['관광지', '교과서속여행', '성공회성당', '역사', '역사공부', '역사를품은곳', '역사문화재']",https://cdn.visitkorea.or.kr/img/call?cmd=VIEW&id=6b1a1082-32ac-4813-9d86-5743a9d84389&thumb,충청북도 청주시 상당구 교동로47번길 33,36.6387931,127.4938481
청주 신전동 고가,충북 청주시,043-201-2021,"['관광지', '역사', '역사공부', '역사관광지', '역사를품은곳', '역사문화재', '역사속']",https://cdn.visitkorea.or.kr/img/call?cmd=VIEW&id=515b3377-9171-41ae-ad8c-5ac818927d6c&thumb,충청북도 청주시 흥덕구 신전로175번길 169,36.6089288,127.4019989
청주 신채호사당 및 묘소,충북 청주시,043-201-0916,"['관광지', '교과서속여행', '아이와함께', '역사', '역사공부', '역사를품은곳', '역사문화재']",https://cdn.visitkorea.or.kr/img/call?cmd=VIEW&id=0977e347-8517-4c48-adf3-0f73cc1a5d11&thumb,충청북도 청주시 상당구 낭성면 귀래길 249,36.6361392,127.6201662
청주 용두사지 철당간,충북 청주시,043-201-2025,"['관광지', '역사', '역사공부', '역사관광지', '역사를품은곳', '역사문화재', '역사속']",https://cdn.visitkorea.or.kr/img/call?cmd=VIEW&id=45c59aa0-c15f-4d6c-8281-2ea8635d9cc4&thumb,충청북도 청주시 상당구 남문로 2가 48-19,36.6330656,127.4897573
청주 정북동 토성,충북 청주시,043-201-0916,"['관광지', '역사', '역사공부', '역사관광지', '역사를품은곳', '역사문화재', '역사속']",https://cdn.visitkorea.or.kr/img/call?cmd=VIEW&id=d6135039-e585-4bb0-9af1-f4925ab66ccd&thumb,충청북도 청주시 청원구 정북동,36.6877003,127.4572828
청주 중앙공원,충북 청주시,043-201-8238,"['가족여행', '공연장', '관광지', '나들이', '데이트코스', '아이와함께', '압각수']",https://cdn.visitkorea.or.kr/img/call?cmd=VIEW&id=d844da17-c102-46c0-ad1a-83a2ab867fae&thumb,충청북도 청주시 상당구 상당로55번길 33,36.6328272,127.4887916
청주 충청도병마절도사영문,충북 청주시,043-201-2025,"['관광지', '아이와함께', '역사', '역사공부', '역사관광지', '역사를품은곳', '역사문화재']",https://cdn.visitkorea.or.kr/img/call?cmd=VIEW&id=2f6ebc70-a0ef-443d-95fc-f831d3e13195&thumb,충청북도 청주시 상당구 남사로 115,36.6325147,127.4873758
청주 탑동 양관,충북 청주시,043-201-2022,"['관광지', '교과서속여행', '아이와함께', '역사', '역사공부', '역사관광지', '역사를품은곳']",https://cdn.visitkorea.or.kr/img/call?cmd=VIEW&id=05b6b918-aa0a-44a3-97eb-cc347401b32e&thumb,충청북도 청주시 상당구 탑동로32번길 17-6,36.6283849,127.4989321
청주 흥덕사지,충북 청주시,043-201-2022,"['가족여행', '관광지', '교과서속여행', '아이와함께', '역사', '역사유적지', '연인과함께']",https://cdn.visitkorea.or.kr/img/call?cmd=VIEW&id=6811f3a2-c147-4543-94e0-e142da1f7b6d&thumb,충청북도 청주시 흥덕구 직지대로 713,36.6441486,127.471756
청주가로수길,충북 청주시,1330,['관광지'],https://cdn.visitkorea.or.kr/img/call?cmd=VIEW&id=f7c0d9ad-a30f-4706-a060-2e24c86d234c&thumb,충청북도 청주시 흥덕구 휴암동,36.6164678,127.4089662
청주동물원,충북 청주시,043-201-4880,"['가족여행', '관광지', '동물원', '봄나들이', '아이가_좋아하는_여행', '아이와함께']",https://cdn.visitkorea.or.kr/img/call?cmd=VIEW&id=4ad78e28-4c2a-4ad4-99db-38863eb3c136&thumb,충청북도 청주시 상당구 명암로 224,36.6519876,127.5231213
청주에듀피아,충북 청주시,043-219-1000,"['가족체험여행', '관광지', '문화콘텐츠산업', '미세먼지_피하는_실내여행', '실내놀이터']",https://cdn.visitkorea.or.kr/img/call?cmd=VIEW&id=00745508-f16a-4581-bb00-db30679ec441&thumb,충청북도 청주시 청원구 상당로 314,36.6554335,127.4901913
청주향교,충북 청주시,043-253-3365,"['관광지', '역사', '역사공부', '역사관광지', '역사를품은곳', '역사문화재', '역사속']",https://cdn.visitkorea.or.kr/img/call?cmd=VIEW&id=eca8e072-232a-41d9-86fb-5453f40ff1dd&thumb,충청북도 청주시 상당구 대성로122번길 81,36.6371915,127.4969975
청풍 황석리 고가,충북 제천시,043-641-5532,"['관광지', '역사', '역사공부', '역사관광지', '역사를품은곳', '역사문화재', '역사속']",https://cdn.visitkorea.or.kr/img/call?cmd=VIEW&id=fc0fa6ec-033c-4d59-bdd5-f060b7ce8ada&thumb,충청북도 제천시 청풍면 청풍호로 2048,37.0043169,128.171511
청풍 후산리 고가,충북 제천시,043-641-5532,"['관광지', '역사', '역사공부', '역사관광지', '역사를품은곳', '역사문화재', '역사속']",https://cdn.visitkorea.or.kr/img/call?cmd=VIEW&id=61e0993f-6d2a-49fd-9490-c12420c48537&thumb,충청북도 제천시 청풍면 청풍호로 2048,37.0043169,128.171511
청풍문화재단지,충북 제천시,043-641-5532,"['관광지', '역사', '역사공부', '역사관광지', '역사를품은곳', '역사문화재', '역사속']",https://cdn.visitkorea.or.kr/img/call?cmd=VIEW&id=d057b109-1bf0-45b0-9bfa-01128f5bece5&thumb,충청북도 제천시 청풍면 청풍호로 2048,37.0043169,128.171511
청풍정,충북 옥천군,043-730-3728,"['경치좋은곳', '관광지', '역사', '역사공부', '역사관광지', '역사를품은곳', '역사문화재']",https://cdn.visitkorea.or.kr/img/call?cmd=VIEW&id=948c5cba-3748-42b6-8550-764b9e7fc773&thumb,충청북도 옥천군 군북면 석호리,36.3695774,127.5879838
청풍향교,충북 제천시,043-641-6731,"['관광지', '역사', '역사공부', '역사관광지', '역사를품은곳', '역사문화재', '역사속']",https://cdn.visitkorea.or.kr/img/call?cmd=VIEW&id=88f5d24d-4e67-4d97-8c29-08f5fd0e954a&thumb,충청북도 제천시 청풍면 청풍호로 2048,37.0043169,128.171511
청풍호 관광모노레일,충북 제천시,043-653-5120,"['가족여행', '관광지', '데이트코스', '사계절', '연인과함께', '자연', '자연좋은곳']",https://cdn.visitkorea.or.kr/img/call?cmd=VIEW&id=37731c88-7bc1-4a85-8a50-f41c7448a234&thumb,충청북도 제천시 청풍면 청풍명월로 879-17,37.0027955,128.1354326
청풍호 유람선,충북 제천시,043-644-8859,"['관광지', '유람선', '청풍호', '충주가볼만한곳']",https://cdn.visitkorea.or.kr/img/call?cmd=VIEW&id=130c8cc0-81bd-44ef-9fcc-600c3b9c25fb&thumb,충청북도 제천시 청풍면 청풍호로50길 6,37.0122312,128.179197
청풍호반케이블카,충북 제천시,043-643-7301,"['가족과함께', '경치여행', '경치좋은곳', '관광지', '연인과함께', '이색체험', '자연좋은곳']",https://cdn.visitkorea.or.kr/img/call?cmd=VIEW&id=d2c36e31-d712-4ddf-ab47-0e00317ca172&thumb,충청북도 제천시 청풍면 문화재길 166,37.0039484,128.1708057
체화서원,충북 청주시,043-201-0916,"['관광지', '역사', '역사공부', '역사관광지', '역사를품은곳', '역사문화재', '역사속']",https://cdn.visitkorea.or.kr/img/call?cmd=VIEW&id=5c8ecd85-19ae-4bb5-807a-41641d5fe083&thumb,충청북도 청주시 상당구 남일면 가산리,36.5671372,127.4995461
초정약수,충북 청주시,043-201-2042,"['관광지', '역사유적지', '자연', '초정약수', '충청권']",https://cdn.visitkorea.or.kr/img/call?cmd=VIEW&id=5bfac9f9-ad74-4074-8223-41b9c2048f0c&thumb,충청북도 청주시 청원구 내수읍 초정리,36.7190076,127.5986652
충강공 이상급 신도비,충북 충주시,043-850-5980,"['관광지', '역사', '역사공부', '역사관광지', '역사문화재', '역사속', '역사속으로']",https://cdn.visitkorea.or.kr/img/call?cmd=VIEW&id=03f412a4-096a-4c7a-8d2e-ace032413dc5&thumb,충청북도 충주시 주덕읍 사락리,37.0107796,127.7950908
충북 제천 수산·박달재 [슬로시티],충북 제천시,043-642-9398,"['관광지', '역사', '역사공부', '역사를품은곳', '역사속', '역사속으로', '역사탐방']",https://cdn.visitkorea.or.kr/img/call?cmd=VIEW&id=a248fdc9-53fa-4068-8a45-8873f2080b17&thumb,충청북도 제천시 백운면 평동리,37.1493922,128.0376193
충북 제천시,충북 제천시,043-641-6706,"['10월추천가볼만한곳', '걷기길', '걷기여행', '관광지', '능강솟대문화공간', '레포츠체험']",https://cdn.visitkorea.or.kr/img/call?cmd=VIEW&id=d4011041-5aad-4ae3-92eb-59fb5a28b9e5&thumb,충청북도 제천시 수산면 전역,36.9337865,128.1809975
충북도민안전체험관,충북 청주시,043-234-2387,"['겨울방학가볼만한곳', '관광지', '아이와함께', '여름방학가볼만한곳', '이색체험']",https://cdn.visitkorea.or.kr/img/call?cmd=VIEW&id=8858f0f0-681b-44bb-ab0d-3109c21941ac&thumb,충청북도 청주시 흥덕구 풍년로180번길 37-1,36.6290395,127.4334204
충북알프스자연휴양림,충북 보은군,043-543-1472,"['관광지', '국내힐링여행', '자연', '자연속으로', '자연여행', '자연좋은곳', '자연풍경']",https://cdn.visitkorea.or.kr/img/call?cmd=VIEW&id=f696a204-719e-484d-8964-98fafd3525d1&thumb,충청북도 보은군 산외면 속리산로 1880,36.5731675,127.7857319
충용사,충북 음성군,043-871-3114,"['관광지', '역사', '역사공부', '역사관광지', '역사를품은곳', '역사문화재', '역사속']",https://cdn.visitkorea.or.kr/img/call?cmd=VIEW&id=1d2c6867-62ec-465b-96ea-175189bb710e&thumb,충청북도 음성군 음성읍 용광로114번길 113,36.9554153,127.6911968
충주 강천리 석불입상,충북 충주시,043-850-5980,"['관광지', '역사', '역사공부', '역사관광지', '역사를품은곳', '역사문화재', '역사속']",https://cdn.visitkorea.or.kr/img/call?cmd=VIEW&id=8c0d968b-ecea-47ba-9d91-f298ad8b748c&thumb,충청북도 충주시 앙성면 지당리,37.0902512,127.7107661
충주 견학리 토성,충북 충주시,043-850-5980,"['관광지', '역사', '역사공부', '역사관광지', '역사를품은곳', '역사문화재', '역사속']",https://cdn.visitkorea.or.kr/img/call?cmd=VIEW&id=6edb749a-7bfd-421a-8056-d11b79dedf1c&thumb,충청북도 충주시 신니면 성하2길,36.9827883,127.7606343
충주 고불선원 소조여래좌상,충북 충주시,043-850-5980,"['고불선원소조여래좌상', '관광지', '불교', '불교문화', '불교사찰', '사찰', '사찰여행']",https://cdn.visitkorea.or.kr/img/call?cmd=VIEW&id=8a44de4d-edbe-492c-8f34-f46fd107c0cb&thumb,충청북도 충주시 신니면 선당길,36.9952291,127.7122308
충주 관아공원,충북 충주시,043-850-5980,"['가족여행', '관광지', '산책하기', '산책하기좋은곳', '역사', '역사관광지', '역사문화재']",https://cdn.visitkorea.or.kr/img/call?cmd=VIEW&id=595c1216-f003-42d5-9c2e-f4c38e213d05&thumb,충청북도 충주시 관아1길 21,36.9705039,127.9361568
충주 김생사지,충북 충주시,043-850-5980,"['관광지', '역사', '역사공부', '역사관광지', '역사를품은곳', '역사문화', '역사문화재']",https://cdn.visitkorea.or.kr/img/call?cmd=VIEW&id=6442bc81-ef1a-4ab9-89b1-c5db8406884e&thumb,충청북도 충주시 금가면 김생로 325,37.0062346,127.908136
충주 단호사 삼층석탑,충북 충주시,043-850-5980,"['관광지', '역사', '역사공부', '역사를품은곳', '역사문화재', '역사속', '역사속으로']",https://cdn.visitkorea.or.kr/img/call?cmd=VIEW&id=4f5fa692-18ee-45ff-95ab-bdd65691fd89&thumb,충청북도 충주시 충원대로 201,36.94676,127.9007175
충주 단호사 철조여래좌상,충북 충주시,043-850-5980,"['관광지', '불교', '불교문화', '불교사찰', '사찰', '사찰여행', '역사', '역사문화재']",https://cdn.visitkorea.or.kr/img/call?cmd=VIEW&id=6bfa64fb-0ee4-490c-b8e2-915a1eefc745&thumb,충청북도 충주시 충원대로 201,36.94676,127.9007175
충주 대림산성,충북 충주시,043-850-5980,"['관광지', '역사', '역사공부', '역사관광지', '역사를품은곳', '역사문화재', '역사속']",https://cdn.visitkorea.or.kr/img/call?cmd=VIEW&id=0e46296c-ab54-4602-9b1a-93b827791030&thumb,충청북도 충주시 살미면 향산리,36.9231084,127.9333903
충주 라바랜드,충북 충주시,043-852-7721,"['관광지', '놀이동산', '놀이동산&테마파크', '라바랜드', '아이들과가볼만한곳']",https://cdn.visitkorea.or.kr/img/call?cmd=VIEW&id=f91d004c-cfa7-406d-adf4-7b7361a5d319&thumb,충청북도 충주시 남한강로 30,36.9885109,127.9062016
충주 문주리 석불좌상,충북 충주시,043-850-5980,"['관광지', '역사', '역사공부', '역사관광지', '역사를품은곳', '역사문화재', '역사속']",https://cdn.visitkorea.or.kr/img/call?cmd=VIEW&id=289ea067-0ece-456f-a5f2-bf0286e50595&thumb,충청북도 충주시 대소원면 팔봉로 359,36.9034307,127.9027722
충주 미륵대원지,충북 충주시,043-850-6724,"['가족여행', '가족체험여행', '관광지', '교과서속여행', '아이와함께', '역사', '연인과함께']",https://cdn.visitkorea.or.kr/img/call?cmd=VIEW&id=d86dbe87-88f1-438e-a6f2-4caa73082f7f&thumb,충청북도 충주시 수안보면 미륵리사지길 150,36.8224102,128.0947422
충주 미륵리 사지 귀부,충북 충주시,043-850-5980,"['관광지', '역사', '역사공부', '역사관광지', '역사를품은곳', '역사문화', '역사문화재']",https://cdn.visitkorea.or.kr/img/call?cmd=VIEW&id=7391062d-9332-4f34-abf8-e97164a19b43&thumb,충청북도 충주시 수안보면,36.8472401,127.9947687
충주 미륵리 사지 사각석등,충북 충주시,043-850-5980,"['관광지', '역사', '역사공부', '역사관광', '역사관광지', '역사를품은곳', '역사문화']",https://cdn.visitkorea.or.kr/img/call?cmd=VIEW&id=d216c791-6a10-4803-9e88-24e82dd1baaf&thumb,충청북도 충주시 수안보면 미륵리 52-3,36.8221359,128.0951835
충주 미륵리 석조여래입상,충북 충주시,043-850-5980,"['관광지', '미륵리석조여래입상', '보물', '역사', '역사공부', '역사관광지', '역사를품은곳']",https://cdn.visitkorea.or.kr/img/call?cmd=VIEW&id=72a75426-1bc9-4d50-83e2-64ea80d02034&thumb,충청북도 충주시 수안보면 미륵리,36.8205886,128.0940826
충주 미륵리 오층석탑,충북 충주시,043-850-5980,"['관광지', '보물', '역사', '역사공부', '역사관광지', '역사를품은곳', '역사문화재']",https://cdn.visitkorea.or.kr/img/call?cmd=VIEW&id=eb642402-f763-46b4-9c35-746eeb26060e&thumb,충청북도 충주시 수안보면 미륵리 56,36.821889,128.0951686
충주 민속공예거리,충북 충주시,043-120,"['고미술품', '공예품', '관광지', '문화예술활동', '미술작품', '석공예', '수공예']",https://cdn.visitkorea.or.kr/img/call?cmd=VIEW&id=8122e83c-2209-40df-bbfb-6e8d9314a6cc&thumb,충청북도 충주시 중앙탑면 가곡로 1965,37.0769365,127.8464173
충주 박팽년 사당,충북 충주시,043-850-5980,"['관광지', '박팽년사당', '역사', '역사공부', '역사관광지', '역사를품은곳', '역사문화재']",https://cdn.visitkorea.or.kr/img/call?cmd=VIEW&id=b77bbb5e-af6c-4210-b689-4e119cc2dcc3&thumb,충청북도 충주시 신니면 참샘길 115,37.001883,127.7452515
충주 봉황리 마애불상군,충북 충주시,043-850-5980,"['관광지', '역사', '역사공부', '역사관광지', '역사를품은곳', '역사문화', '역사문화재']",https://cdn.visitkorea.or.kr/img/call?cmd=VIEW&id=0622a04b-6fa7-4c61-905e-fcdf63e17280&thumb,충청북도 충주시 중앙탑면 봉황리,37.0586499,127.8345268
충주 부흥사 방단적석유구,충북 충주시,043-850-5980,"['관광지', '기념물', '부흥사방단적석유구', '역사', '역사관광', '역사를품은곳']",https://cdn.visitkorea.or.kr/img/call?cmd=VIEW&id=cb718e71-6b5e-4f6c-92fa-9c52fc6c826b&thumb,충청북도 충주시 엄정면 서계1길,37.0783405,127.8850501
충주 산성,충북 충주시,042-850-6630,"['관광지', '역사', '역사공부', '역사를품은곳', '역사문화재', '역사속', '역사속으로']",https://cdn.visitkorea.or.kr/img/call?cmd=VIEW&id=f98dacf8-ad1a-4b5a-9def-18bbe3ba2fe0&thumb,충청북도 충주시 직동,36.945694,127.9654915
충주 상대촌농촌체험마을,충북 충주시,043-855-8898,"['관광지', '농촌', '농촌마을', '농촌여행', '농촌여행코스', '농촌체험', '농촌체험마을']",https://cdn.visitkorea.or.kr/img/call?cmd=VIEW&id=8b297f64-c132-4143-a399-f412a50fe22b&thumb,충청북도 충주시 앙성면 둔터로 558,37.0974632,127.7154147
충주 석보군 묘소,충북 충주시,043-850-5980,"['관광지', '역사', '역사공부', '역사관광지', '역사를품은곳', '역사문화재', '역사속']",https://cdn.visitkorea.or.kr/img/call?cmd=VIEW&id=3364b3bb-809d-4ec7-b9ef-b2e68b67bc3a&thumb,충청북도 충주시 소태면,37.1097595,127.8477368
충주 숭선사지,충북 충주시,043-850-5980,"['관광지', '역사', '역사공부', '역사관광', '역사를품은곳', '역사문화', '역사문화재']",https://cdn.visitkorea.or.kr/img/call?cmd=VIEW&id=2146707a-5248-49e6-a229-5ea529f2fb84&thumb,충청북도 충주시 신니면 문숭리,37.0222058,127.701178
충주 숭선사지 당간지주,충북 충주시,043-850-5980,"['관광지', '숭선사지당간지주', '역사', '역사관광지', '역사문화재', '역사속', '역사속으로']",https://cdn.visitkorea.or.kr/img/call?cmd=VIEW&id=26a590cb-92a1-4ae0-a64d-1567564c26a0&thumb,충청북도 충주시 신니면 숭선길 56,37.020246,127.6991106
충주 신청리 지석묘,충북 충주시,043-850-5980,"['관광지', '역사', '역사공부', '역사관광지', '역사를품은곳', '역사문화재', '역사속']",https://cdn.visitkorea.or.kr/img/call?cmd=VIEW&id=855dddfc-3ab1-4de7-ab27-0c7ff319e26d&thumb,충청북도 충주시 신니면 신청리,37.0071998,127.7399224
충주 신흥사 석조 나한상,충북 충주시,043-850-5980,"['관광지', '불교', '불교문화', '사찰여행', '신흥사석조나한상', '역사', '역사를품은곳']",https://cdn.visitkorea.or.kr/img/call?cmd=VIEW&id=f852fdc8-e13f-4102-93df-8c9b55319c18&thumb,충청북도 충주시 엄정면 족동2길 197,37.1121962,127.9457114
충주 억정사지 대지국사탑비,충북 충주시,043-850-5980,"['관광지', '보물', '억정사지대지국사탑비', '역사', '역사관광지', '역사를품은곳']",https://cdn.visitkorea.or.kr/img/call?cmd=VIEW&id=5a3335f4-4b30-4f32-b1ac-fc9ce4e01385&thumb,충청북도 충주시 엄정면 비석2길 35-21,37.1035353,127.9273204
충주 원평리 삼층석탑,충북 충주시,043-850-5980,"['관광지', '역사', '역사공부', '역사관광지', '역사를품은곳', '역사문화재', '역사유적']",https://cdn.visitkorea.or.kr/img/call?cmd=VIEW&id=184f2b70-0b00-4f95-b5d3-b047377f55de&thumb,충청북도 충주시 신니면,36.9957493,127.7365152
충주 이수일 묘소,충북 충주시,043-850-5980,"['관광지', '역사', '역사공부', '역사관광지', '역사를품은곳', '역사문화재', '역사속']",https://cdn.visitkorea.or.kr/img/call?cmd=VIEW&id=1a1f3455-ab6a-4d44-87b6-026f8793eb32&thumb,충청북도 충주시 금가면 석교길 19,37.0110285,127.8850561
충주 이수일 신도비,충북 충주시,043-850-5980,"['관광지', '역사', '역사공부', '역사관광지', '역사를품은곳', '역사문화재', '역사속']",https://cdn.visitkorea.or.kr/img/call?cmd=VIEW&id=c49b828e-d790-4d87-85b0-f5b93a5ba66c&thumb,충청북도 충주시 금가면 석교길 19,37.0110285,127.8850561
충주 이시진 묘소,충북 충주시,043-850-5980,"['관광지', '역사', '역사공부', '역사관광지', '역사를품은곳', '역사문화재', '역사속']",https://cdn.visitkorea.or.kr/img/call?cmd=VIEW&id=59800f7b-c181-43ff-ac13-2bc586e508d1&thumb,충청북도 충주시 동량면 대전리1길,37.049295,127.9447868
충주 임충민공 충렬사,충북 충주시,043-850-5980,"['관광지', '교과서속여행', '아이와함께', '역사', '역사공부', '역사관광지', '역사를품은곳']",https://cdn.visitkorea.or.kr/img/call?cmd=VIEW&id=b954c602-a742-4b72-8bef-1764244da6ae&thumb,충청북도 충주시 충열1길 6,36.946158,127.9050858
충주 장미산성,충북 충주시,043-850-5980,"['관광지', '사적', '역사', '역사공부', '역사관광지', '역사를품은곳', '역사문화재']",https://cdn.visitkorea.or.kr/img/call?cmd=VIEW&id=356110e7-30ea-43bf-9275-a056380b236e&thumb,충청북도 충주시 중앙탑면 장천리,37.0610997,127.8718711
충주 정토사지 법경대사탑비,충북 충주시,043-850-5980,"['관광지', '역사', '역사공부', '역사관광지', '역사를품은곳', '역사문화재', '역사속']",https://cdn.visitkorea.or.kr/img/call?cmd=VIEW&id=364231d3-5284-4167-9263-52ffad5cd8c2&thumb,충청북도 충주시 동량면 하천리,37.039246,128.0431489
충주 제금당,충북 충주시,043-850-5980,"['관광지', '역사', '역사공부', '역사관광지', '역사를품은곳', '역사문화관광', '역사문화재']",https://cdn.visitkorea.or.kr/img/call?cmd=VIEW&id=4aa06dc8-e089-4bd8-8206-53b769ea0ec6&thumb,충청북도 충주시 관아1길 21,36.9705039,127.9361568
충주 조동리 선사유적,충북 충주시,043-850-5980,"['관광지', '역사', '역사공부', '역사관광지', '역사를품은곳', '역사문화재', '역사속']",https://cdn.visitkorea.or.kr/img/call?cmd=VIEW&id=32d01f32-29f2-4953-b9e7-df11385eb365&thumb,충청북도 충주시 동량면 조동1길,37.0267611,127.9661067
충주 조동리 지석묘,충북 충주시,043-850-5980,"['관광지', '역사', '역사공부', '역사관광', '역사를품은곳', '역사문화재', '역사속']",https://cdn.visitkorea.or.kr/img/call?cmd=VIEW&id=e4ee1407-1239-4eb1-95f8-043e35ecb30a&thumb,충청북도 충주시 동량면 조동리,37.0348412,127.984953
충주 지당리 석불입상,충북 충주시,043-850-5980,"['관광지', '역사', '역사공부', '역사관광', '역사관광지', '역사를품은곳', '역사문화']",https://cdn.visitkorea.or.kr/img/call?cmd=VIEW&id=bf2cc3c1-e658-4f36-be4d-2d9d50f1f793&thumb,충청북도 충주시 앙성면 삼당2길 11,37.1139967,127.7250826
충주 창동리 마애여래상,충북 충주시,043-850-5980,"['관광지', '역사', '역사공부', '역사관광지', '역사를품은곳', '역사문화재', '역사속']",https://cdn.visitkorea.or.kr/img/call?cmd=VIEW&id=74d0734a-da3e-4b98-8e67-358b66d1f458&thumb,충청북도 충주시 중앙탑면 창동리,36.9876245,127.8784557
충주 창동리 오층석탑,충북 충주시,043-850-5980,"['관광지', '역사', '역사공부', '역사관광지', '역사를품은곳', '역사문화재', '역사속']",https://cdn.visitkorea.or.kr/img/call?cmd=VIEW&id=2f7dc778-0a42-4230-a7c4-e6704eaeee69&thumb,충청북도 충주시 중앙탑면 청금로 112-10,36.99724,127.8788279
충주 창룡사 다층 청석탑,충북 충주시,043-850-5980,"['관광지', '불교', '불교문화', '사찰', '사찰여행', '역사', '역사를품은곳', '역사문화재']",https://cdn.visitkorea.or.kr/img/call?cmd=VIEW&id=1a57b14d-2118-490a-8fac-f37f6677b98e&thumb,충청북도 충주시 고든골길 63-89,36.9516043,127.9599284
충주 청녕헌,충북 충주시,043-850-5980,"['관광지', '역사', '역사공부', '역사를품은곳', '역사문화', '역사문화재', '역사속']",https://cdn.visitkorea.or.kr/img/call?cmd=VIEW&id=b6e32ec8-c3dd-4837-86df-c138e1d6b8a5&thumb,충청북도 충주시 관아1길 21,36.9705039,127.9361568
충주 청룡사 위전비,충북 충주시,043-850-5980,"['관광지', '기록유산', '역사', '역사공부', '역사관광지', '역사를품은곳', '역사문화']",https://cdn.visitkorea.or.kr/img/call?cmd=VIEW&id=4b14390e-c53f-4529-ad18-21f9dd2dc00f&thumb,충청북도 충주시 소태면 청룡사지길 147,37.1323331,127.840051
충주 최응성 고가,충북 충주시,043-850-5980,"['관광지', '역사', '역사공부', '역사관광지', '역사를품은곳', '역사문화', '역사문화재']",https://cdn.visitkorea.or.kr/img/call?cmd=VIEW&id=68f9c702-50f1-453b-8115-6c480d2f9f42&thumb,충청북도 충주시 살미면 중원대로 2220,36.8957106,127.9803536
충주 추평리 삼층석탑,충북 충주시,043-850-5980,"['관광지', '역사', '역사공부', '역사관광지', '역사를품은곳', '역사문화재', '역사속']",https://cdn.visitkorea.or.kr/img/call?cmd=VIEW&id=a15d4d70-7fc2-4a2d-8017-d2b4a97443ae&thumb,충청북도 충주시 엄정면 추평리,37.1220398,127.9357407
충주 탄금대와 탄금대공원,충북 충주시,043-848-2246,"['가족여행', '관광지', '산책하기좋은곳', '역사', '역사관광지', '역사문화재', '자연환경']",https://cdn.visitkorea.or.kr/img/call?cmd=VIEW&id=a15e88b5-3abe-44f0-81dc-73b055c3dd57&thumb,충청북도 충주시 탄금대안길 105,36.9870966,127.8991464
충주 탑평리 칠층석탑,충북 충주시,043-850-5980,"['관광지', '국보', '역사', '역사관광', '역사관광지', '역사를품은곳', '역사문화']",https://cdn.visitkorea.or.kr/img/call?cmd=VIEW&id=e9600902-de2c-4e89-84cd-42fb798f0893&thumb,충청북도 충주시 중앙탑면 탑평리 11,37.0158358,127.8666155
충주 하니마을,충북 충주시,043-850-2310,"['가족과함께', '가족체험', '가족체험학습', '관광지', '농촌전통테마마을', '아이와함께']",https://cdn.visitkorea.or.kr/img/call?cmd=VIEW&id=a0fcff59-1440-4ae5-8a76-793b3a86d5ea&thumb,충북 충주시 살미면 재오개리 호수로2114,36.9434836,127.9977033
충주댐,충북 충주시,043-840-1207,"['가족여행', '걷기여행', '관광지', '사계절', '연인과함께', '자연', '자연좋은곳']",https://cdn.visitkorea.or.kr/img/call?cmd=VIEW&id=0d7846c1-06d9-4809-88c1-3cf1c10bf74e&thumb,충청북도 충주시 충주호수로 737,37.0000143,127.9700503
충주댐 물 문화관,충북 충주시,043-840-6461,"['관광지', '다목적댐', '문화행사', '물문화관', '아이와함께', '이색체험', '전시관']",https://cdn.visitkorea.or.kr/img/call?cmd=VIEW&id=13335573-7c81-43cb-9ba6-7f6e61826586&thumb,충청북도 충주시 동량면 지등로 745,37.0013181,127.9905003
충주라이트월드,충북 충주시,1522-1258,"['관광지', '데이트코스', '아이와함께', '야경투어', '에너제틱_청춘여행', '인생샷']",https://cdn.visitkorea.or.kr/img/call?cmd=VIEW&id=d1f76ee3-b09f-46a9-8f8b-c5a576f90cbc&thumb,충청북도 충주시 남한강로 24,36.9889211,127.9052967
충주세계무술공원,충북 충주시,043-850-6740,"['관광지', '박물관', '산책길', '산책하기', '산책하기좋은곳', '아이와함께', '자전거길']",https://cdn.visitkorea.or.kr/img/call?cmd=VIEW&id=9f28a20f-8359-4878-b485-b167b419d025&thumb,충청북도 충주시 남한강로 24,36.9889211,127.9052967
충주자연생태체험관,충북 충주시,043-856-3620,"['가족여행', '가족체험여행', '걷기길', '관광지', '당일치기여행', '아이와함께']",https://cdn.visitkorea.or.kr/img/call?cmd=VIEW&id=e57aabc7-4835-4c2e-aeb6-cf2da8259994&thumb,충청북도 충주시 동량면 지등로 260,37.0013181,127.9905003
충주자연호텔,충북 충주시,043-848-5115,"['가족과함께', '관광지', '사우나', '연인과함께', '연중무휴', '충청권', '휴식여행']",https://cdn.visitkorea.or.kr/img/call?cmd=VIEW&id=ed09bb52-d5db-45d5-9921-e4df62a6697d&thumb,충청북도 충주시 살미면 팔봉로 1061,36.8876845,127.9558355
충주향교,충북 충주시,043-850-5980,"['관광지', '역사', '역사공부', '역사관광지', '역사를품은곳', '역사문화재', '역사속']",https://cdn.visitkorea.or.kr/img/call?cmd=VIEW&id=2a3c8007-ffbf-473f-a905-9c4483858df1&thumb,충청북도 충주시 교동9길,36.9740226,127.9393832
충주호,충북 충주시,043-842-0531,"['가족여행', '관광지', '나들이', '데이트코스', '레포츠', '아이와함께', '연인과함께']",https://cdn.visitkorea.or.kr/img/call?cmd=VIEW&id=256ff6b7-c76f-47f1-9245-57b44e86fa3d&thumb,충청북도 충주시 동량면 조동리,37.0348412,127.984953
충주호 유람선,충북 단양군,02-1833-5880,"['경치좋은곳', '관광지', '부모님과함께', '자연좋은곳', '자연환경', '충주호유람선']",https://cdn.visitkorea.or.kr/img/call?cmd=VIEW&id=75dad87e-0bce-48d9-8bdb-3efe154d52fd&thumb,충청북도 단양군 단성면 월악로 3811-19,36.9322093,128.2536443
충주호관광선 청풍나루,충북 제천시,043-647-4566,"['가족과함께', '관광지', '남녀노소', '이색체험', '자연관광지', '자연속으로', '자연여행']",https://cdn.visitkorea.or.kr/img/call?cmd=VIEW&id=0c87cba8-35af-4228-b860-14d795dc41a3&thumb,충청북도 제천시 청풍면 문화재길 54,37.008056,128.1726082
취묵당,충북 괴산군,043-830-3433,"['관광지', '역사', '역사공부', '역사관광지', '역사를품은곳', '역사문화재', '역사속']",https://cdn.visitkorea.or.kr/img/call?cmd=VIEW&id=b046df29-499f-4bab-87b4-13e177c050da&thumb,충청북도 괴산군 괴산읍 충민사길 45,36.8361006,127.8434167
칠보산,충북 괴산군,043-832-5550,"['관광지', '자연']",https://cdn.visitkorea.or.kr/img/call?cmd=VIEW&id=9d089585-e0b9-4e55-be6b-dbfe86256d12&thumb,충청북도 괴산군 칠성면 태성리,36.7590207,127.9230271
코리아크래프트브류어리,충북 음성군,043-927-2600,"['관광지', '남녀노소', '미식여행', '생맥주', '수제맥주', '이색체험', '이색카페']",https://cdn.visitkorea.or.kr/img/call?cmd=VIEW&id=a15d7bea-6d2b-4c3a-88d0-94fcaa79c82e&thumb,충청북도 음성군 원남면 원남산단로 97,36.8876107,127.6892237
탁사정,충북 제천시,043-641-6731,"['가족여행', '경치좋은곳', '관광지', '여름가볼만한곳', '여름여행', '여름피서지']",https://cdn.visitkorea.or.kr/img/call?cmd=VIEW&id=789b1768-35cc-4121-8b46-448f820238d3&thumb,충청북도 제천시 봉양읍 제원로 478,37.1667158,128.1062986
탈골암(충북),충북 보은군,043-543-4780,"['관광지', '불교', '불교문화', '사찰', '사찰여행', '산사', '역사', '자연속으로', '자연환경']",https://cdn.visitkorea.or.kr/img/call?cmd=VIEW&id=54e8a28a-6781-4b51-b694-917b0e1df9a8&thumb,충청북도 보은군 속리산면 법주사로 569-72,36.5483279,127.8472194
태교사,충북 음성군,043-871-3414,"['관광지', '역사', '역사공부', '역사관광지', '역사를품은곳', '역사문화재', '역사속']",https://cdn.visitkorea.or.kr/img/call?cmd=VIEW&id=c804a971-2e70-444d-9ae2-304ee0a1ef05&thumb,충청북도 음성군 원남면 원중로399번길 316,36.8620082,127.5888534
티테라피체험장,충북 제천시,043-644-1126,"['관광지', '다과', '발마사지', '연인과함께', '차만들기', '한방약', '한방카페', '한방티테라피체험장']",https://cdn.visitkorea.or.kr/img/call?cmd=VIEW&id=89f5e7f9-674e-4b29-bfb8-1641c24b15a5&thumb,충청북도 제천시 바이오밸리1로 56,37.1471141,128.1680043
팔봉서원,충북 충주시,043-850-5980,"['관광지', '역사', '역사공부', '역사관광지', '역사문화', '역사문화재', '역사속']",https://cdn.visitkorea.or.kr/img/call?cmd=VIEW&id=41dca5da-b2de-478e-ae66-f5b899b8bb79&thumb,충청북도 충주시 대소원면 팔봉안길 11-6,36.9011041,127.9227035
평동전통떡마을,충북 청주시,043-201-7075,"['관광지', '농촌마을', '농촌여행', '농촌체험', '농촌체험마을', '농촌체험여행']",https://cdn.visitkorea.or.kr/img/call?cmd=VIEW&id=23f5e8e0-6d4d-45f0-9938-fddaf9b9f3ce&thumb,충청북도 청주시 흥덕구 평동로 147,36.6597603,127.4145533
포암산(충주),충북 충주시,043-850-2323,"['관광지', '등산', '산', '자연', '충청권', '포암산']",https://cdn.visitkorea.or.kr/img/call?cmd=VIEW&id=d8c60fe4-5c95-4fed-9526-a823f37aa697&thumb,충청북도 충주시 수안보면 미륵리사지길,36.8224157,128.0918768
표충사,충북 청주시,043-201-0916,"['관광지', '역사', '역사공부', '역사관광지', '역사를품은곳', '역사문화재', '역사속']",https://cdn.visitkorea.or.kr/img/call?cmd=VIEW&id=04c506f5-cdb3-4208-a6ab-c14cd915cd74&thumb,충청북도 청주시 상당구 수동로53번길 9,36.6468029,127.4936045
풍류문화관,충북 충주시,043-842-0531,"['가족과함께', '관광지', '문화공간', '복합문화공간', '연인과함께', '열린문화공간']",https://cdn.visitkorea.or.kr/img/call?cmd=VIEW&id=0e1e5805-5c52-4a33-983d-68c1892a7059&thumb,충청북도 충주시 중앙탑면 탑정안길 10,37.0184848,127.8656245
하강서원,충북 충주시,043-850-5980,"['관광지', '역사', '역사공부', '역사관광지', '역사를품은곳', '역사문화재', '역사속']",https://cdn.visitkorea.or.kr/img/call?cmd=VIEW&id=849dcd4d-6365-46d2-b5eb-6fc6ffe20b45&thumb,충청북도 충주시 금가면 김생로 1455-54,37.0541535,127.8881696
하늘다리,충북 진천군,,"['경치좋은곳', '관광지', '사진찍기', '사진찍기좋은곳', '사진촬영', '산책길', '산책하기']",https://cdn.visitkorea.or.kr/img/call?cmd=VIEW&id=423e993b-dc42-45da-8f03-3fd9969d8f68&thumb,충청북도 진천군 초평면 평화로 403-132,36.8291753,127.5044103
하늘재,충북 충주시,043-653-3250,"['관광지', '자연']",https://cdn.visitkorea.or.kr/img/call?cmd=VIEW&id=cb83fec5-9973-4dfd-8360-ed3d4b15bf54&thumb,충청북도 충주시 수안보면 미륵송계로 614,36.8295084,128.0676934
하담 김시양 신도비,충북 괴산군,043-830-3433,"['관광지', '역사', '역사공부', '역사관광지', '역사를품은곳', '역사문화재', '역사속']",https://cdn.visitkorea.or.kr/img/call?cmd=VIEW&id=ed46b161-1fdb-424d-8318-e72614bf545c&thumb,충청북도 괴산군 괴산읍 능촌로 182,36.8383492,127.8387996
하이트진로 청주공장,충북 청주시,043-270-1617,"['견학', '관광지', '교육여행', '교육프로그램', '산업관광', '이색체험', '체험공간']",https://cdn.visitkorea.or.kr/img/call?cmd=VIEW&id=e7ccd16b-0507-4576-a242-bd512d9e7bb2&thumb,충청북도 청주시 서원구 현도면 현도공단로 177,36.6424341,127.4890319
한국기초과학지원연구원(오창),충북 청주시,043-240-5021,"['견학', '관광지', '산업관광', '아이와함께', '이색체험', '체험여행', '체험학습']",https://cdn.visitkorea.or.kr/img/call?cmd=VIEW&id=9ac26842-eb2b-48f6-8ea8-842bb060d451&thumb,충청북도 청주시 청원구 오창읍 연구단지로 162,36.7192572,127.4356433
한국전통문화체험학교,충북 제천시,043-651-2866,"['가족여행', '관광지', '교과서속여행', '사계절', '아이와함께', '이색체험', '체험']",https://cdn.visitkorea.or.kr/img/call?cmd=VIEW&id=b12304ed-8213-4181-9076-537c4118d78c&thumb,충청북도 제천시 덕산면 월악산로4길 10,36.891803,128.1380423
한드미마을,충북 단양군,043-422-2831,"['가족여행', '가족체험', '관광지', '농촌마을', '농촌체험', '농촌체험마을', '농촌체험마을']",https://cdn.visitkorea.or.kr/img/call?cmd=VIEW&id=19a05f85-abcb-4ac9-8fff-1d9a35ce8035&thumb,충청북도 단양군 가곡면 한드미길 30-12,36.9892501,128.4387848
한산사(제천),충북 제천시,043-646-3047,"['관광지', '불교', '불교문화', '사찰', '사찰여행', '역사', '자연속으로', '자연환경']",https://cdn.visitkorea.or.kr/img/call?cmd=VIEW&id=289def10-1ae5-48aa-a76b-2750c8962224&thumb,충청북도 제천시 용두천로8길 27,37.1344496,128.2133711
한삼인 증평공장,충북 증평군,043-835-8585,"['견학', '관광지', '산업관광', '전통산업', '체험학습', '충청권', '한삼인', '한삼인증평공장']",https://cdn.visitkorea.or.kr/img/call?cmd=VIEW&id=76b948f8-4a0f-4df9-b4b9-36343afbc726&thumb,충청북도 증평군 증평읍 중앙로 88,36.7750444,127.573301
한천팔경,충북 영동군,043-740-3205,"['관광지', '자연']",https://cdn.visitkorea.or.kr/img/call?cmd=VIEW&id=4d715b96-a031-4b31-8bc6-9603aa77d164&thumb,충청북도 영동군 황간면 원촌리,36.2406353,127.8896966
현암사(충북),충북 청주시,042-932-2749,"['관광지', '불교', '불교문화', '사찰', '사찰여행', '역사', '자연속으로', '자연환경']",https://cdn.visitkorea.or.kr/img/call?cmd=VIEW&id=de28cdad-70af-4a21-92c5-7bb8faf5da64&thumb,충청북도 청주시 서원구 현도면 대청호반로 151,36.6424341,127.4890319
호암지,충북 충주시,043-842-0531,"['가족여행', '관광지', '나들이', '데이트코스', '아이와함께', '연인과함께', '인공저수지']",https://cdn.visitkorea.or.kr/img/call?cmd=VIEW&id=13905b1a-5665-406b-bd0f-a371e0110025&thumb,충청북도 충주시 호암동,36.9520711,127.9272754
화동강목판본,충북 제천시,043-641-6731,"['관광지', '역사', '역사공부', '역사관광지', '역사를품은곳', '역사문화재', '역사속']",https://cdn.visitkorea.or.kr/img/call?cmd=VIEW&id=2a6df82a-9756-4007-af76-46670603caaa&thumb,충청북도 제천시 봉양읍 의암로 566-7,37.0992402,128.0864738
화암서원,충북 괴산군,043-830-3433,"['경치좋은곳', '관광지', '역사', '역사공부', '역사관광지', '역사를품은곳', '역사문화재']",https://cdn.visitkorea.or.kr/img/call?cmd=VIEW&id=4886a8ea-323a-45dc-ac20-a837fa8d625e&thumb,충청북도 괴산군 괴산읍 괴강로 313,36.8034594,127.8239455
화양구곡(화양동계곡),충북 괴산군,043-832-4347,"['가족여행', '관광지', '여름가볼만한곳', '여름여행', '자연', '충청권', '화양구곡']",https://cdn.visitkorea.or.kr/img/call?cmd=VIEW&id=148532f7-561c-4903-a288-254ef6d848f9&thumb,충청북도 괴산군 청천면 화양동길 78,36.6729582,127.8024094
화양동관광농원,충북 괴산군,043-833-4900,"['가족과함께', '관광지', '아이가_좋아하는_여행', '아이와함께', '여름방학여행']",https://cdn.visitkorea.or.kr/img/call?cmd=VIEW&id=2aa669c8-983d-4874-a754-543b3fffa266&thumb,충청북도 괴산군 청천면 다보길 8,36.6424348,127.8854819
화양서원,충북 괴산군,043-830-3433,"['가족여행', '관광지', '역사', '역사공부', '역사관광지', '역사를품은곳', '역사문화재']",https://cdn.visitkorea.or.kr/img/call?cmd=VIEW&id=c801af86-5597-4d41-aaf1-9b4dfcbe4f4f&thumb,충청북도 괴산군 청천면 화양동길 188,36.6687714,127.8114156
화양서원 묘정비,충북 괴산군,043-830-3433,"['관광지', '역사', '역사공부', '역사관광지', '역사를품은곳', '역사문화', '역사문화재']",https://cdn.visitkorea.or.kr/img/call?cmd=VIEW&id=88540de9-f8c6-4e84-8ff2-31011725f8cf&thumb,충청북도 괴산군 청천면 화양동길 188,36.6687714,127.8114156
황간향교,충북 영동군,043-740-3204,"['관광지', '아이와함께', '역사', '역사공부', '역사관광지', '역사를품은곳', '역사문화재']",https://cdn.visitkorea.or.kr/img/call?cmd=VIEW&id=c821f8e5-741c-4008-8a3d-30f5eb81adf9&thumb,충청북도 영동군 황간면 구교리길 88,36.228372,127.9158766
황강 영당 및 수암사,충북 제천시,043-641-6731,"['관광지', '역사']",https://cdn.visitkorea.or.kr/img/call?cmd=VIEW&id=dc5e91ac-2a6c-4fcc-9a88-0490ff18b13e&thumb,충청북도 제천시 한수면 미륵송계로 1801,36.8996441,128.0731109
황정산,충북 단양군,043-422-1146,"['관광지', '자연']",https://cdn.visitkorea.or.kr/img/call?cmd=VIEW&id=344a2274-0072-4bbd-abcc-86c4e0ad30d6&thumb,충북 단양군 대강면 직티리,36.8828782,128.3333051
회인향교,충북 보은군,043-540-3407,"['관광지', '역사공부', '역사관광지', '역사를품은곳', '역사문화재', '역사속', '역사속으로']",https://cdn.visitkorea.or.kr/img/call?cmd=VIEW&id=d21c1722-b0f0-4c5a-983d-87ae7e6d9113&thumb,충청북도 보은군 회인면 부수1길 31-11,36.496795,127.6013138
후평숲유원지,충북 괴산군,043-832-1511,"['가족과함께', '관광지', '괴산가볼만한곳', '아이와함께', '자연속으로', '자연여행']",https://cdn.visitkorea.or.kr/img/call?cmd=VIEW&id=cb95b3c6-b665-45ff-97c2-ba4a0832b4d8&thumb,충청북도 괴산군 청천면 후평도원로 129-19,36.6590248,127.7549808
희양산,충북 괴산군,043-830-3114,"['관광지', '자연']",https://cdn.visitkorea.or.kr/img/call?cmd=VIEW&id=341e95ed-a85f-4e4c-ac40-623799055a17&thumb,충청북도 괴산군 연풍면,36.7664216,128.0006213
