name,region,address,lat,lon
비엔나 인형박물관,강원 평창군,강원도 평창군 대관령면 솔봉로 296,37.66272045,128.6639536
박인환문학관,강원 인제군,강원도 인제군 인제읍 인제로156번길 50,38.06277763,128.1717233
참소리축음기&에디슨과학박물관,강원 강릉시,강원도 강릉시 경포로 393,37.79796032,128.897388
고성 DMZ박물관,강원 고성군,강원도 고성군 현내면 통일전망대로 369,38.57624688,128.3825278
속초시립박물관·속초실향민문화촌,강원 속초시,강원도 속초시 신흥2길 16,38.20105323,128.5382041
한얼문예박물관,강원 횡성군,강원도 횡성군 우천면 경강로 2885-2,37.48911759,128.072891
뮤지엄 산,강원 원주시,강원도 원주시 지정면 오크밸리2길 260,37.41532774,127.8234698
강릉시 오죽헌/시립박물관,강원 강릉시,강원도 강릉시 율곡로3139번길 24,37.77830804,128.8767146
이효석 문학관,강원 평창군,강원도 평창군 봉평면 효석문학길 73-25,37.61317497,128.3701153
젊은달 와이파크,강원 영월군,강원도 영월군 주천면 송학주천로 1467-9,37.27400332,128.2692247
춘천 애니메이션박물관,강원 춘천시,강원도 춘천시 서면 박사로 854,37.89302024,127.6919244
동양자수박물관,강원 강릉시,강원도 강릉시 죽헌길 140-12,37.77809202,128.8802567
백룡동굴 생태체험학습장,강원 평창군,강원도 평창군 미탄면 문희길 63,37.27786222,128.5770659
삼척 동굴신비관,강원 삼척시,강원도 삼척시 엑스포로 69,37.43806226,129.1582499
화진포 해양박물관,강원 고성군,강원도 고성군 현내면 화진포길 412,38.48138177,128.4356979
책과인쇄박물관,강원 춘천시,강원도 춘천시 신동면 풍류1길 156,37.81942663,127.7248512
설악산 탐방안내소,강원 속초시,강원도 속초시 설악산로 833,38.16712471,128.5172593
인제산촌민속박물관,강원 인제군,강원도 인제군 인제읍 인제로156번길 50,38.06277763,128.1717233
춘천문화예술회관,강원 춘천시,강원도 춘천시 효자상길5번길 13,37.87261579,127.7293405
태백 고생대자연사박물관,강원 태백시,강원도 태백시 태백로 2249,37.0948994,129.0396319
평창무이예술관,강원 평창군,강원도 평창군 봉평면 사리평길 233,37.61527565,128.3487846
오산리선사유적박물관,강원 양양군,강원도 양양군 손양면 학포길 33,38.08589573,128.6604739
정동진시간박물관,강원 강릉시,강원도 강릉시 강동면 헌화로 990-1,37.68694053,129.0375964
춘천막국수체험박물관,강원 춘천시,강원도 춘천시 신북읍 신북로 264,37.94879306,127.7497799
고판화박물관,강원 원주시,강원도 원주시 신림면 물안길 62,37.25743819,128.1280298
철암탄광역사촌,강원 태백시,강원도 태백시 동태백로 404,37.11423472,129.0371857
화진포역사안보전시관,강원 고성군,강원도 고성군 거진읍 화진포길 300-1,38.473643,128.44192
6.25 전쟁체험전시관,강원 고성군,강원도 고성군 현내면 금강산로 481,38.51438609,128.416703
박수근미술관,강원 양구군,강원도 양구군 양구읍 박수근로 265-15,38.0962413,127.9815765
원주역사박물관,강원 원주시,강원도 원주시 봉산로 134,37.34309272,127.9664064
정선아리랑센터(아리랑박물관),강원 정선군,강원도 정선군 정선읍 애산로 51,37.37638383,128.671536
강원도 산림박물관,강원 춘천시,강원도 춘천시 화목원길 24,37.92264687,127.7251595
영월아프리카미술박물관,강원 영월군,강원도 영월군 김삿갓면 영월동로 1107-1,37.13187895,128.5353509
석봉도자기미술관,강원 속초시,강원도 속초시 엑스포로 156,38.19795098,128.5825629
속초문화원,강원 속초시,강원도 속초시 번영로 155,38.21304612,128.5883724
남이섬 노래박물관,강원 춘천시,강원도 춘천시 남산면 남이섬길 1,37.79012495,127.5261287
설악트릭미술관,강원 고성군,강원도 고성군 토성면 고성대로 47-24,38.20960704,128.5021644
에티오피아 한국전 참전기념관,강원 춘천시,강원도 춘천시 이디오피아길 1,37.8737992,127.7117888
화진포생태박물관,강원 고성군,강원도 고성군 거진읍 화진포길 278,38.47218738,128.4436214
진부령미술관,강원 고성군,강원도 고성군 간성읍 흘리길 15-10,38.26547302,128.359622
조각미술관 바우지움,강원 고성군,강원도 고성군 토성면 원암온천3길 37,38.21234555,128.5151501
영월 동굴생태관,강원 영월군,강원도 영월군 김삿갓면 영월동로 1121-15,37.13035675,128.5367419
조선민화박물관,강원 영월군,강원도 영월군 김삿갓면 김삿갓로 432-10,37.09631131,128.6066208
춘천미술관,강원 춘천시,강원도 춘천시 서부대성로 71,37.88237413,127.7313736
태백시 문화예술회관,강원 태백시,강원도 태백시 고원로 203,37.17196057,128.9880394
강원 신재생에너지전시관,강원 평창군,강원도 평창군 대관령면 경강로 5754,37.68552302,128.7583027
인제 하늘내린센터,강원 인제군,강원도 인제군 인제읍 비봉로44번길 100,38.06067411,128.164952
국립춘천박물관,강원 춘천시,강원도 춘천시 우석로 70,37.86401877,127.7521907
만해문학박물관,강원 인제군,강원도 인제군 북면 만해로 91,38.18753627,128.318117
삼척 민물고기전시관,강원 삼척시,강원도 삼척시 근덕면 초당길 234,37.38769134,129.1966788
양구전쟁기념관,강원 양구군,강원도 양구군 해안면 해안서화로 35,38.2900609,128.1455851
삼척문화예술회관,강원 삼척시,강원도 삼척시 엑스포로 45,37.43896328,129.1601383
화천생태영상센터,강원 화천군,강원도 화천군 하남면 용화산로 1357,38.09020734,127.6973318
모형항공기박물관,강원 춘천시,강원도 춘천시 동산면 영서로 141,37.75170977,127.8222546
정선향토박물관,강원 정선군,강원도 정선군 화암면 화암동굴길 12-2,37.34999156,128.7891456
춘천인형극장,강원 춘천시,강원도 춘천시 영서로 3017,37.92101625,127.7201045
속초문화회관,강원 속초시,강원도 속초시 번영로 155,38.21304612,128.5883724
숲사랑홍보관,강원 강릉시,강원도 강릉시 사천면 미노길 1,37.81715301,128.8513187
화천박물관,강원 화천군,강원도 화천군 하남면 춘화로 3337,38.09782649,127.7040886
양구백자박물관,강원 양구군,강원도 양구군 방산면 평화로 5182,38.20727188,127.9514036
난고 김삿갓 문학관,강원 영월군,강원도 영월군 김삿갓면 김삿갓로 216-22,37.07949201,128.6017366
강원종합박물관,강원 삼척시,강원도 삼척시 신기면 강원남부로 3016,37.35140608,129.0841439
엄마꿈박물관,강원 강릉시,강원도 강릉시 구정면 정등로 130,37.72922013,128.8741651
동강사진박물관,강원 영월군,강원도 영월군 영월읍 영월로 1909-10,37.18193994,128.4615511
태백석탄박물관,강원 태백시,강원도 태백시 천제단길 195,37.11724029,128.9505662
이승복기념관,강원 평창군,강원도 평창군 용평면 운두령로 500-11,37.67220152,128.4644788
월정사 성보박물관,강원 평창군,강원도 평창군 진부면 오대산로 176,37.71884927,128.6029578
발해역사관,강원 속초시,강원도 속초시 신흥2길 16,38.20105323,128.5382041
대관령박물관,강원 강릉시,강원도 강릉시 성산면 대관령옛길 1,37.71677638,128.8040296
양구전쟁기념관,강원 양구군,강원도 양구군 해안면 해안서화로 35,38.2900609,128.1455851
삼척문화예술회관,강원 삼척시,강원도 삼척시 엑스포로 45,37.43836,129.160247
화천생태영상센터,강원 화천군,강원도 화천군 하남면 용화산로 1357,38.09020734,127.6973318
모형항공기박물관,강원 춘천시,강원도 춘천시 동산면 영서로 141,37.75170977,127.8222546
정선향토박물관,강원 정선군,강원도 정선군 화암면 화암동굴길 12-2,37.34999156,128.7891456
춘천인형극장,강원 춘천시,강원도 춘천시 영서로 3017,37.92101625,127.7201045
속초문화회관,강원 속초시,강원도 속초시 번영로 155,38.21304612,128.5883724
숲사랑홍보관,강원 강릉시,강원도 강릉시 사천면 미노길 1,37.81715301,128.8513187
화천박물관,강원 화천군,강원도 화천군 하남면 춘화로 3337,38.09782649,127.7040886
양구백자박물관,강원 양구군,강원도 양구군 방산면 평화로 5182,38.20727188,127.9514036
토지문화관,강원 원주시,강원도 원주시 흥업면 매지회촌길 79,37.25750686,127.9113504
태백문화원,강원 태백시,강원도 태백시 태백로 1136,37.15672217,128.9894594
양양문화원,강원 양양군,강원도 양양군 양양읍 양양로 114-5,38.07417742,128.6164416
횡성문화원,강원 횡성군,강원도 횡성군 횡성읍 횡성로 371,37.48666226,127.9839932
춘천문화원,강원 춘천시,강원도 춘천시 퇴계농공로 40,37.84958257,127.7436554
강원경찰박물관,강원 춘천시,강원도 춘천시 신북읍 신샘밭로 361,37.92530023,127.7499325
환희컵박물관,강원 강릉시,강원도 강릉시 한밭골길 76-29,37.78973509,128.8654889
양구통일관,강원 양구군,강원도 양구군 해안면 해안서화로 35,38.2900609,128.1455851
파로호 안보전시관,강원 화천군,강원도 화천군 간동면 파로호로 208,38.09499168,127.7715295
영월곤충박물관,강원 영월군,강원도 영월군 영월읍 동강로 716,37.22820572,128.505455
춘천시립도서관,강원 춘천시,강원도 춘천시 우석로 100,37.86198997,127.7550186
고성문화원,강원 고성군,강원도 고성군 간성읍 간성로 71-7,38.37873572,128.4669079
단종역사관,강원 영월군,강원도 영월군 영월읍 단종로 190,37.19681856,128.4528928
양구선사박물관,강원 양구군,강원도 양구군 양구읍 금강산로 439-52,38.12356299,127.9904248
토이로봇관,강원 춘천시,강원도 춘천시 서면 박사로 854,37.89302024,127.6919244
횡성군문화예술회관,강원 횡성군,강원도 횡성군 횡성읍 문예로 75,37.48863768,127.9751991
삼척시립박물관,강원 삼척시,강원도 삼척시 엑스포로 54,37.43891237,129.1584091
치악예술관,강원 원주시,강원도 원주시 서원대로 331,37.33543707,127.9446056
미술관 자작나무숲,강원 횡성군,강원도 횡성군 우천면 한우로두곡5길 186,37.49276094,128.0500584
강릉문화원,강원 강릉시,강원도 강릉시 하슬라로 96,37.75876307,128.8738456
평창문화원,강원 평창군,강원도 평창군 평창읍 문화예술길 53,37.36177697,128.3901095
강릉단오제전수교육관,강원 강릉시,강원도 강릉시 단오장길 1,37.74820182,128.8950411
영월문화원,강원 영월군,강원도 영월군 영월읍 단종로 12,37.18462839,128.4685497
홍천교육도서관,강원 홍천군,강원도 홍천군 홍천읍 꽃뫼로 93,37.69179363,127.8838503
인도미술박물관,강원 영월군,강원도 영월군 주천면 송학주천로 899-6,37.23587339,128.2392085
동해문화원,강원 동해시,강원도 동해시 천곡2길 8,37.52451219,129.1125058
삼척 어촌민속전시관,강원 삼척시,강원도 삼척시 원덕읍 삼척로 1852-6,37.26795788,129.3272826
호야지리박물관,강원 영월군,강원도 영월군 수주면 무릉법흥로 303,37.29994177,128.2626995
원주문화원,강원 원주시,강원도 원주시 일산로 72,37.34561281,127.9504594
국제현대미술관,강원 영월군,강원도 영월군 영월읍 삼옥길 31,37.20840155,128.5069046
생명건강과학관,강원 홍천군,강원도 홍천군 홍천읍 생명과학관길 78,37.67909826,127.880585
공지천시민공원 야외공연장,강원 춘천시,강원도 춘천시 수변공원길 18,37.87454686,127.7061971
축제극장 몸짓,강원 춘천시,강원도 춘천시 춘천로 112,37.87309537,127.7278102
아라리인형의집,강원 정선군,강원도 정선군 북평면 명주내길 43-1,37.43807911,128.6469695
원주시립중앙도서관,강원 원주시,강원도 원주시 서원대로 472-12,37.32654285,127.9538485
일현미술관,강원 양양군,강원도 양양군 손양면 선사유적로 359,38.06055227,128.6789588
화천교육도서관,강원 화천군,강원도 화천군 화천읍 상승로3길 22,38.1067605,127.7044047
정선아리랑 전수관,강원 정선군,강원도 정선군 여량면 아우라지길 69,37.47574532,128.7243668
삼척문화원,강원 삼척시,강원도 삼척시 오십천로 408,37.44111821,129.1627621
강원대학교중앙박물관,강원 춘천시,강원도 춘천시 강원대학길 1,37.86802431,127.7483874
한림대학교박물관,강원 춘천시,강원도 춘천시 한림대학길 1,37.88542866,127.7349573
동내도서관,강원 춘천시,강원도 춘천시 동내면 학곡동1길 17-4,37.83610363,127.7629175
소양도서관,강원 춘천시,강원도 춘천시 삭주로145번길 69-8,37.89273428,127.7452892
내설악 백공미술관,강원 인제군,강원도 인제군 북면 황태길 245,38.2133718,128.3622348
홍천문화예술회관,강원 홍천군,강원도 홍천군 홍천읍 설악로 1792,37.68896743,127.8954715
화천문화원,강원 화천군,강원도 화천군 화천읍 상승로 91,38.10871906,127.7047633
고성교육도서관,강원 고성군,강원도 고성군 거진읍 거탄진로29번길 7,38.43919194,128.4500537
호안다구박물관,강원 영월군,강원도 영월군 김삿갓면 내리계곡로 1088,37.10579141,128.677057
무릉고서화미술박물관,강원 원주시,강원도 원주시 흥업면 사제로 399-10,37.32528094,127.8865608
강릉원주대학교 박물관,강원 강릉시,강원도 강릉시 죽헌길 7,37.76569493,128.8700048
양구팔랑민속관,강원 양구군,강원도 양구군 동면 바랑길158번길 5,38.2096687,128.0658656
횡성댐 물문화관,강원 횡성군,강원도 횡성군 갑천면 섬강로 1012,37.5424631,128.0382673
철원문화원,강원 철원군,강원도 철원군 갈말읍 삼부연로 42,38.14534032,127.3128197
남산도서관(춘천),강원 춘천시,강원도 춘천시 남산면 강촌로 311,37.79319778,127.643318
마리소리골악기박물관,강원 홍천군,강원도 홍천군 서석면 마리소리길 207,37.73788994,128.2511229
양구문화원,강원 양구군,강원도 양구군 양구읍 비봉로73번길 52,38.10901005,127.9839223
황영조 기념관,강원 삼척시,강원도 삼척시 근덕면 초곡길 176,37.30726311,129.2947313
이상원미술관,강원 춘천시,강원도 춘천시 사북면 화악지암길 99,37.96832347,127.5783522
홍천문화원,강원 홍천군,강원도 홍천군 홍천읍 연봉중앙로 11-8,37.68195853,127.8742735
억새전시관,강원 정선군,강원도 정선군 남면 칠현로 83,37.26932409,128.739764
남이섬 류지움 (류홍쥔 세계민족악기전시관),강원 춘천시,강원도 춘천시 남산면 남이섬길 1,37.79012495,127.5261287
인제문화원,강원 인제군,강원도 인제군 인제읍 비봉로44번길 100,38.06067411,128.164952
도계유리나라,강원 삼척시,강원도 삼척시 도계읍 강원남부로 893-36,37.19371311,129.0321752
