name,region,address,lat,lon
바람흔적미술관,경남 남해군,경상남도 남해군 삼동면 금암로 519-4,34.76232785,128.0121821
거제어촌민속전시관,경남 거제시,경상남도 거제시 일운면 지세포해안로 41,34.83369365,128.7018853
창원시립진해박물관,경남 창원시,경상남도 창원시 진해구 중원동로 52,35.14882748,128.6631795
거제씨월드,경남 거제시,경상남도 거제시 일운면 지세포해안로 15,34.83588245,128.701462
김해 분청도자박물관,경남 김해시,경상남도 김해시 진례면 진례로 275-35,35.25149585,128.7458503
해금강테마박물관,경남 거제시,경상남도 거제시 남부면 해금강로 120,34.74055707,128.6626444
고성공룡박물관,경남 고성군,경상남도 고성군 하이면 자란만로 618,34.90809856,128.1486504
남해 파독전시관,경남 남해군,경상남도 남해군 삼동면 독일로 89-7,34.80007232,128.0385485
창원의 집,경남 창원시,경상남도 창원시 의창구 사림로16번길 59 ,35.24445106,128.6813513
국립진주박물관,경남 진주시,경상남도 진주시 남강로 626-35,35.18901371,128.0768441
창원과학체험관,경남 창원시,경상남도 창원시 성산구 충혼로72번길 16,35.23025374,128.6617776
거창사과테마파크,경남 거창군,경상남도 거창군 거창읍 거함대로 3372-60,35.67403799,127.9217451
와인갤러리,경남 사천시,경상남도 사천시 곤명면 경서대로 3552,35.13894653,127.988177
하동야생차박물관,경남 하동군,경상남도 하동군 화개면 쌍계로 571-25,35.22773215,127.6426921
박경리 기념관,경남 통영시,경상남도 통영시 산양읍 산양중앙로 173,34.80237093,128.4035796
통영 명품진주전시관,경남 통영시,경상남도 통영시 용남면 남해안대로 83,34.89041635,128.4669455
우포늪생태관,경남 창녕군,경상남도 창녕군 유어면 우포늪길 220,35.54456088,128.4191195
포로수용소유적박물관,경남 거제시,경상남도 거제시 계룡로 61,34.87637998,128.6253705
양산문화예술회관,경남 양산시,경상남도 양산시 중앙로 39-1,35.33345033,129.0367575
창원시립마산문신미술관,경남 창원시,경상남도 창원시 마산합포구 문신길 147,35.20675249,128.569266
진주청동기문화박물관,경남 진주시,경상남도 진주시 대평면 호반로 1353,35.22438437,127.9619666
청마문학관,경남 통영시,경상남도 통영시 망일1길 82,34.84525133,128.4354784
남해국제탈공연예술촌,경남 남해군,경상남도 남해군 이동면 남해대로 2412,34.81772907,127.9271589
통영시립도서관,경남 통영시,경상남도 통영시 무전3길 29,34.86150714,128.4247095
산청 한의학박물관,경남 산청군,경상남도 산청군 금서면 동의보감로555번길 45-6,35.44106594,127.8293595
통영시립박물관,경남 통영시,경상남도 통영시 중앙로 65,34.84075131,128.4167911
남해유배문학관,경남 남해군,경상남도 남해군 남해읍 남해대로 2745,34.83196011,127.8991855
함안박물관,경남 함안군,경상남도 함안군 가야읍 고분길 153-31,35.26936766,128.402688
창녕박물관,경남 창녕군,경상남도 창녕군 창녕읍 창밀로 34,35.5454042,128.5054415
클레이아크 김해미술관,경남 김해시,경상남도 김해시 진례면 진례로 275-51,35.25086479,128.7447968
통영 옻칠미술관,경남 통영시,경상남도 통영시 용남면 용남해안로 36,34.85461932,128.4429192
얼음골축음기소리박물관(밀양),경남 밀양시,경상남도 밀양시 산내면 산내로 926-1,35.59817382,128.9351502
지리산생태과학관,경남 하동군,경상남도 하동군 악양면 섬진강대로 3358-30,35.15066116,127.6756445
국립김해박물관,경남 김해시,경상남도 김해시 가야의길 190,35.24353009,128.8725848
창원시립마산박물관,경남 창원시,경상남도 창원시 마산합포구 문신길 105,35.20567156,128.5689101
매암차문화박물관,경남 하동군,경상남도 하동군 악양면 악양서로 346-1,35.16110665,127.7093641
대성동고분박물관,경남 김해시,경상남도 김해시 가야의길 126,35.23606102,128.8730821
거제민속박물관,경남 거제시,경상남도 거제시 연초면 대금산로 339-7,34.95011436,128.677436
전혁림 미술관,경남 통영시,경상남도 통영시 봉수1길 10,34.8265161,128.4151249
의령예술촌,경남 의령군,경상남도 의령군 궁류면 벽계로 16-32,35.43503467,128.2240603
합천박물관,경남 합천군,경상남도 합천군 쌍책면 황강옥전로 1558,35.58042227,128.2829415
양산시립박물관,경남 양산시,경상남도 양산시 북정로 78,35.3584941,129.0490325
밀양시립박물관,경남 밀양시,경상남도 밀양시 밀양대공원로 100,35.50296509,128.7593643
진해문화원,경남 창원시,경상남도 창원시 진해구 편백로 39,35.1495425,128.6605339
김해문화원,경남 김해시,경상남도 김해시 분성로 225,35.23184079,128.8705349
칠천량해전공원전시관,경남 거제시,경상남도 거제시 하청면 칠천로 265-39,34.97766166,128.6282474
표충사호국박물관,경남 밀양시,경상남도 밀양시 단장면 표충로 1338,35.53226072,128.9590442
창원역사민속관,경남 창원시,경상남도 창원시 의창구 창이대로397번길 25,35.24508737,128.6808222
산청박물관,경남 산청군,경상남도 산청군 생초면 산수로 1064,35.49232886,127.8317376
지리산 빨치산토벌 전시관,경남 산청군,경상남도 산청군 시천면 지리산대로 536,35.29123516,127.7542415
고성문화원(경남),경남 고성군,경상남도 고성군 고성읍 성내로 54,34.97543943,128.3149137
평사리문학관,경남 하동군,경상남도 하동군 악양면 평사리길 76-23,35.15628913,127.6875791
해인사 성보박물관,경남 합천군,경상남도 합천군 가야면 가야산로 1742-17,35.79357523,128.0945622
고성자연사박물관,경남 고성군,경상남도 고성군 회화면 당항만로 1116,35.05322563,128.3920261
주남저수지 생태학습관,경남 창원시,경상남도 창원시 의창구 동읍 주남로101번길 26,35.30733001,128.6779304
창원문화원,경남 창원시,경상남도 창원시 의창구 용지로239번길 19-22,35.23555591,128.6836618
목면시배유지,경남 산청군,경상남도 산청군 단성면 목화로 887,35.29061291,127.9580563
이순신 영상관,경남 남해군,경상남도 남해군 고현면 남해대로 3829,34.91252187,127.8578101
통도사 성보박물관,경남 양산시,경상남도 양산시 하북면 통도사로 108,35.47540912,129.0563672
진해문화센터,경남 창원시,경상남도 창원시 진해구 진해대로 325,35.16958314,128.6594645
김해민속박물관,경남 김해시,경상남도 김해시 분성로261번길 35,35.235053,128.8757902
함양문화예술회관,경남 함양군,경상남도 함양군 함양읍 필봉산길 55,35.52471022,127.7222727
산청문화원(문화의집),경남 산청군,경상남도 산청군 산청읍 산엔청로 56,35.41412667,127.878788
주남저수지 람사르문화관,경남 창원시,경상남도 창원시 의창구 동읍 주남로101번길 26,35.30733001,128.6779304
하동문화예술회관,경남 하동군,경상남도 하동군 하동읍 섬진강대로 2222,35.07240609,127.7411495
김해문화의전당,경남 김해시,경상남도 김해시 김해대로 2060,35.24373381,128.8694108
김씨 박물관,경남 창원시,경상남도 창원시 진해구 소사로59번나길 4,35.12913212,128.776266
남해문화센터,경남 남해군,경상남도 남해군 남해읍 선소로 12,34.84488792,127.8997675
에너지환경과학공원 에너지전시관,경남 창원시,경상남도 창원시 진해구 천자로 101,35.14231433,128.6893981
합천문화원,경남 합천군,경상남도 합천군 합천읍 핫들2로 58,35.56652089,128.1682792
진주시립 이성자미술관,경남 진주시,경상남도 진주시 에나로128번길 14,35.17580996,128.1427403
거창문화센터,경남 거창군,경상남도 거창군 거창읍 수남로 2181,35.67430045,127.9103127
고성탈박물관,경남 고성군,경상남도 고성군 고성읍 율대2길 23,34.97104862,128.3338051
함안문화예술회관,경남 함안군,경상남도 함안군 가야읍 함안대로 619-1,35.28329871,128.4012309
거제문화예술회관,경남 거제시,경상남도 거제시 장승로 145,34.86717837,128.7233576
경남도립미술관,경남 창원시,경상남도 창원시 의창구 용지로 296,35.23946357,128.6908566
3·15 아트센터,경남 창원시,경상남도 창원시 마산회원구 삼호로 135,35.22581853,128.5771062
남부산림자원연구소,경남 진주시,경상남도 진주시 진주대로 672,35.16693572,128.1064996
성산아트홀,경남 창원시,경상남도 창원시 의창구 중앙대로 181,35.22938715,128.6831193
엄홍길전시관,경남 고성군,경상남도 고성군 거류면 거류로 335,34.97261395,128.3868626
거창사건역사교육관,경남 거창군,경상남도 거창군 신원면 신차로 2924,35.55574562,127.9248903
보물섬 마늘나라,경남 남해군,경상남도 남해군 이동면 남해대로 2443,34.81705961,127.9248025
사천문화원,경남 사천시,경상남도 사천시 문선4길 21,34.93549148,128.0819407
창원시립 마산음악관,경남 창원시,경상남도 창원시 마산합포구 수산2길 35,35.19757403,128.5719105
통영문화원,경남 통영시,경상남도 통영시 서문로 23,34.84682035,128.4219516
대산미술관,경남 창원시,경상남도 창원시 의창구 대산면 유등로369번길 14-8,35.34513902,128.7440738
CECO 창원컨벤션센터,경남 창원시,경상남도 창원시 의창구 원이대로 362,35.23839932,128.656895
김춘수 유품전시관,경남 통영시,경상남도 통영시 해평5길 142-16,34.83336721,128.4161579
거제박물관,경남 거제시,경상남도 거제시 거제대로 3791,34.89403977,128.6862106
미리벌민속박물관,경남 밀양시,경상남도 밀양시 초동면 초동중앙로 439,35.41891126,128.6738986
통영시민문화회관,경남 통영시,경상남도 통영시 남망공원길 29,34.84232394,128.4286308
밀양문화원,경남 밀양시,경상남도 밀양시 중앙로 265,35.4867908,128.7548535
함안도서관,경남 함안군,경상남도 함안군 가야읍 함안대로 495,35.27115565,128.4081957
토지주택박물관,경남 진주시,경상남도 진주시 충의로 19,35.17824568,128.146167
천적생태과학관,경남 거창군,경상남도 거창군 거창읍 정장길 171-54,35.673225,127.919525
경상남도문화예술회관,경남 진주시,경상남도 진주시 강남로 215,35.18727372,128.091744
고성박물관,경남 고성군,경상남도 고성군 고성읍 송학로113번길 50,34.97937268,128.3210119
경상남도과학교육원,경남 진주시,경상남도 진주시 진성면 진의로 178-35,35.2014965,128.2260027
거창박물관,경남 거창군,경상남도 거창군 거창읍 수남로 2181,35.67430045,127.9103127
박재삼 문학관,경남 사천시,경상남도 사천시 박재삼길 27,34.92592006,128.0743454
이병주문학관,경남 하동군,경상남도 하동군 북천면 이명골길 14-28,35.09720238,127.8942102
거제문화원,경남 거제시,경상남도 거제시 능포로 7,34.8701972,128.7230926
KBS 창원홀,경남 창원시,경상남도 창원시 의창구 중앙대로 178,35.22916614,128.686041
창원시 늘푸른전당,경남 창원시,경상남도 창원시 의창구 두대로 97,35.23006618,128.6545431
남해문화원,경남 남해군,경상남도 남해군 남해읍 선소로 12,34.84488792,127.8997675
김해시 수도박물관,경남 김해시,경상남도 김해시 한림면 김해대로 1347,35.28477091,128.8226012
사천첨단항공우주과학관,경남 사천시,경상남도 사천시 사남면 공단1로 108,35.07090584,128.0634576
국립밀양기상과학관,경남 밀양시,경상남도 밀양시 밀양대공원로 84,35.50214408,128.7606335
함양문화원,경남 함양군,경상남도 함양군 함양읍 함양여중길 10,35.52335443,127.7272819
산청 목조각장전수관,경남 산청군,경상남도 산청군 생초면 산수로 1064,35.49232886,127.8317376
김달진 문학관,경남 창원시,경상남도 창원시 진해구 소사로59번길 13,35.12876046,128.7766223
고성오광대전수회관,경남 고성군,경상남도 고성군 고성읍 남해안대로 2571,34.97363623,128.3341028
하동문화원,경남 하동군,경상남도 하동군 하동읍 섬진강대로 2222,35.07240609,127.7411495
마산문화원,경남 창원시,경상남도 창원시 마산합포구 3·15대로 199,35.1959708,128.5667109
거창문화원,경남 거창군,경상남도 거창군 거창읍 수남로 2193-40,35.67353077,127.9094196
함안문화원,경남 함안군,경상남도 함안군 가야읍 선왕길 1-1,35.28388598,128.40147
창녕문화원,경남 창녕군,경상남도 창녕군 창녕읍 만옥정길 10,35.54142861,128.5002818
경남대학교 박물관,경남 창원시,경상남도 창원시 마산합포구 경남대학로 7,35.18432093,128.5550964
합천도서관,경남 합천군,경상남도 합천군 합천읍 동서로 152,35.56408575,128.1685946
이주홍어린이문학관,경남 합천군,경상남도 합천군 용주면 합천호수로 828-7,35.54695726,128.0806352
극단 벅수골 전용소극장,경남 통영시,경상남도 통영시 중앙로 152,34.84516269,128.4239435
통영국제음악당,경남 통영시,경상남도 통영시 큰발개1길 38,34.82599385,128.4400333
의령문화원,경남 의령군,경상남도 의령군 의령읍 의병로24길 31-1,35.31773709,128.2649396
진주문화원,경남 진주시,경상남도 진주시 진양호로 476,35.19079371,128.0776717
한국궁중꽃박물관,경남 양산시,경상남도 양산시 매곡외산로 232,35.36667027,129.1758003
사천 가산오광대전수관,경남 사천시,경상남도 사천시 축동면 조창길 187-28,35.08460555,128.0402639
양산문화원,경남 양산시,경상남도 양산시 북정로 76,35.35861227,129.0485313
밀양아리랑아트센터,경남 밀양시,경상남도 밀양시 밀양대공원로 112,35.50442565,128.7585155
밀양 한천박물관,경남 밀양시,경상남도 밀양시 산내면 봉의로 58-31,35.59115519,128.8798334
통영 가스홍보관,경남 통영시,경상남도 통영시 광도면 안정로 770,34.947615,128.420334
삼랑진 양수발전소 홍보관,경남 밀양시,경상남도 밀양시 삼랑진읍 행곡로 38,35.41287996,128.8759205
경상남도 수산자원연구소 민물고기전시관,경남 밀양시,경상남도 밀양시 산외면 산외남로 28-27,35.49739777,128.7974176
마산현대미술관,경남 창원시,경상남도 창원시 마산합포구 진전면 팔의사로 361,35.12695825,128.3840188
고성생태학습관,경남 고성군,경상남도 고성군 고성읍 송학리 134-1,34.98344803,128.3439866
밀양의열기념관,경남 밀양시,경상남도 밀양시 노상하1길 25-12,35.49360903,128.7509368
