name,region,address,lat,lon
아쿠아플라넷 여수,전남 여수시,전라남도 여수시 오동도로 61-11,34.74626041,127.7487115
보성군립 백민미술관,전남 보성군,전라남도 보성군 문덕면 죽산길 168-14,34.9669474,127.1600655
전라남도해양수산과학관,전남 여수시,전라남도 여수시 돌산읍 돌산로 2876,34.68223799,127.7758995
목포근대역사관 2관,전남 목포시,전라남도 목포시 번화로 18,34.78596374,126.3814912
순천만 자연생태관,전남 순천시,전라남도 순천시 순천만길 513-25,34.88579701,127.5092833
목포자연사박물관,전남 목포시,전라남도 목포시 남농로 135,34.79372717,126.4210674
함평엑스포공원,전남 함평군,전라남도 함평군 함평읍 곤재로 27,35.05618874,126.5199494
한국천연염색박물관,전남 나주시,전라남도 나주시 다시면 백호로 379,34.99403168,126.6625254
국립나주박물관,전남 나주시,전라남도 나주시 반남면 고분로 747,34.91485383,126.6589014
목포어린이바다과학관,전남 목포시,전라남도 목포시 삼학로92번길 98,34.78195651,126.388849
태백산맥문학관,전남 보성군,전라남도 보성군 벌교읍 홍암로 89-19,34.8492229,127.3522516
한국대나무박물관,전남 담양군,전라남도 담양군 담양읍 죽향문화로 35,35.30934367,126.9764088
섬진강어류생태관,전남 구례군,전라남도 구례군 간전면 간전중앙로 47,35.18745224,127.5465226
목포근대역사관 1관,전남 목포시,전라남도 목포시 영산로29번길 6,34.78769578,126.3817942
해남공룡박물관,전남 해남군,전라남도 해남군 황산면 공룡박물관길 234,34.58908867,126.4428321
"장전미술관 (구, 남진미술관)",전남 진도군,전라남도 진도군 임회면 하미길 39,34.4297596,126.2379554
북한 반잠수정 전시관,전남 여수시,전라남도 여수시 돌산읍 향일암로 365,34.60548076,127.786683
순천시립 뿌리깊은나무 박물관,전남 순천시,전라남도 순천시 낙안면 평촌3길 45,34.90363951,127.3399816
곡성레저문화센터,전남 곡성군,전라남도 곡성군 곡성읍 곡성로 855,35.28142166,127.2981783
호남기후변화체험관,전남 담양군,전라남도 담양군 담양읍 메타세쿼이아로 45,35.32495533,127.0062507
강진 고려청자박물관,전남 강진군,전라남도 강진군 대구면 청자촌길 33,34.50866203,126.8008374
대원사 티벳박물관,전남 보성군,전라남도 보성군 문덕면 죽산길 520-1,34.95915165,127.132037
진도향토문화회관,전남 진도군,전라남도 진도군 진도읍 진도대로 7197,34.47970593,126.2685772
한국가사문학관,전남 담양군,전라남도 담양군 가사문학면 가사문학로 877,35.18796216,127.0054858
목포문학관,전남 목포시,전라남도 목포시 남농로 95,34.79282351,126.416929
장보고기념관,전남 완도군,전라남도 완도군 완도읍 청해진로 1455,34.3550953,126.730162
나주학생독립운동기념관,전남 나주시,전라남도 나주시 죽림길 26,35.02806317,126.7262445
아산조방원미술관,전남 곡성군,전라남도 곡성군 옥과면 미술관로 288,35.29708033,127.1226242
다산박물관,전남 강진군,전라남도 강진군 도암면 다산로 766-20,34.57641194,126.7499561
나주배박물관,전남 나주시,전라남도 나주시 금천면 영산로 5838,35.03343515,126.767208
담양우표박물관,전남 담양군,전라남도 담양군 대전면 대치9길 16,35.27663454,126.8895788
귀족호도박물관,전남 장흥군,전라남도 장흥군 장흥읍 남부관광로 56-90,34.67501722,126.9191009
해남문화예술회관,전남 해남군,전라남도 해남군 해남읍 군청길 4,34.57347896,126.5990654
나주문화원,전남 나주시,전라남도 나주시 시청길 22,35.01578414,126.7108389
오지호기념관,전남 화순군,전라남도 화순군 동복면 독상1길 10,35.06802572,127.1309502
전라남도 농업박물관,전남 영암군,전라남도 영암군 삼호읍 녹색로 653-11,34.77615739,126.4577755
고흥우주천문과학관,전남 고흥군,전라남도 고흥군 도양읍 장기산선암길 353,34.55250154,127.1250552
영암도기박물관,전남 영암군,전라남도 영암군 군서면 서호정길 5,34.76051634,126.6192804
영광노을전시관,전남 영광군,전라남도 영광군 백수읍 해안로 957,35.35373193,126.3892814
진도해양생태관,전남 진도군,전라남도 진도군 고군면 신비의바닷길 64,34.43486634,126.3528688
국립남도국악원,전남 진도군,전라남도 진도군 임회면 진도대로 3818,34.38597825,126.2258479
국립해양문화재연구소,전남 목포시,전라남도 목포시 남농로 136,34.79250238,126.421301
순천문화예술회관,전남 순천시,전라남도 순천시 삼산로 16,34.9705555,127.4852376
목포문화예술회관,전남 목포시,전라남도 목포시 남농로 102,34.79223125,126.4189757
손양원목사 순교기념관,전남 여수시,전라남도 여수시 율촌면 산돌길 70-62,34.84000214,127.6349032
정남진천문과학관,전남 장흥군,전라남도 장흥군 장흥읍 평화우산길 180-608,34.65811173,126.9258628
강진 오감통,전남 강진군,전라남도 강진군 강진읍 오감길 2,34.63914516,126.7735554
보성문화원,전남 보성군,전라남도 보성군 보성읍 송재로 281-11,34.77840419,127.088819
강진아트홀,전남 강진군,전라남도 강진군 강진읍 영랑로1길 9,34.63817527,126.7704992
장흥동학농민혁명기념관,전남 장흥군,전라남도 장흥군 장흥읍 읍성로 2,34.66918564,126.8953519
남농기념관,전남 목포시,전라남도 목포시 남농로 119,34.79294591,126.4196427
여수시민회관,전남 여수시,전라남도 여수시 좌수영로 69,34.74709238,127.7279291
물사랑 배움터,전남 화순군,전라남도 화순군 사평면 효당로 400,35.0264407,127.1129781
땅끝해양자연사박물관,전남 해남군,전라남도 해남군 송지면 중대동길 5-4,34.3249046,126.5672054
동신대 카메라박물관(문화박물관),전남 나주시,전라남도 나주시 건재로 185,35.049948,126.717717
광양 장도박물관,전남 광양시,전라남도 광양시 광양읍 매천로 771,34.97705608,127.5805515
해동문화예술촌,전남 담양군,전라남도 담양군 담양읍 지침1길 6,35.31755724,126.9838342
소안항일운동기념관,전남 완도군,전라남도 완도군 소안면 소안로 263,34.16712451,126.6528617
와보랑께박물관,전남 강진군,전라남도 강진군 병영면 장강로 804-6,34.6997574,126.8267631
순천 기적의도서관,전남 순천시,전라남도 순천시 해룡면 기적의도서관길 60,34.94715233,127.5276481
동편제 판소리전수관,전남 구례군,전라남도 구례군 구례읍 동편제길 53,35.21561721,127.4579852
완도문화예술의전당,전남 완도군,전라남도 완도군 완도읍 개포로159번길 55,34.32367717,126.7416563
김대중 노벨평화상기념관,전남 목포시,전라남도 목포시 삼학로92번길 68,34.78285177,126.3922506
여수시문화원,전남 여수시,전라남도 여수시 이순신광장로 200-7,34.73919954,127.7457241
해양에너지공원,전남 진도군,전남 진도군 군내면 진도대로 8459-13,34.5707173,126.3009784
목포 국가무형문화재전수교육관,전남 목포시,전라남도 목포시 남농로 83,34.79274689,126.4159327
순천시립 그림책 도서관,전남 순천시,전라남도 순천시 도서관길 33,34.95798517,127.4860248
대나무 건강나라,전남 담양군,전라남도 담양군 금성면 원율길 12,35.3525246,127.0311997
진도문화원,전남 진도군,전라남도 진도군 진도읍 진도대로 7187,34.47881463,126.2692611
한국민화뮤지엄,전남 강진군,전라남도 강진군 대구면 청자촌길 61-5,34.50867534,126.8041628
"목포문화원 (구, 호남은행)",전남 목포시,전라남도 목포시 해안로249번길 34,34.78884677,126.3861757
천관문학관,전남 장흥군,전라남도 장흥군 대덕읍 천관산문학길 160,34.51564909,126.9034541
승달문화예술회관,전남 무안군,전라남도 무안군 무안읍 창포로 8,34.99033472,126.4720301
장성문화예술회관,전남 장성군,전라남도 장성군 장성읍 문화로 110,35.30226766,126.7678846
소전미술관(진도군),전남 진도군,전라남도 진도군 진도읍 철마길 29,34.48699026,126.2646155
남포미술관,전남 고흥군,전라남도 고흥군 영남면 팔영로 1081,34.60370701,127.4572018
도화헌미술관,전남 고흥군,전라남도 고흥군 도화면 땅끝로 860-5,34.44904959,127.3265708
강진군도서관,전남 강진군,전라남도 강진군 강진읍 남문길 10,34.6405087,126.7697201
고흥문화원,전남 고흥군,전라남도 고흥군 고흥읍 고흥로 1892-67,34.61552453,127.3003191
완도어촌민속전시관,전남 완도군,전라남도 완도군 완도읍 화흥포길 149,34.30732882,126.6885571
진도무형문화재전수관,전남 진도군,전라남도 진도군 진도읍 동외1길 6-9,34.48078213,126.27002
정남진물과학관,전남 장흥군,전라남도 장흥군 장흥읍 행원강변길 20,34.686038,126.9001079
목포시립도서관,전남 목포시,전라남도 목포시 용당로160번길 32,34.80347129,126.4030654
나절로미술관,전남 진도군,전라남도 진도군 임회면 진도대로 3886,34.38278134,126.2184684
광양시문화예술회관,전남 광양시,전라남도 광양시 광양읍 향교길 9-30,34.97994433,127.5875069
함평군립미술관,전남 함평군,전라남도 함평군 함평읍 곤재로 27,35.05618874,126.5199494
담양문화원,전남 담양군,전라남도 담양군 담양읍 죽향문화로 35,35.30934367,126.9764088
고흥분청문화박물관,전남 고흥군,전라남도 고흥군 두원면 분청문화박물관길 99,34.62782423,127.3244711
아트센터 대담,전남 담양군,전라남도 담양군 담양읍 언골길 5-4,35.32531625,126.9834517
곡성문화원,전남 곡성군,전라남도 곡성군 곡성읍 곡성로 855,35.28142166,127.2981783
장성문화원,전남 장성군,전라남도 장성군 장성읍 문화로 110,35.30226766,126.7678846
영광군립도서관,전남 영광군,전라남도 영광군 영광읍 중앙로 228-16,35.27922472,126.5157872
한국압화박물관,전남 구례군,전라남도 구례군 구례읍 동산1길 29,35.19664998,127.4599106
강강술래 전수관,전남 해남군,전라남도 해남군 문내면 관광레저로 12,34.57264891,126.310144
순천만문학관,전남 순천시,전라남도 순천시 무진길 130,34.89476086,127.5155486
신안문화원,전남 목포시,전라남도 목포시 수강로3번길 14,34.78445995,126.3849638
방촌유물전시관,전남 장흥군,전라남도 장흥군 관산읍 장흥대로 1645,34.55098982,126.9432525
광양문화원,전남 광양시,전라남도 광양시 광양읍 매천로 829,34.9757671,127.5859802
한천농악전수회관,전남 화순군,전라남도 화순군 동복면 김삿갓로 720,35.05959064,127.1299707
장흥문화원,전남 장흥군,전라남도 장흥군 장흥읍 읍성로 96,34.67667645,126.8982389
우도농악전수관,전남 영광군,전라남도 영광군 영광읍 물무로1길 11,35.27860155,126.5050555
함평문화원,전남 함평군,전라남도 함평군 함평읍 기산길 163-16,35.07181484,126.5187834
영암문화원,전남 영암군,전라남도 영암군 영암읍 교동로 55,34.79698141,126.69116
완도문화원,전남 완도군,전라남도 완도군 완도읍 개포로159번길 44,34.32310664,126.7433758
무안문화원,전남 무안군,전라남도 무안군 무안읍 창포로 8,34.99033472,126.4720301
고산유물전시관,전남 해남군,전라남도 해남군 해남읍 녹우당길 135,34.55101668,126.6219247
해남문화원,전남 해남군,전라남도 해남군 해남읍 수성4길 2,34.57355055,126.6004468
영광문화원,전남 영광군,전라남도 영광군 영광읍 중앙로 228-16,35.27922472,126.5157872
여수시청소년수련관,전남 여수시,전라남도 여수시 학동서4길 58-26,34.76273664,127.6585827
구례향제줄풍류전수관,전남 구례군,전라남도 구례군 구례읍 봉성산길 16,35.20840816,127.462755
낙죽장도 전시관,전남 곡성군,전라남도 곡성군 목사동면 공북길 11-19,35.12504169,127.2639187
구례문화원,전남 구례군,전라남도 구례군 구례읍 양정2길 11,35.20712145,127.4712978
고산 윤선도 문학체험공원,전남 완도군,전라남도 완도군 보길면 부황길 87,34.1617004,126.5545839
난전시관,전남 목포시,전라남도 목포시 유달로 180,34.79142993,126.3759183
화순문화원,전남 화순군,전라남도 화순군 화순읍 대교로 7,35.06377423,126.9801142
강진문화원,전남 강진군,전라남도 강진군 강진읍 영랑로1길 9,34.63817527,126.7704992
조태일시문학기념관,전남 곡성군,전라남도 곡성군 죽곡면 태안로 622-38,35.13351552,127.3685947
GS칼텍스 예울마루,전남 여수시,전라남도 여수시 예울마루로 100,34.75061691,127.6654089
한국초콜릿연구소뮤지엄곡성지점,전남 곡성군,전라남도 곡성군 오곡면 기차마을로 232,35.27753157,127.3082867
신안 갯벌센터,전남 신안군,전라남도 신안군 증도면 지도증도로 1766-15,34.96455234,126.1359305
