name,region,address,lat,lon
충주세계무술박물관,충북 충주시,충청북도 충주시 남한강로 24,36.98783035,127.9055711
난계국악박물관,충북 영동군,충청북도 영동군 심천면 국악로 9,36.21019414,127.7049504
오대호아트팩토리,충북 충주시,충청북도 충주시 앙성면 가곡로 1434,37.09419009,127.7945155
단양 다누리아쿠아리움,충북 단양군,충청북도 단양군 단양읍 수변로 111,36.98541064,128.3707519
술박물관 리쿼리움,충북 충주시,충청북도 충주시 중앙탑면 탑정안길 12,37.01850597,127.8656335
공군박물관,충북 청주시,충청북도 청주시 상당구 남일면 단재로 635,36.579854,127.527878
충주고구려비전시관,충북 충주시,충청북도 충주시 중앙탑면 감노로 2319,37.02829102,127.8482537
충주고구려천문과학관,충북 충주시,충청북도 충주시 중앙탑면 묘곡내동길 100,37.04031896,127.8484155
진천 종박물관,충북 진천군,충청북도 진천군 진천읍 백곡로 1504-12,36.87002892,127.4131749
운보의 집,충북 청주시,충청북도 청주시 청원구 내수읍 형동2길 92-41,36.69193256,127.5650627
수몰역사관,충북 제천시,충청북도 제천시 청풍면 청풍호로 2048,37.00404832,128.1733828
국립청주박물관 어린이박물관,충북 청주시,충청북도 청주시 상당구 명암로 143,36.64966894,127.5120091
철박물관,충북 음성군,충청북도 음성군 감곡면 영산로 360,37.09116101,127.6497515
충주박물관,충북 충주시,충청북도 충주시 중앙탑면 중앙탑길 112-28,37.01668468,127.8651266
정지용 문학관,충북 옥천군,충청북도 옥천군 옥천읍 향수길 56,36.31493739,127.5816082
청주백제유물전시관,충북 청주시,충청북도 청주시 흥덕구 1순환로438번길 9,36.65216374,127.4690007
수양개선사유물전시관,충북 단양군,충청북도 단양군 적성면 수양개유적로 390,36.96046466,128.3324648
국립현대미술관(청주관),충북 청주시,충청북도 청주시 청원구 상당로 314,36.65619563,127.4923824
정크아트갤러리(오대호 스튜디오),충북 음성군,충청북도 음성군 음성읍 가섭길 219,36.96025377,127.6999297
괴산한지체험박물관,충북 괴산군,충청북도 괴산군 연풍면 원풍로 233,36.78543887,128.0148999
증평민속체험박물관,충북 증평군,충청북도 증평군 증평읍 둔덕길 89,36.7638886,127.5955694
국립청주박물관,충북 청주시,충청북도 청주시 상당구 명암로 143,36.64966894,127.5120091
오장환문학관,충북 보은군,충청북도 보은군 회인면 회인로5길 12,36.49335597,127.5964464
솔향공원,충북 보은군,충청북도 보은군 속리산면 속리산로 600,36.49920811,127.8027076
제천문화회관,충북 제천시,충청북도 제천시 의림대로6길 32,37.13047926,128.2106102
한독의약박물관,충북 음성군,충청북도 음성군 대소면 대풍산단로 78,36.97056729,127.465316
의림지 역사박물관,충북 제천시,충청북도 제천시 의림대로47길 7,37.17611849,128.2095034
한국잠사박물관(청주),충북 청주시,충청북도 청주시 흥덕구 강내면 청주역로 213-52,36.63936808,127.3822358
조동리 선사유적 박물관,충북 충주시,충청북도 충주시 동량면 조동1길 15,37.02641914,127.9618654
청주시립대청호미술관,충북 청주시,충청북도 청주시 상당구 문의면 대청호반로 721,36.50711307,127.4937195
박정우 염색갤러리,충북 제천시,충청북도 제천시 청풍면 문화재길 30,37.00441876,128.1735711
능강솟대문화공간,충북 제천시,충청북도 제천시 수산면 옥순봉로 1100,36.98166515,128.2008213
충주시택견원,충북 충주시,충청북도 충주시 중원대로 3324,36.96502318,127.9264005
제천의병전시관,충북 제천시,충청북도 제천시 봉양읍 의암로 566-7,37.09959081,128.0876169
제천기적의도서관,충북 제천시,충청북도 제천시 용두천로38길 30,37.15525402,128.2200645
청주예술의전당,충북 청주시,충청북도 청주시 서원구 흥덕로 69,36.64209963,127.4696761
충주 민물고기전시관,충북 충주시,충청북도 충주시 충주호수로 423,37.01828458,127.9656416
충북문화관,충북 청주시,충청북도 청주시 상당구 대성로122번길 67,36.63732942,127.4954803
감우재전승기념관,충북 음성군,충청북도 음성군 음성읍 소여리,36.94223521,127.6529808
음성문화예술회관,충북 음성군,충청북도 음성군 음성읍 예술로 102,36.9315225,127.6806046
수안보곤충박물관,충북 충주시,충청북도 충주시 수안보면 관동길 152,36.85440938,128.0000354
한국교원대학교 교육박물관,충북 청주시,충청북도 청주시 흥덕구 강내면 태성탑연로 250,36.6056652,127.3573247
호암공원생태전시관,충북 충주시,충청북도 충주시 상아배이길 84,36.96045033,127.9224539
충주커피박물관,충북 충주시,충청북도 충주시 살미면 월악로 432,36.90496824,128.0141819
음성 향토민속자료전시관,충북 음성군,충청북도 음성군 음성읍 설성공원길 10-7,36.93129655,127.6916111
반기문 기념관,충북 음성군,충청북도 음성군 원남면 행치길 17-1,36.89226999,127.6646427
영동군 난계국악당,충북 영동군,충청북도 영동군 영동읍 성안길 11,36.17591836,127.7712217
호암예술관,충북 충주시,충청북도 충주시 중원대로 3306,36.96271929,127.9269064
증평문화원,충북 증평군,충청북도 증평군 증평읍 문화로 75,36.78661528,127.5900236
영동문화원,충북 영동군,충청북도 영동군 영동읍 영동천2길 29,36.17258808,127.7774154
충북학생교육문화원,충북 청주시,충청북도 청주시 청원구 공항로287번길 56,36.68294442,127.4796354
예뿌리민속박물관,충북 청주시,충청북도 청주시 상당구 가덕면 금거1길 10,36.58283334,127.5978789
시네마360,충북 제천시,충북 제천시 청풍면 물태리 산6-29 제천청풍호반케이블카 2층,37.001532,128.166611
매괴박물관,충북 음성군,충청북도 음성군 감곡면 성당길 10,37.12244452,127.6413377
성마루미술관,충북 충주시,충청북도 충주시 대소원면 장성길 38-1,36.96136388,127.838825
농민문학기념관,충북 영동군,충청북도 영동군 매곡면 노천2길 5-1,36.18884401,127.9298775
음성문화원,충북 음성군,충청북도 음성군 음성읍 수정로 36,36.93420893,127.6903844
단양문화원,충북 단양군,충청북도 단양군 단양읍 중앙1로 32,36.98555614,128.3682771
옥천문화원,충북 옥천군,충청북도 옥천군 옥천읍 관성로 35,36.30209032,127.5731251
한운사기념관,충북 괴산군,충청북도 괴산군 청안면 청안읍내로6길 3,36.77424989,127.637684
충주시립도서관,충북 충주시,충청북도 충주시 예성로 207,36.9747798,127.9338063
무심갤러리,충북 청주시,충청북도 청주시 서원구 사직대로 175,36.63566579,127.4670081
괴산문화원,충북 괴산군,충청북도 괴산군 괴산읍 읍내로 268,36.807111,127.793765
제천시립도서관,충북 제천시,충청북도 제천시 내제로 318,37.14506338,128.2201357
지적박물관,충북 제천시,충청북도 제천시 금성면 양월로 34,37.07610652,128.1976841
충주문화원,충북 충주시,충청북도 충주시 탄금대안길 33,36.98697749,127.8984696
김재옥교사기념관,충북 충주시,충청북도 충주시 신니면 신덕로 301,37.0034506,127.686075
보은문화원,충북 보은군,충청북도 보은군 보은읍 뱃들로 54,36.48694626,127.7241379
춘추민속관,충북 옥천군,충청북도 옥천군 옥천읍 향수3길 19,36.3144645,127.5798927
옥천문화예술회관,충북 옥천군,충청북도 옥천군 옥천읍 문정1길 32,36.30376019,127.5741229
제천문화원,충북 제천시,충청북도 제천시 의림대로 125,37.13923321,128.210774
청주문화원,충북 청주시,충청북도 청주시 상당구 단재로 361,36.59858685,127.5057752
우륵당,충북 충주시,충청북도 충주시 중원대로 3324,36.96502318,127.9264005
진천향토민속자료전시관,충북 진천군,충청북도 진천군 진천읍 문진로 1323,36.84730067,127.4205905
청원문화원,충북 청주시,충청북도 청주시 상당구 단재로 361,36.59858685,127.5057752
충주과수과학관,충북 충주시,충청북도 충주시 동량면 충원대로 1346,37.04521916,127.9289446
환경문화전시장,충북 괴산군,충청북도 괴산군 청천면 괴산로 1248,36.65503442,127.7454849
충청북도자연과학교육원 과학전시관,충북 청주시,충청북도 청주시 상당구 대성로 150,36.63856953,127.4926603
진천문화원,충북 진천군,충청북도 진천군 진천읍 문화로 79,36.85002635,127.4398768
주철장 전수교육관,충북 진천군,충청북도 진천군 진천읍 장관리,36.87166333,127.4256601
생거판화 미술관,충북 진천군,충청북도 진천군 진천읍 백곡로 1504-12,36.87002892,127.4131749
향산리 미술촌,충북 충주시,충청북도 충주시 살미면 팔봉향산길 489,36.92663589,127.9340262
김종명 나뭇잎 예술 갤러리,충북 제천시,충청북도 제천시 봉양읍 배론성지길 36,37.15842456,128.1060385
청주시한국공예관,충북 청주시,충청북도 청주시 청원구 상당로 314,36.65619563,127.4923824
