name,region,address,lat,lon
(구)태백등기소,강원 태백시,강원도 태백시 하장성 1길 14,37.1026154,129.0209725
365세이프타운,강원 태백시,강원도 태백시 평화길 15,37.1004919,129.0242694
38평화마을,강원 양양군,강원도 양양군 현북면 쟁기동길 78-1,38.0000925,128.7252592
38해변,강원 양양군,강원도 양양군 현북면 기사문길 29,38.0077853,128.7300437
643고지전투전적비,강원 화천군,강원도 화천군 화천읍 동촌리,38.1595324,127.8274425
88공원,강원 화천군,강원도 화천군 간동면 어룡동길 42-50,38.0967406,127.7639242
DMZ 생태평화공원,강원 철원군,강원도 철원군 김화읍 생창길 481-1,38.2810896,127.4512843
DMZ 안보견학,강원 철원군,강원도 철원군 동송읍 태봉로 1825,38.1865639,127.2874501
DMZ산림두드림센터,강원 양구군,강원도 양구군 양구읍 박수근로 367,38.1009086,127.9815496
DMZ펀치볼둘레길,강원 양구군,강원도 양구군 해안면 후리 621번지,38.3264403,128.1429725
MS 빌리지 (푸른계곡 관광농원),강원 양양군,강원도 양양군 서면 관대문길 31,38.0749522,128.4969216
가령폭포,강원 홍천군,강원 홍천군 내촌면 와야리,37.8207103,128.1565571
가리산(홍천),강원 홍천군,강원도 홍천군 두촌면 가리산길 260-9,37.8543375,127.9986807
가리산자연휴양림,강원 홍천군,강원도 홍천군 두촌면 가리산길 426,37.865235,127.9824687
가리왕산,강원 정선군,강원도 정선군 정선읍 가리왕산로 707,37.4222352,128.5753619
가산공원,강원 평창군,강원도 평창군 봉평면 창동리 544,37.6124893,128.3700337
가시오가피마을 홍보관,강원 삼척시,강원도 삼척시 노곡면 문의재로 2470,37.2665305,129.1792253
가야동계곡,강원 인제군,강원도 인제군 북면 용대리,38.1889599,128.3620908
가원습지 생태자연공원,강원 동해시,강원도 동해시 지가길 100,37.4720361,129.1090829
가족올래 하추리마을,강원 인제군,강원도 인제군 인제읍 하추로 187,38.0196511,128.2816555
가진항,강원 고성군,강원도 고성군 죽왕면,38.3288177,128.5255585
가진해변,강원 고성군,강원도 고성군 죽왕면 가진해변길,38.3714732,128.5069053
가칠봉 지구전투전적지,강원 양구군,강원도 양구군 해안면,38.2851823,128.1372421
간성향교,강원 고성군,강원도 고성군 간성읍 진부령로 2659,38.3243006,128.3894987
간현관광지,강원 원주시,강원도 원주시 지정면 소금산길 26,37.3650197,127.8322846
갈골한과마을 명인의 집,강원 강릉시,강원도 강릉시 사천면 중앙서로 62,37.8245117,128.8432331
갈남항,강원 삼척시,강원도 삼척시 원덕읍 갈남리,37.262955,129.3208155
갈천계곡,강원 양양군,강원도 양양군 서면 갈천리,37.9084594,128.5092155
갈천약수터,강원 양양군,강원도 양양군 서면 구룡령로 1103-66,37.9612452,128.525577
감성마을 이외수 문학관,강원 화천군,강원도 화천군 상서면 감성마을길 157,38.1665469,127.5163002
감악산(원주),강원 원주시,강원도 원주시 신림면 황둔리,37.2529865,128.1580041
감자꽃 스튜디오,강원 평창군,강원도 평창군 평창읍 고길천로 105,37.3686001,128.438637
감추사,강원 동해시,강원도 동해시 대동로 210,37.492385,129.1337869
감추해변,강원 동해시,강원도 동해시 해안로 120,37.5146823,129.1265137
강릉 경포대,강원 강릉시,강원도 강릉시 경포로 365,37.7950754,128.896598
강릉 경포해수욕장,강원 강릉시,강원도 강릉시 창해로 514,37.8057795,128.9074169
강릉 구라미온천,강원 강릉시,강원도 강릉시 사천면 구라미등길 25-15,37.8435412,128.8396741
강릉 굴산사지,강원 강릉시,강원도 강릉시 구정면 학산리,37.7088188,128.890621
강릉 녹색도시체험센터,강원 강릉시,강원도 강릉시 강릉대로 33,37.7519739,128.8758298
강릉 대공산성,강원 강릉시,강원도 강릉시 성산면 보광리,37.74729,128.7825188
강릉 대기리마을,강원 강릉시,강원도 강릉시 왕산면 용수길,37.6005154,128.7982142
강릉 대도호부 관아,강원 강릉시,강원도 강릉시 임영로131번길 6,37.7531104,128.8917655
강릉 명주동 거리,강원 강릉시,강원도 강릉시 명주동,37.7507099,128.8914359
강릉 모래내 한과마을(갈골한과),강원 강릉시,강원도 강릉시 사천면 한과마을길 20,37.8138007,128.8328283
강릉 복사꽃마을,강원 강릉시,강원도 강릉시 주문진읍 신리천로 527-3,37.8800774,128.7771491
강릉 선교장,강원 강릉시,강원도 강릉시 운정길 63,37.7865935,128.8851277
강릉 솔향수목원,강원 강릉시,강원도 강릉시 구정면 구정중앙로 92-177,37.7081603,128.8685909
강릉 심상진가옥,강원 강릉시,강원도 강릉시 운정길 125,37.7861329,128.8912551
강릉 예술창작인촌,강원 강릉시,강원도 강릉시 죽헌길 140-12,37.7782841,128.8801178
강릉 월화거리,강원 강릉시,강원도 강릉시 경강로 2111,37.7562073,128.8969844
강릉 이광노가옥,강원 강릉시,강원도 강릉시 난설헌로193번길 1-16,37.7919383,128.9092743
강릉 임영관 삼문,강원 강릉시,강원도 강릉시 임영로131번길 6,37.7531104,128.8917655
강릉 통일공원,강원 강릉시,강원도 강릉시 강동면 율곡로 1616,37.7067534,129.0109857
강릉 한울타리마을,강원 강릉시,강원도 강릉시 옥계면 풍동로 406,37.6176041,128.9916828
강릉 해살이마을,강원 강릉시,강원도 강릉시 사천면 중앙서로 557-1,37.7925572,128.8109115
강릉 해운정,강원 강릉시,강원도 강릉시 운정길 125,37.7861329,128.8912551
강릉시립미술관,강원 강릉시,강원도 강릉시 임영로 219-7,37.7605338,128.8908219
강릉시청행정역사관,강원 강릉시,강원도 강릉시 강릉대로 33,37.7519739,128.8758298
강릉안목해맞이공원,강원 강릉시,강원도 강릉시 견소동,37.7723797,128.9415613
강릉커피거리,강원 강릉시,강원도 강릉시 창해로14번길 20-1,37.7725933,128.9472775
강릉항,강원 강릉시,강원도 강릉시 창해로14번길 51-26,37.772669,128.9512961
강릉향교,강원 강릉시,강원도 강릉시 명륜로 29,37.7634,128.895101
강문해변,강원 강릉시,강원도 강릉시 창해로 352,37.7948321,128.9182433
강변저류지,강원 영월군,강원도 영월군 영월읍 방절리 263-4,37.1804413,128.4486534
강변저류지 홍보관,강원 영월군,강원도 영월군 영월읍 하송로 44,37.1842043,128.4634341
강원 경찰충혼탑,강원 춘천시,강원도 춘천시 서면 박사로 1210,37.9174902,127.6954023
강원 영월 김삿갓 [슬로시티],강원 영월군,강원도 영월군 김삿갓면 옥동장터길 36,37.1255477,128.5701826
강원고생대국가지질공원,강원 정선군,강원도 정선군 정선읍 봉양3길 21,37.3805051,128.6608685
강원도 자연환경연구공원,강원 홍천군,강원도 홍천군 북방면 생태공원길 319,37.7540969,127.8518909
강원도 탄광문화촌,강원 영월군,강원도 영월군 북면 밤재로 351,37.2633229,128.4672094
강원도립화목원,강원 춘천시,강원도 춘천시 화목원길 24,37.9233946,127.724438
강원숲체험장,강원 춘천시,강원도 춘천시 서면 삿갓봉길 102,37.96267,127.659797
강원참숯,강원 횡성군,강원도 횡성군 갑천면 정포로 327,37.5290282,128.1011376
강재구공원,강원 홍천군,강원도 홍천군 북방면 성동로 275,37.7648969,127.8609604
강촌 출렁다리공원,강원 춘천시,강원도 춘천시 남산면 강촌리 671-5,37.8014567,127.6154176
강촌랜드,강원 춘천시,강원도 춘천시 남산면 강촌로 88,37.8112764,127.6352026
강촌유원지,강원 춘천시,강원도 춘천시 남산면 강촌로 34,37.8157948,127.6325
강촌환경생태연못,강원 춘천시,강원도 춘천시 남산면 강촌리 447 일원,37.8014567,127.6154176
개미들마을,강원 정선군,강원도 정선군 남면 광락로 354,37.3189813,128.6926878
갯마을해변,강원 양양군,강원도 양양군 현남면 안남애길 48,37.9448392,128.7854593
거문산,강원 평창군,강원도 평창군 신리,37.5489326,128.4646237
거진 등대,강원 고성군,강원도 고성군 거진읍 거탄진로209번길,38.4488017,128.4636397
거진11리해변,강원 고성군,강원도 고성군 거진읍 거진항길,38.44661,128.4561051
거진1리해변,강원 고성군,강원도 고성군 거진읍 거탄진로,38.4436442,128.4530379
거진등대해맞이공원,강원 고성군,강원도 고성군 거진읍 거탄진로209번길 19,38.4498645,128.4631809
거진항,강원 고성군,강원도 고성군 거진읍 거진항1길 62-3,38.4456504,128.4616922
거칠현,강원 정선군,강원도 정선군 남면 낙동리,37.3246961,128.7037642
건봉다시마장산지,강원 고성군,강원도 고성군 간성읍 건봉사로 386,38.387118,128.4086813
건봉사,강원 고성군,강원도 고성군 거진읍 건봉사로 723,38.4021773,128.3799855
건봉사 능파교,강원 고성군,강원도 고성군 건봉사로 723,38.4021773,128.3799855
건봉사 불이문,강원 고성군,강원도 고성군 거진읍 건봉사로 723,38.4021773,128.3799855
건봉사지,강원 고성군,강원도 고성군 거진읍 건봉사로,38.427697,128.4074352
검룡소 (강원고생대 국가지질공원),강원 태백시,강원도 태백시 창죽동,37.236246,128.9587665
검무정골 생태문화탐방로,강원 양구군,강원도 양구군 양구읍 군량리,38.1560653,127.956192
검봉산자연휴양림,강원 삼척시,강원도 삼척시 원덕읍 임원안길 525-145,37.2381464,129.3006813
경원선 철도중단점 (백마고지역),강원 철원군,강원도 철원군 철원읍 평화로 3591,38.2578145,127.1667173
경천묘,강원 원주시,강원도 원주시 귀래면 미륵산길 200,37.1834399,127.8645272
경포가시연습지,강원 강릉시,강원도 강릉시 운정동 670,37.7889672,128.8971021
경포도립공원,강원 강릉시,강원도 강릉시 사천면 산284-1,37.8235253,128.848694
경포솔향온천,강원 강릉시,강원도 강릉시 해안로 292,37.7912645,128.9200408
경포호(철새도래지),강원 강릉시,강원도 강릉시 경포로 365,37.7950754,128.896598
계방산(평창),강원 평창군,강원도 평창군 용평면 운두령로 1243,37.7071256,128.4445405
계방산(홍천),강원 홍천군,강원도 홍천군 내면 대한동길 363-8,37.7588499,128.4209531
계조암(속초),강원 속초시,강원도 속초시 설악동,38.1681813,128.4769101
계족산(영월),강원 영월군,강원도 영월군 영월읍 정양리 451,37.1617605,128.4968879
계촌마을,강원 평창군,강원도 평창군 방림면 계촌길 101,37.4523922,128.3059982
고고산,강원 영월군,강원도 정선군 신동읍 고림길,37.2298203,128.6043593
고돌이보물섬,강원 홍천군,강원도 홍천군 북방면 굴지강변로 579,37.708618,127.7961028
고라데이마을,강원 횡성군,강원도 횡성군 청일면 봉명로 375-1,37.6485896,128.1396223
고로쇠마을,강원 인제군,강원도 인제군 상남면 미산리,37.8619486,128.3474284
故박정렬여사 추모공원,강원 홍천군,강원도 홍천군 내면 솔무치길,37.7451173,128.3789368
고불개해변,강원 동해시,강원도 동해시 한섬해안길 104,37.527681,129.1217391
고생대 화석산지,강원 태백시,강원도 태백시 혈동 사내골 노두,,
고석정 (한탄강 국가지질공원),강원 철원군,강원도 철원군 동송읍 태봉로 1825,38.1865639,127.2874501
고석정 및 순담,강원 철원군,강원도 철원군 동송읍 태봉로 1825,38.1865639,127.2874501
고석정국민관광지,강원 철원군,강원도 철원군 동송읍 태봉로 1825,38.1865639,127.2874501
고성 문암리 유적,강원 고성군,강원도 고성군 죽왕면 문암진리,38.3027743,128.5421096
고성 어명기 고택,강원 고성군,강원도 고성군 죽왕면 봉수대길 131-7,38.3145538,128.5179625
고성 왕곡마을,강원 고성군,강원도 고성군 죽왕면 왕곡마을길 35,38.3402558,128.4999524
고성 제3기 현무암 (강원평화지역 국가지질공원),강원 고성군,강원도 고성군 토성면 뒷골길 60,38.2834948,128.5058885
고성 통일전망타워,강원 고성군,강원도 고성군 현내면 금강산로 481,38.5145523,128.4167773
고성DMZ,강원 고성군,강원도 고성군 현내면 금강산로 481,38.5145523,128.4167773
고씨굴 (강원고생대 국가지질공원),강원 영월군,강원도 영월군 김삿갓면 영월동로 1117,37.130865,128.5356494
고씨동굴,강원 영월군,강원도 영월군 김삿갓면 영월동로 1117,37.130865,128.5356494
고원통계곡,강원 인제군,강원도 인제군 북면 원통리,38.1209424,128.219331
고진하 가옥,강원 영월군,강원도 영월군 남면 원골길 170-9,37.1741415,128.3868107
고천마을,강원 삼척시,강원도 삼척시 미로면 고천길 6,37.4180968,129.062474
고포마을,강원 삼척시,강원 삼척시 원덕읍 월천리,37.1566517,129.3440299
곡운구곡 (강원평화지역 국가지질공원),강원 화천군,강원도 화천군 사내면 용담리,38.0630063,127.5527465
곤충농장 벅스팜,강원 원주시,강원도 원주시 귀래면 북원로 563-14,37.2092203,127.890644
곤충마을박물관,강원 원주시,강원도 원주시 지정면 간현로 10,37.3557038,127.844614
공수전계곡,강원 양양군,강원도 양양군 서면 용소길 35,38.0360671,128.5578268
공수전리 마을관리휴양지,강원 양양군,강원도 양양군 서면 구룡령로 2829-7,38.0368457,128.5594245
공작산,강원 홍천군,강원도 홍천군 동면,37.6780457,127.9350675
공지천 조각공원,강원 춘천시,강원도 춘천시 이디오피아길 25,37.8748345,127.7092156
공지천(황금비늘테마거리),강원 춘천시,강원도 춘천시 이디오피아길 25,37.8748345,127.7092156
공현진1리해변,강원 고성군,강원도 고성군 죽왕면,38.3288177,128.5255585
공현진항,강원 고성군,강원도 고성군 죽왕면 공현진리 431-13,38.3555395,128.5128711
관음굴(삼척 대이리 동굴지대),강원 삼척시,강원도 삼척시 신기면 환선로 557,37.3295704,129.0438343
관음변상탱화,강원 평창군,강원도 평창군 진부면 오대산로 374-8,37.7319381,128.5928851
관음사/국형사계곡,강원 원주시,강원 원주시 행구동,37.3412674,128.0127368
광대곡,강원 정선군,강원도 정선군 화암면 광대곡길,37.3146789,128.8151349
광덕계곡,강원 화천군,강원도 화천군 사내면 포화로 582,38.0762862,127.4817244
광덕산(화천),강원 화천군,강원도 화천군 사내면,38.0701429,127.5234236
광주동솔밭,강원 인제군,강원도 인제군 상남면 하남리,37.9121275,128.2795501
광진해변,강원 양양군,강원도 양양군 현남면 광진리,37.9566959,128.7669653
광치계곡,강원 양구군,강원도 양구군 남면,38.1084951,128.0345682
광치자연휴양림,강원 양구군,강원도 양구군 남면 광치령로1794번길 265,38.1433534,128.0712748
괘병산(정선),강원 정선군,강원도 정선군 임계면 내도전길,37.492379,128.9101825
교암항,강원 고성군,강원도 고성군 토성면 교암리 151-10,38.277384,128.5295821
교암해변,강원 고성군,강원도 고성군 토성면,38.2571927,128.558578
구 조선식산은행 원주지점,강원 원주시,강원도 원주시 중앙로 88,37.3489809,127.9515123
구 철원제2금융조합 건물지,강원 철원군,강원도 철원군 철원읍 외촌리 596,38.2700107,127.197628
구 철원제일교회,강원 철원군,강원도 철원군 철원읍 금강산로 319,38.2502968,127.2033996
구곡폭포,강원 춘천시,"	강원도 춘천시 남산면",37.791794,127.646139
구룡사,강원 원주시,강원도 원주시 소초면 구룡사로 500,37.3994538,128.0497763
구룡산(강원),강원 영월군,강원도 영월군 무릉도원면 운학리 1111-5,37.3514542,128.1973118
구룡폭포(소금강),강원 강릉시,강원도 강릉시 연곡면 소금강길 500,37.8135796,128.7044652
구만동계곡,강원 인제군,강원도 인제군 북면 용대리,38.1889599,128.3620908
구문소 (강원고생대 국가지질공원),강원 태백시,강원도 태백시 태백로 2249,37.0949058,129.039566
구문소마을,강원 태백시,강원도 태백시 사군드리길 7,37.0864105,129.0251596
구미정,강원 정선군,강원도 정선군 임계면 봉산리,37.4845886,128.8469724
구봉대산,강원 영월군,강원도 영월군 무릉도원면 무릉법흥로 1229,37.3649031,128.2717219
구봉산,강원 춘천시,강원도 춘천시 동면 순환대로 1154-115,37.8931967,127.7770461
구봉산 전망대 카페거리,강원 춘천시,강원도 춘천시 동면 순환대로 1154-113,37.8928159,127.77678
구성폭포 (구송폭포),강원 춘천시,강원도 춘천시 북산면 오봉산길 674,37.9791944,127.8169456
구은사,강원 철원군,강원도 철원군 근남면 호국로 7003-23,38.2554135,127.4737591
국립 가리왕산자연휴양림,강원 정선군,강원도 정선군 정선읍 가리왕산로 707,37.4222352,128.5753619
국립 대관령자연휴양림,강원 강릉시,강원 강릉시 성산면 어흘리 삼포암길 133,37.7144152,128.7848205
국립 두타산자연휴양림,강원 평창군,강원도 평창군 진부면 아차골길 132,37.5624818,128.5718227
국립 미천골자연휴양림,강원 양양군,강원도 양양군 서면 미천골길 168-16,37.9452478,128.5140339
국립 방태산자연휴양림,강원 인제군,강원도 인제군 기린면 방태산길 377,37.9277833,128.3954116
국립 백운산자연휴양림(원주),강원 원주시,강원도 원주시 판부면 백운산길 81,37.2770994,127.9421099
국립 복주산자연휴양림,강원 철원군,강원도 철원군 근남면 하오재로 818,38.1437219,127.4732264
국립 삼봉자연휴양림,강원 홍천군,강원도 홍천군 내면 삼봉휴양길 276,37.8653279,128.4641762
국립 용대자연휴양림,강원 인제군,강원도 인제군 북면 용대리 연화동길,38.2228256,128.3354433
국립 용화산자연휴양림,강원 춘천시,강원도 춘천시 사북면 사여골길 294,38.0113477,127.7603378
국립 청태산자연휴양림,강원 횡성군,강원도 횡성군 둔내면 청태산로 610,37.5228883,128.2906779
국립대관령치유의숲,강원 강릉시,강원도 강릉시 성산면 대관령옛길 127-42,37.7107795,128.7968291
국립축산과학원 한우연구소,강원 평창군,강원도 평창군 대관령면 경강로 4937,37.6902948,128.6783117
국립횡성숲체원,강원 횡성군,강원도 횡성군 둔내면 청태산로 777,37.5370539,128.2885592
국순당 주향로,강원 횡성군,강원도 횡성군 둔내면 강변로 975,37.4896791,128.1967363
국제 평화 아트 파크,강원 화천군,강원도 화천군 화천읍 평화로 3518,38.1146496,127.7550448
국지산,강원 영월군,강원도 영월군 남면 국지골길,37.1290034,128.4369458
국토정중앙천문대,강원 양구군,강원도 양구군 남면 국토정중앙로 127,38.0688458,128.0298692
국형사,강원 원주시,강원도 원주시 고문골길 155,37.3343506,128.0134597
군탄공원,강원 철원군,강원도 철원군 갈말읍 삼부연로 51,38.1465863,127.3125449
군탄공원과 전역비,강원 철원군,강원도 철원군 갈말읍 호국로 4914-27,38.1641281,127.316353
궁촌항,강원 삼척시,강원도 삼척시 근덕면 궁촌리,37.2714789,129.2402328
궁촌해변(궁촌해수욕장),강원 삼척시,강원도 삼척시 근덕면 궁촌해변길 65,37.3238399,129.2670925
그린에너지 산업관광 비지터센터,강원 영월군,강원도 영월군 영월읍 팔괴1농공단지길,37.1547513,128.4673927
극락암(강원),강원 고성군,강원도 고성군 간성읍 교동2길 26,38.3804655,128.4395447
글로리아 허브리조트,강원 횡성군,강원도 횡성군 갑천면 갑천로872번길 148,37.5120393,128.1762642
금강굴,강원 속초시,강원도 속초시 설악산로 1091,38.1730998,128.4890543
금강사(강릉),강원 강릉시,강원도 강릉시 연곡면 소금강길 670,37.8061422,128.6900686
금강산전기철도교량,강원 철원군,강원도 철원군 김화읍 도창리,38.2831836,127.3765427
금강정,강원 영월군,강원도 영월군 영월읍 금강공원길 136,37.1854819,128.4784529
금당계곡,강원 평창군,강원도 평창군 대화면 금당계곡로 766-2,37.482438,128.3941961
금당산,강원 평창군,강원도 평창군 대화면 신리,37.5489326,128.4646237
금대계곡,강원 원주시,강원 원주시 판부면 금대리,37.274738,128.0149853
금대봉야생화 군락지,강원 태백시,강원도 태백시 창죽동 산 1-1 삼수동 일대,37.236246,128.9587665
금란정,강원 동해시,강원도 동해시 삼화로 538,37.4634633,129.0193739
금몽암,강원 영월군,강원도 영월군 영월읍 보덕사길 112,37.2046422,128.4565879
금연저수지,강원 철원군,강원도 철원군 동송읍 오지리,38.1750331,127.233591
금진항,강원 강릉시,강원도 강릉시 옥계면 금진리,37.6432124,129.0367071
금진해변,강원 강릉시,강원도 강릉시 옥계면 헌화로 271,37.6395086,129.0434453
금천 방립송(방갓소나무),강원 태백시,강원도 태백시 소도동,37.1145036,128.9514771
금풀애마을,강원 양양군,강원도 양양군 현북면 남대천로 1532,37.9774437,128.6535684
금학산관광농원,강원 홍천군,강원도 홍천군 북방면 팔봉산로 2050-88,37.7211641,127.7742912
기린사우나,강원 강릉시,강원도 강릉시 남부로125번길 18,37.7434915,128.893503
기마봉,강원 강릉시,강원도 강릉시 옥계면 금진리,37.6432124,129.0367071
기미만세공원,강원 홍천군,강원도 홍천군 내촌면 물걸리,37.7907986,128.1685582
기사문마을,강원 양양군,강원도 양양군 현북면 기사문길 22,38.0074392,128.73035
기사문항,강원 양양군,강원도 양양군 현북면 기사문리,38.0087793,128.7258188
기우산(정선),강원 정선군,강원도 정선군 정선읍 용담길 102-22,37.3772656,128.6537356
기후변화홍보관,강원 원주시,강원도 원주시 행구로 362,37.3427266,127.9844356
김동명문학관,강원 강릉시,강원도 강릉시 사천면 샛돌1길 30-2,37.8204135,128.8381184
김삿갓계곡,강원 영월군,강원도 영월군 김삿갓면,37.1256266,128.5700286
김성래가옥,강원 양양군,강원도 양양군 현남면 북분리,37.984168,128.7408492
김순자명인 김치테마파크,강원 정선군,강원도 정선군 신동읍 의림로 141-109,37.2174804,128.645439
김유정 문학촌,강원 춘천시,강원도 춘천시 신동면 김유정로 1430-14,37.8185982,127.7163956
김유정역,강원 춘천시,강원도 춘천시 신동면 증리,37.8069104,127.7251421
김응하장군 묘비,강원 철원군,"	강원도 철원군 철원읍 화지리 산 1-1",38.2243616,127.2065217
김정묘역 문인석,강원 춘천시,강원도 춘천시 칠전서길,37.8414413,127.7128366
김제남 신도비,강원 원주시,강원도 원주시 지정면 흥법사지길 18,37.3425933,127.8207796
김종길 가옥,강원 영월군,강원도 영월군 주천면 고가옥길 27,37.2706771,128.264073
김청풍부원군묘역,강원 춘천시,강원도 춘천시 서면 경춘로 667-9,37.8354842,127.6197488
김택준가옥,강원 양양군,강원도 양양군 현남면 창리길 4,37.9718042,128.7592296
김하인 아트홀 국화꽃향기,강원 고성군,강원도 고성군 죽왕면 자작도선사길 120-4,38.3072747,128.5413848
김화군민 망향탑,강원 철원군,강원도 고성군 죽왕면 가진해변길,38.3714732,128.5069053
꺼먹다리,강원 화천군,강원도 화천군 화천읍 대이리 468-3,38.1066221,127.7623086
나릿골 감성마을,강원 삼척시,강원도 삼척시 나리골길 12,37.4393332,129.1877625
낙산도립공원,강원 양양군,강원도 양양군 강현면 일출로 42,38.115976,128.6314135
낙산사,강원 양양군,강원도 양양군 강현면 낙산사로 100,38.1247862,128.6282834
낙산사 의상대,강원 양양군,강원도 양양군 강현면 낙산사로 100,38.1247862,128.6282834
낙산항,강원 양양군,강원도 양양군 강현면 전진리,38.1235071,128.6264876
낙산해수욕장,강원 양양군,강원도 양양군 강현면 해맞이길 59,38.1167945,128.6340071
낙산해안로,강원 양양군,강원도 양양군 강현면 물치천로 28,38.1533537,128.605058
낙엽송숲,강원 횡성군,강원도 횡성군 안흥면 상안리 산,37.4122429,128.2089656
난고 김삿갓 유적지,강원 영월군,강원도 영월군 김삿갓면 와석리,37.0994778,128.6211217
난포정(蘭浦亭),강원 정선군,강원도 정선군 임계면 봉산리 185,37.4824361,128.8495952
남노일 강변,강원 홍천군,강원도 홍천군 남면 남노일로,37.655229,127.7659126
남대천,강원 양양군,강원도 양양군 양양읍,38.0806344,128.6238915
남대천(강릉),강원 강릉시,강원도 강릉시 성산면 구산안길,37.7173395,128.8307557
남애어촌체험마을,강원 양양군,강원도 양양군 현남면 매바위길 127,37.944739,128.7865597
남애항,강원 양양군,강원도 양양군 현남면 매바위길,37.9429566,128.7845648
"남애해변(남애1, 3리)",강원 양양군,강원도 양양군 현남면 매호길 14,37.9539544,128.7693824
남이섬,강원 춘천시,강원도 춘천시 남산면 남이섬길 1,37.7899352,127.5258072
남전계곡,강원 인제군,강원도 인제군 남면 원남로,38.0145827,128.1704375
남전약수,강원 인제군,강원도 인제군 남면 남전리 산 145 일원,38.0068387,128.161305
남항진해변(남항진해수욕장),강원 강릉시,강원도 강릉시 공항길127번길 67,37.7639352,128.9543434
낭천산림욕장,강원 화천군,강원도 화천군 화천읍,38.104288,127.7071565
내리계곡,강원 영월군,강원도 영월군 김삿갓면 내리계곡로,37.0920176,128.7087645
내린천 포트홀 (강원평화지역 국가지질공원),강원 인제군,강원도 인제군 기린면 북리,37.9999633,128.3245016
내설악예술인촌 공공미술관,강원 인제군,강원도 인제군 북면 예술인촌길 66-12,38.1453593,128.2539366
내심적계곡,강원 인제군,강원도 인제군 서화면 심적리,38.2491204,128.1751745
내평계곡,강원 삼척시,강원도 삼척시 근덕면 내평길,37.3271945,129.235467
냉천공원,강원 동해시,강원도 강릉시 구정면 학산리,37.7088188,128.890621
노동서원,강원 홍천군,강원도 홍천군 서면 팔봉산로 1198-2,37.7120983,127.6952033
노봉해변,강원 동해시,강원도 동해시 동해대로,37.5311952,129.1068506
노인봉,강원 강릉시,강원도 강릉시 연곡면,37.8597587,128.8368017
노추산,강원 정선군,강원도 정선군 여량면 노추산로 912-2,37.5238337,128.7343797
뇌운계곡,강원 평창군,강원도 평창군 평창읍 뇌운계곡로,37.4054886,128.3667932
늘햇살 농촌체험 만우마을,강원 동해시,강원도 동해시 마상천길 308,37.5583672,129.0721193
능파대 (강원평화지역 국가지질공원),강원 고성군,강원도 고성군 죽왕면 문암진리,38.3027743,128.5421096
다물자연학교,강원 홍천군,강원도 홍천군 북방면 도사곡길 805,37.6857291,127.8054694
다이나믹 메이즈 (속초점),강원 속초시,강원도 속초시 원암학사평길 88,38.2054519,128.5171931
단경골 휴양지,강원 강릉시,강원도 강릉시 강동면 단경로 841,37.693763,128.9403758
단종대왕비,강원 태백시,강원도 태백시 태백산로 4834-31,37.1298827,128.9558128
단풍산,강원 영월군,강원도 영월군 중동면 태백산로 1833,37.1611602,128.6712336
달뜨락마을,강원 정선군,강원도 정선군 정선읍 가내길 16,37.4048065,128.593045
담정관광농원,강원 강릉시,강원도 강릉시 강동면 단경로,37.693763,128.9403758
담터계곡,강원 철원군,강원도 철원군 동송읍,38.2068404,127.2083831
당골계곡,강원 태백시,강원도 태백시 천제단길 168,37.1201314,128.9512754
당나귀체험,강원 영월군,강원도 영월군 남면 영월로 931,37.1945944,128.402223
대관령 관광특구,강원 평창군,강원도 평창군,37.370474,128.3899769
대관령 눈꽃마을,강원 평창군,강원도 평창군 대관령면 차항서녘길 27-22,37.7156121,128.676443
대관령 양떼목장,강원 평창군,강원도 평창군 대관령면 대관령마루길 483-32,37.688488,128.7527571
대관령 하늘목장,강원 평창군,강원도 평창군 대관령면 꽃밭양지길 458-23,37.7101962,128.7275601
대관령 황태덕장마을,강원 평창군,강원도 평창군 대관령면 횡계리,37.7031357,128.7209909
대교천 현무암 협곡 (한탄강 국가지질공원),강원 철원군,강원도 철원군 동송읍 장흥리,38.1949076,127.2647731
대굴령마을,강원 강릉시,강원도 강릉시 성산면 성연로 17,37.7228451,128.8151159
대금굴,강원 삼척시,강원도 삼척시 신기면 환선로 800,37.3264133,129.0210839
대금굴 (대이리 동굴지대),강원 삼척시,강원도 삼척시 신기면 환선로 800,37.3264133,129.0210839
대산계곡,강원 횡성군,강원도 횡성군 서원면 옥계리,37.4506274,127.8469961
대성산지구 전적비,강원 화천군,강원도 화천군 상서면,38.1579419,127.6542359
대승령과 대승폭포,강원 인제군,강원도 인제군 북면 설악로,38.1283259,128.2734057
대안리느티나무,강원 원주시,강원도 원주시 흥업면 금산길 42,37.2940561,127.8819425
대암산 용늪 (강원평화지역 국가지질공원),강원 인제군,강원도 인제군 북면 월학리,38.1583882,128.1839319
대진 등대,강원 고성군,강원도 고성군 현내면,38.4944203,128.4276911
대진1리해변,강원 고성군,강원도 고성군 현내면 한나루로4길 1,38.5032952,128.4235858
대진교강변 마을관리휴양지,강원 홍천군,강원도 홍천군 화촌면 구룡령로 149,37.7491016,128.005257
대진마을,강원 동해시,강원도 동해시 대진항길 46,37.5814738,129.1120777
대진항,강원 고성군,강원도 고성군 현내면,38.4944203,128.4276911
대평마을,강원 홍천군,"	강원도 홍천군 화촌면 구룡령로 149",37.7491016,128.005257
대포마을,강원 속초시,강원도 속초시 대포항1길 6-13,38.1757911,128.6072147
대포항,강원 속초시,강원도 속초시 대포항길 64,38.1749553,128.6075868
대한불교조계종 장명사(長明寺),강원 태백시,강원도 태백시 계산1길 66,37.1109519,128.9983916
덕가산,강원 영월군,강원도 영월군 김삿갓면 영월동로 1547,37.1219,128.5614868
덕고마을,강원 홍천군,강원도 횡성군 횡성읍 덕고로 410,37.4734961,128.0213694
덕산기 계곡,강원 정선군,강원도 정선군 정선읍 덕산기길,37.3720143,128.7306274
덕산항,강원 삼척시,강원도 삼척시 근덕면 덕산해안로 200-21,37.378207,129.2537621
덕산해변,강원 삼척시,강원도 삼척시 근덕면 덕산해변길 114,37.3858155,129.2409402
덕풍계곡,강원 삼척시,강원도 삼척시 가곡면 덕풍길 44,37.1223519,129.1584537
덕항산,강원 삼척시,강원도 삼척시 신기면 대기리,37.3144188,129.0380755
도경리역(삼척),강원 삼척시,강원도 삼척시 도경북길 121,37.4423218,129.1157512
도계유리마을,강원 삼척시,강원도 삼척시 도계읍 도계로 31,37.2133528,129.0385108
도사곡휴양림,강원 정선군,강원도 정선군 사북읍 지장천로 436-27,37.2256778,128.7966009
도솔산,강원 양구군,강원도 양구군 양구읍 비봉로 69,38.1081574,127.9868569
도솔산 해병대전투전적지,강원 양구군,강원도 양구군 해안면,38.2851823,128.1372421
도솔산지구전투비,강원 양구군,강원도 양구군 동면 비아리 산 1-2,38.2704421,128.0473807
도직해변,강원 강릉시,강원도 강릉시 옥계면 도직리,37.605498,129.0626627
도피안사(철원),강원 철원군,강원도 철원군 동송읍 도피동길 23,38.2400763,127.2181113
동강 (강원고생대 국가지질공원),강원 영월군,강원도 영월군 영월읍 하송로 44,37.1842043,128.4634341
동강(영월),강원 영월군,강원도 영월군 영월읍 동강로 826,37.2381285,128.5150115
동강(정선),강원 정선군,강원도 정선군 정선읍 동강로 2908,37.3602922,128.6234632
동강전망자연휴양림,강원 정선군,강원도 정선군 운치리,37.270912,128.623913
동강카누캠프,강원 영월군,강원도 영월군 영월읍 태화산로 135,37.1505908,128.4908284
동구래마을,강원 화천군,강원도 화천군 하남면 호수길 329,38.0509397,127.672323
동대산,강원 강릉시,강원도 강릉시 연곡면 삼산리,37.827806,128.6553172
동명마을,강원 속초시,강원도 속초시 장안로4길,38.2117776,128.5933267
동명서원,강원 양양군,강원도 양양군 양양읍 서원길 44-9,38.1109644,128.629295
동명항,강원 속초시,강원도 속초시 동명동,38.2125972,128.5957922
동산포해변,강원 양양군,강원도 양양군 현남면 동해대로 912,37.9555352,128.7715635
동산항,강원 양양군,강원도 양양군 현남면 동산리,37.9796783,128.7569959
동송저수지,강원 철원군,강원도 철원군 동송읍,38.2068404,127.2083831
동촌리마을,강원 화천군,강원도 화천군 화천읍 호음로 806,38.1257582,127.7902386
동학혁명군전적지,강원 홍천군,강원도 홍천군 서석면 서석면 풍암리 505-11,37.7150678,128.1847178
동해기관차승무사업소(동해역),강원 동해시,강원도 동해시 동해역길 69,37.4927928,129.1188944
동해무릉건강숲,강원 동해시,강원도 동해시 삼화로 455,37.4762914,129.0469674
동해신묘,강원 양양군,강원도 양양군 양양읍 동해신묘길 34,38.1095253,128.6375237
동해항 여객터미널,강원 동해시,강원도 동해시 대동로 210,37.492385,129.1337869
동해향교,강원 동해시,강원도 동해시 승지로 84-3,37.5401879,129.0915943
동호해변(양양),강원 양양군,강원도 양양군 손양면,38.0605678,128.6409511
동화마을수목원,강원 원주시,강원도 원주시 문막읍 동화골길 170,37.3220245,127.8494999
동활계곡,강원 삼척시,강원도 삼척시 가곡면 가곡천로,37.1470545,129.1841781
돼지문화원,강원 원주시,강원도 원주시 지정면 송정로 130,37.3902963,127.8684282
두루미평화마을,강원 철원군,강원도 철원군 철원읍 묘장로 301,38.2648432,127.168935
두루웰 자연휴양림,강원 철원군,강원도 철원군 갈말읍 지경1길 69,38.2304897,127.3518526
두위봉,강원 정선군,강원도 정선군 사북읍 지장천로 436-27,37.2256778,128.7966009
두타산,강원 삼척시,강원도 삼척시 하장면 두타로,37.3644384,128.9908341
두타산,강원 동해시,강원도 동해시 삼화로 533,37.4631778,129.0199849
두타산성,강원 동해시,강원도 동해시 삼화로,37.4762914,129.0469674
두타산이승휴유허,강원 삼척시,강원도 삼척시 미로면 동안로 816,37.4446244,129.0425737
두타연 (강원평화지역 국가지질공원),강원 양구군,강원도 양구군 방산면 고방산리,38.2394568,127.9935998
두타연 평화누리길,강원 양구군,강원도 양구군 방산면,38.2089397,127.9494887
둔전계곡,강원 양양군,강원도 양양군 강현면 둔전리,38.1294705,128.5069109
뒷뜨루관광농원,강원 강릉시,강원도 강릉시 사천면 청솔공원길 108,37.8352469,128.8372205
등광사,강원 태백시,강원도 태백시 문곡소도동 산50,37.1225578,128.9011404
등대해변,강원 속초시,강원도 속초시 영랑해안길 37,38.2135792,128.600589
등명락가사(강릉),강원 강릉시,강원도 강릉시 강동면 괘방산길 16,37.713527,128.9986302
등명해변(등명해수욕장),강원 강릉시,강원도 강릉시 강동면 정동진리,37.6892008,129.0243271
등선폭포(삼악산),강원 춘천시,강원도 춘천시 서면 경춘로,37.8354842,127.6197488
딴산,강원 화천군,강원도 화천군 화천읍,38.104288,127.7071565
려우도예,강원 춘천시,강원도 춘천시 신동면 김유정로 1430-14,37.8185982,127.7163956
로하스파크&와카푸카,강원 평창군,"	강원도 평창군 용평면 작은도사길 162-28",37.6414519,128.4583764
리빙스턴교,강원 인제군,강원도 인제군 인제읍 덕산리,38.0894295,128.1986561
마곡유원지,강원 홍천군,강원도 홍천군 서면 마곡리,37.7192541,127.5742893
마대산,강원 영월군,강원도 영월군 김삿갓면 김삿갓로 216-22,37.0794577,128.6016977
마애여래좌상,강원 영월군,강원도 영월군 수주면 도원운학로 13-39,37.2973428,128.2618361
마의태자권역,강원 인제군,강원도 인제군 상남면 김부대왕로 2390,37.8815165,128.2511831
마차리폐광촌,강원 영월군,강원도 영월군 북면 마차중앙2길 30-4,37.2551904,128.455868
마차진해변,강원 고성군,강원도 고성군 현내면,38.4944203,128.4276911
마평정수장 홍보관,강원 삼척시,강원도 삼척시 회강길 450,37.4332614,129.1372458
막동계곡,강원 평창군,강원도 평창군 진부면 오대천로,37.572507,128.5565957
만경대,강원 동해시,강원도 동해시 공단4로,37.4793984,129.1406976
만덕사,강원 태백시,강원도 태백시 문곡소도동 196,37.1314299,128.9603743
만봉불화박물관,강원 영월군,강원도 영월군 김삿갓면 망경대산길 135-3,37.1550057,128.6085757
만산동계곡,강원 화천군,강원도 화천군 상서면 만산동로 406-38,38.1430895,127.5604219
만해마을,강원 인제군,강원도 인제군 북면 만해로 91,38.1876037,128.3178473
망경사,강원 태백시,강원도 태백시 태백산로 4246-168,37.1298827,128.9558128
망상해변,강원 동해시,강원도 동해시 동해대로,37.5311952,129.1068506
망향의 동산(횡성),강원 횡성군,강원도 횡성군 갑천면 태기로구방5길 40,37.5457846,128.0670546
매봉산,강원 영월군,강원도 영월군 중동면 성황골길 127-33,37.1523246,128.6320424
매봉산풍력발전단지(바람의 언덕),강원 태백시,강원도 태백시 매봉산길 206,37.2165264,128.9701861
매산관광농원,강원 원주시,강원도 원주시 흥업면 분지동1길 42,37.2780505,127.9265519
매월당김시습기념관,강원 강릉시,강원도 강릉시 운정길 85,37.7862734,128.8875557
매월대폭포,강원 철원군,강원도 철원군 근남면 잠곡리 222-5,38.1698992,127.4608153
매화마을(매호리마을),강원 원주시,강원도 원주시 호저면 매호로 135,37.4156512,127.8828771
매화산(강원),강원 원주시,강원도 원주시 소초면,37.4179049,128.0022421
맹방 벚꽃길,강원 삼척시,강원도 삼척시 근덕면 삼척로,37.3408159,129.2588691
맹방해변,강원 삼척시,강원도 삼척시 근덕면 맹방해변로 228-239,37.388464,129.2345381
멸공OP,강원 철원군,강원도 철원군 철원읍 평화로 3591,38.2578145,127.1667173
명개리 열목어마을,강원 홍천군,강원도 홍천군 내면 명개로 98,37.8450814,128.51452
명성산,강원 철원군,강원도 철원군 갈말읍 신철원리,38.1285745,127.3415331
명성산성(울음산성),강원 철원군,강원도 철원군 갈말읍,38.1476026,127.3082931
명주사(양양),강원 양양군,강원도 양양군 현북면 어성전길 93-229,37.9484191,128.6805664
명주사부도군,강원 양양군,강원도 양양군 현북면 어성전길 93-229,37.9484191,128.6805664
명파해변,강원 고성군,강원도 고성군 현내면,38.4944203,128.4276911
모곡밤벌유원지,강원 홍천군,강원도 홍천군 서면 모곡리,37.6942428,127.5822875
모둘자리 힐링체험마을,강원 홍천군,강원도 홍천군 서석면 검산길 147-19,37.7118214,128.231169
모래시계공원,강원 강릉시,강원도 강릉시 강동면 헌화로 990-1,37.6873853,129.0377099
목공예 갤러리,강원 인제군,강원도 인제군 인제읍 비봉로 52,38.0662263,128.1743762
목우산,강원 영월군,강원도 영월군 중동면 응고개길 169-2,37.1369584,128.6937948
목조문수동자좌상 복장유물,강원 평창군,강원도 평창군 진부면 오대산로 374-8,37.7319381,128.5928851
몰운대(정선),강원 정선군,강원도 정선군 화암면 약수길 1330,37.3291555,128.7857265
무궁화공원,강원 홍천군,강원도 홍천군 홍천읍 장전평로 18,37.6815192,127.8718644
무릉계곡,강원 동해시,강원도 동해시 삼화로 538,37.4634633,129.0193739
무릉계곡관광지,강원 동해시,강원도 동해시 삼화로 538 일원,37.4634633,129.0193739
묵호 등대,강원 동해시,강원도 동해시 해맞이길 300,37.5539251,129.1181566
묵호항,강원 동해시,강원도 동해시 묵호동 15-133,37.5520117,129.1151606
묵호항 울릉도 관광여객선,강원 동해시,강원도 동해시 임항로 129,37.5434352,129.1135878
문배마을,강원 춘천시,강원도 춘천시 남산면 강촌문배길,37.7927933,127.6068511
문암1리해변 (자작도),강원 고성군,강원도 고성군 죽왕면 자작도선사길,38.3071759,128.5424323
문암2리해변,강원 고성군,강원도 고성군 죽왕면,38.3288177,128.5255585
문암해변,강원 삼척시,강원도 삼척시 근덕면 초곡길 340,37.3088645,129.2911901
물안마을,강원 춘천시,강원 춘천시 북산면 부귀리,37.9882814,127.8482031
물치마을,강원 양양군,강원도 양양군 강현면 물치천로 28,38.1533537,128.605058
물치해변,강원 양양군,강원도 양양군 강현면 동해대로 3580,38.1556571,128.6099938
미륵산,강원 원주시,강원도 원주시 귀래면 용암동막길,37.1676562,127.8333554
미산계곡,강원 인제군,강원도 인제군 상남면 내린천로 1712,37.9163491,128.2863554
미산계곡 용바위,강원 인제군,강원도 인제군 미산리,37.8619486,128.3474284
미수복지구 망배단,강원 철원군,강원도 철원군 철원읍 외촌리 331,38.2808058,127.2021233
미시령계곡,강원 인제군,강원 인제군 북면 용대2리,38.1962793,128.3498325
미천골계곡,강원 양양군,강원도 양양군 서면 구룡령로,37.9612452,128.525577
민둥산,강원 정선군,강원도 정선군 남면 민둥산로 12,37.2542477,128.7812324
민충사,강원 영월군,강원도 영월군 영월읍 금강공원길 136,37.1854819,128.4784529
밀부와 밀부주머니,강원 평창군,강원도 평창군 진부면 오대산로 374-8,37.7319381,128.5928851
바다열차,강원 삼척시,강원도 삼척시 수로부인길 542 / 강원도 강릉시 용지로 176 강릉역,37.7641902,128.8989329
바우지움조각미술관,강원 고성군,강원도 고성군 토성면 원암온천3길 37,38.2129043,128.5154873
바위그늘유적,강원 철원군,강원도 철원군 갈말읍 군탄리,38.1612784,127.2983678
바회마을,강원 홍천군,강원도 홍천군 두촌면 군유동길 361-19,37.8610909,128.0725989
박경리문학공원,강원 원주시,강원도 원주시 토지길 1,37.3227239,127.9597412
박사마을,강원 춘천시,강원도 춘천시 서면 당산1길 7,37.8969831,127.6691674
반암항,강원 고성군,강원도 고성군 거진읍 반암리,38.4182956,128.4600822
반암해변,강원 고성군,강원도 고성군 거진읍,38.4362262,128.4525014
발산,강원 영월군,강원도 영월군 영월읍 보덕사길 15-2,37.1964798,128.4554236
밧도내마을 [녹색관광마을],강원 영월군,강원도 영월군 주천면 밧도내길 11-34,37.2910998,128.2364329
방동계곡,강원 인제군,강원도 인제군 기린면 현리,37.9387616,128.3215578
방동리고구려고분,강원 춘천시,강원도 춘천시 서면 신숭겸로 272-21,37.9032929,127.6621697
방동약수,강원 인제군,강원도 인제군 기린면 방동약수로 89-59,37.943765,128.3963358
방아다리약수터,강원 평창군,강원도 평창군 진부면 방아다리로 1011-26,37.6928511,128.5039491
방태산,강원 인제군,강원도 인제군 기린면 방태산길,37.9365758,128.3836114
배두둑호박넝쿨마을,강원 평창군,강원도 평창군 대화면 선애길 90,37.4736927,128.4025741
백골병단전적비,강원 인제군,강원도 인제군 용대리 산 250-1,38.2206195,128.3696199
백단사,강원 태백시,강원도 태백시 백단사길 124,37.1118367,128.924043
백담계곡,강원 인제군,강원도 인제군 북면 백담로 150,38.1760271,128.3762245
백담마을,강원 인제군,강원도 인제군 북면 만해로 410-17,38.1948522,128.3452476
백담사,강원 인제군,강원도 인제군 북면 백담로 746,38.1760271,128.3762245
백덕산(영월),강원 영월군,강원도 영월군 무릉도원면 백년계곡길 200-5,37.3831578,128.2704654
백덕산(평창),강원 평창군,강원 평창군 평창읍 원당리,37.4000197,128.3161514
백도해변,강원 고성군,강원도 고성군 죽왕면,38.3288177,128.5255585
백두대간 생태수목원,강원 정선군,강원도 정선군 임계면 임계리,37.5406549,128.8790383
백룡동굴,강원 평창군,강원도 평창군 미탄면 문희길 63,37.2777953,128.5770077
백룡동굴 (강원고생대 국가지질공원),강원 평창군,강원도 평창군 미탄면 문희길 63,37.2777953,128.5770077
백마고지 위령비와 기념관,강원 철원군,강원도 철원군 철원읍 대마1길 72,38.2691396,127.1656086
백마고지전적관,강원 철원군,강원도 철원군 동송읍 장흥리,38.1949076,127.2647731
백석봉(정선),강원 정선군,강원도 정선군 북평면 졸드루길 11-16,37.4587502,128.6320689
백석산지구 전투전적비,강원 양구군,강원 양구군 방산면 송현리 233,38.2483387,127.9396171
백운동계곡(설악산),강원 인제군,강원도 인제군 북면 백담로,38.1760271,128.3762245
백운산(정선),강원 정선군,강원도 정선군 신동읍 점재길,37.2760043,128.6085432
백운산휴양림길,강원 원주시,강원도 원주시 판부면 서곡리 1635-5,37.2842831,127.9401173
버드나무 브루어리,강원 강릉시,강원도 강릉시 경강로 1961,37.7482296,128.8843596
범부리고인돌,강원 양양군,강원도 양양군 서면 범부리,38.0559358,128.5863758
범일국사 진영,강원 평창군,강원도 평창군 진부면 오대산로 374-8,37.7319381,128.5928851
범패사,강원 태백시,강원도 태백시 풀미당골길 1-5,37.1738626,128.9945985
법수치계곡,강원 양양군,강원도 양양군 현북면 법수치리,37.9031029,128.6056343
법흥계곡,강원 영월군,강원도 영월군 수주면 무릉법흥로,37.3348832,128.2698927
법흥사 징효국사 부도,강원 영월군,강원도 영월군 수주면 법흥리 산5-3,37.3634016,128.2720632
법흥사(영월),강원 영월군,강원도 영월군 수주면 무릉법흥로 1352,37.3729153,128.261081
별마로천문대,강원 영월군,강원도 영월군 영월읍 천문대길 397,37.199054,128.4861254
병방치 스카이워크,강원 정선군,강원도 정선군 정선읍 병방치길 225,37.340895,128.6333483
병지방계곡,강원 횡성군,강원도 횡성군 갑천면 병지방리,37.6080467,128.0762496
병풍산,강원 화천군,강원도 화천군 간동면 방천리,38.0804804,127.8550344
보광사(속초),강원 속초시,강원도 속초시 영랑호반길 69-2,38.2136025,128.5852713
보덕사,강원 영월군,강원도 영월군 영월읍 보덕사길 34,37.1977659,128.4574916
보덕사 사성전 후불탱화,강원 평창군,강원도 평창군 진부면 오대산로 374-8,37.7319381,128.5928851
보덕사(영월),강원 영월군,강원도 영월군 영월읍 보덕사길 34,37.1977659,128.4574916
보문사(원주),강원 원주시,강원도 원주시 고문골길 270,37.3335951,128.0265411
보헤미안박이추커피,강원 강릉시,강원도 강릉시 사천면 해안로 1107,37.846881,128.8668204
보현사(강릉),강원 강릉시,강원도 강릉시 성산면 보현길 396,37.736917,128.7698582
복계산,강원 철원군,강원도 철원군 근남면 잠곡리,38.1631969,127.4735976
복주머니마을,강원 홍천군,강원도 홍천군 서면 개야마을길 73,37.6943795,127.6298173
복주산자연휴양림,강원 철원군,강원도 철원군 근남면 하오재로 818,38.1437219,127.4732264
본적사지3층석탑,강원 태백시,강원도 태백시 황지동 467-10,37.1733699,128.97651
봉래산,강원 영월군,강원도 영월군 영월읍 천문대길 397,37.199054,128.4861254
봉래산산림욕장,강원 영월군,강원도 영월군 영월읍 천문대길 397,37.199054,128.4861254
봉복사(횡성),강원 횡성군,강원도 횡성군 청일면 청일로 909-88,37.5974384,128.2260866
봉산동 석불좌상,강원 원주시,강원도 원주시 봉산로 134,37.3429694,127.9665846
봉산동 석조보살입상,강원 원주시,강원도 원주시 봉산4길 45,37.3499054,127.9612042
봉산동당간지주,강원 원주시,강원도 원주시 개봉교길 41,37.3455367,127.9582008
봉산서재,강원 평창군,강원도 평창군 봉평면 봉산서재길 17,37.5996492,128.3816382
봉수대해변,강원 고성군,강원도 고성군 죽왕면,38.3288177,128.5255585
봉의산,강원 춘천시,강원도 춘천시 소양로1가,37.8922071,127.7302006
봉정암(인제),강원 인제군,강원도 인제군 북면 백담로 1700,38.1647222,128.3738889
봉포김여사카페,강원 고성군,강원도 고성군 토성면 토성로 96,38.2545964,128.5625565
봉포항,강원 고성군,강원도 고성군 토성면 봉포리,38.2460507,128.5586676
봉포해변,강원 고성군,강원도 고성군 토성면,38.2571927,128.558578
봉황산산림욕장,강원 삼척시,강원도 삼척시 척주로 112,37.4383049,129.1745252
부경민화박물관,강원 강릉시,강원도 강릉시 사천면 방동길 320,37.8288638,128.8768912
부곡계곡,강원 횡성군,강원 횡성군 강림면,37.3602401,128.1253574
부남해변,강원 삼척시,강원도 삼척시 근덕면 부남해변길,37.3590581,129.2493195
부연동마을,강원 강릉시,강원도 강릉시 연곡면 부연동길 787,37.8689706,128.6310161
부연약수,강원 강릉시,강원도 강릉시 연곡면 삼산리,37.827806,128.6553172
부흥사지 석탑재,강원 원주시,강원도 원주시 소초면 흥양리 1164-4,37.374199,127.9967903
북분해수욕장,강원 양양군,강원 양양군 현남면 북분리,37.984168,128.7408492
북평해암정,강원 동해시,강원도 동해시 촛대바위길 19,37.4787383,129.1586328
북한강,강원 화천군,강원도 화천군 일대,38.1056484,127.7080492
불바라기약수터,강원 양양군,강원도 양양군 서면 미천골길 115,37.9490192,128.5118119
붕어섬,강원 화천군,강원도 화천군 화천읍 강변로 2-54,38.1007065,127.6970293
비두리 귀부 및 이수,강원 원주시,강원도 원주시 문막읍 귀문로 1008,37.2554316,127.8352458
비래암 (강원평화지역 국가지질공원),강원 화천군,강원도 화천군 상서면 구운리,38.1429004,127.5724031
비룡폭포,강원 속초시,강원도 속초시 설악산로,38.1630004,128.5454229
비봉산(양구),강원 양구군,강원 양구군 양구읍,38.107806,127.9905751
비선대,강원 속초시,강원도 속초시 설악산로 1091,38.1730998,128.4890543
비수구미계곡,강원 화천군,강원도 화천군 간동면 비수구미길,38.1041427,127.8785004
비와야폭포,강원 태백시,강원도 태백시 양지길 25,37.1065053,129.0151215
비치조각공원,강원 삼척시,강원도 삼척시 새천년도로 326,37.4568495,129.1855133
빛의 사원,강원 철원군,강원도 철원군 철원읍,38.2120964,127.2129166
사근진해변(사근진해수욕장),강원 강릉시,강원도 강릉시 안형동,37.8019111,128.8758249
사내골소나무,강원 태백시,강원도 태백시 함백산로 274,37.1448145,128.8994581
사명당 대선사 진영,강원 평창군,강원도 평창군 진부면 오대산로 374-8,37.7319381,128.5928851
사명산,강원 양구군,강원 양구군 양구읍 월명리,38.0966574,127.9271418
사북 탄광문화관광촌,강원 정선군,강원도 정선군 사북읍 하이원길 57-3,37.2202609,128.816507
사자산,강원 영월군,강원도 영월군 무릉도원면 법흥리,37.3634016,128.2720632
사천진해변(사천뒷불해수욕장),강원 강릉시,강원도 강릉시 사천면 진리해변길 111,37.8411327,128.8753265
사천항,강원 강릉시,강원도 강릉시 사천면 진리해변길 68-23,37.8374383,128.8771812
사천해변(사천해수욕장),강원 강릉시,강원도 강릉시 사천면 해안로 877,37.8291967,128.8776823
산명저수지,강원 철원군,강원도 철원군 철원읍 산명리,38.2989648,127.1693546
산속호수마을,강원 화천군,강원도 화천군 화천읍 호음로 806,38.1257582,127.7902386
산양마을,강원 삼척시,강원도 삼척시 원덕읍 산양서원1길 89,37.1410517,129.280254
산양서원,강원 삼척시,강원도 삼척시 원덕읍 산양서원1길 24,37.1404805,129.283657
산양증식복원센터,강원 양구군,강원도 양구군 동면 펀치볼로 266-60,38.2256389,128.0740174
산천어시네마,강원 화천군,강원도 화천군 화천읍 상승로2길 25-10,38.1053402,127.7030079
산천어커피박물관,강원 화천군,강원도 화천군 화천읍 상승로2길 21,38.1060208,127.7034921
산타우체국,강원 화천군,강원도 화천군 화천읍 산수화로 10,38.1071389,127.7060144
살둔계곡,강원 홍천군,강원도 홍천군 내면 살둔길 3,37.8314171,128.3690486
살둔마을,강원 홍천군,강원도 홍천군 내면 내린천로 638,37.8333707,128.3764849
삼방동전망대,강원 태백시,강원도 태백시 삼방1길 2-28,37.1152102,129.0381905
삼봉약수,강원 홍천군,강원도 홍천군 내면 월둔길 63-2,37.8653279,128.4641762
삼부연폭포 (한탄강 국가지질공원),강원 철원군,강원도 철원군 갈말읍,38.1476026,127.3082931
삼불사(고성),강원 고성군,강원도 고성군 거진읍 화포리 181,38.4596259,128.4407382
삼수령,강원 태백시,강원도 태백시 된각길 81,37.2201421,128.9902639
삼악산(춘천),강원 춘천시,강원도 춘천시 서면 경춘로 1401-25,37.8258675,127.6596088
삼양목장,강원 평창군,강원도 평창군 대관령면 꽃밭양지길 708-9,37.7371332,128.7094085
삼운사(춘천),강원 춘천시,강원도 춘천시 후석로441번길 12,37.8882453,127.7416692
삼원수약초마을,강원 횡성군,강원도 횡성군 공근면 금계로상동7길 8,37.6077789,127.9905449
삼척 가시오가피마을,강원 삼척시,강원도 삼척시 노곡면 문의재로 2470,37.2665305,129.1792253
삼척 고무릉환선마을,강원 삼척시,강원도 삼척시 신기면 고무릉길 49,37.3445967,129.0535801
삼척 궁촌리 음나무,강원 삼척시,강원도 삼척시 근덕면 궁촌2길 58,37.3144291,129.2613751
삼척 너와마을,강원 삼척시,강원도 삼척시 도계읍 문의재로 1113,37.1839187,129.129995
삼척 대학로,강원 삼척시,강원도 삼척시 대학로,37.4458019,129.1635942
삼척 덕풍계곡마을,강원 삼척시,강원도 삼척시 가곡면 풍곡안길 17-18,37.1250474,129.1555644
삼척 맹방 유채밭,강원 삼척시,강원 삼척시 근덕면 상맹방리,37.3977025,129.2060923
삼척 맹방유채꽃 마을,강원 삼척시,강원도 삼척시 근덕면 삼척로 3906-11,37.3408159,129.2588691
삼척 신리 너와집과 민속유물,강원 삼척시,강원도 삼척시 도계읍 문의재로 1223-9,37.1870748,129.1337057
삼척 영경묘,강원 삼척시,강원도 삼척시 미로면,37.4175367,129.1124649
삼척 죽서루,강원 삼척시,강원도 삼척시 죽서루길 37,37.4415911,129.1607436
삼척 준경묘,강원 삼척시,강원도 삼척시 미로면 준경길 333-360,37.3671087,129.0593499
삼척 척주동해비 및 평수토찬비,강원 삼척시,강원도 삼척시 허목길 13-7,37.4354662,129.1844087
삼척 해신당공원,강원 삼척시,강원도 삼척시 원덕읍 삼척로 1852-6,37.2679876,129.3273171
삼척공양왕릉,강원 삼척시,강원도 삼척시 근덕면 공양왕길 43-21,37.3261581,129.2648353
삼척대이리통방아,강원 삼척시,강원도 삼척시 신기면 환선로 870,37.3235213,129.0135935
삼척여삼리산촌생태마을,강원 삼척시,강원도 삼척시 노곡면 여삼리,37.3737987,129.1398615
삼척장미공원,강원 삼척시,강원도 삼척시 오십천로 586,37.4377597,129.1614146
삼척초당굴,강원 삼척시,강원도 삼척시 근덕면 금계리,37.3929271,129.1813824
삼척해변,강원 삼척시,강원도 삼척시 테마타운길 76,37.4677394,129.1682387
삼척해상케이블카,강원 삼척시,강원도 삼척시 근덕면 삼척로 2154-31,37.2886638,129.3087991
삼척향교,강원 삼척시,강원도 삼척시 향교길 34,37.4500378,129.1675682
삼탄아트마인,강원 정선군,강원도 정선군 고한읍 함백산로 1445-44,37.1828442,128.8839494
삼포2리해변,강원 고성군,강원도 고성군 죽왕면,38.3288177,128.5255585
삼포해변,강원 고성군,강원도 고성군 죽왕면 삼포해변길,38.315194,128.5338671
삼화사,강원 동해시,강원도 동해시 삼화로 584,37.4635129,129.0149671
삼화사 템플스테이,강원 동해시,강원도 동해시 삼화로 538,37.4634633,129.0193739
삽슬봉(아이스크림 고지),강원 철원군,강원도 철원군 동송읍 양지리,38.2685248,127.2843752
삿갓봉,강원 영월군,강원도 영월군 무릉도원면 도원운학로 2053,37.3014395,128.2589297
상도문돌담마을,강원 속초시,강원도 속초시 상도문1길 30,38.1651131,128.5531724
상동꼴두바우,강원 영월군,강원도 영월군 상동읍 구래리,37.1483596,128.8512491
상동리 석불좌상 및 삼층석탑,강원 인제군,강원도 인제군 인제읍 인제로167번길 365,38.0916458,128.1510758
상맹방해변,강원 삼척시,강원도 삼척시 근덕면 상맹방길,37.4035527,129.2091128
상원사,강원 춘천시,강원도 춘천시 서면 박사로 169-47,37.9174902,127.6954023
상원사,강원 원주시,강원도 원주시 신림면 성남로 930,37.3067129,128.0537875
상원사 대웅전,강원 원주시,강원도 원주시 신림면 성남로 930,37.3067129,128.0537875
상원사 동종,강원 평창군,강원도 평창군 진부면 오대산로 1211-14,37.7864685,128.5640835
상원사 석탑 및 광배,강원 원주시,강원도 원주시 신림면 성남로 930,37.3067129,128.0537875
상원사(오대산),강원 평창군,강원도 평창군 진부면 오대산로 1215-89,37.7706139,128.5721311
상원사(원주),강원 원주시,강원도 원주시 신림면 성남로 930,37.3067129,128.0537875
상정바위산,강원 정선군,강원도 정선군 북평면 문곡강변길 505,37.4132994,128.7090239
새말관광농원,강원 횡성군,강원도 횡성군 우천면 전재로90번길 49,37.4385357,128.0800111
샘재골송이마을,강원 양양군,강원도 양양군 현북면 송이로 245-44,37.9848155,128.6789487
서강,강원 영월군,강원도 영월군 한반도면 옹정리,37.2248413,128.3513942
서곡정사석조약사여래입상,강원 영월군,강원도 영월군 한반도면 용정원길 86-17,37.1709788,128.3339641
서광사,강원 태백시,강원도 태백시 오투로 216,37.1725254,128.9647317
서림사지,강원 양양군,강원도 양양군 서면 서림리 74-1,37.9876916,128.5324002
서림사지 삼층석탑,강원 양양군,강원도 양양군 서면 구룡령로 2115,37.9612452,128.525577
서림사지 석조비로사나불 좌상,강원 양양군,강원도 양양군 서면 구룡령로 2115,37.9612452,128.525577
서봉사계곡 마을관리휴양지,강원 홍천군,강원도 홍천군 서석면 구룡령로 2838,37.7049222,128.2174045
서상리삼층석탑,강원 춘천시,강원도 춘천시 서면,37.8986693,127.692725
서오지리,강원 화천군,강원도 화천군 하남면 건넌들길 97,38.0425938,127.6537075
서운재(瑞雲齋),강원 정선군,강원도 정선군 남면 남창길 22,37.3245332,128.7138803
석병산,강원 강릉시,강원도 강릉시 옥계면,37.6126866,129.0379266
석종사,강원 태백시,강원도 태백시 태백로 2147,37.1493763,128.9938131
석탄유물보존관,강원 정선군,강원도 정선군 사북읍 하이원길 57-3,37.2202609,128.816507
선광사,강원 태백시,강원도 태백시 태백산로 5088,37.1298827,128.9558128
선달산,강원 영월군,경상북도 봉화군 물야면 생달길,37.0173829,128.729025
선돌 (강원고생대 국가지질공원),강원 영월군,강원도 영월군 영월읍 방절리,37.186648,128.4418888
선바위산(영월),강원 영월군,강원도 영월군 상동읍 선바위길 246,37.1483006,128.8063512
설악 관광특구,강원 속초시,강원도 속초시,38.2070148,128.5918489
설악 대청봉,강원 속초시,강원도 속초시 설악산로,38.1630004,128.5454229
설악 케이블카,강원 속초시,강원도 속초시 설악산로 1085,38.1730998,128.4890543
설악 파인리조트 가든스파,강원 속초시,강원도 속초시 관광로408번길 14,38.1955406,128.5392357
설악 흔들바위,강원 속초시,강원도 속초시 설악산로,38.1630004,128.5454229
설악산 권금성,강원 속초시,강원도 속초시 설악산로 1091,38.1730998,128.4890543
설악산 마등령,강원 속초시,강원도 속초시 설악산로,38.1630004,128.5454229
설악산 만경대,강원 양양군,강원도 양양군 서면 약수길 45,38.0775694,128.4457363
설악산 울산바위,강원 속초시,강원도 속초시 설악산로 1091,38.1730998,128.4890543
설악산 자생식물원,강원 속초시,강원도 속초시 바람꽃마을길 164,38.1990688,128.5267459
설악산 천연보호구역,강원 양양군,강원도 양양군 서면 오색리 산 1번지,38.0945682,128.4982412
설악산 흘림골,강원 양양군,강원도 양양군 서면 약수길,38.0772672,128.4454128
설악산국립공원,강원 속초시,강원도 속초시 설악산로 833,38.1630004,128.5454229
설악산국립공원 백담지구,강원 인제군,강원도 인제군 북면 백담로 150,38.1760271,128.3762245
설악산국립공원 설악동지구,강원 속초시,강원도 속초시 설악산로 1091,38.1730998,128.4890543
설악산국립공원 오색지구,강원 양양군,강원도 양양군 서면 대청봉길 95,38.0780304,128.4509903
설악산국립공원(남설악),강원 양양군,강원도 양양군 서면 약수길,38.0772672,128.4454128
설악산국립공원(내설악),강원 인제군,강원도 인제군 북면,38.1246577,128.2041657
설악산국립공원(외설악),강원 속초시,강원도 속초시 설악동,38.1681813,128.4769101
설악산소공원,강원 속초시,강원도 속초시 설악산로 1091,38.1730998,128.4890543
설악해변,강원 양양군,강원도 양양군 강현면 뒷나루2길,38.1284578,128.6234861
설피마을,강원 인제군,강원도 인제군 기린면 설피밭길 434,38.0186775,128.4745867
섬강(섬강유원지),강원 횡성군,강원도 횡성군 횡성읍 문예로,37.4885537,127.9750139
성국사,강원 양양군,강원도 양양군 서면 오색리 1-21,38.07775,128.445645
성바위자연마을,강원 횡성군,강원도 횡성군 공근면 학담서로 137,37.5288477,127.9466079
세계 평화의종 공원,강원 화천군,강원도 화천군 화천읍 평화로 3481-18,38.213615,127.845837
세렴폭포,강원 원주시,강원도 원주시 소초면 구룡사로 427,37.4047995,128.046704
소금강 (강원고생대 국가지질공원),강원 정선군,강원도 정선군 화암면 몰운리,37.3093895,128.8030391
소금강 장천마을,강원 강릉시,강원도 강릉시 연곡면 진고개로 1502,37.8427102,128.7328671
소금강양떼목장,강원 강릉시,강원도 강릉시 연곡면 진고개로 1321,37.8427102,128.7328671
소금강장천마을,강원 강릉시,강원도 강릉시 연곡면 진고개로 1502,37.8427102,128.7328671
소금산,강원 원주시,강원도 원주시 지정면 간현리,37.3670756,127.8373176
소금산 스카이워크 브릿지,강원 원주시,강원도 원주시 지정면 소금산길 26,37.3650197,127.8322846
소노벨 델피노(설악) 아쿠아월드,강원 고성군,강원도 고성군 토성면 미시령옛길 1153,38.2125189,128.4938589
소노벨 비발디파크,강원 홍천군,강원도 홍천군 서면 한치골길 262,37.6466335,127.6813286
소돌아들바위공원,강원 강릉시,강원도 강릉시 주문진읍 주문리,37.8990315,128.8227808
소똥령마을,강원 고성군,강원도 고성군 간성읍 소똥령마을길 82,38.3316485,128.3803067
소망의탑,강원 삼척시,강원도 삼척시 새천년도로 233,37.446606,129.1827457
소승폭포,강원 인제군,강원도 인제군 북면 설악로,38.1283259,128.2734057
소양강 스카이워크,강원 춘천시,강원도 춘천시 영서로 2675,37.8934139,127.7243543
소양강 처녀상,강원 춘천시,강원도 춘천시 영서로 2675,37.8934139,127.7243543
소양강댐 물 문화관,강원 춘천시,강원도 춘천시 신북읍 신샘밭로 1128,37.949058,127.815061
소양댐,강원 춘천시,강원도 춘천시 신북읍 신샘밭로 1128,37.949058,127.815061
소양로비석군,강원 춘천시,강원도 춘천시 소양로1가,37.8922071,127.7302006
소양호 유람선,강원 춘천시,강원도 춘천시 북산면 신샘밭로 1133,37.9495613,127.8147981
소양호(양구),강원 양구군,강원도 양구군 양구읍 석현리,38.0448358,127.9710693
소양호(인제),강원 인제군,강원도 인제군 남면 원남로 133,38.0356247,128.1446155
소양호(춘천),강원 춘천시,강원 춘천시 북산면,37.9872966,127.8859686
소이산,강원 철원군,강원도 철원군 사요리 산1번지,38.2554084,127.1861411
소이산 생태숲 녹색길,강원 철원군,강원도 철원군 철원읍 금강산로 265,38.2551773,127.2019466
소지섭길,강원 양구군,강원도 양구군 방산면 두타연로 8,38.2722018,127.9956157
속초 등대전망대,강원 속초시,강원도 속초시 영금정로5길 8-28,38.2136895,128.5999722
속초 설악해맞이공원,강원 속초시,강원도 속초시 동해대로 3664,38.1631294,128.6085042
속초 얼라이브 하트(Alive Heart),강원 속초시,강원도 속초시 원암학사평길 88,38.2054519,128.5171931
속초 엑스포타워,강원 속초시,강원도 속초시 엑스포로 72,38.1915975,128.5830665
속초 조양동 유적,강원 속초시,강원도 속초시 선사로1길 16,38.1876286,128.5908408
속초 하도문쌈채 마을,강원 속초시,강원도 속초시 설악산로 110,38.1630004,128.5454229
속초관광수산시장 닭강정골목,강원 속초시,강원도 속초시 중앙로147번길 16,38.2044495,128.5901534
속초설악 삼포비치바이크 고성점,강원 고성군,강원도 고성군 죽왕면 삼포해변길 9,38.3174461,128.530998
속초스파랜드,강원 속초시,강원도 속초시 미시령로3359번길 20,38.2070865,128.5745487
속초엑스포유람선,강원 속초시,강원도 속초시 엑스포로 12-26,38.1921184,128.5913234
속초항,강원 속초시,강원도 속초시 동명동,38.2125972,128.5957922
속초해변,강원 속초시,강원도 속초시 해오름로 190,38.1905509,128.6019216
속초해안로,강원 속초시,강원도 속초시 영랑해안길,38.2142361,128.5989888
솔내음 평창 먹을거리촌,강원 평창군,강원도 평창군 용평면 운두령로 500-11,37.6731139,128.4639263
솔바람다리,강원 강릉시,강원 강릉시 병산동,37.7578906,128.9444006
송담서원(강릉),강원 강릉시,강원도 강릉시 강동면 송담서원길 27-7,37.6929019,128.9291718
송이밸리자연휴양림,강원 양양군,강원도 양양군 손양면 상왕도리 산158-3,38.0526971,128.6220185
송정해변(송정해수욕장),강원 강릉시,강원도 강릉시 송정길30번안길 20-3,37.7767843,128.9379875
송지호 해수욕장,강원 고성군,강원도 고성군 죽왕면 심층수길 85,38.3311584,128.5264406
송지호 해안 서낭바위 (강원평화지역 국가지질공원),강원 고성군,강원도 고성군 죽왕면,38.3288177,128.5255585
송지호관망타워,강원 고성군,강원도 고성군 죽왕면 동해대로 6021,38.3363026,128.5179351
송천계곡,강원 양양군,강원도 양양군 서면 떡마을길 일원,38.051616,128.5545516
송천약수,강원 강릉시,강원도 강릉시 연곡면 삼산리,37.827806,128.6553172
쇠둘레평화누리길,강원 철원군,강원도 철원군 동송읍 장흥리,38.1949076,127.2647731
수고당(守孤堂),강원 정선군,강원도 정선군 임계면 수고당길 110,37.4847093,128.8481069
수달연구센터,강원 화천군,강원도 화천군 간동면 간척월명로 869-129,38.0527653,127.8324835
수동마을,강원 평창군,강원도 평창군 방림면 계촌리 250-2,37.466499,128.3082272
수렴동계곡,강원 인제군,강원도 인제군 북면 백담로 1220,38.1647222,128.3738889
수로부인 헌화공원 (남화산 해맞이공원),강원 삼척시,강원도 삼척시 원덕읍 임원항구로 33-17,37.2303884,129.346938
수림대마을,강원 평창군,강원도 평창군 봉평면 유포리 641,37.5278069,128.3352339
수림대마을 [녹색체험관광마을],강원 평창군,강원도 평창군 봉평면 수림대길 167-25,37.5258877,128.3717495
수산어촌체험마을,강원 양양군,강원도 양양군 손양면 수산1길 26-41,38.0808048,128.6741784
수산항,강원 양양군,강원도 양양군 손양면 수산리,38.0766406,128.6722656
수상한마법학교,강원 강릉시,강원도 강릉시 사천면 미노길 103,37.8264546,128.8485884
수암리 마애삼존불상,강원 원주시,강원도 원주시 소초면 수암리 1346-3,37.3928841,127.9828346
수입천(하천),강원 양구군,강원도 양구군 방산면 건솔리,38.2986057,127.9655156
수타사,강원 홍천군,강원도 홍천군 동면 수타사로 473,37.698263,127.9592941
수타사 농촌테마파크,강원 홍천군,강원도 홍천군 동면 덕치리,37.6960595,127.9444868
수타사계곡,강원 홍천군,강원도 홍천군 동면 수타사로 473,37.698263,127.9592941
수하계곡(평창),강원 평창군,강원도 평창군 미탄면 평안한치길 43-13,37.3442981,128.5021805
수항계곡,강원 평창군,강원도 평창군 진부면 오대천로,37.572507,128.5565957
숙암계곡,강원 정선군,강원도 정선군 북평면 단임길,37.5212854,128.5929722
순긋해변,강원 강릉시,강원도 강릉시 해안로 682-5,37.8167541,128.8931087
순담계곡,강원 철원군,강원도 철원군 갈말읍 순담길 143-3,38.1768621,127.2981843
술빛고을,강원 영월군,강원도 영월군 주천면 주천로 103,37.2722056,128.2691919
술샘박물관,강원 영월군,강원도 영월군 주천면 송학주천로 1467-9,37.2739181,128.2690671
쉬리마을,강원 철원군,강원도 철원군 김화읍 김화로 633-17,38.2474679,127.421664
쉰움산,강원 삼척시,강원도 동해시 삼화로 584,37.4635129,129.0149671
스카이워크,강원 인제군,강원도 인제군 인제읍 비봉로44번길 81,38.060309,128.167902
승리전망대,강원 철원군,강원도 철원군 근남면 영서로 9579,38.2724131,127.5264971
시립박물관,강원 삼척시,강원도 횡성군 둔내면 강변로 975,37.4896791,128.1967363
시민헌장비,강원 태백시,강원도 태백시 천제단길 160,37.1201314,128.9512754
신남항,강원 삼척시,강원도 삼척시 원덕읍 신남길 127,37.2670706,129.3278501
신남해변,강원 삼척시,강원 삼척시 원덕읍 신남길,37.2654444,129.3263081
신약수(가리골약수),강원 평창군,강원 평창군 용평면 속사2리,37.6507895,128.486611
신읍리 동지화 마을,강원 화천군,강원도 화천군 화천읍 신읍리,38.1739824,127.7119571
신장절공묘역,강원 춘천시,강원도 춘천시 서면 방동리,37.9033169,127.6551043
신흥사(삼척),강원 삼척시,강원도 삼척시 근덕면 양리길 220,37.3234363,129.2049812
신흥사(설악산),강원 속초시,강원도 속초시 설악산로 1137,38.1730998,128.4890543
심곡약천마을,강원 동해시,강원도 동해시 약천길 61,37.5812239,129.0825528
심곡항,강원 강릉시,강원도 강릉시 강동면 헌화로 655-2,37.6648986,129.0515409
심마니마을(가시오가피 마을),강원 삼척시,강원도 삼척시 노곡면 문의재로 2470,37.2665305,129.1792253
심밭골농원,강원 원주시,강원도 원주시 신림면 심박골길 1,37.2339752,128.0385719
심원사,강원 태백시,강원도 태백시 고원로 247-15,37.1735994,128.9837071
심원사(철원),강원 철원군,강원도 철원군 동송읍 상노1길 58,38.1631621,127.2495205
심원암 토불 및 부도,강원 태백시,강원도 태백시 소도동 254번지,37.1145036,128.9514771
십이선녀탕(탕수동계곡),강원 인제군,강원도 인제군 북면 십이선녀탕길,38.1825379,128.2973075
십자봉,강원 원주시,강원 원주시 귀래면,37.1699883,127.8848209
쌍계사(홍천),강원 홍천군,강원도 홍천군 내촌면 여창길 402,37.8308694,128.1325718
썬크루즈 테마공원,강원 강릉시,강원도 강릉시 강동면 헌화로 950-39,37.6838244,129.0420115
아라리촌,강원 정선군,강원도 정선군 정선읍 애산로 37,37.3749581,128.6712459
아리랑학교 추억의 박물관,강원 정선군,강원도 정선군 신동읍 함백로 565,37.215001,128.6943004
아바이마을,강원 속초시,강원도 속초시 청호로 122-1,38.2006121,128.5948309
아바이마을 갯배,강원 속초시,강원도 속초시 중앙부두길 39,38.2027603,128.5920933
아야진항,강원 고성군,강원도 고성군 토성면 아야진해변길 48,38.2706048,128.5568356
아야진해변,강원 고성군,강원도 고성군 토성면,38.2571927,128.558578
아우라지,강원 정선군,강원도 정선군 여량면 아우라지길 69,37.4756835,128.7241727
아침가리계곡,강원 인제군,강원도 인제군 기린면 추대길 58,37.9655061,128.398805
안목해변,강원 강릉시,강원도 강릉시 창해로14번길 20-1,37.7725933,128.9472775
안반데기 마을,강원 강릉시,강원도 강릉시 왕산면 안반데기길 428,37.6226289,128.7391554
안인항,강원 강릉시,강원도 강릉시 강동면 안인진리,37.728188,128.9866112
안인해변(안인해수욕장),강원 강릉시,강원도 강릉시 강동면 안인진길 34-22,37.7346639,128.9895413
안흥찐빵마을,강원 횡성군,강원도 횡성군 안흥면 안흥로 27,37.4125243,128.1562501
알파카월드,강원 홍천군,강원도 홍천군 화촌면 덕밭재길 146-155,37.8276977,127.8835012
알펜시아 리조트,강원 평창군,강원도 평창군 대관령면 솔봉로 325,37.6616099,128.6763358
알펜시아 오션700,강원 평창군,강원도 평창군 대관령면 솔봉로 325,37.6616099,128.6763358
애견전용해수욕장 멍비치,강원 양양군,강원도 양양군 현남면 광진리 78-20,37.9534953,128.7727582
야생동물생태관,강원 양구군,강원도 양구군 동면 펀치볼로 266-60,38.2256389,128.0740174
양구 국토정중앙배꼽마을,강원 양구군,강원도 양구군 남면 봉화산로 425,38.0718233,128.0231881
양구 수목원,강원 양구군,강원도 양구군 동면 숨골로310번길 169,38.1919174,128.0764559
양구 펀치볼마을 (펀치볼),강원 양구군,강원도 양구군 해안면 동막동길 50-3,38.2936431,128.130068
양구 해시계,강원 양구군,강원도 양구군 양구읍 중앙길 53,38.1050105,127.9893387
양구DMZ,강원 양구군,강원도 양구군 해안면 해안서화로 35,38.2896041,128.1459102
양구공예공방,강원 양구군,강원도 양구군 양구읍 박수근로257번길 10,38.0948556,127.9829966
양구군민공원,강원 양구군,강원도 양구군 양구읍 양남로7번길 13,38.106026,127.9909383
양구근현대사박물관,강원 양구군,강원도 양구군 양구읍 금강산로 439-51,38.1228402,127.9903842
양구돌산령지게놀이 전수관,강원 양구군,강원도 양구군 양구읍 비봉로 69,38.1081574,127.9868569
양구백토 (강원평화지역 국가지질공원),강원 양구군,강원도 양구군 방산면 평화로 5182,38.2073417,127.9515399
양구생태식물원,강원 양구군,강원도 양구군 동면 숨골로310번길 169,38.1919174,128.0764559
양구생태식물원,강원 양구군,강원도 양구군 동면 숨골로310번길 169,38.1919174,128.0764559
양구인문학박물관,강원 양구군,강원도 양구군 양구읍 파로호로869번길 101,38.1201371,127.9773125
양구향교,강원 양구군,강원도 양구군 양구읍 관공서로16번길 5-4,38.1079271,127.9915288
양양 송천떡마을,강원 양양군,강원도 양양군 서면 떡마을길 107,38.0515596,128.5544019
양양 양수발전소 홍보관,강원 양양군,강원도 양양군 서면 산얏골길 10,38.019297,128.5424006
양양 진전사지 도의선사탑,강원 양양군,강원도 양양군 강현면 화채봉길 368,38.1229682,128.5454682
양양 진전사지 삼층석탑,강원 양양군,강원도 양양군 강현면 화채봉길 313,38.120609,128.5490489
양양 탁장사마을,강원 양양군,강원도 양양군 현북면 어성전길 256,37.9401613,128.6657891
양양국제공항,강원 양양군,강원도 양양군 손양면 공항로 201,38.0587826,128.6628467
양양동해신묘지,강원 양양군,강원도 양양군 양양읍,38.0806344,128.6238915
양양선림원지,강원 양양군,강원도 양양군 서면 서림리,37.9672793,128.5417586
양양향교,강원 양양군,강원도 양양군 양양읍 거마천로 52-20,38.0787264,128.6061707
양의대 하천습지 (강원평화지역 국가지질공원),강원 화천군,강원도 화천군 화천읍 풍산리,38.2042047,127.7610517
양지리마을,강원 철원군,강원도 철원군 동송읍 양지3길 13-30,38.2685177,127.2837954
어달항,강원 동해시,강원도 동해시 일출로 230,37.5625357,129.1201144
어달해변,강원 동해시,강원도 동해시 일출로,37.5679794,129.1137057
어답산관광지,강원 횡성군,강원도 횡성군 갑천면 어답산로 516,37.5936717,128.0574155
어라연 (강원고생대 국가지질공원),강원 영월군,강원도 영월군 영월읍 거운리,37.2396086,128.5305653
어성전계곡,강원 양양군,강원도 양양군 현북면 어성전길 93-98,37.9491213,128.6725137
에어링화천,강원 화천군,강원도 화천군 화천읍 강변로 2-54,38.1007065,127.6970293
에움녹색길,강원 홍천군,강원도 홍천군 서면 개야마을길 73,37.6943795,127.6298173
엑스포타운,강원 삼척시,"69, Expo-ro, Samcheok-si, Gangwon-do",37.43815,129.1584463
엘리시안 강촌,강원 춘천시,강원도 춘천시 남산면 북한강변길 688,37.8282853,127.5823482
여송정(餘松亭),강원 정선군,강원도 정선군 여량면 유천리 산 128,37.5046698,128.7053934
여초김응현서예관,강원 인제군,강원도 인제군 북면 만해로 154,38.1922563,128.3288755
연가리계곡,강원 인제군,강원도 인제군 기린면 진동리,37.9902067,128.4521075
연가리샘터,강원 인제군,강원도 인제군 기린면 진동리,37.9902067,128.4521075
연곡 신왕리 마암터마을,강원 강릉시,강원도 강릉시 연곡면 신왕길 388-1,37.8279705,128.7727344
연곡해변(연곡해수욕장),강원 강릉시,강원도 강릉시 연곡면 해안로 1282,37.8580844,128.8530771
염전해변,강원 강릉시,강원도 강릉시 강동면 염전길 171,37.7418432,128.9833
영금정,강원 속초시,강원도 속초시 동명항길 35,38.2122595,128.5975488
영랑호,강원 속초시,강원도 속초시 영랑호반길 140,38.2142144,128.5807107
영랑호생태습지공원,강원 속초시,강원도 속초시 장사동 일원,38.2120061,128.5506799
영모전,강원 영월군,강원도 영월군 영월읍 영모전길 148,37.1896946,128.4692323
영원사(원주),강원 원주시,강원도 원주시 판부면 영원산성길 685,37.3055127,128.0310029
영월 김삿갓면,강원 영월군,강원도 영월군 김삿갓면 김삿갓로 216-22,37.0794577,128.6016977
영월 동강애래프팅마을,강원 영월군,강원도 영월군 영월읍 동강로 1349-10,37.2381285,128.5150115
영월 뼝창마을,강원 영월군,강원도 영월군 영월읍 동강로 1490,37.2331243,128.5104247
영월 삼굿마을 [농촌체험휴양마을],강원 영월군,강원도 영월군 중동면 유전길 115,37.1553396,128.6849461
영월 섶다리 마을,강원 영월군,강원도 영월군 주천면 평창강로 262-7,37.3003682,128.3479607
영월 장릉(단종) [유네스코 세계문화유산],강원 영월군,강원도 영월군 영월읍 단종로 190,37.1957831,128.4543019
영월 정양산성(왕검성),강원 영월군,강원도 영월군 영월읍 정양리,37.15735,128.5111775
영월 청령포 관음송,강원 영월군,강원도 영월군 남면 광천리,37.1601499,128.4334127
영월 하송리 은행나무,강원 영월군,강원도 영월군 영월읍 은행나무길 65,37.1784646,128.4640184
영월미디어기자박물관,강원 영월군,강원도 영월군 한반도면 서강로 1094,37.2432537,128.3567658
영월음향역사박물관,강원 영월군,강원도 영월군 김삿갓면 내리계곡로 18,37.102845,128.6816515
영월종교미술박물관,강원 영월군,강원도 영월군 북면 시루산길 122-2,37.2109168,128.445198
영월향교,강원 영월군,강원도 영월군 영월읍 영월향교길 64,37.1853323,128.4753243
영월화석박물관,강원 영월군,강원도 영월군 주천면 평창강로 139,37.2930216,128.3407795
영은사(삼척),강원 삼척시,강원도 삼척시 근덕면 궁촌길 1162,37.2829998,129.2558266
영진항,강원 강릉시,강원 강릉시 연곡면 영진리 2-3,37.8705881,128.8402795
영진해변,강원 강릉시,강원도 강릉시 연곡면,37.8597587,128.8368017
영천사(원주),강원 원주시,강원도 원주시 치악로 2006-19,37.3583922,127.9618715
영혈사(양양),강원 양양군,강원도 양양군 양양읍 불당골길 346,38.1079106,128.5465467
오규환 가옥,강원 강릉시,강원도 강릉시 강릉대로210번길 23-9,37.7562985,128.893985
오대산 사고지,강원 평창군,강원도 평창군 진부면 동산리,37.7731822,128.5622391
오대산 소금강계곡,강원 강릉시,강원도 강릉시 연곡면,37.8597587,128.8368017
오대산국립공원,강원 평창군,강원도 평창군 진부면 오대산로,37.7287333,128.594197
오대산국립공원,강원 강릉시,강원도 강릉시 연곡면 소금강길 500,37.8135796,128.7044652
오랜미래신화미술관,강원 원주시,강원도 원주시 문막읍 취병로 711,37.3501228,127.7696896
오미마을,강원 양구군,강원도 양구군 방산면 평화로 4818,38.1871202,127.9283572
오봉서원,강원 강릉시,강원도 강릉시 성산면 오봉서원길 28-7,37.7107775,128.8194194
오분해변,강원 삼척시,강원도 삼척시 오분동 208-1,37.4263995,129.1917125
오산리선사유적,강원 양양군,강원도 양양군 손양면 학포길 33,38.0861088,128.6603825
오산항,강원 양양군,강원도 양양군 손양면 오산리,38.0865017,128.6637466
오산해수욕장,강원 양양군,강원도 양양군 손양면,38.0605678,128.6409511
오색 용소폭포,강원 양양군,강원도 양양군 서면 약수길 45,38.0775694,128.4457363
오색 치마폭포,강원 양양군,강원도 양양군 서면 오색리 산34-1,38.0945682,128.4982412
오색리삼층석탑,강원 양양군,강원도 양양군 서면 약수길 132,38.0768603,128.4400022
오색약수골전통장,강원 양양군,강원도 양양군 서면 백암길 66-1,38.0796514,128.5062797
오색약수터,강원 양양군,강원도 양양군 서면 약수길 45,38.0775694,128.4457363
오색주전골,강원 양양군,강원도 양양군 서면 약수길,38.0772672,128.4454128
오색탄산온천,강원 양양군,강원도 양양군 서면 대청봉길 34,38.0810224,128.4477418
오세암,강원 인제군,강원도 인제군 북면 백담로 1325,38.1647222,128.3738889
오죽헌,강원 강릉시,강원도 강릉시 율곡로3139번길 24,37.7791837,128.8794575
오호어촌체험마을,강원 고성군,강원도 고성군 죽왕면 심층수길 36-1,38.3268878,128.5286639
옥계항,강원 강릉시,강원도 강릉시 옥계면 주수리 558,37.6195336,129.0588377
옥계해변,강원 강릉시,강원도 강릉시 옥계면 금진솔밭길 104-32,37.6279111,129.048167
옥녀탕,강원 인제군,강원도 인제군 북면 설악로,38.1283259,128.2734057
옥체험장,강원 춘천시,강원도 춘천시 동면 금옥길 228,37.9200179,127.8053454
올챙이추억전시관,강원 횡성군,강원도 횡성군 둔내면 경강로궁종1길 121-7,37.5091275,128.1440213
옻칠기공예관,강원 원주시,강원도 원주시 소초면 구룡사로 142,37.4265559,128.0561566
완택산,강원 영월군,강원도 영월군 영월읍 동강로 426,37.2381285,128.5150115
외옹치마을,강원 속초시,강원도 속초시 해오름로 77-16,38.1820947,128.6067762
외옹치항,강원 속초시,강원도 속초시 대포동,38.1656852,128.5569925
외옹치해변,강원 속초시,강원도 속초시 해오름로 83,38.1821303,128.6075641
요선암 돌개구멍 (강원고생대 국가지질공원),강원 영월군,강원도 영월군 무릉도원면 도원운학로 13-39,37.3158099,128.214802
요선정·요선암,강원 영월군,강원도 영월군 수주면 도원운학로 13-39,37.2973428,128.2618361
용늪자연생태학교,강원 인제군,강원도 인제군 서화면 금강로 1106-27,38.2232616,128.2107596
용다사동종,강원 평창군,강원도 평창군 진부면 오대산로 374-8,37.7319381,128.5928851
용담계곡,강원 화천군,강원도 화천군 사내면 물안골길,38.0527373,127.5534959
용대 매바위 인공폭포,강원 인제군,강원 인제군 북면 용대리,38.1889599,128.3620908
용대리 매바위 인공폭포,강원 인제군,강원도 인제군 북면 용대리,38.1889599,128.3620908
용머리 공원,강원 양구군,강원도 양구군 양구읍,38.107806,127.9905751
용산서원(동해),강원 동해시,강원도 동해시 효자로 583,37.4892215,129.0985991
용소계곡,강원 홍천군,강원 홍천군 내촌면 광암리,37.8574801,128.1379431
용소막성당,강원 원주시,강원도 원주시 신림면 구학산로 1857,37.2122834,128.0874082
용소폭포(연하계곡),강원 영월군,강원도 영월군 영월읍,37.1874475,128.4660958
용수골계곡,강원 원주시,강원도 원주시 판부면 백운산길,37.2789893,127.9436496
용암리선사유적,강원 화천군,강원도 화천군 하남면 춘화로 3281,38.0937834,127.6998647
용암사,강원 태백시,강원도 태백시 태백로 2000-119,37.1493763,128.9938131
용양늪,강원 철원군,강원도 철원군 김화읍 생창길 479,38.2810896,127.4512843
용연동굴 (강원고생대 국가지질공원),강원 태백시,강원도 태백시 태백로 283-29,37.1493763,128.9938131
용연사(강릉),강원 강릉시,강원도 강릉시 사천면 중앙서로 961,37.7898302,128.7801677
용연사템플스테이,강원 강릉시,강원도 강릉시 사천면 중앙서로 961,37.7898302,128.7801677
용오름맥주마을 (관광두레 주민사업체),강원 홍천군,강원도 홍천군 서석면 검산길 263,37.7208825,128.2360725
용운사지 삼층석탑,강원 원주시,강원도 원주시 호저면 용곡리 402-1,37.4619106,127.8903223
용운사지 석조비로자나불좌상,강원 원주시,강원도 원주시 호저면 용곡리 402-1,37.4619106,127.8903223
용추폭포,강원 동해시,강원도 동해시 삼화로 538,37.4634633,129.0193739
용평리조트,강원 평창군,강원도 평창군 대관령면 올림픽로 715,37.6450087,128.6829718
용화마을,강원 삼척시,강원도 삼척시 근덕면 용화해변길 23,37.2897875,129.3042291
용화산 (강원평화지역 국가지질공원),강원 화천군,강원도 화천군 하남면 삼화리,38.0539722,127.733918
용화저수지,강원 철원군,강원도 철원군 갈말읍 신철원리,38.1285745,127.3415331
용화해변,강원 삼척시,강원도 삼척시 근덕면 용화리,37.269242,129.288489
우구정 가옥,강원 영월군,강원도 영월군 남면 들골안길 127-4,37.2053664,128.3778819
운교산,강원 영월군,강원도 영월군 김삿갓면 직실길,37.1180367,128.6549659
운암정,강원 횡성군,강원도 횡성군 횡성읍 한우로 193,37.4962733,127.9807956
울산바위촬영휴게소,강원 고성군,강원도 고성군 토성면 미시령로 2653,38.2070119,128.4964867
원당계곡,강원 평창군,강원도 평창군 평창읍 원당리,37.4000197,128.3161514
원대리 자작나무 숲 (속삭이는 자작나무 숲),강원 인제군,강원도 인제군 인제읍 자작나무숲길 760,37.9970777,128.1998592
원동성당,강원 원주시,강원도 원주시 원일로 27,37.3455293,127.9529841
원성 성남리 성황림,강원 원주시,강원도 원주시 신림면 성남리,37.277301,128.081686
원주 강원감영,강원 원주시,강원도 원주시 원일로 85,37.3481818,127.9499428
원주 거돈사지,강원 원주시,강원도 원주시 부론면 정산리,37.1863856,127.7846206
원주 고려인삼창,강원 원주시,강원도 원주시 소초면 북원로 2955,37.4088289,127.9504752
원주 반곡역사,강원 원주시,강원도 원주시 달마중3길 30,37.3422186,127.9201621
원주 법천사지,강원 원주시,강원도 원주시 부론면,37.2075839,127.7504828
원주 삼태미마을 [산촌생태마을],강원 원주시,강원도 원주시 귀래면 운계다둔길 111,37.2006058,127.8959803
원주 소금산 출렁다리,강원 원주시,강원도 원주시 지정면 소금산길 12,37.3664972,127.826077
원주 영원산성,강원 원주시,강원도 원주시 판부면 금대리,37.274738,128.0149853
원주 운곡원천석묘역,강원 원주시,강원도 원주시 행구동,37.3412674,128.0127368
원주 원충갑묘역,강원 원주시,강원도 원주시 지정면 간현리 산25,37.3758701,127.8375967
원주 조엄묘역,강원 원주시,강원도 원주시 지정면 간현리,37.3670756,127.8373176
원주 학곡마을,강원 원주시,강원도 원주시 소초면 구룡사로 7,37.4370008,128.0574357
원주 허브팜,강원 원주시,강원도 원주시 마장2길 33,37.3080321,127.9246896
원주 협동사회경제네트워크,강원 원주시,강원도 원주시 원일로 137,37.3500212,127.9483388
원주 흥법사지 삼층석탑,강원 원주시,강원도 원주시 지정면 안창리,37.351389,127.8016796
원주 흥법사지 진공대사탑비,강원 원주시,강원도 원주시 지정면 안창리,37.351389,127.8016796
원주 흥양리 마애불좌상,강원 원주시,강원도 원주시 흥양리 산1,37.367967,128.023096
원주교항리석조불두,강원 원주시,강원도 원주시 소초면 치악로 2966,37.4176689,128.0167679
원주역 급수탑,강원 원주시,강원도 원주시 평원로 158,37.3566981,127.9457322
원주한지테마파크,강원 원주시,강원도 원주시 한지공원길 151,37.334432,127.9353773
원주향교,강원 원주시,강원도 원주시 향교길 37-1,37.3389452,127.9493192
원평 팜스테이,강원 춘천시,강원도 춘천시 사북면 말고개길 82-35,38.0037477,127.6285305
원평해변(원평해수욕장),강원 삼척시,강원도 삼척시 근덕면 궁촌길 628-22,37.3004606,129.2712626
원포해변,강원 양양군,강원도 양양군 손양면 학포길 33,38.0861088,128.6603825
"월남 파병용사 만남의 장 (구, 베트남 참전용사 만남의 장)",강원 화천군,강원도 화천군 간동면 죽엽산길 81-68,38.0548585,127.8343918
월둔동굴,강원 태백시,강원도 태백시 원동 산117번지,37.2564882,128.9441854
월정리역,강원 철원군,강원도 철원군 철원읍 두루미로 1882,38.3088901,127.2284105
월정사 적멸보궁,강원 평창군,강원도 평창군 진부면 오대산로 374-8,37.7319381,128.5928851
월정사·월정사 전나무숲,강원 평창군,강원도 평창군 진부면 오대산로 374-8,37.7319381,128.5928851
월정사부도군,강원 평창군,강원도 평창군 진부면 오대산로 374-8,37.7319381,128.5928851
월천리 솔섬,강원 삼척시,강원도 삼척시 원덕읍 월천리 산 69-4,37.1566517,129.3440299
월천유원지,강원 삼척시,강원도 삼척시 원덕읍 월천리,37.1566517,129.3440299
월천해변,강원 삼척시,강원도 삼척시 원덕읍 고포월천길,37.1520961,129.3574843
웰컴투동막골촬영지,강원 평창군,강원도 평창군 미탄면 동막골길 122,37.3140118,128.470921
위라리칠층석탑,강원 화천군,강원도 화천군 하남면 위라리,38.0875614,127.7212862
위봉문,강원 춘천시,강원도 춘천시 중앙로 1,37.8855687,127.7301849
유동리오층석탑,강원 평창군,강원도 평창군 평창읍 유동리 산 1,37.3514664,128.3837476
유일사,강원 태백시,강원도 태백시 태백산로 4246-167,37.1081608,128.9100477
유촌리 파로호 느릅마을,강원 화천군,강원도 화천군 간동면 파로호로 923-15,38.055892,127.7899015
유현문화관광지,강원 횡성군,강원도 횡성군 서원면 경강로유현1길 50,37.5291936,127.8186944
육담폭포,강원 속초시,강원도 속초시 설악산로,38.1630004,128.5454229
육림랜드,강원 춘천시,강원도 춘천시 영서로 2965,37.9177411,127.719995
육송정 홍교,강원 고성군,강원도 고성군 해상리 1041,38.3868185,128.4082561
육수관음상,강원 평창군,강원도 평창군 진부면 오대산로 374-8,37.7319381,128.5928851
육향산,강원 삼척시,강원도 삼척시 새천년도로 16,37.436005,129.1844104
윤희순상,강원 춘천시,강원도 춘천시 옛경춘로 830-24,37.8703944,127.7111063
윤희순여사 동상,강원 춘천시,강원도 춘천시 옛경춘로 830-24,37.8703944,127.7111063
을지전망대,강원 양구군,강원도 양구군 해안면,38.2851823,128.1372421
응봉산(강원),강원 삼척시,강원 삼척시 가곡면 풍곡리,37.0918635,129.1583381
의민공사우,강원 원주시,강원도 원주시 지정면 지정로 626,37.3439545,127.820545
의암 유인석묘역,강원 춘천시,강원도 춘천시 남면 충효로 1517,37.7410945,127.6054085
의암수력발전소,강원 춘천시,강원도 춘천시 신동면 옛경춘로 62-15,37.8328747,127.6800635
의암호 스카이워크,강원 춘천시,강원도 춘천시 옛경춘로 253-41,37.8470016,127.6819205
이기붕별장,강원 고성군,강원도 고성군 거진읍 화진포길 300-1,38.4734582,128.4419091
이덕균가옥,강원 고성군,강원도 고성군 죽왕면 송지호로 198-12,38.3284291,128.5035289
이두형가옥,강원 양양군,강원도 양양군 서면 서선리,38.0893674,128.5650231
이사부길(새천년해안도로),강원 삼척시,강원도 삼척시 새천년도로 61-18,37.4392283,129.1879721
이사부사자공원&그림책 나라,강원 삼척시,강원도 삼척시 수로부인길 333,37.4755503,129.1591048
이승만대통령 기념관,강원 고성군,강원도 고성군 현내면 이승만별장길 33,38.4708093,128.4364311
이승만별장(고성),강원 고성군,강원도 고성군 현내면 이승만별장길 33,38.4708093,128.4364311
이승휴 상징 조형물,강원 삼척시,강원도 삼척시 미로면 내미로리,37.4461594,129.0562001
이종후 가옥 (동막댁 東幕宅),강원 정선군,강원도 정선군 임계면 수고당길 110,37.4847093,128.8481069
이해인시문학과 김형석·안병욱 철학의집,강원 양구군,강원도 양구군 파로호로 869번길,38.1201371,127.9773125
이효석 문학의 숲,강원 평창군,강원도 평창군 봉평면 창동리 산139,37.6001336,128.3578796
이효석 생가,강원 평창군,강원도 평창군 봉평면 이효석길 33-11,37.6108911,128.3600481
이효석 생가터,강원 평창군,강원도 평창군 봉평면 이효석길 33-11,37.6108911,128.3600481
이효석가산공원,강원 평창군,강원도 평창군 봉평면 효석문학길 9-5,37.6109433,128.3633127
이효석문화마을,강원 평창군,강원도 평창군 봉평면 원길리,37.6479845,128.3687296
인구항,강원 양양군,강원도 양양군 현남면 인구리,37.9544029,128.7369204
인구해변,강원 양양군,강원도 양양군 현남면 인구항길 12,37.9702347,128.7618788
인구해안로,강원 양양군,강원도 양양군 현남면,37.969241,128.7594439
인어상,강원 춘천시,강원도 춘천시 신동면 의암리 산 81-2,37.8403691,127.676935
인제 냇강마을,강원 인제군,강원도 인제군 북면 냇강마을안길 32,38.1485537,128.2058221
인제 미산리 개인약수,강원 인제군,강원도 인제군 상남면 미산리 산1 일원,37.8619486,128.3474284
인제 하늘여울소치마을,강원 인제군,강원도 인제군 남면 부평정자로 744,37.9612794,128.1616077
인제 하추마을,강원 인제군,강원도 인제군 인제읍 하추로 187,38.0196511,128.2816555
인제 황태마을,강원 인제군,강원도 인제군 북면 진부령로 307,38.2354994,128.3611016
인제한계사지,강원 인제군,강원도 인제군 북면 한계리,38.1227531,128.3023006
인제향교,강원 인제군,강원도 인제군 인제읍 인제로231번길 14,38.0719211,128.1746051
일출공원,강원 동해시,강원도 동해시 해맞이길 267,37.556647,129.1172228
임원해변,강원 삼척시,강원도 삼척시 원덕읍 임원리,37.2395383,129.3139976
임해자연휴양림,강원 강릉시,강원도 강릉시 강동면 율곡로 1715-85,37.7211928,128.9987688
입석사(원주),강원 원주시,강원도 원주시 소초면 황골로 707,37.3601826,128.03562
자규루 및 관풍헌,강원 영월군,강원도 영월군 영월읍 중앙로 61,37.1838309,128.4706151
자연아놀자 체험학습박물관,강원 강릉시,강원도 강릉시 난설헌로 105,37.7868489,128.9060121
자연환경연구공원,강원 홍천군,강원도 홍천군 북방면 생태공원길 319,37.7540969,127.8518909
자작도해변,강원 고성군,강원도 고성군 죽왕면 문암진리,38.3027743,128.5421096
작은후진해수욕장,강원 삼척시,강원도 삼척시 새천년도로 467,37.4638711,129.1761481
잔교해변,강원 양양군,강원도 양양군 현북면 쟁기동길 78-1,38.0000925,128.7252592
잠곡저수지,강원 철원군,강원도 철원군 근남면 잠곡리,38.1631969,127.4735976
잣나무 연리지,강원 태백시,강원도 태백시 소도동 산 33-1,37.1145036,128.9514771
잣봉(영월),강원 영월군,강원도 영월군 영월읍 어라연길 4,37.2359836,128.5134561
장미공원,강원 원주시,강원도 원주시 단계동 854,37.3466171,127.9311771
장사(사진)마을,강원 속초시,강원도 속초시 장사항해안길 58,38.2266225,128.5879226
장사항,강원 속초시,강원도 속초시 장사항해안길 58,38.2266225,128.5879226
장산(영월),강원 영월군,강원도 영월군 상동읍 구래리 산 1-16,37.1483596,128.8512491
장수대,강원 인제군,강원도 인제군 북면 설악로 4193,38.1221306,128.3197111
장신유원지,강원 고성군,강원도 고성군 간성읍 소똥령마을길 32,38.3304025,128.3783351
장전계곡,강원 평창군,강원도 평창군 진부면 장전길 2,37.4780319,128.5459064
장호어촌체험마을,강원 삼척시,강원도 삼척시 근덕면 장호항길 62,37.2860439,129.3181965
장호항,강원 삼척시,강원도 삼척시 근덕면 장호항길 103,37.2878078,129.3175766
"장호해수욕장(장호항, 장호해변)",강원 삼척시,강원도 삼척시 근덕면 장호리,37.2709132,129.3100705
재동 마을관리휴양지,강원 삼척시,강원도 삼척시 근덕면 삼척로 3500,37.2886638,129.3087991
재동유원지,강원 삼척시,강원도 삼척시 근덕면 삼척로 3500,37.2886638,129.3087991
쟁강게스트하우스마을 (관광두레 주민사업체),강원 춘천시,강원도 춘천시 서면 툇골길 7,37.9356589,127.7021004
전기필불망비,강원 양구군,강원도 양구군 남면 가오작리,38.1387401,128.0635054
전쟁기념관,강원 양구군,강원도 양구군 해안면 후리 720,38.3264403,128.1429725
전진항,강원 양양군,강원도 양양군 강현면 낙산사로 54-26,38.1237256,128.6325159
전통산업진흥센터,강원 원주시,강원도 원주시 상지대길 84,37.3723551,127.9292478
전통한옥,강원 동해시,강원도 동해시 동해대로 6370,37.598227,129.0807874
점봉산,강원 양양군,강원도 인제군 인제읍 한석산로 2221-101,38.0648737,128.2818069
점봉산 곰배령,강원 인제군,강원도 인제군 기린면 곰배령길 12,38.0364314,128.4719501
정감이마을,강원 강릉시,강원도 강릉시 강동면 둔지길 81,37.7166753,128.9561142
정강원 (한국전통음식문화체험관),강원 평창군,강원도 평창군 용평면 금당계곡로 2010-13,37.570353,128.407999
정동진,강원 강릉시,강원도 강릉시 강동면 정동역길 17,37.6911646,129.0330457
정동진역,강원 강릉시,강원도 강릉시 강동면 정동역길 17,37.6911646,129.0330457
정동진해변,강원 강릉시,강원도 강릉시 강동면 정동역길 17,37.6911646,129.0330457
정동진해안로,강원 강릉시,강원도 강릉시 강동면 안인리 708,37.7330706,128.9769398
정선 가리왕산마을,강원 정선군,강원도 정선군 정선읍 벽탄길,37.3942276,128.6013703
정선 백두대간 약초마을,강원 정선군,강원도 정선군 임계면 눈꽃마을길 178-30,37.5025077,128.9079015
정선 양떼목장,강원 정선군,강원도 정선군 정선읍 오반동길 470,37.3855876,128.7011619
정선백전리물레방아,강원 정선군,강원도 정선군 화암면 백전리,37.2707034,128.8674816
정선수리취떡,강원 정선군,강원도 정선군 정선읍 5일장길 37-10,37.380958,128.6646236
정선아리랑열차(A-train),강원 정선군,강원도 정선군 여량면 여량6길 17,37.4730015,128.7221887
정선향교,강원 정선군,강원도 정선군 정선읍 비봉로 67-9,37.3820292,128.6656132
정암사,강원 정선군,강원도 정선군 고한읍 함백산로 1410,37.1830521,128.8927655
정암해변,강원 양양군,강원도 양양군 강현면 정암리,38.1417006,128.6074802
제2땅굴(철원),강원 철원군,강원도 철원군 동송읍 태봉로 1825,38.1865639,127.2874501
제4땅굴,강원 양구군,강원도 양구군 해안면 이현리,38.317709,128.1120428
제왕산/능경봉,강원 강릉시,강원 강릉시 성산면 어흘리,37.7107204,128.7795353
제이드가든 수목원,강원 춘천시,강원도 춘천시 남산면 햇골길 80,37.8325325,127.5422982
제이큐브미술관,강원 영월군,강원도 영월군 영월읍 사지막길 56,37.2177346,128.5187476
조양루,강원 춘천시,강원도 춘천시 중앙로 1,37.8855687,127.7301849
조양산(정선),강원 정선군,강원도 정선군 정선읍 용담길 102-22,37.3772656,128.6537356
조엄기념관,강원 원주시,강원도 원주시 지정면 간현리 137-2,37.3537322,127.8516617
㈜강원심층수,강원 고성군,강원도 고성군 죽왕면 심층수길 124-19,38.3345549,128.5210056
주문리마을,강원 강릉시,강원도 강릉시 주문진읍 주문로,37.8915666,128.8277519
주문진 등대,강원 강릉시,강원도 강릉시 주문진읍 옛등대길 24-7,37.8976284,128.8338447
주문진읍 BTS 앨범사진 촬영지 (버스정류장),강원 강릉시,강원도 강릉시 주문진읍 주문북로 20,37.8966507,128.8310605
주문진항,강원 강릉시,강원도 강릉시 주문진읍 해안로,37.893008,128.8301486
주문진해변,강원 강릉시,강원도 강릉시 주문진읍 주문북로 210,37.9105902,128.8182985
주천강자연휴양림,강원 횡성군,강원도 횡성군 둔내면 강변로영랑6길 115,37.4606488,128.2036709
죽도정,강원 양양군,강원도 양양군 현남면 인구항길,37.9707975,128.7619086
죽도해변(양양),강원 양양군,강원도 양양군 현남면 인구중앙길,37.9703125,128.7567437
"죽정분교(구,죽정초등학교)",강원 고성군,강원도 고성군 현내면 모정2길 2,38.4702205,128.420055
중광정해변,강원 양양군,강원도 양양군 현북면 하조대해안길 119,38.0229452,128.723896
중동마을,강원 정선군,강원도 정선군 여량면 중동길 38,37.5188653,128.7401547
중봉계곡,강원 삼척시,강원도 삼척시 하장면 중봉당골길,37.3929898,128.9301814
증산해변(증산 해수욕장),강원 삼척시,강원도 삼척시 증산동,37.4706014,129.1570881
지경리해변,강원 양양군,강원도 양양군 현남면 동해대로 62,37.9199614,128.8040613
지암계곡,강원 춘천시,강원 춘천시 사북면 지암리,37.977581,127.5805953
직연폭포,강원 양구군,강원 양구군 방산면 장평리,38.2110296,127.9656905
직탕폭포 (한탄강 국가지질공원),강원 철원군,강원도 철원군 동송읍 직탕길 94,38.2093151,127.2653982
진동 계곡마을,강원 인제군,강원도 인제군 기린면 조침령로 1071-1,37.9609555,128.4066937
진동계곡,강원 인제군,강원도 인제군 기린면 진동리,37.9902067,128.4521075
진부령 (강원평화지역 국가지질공원),강원 고성군,강원도 고성군 간성읍 진부리,38.2967827,128.3440604
진부령 흘리마을,강원 고성군,강원도 고성군 간성읍 흘리길 185,38.2647969,128.3740727
진부리계곡,강원 고성군,강원도 고성군 간성읍 진부리 37번지,38.2967827,128.3440604
진전사지,강원 양양군,강원도 양양군 강현면 둔전리 101,38.1210319,128.5487751
집다리골자연휴양림,강원 춘천시,강원도 춘천시 사북면 화악지암1길 130,37.9776131,127.580792
참존 원주공장,강원 원주시,강원도 원주시 태장공단길,37.4041885,127.9473077
창절사,강원 영월군,강원도 영월군 영월읍 단종로 60,37.187861,128.4653036
척산온천지구,강원 속초시,강원도 속초시 관광로 288,38.1870397,128.5435793
척산족욕공원,강원 속초시,강원도 속초시 관광로 277,38.1859893,128.5422051
척야산 문화수목원,강원 홍천군,강원도 홍천군 내촌면 동창로 282,37.7818908,128.1582732
천곡동굴,강원 동해시,강원도 동해시 동굴로 50,37.517365,129.1102094
천곡천연동굴 자연학습체험공원,강원 동해시,강원도 동해시 동굴로 50,37.517365,129.1102094
천곡항,강원 동해시,강원도 동해시 천곡동,37.5228305,129.1160694
천곡황금박쥐동굴,강원 동해시,강원도 동해시 동굴로 50,37.517365,129.1102094
천당폭포,강원 속초시,강원도 속초시 설악산로,38.1630004,128.5454229
천문인 마을,강원 횡성군,강원도 횡성군 강림면 월안1길,37.3718687,128.1741718
천불동계곡,강원 속초시,강원도 속초시 설악산로 1091,38.1730998,128.4890543
천은사(삼척),강원 삼척시,강원도 삼척시 미로면 동안로 816,37.4446244,129.0425737
천은사계곡(원주),강원 원주시,강원도 원주시 귀래면 귀래리,37.2203642,127.8760151
천전리 지석묘군,강원 춘천시,강원도 춘천시 천전리 685-7,37.9298873,127.7757534
천진항,강원 고성군,강원도 고성군 천진리 111-4,38.2604529,128.5605986
천진해변,강원 고성군,강원도 고성군 토성면 천진해변길,38.2595534,128.5586555
천학정/문암포구,강원 고성군,강원도 고성군 토성면 천학정길 5,38.2891155,128.5475165
철새마을,강원 철원군,강원도 철원군 동송읍 양지2길 44,38.2697867,127.2812197
철원 노동당사,강원 철원군,강원도 철원군 철원읍 금강산로 265,38.2551773,127.2019466
철원 농산물검사소,강원 철원군,강원도 철원군 철원읍 외촌리 620-1,38.267851,127.1981305
철원 누에마을,강원 철원군,강원도 철원군 근남면 도덕동길 13,38.1654477,127.4598769
철원 두루미자는 버들골마을,강원 철원군,강원도 철원군 동송읍 금강산로 1556,38.2596826,127.2660613
철원 생태평화공원,강원 철원군,강원도 철원군 김화읍 생창길 481-1,38.2810896,127.4512843
철원 수도국지내 급수탑,강원 철원군,강원도 철원군 철원읍 사요리 409외 2필지,38.2479295,127.1935603
철원 시설물관리사업소 (구 철의삼각전적관),강원 철원군,강원도 철원군 동송읍 태봉로 1825,38.1865639,127.2874501
철원 얼음창고,강원 철원군,강원도 철원군 외촌리 603-1,38.2693271,127.1981863
철원 오대미마을,강원 철원군,강원도 철원군 철원읍 묘장로 301,38.2648432,127.168935
철원 용암대지 (한탄강 국가지질공원),강원 철원군,강원도 철원군 철원읍 사요리,38.259254,127.1848348
철원 철새도래지 (철원평야),강원 철원군,강원도 철원군 철원읍,38.2120964,127.2129166
철원 평화마을 서울캠핑장,강원 철원군,강원도 철원군 근북면 유곡로 545,38.302733,127.3976596
철원 평화전망대,강원 철원군,강원도 철원군 동송읍 중강리,38.3260509,127.2504512
철원DMZ,강원 철원군,강원도 철원군 김화읍 생창길 481-1,38.2810896,127.4512843
철원승일공원,강원 철원군,강원도 철원군 갈말읍 내대리 일대,38.2049554,127.3016739
철원역사(舍),강원 철원군,강원도 철원군 철원읍 외촌리,38.2777945,127.2023647
철원지석묘군,강원 철원군,강원도 철원군 갈말읍 토성길 87,38.2440166,127.3421592
철원충렬사지,강원 철원군,강원도 철원군 김화읍 생창길 603,38.2901889,127.4498589
철원토성및석조물,강원 철원군,강원도 철원군 토성리 273-3,38.2424943,127.3506311
철원평화문화광장,강원 철원군,강원도 철원군 동송읍 강산리,38.3071862,127.2655881
철원향교,강원 철원군,강원도 철원군 철원읍 금학로 591,38.2387203,127.2135154
철의삼각전적관,강원 철원군,강원도 철원군 동송읍 태봉로 1825,38.1865639,127.2874501
청간정,강원 고성군,강원도 고성군 토성면 동해대로 5110,38.2644723,128.5582857
청간항,강원 고성군,강원도 고성군 토성면 천진리,38.2571139,128.5514248
청간해변,강원 고성군,강원도 고성군 토성면,38.2571927,128.558578
청대산,강원 속초시,강원도 속초시 청대로 207,38.18578,128.5759315
청령포 (강원고생대 국가지질공원),강원 영월군,강원도 영월군 영월읍 청령포로 133,37.1775511,128.447777
청옥산,강원 동해시,강원도 평창군 미탄면 청옥산길 557-4,37.4003439,128.5060692
청옥산(평창),강원 평창군,강원도 평창군 미탄면 청옥산길 557-4,37.4003439,128.5060692
청원사,강원 태백시,강원도 태백시 용담1길 48-17,37.1267557,128.9581859
청초호,강원 속초시,강원도 속초시 청초호반로,38.1954731,128.5854311
청초호 둘레길,강원 속초시,강원도 속초시 엑스포로 140,38.196797,128.5819721
청춘양구레포츠공원,강원 양구군,강원도 양구군 양구읍 박수근로 366-24,38.105262,127.9827092
청평사 고려선원,강원 춘천시,강원도 춘천시 북산면 오봉산길 779,37.9857683,127.8085904
청평사 회전문,강원 춘천시,강원도 춘천시 북산면 오봉산길 779,37.9857683,127.8085904
청평사(춘천),강원 춘천시,강원도 춘천시 북산면 오봉산길 810,37.9857683,127.8085904
청평사계곡,강원 춘천시,강원도 춘천시 북산면 오봉산길 810,37.9857683,127.8085904
청풍부원군 김우명상여,강원 춘천시,강원도 춘천시 우석로 70,37.8637742,127.7524778
청호해변,강원 속초시,강원도 속초시 아바이마을1길 6,38.2029323,128.5939033
초곡항,강원 삼척시,강원도 삼척시 근덕면 초곡길 236-18,37.3105025,129.2948076
초곡해수욕장,강원 삼척시,강원도 삼척시 근덕면 초곡2길,37.308952,129.2871709
초당두부마을,강원 강릉시,강원도 강릉시 초당순두부길 89-8,37.7918153,128.9151518
초도마을,강원 고성군,강원도 고성군 현내면 초도항길 60,38.4850621,128.4385505
초도항,강원 고성군,강원도 고성군 현내면 초도리,38.483272,128.4252017
초도해변,강원 고성군,강원도 고성군 현내면 초도항길,38.4866677,128.4350569
초등교육박물관,강원 영월군,강원도 영월군 북면 밤재로 7,37.2529198,128.4320203
최초석탄발견지탑,강원 태백시,강원도 태백시 금천동,37.0901979,128.9765026
추곡약수터,강원 춘천시,강원도 춘천시 북산면 추곡약수길 89-1,38.0372317,127.8891167
추대계곡,강원 인제군,강원도 인제군 기린면 방동리,37.9126207,128.4151868
추암 촛대바위,강원 동해시,강원도 동해시 촛대바위길 28,37.4770441,129.1592149
추암 출렁다리,강원 동해시,강원도 동해시 촛대바위길 28,37.4770441,129.1592149
추암역,강원 동해시,강원도 동해시 추암길 199,37.4782517,129.1573567
추암조각공원,강원 동해시,강원도 춘천시 서면 경춘로 1401-25,37.8258675,127.6596088
추암해변,강원 동해시,강원도 동해시 촛대바위길 26,37.4772001,129.1591099
춘천 강언덕마을 [농촌전통테마],강원 춘천시,강원도 춘천시 남면 한덕발산길 61,37.6803155,127.6142294
춘천 근화동 당간지주,강원 춘천시,강원도 춘천시 당간지주길,37.8913552,127.7222803
춘천 명동 닭갈비 골목,강원 춘천시,강원 춘천시 조양동,37.8796352,127.7301299
춘천 명동거리,강원 춘천시,강원도 춘천시 중앙로 55,37.8799916,127.7275304
춘천 문학공원,강원 춘천시,강원도 춘천시 서면 금산리,37.9051273,127.6967604
춘천 솔바우마을,강원 춘천시,강원도 춘천시 사북면 솔바우길 195,37.9956306,127.6863793
춘천 옥산가(옥광산),강원 춘천시,강원도 춘천시 동면 금옥길 228,37.9200179,127.8053454
춘천 장절공 신숭겸 신도비,강원 춘천시,강원도 춘천시 서면 방동리 821-1번지,37.9034052,127.6623682
춘천김정은가옥,강원 춘천시,강원도 춘천시 신동면 솟발1길 44,37.8449354,127.7290718
춘천내평전투 호국경찰추모상,강원 춘천시,강원도 춘천시 신북읍 상천3길 36,37.9334639,127.7891992
춘천댐,강원 춘천시,강원 춘천시 서면 오월리,37.9609954,127.6361267
춘천봉의산성,강원 춘천시,강원도 춘천시 번개시장길4번길 20-6,37.8922454,127.7302367
춘천수력발전소,강원 춘천시,강원도 춘천시 신북읍 영서로 3746,37.9683285,127.6732146
춘천숲자연휴양림,강원 춘천시,강원도 춘천시 동산면 종자리로 224-104,37.7477873,127.7434473
춘천예술마당,강원 춘천시,강원도 춘천시 서부대성로 71,37.8824701,127.731333
춘천지구 전적비(춘천지구 전적기념관),강원 춘천시,강원도 춘천시 수변공원길 45,37.8738766,127.7048364
춘천최재근가옥,강원 춘천시,강원도 춘천시 신동면 솟발길 33-11,37.8431109,127.7275344
춘천향교,강원 춘천시,강원도 춘천시 삭주로 21,37.8816972,127.7342006
춘천호,강원 춘천시,강원도 춘천시 서면 오월리,37.9609954,127.6361267
충렬탑(강원),강원 춘천시,강원도 춘천시 우두동,37.9052051,127.7386063
충효사,강원 원주시,강원도 원주시 문막읍 빈계리,37.2919813,127.7794553
치래마을,강원 양양군,강원도 양양군 서면 구룡령로 1103-6,37.9612452,128.525577
치악산 명주사,강원 원주시,강원도 원주시 신림면 물안길 62,37.2571841,128.1285228
치악산국립공원,강원 원주시,강원 원주시 소초면,37.4179049,128.0022421
치악산국립공원,강원 원주시,강원도 원주시 소초면 무쇠점2길 26,37.4140207,128.0503654
치악산국립공원 황골지구,강원 원주시,강원도 원주시 소초면 황골로 580,37.360267,128.0222359
치악산자연휴양림,강원 원주시,강원도 원주시 판부면 휴양림길 66,37.2559097,128.031252
치악산황둔청소년수련원,강원 원주시,강원도 원주시 신림면 소야1길 88,37.2559035,128.1702245
칠봉유원지,강원 원주시,강원도 원주시 호저면 칠봉마을길 35,37.4402903,127.8842276
칠성산,강원 강릉시,강원도 강릉시 구정면 어단리,37.6785816,128.8934369
칠성전망대,강원 화천군,강원도 화천군 상서면 주파령로 4,38.2108168,127.6641766
카페 테일,강원 고성군,강원도 고성군 죽왕면 가진길 40-5,38.3727952,128.5087321
캔싱턴해변,강원 고성군,강원도 고성군 토성면 동해대로 4800,38.2432185,128.5723665
컬러팜웨딩 포레스트 (관광두레 주민사업체),강원 홍천군,강원도 홍천군 서면 도롱골길 195-19,37.6921267,127.7177057
쾌연재도자미술관,강원 영월군,강원도 영월군 한반도면 한반도로 452,37.2180515,128.3681502
타임캡슐공원,강원 정선군,강원도 정선군 신동읍 엽기소나무길 518-23,37.2008122,128.687808
탁장사고을,강원 양양군,강원도 양양군 현북면 어성전길 258,37.940011,128.6659094
탑골마을,강원 평창군,강원도 평창군 진부면 탑동리 236,37.7105954,128.5514595
태기산,강원 횡성군,강원도 횡성군 둔내면 경강로,37.5234046,128.2077028
태기산풍력발전단지,강원 횡성군,강원도 횡성군 둔내면 태기리 산,37.5931718,128.2471963
태백 경찰서 망루,강원 태백시,강원도 태백시 장성로 26,37.1023272,129.0082122
태백 구와우마을(고원자생식물원),강원 태백시,강원도 태백시 구와우길 38-33,37.2074138,128.9911779
태백 상장동 벽화마을,강원 태백시,강원도 태백시 상장남길 64,37.1478745,128.9903441
태백 시티투어,강원 태백시,강원도 태백시 서황지로 79,37.176099,128.9839366
태백 장명사 목불좌상,강원 태백시,강원도 태백시 계산1길 66,37.1109519,128.9983916
태백 장성 전기고생대 화석산지,강원 태백시,강원도 태백시 장성동 산 42-2,37.1018018,129.0167766
태백 장성이중교,강원 태백시,강원도 태백시 장성동 222,37.1052329,129.0023082
태백 철암역 두선탄시설,강원 태백시,강원도 태백시 철암동 365-1,37.1153226,129.0359518
태백 추전역,강원 태백시,강원도 태백시 싸리밭길 47-63,37.2001255,128.9498485
태백고생대자연사 박물관,강원 태백시,강원도 태백시 태백로 2249,37.0949058,129.039566
태백고원자연휴양림,강원 태백시,강원도 태백시 머리골길 153,37.1234799,129.0659795
태백산 국립공원,강원 태백시,강원도 태백시 태백산로 4778,37.1203361,128.9078946
태백산 석장승,강원 태백시,강원도 태백시 계산1길 66,37.1109519,128.9983916
태백산 천제단,강원 태백시,강원도 태백시 천제단길 168,37.1201314,128.9512754
태백체험공원,강원 태백시,강원도 태백시 소도길 9-11,37.1337301,128.972806
태양에너지전시관,강원 삼척시,강원도 삼척시 엑스포로 50,37.4398198,129.157976
태양의 후예 촬영지,강원 태백시,강원도 태백시 통골길 116-52,37.1649928,129.0408334
태장동왕녀복란태실비,강원 원주시,강원도 원주시 태장동 1266-11,37.3812868,127.9483602
태종대(횡성),강원 횡성군,강원도 횡성군 강림면 태종로 287,37.3512552,128.1093474
태창사,강원 태백시,강원도 태백시 상장동 165-5,37.1443477,128.9877496
태화산(강원),강원 영월군,강원도 영월군 김삿갓면,37.1256266,128.5700286
터득골북샵,강원 원주시,강원도 원주시 흥업면 대안로 511-42,37.2679541,127.8721975
토교저수지,강원 철원군,강원도 철원군 동송읍 양지길 117,38.270936,127.2892984
토교저수지(철새도래지),강원 철원군,강원도 철원군 동송읍 양지길 117,38.270936,127.2892984
토성민속마을,강원 철원군,강원도 철원군 갈말읍 토성길 114-18,38.2450454,127.343266
토왕성폭포,강원 속초시,강원도 속초시 설악산로,38.1630004,128.5454229
통일공원함정전시관,강원 강릉시,강원도 강릉시 강동면 율곡로 1616,37.7067534,129.0109857
통일안보공원,강원 고성군,강원도 고성군 현내면 금강산로 481,38.5145523,128.4167773
파로호(양구),강원 양구군,강원 양구군 양구읍 서천 하류,38.107806,127.9905751
파로호(화천),강원 화천군,강원도 화천군 간동면 배터길 36-8,38.0960506,127.7773787
파로호수변생태탐방로,강원 양구군,강원도 양구군 양구읍 고대리,38.1434806,127.9822532
파서탕,강원 양구군,강원도 양구군 방산면 오미리,38.1843159,127.8987098
판대천,강원 원주시,강원 원주시 지정면 판대리,37.3888822,127.8001125
팔랑1리마을,강원 양구군,강원도 양구군 동면 바랑길 87,38.2121148,128.0589702
팔랑민속관,강원 양구군,강원도 양구군 양구읍 비봉로 69,38.1081574,127.9868569
팔랑폭포,강원 양구군,강원도 양구군 동면,38.2022212,128.0435524
팔봉 돌배마을,강원 홍천군,강원도 홍천군 서면 오도치길 273-2,37.6673757,127.7062738
팔봉산(홍천),강원 홍천군,강원도 홍천군 서면 한치골길 1124,37.7034015,127.6956177
팔봉산관광지,강원 홍천군,강원도 홍천군 서면 한치골길 1124,37.7034015,127.6956177
팔봉참살이마을,강원 홍천군,강원도 홍천군 서면 오도치길 6,37.6832416,127.6981207
팔석정,강원 평창군,강원도 평창군 봉평면 쉴바위길 33-11,37.6001935,128.3768403
팔효자각,강원 양구군,강원도 양구군 양구읍 송청리,38.0945556,128.0005986
펀치볼지구전투전적비,강원 양구군,강원도 양구군 동면 팔랑리,38.2189144,128.0827487
펫힐링 달빛동물원,강원 영월군,강원도 영월군 남면 연당리,37.1774432,128.4051948
평창 바위공원,강원 평창군,강원도 평창군 평창읍 중리 14-4,37.3759627,128.4105998
평창 스키점프 전망대,강원 평창군,강원도 평창군 대관령면 솔봉로 325,37.6616099,128.6763358
평창 어름치마을,강원 평창군,강원도 평창군 미탄면 마하길 42-5,37.2925072,128.5416306
평창 운흥사 천룡탱화,강원 평창군,강원도 평창군 진부면 오대산로 374-8,37.7319381,128.5928851
평창 월정사 석조보살좌상,강원 평창군,강원도 평창군 진부면 오대산로 176,37.7287333,128.594197
평창 육백마지기,강원 평창군,강원도 평창군 미탄면 회동리,37.3761593,128.4849847
평창 의야지 바람마을,강원 평창군,강원도 평창군 대관령면 꽃밭양지길 137,37.6867014,128.7112102
평창 지동봉가옥,강원 평창군,강원도 평창군 평창읍 천동길 160,37.3333515,128.3792837
평창향교,강원 평창군,강원도 평창군 평창읍 향교길 148,37.3718932,128.3912346
평화의 댐 물 문화관,강원 화천군,강원도 화천군 화천읍 동촌리 산321-4,38.2120183,127.8477716
평화의댐(화천),강원 화천군,강원도 화천군 화천읍 평화로 3481-90,38.1146496,127.7550448
포충사,강원 철원군,강원도 철원군 철원읍,38.2120964,127.2129166
피니시타워,강원 화천군,강원도 화천군 하남면 춘화로 3331-50,38.09809,127.7037248
피래산,강원 강릉시,강원도 강릉시 강동면 임곡리,37.6641691,128.9612013
피의능선전투전적비,강원 양구군,강원도 양구군 동면 월운리 132,38.2234795,128.0425867
피크 아일랜드,강원 평창군,강원도 평창군 대관령면 올림픽로 715,37.6450087,128.6829718
필례약수,강원 인제군,강원도 인제군 인제읍 필례약수길 21,38.0719617,128.3710211
필리핀군전투전적비,강원 양구군,강원도 양구군 남면 심포리,38.0455129,127.990676
하광정항,강원 양양군,강원도 양양군 현북면 하광정리 일원,38.0210854,128.7356837
하늬라벤더팜,강원 고성군,강원도 고성군 간성읍 꽃대마을길 175,38.3486203,128.4149391
하맹방해변,강원 삼척시,강원도 삼척시 근덕면 하맹방길,37.391012,129.2225447
하슬라아트월드,강원 강릉시,강원도 강릉시 강동면 율곡로 1441,37.7067534,129.0109857
하이록한우체험농장,강원 춘천시,강원도 춘천시 사북면 춘화로 330-48,37.9789954,127.6953254
하이원리조트,강원 정선군,강원도 정선군 고한읍 하이원길 424,37.206648,128.838174
하이트진로 강원공장,강원 홍천군,강원도 홍천군 북방면 도둔길 49,37.691163,127.8413122
하조대 무인등대,강원 양양군,강원도 양양군 현북면 조준길 99,38.0208455,128.7348861
하조대해변,강원 양양군,강원도 양양군 현북면 하조대해안길 35,38.0229011,128.7242129
하추리계곡,강원 인제군,강원도 인제군 인제읍 하추리,38.0361248,128.2916866
하평해변,강원 강릉시,강원도 강릉시 사천면 진리해변길 155,37.8441613,128.8718901
하평해변,강원 동해시,강원도 동해시 평릉동,37.5320248,129.0923234
학도병충혼탑,강원 태백시,강원도 태백시 장성로 265,37.0970331,129.0195038
학마을,강원 강릉시,강원도 강릉시 구정면 금평로 117,37.7063537,128.8889142
학무정,강원 속초시,강원도 속초시 도문동 33-2,38.1636228,128.5520474
학사평 콩꽃마을 순두부촌,강원 속초시,강원도 속초시 원암학사평길 142,38.2056851,128.5233822
학저수지,강원 철원군,강원도 철원군 동송읍 학마을길 68,38.2281679,127.2216417
한강발원지마을,강원 태백시,강원도 태백시 고무덕길 4,37.2645161,128.9596354
한계령,강원 양양군,강원도 양양군 서면,38.0715807,128.5851325
한국DMZ평화생명동산,강원 인제군,강원도 인제군 서화면 금강로 1630,38.2416971,128.2084128
한국시집박물관,강원 인제군,강원도 인제군 북면 용대리 1119-4,38.1889599,128.3620908
한국통나무학교,강원 횡성군,강원도 횡성군 강림면 월안길 88,37.3566523,128.1786602
한반도 뗏목마을,강원 영월군,강원도 영월군 한반도면 선암길 70,37.2223413,128.3467816
한반도뗏목체험,강원 영월군,강원도 영월군 한반도면 옹정리 산180,37.2204909,128.3460125
한반도섬,강원 양구군,강원도 양구군 양구읍,38.107806,127.9905751
한반도지형 (강원고생대 국가지질공원),강원 영월군,강원도 영월군 한반도면 한반도로 555,37.2197078,128.3575541
한별마을,강원 양양군,강원도 양양군 영덕리 333-3,38.0104686,128.5423003
한서남궁억유적지,강원 홍천군,강원도 홍천군 서면 한서로 667,37.6572551,127.613972
한섬해변,강원 동해시,강원도 동해시 한섬해안길 9,37.521084,129.121603
한송사 석조보살좌상,강원 춘천시,강원도 춘천시 우석로 70,37.8637742,127.7524778
한재밑해변,강원 삼척시,강원도 삼척시 근덕면 삼척로 3840,37.288326,129.3185805
한지공예관,강원 원주시,강원도 원주시 소초면 구룡사로 136,37.4190997,128.0530465
한탄강,강원 철원군,강원도 철원군 갈말읍 정연리 일대,38.31061,127.3392767
한탄리버스파,강원 철원군,강원도 철원군 동송읍 태봉로 1799-22,38.1861658,127.2898454
한화리조트 설악 워터피아,강원 속초시,강원도 속초시 미시령로2983번길 111,38.2104089,128.5284027
함백산,강원 태백시,강원도 태백시 태백산로 4246-55,37.1202778,128.9080556
함정균가옥,강원 고성군,강원도 고성군 죽왕면 오봉리 383-1,38.3410455,128.4977215
합강정,강원 인제군,강원도 인제군 인제읍 설악로 2254,38.0776566,128.1859372
해가사의 터(수로부인공원),강원 삼척시,강원도 삼척시 수로부인길 401,37.4718983,129.1592477
해담마을,강원 양양군,강원도 양양군 서면 구룡령로 2110-17,37.9876916,128.5324002
해산전망대,강원 화천군,강원도 화천군 화천읍 동촌리 산11-7,38.2120183,127.8477716
해안분지 (강원평화지역 국가지질공원),강원 양구군,강원도 양구군 해안면 해안서화로 35,38.2896041,128.1459102
해피초원목장,강원 춘천시,강원도 춘천시 사북면 춘화로 330-48,37.9789954,127.6953254
행구수변공원,강원 원주시,강원도 원주시 행구동 1026,37.3418459,127.9965758
향토사료관,강원 홍천군,강원도 홍천군 홍천읍 장전평로 18,37.6815192,127.8718644
허균·허난설헌 기념공원,강원 강릉시,강원도 강릉시 난설헌로193번길 1-29,37.7910146,128.9095207
허난설헌 생가터,강원 강릉시,강원도 강릉시 난설헌로193번길 1-16,37.7919383,128.9092743
허난설헌 솔숲,강원 강릉시,강원도 강릉시 난설헌로193번길 1-16,37.7919383,128.9092743
허브나라농원,강원 평창군,강원도 평창군 봉평면 흥정계곡길 225,37.6373673,128.334708
허브의 집,강원 홍천군,강원도 홍천군 화촌면 장평골말길 74-27,37.7594476,128.0601003
헌화로,강원 강릉시,강원도 강릉시 강동면 심곡리,37.6672988,129.0416628
현덕사(강릉),강원 강릉시,강원도 강릉시 연곡면 싸리골길 170,37.8593643,128.702854
현산공원,강원 양양군,강원도 양양군 양양읍 군청길 1,38.0756503,128.6191583
혈거유지,강원 춘천시,강원도 춘천시 한림대학길 1,37.8866303,127.7353948
협동조합 산업관광 지원센터,강원 원주시,강원도 원주시 원일로 136-5,37.3500212,127.9483388
호산항,강원 삼척시,강원도 삼척시 원덕읍 호산리,37.1793973,129.3363914
홀로세 생태학교,강원 횡성군,강원도 횡성군 갑천면 갑천로690번길 156,37.5255739,128.1498761
홍련암,강원 양양군,강원도 양양군 강현면 낙산사로 98-19,38.1265723,128.6297426
홍천 동창보수로 및 암각명,강원 홍천군,강원도 홍천군 서석면 수하리 산204-1,37.7597896,128.1822697
홍천 무궁화마을,강원 홍천군,강원도 홍천군 서면 보리울길17번길 51,37.6896989,127.5898969
홍천 배바위카누마을,강원 홍천군,강원도 홍천군 서면 마곡길 153-5,37.7253001,127.5852595
홍천 살둔마을,강원 홍천군,강원도 홍천군 내면 내린천로 638,37.8333707,128.3764849
홍천 삼생마을,강원 홍천군,강원도 홍천군 서석면 구룡령로 2838,37.7049222,128.2174045
홍천 아로마 허브동산,강원 홍천군,강원도 홍천군 화촌면 장평골말길 74-27,37.7594476,128.0601003
홍천 은행나무숲,강원 홍천군,강원도 홍천군 내면 광원리 686-4,37.8308983,128.4693298
홍천 풍암리 동학혁명군전적지,강원 홍천군,강원도 홍천군 서석면 풍암길 11,37.7142431,128.1848972
홍천강,강원 홍천군,강원도 홍천군 서면 팔봉강변길,37.6940735,127.7060814
홍천동키마을,강원 홍천군,강원도 홍천군 화촌면 구룡령로 170,37.7491016,128.005257
홍천온천원탕,강원 홍천군,강원도 홍천군 북방면 온천길 179,37.6954795,127.8383207
"홍천테마파크(구, 예술촌)",강원 홍천군,강원도 홍천군 서석면 구룡령로 2800-22,37.7040653,128.2149036
홍천향교,강원 홍천군,강원도 홍천군 홍천읍 석화로 101-14,37.6971028,127.8895481
화랑도체험관광단지,강원 속초시,강원도 속초시 영랑호반길 421,38.218371,128.5704965
화로구이 골목,강원 홍천군,강원도 홍천군 홍천읍 오안로 3-2,37.6604453,127.8304582
화악산,강원 화천군,강원도 화천군 사내면 화악산로,38.0510965,127.5222161
화암관광지(화암8경),강원 정선군,강원도 정선군 화암면 약수길 1328,37.3293481,128.7856281
화암동굴 (강원고생대 국가지질공원),강원 정선군,강원도 정선군 화암면 화암동굴길 12,37.351454,128.7906939
화암사(고성),강원 고성군,강원도 고성군 토성면 화암사길 100,38.2267873,128.4691932
화암약수 (강원고생대 국가지질공원),강원 정선군,강원도 정선군 화암면 약수길 1328,37.3293481,128.7856281
화진포 (강원평화지역 국가지질공원),강원 고성군,강원도 고성군 거진읍 현내면,38.4944203,128.4276911
화진포(화진포호),강원 고성군,강원도 고성군 거진읍 화포리,38.4596259,128.4407382
화진포의 성(김일성별장),강원 고성군,강원도 고성군 거진읍 화진포길 280,38.4724774,128.4430193
화천 계성리 석등,강원 화천군,강원도 화천군 하남면 계성리,38.090508,127.6063583
화천 구운리 산천어마을,강원 화천군,강원도 화천군 상서면 만산동로 1042,38.1354794,127.6252994
화천 목재문화체험장,강원 화천군,강원도 화천군 하남면 영서로 5289-11,38.0664383,127.6464162
화천 반지교&아를테마수목공원,강원 화천군,강원도 화천군 하남면 거례리 514-1,38.07187,127.6886424
화천 백립암복합체 (강원평화지역 국가지질공원),강원 화천군,강원도 화천군 화천읍 평화로 2393,38.1146496,127.7550448
화천 비목공원,강원 화천군,강원도 화천군 화천읍 평화로 3481-70,38.1146496,127.7550448
화천 산약초 마을,강원 화천군,강원도 화천군 상서면 갈목길 157,38.1605272,127.6040344
화천 조경철 천문대,강원 화천군,강원도 화천군 사내면 천문대길 453,38.1170353,127.4335887
화천 토고미마을,강원 화천군,강원도 화천군 상서면 토고미길 22-8,38.1345346,127.677316
화천 토속어류생태관,강원 화천군,강원도 화천군 화천읍 상승로 126-1,38.1116304,127.7035161
화천 토속어류생태체험관,강원 화천군,강원도 화천군 간동면 어룡동길 366,38.1255075,127.7635761
화천 풍산마을,강원 화천군,강원도 화천군 화천읍 평화로 1260-13,38.1146496,127.7550448
화천 하늘빛호수마을,강원 화천군,강원도 화천군 하남면 호수마을길 39,38.0552294,127.6697634
화천조경철천문대,강원 화천군,강원도 화천군 사내면 천문대길 431,38.1064224,127.4420173
화천향교,강원 화천군,강원도 화천군 화천읍 상승로1길 48-16,38.1057925,127.698038
환선굴,강원 삼척시,강원도 삼척시 신기면 환선로 800,37.3264133,129.0210839
환선굴 (대이리 동굴지대),강원 삼척시,강원도 삼척시 신기면 환선로 800,37.3264133,129.0210839
황룡마을,강원 양양군,강원도 양양군 서면 구룡령로 1782,37.9617268,128.514942
황병산,강원 평창군,강원도 평창군 대관령면,37.6735799,128.7061681
황산사,강원 강릉시,강원도 강릉시 운정길21번길 27,37.7868031,128.8813348
황산사(원주),강원 원주시,강원도 원주시 귀래면 미륵산길 202,37.1831512,127.8650042
황영조 기념공원,강원 삼척시,강원도 삼척시 근덕면 초곡길 176,37.3072552,129.2947215
황지연못,강원 태백시,강원도 태백시 황지연못길 12,37.1722801,128.9912953
황토구들마을,강원 평창군,강원도 평창군 용평면 의풍포길 23-10,37.5748471,128.4026029
횟집명소거리,강원 동해시,강원도 동해시 묵호항~대진항구간,37.5518827,129.1151799
횡계 오삼불고기 거리,강원 평창군,강원도 평창군 대관령면 대관령로 97,37.6725582,128.7074058
횡성 밤두둑마을,강원 횡성군,강원도 횡성군 횡성읍 반곡3길 6,37.4665642,127.9614752
횡성 산채마을,강원 횡성군,강원도 횡성군 둔내면 삽교로 386,37.5448676,128.2632841
횡성 풍수원천주교회(풍수원성당),강원 횡성군,강원도 횡성군 서원면 경강로유현1길 30,37.5293633,127.818847
횡성 휴선체험원,강원 횡성군,강원도 횡성군 횡성읍 태기로개전4길 14-16,37.4997809,128.0148432
횡성자연휴양림,강원 횡성군,강원도 횡성군 갑천면 정포로430번길 113,37.5388008,128.1126125
횡성향교,강원 횡성군,강원도 횡성군 횡성읍 향교로 12,37.486497,127.9933951
횡성호,강원 횡성군,강원도 횡성군 갑천면 중금리,37.5431284,128.0496867
효석문화마을,강원 평창군,강원도 평창군 봉평면 문학숲길 97,37.602758,128.3571379
효석문화마을 메밀음식거리,강원 평창군,강원도 평창군 봉평면 기풍3길 31,37.6155395,128.3777072
효자열녀마을,강원 영월군,강원도 영월군 북면 삼방산길 476,37.3180391,128.4308661
후곡약수터,강원 양구군,강원도 양구군 동면 후곡리,38.1723161,128.0627411
후진마을,강원 삼척시,강원도 삼척시 새천년도로 460,37.446606,129.1827457
휘닉스 블루캐니언,강원 평창군,강원도 평창군 봉평면 태기로 174,37.5781735,128.3304598
휘닉스 평창 곤돌라,강원 평창군,강원도 평창군 봉평면 태기로 174,37.5781735,128.3304598
휴휴암(강원),강원 양양군,강원도 양양군 현남면 광진2길 3-16,37.9610176,128.7675442
흥녕사징효대사보인탑비,강원 영월군,강원도 영월군 수주면 무릉법흥로 1352,37.3729153,128.261081
흥법사지,강원 원주시,강원도 원주시 지정면 안창리,37.351389,127.8016796
흥복사,강원 태백시,강원도 태백시 피내골길 477,37.1294774,129.0253476
흥양3기,강원 원주시,강원도 원주시 소초면 흥양리,37.374199,127.9967903
흥정계곡,강원 평창군,강원도 평창군 봉평면,37.6161358,128.379623
