name,region,address,lat,lon
(주)우리술,경기 가평군,경기도 가평군 조종면 대보간선로 29,37.8197693,127.3562591
1.21 무장공비 침투로,경기 연천군,경기도 연천군 장남면 반정리 294,37.9701273,126.8280474
38선마을,경기 연천군,경기도 연천군 백학면 노곡로42번길 5,37.9953172,126.9237112
OBS 방송역사체험관,경기 부천시,경기도 부천시 오정로 233,37.5293322,126.7842597
가나아트파크,경기 양주시,경기도 양주시 장흥면 권율로 117,37.7258899,126.9496427
가덕산,경기 가평군,경기 가평군 북면,37.8855879,127.5502287
가루매마을,경기 양평군,경기도 양평군 지평면 부일길 101,37.4517049,127.6140253
가리산(포천),경기 포천시,경기도 포천시 이동면 장암리,38.0297307,127.3844939
가원미술관,경기,경기도 과천시 문원동 226번지,37.4239009,126.9992125
가월리 · 주월리 구석기 유적,경기 파주시,경기도 파주시 적성면,37.954643,126.9169755
가치가(관광두레 주민사업체),경기 가평군,경기도 가평군 가평읍 용추로 269,37.8495927,127.484139
가평 아홉마지기마을,경기 가평군,경기도 가평군 가평읍 용추로 238,37.8481047,127.4875423
가평 연인산마을,경기 가평군,경기도 가평군 북면 백둔로 417-11,37.9013619,127.4624756
가평 연하리향나무,경기 가평군,경기도 가평군 상면 역촌길 68,37.7991757,127.3489105
가평 영양잣마을,경기 가평군,경기도 가평군 상면 축령로 70,37.7741023,127.3646467
가평 현충탑,경기 가평군,경기도 가평군 가평읍 호반로 2540,37.812498,127.5152062
가평군목공예영농조합,경기 가평군,경기도 가평군 가평읍 경춘로 2045-65,37.8163136,127.4983534
가평별묘,경기 가평군,경기도 가평군 설악면 방일리,37.6186095,127.488984
가평삼회 생태복원지구,경기 가평군,경기도 가평군 청평면 북한강로 2047,37.6994213,127.3929156
가평의병3.1항일운동기념비,경기 가평군,경기도 가평군 가평읍 대곡리,37.8223783,127.5045779
가평학도의용대참전기념비,경기 가평군,경기도 가평군 가평읍 문화로 131,37.825131,127.5062327
가평향교,경기 가평군,경기도 가평군 가평읍 향교로 23-1,37.8299466,127.5074445
가학동지석묘,경기 광명시,경기도 광명시 가학동,37.4126539,126.8580068
감악산 출렁다리,경기 파주시,경기도 파주시 적성면 설마리 48-6,37.9391536,126.9436284
감악산(파주),경기 양주시,경기도 파주시 적성면 감골길 48,37.9119705,126.9522371
강북 아리수 정수센터,경기 남양주시,경기도 남양주시 고산로 171,37.5957369,127.1861901
강씨봉,경기 포천시,경기도 포천시 일동면 사직리,37.986204,127.3555719
강영천효자문,경기 가평군,경기도 가평군 북면 논남기길 402-19,37.9689327,127.4215943
강한사,경기 여주시,경기도 여주시 청심로 113,37.2992995,127.6332636
개원사(경기),경기 광주시,경기도 광주시 남한산성면 남한산성로 731-73,37.4744028,127.1852916
갯골생태문화탐방로,경기 시흥시,경기도 시흥시 동서로 287,37.3871749,126.8124991
갱매폭포,경기,경기도 과천시 막계동,37.426251,127.0273859
건강나라,경기 안성시,경기도 안성시 죽산면 죽양대로 136-16,37.0937854,127.4371381
걸포중앙공원,경기 김포시,경기도 김포시 걸포1로 60-42,37.6340933,126.709501
검단사(파주),경기 파주시,경기도 파주시 탄현면 필승로 292-33,37.7692065,126.6861178
검단산,경기 하남시,경기도 하남시 천현동,37.5192112,127.2240306
경기 남양주 조안 [슬로시티],경기 남양주시,경기도 남양주시 조안면 북한강로 413,37.5589813,127.3122976
경기 남양주시,경기 남양주시,경기도 남양주시 조안면 전역,37.5358482,127.3034032
경기도립 물향기수목원,경기 오산시,경기도 오산시 청학로 211,37.1684823,127.0554177
경기미래교육 파주캠퍼스,경기 파주시,경기도 파주시 탄현면 얼음실로 40,37.784985,126.703487
경기영어마을 양평캠프,경기 양평군,경기도 양평군 용문면 연수로 209,37.4983994,127.5758006
경기콘텐츠 코리아 랩,경기 성남시,경기도 성남시 분당구 대왕판교로645번길 12,37.400161,127.104948
경안천 습지생태공원,경기 광주시,경기도 광주시 퇴촌면 정자동길 119,37.4455574,127.322063
경안천 습지생태공원,경기 광주시,경기도 광주시 퇴촌면 정지리 447,37.4589505,127.3038475
경앙사,경기 안성시,경기도 안성시 양성면 덕봉리,37.0467623,127.1910289
경인아라뱃길유람선 현대크루즈호,경기 김포시,경기도 김포시 고촌읍 아라육로270번길 74,37.5991386,126.7890149
경희천문대,경기 용인시,경기도 용인시 기흥구 덕영대로 1732,37.2398963,127.0818121
계류리 예술창고,경기 포천시,경기도 포천시 신북면 양지말길 66-72,37.9573493,127.1720716
고구려대장간마을 (태왕사신기 촬영장),경기 구리시,경기도 구리시 우미내길,37.5627558,127.1116897
고기동 오리촌,경기 용인시,경기도 용인시 수지구 고기동,37.35822,127.0336602
고대산,경기 연천군,경기도 연천군 신서면 평화로 3282-108,38.2366167,127.1570763
고동산,경기 양평군,경기 양평군 서종면,37.6065603,127.3486933
고려 공양왕릉,경기 고양시,경기도 고양시 덕양구 호국로1121번길 95-61 (원당동),37.680108,126.8600383
고모저수지,경기 포천시,경기도 포천시 소흘읍 죽엽산로 452,37.7946036,127.1651233
고삼호수,경기 안성시,경기도 안성시 고삼면 향림길 50,37.0884129,127.2849411
고성산,경기 안성시,경기도 안성시 양성면 덕봉리,37.0467623,127.1910289
고송정지,경기 안산시,경기도 안산시 단원구 화정동,37.356269,126.8273848
고양 관광특구,경기 고양시,경기도 고양시 일산서구 가좌1로 10,37.6910041,126.7206709
고양 구 일산역사,경기 고양시,경기도 고양시 일산서구 고양대로662번길 35,37.6829489,126.7685461
고양 벽제관지,경기 고양시,경기도 고양시 덕양구 벽제관로 34-16,37.7045402,126.9009863
고양 서삼릉(장경왕후) [유네스코 세계문화유산],경기 고양시,경기도 고양시 덕양구 서삼릉길 233-126,37.6636635,126.8679732
고양 서오릉 [유네스코 세계문화유산],경기 고양시,경기도 고양시 덕양구 서오릉로 334-32,37.6253341,126.8978397
고양대덕생태공원,경기 고양시,경기 고양시 덕양구 현천동 770,37.5894654,126.8385671
고양향교,경기 고양시,경기도 고양시 덕양구 대양로285번길 33-13 (고양동),37.7037037,126.8948771
곤지암리조트,경기 광주시,경기도 광주시 도척면 도척윗로 278,37.3372414,127.2953076
곤지암리조트 힐링캠퍼스,경기 광주시,경기도 광주시 도척면 도척윗로 278,37.3372414,127.2953076
곤충생태관,경기 구리시,경기도 구리시 검배로 200,37.5919331,127.1612824
곱돌광산약수터,경기 하남시,경기도 하남시 창우동,37.5389973,127.23066
공릉천,경기 고양시,경기도 고양시 덕양구 신원동,37.6743374,126.877559
과천향교,경기,경기도 과천시 자하동길 18,37.4336055,126.9873872
관곡지,경기 시흥시,경기도 시흥시 관곡지로 93,37.4024096,126.8035998
관음산,경기 포천시,경기도 포천시 이동면,38.0306291,127.3675561
광개토태왕비ㆍ동상,경기 구리시,경기도 구리시 장자대로 34,37.5869034,127.1341869
광교 프라이부르크전망대,경기 수원시,경기도 수원시 영통구 광교호수공원로 102,37.283123,127.0659168
광교산,경기 수원시,경기도 수원시 장안구 상광교동,37.3355493,127.0172627
광교호수공원,경기 수원시,경기도 수원시 영통구 광교호수로 57,37.283123,127.0659168
광명 영회원(민회빈),경기 광명시,경기도 광명시 노은사동,37.4378977,126.8502154
광명동굴,경기 광명시,경기도 광명시 가학로85번길 142,37.4251755,126.8644482
광암 아리수 정수센터,경기 하남시,경기도 하남시 서하남로 293,37.519816,127.1726868
광주 곤지암도자공원,경기 광주시,경기도 광주시 곤지암읍 경충대로 727,37.3511041,127.3275659
광주 산두른마을 [농촌전통테마],경기 광주시,경기도 광주시 도척면 추곡길 38,37.2792319,127.291275
광주 조선백자 요지,경기 광주시,경기도 광주시 남한산성면 해공로 91,37.4466198,127.268418
광주향교,경기 하남시,경기도 하남시 대성로 126-13,37.5216847,127.1982808
교동 가마소 (한탄강 국가지질공원),경기 포천시,경기도 포천시 관인면 중리,38.0995919,127.1978415
교동 장독대마을,경기 포천시,경기도 포천시 관인면 교동길 123,38.0993524,127.2147458
교하동 고인돌 산림욕장,경기 파주시,경기도 파주시 당하2길 172,37.7447959,126.743262
교하향교,경기 파주시,경기도 파주시 쇠재로 91,37.7496376,126.776813
구라이골 (한탄강 국가지질공원),경기 포천시,경기도 포천시 창수면 운산리,38.0524436,127.2064349
구리 동구릉 [유네스코 세계문화유산],경기 구리시,경기도 구리시 동구릉로 197,37.6197924,127.131505
구리 명빈묘,경기 구리시,경기도 구리시 아천동,37.5699411,127.1166396
구리 자원회수시설,경기 구리시,경기도 구리시 왕숙천로 49,37.5888392,127.1606921
구리시민한강공원(코스모스공원),경기 구리시,경기도 구리시 토평동,37.5782765,127.1490031
구리역공원,경기 구리시,경기도 구리시 인창동,37.6146576,127.1325968
구리타워,경기 구리시,경기도 구리시 왕숙천로 49,37.5888392,127.1606921
구봉도 낙조전망대,경기 안산시,경기도 안산시 단원구 대부북동,37.258289,126.5731267
구산성지,경기 하남시,경기도 하남시 미사강변북로 99,37.5723434,127.188921
구석구석여행사(관광두레 주민사업체),경기 연천군,경기도 연천군 전곡읍 전곡로 112,38.0225434,127.07087
국녕사(경기),경기 고양시,경기도 고양시 덕양구 대서문길 268,37.6469968,126.9625601
국립 산음자연휴양림,경기 양평군,경기도 양평군 단월면 고북길 347,37.5969104,127.5717371
국립 운악산자연휴양림,경기 포천시,경기도 포천시 화현면 화동로184번길 39,37.8833886,127.3063647
국립 유명산자연휴양림,경기 가평군,경기도 가평군 설악면 유명산길 79-53,37.5928839,127.4920842
국립수목원(광릉숲),경기 포천시,경기도 포천시 소흘읍 광릉수목원로 415,37.7521287,127.1634605
국립양평치유의숲,경기 양평군,경기도 양평군 양동면 황거길 262-10,37.454761,127.7196907
국망봉자연휴양림(포천),경기 포천시,경기도 포천시 이동면 늠바위길 207-28,38.028861,127.3962259
국사암,경기 안성시,경기도 안성시 삼죽면 텃골길 80-100,37.0713457,127.3419633
국청사(경기),경기 광주시,경기도 광주시 남한산성면 남한산성로780번길 105,37.4840089,127.1770721
국화도,경기 화성시,경기도 화성시 우정읍 국화길 8,37.0608142,126.5589752
군남홍수조절지 두루미테마파크,경기 연천군,경기도 연천군 군남면,38.0852047,127.018886
궁평리 해수욕장,경기 화성시,경기도 화성시 서신면 수문개길 81-36,37.1233188,126.6848752
궁평항,경기 화성시,경기도 화성시 서신면,37.1665501,126.7087095
권관마을,경기 평택시,경기도 평택시 현덕면 평택호2길,36.9212229,126.9175664
권율장군묘,경기 양주시,경기도 양주시 장흥면 권율로 223,37.7364964,126.9474995
궐리사,경기 오산시,경기도 오산시 매홀로 3,37.1590003,127.062606
귀목봉,경기 가평군,경기도 가평군 북면 조무락골길 132,37.9876206,127.4544721
그린토피아,경기 양평군,경기도 양평군 양서면 골용진길19번길 2-6,37.5572785,127.3286174
극락사(경기),경기 광주시,경기도 광주시 오포읍 양촌길 268-1,37.3729072,127.2716376
금강정사,경기 광명시,경기도 광명시 설월로 58,37.4418402,126.8728131
금광관광농원,경기 안성시,경기도 안성시 금광면 현곡길 344,36.9596783,127.3606362
금광산성,경기 안성시,경기도 안성시 금광면 금광리,36.9931294,127.3286817
금광호수,경기 안성시,경기도 안성시 금광면,36.9971798,127.3175151
금정사(김포),경기 김포시,경기도 김포시 승가로 125,37.6070954,126.708416
금주산,경기 포천시,경기도 포천시 영중면 금주리,37.9749196,127.2767585
기아자동차 소하리공장,경기 광명시,경기도 광명시 기아로 113,37.4393145,126.8876362
기아자동차 화성공장,경기 화성시,경기도 화성시 우정읍 기아자동차로 95,37.0384313,126.8002326
기천서원,경기 여주시,경기도 여주시 금사면 뒷머리길 11,37.3925317,127.5295562
기흥맛깔촌,경기 용인시,경기도 용인시 기흥구 상갈동,37.2616855,127.1051884
김중업 건축박물관 (옛 유유산업 공장),경기 안양시,경기도 안양시 만안구 예술공원로103번길 4,37.4185936,126.9178858
김포 대명항,경기 김포시,경기도 김포시 대곶면 대명항1로 107-1,37.6384901,126.5421174
김포 덕포진,경기 김포시,경기도 김포시 대곶면 덕포진로103번길 130,37.6502183,126.5372467
김포 문수산성,경기 김포시,경기도 김포시 월곶면 포내리,37.7242018,126.5360503
김포 사색의 길,경기 김포시,경기도 김포시 김포한강11로 455,37.6545814,126.6991515
김포 수안산성,경기 김포시,경기도 김포시 대곶면 율생리,37.6482743,126.5911293
김포 장릉(인헌왕후) [유네스코 세계문화유산],경기 김포시,경기도 김포시 장릉로 79,37.6106306,126.7125896
김포국제조각공원,경기 김포시,경기도 김포시 월곶면 용강로13번길 38,37.7207585,126.5521903
김포한강야생조류생태공원,경기 김포시,경기도 김포시 김포한강11로 455,37.6545814,126.6991515
김포함상공원,경기 김포시,경기도 김포시 대곶면 대명항1로 110-36,37.6406387,126.539261
김포향교,경기 김포시,경기도 김포시 북변중로25번길 38,37.624626,126.7098799
까치울 먹거리촌 (작동 먹거리촌),경기 부천시,경기도 부천시 작동,37.5114589,126.8155489
꾸메숲 버섯나라,경기 이천시,경기도 이천시 모가면 서경리,37.1595841,127.4807681
꿈이익는농장,경기 양평군,경기도 양평군 강하면 강하1로 46,37.4834562,127.3966121
나를 찾는 정원 (R401 Discovery Park),경기 양평군,경기도 양평군 강상면 신당곡1길 6-15,37.4652368,127.4653658
나만갑선생신도비,경기 구리시,경기도 구리시 사노동,37.6347435,127.1389026
나인포레스트 이화원,경기 가평군,경기도 가평군 가평읍 자라섬로 64,37.818124,127.5189347
나혜석거리,경기 수원시,경기도 수원시 팔달구 인계동,37.2714577,127.0281553
낙원역사공원,경기 안성시,경기도 안성시 장기로91번길 22,37.0050203,127.2726477
남양성모성지,경기 화성시,경기도 화성시 남양읍 남양성지로 112,37.2117634,126.8237722
"남양주 광릉(세조,정희왕후) [유네스코 세계문화유산]",경기 남양주시,경기도 남양주시 진접읍 광릉수목원로 354,37.7491133,127.1761752
남양주 구 팔당역,경기 남양주시,경기도 남양주시 와부읍 팔당로 163,37.5441769,127.2488571
남양주 물의정원,경기 남양주시,경기도 남양주시 조안면 북한강로 398,37.5753144,127.3234451
남양주 사릉(정순왕후) [유네스코 세계문화유산],경기 남양주시,경기도 남양주시 진건읍 사릉로 180,37.6439985,127.1979063
"남양주 홍릉(고종과 명성황후)과 유릉(순종과 순명,순정 황후) [유네스코 세계문화유산]",경기 남양주시,경기도 남양주시 홍유릉로 352-1,37.6315094,127.2113052
남양향교,경기 화성시,경기도 화성시 남양읍 글판동길15번길 18-3,37.2042148,126.8000248
남양호(남양황라),경기 화성시,경기 화성시 장안면,37.0798127,126.8312507
남이장군묘 (화성),경기 화성시,경기도 화성시 비봉면 남이로,37.248433,126.8373794
남한산성 전통음식마을,경기 광주시,경기도 광주시 남한산성면 남한산성로 731,37.4765052,127.1883338
남한산성도립공원 [유네스코 세계문화유산],경기 광주시,경기도 광주시 남한산성면 남한산성로 731,37.4765052,127.1883338
내동마을 연꽃단지,경기 용인시,경기도 용인시 처인구 원삼면 내동로23번길 6,37.1759765,127.296834
내원암(경기),경기 남양주시,경기도 남양주시 별내면 순화궁로909번길 104,37.7004427,127.0874617
내일의 기적소리,경기 파주시,경기도 파주시 문산읍 마정리,37.897183,126.7543841
너리굴 문화마을,경기 안성시,경기도 안성시 보개면 너리굴길 100,37.0407666,127.2789987
노강서원,경기 의정부시,경기도 의정부시 동일로122번길 153,37.6997265,127.0614172
노성산,경기 이천시,경기도 이천시 설성면 진상미로665번길 241,37.1286955,127.5061646
노송지대(수원),경기 수원시,경기도 수원시 장안구 장안로346번길 118,37.3167173,126.9877818
노적봉공원,경기 안산시,경기도 안산시 상록구 고잔로 162,37.318436,126.844302
노적사(경기),경기 고양시,경기도 고양시 덕양구 대서문길 311-35,37.649577,126.9727163
녹수계곡,경기 가평군,경기도 가평군 상면 덕현리,37.765032,127.3991317
농심 안양공장,경기 군포시,경기도 군포시 농심로 35,37.3610438,126.9541293
누리천문대,경기 군포시,경기도 군포시 대야2로 139,37.3325122,126.9160717
누에섬 등대전망대,경기 안산시,경기도 안산시 단원구 선감동,37.2100274,126.6504817
뉴질랜드전투기념비,경기 가평군,경기도 가평군 북면 목동리,37.9137075,127.5896846
능골공원,경기 성남시,경기도 성남시 분당구 정자동,37.3638388,127.1163207
다산생태공원,경기 남양주시,경기도 남양주시 조안면 다산로 767,37.525792,127.293598
다산생태공원,경기 남양주시,경기도 남양주시 조안면 다산로747번길 11,37.5162381,127.2990419
다산유적지(남양주),경기 남양주시,경기도 남양주시 조안면 다산로747번길 11,37.5162381,127.2990419
다이노스타 (용인),경기 용인시,경기도 용인시 수지구 동천로 581,37.3544044,127.0520262
단대동 닭죽촌,경기 성남시,경기도 성남시 수정구 수정로 460-3,37.4616742,127.1559866
담다헌 체험교육관,경기 의정부시,경기도 의정부시 송산로939번길 98,37.7120262,127.1002254
당포성 (한탄강 국가지질공원),경기 연천군,경기도 연천군 미산면 동이리,38.0184905,127.0000426
대가농원,경기 남양주시,경기도 남양주시 조안면 다산로761번길 15,37.5152808,127.2995758
대광사(성남),경기 성남시,경기도 성남시 분당구 구미로185번길 30,37.3467088,127.1276242
대금산(경기),경기 가평군,경기 가평군 가평읍 두밀리,37.8228855,127.4358713
대동법시행기념비,경기 평택시,경기도 평택시 소사동,36.9842062,127.1285981
대법사,경기 여주시,경기도 여주시 가남읍 안금3길 3-43,37.2288366,127.6046194
대부도,경기 안산시,경기도 안산시 단원구 대부중앙로 97-9,37.2434616,126.5852859
대부도 바다향기 수목원,경기 안산시,경기도 안산시 단원구 대부황금로 399,37.2546417,126.5960467
대부도 방아머리 먹거리타운,경기 안산시,경기도 안산시 단원구 대부북동,37.258289,126.5731267
대부도 종현마을,경기 안산시,경기도 안산시 단원구 구봉길 240,37.2802418,126.5480419
대부바다향기테마파크,경기 안산시,경기도 안산시 단원구 대부북동,37.258289,126.5731267
대부산,경기 양평군,경기도 양평군 옥천면 신복리,37.5555495,127.4646804
대성동 자유의 마을,경기 파주시,경기도 파주시 군내면 대성동길 150,37.9439037,126.6804123
대성리 국민관광지,경기 가평군,경기도 가평군 청평면 대성강변길 44,37.7404063,127.4241436
대성사(여주),경기 여주시,경기도 여주시 금사면 발림길 89-47,37.3907649,127.5111793
대송습지,경기 안산시,경기도 안산시 단원구 대부황금로 1531,37.2546417,126.5960467
대원공원,경기 성남시,경기도 성남시 중원구 하대원동,37.4289325,127.1487831
대원사(가평),경기 가평군,경기도 가평군 북면 백둔로 21-123,37.8986148,127.5013953
대포서원(김포),경기 김포시,경기도 김포시 양촌읍 황금로23번길 30-30,37.6170404,126.6292472
댕이골 전통음식거리,경기 안산시,경기도 안산시 상록구 석호공원로2길 16-1,37.3000537,126.8493308
더그림,경기 양평군,경기도 양평군 옥천면 사나사길 175,37.5290836,127.4970417
덕봉서원,경기 안성시,경기도 안성시 양성면 덕봉리 108,37.04664,127.1926425
덕양서원(고양),경기 고양시,경기도 고양시 덕양구 고양대로 1445-46,37.6547726,126.8453248
덕진산성,경기 파주시,경기도 파주시 군내면 정자리,37.9168151,126.7558263
덕평공룡수목원,경기 이천시,경기도 이천시 마장면 작촌로 282,37.2450593,127.3454981
덕평자연휴게소,경기 이천시,경기도 이천시 마장면 덕이로154번길 287-76,37.240637,127.3888251
도당공원,경기 부천시,경기도 부천시 소사로593번길 124,37.5120548,126.7899502
도드람산(저명산),경기 이천시,경기도 이천시 마장면 서이천로,37.2604475,127.3837892
도라산 평화공원,경기 파주시,경기도 파주시 장단면 제3땅굴로 310,37.908956,126.7051966
도라산역,경기 파주시,경기도 파주시 장단면 희망로 307,37.8990043,126.7095734
도라전망대,경기 파주시,경기도 파주시 장단면 제3땅굴로 310,37.908956,126.7051966
도마치계곡,경기 가평군,경기도 가평군 북면 조무락골길 132,37.9876206,127.4544721
도예공방 들꽃마을,경기 이천시,경기도 이천시 신둔면 도자예술로5번길 95,37.2934515,127.3847471
도예촌 쌀밥거리,경기 이천시,경기도 이천시 신둔면 경충대로 3194,37.3113714,127.4010733
도일봉,경기 양평군,경기도 양평군 용문면 중원산로,37.5310403,127.614444
도자기엑스포 조각공원,경기 광주시,경기도 광주시 곤지암읍 경충대로 727,37.3511041,127.3275659
돌다리 곱창골목,경기 구리시,경기도 구리시 안골로103번길 41,37.5991246,127.1413915
동도사(용인),경기 용인시,경기도 용인시 처인구 이동읍 어진로 842,37.1080621,127.1983242
동두천 관광특구,경기 동두천시,경기도 동두천시,37.9034112,127.0605075
동두천자연휴양림,경기 동두천시,경기도 동두천시 탑동가산로 1,37.8914695,127.1038646
동막골 응회암 (한탄강 국가지질공원),경기 연천군,경기도 연천군 연천읍 동막리,38.1041971,127.116591
동막골유원지,경기 연천군,경기도 연천군 연천읍,38.1038391,127.0758749
동주염전,경기 안산시,경기도 안산시 단원구 동주길 46,37.2331296,126.6000994
동탄호수공원,경기 화성시,경기도 화성시 동탄순환대로 67,37.199327,127.0970177
두메향기,경기 양평군,경기도 양평군 양서면 목왕로592번길 62-59,37.5553821,127.3806038
두물머리 애벌레 생태학교,경기 양평군,경기도 양평군 양서면 두물머리길 108-22,37.5368767,127.3149753
두현리 석조삼존불입상,경기 안성시,경기도 안성시 죽산면 두현리,37.0730505,127.4063322
둔촌이집묘역,경기 성남시,경기도 성남시 중원구 둔촌대로 320,37.4277004,127.154984
들꽃가람농장,경기 연천군,경기도 연천군 전곡읍 청연로 192,38.0484167,127.1106665
또나따목장,경기 화성시,경기도 화성시 마도면 마도로 223-19,37.1879028,126.7301065
뜰안에농장,경기 양평군,경기도 양평군 강하면 강하2로 269-42,37.4774735,127.4202792
라비돌리조트,경기 화성시,경기도 화성시 정남면 세자로 286,37.187004,126.98414
리치플러스 스파,경기 남양주시,경기도 남양주시 경춘로1350번길 35,37.6502699,127.2432003
리틀빅아이 자유숲놀이터,경기 양주시,경기도 양주시 장흥면 일영로327번길 185-77,37.6710079,126.9133071
마장호수,경기 파주시,경기도 파주시 광탄면 기산로 365,37.7746655,126.9327526
마장호수 출렁다리,경기 파주시,경기도 파주시 광탄면 기산로 313,37.7732101,126.9276645
만기사(경기),경기 평택시,경기도 평택시 진위면 진위로 181-82,37.1081589,127.1009981
만석거공원,경기 수원시,경기도 수원시 장안구 정조로 1087,37.3018036,127.0016708
만의사(화성),경기 화성시,경기도 화성시 동탄면 풀무골로 219,37.2094937,127.1498232
맑은물상상누리,경기 시흥시,경기도 시흥시 공단2대로 14,37.3349007,126.6972798
망경암,경기 성남시,경기도 성남시 수정구 태평로55번길 72,37.4534387,127.1370512
망곡산둘레길,경기 연천군,경기도 연천군 연천읍 연천로285번길 52,38.1027881,127.0718922
망월사(경기),경기 의정부시,경기도 의정부시 망월로28번길 211-500,37.7046785,127.0214009
망월사(경기),경기 광주시,경기도 광주시 남한산성면 남한산성로 680,37.4781236,127.1959888
망이산성,경기 안성시,경기도 안성시 일죽면,37.090591,127.476994
망해암,경기 안양시,경기도 안양시 만안구 임곡로 245,37.4115699,126.9260895
매산리석불입상,경기 안성시,경기도 안성시 죽산면 미륵당길 32-2,37.0850592,127.4349541
매산서원,경기 여주시,경기도 여주시 능서면 능서로 94-8,37.3062802,127.5765302
맹산반딧불이자연학교,경기 성남시,경기도 성남시 분당구 야탑로 237,37.4075483,127.1449946
맹산생태학습원,경기 성남시,경기도 성남시 분당구 판교로 628,37.3985507,127.1068146
멍우리 협곡 (한탄강 국가지질공원),경기 포천시,경기도 포천시 영북면 운천리,38.0813188,127.2820477
명성산,경기 포천시,경기도 포천시 이동면 도평리,38.0757063,127.4032977
명성황후 생가,경기 여주시,경기도 여주시 명성로 71,37.2593607,127.6561875
명지계곡,경기 가평군,경기도 가평군 북면 적목리,37.9794527,127.4282149
명지산군립공원,경기 가평군,경기도 가평군 북면 백둔로650번길,37.9152572,127.4396791
명지산-청계산 생태공원,경기 가평군,경기도 가평군 북면 가화로 2089-42,37.9407097,127.4912991
모꼬지마을,경기 양평군,경기도 양평군 용문면 중원산로 76,37.5171628,127.612332
모산목장,경기 파주시,경기도 파주시 탄현면 검산로519번길 6-36,37.8024192,126.7237204
몽골문화촌,경기 남양주시,경기도 남양주시 수동면 비룡로 1635,37.7578348,127.27498
몽덕산,경기 가평군,경기도 가평군 북면 화악리,37.9637408,127.5264685
묘적사,경기 남양주시,경기도 남양주시 와부읍 수레로661번길 174,37.6234401,127.2613553
무량사(경기),경기 고양시,경기도 고양시 덕양구 대서문길 184,37.6537789,126.9589979
무양산성(무한성),경기 안성시,경기도 안성시 양성면 방신리,37.0333,127.1785353
무주채폭포,경기 가평군,경기도 가평군 북면 제령리,37.902746,127.5219147
문발리헌책방골목 블루박스,경기 파주시,경기도 파주시 문발로 240-21,37.7148652,126.688692
문수산산림욕장,경기 김포시,경기도 김포시 월곶면 문수산로 102-38,37.73778,126.5308772
문안산,경기 남양주시,경기도 남양주시 화도읍 금남리,37.6338291,127.3495355
문헌서원,경기 오산시,경기도 오산시 수청로 79-8,37.1742138,127.0534388
물맑음수목원,경기 남양주시,경기도 남양주시 수동면 지둔로307번길 47-4,37.7070868,127.2954599
물왕동 토속음식마을,경기 시흥시,경기도 시흥시 물왕동,37.3855458,126.8391916
물왕저수지,경기 시흥시,경기도 시흥시 물왕동,37.3855458,126.8391916
미륵암,경기 의정부시,경기도 의정부시 고산로65번길 94,37.7322278,127.1000944
미리내 성지,경기 안성시,경기도 안성시 양성면 미리내성지로 420,37.1413273,127.2599108
미음나루터(미음나루 풍속마을),경기 남양주시,경기도 남양주시 강변북로632번길 일대,37.5863854,127.1723873
바람새마을,경기 평택시,경기도 평택시 고덕면 새악길 43-62,37.0123212,127.0214791
바람새마을 소풍정원,경기 평택시,경기도 평택시 고덕면 궁리,37.019303,127.0295837
바우덕이 묘,경기 안성시,경기도 안성시 서운면 청용리,36.9115578,127.2891837
바우덕이사당,경기 안성시,경기도 안성시 서운면 청룡길 128-29,36.9132511,127.2918709
박달산(파주),경기 파주시,경기도 파주시 광탄면 장지산로316번길 47-33,37.7601088,126.873219
박두진 시비,경기 안성시,경기도 안성시 보개면 종합운동장로 205,37.0147795,127.3230533
반구정과 황희선생유적지,경기 파주시,경기도 파주시 문산읍 반구정로85번길 3,37.86791,126.7523616
반딧불이화장실,경기 수원시,경기도 수원시 장안구 광교산로 166,37.301796,127.0323293
발랑저수지,경기 파주시,경기도 파주시 광탄면 발랑리,37.8129066,126.8976042
방아머리해수욕장,경기 안산시,경기 안산시 단원구 대부북동,37.258289,126.5731267
방화수류정(동북각루),경기 수원시,경기도 수원시 팔달구 정조로 910,37.288893,127.0141523
배다골테마파크,경기 고양시,경기도 고양시 덕양구 배다골길 131,37.6307754,126.847702
배혜정도가,경기 화성시,경기도 화성시 정남면 서봉로 835,37.1495498,126.9609396
백련사(가평),경기 가평군,경기도 가평군 상면 샘골길 159-50,37.783857,127.3494979
백련암(경기),경기 광주시,경기도 광주시 오포읍 청석로 22-22,37.3896917,127.2604678
백련암(용인),경기 용인시,경기도 용인시 처인구 포곡읍 에버랜드로456번길 290,37.3073366,127.1814358
백로주유원지,경기 포천시,경기도 포천시 영중면 호국로 2671-22,37.9823583,127.2421576
백봉산,경기 남양주시,"경기도 남양주시 금곡동, 평내동, 와부읍, 화도읍",37.6578222,127.3007017
백운계곡 (한탄강 국가지질공원),경기 포천시,경기도 포천시 이동면 도평리,38.0757063,127.4032977
백운사(의왕),경기 의왕시,경기도 의왕시 왕곡로 323,37.3497917,127.0080562
백운산(포천),경기 포천시,경기도 포천시 이동면 포화로 236-73,38.0713198,127.41056
백운호수,경기 의왕시,경기도 의왕시 백운로 485-4,37.3796579,126.9997488
백운호수 생태탐방로,경기 의왕시,경기 의왕시 학의동,37.3757879,127.0129378
백운호수 음식마을,경기 의왕시,경기도 의왕시 백운로 497-3,37.380718,126.9998047
백의리층 (한탄강 국가지질공원),경기 연천군,경기도 연천군 연천읍 고문리 212,38.0625053,127.1205512
백향꽃누르미갤러리,경기 광주시,경기도 광주시 도척면 얼음골길19번길 33,37.3270914,127.307037
백화암(양주),경기 양주시,경기도 양주시 백화암길 191,37.794747,127.0264861
버섯구지마을,경기 가평군,경기도 가평군 조종면 대보간선로 173,37.8093235,127.3641837
범륜사,경기 파주시,경기도 파주시 적성면 설마천로 222-146,37.9384052,126.951615
법륜사(용인 문수산),경기 용인시,경기도 용인시 처인구 원삼면 농촌파크로 126,37.1690949,127.2970138
벽계구곡,경기 양평군,경기도 양평군 서종면 화서로,37.6270676,127.4248921
벽초지수목원,경기 파주시,경기도 파주시 광탄면 부흥로 242,37.801384,126.8740377
별망성지,경기 안산시,경기도 안산시 단원구 초지동,37.3246446,126.8085765
별빛마을포토랜드,경기 안산시,경기도 안산시 상록구 수인로 1723,37.3394089,126.8634489
별빛정원우주,경기 이천시,경기도 이천시 호법면 단천리,37.2270059,127.4038563
보가산성지(지장산),경기 포천시,경기도 포천시 관인면,38.1576945,127.2511679
보광사(과천),경기,경기도 과천시 교육원로 41,37.422617,126.9849537
보광사(남양주),경기 남양주시,경기도 남양주시 화도읍 가곡로 198,37.6908589,127.2898602
보광사(파주),경기 파주시,경기도 파주시 광탄면 보광로474번길 87,37.7538129,126.9208146
보국사(평택),경기 평택시,경기도 평택시 서탄면 장등안길 38,37.0751986,127.0214995
보적사(오산),경기 오산시,경기도 오산시 독산성로269번길 144,37.1836171,127.0196904
보정동카페거리,경기 용인시,경기도 용인시 기흥구 보정동,37.313179,127.112455
봉국사(성남),경기 성남시,경기도 성남시 수정구 태평로 79,37.4506784,127.1352825
봉녕사(수원),경기 수원시,경기도 수원시 팔달구 창룡대로 236-54,37.2909209,127.0378572
봉림사(화성),경기 화성시,경기도 화성시 남양읍 주석로80번길 139,37.2061116,126.8456386
봉서정,경기 여주시,경기도 여주시 금사면 수부촌길 35,37.3985315,127.5316873
봉선사(경기),경기 남양주시,경기도 남양주시 진접읍 봉선사길 32,37.7462272,127.1832685
봉영사(남양주),경기 남양주시,경기도 남양주시 진접읍 내각2로 84-77,37.7125776,127.1595637
봉인사(경기),경기 남양주시,경기도 남양주시 진건읍 사릉로156번길 295,37.6620835,127.2178016
부천 동물테마파크 하이주,경기 부천시,경기도 부천시 원미구 길주로 105,37.5063502,126.7541323
부천 원미공원,경기 부천시,경기도 부천시 원미구 소사로 456,37.4978187,126.7978214
부천 중앙공원,경기 부천시,경기도 부천시 소향로 162,37.5005875,126.7636793
부천시 자원순환센터,경기 부천시,경기도 부천시 벌말로 122,37.5421197,126.7662934
부천식물원,경기 부천시,경기도 부천시 길주로 660,37.504907,126.8161883
북변동 올드타운,경기 김포시,경기도 김포시 북변중로65번길,37.6255193,126.710236
북한산성,경기 고양시,경기도 고양시 덕양구 대서문길 375,37.6451323,126.9747911
분당 어린이천문대,경기 용인시,경기도 용인시 처인구 모현면 오산로 132-1,37.3231143,127.1551139
분당 정자동 카페거리,경기 성남시,경기도 성남시 분당구 정자동,37.3638388,127.1163207
분당승무사업소(죽전역),경기 용인시,경기도 용인시 기흥구 용구대로 2621,37.3180227,127.1074266
분원리 붕어찜마을,경기 광주시,경기도 광주시 남종면 산수로 1680,37.4988179,127.3025524
불곡산,경기 양주시,경기도 양주시 유양동,37.7898865,127.0267981
불암사(남양주),경기 남양주시,경기도 남양주시 불암산로 190,37.6588354,127.1006422
브이알존큐브 일산웨돔점,경기 고양시,경기도 고양시 일산동구 정발산로 24,37.6557011,126.7719572
블루메 미술관,경기 파주시,경기도 파주시 탄현면 헤이리마을길 59-30,37.7892689,126.6966048
비금계곡,경기 남양주시,경기 남양주시 수동면 내방리,37.7589177,127.2877066
비둘기낭 폭포 (한탄강 국가지질공원),경기 포천시,경기도 포천시 영북면 대회산리,38.0727829,127.2317446
비봉산,경기 안성시,경기도 안성시 보개면 불현길,37.0268225,127.285023
쁘띠프랑스,경기 가평군,경기도 가평군 청평면 호반로 1063,37.7148921,127.4903236
사나사 계곡,경기 양평군,경기도 양평군 옥천면 용천로 1082-12,37.5807606,127.5433501
사나사(양평),경기 양평군,경기도 양평군 옥천면 사나사길 329,37.5382818,127.5062259
사세충렬문,경기 안산시,경기도 안산시 단원구 와동공원로 151,37.3450167,126.8213249
사슴마을,경기 여주시,경기도 여주시 금사면 장흥로 94,37.3787904,127.4778836
사천서원,경기 양주시,경기도 양주시 은현면 은현로382번길 52,37.9011284,127.0137954
사충서원,경기 하남시,경기도 하남시 하남대로232번길 89-8,37.4954651,127.2371101
산들소리수목원,경기 남양주시,경기도 남양주시 불암산로59번길 48-31,37.6510882,127.1014496
산장관광지,경기 가평군,경기도 가평군 상면 덕현산장길 74,37.7543808,127.412394
산천잔치마을,경기 양평군,경기도 양평군 강하면 강하1로 347,37.4582956,127.3925936
삼막사,경기 안양시,경기도 안양시 만안구 삼막로 478,37.4346105,126.9360351
삼막사 마애삼존불,경기 안양시,경기도 안양시 만안구 삼막로 478,37.4346105,126.9360351
삼막사남녀근석,경기 안양시,경기도 안양시 만안구 삼막로 478,37.4346105,126.9360351
삼봉리 한식마을,경기 남양주시,경기도 남양주시 조안면 삼봉리,37.5996764,127.3280106
삼성산,경기 안양시,경기 안양시 만안구 석수동,37.4224747,126.9098163
삼성산산림욕장,경기 안양시,경기도 안양시 만안구 예술공원로131번길 49,37.419865,126.922004
삼성화재 교통박물관,경기 용인시,경기도 용인시 처인구 포곡읍 에버랜드로376번길 171,37.2993534,127.2185665
상동호수공원,경기 부천시,경기도 부천시 원미구 조마루로 15,37.5033089,126.7457616
상승OP(제1땅굴),경기 연천군,경기도 연천군 백학면 백령리,38.0515431,126.8998706
상운사(경기),경기 고양시,경기도 고양시 덕양구 대서문길 197-22,37.6565349,126.9695401
상원사(용문산),경기 양평군,경기도 양평군 용문면 상원사길 292,37.5485545,127.5532092
새둥지마을,경기 연천군,경기도 연천군 백학면 노아로491번길 86,38.0060187,126.9601313
서경들마을,경기 이천시,경기도 이천시 모가면 진상미로1178번길 25,37.1618397,127.4816212
서계박세당 사랑채,경기 의정부시,경기도 의정부시 동일로128번길 36,37.7001378,127.0574068
서운동산,경기 포천시,경기도 포천시 내촌면 내진로9번길 237,37.7721073,127.2035586
서운산,경기 안성시,경기 안성시 서운면 청룡리,36.9115578,127.2891837
서운산성,경기 안성시,경기도 안성시 서운면 산평리,36.9203612,127.2712905
서울근교 찾아가는 양조장 술샘,경기 용인시,경기도 용인시 처인구 양지면 죽양대로 2298-1,37.2330557,127.2982269
서울대공원,경기,경기도 과천시 대공원광장로 102,37.4362233,127.0140581
서울랜드,경기,경기도 과천시 광명로 181,37.4364611,127.024139
서울우유 안산공장,경기 안산시,경기도 안산시 단원구 성곡로 153,37.3222655,126.7574374
서천사(평택),경기 평택시,경기도 평택시 고덕면 방축4길 22-49,37.0156792,127.0443108
서해대교,경기 평택시,경기도 평택시 포승읍,36.982824,126.8852807
서해수호관,경기 평택시,경기도 평택시 포승읍 2함대길 91,36.9923179,126.8257927
서현동 먹거리촌,경기 성남시,경기도 성남시 분당구 새마을로 일대,37.3855315,127.1448049
서흥김씨삼강정문,경기 안성시,경기도 안성시 고삼면 고삼호수로 141-30,37.0873242,127.2693919
석남사(안성),경기 안성시,경기도 안성시 금광면 상촌새말길 3-120,36.9397814,127.3069102
석룡산,경기 가평군,경기도 가평군 북면,37.8855879,127.5502287
석림사(경기),경기 의정부시,경기도 의정부시 동일로122번길 177,37.7011119,127.0663678
석산계곡,경기 양평군,경기도 양평군 단월면 석산로,37.6093364,127.6248911
석왕사(경기),경기 부천시,경기도 부천시 소사로 367,37.48751,126.7949406
석천암(남양주),경기 남양주시,경기도 남양주시 불암산로 175,37.6578244,127.0994474
선감어촌체험마을,경기 안산시,경기도 안산시 단원구 개건너길 78,37.2203507,126.6299006
선법사(하남),경기 하남시,경기도 하남시 서하남로588번길 125,37.5179378,127.208795
선비마을,경기 안성시,경기도 안성시 양성면 덕봉길 45,37.0446945,127.1872457
선유담계곡,경기 포천시,경기도 포천시 이동면 포화로 123,38.0706818,127.3991589
선유동마애불사존불상,경기 안성시,경기도 안성시 일죽면 선유동길,37.1246007,127.4658254
선유랑마을,경기 고양시,경기도 고양시 덕양구 서리골길 130,37.694532,126.9117914
선인장다육식물연구소(구 선인장연구소),경기 고양시,경기도 고양시 일산서구 송산로 464-52,37.6852995,126.7310541
설매재자연휴양림,경기 양평군,경기도 양평군 옥천면 용천로 510,37.5567337,127.5094363
설봉공원,경기 이천시,경기도 이천시 경충대로2709번길 152,37.2799334,127.4274999
설봉산,경기 이천시,경기도 이천시 관고동,37.2806702,127.4265524
설봉서원,경기 이천시,경기도 이천시 경충대로2709번길 276,37.2818638,127.4205864
설성산,경기 이천시,경기도 이천시 장호원읍 경충대로519번길,37.1430882,127.5712605
성남고령친화종합체험관,경기 성남시,경기도 성남시 분당구 야탑로205번길 26,37.4098355,127.14259
성령대군묘,경기 고양시,경기도 고양시 덕양구 대자동,37.6990362,126.88311
성호공원,경기 안산시,경기도 안산시 상록구 성호로 131,37.3142066,126.8604902
성혼선생묘,경기 파주시,경기도 파주시 파주읍 향양리,37.8507336,126.818781
세미원,경기 양평군,경기도 양평군 양서면 양수로 93,37.5407937,127.3240635
세종천문대,경기 여주시,경기도 여주시 강천면 부평로 3,37.2572645,127.7537579
소구니산,경기 양평군,경기도 양평군 옥천면 용천리,37.555427,127.5181436
소래산,경기 시흥시,경기도 시흥시 신천동,37.4387291,126.7810609
소래산산림욕장,경기 시흥시,경기 시흥시 신천동,37.4387291,126.7810609
소령원,경기 파주시,경기도 파주시 광탄면 소령원길 41-65,37.7780463,126.9016084
소산서원,경기 시흥시,경기도 시흥시 소산서원길 20,37.4445708,126.7771547
소요산국민관광지,경기 동두천시,경기도 동두천시 평화로2910번길 145,37.9464858,127.0693176
소요산탑유황온천,경기 동두천시,경기도 동두천시 장고갯로 161-35,37.9080171,127.0647567
소울원,경기 파주시,경기도 파주시 탄현면 검산로 424-12,37.8060114,126.7348292
솔밭공원,경기 안성시,경기도 안성시 안성맞춤대로 1143,37.0146555,127.2679957
송교리 횟타운,경기 화성시,경기도 화성시 서신면 송교큰말길87번길 15,37.1671942,126.6742318
송암스페이스센터,경기 양주시,경기도 양주시 장흥면 권율로185번길 103,37.7353656,126.9423682
쇠꼴마을,경기 파주시,경기도 파주시 법원읍 술이홀로1333번길,37.8851907,126.8756508
수곡서원,경기 양평군,경기도 양평군 지평면 수곡안말길 41-1,37.4392424,127.5974275
수길원,경기 파주시,경기도 파주시 광탄면 소령원길 41-38,37.7771202,126.9020058
수내동가옥(이택구가옥),경기 성남시,경기도 성남시 분당구 성남대로 550,37.3778859,127.1246764
수덕산,경기 가평군,경기 가평군 북면 도대리,37.9467242,127.4879054
수도권차량융합기술단 (행신역),경기 고양시,경기도 고양시 덕양구 행주로 108-1,37.6095984,126.8271501
수도사(평택),경기 평택시,경기도 평택시 포승읍 호암길 58,37.002512,126.8217789
수동국민관광지,경기 남양주시,경기도 남양주시 수동면 비룡로 1635,37.7578348,127.27498
수리사(경기),경기 군포시,경기도 군포시 속달로 347-181,37.3542027,126.8967777
수리산도립공원,경기 군포시,경기도 군포시 산본동,37.3594144,126.9207863
수미마을,경기 양평군,경기도 양평군 단월면 수미길52번길 2-1,37.5153072,127.6482295
수어장대,경기 광주시,경기도 광주시 남한산성면 남한산성로780번길 107-65,37.4789529,127.1813252
수우원,경기 파주시,경기도 파주시 적성면 양연로845번길 47,37.9789932,127.0082366
수원 공방거리,경기 수원시,경기도 수원시 팔달구 남창동,37.2794939,127.0128685
수원 화령전,경기 수원시,경기도 수원시 팔달구 신풍로23번길 15 (신풍동),37.2833516,127.0126706
수원 화성 [유네스코 세계문화유산],경기 수원시,경기도 수원시 장안구 수성로 320,37.2917748,127.0072699
수원사(수원),경기 수원시,경기도 수원시 팔달구 수원천로 300,37.280507,127.0189696
수원온수골온천,경기 수원시,경기도 수원시 권선구 동수원로 232,37.2502201,127.0346879
수원통닭거리,경기 수원시,경기도 수원시 팔달구 정조로800번길 16,37.2793976,127.0176353
수원향교,경기 수원시,경기도 수원시 팔달구 향교로 107-9,37.2725377,127.0122255
수원화성 관광특구,경기 수원시,경기도 수원시 팔달구 정조로 780,37.2775284,127.0167328
수종사,경기 남양주시,경기도 남양주시 조안면 북한강로433번길 186,37.5711404,127.3023586
수진사(경기),경기 남양주시,경기도 남양주시 천마산로 115-13,37.6716125,127.250778
순교자 황사영 알렉시오 묘,경기 양주시,경기도 양주시 장흥면 부곡리,37.7363802,126.9768703
스토리 미니어처 뮤지엄,경기 파주시,경기도 파주시 탄현면 헤이리마을길 93-75,37.7913603,126.6962207
스파라스파 (곤지암리조트),경기 광주시,경기도 광주시 도척면 도척윗로 278,37.3372414,127.2953076
스파플러스,경기 이천시,경기도 이천시 중리천로115번길 45,37.276221,127.4510213
스포츠몬스터 고양,경기 고양시,경기도 고양시 덕양구 고양대로 1955,37.6467805,126.8948223
스포츠몬스터 하남,경기 하남시,경기도 하남시 미사대로 750,37.5434191,127.236611
승전OP,경기 연천군,경기도 연천군 장남면 고랑포리,37.9865809,126.8225953
시화나래 조력문화관,경기 안산시,경기도 안산시 단원구 대부황금로 1927,37.3129812,126.6092392
시화호,경기 안산시,경기 안산시 단원구 대부남동,37.2300463,126.5802849
시화호,경기 안산시,경기도 안산시 단원구 대부동동 2098-1,37.311273,126.6066019
시흥 갯골생태공원,경기 시흥시,경기도 시흥시 동서로 287,37.3871749,126.8124991
시흥 오이도 유적,경기 시흥시,경기도 시흥시 서해안로 113-27,37.4092647,126.7555085
시흥 오이도마을,경기 시흥시,경기도 시흥시 오이도로135번길 39,37.3448298,126.6882704
시흥배곧한울공원 해수체험장,경기 시흥시,경기도 시흥시 해송십리로 61,37.3798877,126.8031025
시흥하이갯골 (관광두레 주민사업체),경기 시흥시,경기도 시흥시 동서로 287,37.3871749,126.8124991
신구대학교식물원,경기 성남시,경기도 성남시 수정구 적푸리로 9,37.4339552,127.080805
신론리 외갓집체험마을,경기 양평군,경기도 양평군 청운면 신론로 279,37.5648364,127.7655063
신륵사(여주),경기 여주시,경기도 여주시 신륵사길 73,37.2975365,127.6615306
신륵사관광지,경기 여주시,경기도 여주시 신륵사길 73,37.2975365,127.6615306
신북 오리촌,경기 포천시,경기도 포천시 신북면 깊이울로 88,37.927526,127.1788284
신북리조트 스프링폴,경기 포천시,경기도 포천시 신북면 청신로 571,37.9553207,127.153516
신창리삼층석탑,경기 안성시,경기도 안성시 고삼면 신창리,37.0829325,127.2415564
신탄리역,경기 연천군,경기도 연천군 신서면 고대산길 4,38.2128517,127.1390971
신해철거리(성남),경기 성남시,경기도 성남시 수내동,37.3713177,127.1223533
신흥레저타운,경기 양주시,경기도 양주시 장흥면 삼상리,37.6978278,126.9413775
신흥사(이천),경기 이천시,경기도 이천시 장호원읍 경충대로519번길 246-314,37.1455055,127.5570983
신흥사(화성),경기 화성시,경기도 화성시 서신면 신흥사길 17-34,37.1930342,126.7094968
실내바다낚시 휴,경기 화성시,경기도 화성시 기안길 55,37.2277291,126.9815499
심곡서원,경기 용인시,경기도 용인시 수지구 심곡로 16-9,37.3058305,127.0766997
심복사(평택),경기 평택시,경기도 평택시 현덕면 심복사길 22,36.9503059,126.9657765
심온선생묘,경기 수원시,경기도 수원시 영통구 이의동 산13-10,37.2963097,127.0528742
심학산 산림공원,경기 파주시,경기도 파주시 동패동,37.7135798,126.7194242
쌍계사(안산),경기 안산시,경기도 안산시 단원구 대부황금로 1171,37.2546417,126.5960467
쌍미륵사와 기솔리석불입상,경기 안성시,경기도 안성시 삼죽면 텃골길 105,37.0675021,127.3432076
씨즈커피 코리아,경기 용인시,경기도 용인시 처인구 모현읍 파담로149번길 30,37.3262535,127.2418131
아라크노피아 생태수목원·주필거미박물관,경기 남양주시,경기도 남양주시 조안면 운길산로 316,37.5673164,127.2822312
아미타사(구 덕암사),경기 고양시,경기도 고양시 덕양구 대서문길 145-63,37.6563043,126.95928
아양동 석불입상,경기 안성시,경기도 안성시 내혜홀3길 7-1,37.0052051,127.2630189
아일랜드캐슬,경기 의정부시,경기도 의정부시 장곡로 22,37.70772,127.0530352
아침고요가족동물원,경기 가평군,경기도 가평군 상면 임초밤안골로 301,37.7474352,127.3612674
아침고요수목원,경기 가평군,경기도 가평군 상면 수목원로 432,37.7439678,127.3524864
아쿠아필드 고양,경기 고양시,경기도 고양시 덕양구 고양대로 1955,37.6467805,126.8948223
아쿠아필드 하남,경기 하남시,경기도 하남시 미사대로 750,37.5434191,127.236611
악티바,경기 광주시,경기도 광주시 곤지암읍 경충대로 729,37.3446936,127.3494254
안곡서원,경기 화성시,경기도 화성시 서신면 제부로 860-36,37.1750754,126.7092866
안산 다문화특구,경기 안산시,경기도 안산시 단원구 다문화길 16,37.3294076,126.7905997
안산갈대습지공원,경기 안산시,경기도 안산시 상록구 해안로 820-116,37.2905148,126.8632557
안산갈대습지공원,경기 안산시,경기도 안산시 상록구 해안로 820-116,37.2905148,126.8632557
안산시세계문화체험관,경기 안산시,경기도 안산시 단원구 원본로 15,37.33123,126.7917959
안산시행복예절관,경기 안산시,경기도 안산시 단원구 보배2길 64-8,37.3324877,126.8319721
안산식물원,경기 안산시,경기도 안산시 상록구 성호로 113,37.3142066,126.8604902
안성 구메농사마을,경기 안성시,경기도 안성시 죽산면 임꺽정길 51-7,37.0242937,127.4081705
안성 구포동성당,경기 안성시,경기도 안성시 혜산로 33,37.011209,127.2742124
안성 미리내마을,경기 안성시,경기도 안성시 양성면 미산1길 2,37.1384845,127.2586565
안성 봉업사지,경기 안성시,경기도 안성시 죽산면 죽산리,37.0808262,127.422667
안성 봉업사지 오층석탑,경기 안성시,경기도 안성시 죽산면 죽산리 148-5,37.0783273,127.4307157
안성 서일농원,경기 안성시,경기도 안성시 일죽면 금일로 332-17,37.0812398,127.4760767
안성 유별난마을,경기 안성시,경기도 안성시 대덕면 장수정길 12-24,37.0399134,127.2323406
안성 정무공 오정방 고택,경기 안성시,경기도 안성시 양성면 덕봉길 66,37.0460326,127.1857835
안성객사,경기 안성시,경기도 안성시 보개면 종합운동장로 203,37.0147795,127.3230533
안성대농리석불입상,경기 안성시,경기도 안성시 대덕면 대농리,37.0675066,127.2696536
안성도기동삼층석탑,경기 안성시,경기도 안성시 도기동 184,37.000571,127.2641029
안성맞춤 먹거리타운,경기 안성시,경기도 안성시 당왕동,37.0211634,127.2717613
안성맞춤가족공원,경기 안성시,경기도 안성시 공도읍 대림동산길 36,37.0139555,127.2031019
안성맞춤랜드,경기 안성시,경기도 안성시 보개면 남사당로 196-31,37.0312723,127.309155
안성죽산리당간지주,경기 안성시,경기도 안성시 죽산면 죽산리,37.0808262,127.422667
안성죽산리삼층석탑,경기 안성시,경기도 안성시 죽산면 죽산리,37.0808262,127.422667
안성죽산리석불입상,경기 안성시,경기도 안성시 죽산면 죽산리,37.0808262,127.422667
안성천문대,경기 안성시,경기도 안성시 미양면 천문대길 60,36.9556764,127.2339538
안성팜랜드,경기 안성시,경기도 안성시 공도읍 대신두길 28,36.9920809,127.1931869
안성향교,경기 안성시,경기도 안성시 낙원길 22,37.00551,127.2700688
안성허브마을,경기 안성시,경기도 안성시 삼죽면 국사봉로 641-12,37.0654896,127.358482
안양 중앙공원,경기 안양시,경기도 안양시 동안구 관평로 149,37.3899821,126.9612655
안양명물 순대곱창골목,경기 안양시,경기도 안양시 만안구 안양로291번길 34,37.3980095,126.9197156
안양사,경기 안양시,경기도 안양시 만안구 예술공원로131번길 103,37.4224281,126.9240704
안양예술공원,경기 안양시,경기도 안양시 만안구 예술공원로 131,37.4188767,126.9202722
안양천,경기 안양시,경기도 안양시 만안구 석수로,37.4198803,126.900015
안양천생태이야기관,경기 안양시,경기도 안양시 만안구 석수로 320,37.4170148,126.8959485
애기봉(김포),경기 김포시,경기도 김포시 하성면 평화공원로 139,37.7431852,126.5940602
애심목장,경기 연천군,경기도 연천군 연천읍 와초길 10-36,38.1401984,127.0934388
앵자봉,경기 광주시,경기도 광주시 퇴촌면 천진암로 1203-1,37.4243925,127.3827929
약사사(경기),경기 성남시,경기 성남시 중원구 은행2동,37.4571068,127.1667319
약사사(평택),경기 평택시,경기도 평택시 안중읍 용성3길 120-10,37.0085569,126.9351805
약암홍염천,경기 김포시,경기도 김포시 대곶면 약암로 965-7,37.6378896,126.551516
양근향교,경기 양평군,경기도 양평군 옥천면 향교길 45,37.5252351,127.4577278
양성 석조여래입상,경기 안성시,경기도 안성시 양성면 구장리,37.0583755,127.2114154
양성향교,경기 안성시,경기도 안성시 양성면 교동길 33-4,37.0679661,127.1970338
양수리환경생태공원,경기 양평군,경기도 양평군 양서면 북한강로 33-2,37.5470166,127.3209472
양주 대모산성,경기 양주시,경기도 양주시 어둔동,37.7742685,127.0102544
양주 도자기나라,경기 양주시,경기도 양주시 장흥면 호국로 332,37.7136314,126.9537684
양주 온릉(단경왕후) [유네스코 세계문화유산],경기 양주시,경기도 양주시 장흥면 호국로 255-41,37.7195019,126.9506743
양주 초록지기마을,경기 양주시,경기도 양주시 남면 양연로173번길 26,37.9228384,126.9974558
양주 회암사지,경기 양주시,경기도 양주시 회암동,37.8504915,127.0990048
양주골 한우마을,경기 양주시,경기도 양주시 백석읍 기산로 468,37.7759124,126.941339
양주향교,경기 양주시,경기도 양주시 부흥로1423번길 50,37.7863428,127.0327747
양지향교,경기 용인시,경기도 용인시 처인구 양지면 향교로13번길 20,37.2383766,127.2859976
양평 구둔역,경기 양평군,경기도 양평군 지평면 구둔역길 8,37.4368837,127.6881776
양평 두물머리,경기 양평군,경기도 양평군 양서면 두물머리길,37.5383024,127.3175374
양평 들꽃수목원,경기 양평군,경기도 양평군 양평읍 수목원길 16,37.5017116,127.4714033
양평 마들가리마을,경기 양평군,경기도 양평군 양동면 양동로 572,37.4704337,127.7231347
양평 맑은숲캠프,경기 양평군,경기도 양평군 청운면 오목골길 33,37.5590805,127.7360095
양평 민물고기 생태학습관,경기 양평군,경기도 양평군 용문면 상광길 23-2,37.5120527,127.6393108
양평 보릿고개마을,경기 양평군,경기도 양평군 용문면 연안길 23-1,37.526095,127.5564545
양평 산수유 농어촌 인성학교,경기 양평군,경기도 양평군 개군면 산수유꽃길 88,37.4390119,127.5774728
양평 산수유마을,경기 양평군,경기도 양평군 개군면 산수유1길 1,37.443785,127.5574121
양평 쌍겨리마을,경기 양평군,경기도 양평군 단월면 섬이길 269,37.6282829,127.5844204
양평 여물리 마을,경기 양평군,경기도 양평군 청운면 청운체육공원길 26,37.5534413,127.7061613
양평 옹달샘꽃누름마을,경기 양평군,경기도 양평군 용문면 궁촌길29번길 16,37.4619469,127.6080888
양평 황순원문학촌 소나기마을,경기 양평군,경기도 양평군 서종면 소나기마을길 24,37.5945109,127.3781099
양평군 함왕성지,경기 양평군,경기도 양평군 옥천면 용천리 산27번지,37.555427,127.5181436
어비계곡,경기 가평군,경기도 가평군 설악면 어비산길99번길 9-10,37.5989091,127.50347
에델바이스 스위스테마파크,경기 가평군,경기도 가평군 설악면 다락재로 226-57,37.6677785,127.4474131
에버랜드,경기 용인시,경기도 용인시 처인구 포곡읍 에버랜드로 199,37.2934755,127.1998066
여주 고달사지,경기 여주시,경기도 여주시 북내면 고달사로 271-15,37.3924881,127.6527197
여주 넓은들마을 [농촌체험],경기 여주시,경기도 여주시 능서면 월평로 389,37.2632994,127.5809165
여주 늘향골마을,경기 여주시,경기도 여주시 점동면 도리길 152,37.2233629,127.7057056
여주 서화마을,경기 여주시,경기도 여주시 북내면 서원2길 40,37.3994982,127.6975299
여주 양화나루,경기 여주시,경기도 여주시 능서면 내양리,37.3462437,127.575926
"여주 영릉(英陵)세종대왕)과 영릉(寧陵)효종,인선왕후) [유네스코 세계문화유산]",경기 여주시,경기도 여주시 능서면 영릉로 269-50,37.304074,127.603751
여주 오감도토리마을,경기 여주시,경기도 여주시 강천면 강천로 776,37.2681556,127.690151
여주 이포나루,경기 여주시,경기도 여주시 금사면 이포로 39,37.3929776,127.5343058
여주 파사성,경기 여주시,경기도 여주시 대신면 천서리,37.4020179,127.5530575
여주 팜스테이마을,경기 여주시,경기도 여주시 금사면 윗범실길 8-3,37.4087181,127.4745809
여주 해바라기마을,경기 여주시,경기도 여주시 강천면 부평로 368,37.2844507,127.7404633
여주 현충탑,경기 여주시,경기도 여주시 주내로 13,37.2937907,127.64798
여주 황포돛배,경기 여주시,경기도 여주시 강변유원지길 105,37.2930663,127.6683067
여주관광농원,경기 여주시,경기도 여주시 북내면 중암2길 19-22,37.3570615,127.7103466
여주도예단지,경기 여주시,경기도 여주시 여양로 254,37.3049054,127.6472107
여주도자세상,경기 여주시,경기도 여주시 신륵사길 7,37.3001115,127.6545425
여주온천,경기 여주시,경기도 여주시 강천면 강문로 864,37.2710758,127.7281309
여주참숯마을,경기 여주시,경기도 여주시 강천면 걸촌동길 40,37.2885695,127.6995895
여주향교,경기 여주시,경기도 여주시 향교1길 24,37.2891358,127.6283189
연강갤러리,경기 연천군,경기도 연천군 중면 군중로 885,38.1178643,126.9871954
연꽃테마파크,경기 시흥시,경기도 시흥시 관곡지로 139,37.4006572,126.8082527
연무대(동장대),경기 수원시,경기도 수원시 팔달구 창룡대로103번길 20,37.2880681,127.0233329
연인산도립공원,경기 가평군,경기도 가평군 가평읍,37.8253113,127.5165397
연주암,경기,경기도 과천시 자하동길 63,37.4418617,126.9653131
연천 경순왕릉,경기 연천군,경기도 연천군 장남면 장남로 288,37.9907691,126.8428624
연천 고랑포구 역사공원,경기 연천군,경기도 연천군 장남면 장남로 270,37.9911045,126.8575023
연천 나룻배마을,경기 연천군,경기도 연천군 왕징면 북삼로 98,38.0955624,127.003788
연천 숭의전지,경기 연천군,경기도 연천군 미산면 숭의전로 382-27,38.0236248,126.9729861
연천 옥계마을,경기 연천군,경기도 연천군 군남면 군중로 36-10,38.1230113,127.0501652
연천 유엔(UN)군 화장장시설,경기 연천군,경기도 연천군 미산면,38.0474328,126.9929126
연천 초성김치마을,경기 연천군,경기도 연천군 청산면 평화로 209,37.9930049,127.0690489
연천 호로고루,경기 연천군,경기도 연천군 장남면 원당리,37.9818758,126.879559
연천역 급수탑,경기 연천군,경기도 연천군 연천읍 연천로 273-7,38.1016304,127.0742944
연천향교,경기 연천군,경기도 연천군 연천읍 지혜로117번길 20,38.096286,127.0689544
열두개울,경기 연천군,경기도 연천군 청산면 청신로 345,37.9880924,127.0938042
열쇠전망대,경기 연천군,경기도 연천군 신서면 동내로 1375-1,38.1555066,127.1442445
염불암(경기),경기 안양시,경기도 안양시 만안구 예술공원로245번길 150,37.4284149,126.9346303
영동리 토속음식마을,경기 광주시,경기도 광주시 퇴촌면 영동길 38,37.4728454,127.3806467
영보사,경기 이천시,경기도 이천시 마장면 서이천로 481-77,37.2664183,127.396676
영연방참전기념비,경기 가평군,경기도 가평군 가평읍 신용길 4,37.8259374,127.5157851
영원사(이천),경기 이천시,경기도 이천시 백사면 원적로869번길 309-52,37.3538667,127.4627195
영월루,경기 여주시,경기도 여주시 주내로 13,37.2937907,127.64798
영월암(이천),경기 이천시,경기도 이천시 경충대로2709번길 388,37.2812703,127.4153505
영창대군묘,경기 안성시,경기도 안성시 일죽면 고은리,37.1234408,127.4428703
영토문화관독도,경기 파주시,경기도 파주시 탄현면 헤이리마을길 59-128,37.7918883,126.6953258
오두산 통일전망대,경기 파주시,경기도 파주시 탄현면 필승로 369,37.773203,126.6774773
오봉산 석굴암,경기 양주시,경기도 양주시 장흥면 석굴암길 519,37.6954367,126.9944128
오산 독산성과 세마대지,경기 오산시,경기도 오산시 양산동,37.1920151,127.0214012
오이도,경기 시흥시,경기도 시흥시 오이도로 175,37.3452397,126.6879337
오이도 선사유적공원,경기 시흥시,경기도 시흥시 서해안로 113-27,37.4092647,126.7555085
오이도 음식문화거리,경기 시흥시,경기도 시흥시 뒷방울길 80,37.3715958,126.757314
오정각,경기 안산시,경기도 안산시 단원구 오정각길 35,37.3599338,126.8313278
옥구공원,경기 시흥시,경기도 시흥시 오이도로 58,37.3517638,126.7009671
옥병서원,경기 포천시,경기도 포천시 창수면 옥수로327번길 189,38.019,127.1707749
옥천리 냉면마을,경기 양평군,경기도 양평군 옥천면 옥천길98번길 12,37.5199259,127.4644148
온온사,경기,경기도 과천시 관악산길 58,37.4361427,126.9925329
와우정사(용인),경기 용인시,경기도 용인시 처인구 해곡로 25-15,37.1940252,127.2784462
왕방산,경기 포천시,경기도 포천시 신북면 깊이울로 234-106,37.9163506,127.1643086
왕산사(포천),경기 포천시,경기도 포천시 호병골길 193,37.8994281,127.1718306
용강서원,경기 고양시,경기도 고양시 일산동구 감내길,37.7124573,126.7836143
용계골,경기 양평군,경기도 양평군 용문면 용문산로 512,37.536811,127.5918105
용담저수지,경기 용인시,경기도 용인시 처인구 원삼면,37.1665762,127.3131912
용덕사,경기 용인시,경기도 용인시 처인구 이동읍 이원로 471-41,37.1699251,127.2450623
용문사(용문산),경기 양평군,경기도 양평군 용문면 용문산로 782,37.5501859,127.570823
용문산,경기 양평군,경기 양평군 용문면 신점리,37.5563194,127.5805231
용문산 관광지,경기 양평군,경기도 양평군 용문면 신점리,37.5563194,127.5805231
용문산 백운봉,경기 양평군,경기도 양평군 용문면 연수리,37.5279802,127.551919
용문산 토속음식마을,경기 양평군,경기도 양평군 용문면 용문산로 640,37.5455563,127.5836657
용문산자연휴양림,경기 양평군,경기도 양평군 양평읍 약수사길 78-14,37.5163791,127.5192346
용문산전투전적비,경기 가평군,경기도 가평군 설악면 뇌암길 7-51,37.6330583,127.4864281
용상사(파주),경기 파주시,경기도 파주시 월롱면 용상골길 403,37.7981792,126.7662616
용소폭포,경기 가평군,경기도 가평군 북면 조무락골길 132,37.9876206,127.4544721
용암사(파주),경기 파주시,경기도 파주시 광탄면 혜음로 742-28,37.7537321,126.8651142
용연서원,경기 포천시,경기도 포천시 신북면 신평로72번길 1-13,37.9503227,127.2288567
용인 8경,경기 용인시,경기도 용인시 기흥구 동탄기흥로 923,37.2280607,127.1002765
용인 곤충테마파크,경기 용인시,경기도 용인시 처인구 백암면 삼백로835번길 20-13,37.1461402,127.3659323
용인 대장금파크,경기 용인시,경기도 용인시 처인구 백암면 용천드라마길 25,37.1212087,127.3368503
용인 석포숲공원,경기 용인시,경기도 용인시 처인구 이동읍,37.1410777,127.1961791
용인 웬떡마을,경기 용인시,경기도 용인시 처인구 원삼면 어현로 10,37.139456,127.3073891
용인 학일마을,경기 용인시,경기도 용인시 처인구 원삼면 학일로 117,37.1473534,127.2858196
용인자연휴양림,경기 용인시,경기도 용인시 처인구 모현읍 초부로 220,37.3147157,127.2679653
용인축협자연체험스쿨 한우랜드,경기 용인시,경기도 용인시 처인구 백암면 옥산로 119,37.1093431,127.4085658
용인향교,경기 용인시,경기도 용인시 기흥구 용인향교로 12-6,37.2954793,127.1204066
용인호박등불마을,경기 용인시,경기도 용인시 처인구 모현읍 능곡로56번길 39,37.3345228,127.1802053
용주사(화성),경기 화성시,경기도 화성시 용주로 136,37.2120183,127.005052
용주서원,경기 파주시,경기도 파주시 월롱면 용주서원길 46,37.7994234,126.7769667
용추폭포,경기 가평군,경기도 가평군 가평읍 승안리,37.8772557,127.4280622
용화사(김포),경기 김포시,경기도 김포시 금포로 1487-5,37.6640127,126.6758391
용화사(안성),경기 안성시,경기도 안성시 미양면 법전길 260-31,36.9458138,127.2085871
우농타조농장,경기 파주시,경기도 파주시 교하로 595-36,37.7054237,126.7135588
우둠지,경기 포천시,경기도 포천시 영북면 산정호수로 446,38.0746671,127.3128287
우음도,경기 화성시,경기도 화성시 송산면 고정리,37.2455111,126.7468539
우저서원,경기 김포시,경기도 김포시 중봉로25번길 87,37.6271993,126.6937457
운계서원(양평),경기 양평군,경기도 양평군 용문면 용문산로192번길 16-21,37.5150494,127.6008645
운계폭포,경기 파주시,경기도 파주시 적성면 감골길 48,37.9119705,126.9522371
운길산,경기 남양주시,경기도 남양주시 조안면 북한강로433번길 186,37.5711404,127.3023586
운수암,경기 안성시,경기도 안성시 양성면 성하길 80-63,37.0361404,127.1698512
운악산 두부마을,경기 가평군,경기도 가평군 조종면 현등사길 14,37.87056,127.331037
운암뜰 한식거리,경기 오산시,경기도 오산시 원동,37.1409837,127.0796619
웃다리문화촌,경기 평택시,경기도 평택시 서탄면 용소금각로 438-14,37.0688233,127.0081637
웅진플레이도시 워터도시,경기 부천시,경기도 부천시 조마루로 2,37.4993929,126.7448116
원균장군묘,경기 평택시,경기도 평택시 도일동,37.0530378,127.1076381
원당종마목장 (렛츠런팜 원당),경기 고양시,경기도 고양시 덕양구 서삼릉길 233-112,37.6641008,126.8735634
원마운트 워터파크,경기 고양시,경기도 고양시 일산서구 한류월드로 300,37.6678113,126.7443811
원적산 천덕봉,경기 이천시,경기도 이천시 백사면 원적로617번길,37.3357028,127.4475173
원통사(포천),경기 포천시,경기도 포천시 일동면 화동로 738-1,37.926858,127.3209257
원평허브농원,경기 화성시,경기도 화성시 매송면 매봉로 40-16,37.2459143,126.9225409
원효사(경기),경기 의정부시,경기도 의정부시 망월로28번길 356,37.7092643,127.0283324
월곶면민만세운동유적비,경기 김포시,경기도 김포시 월곶면 김포대로 2857-39,37.7174079,126.5359378
월곶포구,경기 시흥시,경기도 시흥시 월곶동,37.3847999,126.7579922
월사집목판,경기 가평군,경기도 가평군 상면 태봉리,37.8162993,127.3243717
월산대군묘,경기 고양시,경기도 고양시 덕양구 신원동,37.6743374,126.877559
월산대군사당,경기 고양시,경기도 고양시 덕양구 호국로 1243-39,37.6762861,126.8748972
월화원,경기 수원시,경기도 수원시 팔달구 인계동,37.2714577,127.0281553
유명산,경기 가평군,경기도 가평군 설악면,37.6761522,127.4947001
유명산계곡,경기 가평군,경기도 가평군 설악면 유명산길,37.5958726,127.4911344
유엔군 초전기념비,경기 오산시,경기도 오산시 경기대로 742,37.1582143,127.0617026
육지장사(경기),경기 양주시,경기도 양주시 백석읍 기산로471번길 190,37.7837373,126.944019
윤계선생순절비,경기 화성시,경기도 화성시 남양읍 남양리,37.1994932,126.8311887
율동공원,경기 성남시,경기도 성남시 분당구 문정로 145,37.3828271,127.1499694
율봄식물원,경기 광주시,경기도 광주시 퇴촌면 태허정로 267-54,37.4703811,127.2706137
율암온천숯가마 테마파크,경기 화성시,경기도 화성시 팔탄면 온천로 434-14,37.1522947,126.8820361
은대리 판상절리와 습곡구조 (한탄강 국가지질공원),경기 연천군,경기도 연천군 전곡읍 은대리,38.0424162,127.0646627
은아목장,경기 여주시,경기도 여주시 가남읍 금당5길 139,37.2125963,127.620231
은이성지,경기 용인시,경기도 용인시 처인구 양지면 은이로 182,37.2158225,127.2777677
은하초코기사단,경기 용인시,경기도 용인시 처인구 모현읍 능곡로 160,37.3310716,127.1848897
은행식물원 (은행자연관찰원),경기 성남시,경기도 성남시 중원구 은행로 72,37.4507605,127.1675981
음악역 1939,경기 가평군,경기도 가평군 가평읍 석봉로 100,37.8290603,127.5094431
의안대군방석묘역,경기 광주시,경기도 광주시 남한산성면 엄미길,37.4763017,127.2257721
의왕역,경기 의왕시,경기도 의왕시 왕송못동로 97,37.3196181,126.9459986
의왕자연학습공원(레솔레파크),경기 의왕시,경기도 의왕시 왕송못동로 307,37.3071227,126.9526826
의왕철도박물관,경기 의왕시,경기도 의왕시 철도박물관로 142,37.3142825,126.9536889
의정부 부대찌개거리,경기 의정부시,경기도 의정부시 호국로1309번길 7,37.7440498,127.0494386
이방실장군묘,경기 가평군,경기도 가평군 가평읍 하색리,37.8125406,127.4851206
이익선생묘,경기 안산시,경기도 안산시 상록구 일동,37.3130877,126.8697336
이일천랜드,경기 성남시,경기도 성남시 중원구 사기막골로105번길 25,37.4404485,127.1735512
이정구선생묘,경기 가평군,경기도 가평군 상면,37.8049606,127.3570731
이천 도니울 명품쌀마을,경기 이천시,경기도 이천시 대월면 대월로667번길 359-3,37.2069638,127.4813161
이천 도립리 반룡송,경기 이천시,경기도 이천시 백사면 원적로 910,37.3417476,127.4777644
이천 부래미마을,경기 이천시,경기도 이천시 율면 금율로640번길 177,37.0588372,127.5476212
이천 산수유마을,경기 이천시,경기도 이천시 백사면 원적로775번길 17,37.3404703,127.4633646
이천 신대리 백송,경기 이천시,경기도 이천시 백사면 원적로568번길 205-26,37.3202651,127.4604156
이천 자채방아마을,경기 이천시,경기도 이천시 대월면 대월로358번길 168-24,37.1911589,127.5070275
이천관광농원,경기 이천시,경기도 이천시 장호원읍 이풍로107번길 51,37.1656775,127.5878832
이천도예마을,경기 이천시,경기도 이천시 신둔면 경충대로3150번길 19,37.3091729,127.4037815
이천보고가,경기 가평군,경기도 가평군 상면 역촌길 84-14,37.7991757,127.3489105
이천향교,경기 이천시,경기도 이천시 향교로 1,37.2857193,127.4373289
이항로선생 생가,경기 양평군,경기도 양평군 서종면 화서1로 239,37.6397134,127.4271157
이항복선생묘,경기 포천시,경기도 포천시 가산면 오성길 29,37.8303099,127.1849451
이해룡고가,경기 안성시,경기도 안성시 서운면 청룡길 109-11,36.9117387,127.2870032
인계예술공원,경기 수원시,경기도 수원시 팔달구 동수원로 335,37.2663063,127.0439423
인처골마을,경기 안성시,경기도 안성시 서운면 인처동길 38-12,36.9448598,127.2714472
인평대군묘 및 신도비,경기 포천시,경기도 포천시 신북면 신평로222번길 12-48,37.9418759,127.2160445
인평대군치제문비,경기 포천시,경기도 포천시 신북면 신평로222번길 12-48,37.9418759,127.2160445
일동 용암유황천,경기 포천시,경기도 포천시 일동면 수입로 46,37.9739038,127.3266446
일동제일유황온천,경기 포천시,경기도 포천시 일동면 화동로 1210,37.9675,127.3286111
일산 대화동 먹자골목,경기 고양시,경기도 고양시 일산서구 대산로 213,37.6780649,126.75476
일산 동물의 왕국,경기 고양시,경기도 고양시 일산서구 장수길 23,37.6594884,126.743414
일산 어린이천문대,경기 고양시,경기도 고양시 일산동구 중산로 306-176,37.7002604,126.7915
일산호수공원,경기 고양시,경기도 고양시 일산동구 호수로 595,37.658391,126.7642233
일산황토마루한증막,경기 파주시,경기도 파주시 오도로130번길 37,37.7523261,126.7184764
일영유원지,경기 양주시,경기도 양주시 장흥면 삼상리,37.6978278,126.9413775
일영허브랜드,경기 양주시,경기도 양주시 장흥면 일영로 346-26,37.6750682,126.9236668
임장서원,경기 연천군,경기도 연천군 연천읍 동막로25번길 170,38.0925489,127.0813255
임진강 주상절리 (한탄강 국가지질공원),경기 연천군,경기도 연천군 미산면 동이리,38.0184905,127.0000426
임진강 한우마을,경기 파주시,경기도 파주시 적성면 솥뒤로 36,37.957109,126.9162718
임진강 황포돛배,경기 파주시,경기도 파주시 적성면 적성면 두지리 216-5,37.9649321,126.8896042
임진강변생태탐방로(율곡습지꽃가람놀이배움터),경기 파주시,경기도 파주시 문산읍 임진각로 177,37.8893177,126.7400657
임진강평화습지원,경기 연천군,경기도 연천군 중면 황산리 852,38.1355921,127.019592
입파도 홍암,경기 화성시,경기도 화성시 우정읍 입파길 54,37.1044023,126.5384232
자라섬,경기 가평군,경기도 가평군 가평읍 자라섬로 60,37.8209476,127.5208644
자비사(평택),경기 평택시,경기도 평택시 팽성읍 동서촌로 137,36.9654031,127.0664505
자연과별천문대,경기 가평군,경기도 가평군 북면 백둔로342번길 115-33,37.9128874,127.4741932
자유의 다리(파주),경기 파주시,경기도 파주시 문산읍 임진각로 148-53,37.8903028,126.7402706
자인사(포천),경기 포천시,경기도 포천시 영북면 산정호수로 808,38.0737759,127.3270214
자재암(경기),경기 동두천시,경기도 동두천시 평화로2910번길 145,37.9464858,127.0693176
잣향기푸른숲,경기 가평군,경기도 가평군 상면 축령로 289-146,37.7721391,127.3391224
장경사(경기),경기 광주시,경기도 광주시 남한산성면 남한산성로 676,37.4752249,127.1977067
장안문(長安門),경기 수원시,경기도 수원시 팔달구 정조로 910,37.288893,127.0141523
장욱진고택,경기 용인시,경기도 용인시 기흥구 마북로 119-8,37.3012653,127.1203032
장자호수공원,경기 구리시,경기도 구리시 토평동 878,37.5731397,127.135381
장항습지,경기 고양시,경기도 고양시 일산동구 장대들길 680,37.6585751,126.7749035
장흥관광지,경기 양주시,경기도 양주시 장흥면 권율로 193,37.7312783,126.9488836
장흥관광지 한식마을,경기 양주시,경기도 양주시 장흥면 권율로 193,37.7312783,126.9488836
장흥자생수목원,경기 양주시,경기도 양주시 장흥면 권율로309번길 167-35,37.743901,126.9496355
재인폭포 (한탄강 국가지질공원),경기 연천군,경기도 연천군 연천읍 부곡리,38.0876334,127.1609881
재인폭포오토캠핑장,경기 연천군,경기도 연천군 연천읍 현문로508번길 140,38.0642206,127.1268069
적성향교,경기 파주시,경기도 파주시 적성면 감악산로 1311-20,37.9632776,126.923692
전곡리 유적 토층 (한탄강 국가지질공원),경기 연천군,경기도 연천군 전곡읍 양연로 1510,38.0154257,127.061393
전곡역,경기 연천군,경기도 연천군 전곡읍 전곡역로 75,38.0248192,127.0711967
전곡항,경기 화성시,경기도 화성시 서신면 전곡항로,37.190365,126.662988
정약용선생묘,경기 남양주시,경기도 남양주시 조안면 다산로747번길 11,37.5162381,127.2990419
정충묘,경기 광주시,경기도 광주시 초월읍 대쌍령리,37.3867663,127.2817442
정토사(성남),경기 성남시,경기도 성남시 수정구 옛골로42번길 3,37.4257229,127.0678776
제3땅굴,경기 파주시,경기도 파주시 군내면 제3땅굴로,37.912287,126.7161023
제부도,경기 화성시,경기도 화성시 서신면 제부말길 96,37.1688757,126.6252234
제부도 모세거리,경기 화성시,경기도 화성시 서신면 제부리,37.1710576,126.6224067
제부도 해안산책로(제비꼬리길),경기 화성시,경기도 화성시 서신면 제부리,37.1710576,126.6224067
제부도해수욕장,경기 화성시,경기도 화성시 서신면 해안길 260,37.1645776,126.6187913
제암리 3.1운동 순국기념관,경기 화성시,경기도 화성시 향남읍 제암길 50,37.1260703,126.8916396
조무락계곡,경기 가평군,경기도 가평군 북면 조무락골길,37.989425,127.4464943
조선왕가 Healingshill,경기 연천군,경기도 연천군 연천읍 현문로 339-9,38.0630412,127.1006445
조선효종영릉재실,경기 여주시,경기도 여주시 능서면 영릉로 269-10,37.304074,127.603751
조안 슬로시티,경기 남양주시,경기도 남양주시 조안면 북한강로 413,37.5589813,127.3122976
조종암,경기 가평군,경기도 가평군 조종면 대보리,37.8096478,127.3851766
조종천계곡,경기 가평군,경기도 가평군 조종면 운악청계로368번길,37.8425355,127.3590565
종현어촌체험마을,경기 안산시,경기도 안산시 단원구 구봉길 240,37.2802418,126.5480419
좌상바위 (한탄강 지질공원),경기 연천군,경기도 연천군 전곡읍 신답리,38.0481252,127.1081764
주금산,경기 포천시,경기도 포천시 내촌면 능곡청정길 50,37.7836655,127.2412336
주렁주렁 (롯데빅마켓 킨텍스점),경기 고양시,경기도 고양시 일산서구 주엽로 79,37.667373,126.753486
주말농장 한식마을,경기 화성시,경기도 화성시 봉담읍 수기리,37.2014565,126.9765692
죽산성지(이진터성지),경기 안성시,경기도 안성시 일죽면 종배길 115,37.0749703,127.4495627
죽산향교,경기 안성시,경기도 안성시 죽산면 죽산향교길 54-45,37.0825679,127.4235902
죽주산성,경기 안성시,경기도 안성시 죽산면 죽양대로 111-71,37.0894366,127.4298002
중미산,경기 양평군,경기도 양평군 옥천면 중미산로 1152,37.5879302,127.4545795
중미산 천문대,경기 양평군,경기도 양평군 옥천면 중미산로 1268,37.5817561,127.4592837
중미산자연휴양림,경기 양평군,경기도 양평군 옥천면 중미산로 1152,37.5879302,127.4545795
중앙공원,경기 성남시,경기도 성남시 분당구 성남대로 550,37.3778859,127.1246764
중원산,경기 양평군,경기도 양평군 용문면 조계골길,37.5492717,127.5845052
중원폭포,경기 양평군,경기도 양평군 용문면 연수리,37.5279802,127.551919
중흥사(고양),경기 고양시,경기도 고양시 덕양구 대서문길 393,37.6511548,126.9656105
쥬라기랜드,경기,경기도 과천시 광명로 181,37.4364611,127.024139
지동산촌마을,경기 포천시,경기도 포천시 신북면 지동길 114-11,37.9381408,127.1211023
지수당,경기 광주시,경기도 광주시 남한산성면 남한산성로 721,37.4660117,127.2146484
지순택요(고려도요),경기 이천시,경기도 이천시 신둔면 경충대로 3217,37.3115882,127.3988615
지장산 응회암 (한탄강 국가지질공원),경기 포천시,경기도 포천시 관인면 지장산길 124,38.1576945,127.2511679
지축 차량사업소,경기 고양시,경기도 고양시 덕양구 삼송로 300,37.649588,126.9121326
지평지구전투전적비,경기 양평군,경기도 양평군 지평면 지평로 357,37.46712,127.6280517
지평향교,경기 양평군,경기도 양평군 지평면 지평로 333,37.4809344,127.6371041
진위천유원지,경기 평택시,경기도 평택시 진위면 진위서로 264-15,37.0980367,127.0866126
진위향교,경기 평택시,경기도 평택시 진위면 진위로 49,37.0982407,127.0951182
진주목장 낙농체험,경기 화성시,경기도 화성시 비봉면 일묵동길 24,37.241205,126.8793199
차탄천 주상절리 (한탄강 국가지질공원),경기 연천군,경기도 연천군 연천읍 통현리,38.0734053,127.0805796
창룡문,경기 수원시,경기도 수원시 팔달구 경수대로 697,37.2777914,127.0283873
창문아트센터,경기 화성시,경기도 화성시 남양읍 남양로1405번길 20,37.2582544,126.8161872
창우동 한식마을,경기 하남시,경기도 하남시 충군동,37.5222103,127.1940884
책테마파크,경기 성남시,경기도 성남시 분당구 문정로 145,37.3828271,127.1499694
처인성,경기 용인시,경기도 용인시 처인구 남사면 아곡리,37.1524143,127.1655251
천마산군립공원,경기 남양주시,경기도 남양주시 화도읍 묵현로,37.664129,127.2944088
천보사(경기),경기 남양주시,경기도 남양주시 불암산로 145,37.6556722,127.108809
천서리 막국수촌,경기 여주시,경기도 여주시 대신면 여양1로 143-16,37.4097349,127.560606
천진암 성지,경기 광주시,경기도 광주시 퇴촌면 천진암로 1203,37.4243925,127.3827929
청강 만화역사박물관,경기 이천시,경기도 이천시 마장면 청강가창로 389-94,37.2049315,127.3545245
청계목장,경기 용인시,경기도 용인시 처인구 백암면 청계로104번길 20,37.1540424,127.4009891
청계사(경기),경기 의왕시,경기도 의왕시 청계로 475,37.4118583,127.0349864
청계저수지,경기 포천시,경기도 포천시 일동면 운악청계로1480번길 45,37.9402041,127.3408616
청도훼미리랜드,경기 파주시,경기도 파주시 문산읍 문산역로 107,37.8555854,126.7867459
청련암(수원),경기 수원시,경기도 수원시 장안구 수일로 335,37.3008031,127.0230149
청룡사(안성),경기 안성시,경기도 안성시 서운면 청룡길 140,36.9136883,127.2888738
청암관광농원,경기 이천시,경기도 이천시 부발읍 황무로1720번길 74,37.2674497,127.5159824
청원사(안성),경기 안성시,경기도 안성시 원곡면 통심길 16-102,37.0714227,127.1739257
청평자연휴양림,경기 가평군,경기도 가평군 청평면 북한강로2246번길 8-6,37.711878,127.4072261
청평호반,경기 가평군,경기도 가평군 설악면 유명로 1906-15,37.6827175,127.4527369
청평호반 매운탕촌,경기 가평군,경기도 가평군 설악면 회곡리,37.691299,127.4428127
초롱이둥지마을,경기 가평군,경기도 가평군 설악면 묵안로 906,37.6346242,127.5070879
최규서어서각,경기 안성시,경기도 안성시 원곡면 만리길 35,37.0589083,127.1466075
최영장군묘,경기 고양시,경기도 고양시 덕양구 대자동,37.6990362,126.88311
추읍산,경기 양평군,경기도 양평군 양평읍 원덕리 302-2,37.4680052,127.5490676
축령산,경기 남양주시,경기 남양주시 수동면,37.7035299,127.3260945
축령산자연휴양림,경기 남양주시,경기도 남양주시 수동면 축령산로 299,37.7547427,127.3132292
춘궁동 한식마을,경기 하남시,경기도 하남시 이성로 57,37.5319818,127.1920337
충렬서원,경기 용인시,경기도 용인시 처인구 모현읍 충렬로 9-19,37.3410524,127.1701736
친환경농업박물관,경기 양평군,경기도 양평군 용문면 용문산로 670,37.547586,127.582284
칠장사(안성),경기 안성시,경기도 안성시 죽산면 칠장로 399-18,37.0264327,127.3977239
칠장산,경기 안성시,경기 안성시 죽산면,37.0785148,127.4224058
칠현산,경기 안성시,경기도 안성시 삼죽면 신미1길 188,37.0372897,127.3762695
침괘정,경기 광주시,경기도 광주시 남한산성면 남한산성로 784-6,37.4781951,127.1830287
칼봉산자연휴양림,경기 가평군,경기도 가평군 가평읍 경반안로 454,37.8365339,127.4650719
캐나다전투기념비,경기 가평군,경기도 가평군 북면 이곡리,37.8807832,127.5260772
캐리비안베이,경기 용인시,경기도 용인시 처인구 포곡읍 에버랜드로 199,37.2934755,127.1998066
캠프 그리브스,경기 파주시,경기도 파주시 군내면 적십자로 137,37.8991166,126.7286719
코코몽에코파크 (용인),경기 용인시,경기도 용인시 수지구 동천로 581,37.3544044,127.0520262
큰숲 안양워터랜드,경기 안양시,경기도 안양시 만안구 예술공원로 153-32,37.4196612,126.9238964
타임앤블레이드 박물관,경기 파주시,경기도 파주시 탄현면 헤이리마을길 41,37.7873116,126.6978721
탑교육문화원(찾아가는 VR 체험 버스),경기 수원시,경기도 수원시 팔달구 매산로116번길 18,37.2704104,127.0135488
태산패밀리파크,경기 김포시,경기도 김포시 하성면 하성로 585,37.7247178,126.6297854
태풍전망대,경기 연천군,경기도 연천군 중면 횡산리,38.1201245,126.9752779
태화산(경기),경기 광주시,경기도 광주시 도척면 추곡리,37.2821045,127.2934783
테르메덴,경기 이천시,경기도 이천시 모가면 사실로 984,37.1822659,127.4446368
통방산,경기 가평군,경기 가평군 설악면,37.6761522,127.4947001
통일공원(파주),경기 파주시,경기도 파주시 파주읍 통일로 1586-24,37.8490235,126.7898042
통일동산 관광특구,경기 파주시,경기도 파주시 탄현면 평화로 885-59,37.7821845,126.6896217
통일정보화마을,경기 파주시,경기도 파주시 군내면 통일촌길 220,37.9062269,126.7310796
통진향교,경기 김포시,경기도 김포시 월곶면 군하로 288-21,37.717076,126.5502692
틴토이뮤지엄,경기 파주시,경기도 파주시 탄현면 헤이리마을길 38-26,37.7863096,126.6981066
팀업캠퍼스,경기 광주시,경기도 광주시 곤지암읍 경충대로 729,37.3446936,127.3494254
팀업캠퍼스 THE-4Rest 캠핑장,경기 광주시,경기도 광주시 곤지암읍 경충대로 729,37.3446936,127.3494254
파산서원,경기 파주시,경기도 파주시 파평면 파산서원길 24-40,37.9323074,126.8596832
파주 DMZ 생태연구소,경기 파주시,경기도 파주시 회동길 145,37.7082498,126.6867208
파주 덕은리 주거지와 지석묘군,경기 파주시,경기도 파주시 월롱면 능산리,37.8257884,126.7746034
파주 맛고을 음식문화거리,경기 파주시,경기도 파주시 탄현면,37.8025465,126.7159861
파주 산머루마을,경기 파주시,경기도 파주시 적성면 윗배우니길 194,37.9693589,126.9518954
파주 삼릉 [유네스코 세계문화유산],경기 파주시,경기도 파주시 조리읍 삼릉로 89,37.7405486,126.8423122
파주 오두산성,경기 파주시,경기도 파주시 탄현면 성동리,37.7818578,126.6799741
파주 윤관장군묘,경기 파주시,경기도 파주시 광탄면,37.7761296,126.8512502
파주 율곡습지공원,경기 파주시,경기도 파주시 파평면 율곡리,37.8874885,126.8178993
파주 임진각(평화누리공원),경기 파주시,경기도 파주시 문산읍 임진각로 177,37.8893177,126.7400657
파주 장단콩마을,경기 파주시,경기도 파주시 군내면 통일촌길 64,37.9105744,126.7335352
"파주 장릉(인조,인열왕후) [유네스코 세계문화유산]",경기 파주시,경기도 파주시 탄현면 장릉로 90,37.7735808,126.7080607
파주 출판도시,경기 파주시,경기도 파주시 회동길 145,37.7082498,126.6867208
파주 평화통일체험학습장,경기 파주시,경기도 파주시 적성면 달빛길 54,37.9785315,126.9180387
파주DMZ,경기 파주시,경기도 파주시 문산읍 임진각로 148-53,37.8903028,126.7402706
파주골 순두부촌,경기 포천시,경기도 포천시,37.8949148,127.2003551
파주이이유적,경기 파주시,경기도 파주시 법원읍 자운서원로 204,37.864271,126.8709074
파주임진팔경,경기 파주시,경기도 파주시 문산읍 반구정로 53-51,37.8666131,126.7532563
파주향교,경기 파주시,경기도 파주시 파주읍 향교말길 56-83,37.8346248,126.8112865
파크엘림,경기 안성시,경기도 안성시 일죽면 주래본죽로 124-26,37.0907603,127.4899461
파평용연,경기 파주시,경기도 파주시 파평면 늘노리 385-1,37.9284913,126.8463246
판교공원,경기 성남시,경기도 성남시 분당구 운중로225번길 37,37.3918506,127.0908622
판교환경생태학습원,경기 성남시,경기도 성남시 분당구 대왕판교로645번길 21,37.399494,127.1037992
판문점,경기 파주시,경기도 파주시 군내면,37.9386925,126.7206557
팔달공원,경기 수원시,경기도 수원시 팔달구 팔달산로 108,37.2758455,127.0099624
팔달문,경기 수원시,경기도 수원시 팔달구 정조로 780,37.2775284,127.0167328
팔달사(수원),경기 수원시,경기도 수원시 팔달구 행궁로 68,37.2763987,127.0152455
팔달산,경기 수원시,경기도 수원시 팔달구 팔달산로 228,37.2799291,127.0124266
팔당호,경기 광주시,경기도 광주시 남종면,37.4942828,127.3019914
팔봉산 흔들바위,경기 안성시,경기도 안성시 일죽면 종배길 81,37.0749116,127.4509554
퍼스트가든,경기 파주시,경기도 파주시 탑삭골길 260,37.7368696,126.7911684
편백숲 힐링토피아,경기 성남시,경기도 성남시 수정구 달래내로 375,37.4270448,127.0721219
평강식물원,경기 포천시,경기도 포천시 영북면 우물목길 171-18,38.0499693,127.3061016
평촌 먹거리촌,경기 안양시,경기도 안양시 동안구 귀인로190번길 90-16,37.3822996,126.9624904
평택 가스홍보관,경기 평택시,경기도 평택시 포승읍 남양만로,37.0044876,126.8024671
평택농업생태원,경기 평택시,경기도 평택시 오성면 청오로 33-58,37.0131244,126.9799833
평택시 송탄 관광특구,경기 평택시,경기도 평택시 중앙시장로 32,37.0796915,127.0536986
평택향교,경기 평택시,경기도 평택시 팽성읍 부용로17번길 40,36.9652753,127.0560992
평택호관광단지,경기 평택시,경기도 평택시 현덕면 평택호길 159,36.9213979,126.9222175
평화랜드,경기 파주시,경기도 파주시 문산읍 임진각로 148-39,37.890076,126.7420639
평화를 품은 집,경기 파주시,경기도 파주시 파평면 파평산로389번길 42-19,37.8936124,126.8400828
포도향이 흐르는 마을,경기 가평군,경기도 가평군 상면 음지말로 6,37.8314922,127.2912568
포천 반월성,경기 포천시,경기도 포천시 군내면 구읍리,37.885205,127.2182918
포천 산사원,경기 포천시,경기도 포천시 화현면 화동로432번길 25,37.9058675,127.3093844
포천 산정호수,경기 포천시,경기도 포천시 영북면 산정호수로411번길 89,38.0686138,127.3230194
포천 아우라지 베개용암 (한탄강 국가지질공원),경기 포천시,경기도 포천시 창수면 신흥리,38.0525287,127.1412634
포천 어메이징파크,경기 포천시,경기도 포천시 신북면 탑신로 860,37.9481613,127.1278531
포천 이동갈비마을,경기 포천시,경기도 포천시 이동면 화동로 2078,38.033184,127.3664273
포천 한탄강 하늘다리,경기 포천시,경기도 포천시 영북면 비둘기낭길 207,38.0838576,127.2187725
포천 허브아일랜드,경기 포천시,경기도 포천시 신북면 청신로947번길 35,37.9653434,127.1316512
포천아트밸리와 포천석 (한탄강 국가지질공원),경기 포천시,경기도 포천시 신북면 아트밸리로 234,37.9230477,127.2379702
포천향교,경기 포천시,경기도 포천시 군내면 청군로3274번길 37,37.8897508,127.2213964
푸르내마을 [농촌체험],경기 연천군,경기도 연천군 청산면 청연로 30-62,38.0350897,127.1038627
푸른언덕블루베리,경기 포천시,경기도 포천시 창수면 옥수로327번길 126-47,38.0157511,127.1719424
풀향기 허브나라,경기 양평군,경기도 양평군 용문면 용문산로 120-11,37.5074809,127.6058319
풍도,경기 안산시,경기도 안산시 단원구 풍도길 28,37.1109755,126.3931143
풍동 애니골,경기 고양시,경기도 고양시 일산동구 애니골길 15-46,37.6718379,126.7895399
풍혈산유원지,경기 포천시,경기도 포천시 영중면 성장로 268,38.0204557,127.2832644
프로방스 마을,경기 파주시,경기도 파주시 탄현면 새오리로 69,37.7905182,126.6853817
피싱파크 진산각,경기 김포시,경기도 김포시 중봉로 33,37.6254043,126.6962579
필리핀군 참전비,경기 고양시,경기도 고양시 덕양구 대양로 5,37.688514,126.8734913
하남 동사지,경기 하남시,경기도 하남시 서하남로418번길 122,37.5168768,127.185261
하남 이성산성,경기 하남시,경기도 하남시 춘궁동,37.5222103,127.1940884
하내테마파크,경기 화성시,경기도 화성시 서신면 당성로 102,37.1832338,126.6917168
하니랜드,경기 파주시,경기도 파주시 조리읍 장곡로 218,37.7498111,126.8335655
하우현성당,경기 의왕시,경기도 의왕시 원터아랫길 81-6,37.3958035,127.0237166
하이트진로 이천공장,경기 이천시,경기도 이천시 부발읍 중부대로1707번길 13,37.2925014,127.4936909
하피랜드,경기 화성시,경기도 화성시 팔탄면 시청로 888,37.1686642,126.888972
한강 문화관,경기 여주시,경기도 여주시 신단1길 83,37.2800445,127.6798369
한강생태학습장,경기 양평군,경기도 양평군 강하면 강남로 91,37.4994486,127.4215259
한국도로공사 교통센터,경기 성남시,경기도 성남시 분당구 대왕판교로 246,37.3656676,127.1021199
한국민속촌,경기 용인시,경기도 용인시 기흥구 민속촌로 90,37.2599901,127.1205546
한국지역난방공사 고양지사,경기 고양시,경기도 고양시 일산동구 경의로,37.6632899,126.7849719
한국항공대학교 항공우주박물관,경기 고양시,경기도 고양시 덕양구 항공대학로 76,37.6015484,126.8677079
한길 책박물관,경기 파주시,경기도 파주시 탄현면 헤이리마을길 59-6,37.7892212,126.6979147
한반도통일미래센터,경기 연천군,경기도 연천군 전곡읍 남계로 408,38.0164585,127.0249724
한재당,경기 김포시,경기도 김포시 하성면 가금로111번길 107,37.7480477,126.6085533
한탄강 관광지,경기 연천군,경기도 연천군 전곡읍 선사로 76,38.0147057,127.068102
한탄강 지질공원센터,경기 포천시,경기도 포천시 영북면 비둘기낭길 55,38.0730103,127.2249604
한탄강변자연생태탐방로(벼롯길),경기 포천시,경기도 포천시 영북면 운천리 783-18,38.0973977,127.251768
한탄강임진강지질공원,경기 연천군,경기도 연천군 전곡읍 양연로 1510,38.0154257,127.061393
한탄강자연생태탐방로,경기 포천시,경기도 포천시 영북면 대회산리 451,38.0771383,127.2208295
한택식물원,경기 용인시,경기도 용인시 처인구 백암면 한택로 2,37.094023,127.4098323
한터 조랑말농장,경기 용인시,경기도 용인시 처인구 양지면 대대로 110,37.2688972,127.2649781
한화리조트 산정호수 온천,경기 포천시,경기도 포천시 영북면 산정호수로 402,38.0656884,127.3141846
함왕봉,경기 양평군,경기도 양평군 옥천면 용천로,37.5647815,127.516743
함왕혈,경기 양평군,경기도 양평군 옥천면 용천로 1082-12,37.5807606,127.5433501
해마루촌,경기 파주시,경기도 파주시 진동면 해마루길 111,37.9258706,126.7871251
해피엘앤비,경기 이천시,경기도 이천시 부발읍 황무로2065번길 41,37.2421788,127.5130163
핸드앤몰트,경기 남양주시,경기도 남양주시 화도읍 폭포로 361-1,37.6341086,127.323584
행주산성,경기 고양시,경기도 고양시 덕양구 행주로15번길 89,37.5958911,126.826499
행주산성 역사공원,경기 고양시,경기도 고양시 덕양구 행주외동 140-8,37.5981374,126.8197372
행주산성먹거리촌,경기 고양시,경기도 고양시 덕양구 행주로15번길 89,37.5958911,126.826499
행주서원,경기 고양시,경기도 고양시 덕양구 행주산성로 127-17,37.5994641,126.8185091
행주외동 장어마을,경기 고양시,경기도 고양시 덕양구 행주산성로144번길 31-16,37.6013978,126.8154695
허브빌리지,경기 연천군,경기도 연천군 왕징면 북삼로20번길 37,38.0895808,127.0055758
헤이리 예술마을,경기 파주시,경기도 파주시 탄현면 헤이리마을길 82-105,37.7881652,126.7037948
현대도예문화원,경기 가평군,경기도 가평군 북면 화악지암길 43-26,37.9304254,127.5667998
현대태권도디펜스,경기 남양주시,경기도 남양주시 의안로 121-20,37.6427806,127.2370758
현등사(가평),경기 가평군,경기도 가평군 조종면 현등사길 34,37.87056,127.331037
현등산 (운악산),경기 가평군,경기 가평군 하면 운악청계로 589번길 73,37.8704784,127.3308866
현절사,경기 광주시,경기도 광주시 남한산성면 남한산성로 732-42,37.4777621,127.1905578
현충탑(하남),경기 하남시,경기 하남시 창우동,37.5389973,127.23066
형도,경기 화성시,경기도 화성시 송산면 독지리,37.2519302,126.6962508
호국사(경기),경기 하남시,경기도 하남시 검단산로146번길 240,37.5278183,127.2387437
호명호수공원,경기 가평군,경기 가평군 청평면 상천리,37.7773388,127.4510029
호주전투기념비,경기 가평군,경기도 가평군 북면 목동리,37.9137075,127.5896846
홍난파 생가,경기 화성시,경기도 화성시 남양읍 홍난파길 32,37.1790795,126.8339666
홍승인고가,경기 화성시,경기도 화성시 정남면 서봉로851번길 34-15,37.1522675,126.959395
화담숲,경기 광주시,경기도 광주시 도척면 도척윗로 278-1,37.3372414,127.2953076
화도하수처리장 피아노폭포,경기 남양주시,경기도 남양주시 화도읍,37.6523921,127.3083224
화랑유원지,경기 안산시,경기도 안산시 단원구 동산로 268,37.3253068,126.8118493
화림선원,경기 안산시,경기도 안산시 상록구 도매시장로 140,37.3180195,126.8664538
화산서원,경기 포천시,경기도 포천시 가산면 가산로 227-40,37.8419293,127.1754961
화서문(華西門),경기 수원시,경기도 수원시 팔달구 장안동 334,37.2854593,127.0096568
화석정,경기 파주시,경기도 파주시 파평면 화석정로 152-72,37.8877103,126.8054792
화성 가시리마을,경기 화성시,경기도 화성시 남양읍 남양서로348번길 9,37.2407545,126.8035293
화성 공룡알 화석지,경기 화성시,경기도 화성시 송산면 공룡로 659,37.2519565,126.7390636
화성 국화리어촌체험마을,경기 화성시,경기도 화성시 우정읍 국화길 8,37.0608142,126.5589752
화성 궁평리마을,경기 화성시,경기도 화성시 서신면 궁평항로 1069-11,37.1164064,126.6832305
화성 당성,경기 화성시,경기도 화성시 서신면 상안리,37.1825718,126.7099672
화성 백미리마을,경기 화성시,경기도 화성시 서신면 백미길 210-35,37.1433232,126.6800603
화성 베어팜,경기 화성시,경기도 화성시 정남면 정송길23번길 18,37.1635201,126.957624
화성 우리꽃식물원,경기 화성시,경기도 화성시 팔탄면 3.1만세로 777-17,37.115889,126.8832062
화성 월문온천,경기 화성시,경기도 화성시 팔탄면 버들로1597번길 5,37.1145419,126.8767303
"화성 융릉(장조,헌경왕후)과 건릉(정조,효의왕후) [유네스코 세계문화유산]",경기 화성시,경기도 화성시 효행로481번길 21,37.2079211,126.9894115
화성 은행나무마을,경기 화성시,경기도 화성시 양감면 요댕이길,37.0722301,126.9337502
화성 제부모세마을,경기 화성시,경기도 화성시 서신면 제부말길 96,37.1688757,126.6252234
화성 제암리 3·1운동 순국 유적,경기 화성시,경기도 화성시 향남읍 제암길 50,37.1260703,126.8916396
화성남양리신빈김씨묘역,경기 화성시,경기도 화성시 남양읍 남양리,37.1994932,126.8311887
화성식염온천,경기 화성시,경기도 화성시 장안면 황골길 56-1,37.0935675,126.8669219
화성어차,경기 수원시,경기도 수원시 팔달구 정조로 825,37.2817978,127.0137047
화성정용채가옥,경기 화성시,경기도 화성시 서신면 오얏리길 44-17,37.1328393,126.7008636
화성행궁,경기 수원시,경기도 수원시 팔달구 정조로 825,37.2817978,127.0137047
화수관광농원,경기 화성시,경기도 화성시 우정읍 쌍봉로 399,37.1095217,126.8016952
화야산,경기 가평군,경기 가평군 청평면 삼회리,37.6835712,127.3999991
화운사,경기 용인시,경기도 용인시 처인구 동백죽전대로 111-14,37.252441,127.1614622
화적연 (한탄강 국가지질공원),경기 포천시,경기도 포천시 관인면 사정리,38.1173533,127.2475166
화정 문화의거리,경기 고양시,경기도 고양시 덕양구 화중로104번길 13,37.637223,126.8325385
화홍문(華虹門),경기 수원시,경기도 수원시 팔달구 수원천로392번길 44-6,37.2875232,127.0181107
황새울관광농원,경기 용인시,경기도 용인시 처인구 백암면 황새울로 242,37.1123234,127.3517242
황학산수목원,경기 여주시,경기도 여주시 황학산수목원길 73,37.2784958,127.6493943
황희정승묘,경기 파주시,경기도 파주시 탄현면 정승로88번길 23-81,37.8274696,126.7512515
회룡사(경기),경기 의정부시,경기도 의정부시 전좌로155번길 262,37.7199684,127.0275654
회암사(양주),경기 양주시,경기도 양주시 회암사길 281,37.8504285,127.1077637
효원공원,경기 수원시,경기도 수원시 팔달구 효원로307번길 26,37.2618899,127.0374319
효원의 종·서장대,경기 수원시,경기도 수원시 팔달구 정조로 825,37.2817978,127.0137047
효자촌 먹거리촌,경기 성남시,경기도 성남시 분당구 서현동,37.3828006,127.1353506
흥국사(고양),경기 고양시,경기도 고양시 덕양구 흥국사길 82,37.6637026,126.9397543
흥국사(남양주),경기 남양주시,경기도 남양주시 덕릉로1071번길 58,37.684732,127.0986494
흥룡사,경기 포천시,경기도 포천시 이동면 포화로 236-73,38.0713198,127.41056
흥왕사,경기 여주시,경기도 여주시 북내면 당전로 345-4,37.3477245,127.7060223
