name,region,address,lat,lon
가산산성마을,경북 칠곡군,경상북도 칠곡군 가산면 가산로 891,36.0499159,128.5975783
가산수피아,경북 칠곡군,경상북도 칠곡군 가산면 학하들안2길 105,36.0914123,128.4839274
가실성당,경북 칠곡군,경상북도 칠곡군 왜관읍 가실1길 1,35.9367221,128.4052588
가야산 야생화식물원,경북 성주군,경상북도 성주군 수륜면 가야산식물원길 49,35.8033855,128.1418016
가야산국립공원(백운동 지구),경북 성주군,경북 성주군 수륜면 백운리,35.8033111,128.1436933
가야산칠불봉 야생화마을,경북 성주군,경상북도 성주군 가천면 신계1길 4-12,35.857592,128.1017487
가오실공원,경북 예천군,경상북도 예천군 개포면 가곡리,36.6030942,128.3482582
가평리 계서당(성이성 생가),경북 봉화군,경상북도 봉화군 물야면 계서당길 24,36.949621,128.7336025
각화산,경북 봉화군,경상북도 봉화군 춘양면,36.9350874,128.9148278
갈천동초가까치구멍집,경북 영덕군,경상북도 영덕군 창수면 장육사길 363,36.59715,129.3218946
감빛고을,경북 청도군,경상북도 청도군 금천면 소천길 193,35.7235579,128.9008075
감응사(경북),경북 성주군,경상북도 성주군 월항면 대산리,35.9329117,128.3259489
감포항,경북 경주시,경북 경주시 감포읍 감포로,35.8100649,129.504767
갑장사(상주),경북 상주시,경상북도 상주시 지천동,36.3560019,128.1667652
갑장산,경북 상주시,경상북도 상주시 지천1길 215-187,36.3478869,128.1858548
강구항,경북 영덕군,경북 영덕군 강구면 강구리,36.3653362,129.3858977
개경포공원,경북 고령군,경상북도 고령군 개진면 개경포로 681,35.7144493,128.3724587
개령향교,경북 김천시,경상북도 김천시 개령면 동부1길 78-37,36.1715193,128.1873216
개목사(안동),경북 안동시,경상북도 안동시 서후면 개목사길 362,36.6579218,128.6681787
개실마을,경북 고령군,경상북도 고령군 쌍림면 개실1길 29,35.6674751,128.2310168
개천지 / 조성지,경북 의성군,경상북도 의성군 안계면 개천지길,36.3863388,128.463957
거동사,경북 영천시,경상북도 영천시 자양면 사곡길 77-81,36.150194,129.026649
"거북바위 및 향나무 자생지 (울릉도, 독도 국가지질공원)",경북 울릉도,경상북도 울릉군 서면 태하리,37.5081798,130.8217127
거일1리어촌체험마을,경북 울진군,경상북도 울진군 평해읍 울진대게로 671,36.7109559,129.4749473
거조암,경북 영천시,경상북도 영천시 청통면 거조길 400-67,36.0200883,128.7645878
검무산,경북 안동시,경상북도 안동시 풍천면 갈전리,36.5670476,128.5044174
견훤산성,경북 상주시,경상북도 상주시 화북면 장암리,36.5729575,127.8958347
경광서원,경북 안동시,경상북도 안동시 서후면 금계3길 131-24,36.6005092,128.6824783
경북 상주,경북 상주시,"경상북도 상주시 함창읍, 공검면, 이안면",36.5121643,128.1586532
경북 상주 함창·이안·공검 [슬로시티],경북 상주시,경상북도 상주시 함창읍 함창중앙로 135,36.5699899,128.1792092
경북 청송,경북 청송군,경상북도 청송군 전역,36.4359045,129.0571077
경북 청송 부동·파천 [슬로시티],경북 청송군,경상북도 청송군 부동면,36.3568762,129.1593733
경북전통음식체험관 모심정,경북 문경시,경상북도 문경시 마성면 봉생1길 13,36.661247,128.1188599
경산 임당동과 조영동 고분군,경북 경산시,경상북도 경산시 청운2로9길,35.842763,128.7543767
경산서원,경북 경주시,경상북도 경주시 강동면 양동마을안길 55,36.0031944,129.2520227
경산포교당(보문사),경북 경산시,경상북도 경산시 장산로26길 20,35.8168181,128.7394053
경산향교,경북 경산시,경상북도 경산시 향교길 14-19,35.8216268,128.7414297
경상북도 산림환경연구원,경북 경주시,경상북도 경주시 통일로 367,35.8120968,129.2389046
경상북도수목원,경북 포항시,경상북도 포항시 북구 죽장면 수목원로 647,36.2185892,129.2568231
경양서원,경북 김천시,경상북도 김천시 구성면 광명3길 105,36.0377408,128.0729142
경정해수욕장,경북 영덕군,경상북도 영덕군 축산면 영덕대게로 1726,36.4820924,129.4329193
경주 감은사지,경북 경주시,경상북도 경주시 양북면 용당리,35.7615189,129.4546057
경주 경덕왕릉,경북 경주시,경상북도 경주시 내남면 부지리 8,35.7627564,129.1878944
경주 경애왕릉,경북 경주시,경상북도 경주시 포석로 602-1,35.7951766,129.2062551
경주 계림,경북 경주시,경상북도 경주시 교동 1,35.8326187,129.2189939
경주 골굴암 마애여래좌상,경북 경주시,경상북도 경주시 양북면 기림로 101-5,35.8034416,129.4055989
경주 교촌마을,경북 경주시,경상북도 경주시 교촌길 39-2,35.8295398,129.2148298
경주 구정동 방형분,경북 경주시,경상북도 경주시 불국로 15-5,35.7784449,129.2972855
경주 국립공원,경북 경주시,경상북도 경주시 천북남로 12,35.8437986,129.289576
경주 굴불사지 석조사면불상,경북 경주시,경상북도 경주시 산업로 4214-76,35.8563939,129.2291359
경주 금척리 고분군,경북 경주시,경상북도 경주시 건천읍 금척상리길 74-9,35.8318753,129.1132768
경주 김유신묘,경북 경주시,경상북도 경주시 충효2길 44-7,35.8433122,129.1914212
경주 나정,경북 경주시,경상북도 경주시 탑동 700-1,35.8159484,129.2126984
경주 남산,경북 경주시,경상북도 경주시 남산동,35.7916954,129.2400194
경주 남산 미륵곡 석조여래좌상,경북 경주시,경상북도 경주시 갯마을길 41-30,35.8119974,129.235692
경주 남산 불곡 마애여래좌상,경북 경주시,경상북도 경주시 문천길,35.8250412,129.2278317
경주 남산 신선암 마애보살반가상,경북 경주시,경상북도 경주시 남산동 산36-4,35.7839103,129.2347019
경주 남산 용장사곡 삼층석탑,경북 경주시,경상북도 경주시 내남면 용장리,35.7739297,129.2103166
경주 남산 용장사지 마애여래좌상,경북 경주시,경상북도 경주시 내남면 용장리,35.7739297,129.2103166
경주 남산 칠불암 마애불상군,경북 경주시,경상북도 경주시 칠불암길 201,35.7918952,129.2441068
경주 남산 탑곡 마애불상군,경북 경주시,경상북도 경주시 탑골길 36,35.8153691,129.233321
경주 남산동 동ㆍ서 삼층석탑,경북 경주시,경상북도 경주시 남산동,35.7916954,129.2400194
경주 낭산 일원,경북 경주시,경상북도 경주시 보문마을길,35.8329462,129.2543711
경주 내물왕릉,경북 경주시,경상북도 경주시 교동,35.8285793,129.2173637
경주 대릉원 일원,경북 경주시,경상북도 경주시 계림로 9,35.8373569,129.2130064
경주 독락당,경북 경주시,경상북도 경주시 안강읍 옥산서원길 300-3,36.0166434,129.160012
경주 동궁과 월지,경북 경주시,경상북도 경주시 원화로 102,35.8341593,129.2265835
경주 동궁원,경북 경주시,경상북도 경주시 보문로 74-14,35.8498964,129.2627772
경주 동방동 와요지,경북 경주시,경상북도 경주시 동방북1길 14,35.8095506,129.2585267
경주 동부 사적지대,경북 경주시,경상북도 경주시 첨성로 157,35.8357667,129.2180304
경주 마우나오션 관광단지,경북 경주시,경상북도 경주시 양남면 동남로 982,35.6902046,129.3740995
경주 망덕사지,경북 경주시,경상북도 경주시 배반동,35.8202873,129.2553845
"경주 무열왕릉, 태종무열왕릉비",경북 경주시,경상북도 경주시 능남길 10-4,35.8238957,129.1861621
경주 문무대왕릉,경북 경주시,경상북도 경주시 양북면 동해안로 1366-9,35.7331006,129.4783161
경주 배동 삼릉,경북 경주시,경상북도 경주시 배동,35.7995964,129.2142173
경주 배동 석조여래삼존입상,경북 경주시,경상북도 경주시 포석로 682-27,35.8003694,129.2101504
경주 버드파크,경북 경주시,경상북도 경주시 보문로 74-14,35.8498964,129.2627772
경주 법흥왕릉,경북 경주시,경상북도 경주시 효현동 63,35.842756,129.1922509
경주 보문관광단지,경북 경주시,경상북도 경주시 신평동,35.8411954,129.2924371
경주 불국사 [유네스코 세계문화유산],경북 경주시,경상북도 경주시 불국로 385,35.7896342,129.3313315
경주 산에들레마을,경북 경주시,경상북도 경주시 양남면 산에들레안길,35.6780335,129.3927637
경주 서악동 고분군,경북 경주시,경상북도 경주시 능남길 28,35.8243853,129.1851346
경주 서출지,경북 경주시,경상북도 경주시 남산1길 17,35.7964552,129.241965
경주 석굴암 [유네스코 세계문화유산],경북 경주시,경상북도 경주시 불국로 873-243,35.7940266,129.3502781
경주 석빙고,경북 경주시,경상북도 경주시 월성동 문천길 5,35.8300276,129.223597
경주 선덕여왕릉,경북 경주시,경상북도 경주시 배반동,35.8202873,129.2553845
경주 성덕왕릉,경북 경주시,경상북도 경주시 조양동 산8,35.7878431,129.2818515
경주 신무왕릉,경북 경주시,경상북도 경주시 후곡안길 13,35.8119616,129.2597221
경주 신문왕릉,경북 경주시,경상북도 경주시 배반동 453-1,35.817926,129.246169
경주 쌈밥거리,경북 경주시,경상북도 경주시 계림로 9,35.8373569,129.2130064
경주 양남 주상절리 전망대,경북 경주시,경상북도 경주시 양남면 읍천리,35.6920026,129.4658577
경주 양동 무첨당,경북 경주시,경상북도 경주시 강동면 양동마을안길 32-19,36.0019631,129.2527375
경주 양동마을 [유네스코 세계문화유산],경북 경주시,경상북도 경주시 강동면 양동마을길 93,36.0015163,129.2526349
경주 오릉,경북 경주시,경상북도 경주시 금성로 38-9,35.8220005,129.209392
경주 원성왕릉,경북 경주시,경상북도 경주시 외동읍 신계입실길 139,35.7598462,129.3212979
경주 월성(반월성),경북 경주시,경상북도 경주시 인왕동,35.8365351,129.2196097
경주 유연정,경북 경주시,경상북도 경주시 강동면 사라길 79-19,35.9405201,129.3020538
경주 율동 마애여래삼존입상,경북 경주시,경상북도 경주시 두대안길 69,35.8044387,129.1724965
경주 이견대,경북 경주시,경상북도 경주시 감포읍 대밑길 12-14,35.7457175,129.4858537
경주 일성왕릉,경북 경주시,경상북도 경주시 탑동,35.8207526,129.206649
경주 장항리 서 오층석탑,경북 경주시,경상북도 경주시 양북면 장향리,35.8046193,129.3867599
경주 재매정,경북 경주시,경상북도 경주시 재매정길 47,35.8293672,129.2141553
경주 정강왕릉,경북 경주시,경상북도 경주시 남산동 산53,35.7995372,129.2407717
경주 정혜사지 십삼층석탑,경북 경주시,경상북도 경주시 안강읍 옥산서원길 327-4,36.0184074,129.1583095
경주 지마왕릉,경북 경주시,경상북도 경주시 배동 30,35.8104898,129.2143514
경주 진덕여왕릉,경북 경주시,경상북도 경주시 현곡면 오류리,35.881172,129.2006142
경주 첨성대,경북 경주시,경상북도 경주시 첨성로 140-25,35.8345132,129.2183721
경주 최준선생 생가 (경주최부자댁),경북 경주시,경상북도 경주시 교촌안길 27-40,35.8308163,129.2162249
경주 탈해왕릉,경북 경주시,경상북도 경주시 산업로 4152-10,35.8331934,129.2505398
경주 포석정지,경북 경주시,경상북도 경주시 남산순환로 816,35.8070658,129.2121241
경주 헌강왕릉,경북 경주시,경상북도 경주시 새남산길 62,35.805265,129.2407546
경주 헌덕왕릉,경북 경주시,경상북도 경주시 알천북로 473-17,35.8439239,129.2462679
경주 황룡사지,경북 경주시,경상북도 경주시 임해로 64-19,35.841859,129.2291657
경주 황리단길,경북 경주시,경상북도 경주시 포석로 1080,35.8373924,129.2100251
경주 효공왕릉,경북 경주시,경상북도 경주시 배반동,35.8202873,129.2553845
경주 효소왕릉,경북 경주시,경상북도 경주시 조양동,35.7828716,129.282144
경주 흥덕왕릉,경북 경주시,경상북도 경주시 안강읍 육통길 190-30,36.0176438,129.2070404
경주국립공원,경북 경주시,경상북도 경주시 천북남로 12,35.8437986,129.289576
경주능지탑지,경북 경주시,경상북도 경주시 능말길 38-6,35.8173407,129.248632
경주민속공예촌,경북 경주시,경상북도 경주시 보불로 230,35.8044209,129.311283
경주배리석불입상,경북 경주시,경상북도 경주시 포석로 682-27,35.8003694,129.2101504
경주석장동암각화,경북 경주시,경상북도 경주시 석장동,35.8507832,129.2073605
경주세계문화엑스포공원,경북 경주시,경상북도 경주시 경감로 614,35.8319963,129.2895981
경주시 관광특구,경북 경주시,경상북도 경주시 경감로 614,35.8319963,129.2895981
경주역사유적지구[유네스코 세계문화유산],경북 경주시,경상북도 경주시 태종로 757,35.8400729,129.2109912
경주월드 어뮤즈먼트,경북 경주시,경상북도 경주시 보문로 544,35.8371154,129.2822785
경주월드 캘리포니아비치,경북 경주시,경상북도 경주시 보문로 544,35.8371154,129.2822785
경주향교,경북 경주시,경상북도 경주시 교촌안길 27-8,35.8302734,129.217682
경천대랜드,경북 상주시,경상북도 상주시 사벌면 경천로 644,36.4546818,128.2419865
경흥사(경산),경북 경산시,경상북도 경산시 남천면 모골길 196-55,35.7722452,128.7056501
계림사(김천),경북 김천시,경상북도 김천시 개령면 동부1길 212,36.1726781,128.1816518
고래불 해안 (경북 동해안 국가지질공원),경북 영덕군,경상북도 영덕군 병곡면 병곡리,36.6019451,129.40943
고래불해수욕장,경북 영덕군,경상북도 영덕군 병곡면 고래불로 394,36.5986381,129.4103058
고령 고아리 벽화 고분,경북 고령군,경상북도 고령군 대가야읍 고아리,35.7167269,128.2697472
고령 대가야유적지,경북 고령군,경상북도 고령군 대가야읍 대가야로 1203,35.7226482,128.2571258
고령 신촌숲,경북 고령군,경상북도 고령군 쌍림면 신촌길 39-5,35.6741455,128.1854565
고령 장기리 암각화,경북 고령군,경상북도 고령군 대가야읍 아래알터길 15-5,35.7128038,128.2921962
고령 주산성,경북 고령군,경상북도 고령군 고령읍 중화리,35.7420866,128.2420433
고령 지산동 고분군,경북 고령군,경상북도 고령군 고령읍 지산리,35.7239256,128.2465384
고령 지산리 당간지주,경북 고령군,경상북도 고령군 대가야읍 지산리,35.7239256,128.2465384
고령안화리암각화,경북 고령군,경상북도 고령군 쌍림면 안화리 산1,35.7018017,128.2613397
고령예마을,경북 고령군,경상북도 고령군 덕곡면 덕운로 816,35.7807996,128.222988
고령향교,경북 고령군,경상북도 고령군 대가야읍 향교길 29-18,35.7290811,128.2650336
고모산성,경북 문경시,경상북도 문경시 마성면 신현리,36.6640577,128.1222816
고산서원,경북 안동시,경상북도 안동시 남후면 암산1길 53-1,36.5052737,128.6773034
고산서원,경북 울진군,경상북도 울진군 근남면 주천대길 27-6,36.9689222,129.3749936
고산정,경북 안동시,경상북도 안동시 도산면 가송길 177-42,36.7676524,128.8921402
고석사(포항),경북 포항시,경상북도 포항시 남구 장기면 방산로 526,35.9151505,129.4638083
고운사(의성),경북 의성군,경상북도 의성군 단촌면 고운사길 415,36.4584441,128.7501556
고천서원,경북 영천시,경상북도 영천시 임고면 고천길 64-4,36.017124,128.9906106
곤산서원,경북 칠곡군,경상북도 칠곡군 약목면 신유로 60,36.0300774,128.360479
골굴사(경주),경북 경주시,경상북도 경주시 양북면 기림로 101-5,35.8034416,129.4055989
골굴암 타포니 (경북 동해안 국가지질공원),경북 경주시,경상북도 경주시 양북면 기림로 101-5,35.8034416,129.4055989
관란서원,경북 경산시,경상북도 경산시 용성면 서원천로 268-21,35.7926463,128.8571526
관문산,경북 경주시,경북 경주시 외동읍 모화리,35.6890017,129.3467391
관성솔밭해변,경북 경주시,경상북도 경주시 양남면 양남로 68-24,35.6615935,129.4522058
"관음도 (울릉도, 독도 국가지질공원)",경북 울릉도,경상북도 울릉군 북면 천부리,37.5362739,130.8881547
관음사(고령),경북 고령군,경상북도 고령군 대가야읍 주산순환길 147,35.7330546,128.2661168
광남서원,경북 포항시,경상북도 포항시 남구 구룡포읍 정동길77번길 11-2,35.9425123,129.5193217
광덕사(상주),경북 상주시,경상북도 상주시 외남면 구서2길 114,36.3351929,128.0952616
광산김씨 유일재고택,경북 안동시,경상북도 안동시 와룡면 선돌길 113-16,36.6165316,128.7740695
광풍정,경북 안동시,경상북도 안동시 서후면 풍산태사로 2885-23,36.6127888,128.6641616
광흥사(안동),경북 안동시,경상북도 안동시 서후면 광흥사길 105,36.6453604,128.6141891
괴시리 전통마을,경북 영덕군,경상북도 영덕군 영해면 호지마을1길 16-1,36.5431773,129.4165245
교촌농촌체험마을,경북 의성군,경상북도 의성군 안계면 교화길 59,36.3694431,128.4706221
구강서원,경북 경주시,경상북도 경주시 안강읍 구강길 68-6,36.0103838,129.2082442
구고서원,경북 영주시,경상북도 영주시 단산면 단산로121번길 23,36.891981,128.5956164
구룡포 말목장성탐방로,경북 포항시,경상북도 포항시 남구 구룡포읍 구룡포리,35.9961243,129.5554949
구룡포 일본인 가옥거리,경북 포항시,경상북도 포항시 남구 구룡포읍 구룡포길 153-1,35.9905342,129.5615954
구룡포항,경북 포항시,경상북도 포항시 남구 구룡포읍 호미로 222-1,35.9894022,129.5557723
구룡포해수욕장,경북 포항시,경상북도 포항시 남구 구룡포읍 호미로426번길 6,35.9968308,129.5660314
구마계곡(고선계곡),경북 봉화군,경상북도 봉화군 소천면 고선리,36.9996379,128.9647656
구만서원,경북 봉화군,경상북도 봉화군 봉화읍 구만서원길 5,36.9032781,128.6679645
구미 금산리 떡버들,경북 구미시,경북 구미시 장천면 금산리 626,36.1599542,128.5174395
구미 낙성리 느티나무,경북 구미시,경북 구미시 해평면 낙성리 230-1,36.1980203,128.3841816
구미 동부리 회화나무,경북 구미시,경상북도 구미시 선산읍 선산중앙로15길 6-1,36.2435101,128.2997108
구미 채미정,경북 구미시,경상북도 구미시 남통동,36.1077213,128.3076614
구미에코랜드,경북 구미시,경상북도 구미시 산동면 인덕1길 195,36.167533,128.4645034
구산해수욕장,경북 울진군,경상북도 울진군 기성면 기성로 108,36.7515686,129.4674905
구성공원,경북 영주시,경상북도 영주시 구성로373번길 1-5,36.8235934,128.6206065
구수곡자연휴양림,경북 울진군,경상북도 울진군 북면 십이령로 2721,37.0630924,129.2905992
구양서원,경북 봉화군,경상북도 봉화군 봉화읍 산정길 202-17,36.8822327,128.7713484
국립 검마산자연휴양림,경북 영양군,경상북도 영양군 수비면 검마산길 191,36.7481267,129.2372098
국립 대야산자연휴양림,경북 문경시,경상북도 문경시 가은읍 용추길 31-35,36.6708828,127.9619751
국립 운문산자연휴양림,경북 청도군,경상북도 청도군 운문면 운문로 763,35.6940747,128.961002
국립 청옥산자연휴양림,경북 봉화군,경상북도 봉화군 석포면 청옥로 1552-163,37.0386921,128.997151
국립 칠보산자연휴양림,경북 영덕군,경상북도 영덕군 병곡면 칠보산길 587,36.6244357,129.3678969
국립 통고산자연휴양림,경북 울진군,경상북도 울진군 금강송면 불영계곡로 880,36.9244422,129.193311
국립김천치유의숲,경북 김천시,경상북도 김천시 증산면 수도길 1237-89,35.8518512,128.0024446
국립대야산자연휴양림,경북 문경시,경상북도 문경시 가은읍 용추길 31-35,36.6708828,127.9619751
국립백두대간수목원,경북 봉화군,경상북도 봉화군 춘양면 춘양로 1501,37.006419,128.833624
국립산림치유원,경북 영주시,경상북도 영주시 봉현면 테라피로 209,36.866437,128.4940259
국립영천호국원,경북 영천시,경상북도 영천시 고경면 호국로 1720,35.9809219,129.1101216
국립칠곡숲체원,경북 칠곡군,경상북도 칠곡군 석적읍 유학로 532,36.0723711,128.4392825
군위 대율리 석조여래입상,경북 군위군,경상북도 군위군 부계면 한밤8길 21-1,36.0609891,128.6540568
군위 부계 한밤마을 돌담길,경북 군위군,경상북도 군위군 부계면 한밤5길,36.0589722,128.6535153
군위 불로리 마애보살입상,경북 군위군,경상북도 군위군 효령면 불로리,36.1707771,128.5635031
군위 상매댁,경북 군위군,경상북도 군위군 부계면 한밤5길 19,36.0586736,128.6538923
군위 아미타여래삼존 석굴,경북 군위군,경상북도 군위군 부계면 남산4길 24,36.0482999,128.6405183
군위 인각사지,경북 군위군,경상북도 군위군 고로면 삼국유사로 250,36.1457402,128.8071767
군위 장곡자연휴양림,경북 군위군,경상북도 군위군 고로면 장곡휴양림길 195,36.131848,128.8402546
군위 팔공산능금마을,경북 군위군,경상북도 군위군 부계면 동산2길 37,36.0468815,128.653504
군위 화산산성 전망대,경북 군위군,경상북도 군위군 고로면 장곡휴양림길 195,36.131848,128.8402546
군위대율리대청,경북 군위군,경상북도 군위군 부계면 한밤5길 23-3,36.0586941,128.6536138
군위향교,경북 군위군,경상북도 군위군 군위읍 동서2길 17-28,36.2342456,128.5685773
궁터산촌생태체험마을,경북 문경시,경상북도 문경시 농암면 궁터길 181,36.6136028,127.962882
궁터산촌생태체험마을,경북 문경시,경상북도 문경시 농암면 궁터길 181,36.6136028,127.962882
권정생동화나라,경북 안동시,경상북도 안동시 일직면 성남길 119,36.4613068,128.664946
귀산서원,경북 경주시,경상북도 경주시 현곡면 구산서원길 71-12,35.890106,129.1610631
근성서원,경북 안동시,경상북도 안동시 일직면 긴대골길 10,36.4831664,128.6315183
근암서원,경북 문경시,경상북도 문경시 산북면 금천로 351-5,36.6373186,128.2483132
금강소나무생태경영림,경북 영양군,경상북도 영양군 수비면 신원리,36.7582956,129.2359907
금강송 에코리움,경북 울진군,경상북도 울진군 금강송면 십이령로 552,36.9665074,129.2129322
금곡사(칠곡),경북 칠곡군,경상북도 칠곡군 가산면 금화길 107,36.066166,128.5579629
금곡서원,경북 예천군,경상북도 예천군 용문면 금당실길 174,36.6943588,128.4068525
금관총,경북 경주시,경상북도 경주시 노서동,35.8405222,129.2054894
금봉자연휴양림,경북 의성군,경상북도 의성군 옥산면 휴양림길 114,36.3362593,128.8807695
금산서원,경북 포항시,경상북도 포항시 남구 장기면 신창길191번길 25-12,35.9006925,129.5132018
금성산,경북 의성군,경상북도 의성군 금성면,36.261378,128.6810348
금오랜드 놀이동산,경북 구미시,경상북도 구미시 금오산로 339,36.1130721,128.3162081
금오산도립공원,경북 구미시,경상북도 구미시 남통동,36.1077213,128.3076614
금오산성,경북 구미시,경상북도 구미시 남통동,36.1077213,128.3076614
금오서원,경북 구미시,경상북도 구미시 선산읍 유학길 593-31,36.2276954,128.3389078
금호서원,경북 경산시,경상북도 경산시 하양읍 가마실길2길 32-1,35.9038263,128.8032174
금호서원,경북 청도군,경상북도 청도군 이서면 삼성산길 106-58,35.680023,128.6697691
기림사,경북 경주시,경상북도 경주시 양북면 기림로 437-17,35.837731,129.402944
기양서당,경북 안동시,경상북도 안동시 임동면 수곡용계로 1698,36.5514314,128.9236171
기천서원,경북 예천군,경상북도 예천군 용궁면 나산길 35-9,36.6316969,128.3183799
기청산식물원,경북 포항시,경상북도 포항시 북구 청하면 청하로175번길 50,36.1955512,129.3308724
김룡사(문경),경북 문경시,경상북도 문경시 산북면 김용길 372,36.7397154,128.2237508
김면장군유적,경북 고령군,경상북도 고령군 쌍림면 칠등길 138,35.7162052,128.2464229
김산향교,경북 김천시,경상북도 김천시 김산향교1길 2-19,36.1394501,128.096985
김천 녹색미래과학관,경북 김천시,경상북도 김천시 혁신6로 31,36.1398393,128.1135947
김천 이화만리 마을,경북 김천시,경상북도 김천시 농소면 벽봉로 1651,36.071509,128.1773789
김천부항댐 물 문화관,경북 김천시,경상북도 김천시 지례면 부항로 195,35.9787411,128.0174221
꽃마을 경주한방병원,경북 경주시,경상북도 경주시 포석로 924,35.8235025,129.2109508
꿀벌나라테마공원,경북 칠곡군,경상북도 칠곡군 석적읍 강변대로 1580-1,36.0186984,128.4033421
나곡해수욕장,경북 울진군,경상북도 울진군 북면 나실길 31,37.1270129,129.3706679
나라골보리말체험학교,경북 영덕군,경상북도 영덕군 창수면 인량길 178,36.5523238,129.3710579
나리분지,경북 울릉도,경상북도 울릉군 북면 나리길,37.5272758,130.8702368
나산서원,경북 경주시,경상북도 경주시 양남면 나산1길 27,35.7103748,129.4578464
나정고운모래해변,경북 경주시,경상북도 경주시 감포읍 동해안로 1915,35.7789336,129.4927271
낙강물길공원,경북 안동시,경상북도 안동시 상아동,36.5782802,128.7509122
낙동 승곡마을(농촌체험마을),경북 상주시,경상북도 상주시 낙동면 승곡1길 34,36.3658664,128.2101058
낙동강,경북 구미시,경상북도 구미시 남구미로,36.0839134,128.3801488
낙동강 경천대(경천대 전망대),경북 상주시,경상북도 상주시 사벌면 삼덕리,36.4505617,128.2381462
낙동강생태문화탐방로 경천대권,경북 상주시,경상북도 상주시 도남2길 137,36.4412976,128.2524448
낙동강생태문화탐방로 나각산권,경북 상주시,경상북도 상주시 도남2길 137,36.4412976,128.2524448
낙동강생태문화탐방로 청룡사권,경북 상주시,경상북도 상주시 도남2길 137,36.4412976,128.2524448
낙봉서원,경북 구미시,경상북도 구미시 해평면 낙성1길 84-7,36.2011477,128.3847518
낙암서원,경북 상주시,경상북도 상주시 중동면 대바위길 183-13,36.4104072,128.2705713
낙암정,경북 안동시,경상북도 안동시 남후면 풍산단호로 895,36.5473558,128.6325126
남강서원(청도),경북 청도군,경상북도 청도군 각북면 남산1길 62,35.6958577,128.5811304
남계서원,경북 군위군,경상북도 군위군 군위읍 대북길 9,36.2537984,128.5576782
남곡서원,경북 군위군,경상북도 군위군 우보면 미성3길 66-7,36.1698801,128.6668563
남미질부성,경북 포항시,경상북도 포항시 북구 흥해읍 망천리,36.1125114,129.3620327
남서일몰전망대,경북 울릉도,경상북도 울릉군 서면 남서리,37.4866423,130.8235571
남성재,경북 포항시,경상북도 포항시 남구 대송면 남성안길 18-16,35.9729252,129.3533706
남양마을,경북 울릉도,경북 울릉군 서면,37.4730331,130.8199467
남장사,경북 상주시,경상북도 상주시 남장1길 259-22,36.4309385,128.1058722
남호서원,경북 경산시,경상북도 경산시 하양읍 남하새마을길5길 59-13,35.8878189,128.7685543
남호해수욕장,경북 영덕군,경상북도 영덕군 남정면 동해대로 4142,36.3288889,129.3794444
내성유곡권충재관계유적,경북 봉화군,경상북도 봉화군 봉화읍 충재길 53-26,36.9059567,128.7418741
내수전몽돌해변,경북 울릉도,경상북도 울릉군 울릉읍 저동리,37.512484,130.8993611
내수전일출전망대,경북 울릉도,경상북도 울릉군 울릉읍 저동4길 476,37.5165492,130.9069826
내연산 군립공원,경북 포항시,경상북도 포항시 북구 송라면 보경로 523,36.2529971,129.3191183
노강서원(고령),경북 고령군,경상북도 고령군 다산면 다산로 92,35.7924369,128.4034297
노계서원,경북 영주시,경상북도 영주시 봉현면 노좌로 28,36.7953928,128.5016258
노봉서원,경북 예천군,경상북도 예천군 호명면 내신2길 301,36.6224178,128.441416
노음산,경북 상주시,경상북도 상주시 내서면 북장리,36.4333804,128.0764273
농암종택,경북 안동시,경상북도 안동시 도산면 가송길 162-133,36.7639225,128.8850127
다덕약수탕,경북 봉화군,경상북도 봉화군 봉성면 진의실길 6,36.9125925,128.8251294
단구서원,경북 경주시,경상북도 경주시 강동면 단구서원길 8-1,36.0519835,129.2460205
단석산,경북 경주시,경상북도 경주시 건천읍,35.8500143,129.1024209
달기약수탕 (청송 국가지질공원),경북 청송군,경상북도 청송군 청송읍 약수길 16,36.4383239,129.0835928
달기폭포,경북 청송군,경상북도 청송군 청송읍 달기폭포길,36.4392608,129.1331871
달전리 주상절리 (경북 동해안 국가지질공원),경북 포항시,경상북도 포항시 남구 연일읍 달전리,36.0338732,129.2887151
대가야 역사테마관광지,경북 고령군,경상북도 고령군 대가야읍 대가야로 1216,35.719284,128.2606342
대가천계곡(무흘구곡),경북 성주군,경상북도 성주군 수륜면,35.8329158,128.1923774
대게원조 차유어촌체험마을,경북 영덕군,경상북도 영덕군 축산면 차유길,36.4918249,129.4437149
대곡사(의성),경북 의성군,경상북도 의성군 다인면 대곡사길 80,36.4900195,128.3773659
대둔사(구미),경북 구미시,경상북도 구미시 옥성면 산촌옥관로 691-78,36.3357627,128.242027
대둔사(칠곡),경북 칠곡군,경상북도 칠곡군 가산면 가산로1길 272-59,36.0586291,128.5791405
대비사(청도),경북 청도군,경상북도 청도군 금천면 박곡길 590,35.6565892,128.9358411
대산사(청도),경북 청도군,경상북도 청도군 각남면 옥산길 248-170,35.5994884,128.610064
대승사(문경),경북 문경시,경상북도 문경시 산북면 대승사길 283,36.7495389,128.2719655
대야산,경북 문경시,경상북도 문경시 가은읍 용추길 31-35,36.6708828,127.9619751
대야산 용추계곡,경북 문경시,경상북도 문경시 가은읍 완장리 430-1,36.6693841,127.9732042
대운암(청도),경북 청도군,경상북도 청도군 청도읍 청매로 117-320,35.5908794,128.7824911
대율리 송림,경북 군위군,경상북도 군위군 부계면 대율리,36.0577119,128.6534312
대적사(청도),경북 청도군,경상북도 청도군 화양읍 송금길 113,35.71621,128.7195767
대전사,경북 청송군,경상북도 청송군 주왕산면 공원길 226,36.3968697,129.1456687
대진1리 어촌체험마을,경북 영덕군,경상북도 영덕군 영해면 공수진길 73-1,36.5374936,129.4071538
대진해수욕장,경북 영덕군,경상북도 영덕군 영해면 영덕대게로 2840,36.564414,129.4267036
더케이경주호텔 스파온천,경북 경주시,경상북도 경주시 엑스포로 45,35.8380032,129.291608
덕강서원,경북 영천시,경상북도 영천시 화산면 화촌길 2-37,36.0549804,128.8612412
덕구계곡 (경북 동해안 국가지질공원),경북 울진군,경상북도 울진군 북면 덕구리,37.0843022,129.2754962
덕구온천스파월드,경북 울진군,경상북도 울진군 북면 덕구온천로 924,37.0787343,129.2842909
덕림서원,경북 포항시,경상북도 포항시 남구 장기면 읍내길13번길 47,35.8869052,129.4930666
덕사(청도),경북 청도군,경상북도 청도군 화양읍 소라길 16-107,35.6541662,128.7429314
덕산서원(영주),경북 영주시,경상북도 영주시 부석면 감산길46번길 13-5,36.9398173,128.6546757
덕수공원,경북 포항시,경상북도 포항시 북구 덕수동,36.0448817,129.3645708
덕암서원(성주),경북 성주군,경상북도 성주군 월항면 유월3길 29-72,35.9585134,128.322216
덕양서원(의성),경북 의성군,경상북도 의성군 춘산면 옥매길 101,36.2470264,128.8218412
덕천서원,경북 성주군,경상북도 성주군 수륜면 수륜리,35.831476,128.2166963
덕천해수욕장,경북 영덕군,경상북도 영덕군 병곡면 고래불로,36.5852824,129.4132901
도계서원,경북 봉화군,경상북도 봉화군 봉화읍 사제길 12,36.8894734,128.6738374
도계서원,경북 영천시,경상북도 영천시 북안면 신평탑골길 93-57,35.8888878,129.0227401
도구해수욕장,경북 포항시,경상북도 포항시 남구 동해면 일월로81번길,35.9900473,129.4423456
도남서원,경북 상주시,경상북도 상주시 도남2길 91,36.4396048,128.254188
도덕암(경주),경북 경주시,경상북도 경주시 안강읍 옥산서원길 403-177,36.0265487,129.1458015
도덕암(칠곡),경북 칠곡군,경상북도 칠곡군 동명면 한티로 260,35.9897046,128.5936715
도동등대(행남등대),경북 울릉도,경상북도 울릉군 울릉읍 행남길 291-71,37.490839,130.9175374
도동서원(김천),경북 김천시,경상북도 김천시 구성면 상좌원3길,36.0432973,128.0318259
도동약수공원,경북 울릉도,경상북도 울릉군 울릉읍 약수터길 76,37.4861054,130.8991107
도동항,경북 울릉도,경상북도 울릉군 울릉읍 도동1길,37.4868204,130.9054501
도리사(구미),경북 구미시,경상북도 구미시 해평면 도리사로 526,36.255579,128.398817
도산서원 [유네스코 세계문화유산],경북 안동시,경상북도 안동시 도산면 도산서원길 154,36.7271034,128.8431979
도산온천,경북 안동시,경상북도 안동시 도산면 온천로 570,36.7506435,128.8201656
도안서원,경북 상주시,경상북도 상주시 화동면 판곡1길 37,36.4153293,127.9811945
도암서원,경북 고령군,경상북도 고령군 쌍림면 칠등길 138,35.7162052,128.2464229
도잠서원,경북 영천시,경상북도 영천시 대창면 영지길 399,35.8482316,128.9450308
도정서원,경북 예천군,경상북도 예천군 호명면 강변로 417,36.6513809,128.5049381
도천서원,경북 경산시,경상북도 경산시 진량읍 진성로 79,35.852074,128.8118519
독도,경북 울릉도,경상북도 울릉군 울릉읍 독도이사부길 55,37.2429362,131.8668421
독도 등대,경북 울릉도,경상북도 울릉군 울릉읍 독도이사부길 63,37.2429362,131.8668421
독도전망대 케이블카,경북 울릉도,경상북도 울릉군 울릉읍 도동리,37.4928902,130.8985922
독용산성,경북 성주군,경북 성주군 가천면 금봉리,35.8864231,128.1236787
돌할매(영천),경북 영천시,경상북도 영천시 북안면 돌할매로 484,35.9397041,129.0460269
동강서원,경북 경주시,경상북도 경주시 강동면 유금강정길 40-25,35.9991776,129.2916281
동락공원,경북 구미시,경상북도 구미시 3공단1로 191,36.0993055,128.4017363
동락서원,경북 구미시,경상북도 구미시 수출대로 327-13,36.1112642,128.3991958
동산계곡,경북 군위군,경상북도 군위군 부계면 원효길,36.0384507,128.6718033
동산서원,경북 경산시,경상북도 경산시 남천면 남천로 780-15,35.7864254,128.7323804
동악사(예천),경북 예천군,경상북도 예천군 예천읍 충효로 448,36.6615852,128.464403
동해사(상주),경북 상주시,경상북도 상주시 서곡3길 173,36.4050772,128.1941498
등기산스카이워크,경북 울진군,경상북도 울진군 후포면,36.6784446,129.4392632
로보라이프 뮤지엄,경북 포항시,경상북도 포항시 남구 지곡로 39,36.0116357,129.3256351
마구령/고치령,경북 영주시,경상북도 영주시 단산면 영단로,36.9938064,128.6027459
마우나오션리조트 스파,경북 경주시,경상북도 경주시 양남면 동남로 982,35.6902046,129.3740995
만불사(영천),경북 영천시,경상북도 영천시 북안면 내서로 139-17,35.9081837,129.0300742
만장사(의성),경북 의성군,경상북도 의성군 비안면 모산길 109,36.3671227,128.5326047
만휴정,경북 안동시,경상북도 안동시 길안면 묵계하리길 42,36.4103752,128.9098316
망미정 우송당,경북 청송군,경상북도 청송군 청송읍 월막리,36.4348696,129.0639837
망양정,경북 울진군,경상북도 울진군 근남면 산포리,36.9541461,129.410629
망양정해수욕장,경북 울진군,경상북도 울진군 근남면 망양정로 1016,36.9674073,129.412321
망월사(경주),경북 경주시,경상북도 경주시 포석로 682-17,35.8013621,129.2103845
매림서원,경북 고령군,경상북도 고령군 쌍림면 송림2길 54-7,35.6842649,128.2242485
매학정일원,경북 구미시,경상북도 구미시 고아읍 강정4길 63-6,36.1955401,128.3624723
명봉사(예천),경북 예천군,경상북도 예천군 효자면 명봉사길 62,36.7776174,128.3761908
명인안동소주,경북 안동시,경상북도 안동시 풍산읍 산업단지6길 6,36.603923,128.5411425
명호서원,경북 안동시,경상북도 안동시 옹정골길 56,36.552739,128.7388827
명활산성,경북 경주시,경상북도 경주시 천군동,35.8346757,129.2874084
모운사(안동),경북 안동시,경상북도 안동시 남후면 모운사길 83,36.5347452,128.6507537
목계솔밭,경북 청송군,경상북도 청송군 파천면 청송로 6070,36.474667,129.029787
목은이색기념관,경북 영덕군,경상북도 영덕군 영해면 괴시리,36.5447255,129.4220612
묘각사(영천),경북 영천시,경상북도 영천시 자양면 용화길 499,36.1148178,129.0091972
무섬 외나무다리,경북 영주시,경상북도 영주시 문수면 무섬로234번길 31-12,36.7308748,128.6217841
무쇠달마을,경북 영주시,경상북도 영주시 풍기읍 죽령로1513번길 64,36.8956178,128.4645918
무안박씨무의공파종택,경북 영덕군,경상북도 영덕군 축산면 도곡길 17-4,36.5101945,129.4092018
무원서원,경북 영천시,경상북도 영천시 신녕면 치산효령로 152-26,36.050409,128.7722249
묵계서원,경북 안동시,경상북도 안동시 길안면 국만리길 72,36.4157136,128.9174259
묵계서원 및 안동김씨 묵계종택,경북 안동시,경상북도 안동시 길안면 충효로 1736-5,36.3610893,128.9175917
문경 가은오픈세트장,경북 문경시,경상북도 문경시 가은읍 왕능길 112,36.6538111,128.0618707
문경 관광특구,경북 문경시,경상북도 문경시 문경읍 새재로 932,36.756555,128.0871107
문경 구 가은역,경북 문경시,경상북도 문경시 가은읍 대야로 2441,36.6696724,127.9843699
문경 오미자체험마을,경북 문경시,경상북도 문경시 동로면 여우목로 2371-5,36.7854795,128.2754503
문경 오미자체험마을,경북 문경시,경상북도 문경시 동로면 여우목로 2371-5,36.7854795,128.2754503
문경 오미자테마공원,경북 문경시,경상북도 문경시 문경읍 새재로 715,36.756555,128.0871107
문경단산 모노레일,경북 문경시,경상북도 문경시 문경읍 고요리 산88-3,36.7370126,128.1587803
문경새재 3관문(조령관),경북 문경시,경상북도 문경시 문경읍 상초리,36.780665,128.0718936
문경새재 도립공원,경북 문경시,경상북도 문경시 문경읍 새재로 932,36.756555,128.0871107
문경새재 미로공원,경북 문경시,경상북도 문경시 문경읍 상초리 288-10,36.7593676,128.0783134
문경새재 오픈세트장,경북 문경시,경상북도 문경시 문경읍 새재로 932,36.756555,128.0871107
문경새재 자연생태공원,경북 문경시,경상북도 문경시 문경읍 새재1길 45,36.7533461,128.0764605
문경새재 자연생태공원,경북 문경시,경상북도 문경시 문경읍 새재1길 45,36.7533461,128.0764605
문경새재도립공원,경북 문경시,경상북도 문경시 문경읍 새재로 932,36.756555,128.0871107
문경에코랄라,경북 문경시,경상북도 문경시 가은읍 왕능길 114,36.6474816,128.0654016
문경오미자체험촌 (문경오미자마을),경북 문경시,경상북도 문경시 동로면 여우목로 2371-5,36.7854795,128.2754503
문경종합온천,경북 문경시,경상북도 문경시 문경읍 온천2길 24,36.7298236,128.1091932
문경한지체험장,경북 문경시,경상북도 문경시 농암면 속리길 40,36.5680557,127.9809776
문경향교,경북 문경시,경상북도 문경시 문경읍 향교길 68,36.7426182,128.1137173
문경활공랜드,경북 문경시,경상북도 문경시 문경읍 활공장길 80,36.7362395,128.1538599
문곡서원,경북 성주군,경상북도 성주군 초전면 월곡2길 13,36.0072497,128.2345419
문산서원,경북 구미시,경상북도 구미시 선산읍 유학길 334-32,36.2437343,128.3256523
문수산,경북 봉화군,경상북도 봉화군 봉성면 우곡리,36.9475382,128.8282216
문양서원,경북 군위군,경상북도 군위군 부계면 남방길 37,36.0956674,128.6763499
문익점 면작기념비,경북 의성군,경상북도 의성군 금성면 동부로 2545,36.272973,128.6775164
문장대,경북 상주시,경상북도 상주시 화북면 문장대2길 293,36.5690905,127.8805424
문화체험마당 해누리,경북 경주시,경상북도 경주시 불국신택지3길 34-1,35.785536,129.3245712
미숭산,경북 고령군,경상남도 합천군 야로면 미숭산로,35.7174598,128.182312
민물고기 생태체험관,경북 울진군,경상북도 울진군 근남면 불영계곡로 3532,36.9662317,129.3808093
박정희 대통령 생가,경북 구미시,경상북도 구미시 박정희로 107,36.0884298,128.3490302
반딧불이 천문대,경북 영양군,경상북도 영양군 수비면 반딧불이로 129,36.8305138,129.270101
반룡사(경산),경북 경산시,경상북도 경산시 용성면 용전1길 60,35.7723561,128.929342
반룡사(고령),경북 고령군,경상북도 고령군 쌍림면 반룡사길 87,35.7319459,128.2167279
반암서원,경북 고령군,경상북도 고령군 덕곡면 원앞길 7,35.7706085,128.2443687
반야계곡,경북 봉화군,경상북도 봉화군 석포면 반야길,37.0551066,129.1011415
방산서원,경북 영주시,경상북도 영주시 이산면 영봉로329번길 143-9,36.8049015,128.6838227
백곡서원,경북 경산시,경상북도 경산시 하양읍 대곡로 543-4,35.9251981,128.7621175
백두대간 숲 생태원,경북 상주시,경상북도 상주시 공성면 웅산로 705,36.2803475,128.0437722
백두대간협곡열차(V-트레인),경북 봉화군,경상북도 봉화군 소천면 분천길 49,36.9325451,129.0584081
백률사(경주),경북 경주시,경상북도 경주시 산업로 4214-110,35.8588889,129.2313889
백산서원,경북 영주시,경상북도 영주시 단산면 단산로115번길 37,36.8918471,128.5948379
백석탄 포트홀 (청송 국가지질공원),경북 청송군,경상북도 청송군 안덕면 고와리,36.3769737,128.9797377
백암산(울진),경북 울진군,경북 울진군 온정면,36.724068,129.345333
백암온천 관광특구,경북 울진군,경상북도 울진군,36.9930661,129.4004195
백운정,경북 안동시,경상북도 안동시 임하면 경동로 1850-97,36.5315794,128.8508663
백천계곡,경북 봉화군,경상북도 봉화군 석포면 백천길,37.0653696,128.9865279
버스로기획(관광두레 주민사업체),경북 안동시,경상북도 안동시 경동로 678,36.5548968,128.7551302
벌영리 메타세콰이어길,경북 영덕군,경상북도 영덕군 영해면,36.5374936,129.4071538
법광사(포항),경북 포항시,경상북도 포항시 북구 신광면 상읍길 290,36.1464484,129.2428416
법주사,경북 군위군,경상북도 군위군 소보면 달산3길 215,36.2727674,128.4385927
법흥동 고성이씨탑동파종택,경북 안동시,경상북도 안동시 임청각길 103,36.5662425,128.746434
벽도산,경북 경주시,경상북도 경주시 두대길,35.8100399,129.171687
병산서원 [유네스코 세계문화유산],경북 안동시,경상북도 안동시 풍천면 병산길 386,36.5405776,128.5527426
보경사,경북 포항시,경상북도 포항시 북구 송라면 보경로 523,36.2529971,129.3191183
보경사 12폭포 (상생폭포),경북 포항시,경상북도 포항시 북구 송라면 중산리 622,36.2481494,129.2709239
보광사(청송),경북 청송군,경상북도 청송군 청송읍 현충로 51-352,36.4175817,129.0441577
보덕암(경주),경북 경주시,경상북도 경주시 양남면 국구암길 222,35.7182615,129.4343219
보리사(경주),경북 경주시,경상북도 경주시 갯마을길 41-30,35.8119974,129.235692
보리사마애석불,경북 경주시,경상북도 경주시 갯마을길 41-30,35.8119974,129.235692
보문사(예천),경북 예천군,경상북도 예천군 보문면 보문사길 243,36.6552968,128.5597367
보문정 (경주),경북 경주시,경상북도 경주시 보문로,35.8486149,129.2773952
보문호,경북 경주시,경상북도 경주시 보문로 424-33,35.8427957,129.285767
보천사(구미),경북 구미시,경상북도 구미시 해평면 해평4길 86,36.2033285,128.3737532
보현사(청도),경북 청도군,경상북도 청도군 청도읍 앞산공원길 14,35.6409474,128.7400982
보현산 천문대,경북 영천시,경상북도 영천시 화북면 정각길 475,36.1642577,128.9765805
보현산(영천),경북 영천시,경상북도 영천시 화북면 정각리,36.1435532,128.9894622
본신계곡,경북 영양군,경상북도 영양군 수비면 본신리,36.7756229,129.2846071
봉강서원,경북 군위군,경상북도 군위군 우보면 화계봉산길 795,36.1692415,128.6410296
봉강서원,경북 상주시,경상북도 상주시 신봉1길 30,36.4020915,128.157269
봉강재,경북 포항시,경상북도 포항시 북구 기계면 기남길253번길 74,36.0777254,129.1648431
봉길대왕암해변,경북 경주시,경상북도 경주시 양북면 봉길해안길,35.739209,129.4836792
봉덕서원,경북 포항시,경상북도 포항시 남구 장기면 방산로407번길 44,35.9003146,129.4658557
"봉래폭포 (울릉도, 독도 국가지질공원)",경북 울릉도,경상북도 울릉군 울릉읍 도동리,37.4928902,130.8985922
봉림사(영천),경북 영천시,경상북도 영천시 화북면 천문로 2149-368,36.1260109,128.8978403
봉산서원(봉화),경북 봉화군,경상북도 봉화군 봉화읍 예봉로 1840,36.8710021,128.7489981
봉산서원(상주),경북 상주시,경상북도 상주시 화서면 금산1길 16,36.4235923,127.9248433
봉서사(안동),경북 안동시,경상북도 안동시 북후면 북평로 1057-114,36.7042847,128.698448
봉정사[유네스코 세계문화유산],경북 안동시,경상북도 안동시 서후면 봉정사길 222,36.6532321,128.6621857
봉평해수욕장,경북 울진군,경상북도 울진군 죽변면 울진북로 1166,37.0428636,129.4129589
봉화 금강소나무림,경북 봉화군,경상북도 봉화군 소천면 청옥로,36.9867278,128.9875415
봉화 닭실마을,경북 봉화군,경상북도 봉화군 봉화읍 충재길 44,36.9048076,128.7426125
봉화 대헌리 열목어 서식지,경북 봉화군,경상북도 봉화군 석포면 둔지1길,37.0519026,128.9938981
봉화 북지리 마애여래좌상,경북 봉화군,경상북도 봉화군 물야면 문수로 449-66,36.9848586,128.745124
봉화 산타마을,경북 봉화군,경상북도 봉화군 소천면 분천길 49,36.9325451,129.0584081
봉화 서동리 동ㆍ서 삼층석탑,경북 봉화군,경상북도 봉화군 춘양면 서원촌길 8-14,36.9479221,128.9140779
봉화 청암정,경북 봉화군,경상북도 봉화군 봉화읍 충재길 44,36.9048076,128.7426125
봉화향교,경북 봉화군,경상북도 봉화군 봉성면 향교길 11-10,36.8885382,128.8158607
봉황사(안동),경북 안동시,경상북도 안동시 임동면 봉황사길 152,36.5466859,128.9327349
부귀사(영천),경북 영천시,경상북도 영천시 신녕면 칠밭골길 446,36.0256266,128.7478853
부석사[유네스코 세계문화유산],경북 영주시,경상북도 영주시 부석면 부석사로 345,36.9979242,128.6872054
부용대,경북 안동시,경상북도 안동시 풍천면 광덕솔밭길 72,36.5445599,128.5180542
북산서원,경북 군위군,경상북도 군위군 군위읍 대북길 207-3,36.2693552,128.5657043
북장사(상주),경북 상주시,경상북도 상주시 내서면 북장1길 317,36.4378897,128.0807096
분강서원,경북 안동시,경상북도 안동시 도산면 가송길 162-168,36.7639225,128.8850127
분천역,경북 봉화군,경상북도 봉화군 소천면 분천길 49,36.9325451,129.0584081
분천역(봉화),경북 봉화군,경상북도 봉화군 소천면 분천길 49,36.9325451,129.0584081
분황사,경북 경주시,경상북도 경주시 분황로 94-11,35.8405623,129.2338514
불굴사(경산),경북 경산시,경상북도 경산시 와촌면 불굴사길 205,35.9450246,128.7792795
불영계곡 (경북 동해안 국가지질공원),경북 울진군,경상북도 울진군 울진읍 불영계곡로 2758,36.9661926,129.3204798
불영사(울진),경북 울진군,경상북도 울진군 금강송면 불영사길 48,36.9404007,129.2735033
불영사(청도),경북 청도군,경상북도 청도군 매전면 용산3길 99-8,35.6611971,128.8264136
불정자연휴양림,경북 문경시,경상북도 문경시 불정길 180,36.6212166,128.1359652
블루원 워터파크,경북 경주시,경상북도 경주시 보불로 391,35.8225557,129.2958649
비로사(영주),경북 영주시,경상북도 영주시 풍기읍 삼가로 661-29,36.9391751,128.4989214
비봉산,경북 의성군,경북 의성군 다인면 봉정리 892,36.4898567,128.3786776
비슬도예원,경북 청도군,경상북도 청도군 각북면 헐티로 787,35.686406,128.5898959
비슬리조트관광농원 군불로,경북 청도군,경상북도 청도군 각북면 낙산1길 51,35.6906574,128.5716195
비안향교,경북 의성군,경상북도 의성군 안계면 교화길 65-14,36.3702154,128.4720064
비학산,경북 포항시,경상북도 포항시 신광면 상읍리,36.1433024,129.246136
빙계계곡,경북 의성군,경상북도 의성군 춘산면,36.2375536,128.8117369
빙계서원,경북 의성군,경상북도 의성군 춘산면 빙계계곡길 80,36.2268874,128.7538948
사곡리마을,경북 예천군,경상북도 예천군 효자면 상사곡길 27,36.767071,128.4104634
사랑바위,경북 울진군,경상북도 울진군 금강송면 불영계곡로 1797,36.934208,129.246152
사미정계곡,경북 봉화군,경상북도 봉화군 법전면 소천리,36.9043082,128.9249142
사방기념공원,경북 포항시,경상북도 포항시 북구 흥해읍 해안로 1712,36.1563191,129.3966043
사빈서원,경북 안동시,경상북도 안동시 임하면 푸레실길 86,36.520569,128.8752124
사양서당,경북 칠곡군,경상북도 칠곡군 지천면 신동서원길 15-10,35.9651944,128.4927681
사양서원,경북 청송군,경상북도 청송군 파천면 중평병부길 50-81,36.4590392,129.0321969
사일온천,경북 영천시,경상북도 영천시 사일로 458-64,35.9733144,128.8706416
사자바위,경북 울릉도,경상북도 울릉군 서면,37.4730331,130.8199467
산내들패밀리어드벤처파크,경북 김천시,경상북도 김천시 지례면 부항로 109-38,35.9764698,128.0163929
산수정,경북 안동시,경상북도 안동시 풍산읍 마애길 70-31,36.5537078,128.5868096
삼강강당,경북 예천군,경상북도 예천군 풍양면 삼강리길 53-14,36.5627963,128.3031089
삼계서원,경북 봉화군,경상북도 봉화군 봉화읍 생기마1길 24,36.9013414,128.7354224
삼귀정,경북 안동시,경상북도 안동시 풍산읍 지풍로 1975-1,36.578897,128.5502802
삼릉계곡마애석가여래좌상,경북 경주시,경상북도 경주시 남산순환로 341-126,35.7948807,129.22182
삼사해상공원 (삼사해상산책로),경북 영덕군,경상북도 영덕군 강구면 해상공원길 120-7,36.3517649,129.3840016
"삼선암 (울릉도, 독도 국가지질공원)",경북 울릉도,경상북도 울릉군 북면 천부리,37.5362739,130.8881547
삼정해수욕장,경북 포항시,경상북도 포항시 남구 구룡포읍 일출로62번길,36.001005,129.5692482
삼화령,경북 경주시,경상북도 경주시 내남면,35.7524157,129.2001526
상달암,경북 포항시,경상북도 포항시 남구 연일읍 새마을로766번길 21,36.0394185,129.2878864
상락사(상주),경북 상주시,경상북도 상주시 서성4길 19,36.4182475,128.1605153
상비리계곡,경북 고령군,경상북도 고령군 덕곡면 노리2길,35.8026397,128.1726088
상석리 왜가리(백로) 서식지,경북 영주시,경상북도 영주시 부석면 감산길,36.9412374,128.6540229
상주 금흔리 이부곡 토성,경북 상주시,경상북도 상주시 사벌면 엄안리,36.4605053,128.2140547
상주 신앙 고백비,경북 상주시,경상북도 상주시 청리면 삼괴리,36.3620952,128.1184549
상주 양진당,경북 상주시,경상북도 상주시 낙동면 양진당길 27-4,36.364094,128.2290837
상주 임란북천전적지,경북 상주시,경상북도 상주시 경상대로 3123,36.4256845,128.1501837
상주 증촌리 석조여래입상,경북 상주시,경상북도 상주시 함창읍 증촌2길 10-19,36.5683799,128.1715288
상주 화달리 삼층석탑,경북 상주시,경상북도 상주시 사벌면 화달1길 2,36.4450963,128.2229555
상주동학교당,경북 상주시,경상북도 상주시 은척면 우기1길 64,36.5400731,128.0606609
상주오작당,경북 상주시,경상북도 상주시 낙동면 선상서로 1975,36.3603966,128.2264554
상주향교,경북 상주시,경상북도 상주시 신봉2길 111,36.4065531,128.1583405
서로가 (관광두레 주민사업체),경북 안동시,경상북도 안동시 퇴계로 297-10,36.5832799,128.7361141
서벽 금강소나무 숲 (서벽 문화재용 목재생산림),경북 봉화군,경북 봉화군 춘양면 서벽리 산 283-3,37.006419,128.833624
서벽고택,경북 청송군,경상북도 청송군 파천면 중들2길 22-2,36.458528,129.0222766
서산서원,경북 포항시,경상북도 포항시 남구 장기면 산서길 98,35.8927409,129.4612458
서악사(안동),경북 안동시,경상북도 안동시 서악길 67-14,36.5619341,128.7094821
서악사(예천),경북 예천군,경상북도 예천군 예천읍 대심1길 160,36.6582091,128.4350868
서악서원,경북 경주시,경상북도 경주시 서악2길 23,35.8275619,129.1886503
석수암(안동),경북 안동시,경상북도 안동시 제비원로 370-13,36.5841537,128.715152
석적체육공원,경북 칠곡군,경상북도 칠곡군 석적읍 남율리 790,36.0718047,128.3912728
석천계곡,경북 봉화군,경상북도 봉화군 봉화읍 삼계리,36.9008968,128.7342015
석포전망대,경북 울릉도,경상북도 울릉군 북면 천부리,37.5362739,130.8881547
선달산(경북),경북 봉화군,경상북도 봉화군 물야면 오전리,37.0159348,128.7278525
선도산,경북 경주시,경북 경주시 서악동,35.8276469,129.1864218
선몽대,경북 예천군,경북 예천군 호명면 백송리 (내성천변),36.597624,128.460743
선바위관광지,경북 영양군,경상북도 영양군 입암면 영양로 883-16,36.6087374,129.0818776
선본사(경산),경북 경산시,경상북도 경산시 와촌면 갓바위로 699,35.9874776,128.7387497
선봉사(칠곡),경북 칠곡군,경상북도 칠곡군 북삼읍 숭산로 275-209,36.0868866,128.3276992
선비촌,경북 영주시,경상북도 영주시 순흥면 소백로 2796,36.9275115,128.5826342
선산향교,경북 구미시,경상북도 구미시 선산읍 교리2안길 24-35,36.2525532,128.3012275
선석사(경북),경북 성주군,경상북도 성주군 월항면 세종대왕자태실로 616-33,36.0157203,128.2989326
선암사(포항),경북 포항시,경상북도 포항시 남구 동해면 정동길417번길 97-37,35.9669864,129.4861686
선암서원,경북 청도군,경상북도 청도군 금천면 선암로 455-27,35.6777046,128.89166
선유동계곡(문경),경북 문경시,경상북도 문경시 가은읍 완장리,36.6796194,127.9600748
선찰사(안동),경북 안동시,경상북도 안동시 길안면 웃장터길 91-17,36.4541743,128.8975439
섬계서원,경북 김천시,경상북도 김천시 대덕면 조룡길 512-5,35.9524342,127.9720586
성덕대왕신종,경북 경주시,경상북도 경주시 일정로 186,35.8292319,129.2277439
성류굴,경북 울진군,경상북도 울진군 근남면 성류굴로 225,36.9558893,129.379072
성류굴 (경북 동해안 국가지질공원),경북 울진군,경상북도 울진군 근남면 성류굴로 225,36.9558893,129.379072
성베네딕도회 왜관수도원,경북 칠곡군,경상북도 칠곡군 왜관읍 관문로 61,35.9887886,128.4032514
성보예술촌,경북 문경시,경상북도 문경시 호계면 상무로 377,36.6457188,128.1944669
"성인봉 원시림 (울릉도, 독도 국가지질공원)",경북 울릉도,경상북도 울릉군 서면 남양리,37.4847173,130.8544969
성주 가야산녹색체험마을,경북 성주군,경상북도 성주군 수륜면 백운1길 40,35.8014426,128.1475084
성주 경산리 성밖숲,경북 성주군,경상북도 성주군 성주읍 경산리,35.9172647,128.2836173
성주 성산동 고분군,경북 성주군,경상북도 성주군 성주읍 성산리,35.9060912,128.2972012
성주 세종대왕자 태실,경북 성주군,경상북도 성주군 월항면 세종대왕자태실로 639-18,36.0166283,128.2962423
성주 한개마을,경북 성주군,경북 성주군 월항면 대산리 67,35.9306859,128.3302828
성주댐(성주호),경북 성주군,경상북도 성주군 가천면 중산3길,35.9059059,128.149971
성주봉 자연휴양림,경북 상주시,경상북도 상주시 은척면 성주봉로 3,36.5335789,128.0414621
성주봉자연휴양림,경북 상주시,경상북도 상주시 은척면 성주봉로 3,36.5335789,128.0414621
성주향교,경북 성주군,경상북도 성주군 성주읍 예산2길 36-12,35.9269666,128.2903324
성혈사(영주),경북 영주시,경상북도 영주시 순흥면 죽계로 459-99,36.9506804,128.5432306
소광리계곡,경북 울진군,경상북도 울진군 금강송면 십이령로,36.9665074,129.2129322
소노벨 경주 아쿠아월드,경북 경주시,경상북도 경주시 보문로 402-12,35.8469119,129.2816226
소백산 국망봉 돼지바위,경북 영주시,경상북도 영주시 순흥면 죽계로315번길 330,36.9441453,128.5264154
소백산국립공원(경북),경북 영주시,경북 영주시 풍기읍,36.8708638,128.5248686
소백산국립공원(영주),경북 영주시,경상북도 영주시 풍기읍 죽령로1720번길 76,36.9099452,128.4641961
소백산단산 포도마을,경북 영주시,경상북도 영주시 단산면 단산로 817,36.9475399,128.6161516
소백산자락길 동무삼기,경북 영주시,경상북도 영주시 선비로 213,36.8230344,128.617024
소백산하늘자락공원,경북 예천군,경상북도 예천군 용문면 내지리,36.7235902,128.3768195
소수서원 [유네스코 세계문화유산],경북 영주시,경상북도 영주시 순흥면 소백로 2740,36.9248877,128.5801538
소암서당,경북 칠곡군,경상북도 칠곡군 기산면 지산로 807-11,35.983282,128.3642305
소양서원,경북 문경시,경상북도 문경시 가은읍 소양서원길 8,36.6127278,128.0221546
소천서원,경북 예천군,경상북도 예천군 용궁면 외무길 30-24,36.5911952,128.2815745
속리산국립공원(경북),경북 상주시,경상북도 상주시 화북면,36.5633138,127.9172216
속수서원,경북 의성군,경상북도 의성군 단밀면 주속길 116-6,36.3798386,128.3823678
송곡서원,경북 영천시,경상북도 영천시 청통면 애련길 174,36.0002692,128.8030563
송대말 등대,경북 경주시,경상북도 경주시 감포읍 감포로 226-19,35.8076934,129.5113225
송도해변(포항),경북 포항시,경상북도 포항시 남구 운하로251번길 34-1,36.0471353,129.3745255
송록서원,경북 봉화군,경상북도 봉화군 봉화읍 봉화로 1001-28,36.8935723,128.7207635
송림사(칠곡),경북 칠곡군,경상북도 칠곡군 동명면 송림길 73,35.9820509,128.5773795
송학서원,경북 청송군,경상북도 청송군 안덕면 석정길 53,36.2991626,128.9748775
송호서원,경북 군위군,경상북도 군위군 군위읍 외량1길 56,36.2555934,128.5450287
수다사(구미),경북 구미시,경상북도 구미시 무을면 수다사길 183,36.2833067,128.1657522
수도리 전통마을,경북 영주시,경상북도 영주시 문수면 무섬로234번길 31-12,36.7308748,128.6217841
수도사(영천),경북 영천시,경상북도 영천시 신녕면 치산관광길 404,36.0398366,128.718045
수도산,경북 김천시,경상북도 김천시 증산면 수도길,35.8644435,128.0120849
수도산자연휴양림,경북 김천시,경상북도 김천시 대덕면 증산로 326-71,35.890691,127.9822907
수도암(김천),경북 김천시,경상북도 김천시 증산면 수도길 1438,35.86128,127.9965233
수리뫼 [한국전통음식체험교육원],경북 경주시,경상북도 경주시 내남면 포석로 110-32,35.7521344,129.2079249
수성서원,경북 포항시,경상북도 포항시 남구 동해면 정동길417번길 105,35.966825,129.488793
수정사(의성),경북 의성군,경상북도 의성군 금성면 수정사길 420,36.2666924,128.7326621
수태사(군위),경북 군위군,경상북도 군위군 의흥면 지호2길 202,36.1840912,128.7830937
수평마을(삼근리마을),경북 울진군,경상북도 울진군 금강송면 불영계곡로 1710,36.96579,129.32115
수하계곡(영양),경북 영양군,경상북도 영양군 수비면 수하리,36.8028426,129.250797
순흥읍내리 벽화고분,경북 영주시,경상북도 영주시 순흥면 읍내리 산,36.9135341,128.5727084
순흥향교,경북 영주시,경상북도 영주시 순흥면 청구길 15-36,36.9388394,128.5795363
승곡마을,경북 상주시,경상북도 상주시 낙동면 승곡1길 34,36.3658664,128.2101058
승부역(봉화),경북 봉화군,경상북도 봉화군 석포면 승부길 1162-5,36.9936609,129.0837984
신경주역(철도체험학습장),경북 경주시,경상북도 경주시 건천읍 신경주역로 80,35.799655,129.1400384
신광온천,경북 포항시,경상북도 포항시 북구 신광면 기반길 8,36.1625082,129.2769348
신녕포교당,경북 영천시,경상북도 영천시 신녕면 동산길 11,36.0408738,128.790024
신녕향교,경북 영천시,경상북도 영천시 신녕면 큰골길 30-7,36.0485849,128.7912786
신돌석장군 생가 및 유적지,경북 영덕군,경상북도 영덕군 축산면 신돌석장군길 218,36.5197201,129.4042778
신동입석,경북 칠곡군,경상북도 칠곡군 지천면 심천로 5-7,35.9553644,128.4985181
신둔사(청도),경북 청도군,경상북도 청도군 화양읍 화양남산길 355,35.6244436,128.7118737
신라불교초전지,경북 구미시,경상북도 구미시 도개면 도개다곡길 389-46,36.2909786,128.363146
신선계곡,경북 울진군,경상북도 울진군 온정면 백암온천로,36.7279339,129.3714913
신성리 공룡발자국 (청송 국가지질공원),경북 청송군,경상북도 청송군 안덕면 신성리,36.3256179,128.9694531
신천서원,경북 예천군,경상북도 예천군 예천읍 왕신1리길 151,36.6316241,128.4439744
신흥사(군위),경북 군위군,경상북도 군위군 우보면 고산길 262,36.1501711,128.6283647
신흥사(상주),경북 상주시,경상북도 상주시 화북면 중벌2길 32,36.6026672,127.8330945
신흥사(영천),경북 영천시,경상북도 영천시 금호읍 금호로 360-29,35.9373694,128.8986368
심원사(문경),경북 문경시,경상북도 문경시 농암면 청화로 380-101,36.5640404,127.9469889
심원사(성주),경북 성주군,경상북도 성주군 수륜면 가야산식물원길 17-56,35.8005623,128.1357291
쌍룡계곡,경북 문경시,경상북도 문경시 농암면 내서리 쌍룡계곡,36.5692014,127.9540144
아가야체험가자,경북 청도군,경상북도 청도군 매전면 청매로 825,35.6225568,128.8251364
안동 가송마을,경북 안동시,경상북도 안동시 도산면 퇴계로 3236-40,36.7503376,128.8491934
안동 군자마을(오천유적지),경북 안동시,경상북도 안동시 와룡면 군자리길 29,36.6735279,128.8025753
안동 내앞마을,경북 안동시,경상북도 안동시 임하면 내앞길 5-4,36.5352886,128.8566771
안동 놀팍,경북 안동시,경상북도 안동시 관광단지로 346-30,36.569346,128.7785422
안동 법흥사지 칠층전탑,경북 안동시,경상북도 안동시 법흥동 8-1,36.5659635,128.746371
안동 사신리 느티나무,경북 안동시,경상북도 안동시 녹전면 송두안길 22,36.6969477,128.7715177
안동 삼산정,경북 안동시,경상북도 안동시 예안면 삼산길 14,36.6664032,128.8538761
안동 석빙고,경북 안동시,경상북도 안동시 민속촌길 13,36.5766165,128.7654271
안동 소호헌,경북 안동시,경상북도 안동시 일직면 소호헌길 2,36.463612,128.6635141
안동 송사동 소태나무,경북 안동시,경상북도 안동시 길안면 송사시장길 104,36.3690616,128.9286779
안동 예안이씨 충효당,경북 안동시,경상북도 안동시 풍산읍 우렁길 73,36.5743035,128.5803072
안동 온뜨레피움,경북 안동시,경상북도 안동시 관광단지로 346-95,36.5668058,128.7819252
안동 용계리 은행나무,경북 안동시,경상북도 안동시 길안면 수곡용계로 493-24,36.4891755,128.923989
안동 운흥동 당간지주와 오층전탑,경북 안동시,경상북도 안동시 운흥동 231,36.562529,128.7313849
안동 의성김씨 종택,경북 안동시,경상북도 안동시 임하면 내앞길 1-11,36.5360893,128.8561175
안동 이천동 마애여래입상,경북 안동시,경상북도 안동시 이천동 미두리길 26-56,36.5917228,128.719063
안동 임청각,경북 안동시,경상북도 안동시 임청각길 63,36.5651391,128.7447498
안동 장승공원,경북 안동시,경상북도 안동시 풍천면 전서로 159,36.5516359,128.5306498
안동 조탑리 오층전탑,경북 안동시,경상북도 안동시 일직면 조탑리,36.4712095,128.6300799
안동 주하리 뚝향나무,경북 안동시,경상북도 안동시 와룡면 태리금산로 242-5,36.6397275,128.7414638
안동 하회된장마을,경북 안동시,경상북도 안동시 풍천면 전서로 72,36.5580572,128.5269615
안동 하회마을 [유네스코 세계문화유산],경북 안동시,경상북도 안동시 풍천면 하회리 1176-1,36.5388802,128.5172714
안동 하회촌,경북 안동시,경상북도 안동시 풍천면 전서로 214-6,36.5492624,128.527314
안동(풍산)한지공장,경북 안동시,경상북도 안동시 풍산읍 나바우길 13,36.5809505,128.5548204
안동MBC,경북 안동시,경상북도 안동시 단원로 20,36.57171,128.7068163
안동계명산자연휴양림,경북 안동시,경상북도 안동시 길안면 고란길 207-99,36.4156954,128.9467699
안동다례원 [다례체험],경북 안동시,경상북도 안동시 민속촌길 13,36.5766165,128.7654271
안동댐,경북 안동시,경상북도 안동시 호반로 31,,
안동댐 물 문화관,경북 안동시,경상북도 안동시 석주로 202,36.5776283,128.7589821
안동민속촌,경북 안동시,경북 안동시 성곡동 822-3,36.5770215,128.7639652
안동반가(관광두레 주민사업체),경북 안동시,경상북도 안동시 민속촌길 190,36.5716411,128.7683522
안동시장 찜닭골목,경북 안동시,경상북도 안동시 번영길 30,36.5651965,128.7284539
안동예절학교,경북 안동시,경상북도 안동시 와룡면 퇴계로 1333-5,36.6587414,128.7703455
안동주하동경류정종택,경북 안동시,경상북도 안동시 와룡면 태리금산로 242-5,36.6397275,128.7414638
안동포마을,경북 안동시,경상북도 안동시 임하면 금소3길 3,36.5048619,128.8513016
안동한지체험,경북 안동시,경상북도 안동시 풍산읍 나바우길 13,36.5809505,128.5548204
안동향교,경북 안동시,경상북도 안동시 향교길 65,36.5510856,128.786732
안동호반자연휴양림,경북 안동시,경상북도 안동시 도산면 동부리 36,36.7034953,128.8283022
안산서원,경북 포항시,경상북도 포항시 남구 장기면 방산로 409-26,35.9030129,129.4655598
안흥사(경산),경북 경산시,경상북도 경산시 남매로 86,35.818331,128.7437186
알봉분지전망대,경북 울릉도,경상북도 울릉군 북면 나리,37.5185207,130.8650761
암포서원,경북 성주군,경상북도 성주군 월항면 안포길 89,35.9539042,128.3146969
압곡사(군위),경북 군위군,경상북도 군위군 고로면 현리낙전길 836-144,36.1897235,128.8122574
애은당고택·사우정고택·용계정,경북 포항시,경상북도 포항시 북구 기북면 덕동문화길 31,36.1668058,129.1861029
야호(夜好) 경주! 신라달빛기행(경주일원),경북 경주시,경상북도 경주시 서악2길 23,35.8275619,129.1886503
약계정,경북 안동시,경상북도 안동시 길안면 용계은행나무길 371-15,36.4821016,128.9186566
약사암(구미),경북 구미시,경상북도 구미시 남통동,36.1077213,128.3076614
양남 주상절리군 (경북 동해안 국가지질공원),경북 경주시,경상북도 경주시 양남면 동해안로 494,35.6867054,129.4737168
양동 서백당,경북 경주시,경상북도 경주시 강동면 양동마을안길 75-6,36.0039606,129.253652
양떡마을 음떡마을,경북 울진군,경상북도 울진군 온정면 온정3길 84,36.7084531,129.3444088
양산서원,경북 군위군,경상북도 군위군 부계면 남산4길 32,36.0473376,128.6403085
양산재,경북 경주시,경상북도 경주시 남간길 37-10,35.8166487,129.2144862
양천서원,경북 군위군,경상북도 군위군 군위읍 내외량길 243-55,36.2398565,128.5687588
엄마아빠어렸을적에,경북 군위군,경상북도 군위군 산성면 산성가음로 722,36.1279583,128.6966475
여우생태관찰원,경북 영주시,경상북도 영주시 순흥면 소백로2481번길 33,36.9141829,128.556655
역동서원,경북 안동시,경상북도 안동시 경동로 1375,36.5416964,128.7964779
연계서원,경북 영천시,경상북도 영천시 신녕면 연정큰길 67,36.0527561,128.8142896
연동어촌체험마을,경북 경주시,경상북도 경주시 감포읍 연동길 38-1,35.8379466,129.5195088
연미사(안동),경북 안동시,경상북도 안동시 제비원로 672,36.5743946,128.7180436
연산온천파크,경북 포항시,경상북도 포항시 북구 송라면 보경로 514,36.2504997,129.3195425
연수암(상주),경북 상주시,경상북도 상주시 연원7길 127,36.4378512,128.116344
연악서원,경북 상주시,경상북도 상주시 지천1길 49,36.3601062,128.1527764
연오랑세오녀테마공원 귀비고,경북 포항시,경상북도 포항시 남구 동해면 호미로 3012,36.0144678,129.4825809
연일중명자연생태공원,경북 포항시,경상북도 포항시 남구 연일읍 중명길 161,35.9895745,129.31562
연일향교,경북 포항시,경상북도 포항시 남구 유동길48번길 5,36.0063012,129.3236069
연지암(경주),경북 경주시,경상북도 경주시 외동읍 활성길 120-5,35.7535478,129.3277913
염불사지,경북 경주시,경상북도 경주시 남산동,35.7916954,129.2400194
영덕 대소산 봉수대,경북 영덕군,경상북도 영덕군 축산면 도곡리 산20,36.5180176,129.4318878
영덕 부경온천,경북 영덕군,경상북도 영덕군 남정면 부경온천길 80,36.2695984,129.3659779
영덕 안동권씨 옥천재사,경북 영덕군,경상북도 영덕군 창수면 장육사길 353,36.59715,129.3218946
영덕대게마을,경북 영덕군,경상북도 영덕군 강구면 영덕대게로 68,36.3596043,129.3867219
영덕조각공원,경북 영덕군,경상북도 영덕군 영덕읍 창포리,36.4201595,129.4213426
영덕해맞이공원,경북 영덕군,경상북도 영덕군 영덕읍 영덕대게로 968,36.4220234,129.4329554
영덕향교,경북 영덕군,경상북도 영덕군 영덕읍 화개서길 15,36.4166385,129.3660286
영명사(칠곡),경북 칠곡군,경상북도 칠곡군 북삼읍 금오동천로 84,36.0635307,128.3018286
영양 두들마을,경북 영양군,경상북도 영양군 석보면 두들마을길 62,36.5592345,129.1265757
영양 두메송하마을,경북 영양군,경상북도 영양군 수비면 가천로 614,36.7007927,129.1922305
영양 주실마을,경북 영양군,경상북도 영양군 일월면 주실길 55,36.7186686,129.1027959
영양향교,경북 영양군,경상북도 영양군 일월면 향교길 28-6,36.7046046,129.1300492
영일 일월지,경북 포항시,경상북도 포항시 남구 오천읍 충무로 59,35.9764696,129.4163965
영일기천고택,경북 포항시,경상북도 포항시 북구 기계면 협동길 50-1,36.0730626,129.2060994
영일대해수욕장,경북 포항시,경상북도 포항시 북구 해안로 95,36.0572839,129.3778296
영일만온천,경북 포항시,경상북도 포항시 남구 대송면 운제로386번길 21,35.952856,129.3616928
영일칠포리암각화군,경북 포항시,경상북도 포항시 북구 흥해읍 해안로,36.126307,129.4050794
영주 괴헌고택,경북 영주시,경상북도 영주시 이산면 영봉로 883,36.8057558,128.6991768
영주 금성대군 신단,경북 영주시,경상북도 영주시 순흥면 소백로2767번길 28,36.9269413,128.5781456
영주 무섬마을,경북 영주시,경상북도 영주시 문수면 무섬로234번길 31-12,36.7308748,128.6217841
영주 석교리 석조여래입상,경북 영주시,경상북도 영주시 순흥면 회헌로1010번길 23-49,36.9114859,128.5813923
영주 솔향기마을,경북 영주시,경상북도 영주시 봉현면 소백로1623번길 268,36.8413196,128.4986001
영주 순흥 벽화 고분,경북 영주시,경상북도 영주시 순흥면 소백로 2547-16,36.912834,128.5649638
영주 순흥 어숙묘,경북 영주시,경상북도 영주시 순흥면 태장리,36.9149318,128.5430533
영주 신암리 마애여래삼존상,경북 영주시,경상북도 영주시 이산면 신암리,36.8464002,128.6848005
영주역,경북 영주시,경상북도 영주시 선비로 64,36.8105447,128.6248519
영주포교당,경북 영주시,경상북도 영주시 중앙로63번길 41-10,36.8234234,128.6212194
영주향교,경북 영주시,경상북도 영주시 명륜길 76,36.830726,128.629202
영지사,경북 영천시,경상북도 영천시 대창면 영지길 471,35.8443825,128.9510491
영지석불좌상,경북 경주시,경상북도 경주시 외동읍 영지로 622-6,35.7629682,129.3068625
영천 만취당,경북 영천시,경상북도 영천시 금호읍 종동길 25,35.9065971,128.8907144
영천 목재문화체험장,경북 영천시,경상북도 영천시 화북면 입석리 산 49-25,36.1421582,128.966684
영천 별별미술마을,경북 영천시,경상북도 영천시 화산면 가래실로 364,36.0329663,128.8892167
영천 별빛마을,경북 영천시,경상북도 영천시 화북면 정각길 22,36.139184,128.9948672
영천 숭렬당,경북 영천시,경상북도 영천시 숭렬당길 1,35.9665054,128.9290397
영천 신월리 삼층석탑,경북 영천시,경상북도 영천시 금호읍 금호로 360-29,35.9373694,128.8986368
영천 자천리 오리장림,경북 영천시,경상북도 영천시 화북면 자천리,36.1170632,128.9122568
영천 청제비,경북 영천시,경상북도 영천시 금호읍 영천산단로,35.9430156,128.8997065
영천댐,경북 영천시,경상북도 영천시 자양면 포은로 1792,36.0798098,129.0326435
영천보성리암각화,경북 영천시,경상북도 영천시 청통면 보성리,35.9974744,128.8450275
영천와인사업단,경북 영천시,경상북도 영천시 천문로 622-13,35.9910407,128.9261444
영천전투메모리얼파크,경북 영천시,경상북도 영천시 호국영웅길 15,35.9732915,128.9385493
영천조양각,경북 영천시,경상북도 영천시 문화원길 6,35.967352,128.9332926
영천포교당,경북 영천시,경상북도 영천시 서문길 69,35.9659153,128.9263188
영천한약재전시관,경북 영천시,경상북도 영천시 한방로 10,35.942435,128.9302952
영천한의마을,경북 영천시,경상북도 영천시 천문로 485,35.9750167,128.9289773
영천향교,경북 영천시,경상북도 영천시 교촌길 34,35.9696422,128.9285254
영해 3.1 의거탑,경북 영덕군,경상북도 영덕군 영해면 성내리,36.529482,129.4138042
영해향교,경북 영덕군,경상북도 영덕군 영해면 예주8길 14-5,36.5382857,129.4137327
영호루,경북 안동시,경상북도 안동시 강남로 187-5,36.552677,128.7219371
예안향교,경북 안동시,경상북도 안동시 도산면 퇴계로 2020-13,36.7503376,128.8491934
예천 곤충연구소&곤충생태원,경북 예천군,경상북도 예천군 효자면 은풍로 1045,36.8242878,128.4581675
예천 금남리 황목근(팽나무),경북 예천군,경상북도 예천군 용궁면 금남리,36.6012065,128.2725697
예천 금당실마을,경북 예천군,경상북도 예천군 용문면 금당실길 54,36.6902278,128.4110248
예천 목재문화체험장,경북 예천군,경상북도 예천군 효자면 도효자로 2142,36.7994129,128.37608
예천 백두대간 파워스팟,경북 예천군,경상북도 예천군 용문면 용문사길 285-30,36.7312991,128.370342
예천 사부리소나무,경북 예천군,경상북도 예천군 용문면 사부리,36.7255037,128.3492745
예천 삼강주막,경북 예천군,경상북도 예천군 풍양면 삼강리길 27,36.5633388,128.2981072
예천 천향리 석송령,경북 예천군,경상북도 예천군 감천면 석송로 313-29,36.7254727,128.4898557
예천 초간정,경북 예천군,경상북도 예천군 용문면 용문경천로 874,36.7012096,128.3818785
예천 출렁다리마을,경북 예천군,경상북도 예천군 용문면 용문경천로 826,36.7023473,128.375216
예천권씨 병암정 및 별묘,경북 예천군,경상북도 예천군 용문면 성현길 22-39,36.6817208,128.4199777
예천권씨종가별당·예천권씨종택,경북 예천군,경상북도 예천군 용문면 성현길 22-39,36.6817208,128.4199777
예천온천,경북 예천군,경상북도 예천군 감천면 온천길 27,36.7228075,128.4988529
예천천문우주센터,경북 예천군,경상북도 예천군 감천면 충효로 1078,36.70147,128.5058821
예천향교,경북 예천군,경상북도 예천군 예천읍 대창학교길 35,36.6608289,128.4553558
오계서원,경북 영주시,경상북도 영주시 평은면 천상로500번길 133-19,36.7802372,128.7126716
오류고아라해변,경북 경주시,경상북도 경주시 감포읍 동해안로 2674,35.8380604,129.5183511
오미나라,경북 문경시,경상북도 문경시 문경읍 새재로 609,36.756555,128.0871107
오보 해수욕장,경북 영덕군,경상북도 영덕군 영덕읍 영덕대게로 1213,36.4416067,129.4326384
오산서원,경북 영주시,경상북도 영주시 대동로103번길 31-32,36.8174639,128.6123782
오송폭포,경북 상주시,경상북도 상주시 화북면 문장대2길 293,36.5690905,127.8805424
오암서원,경북 구미시,경상북도 구미시 지주중류2길 19,36.0812619,128.3766711
오어사(포항),경북 포항시,경상북도 포항시 남구 오천읍 오어로 1,35.9263386,129.3689191
오전약수탕,경북 봉화군,경상북도 봉화군 물야면 문수로 1601,37.0121569,128.7457082
오천서원,경북 포항시,경상북도 포항시 남구 오천읍 서원재로166번길 32-47,35.981952,129.3974702
옥간정,경북 영천시,경상북도 영천시 화북면 별빛로 122,36.1147366,128.9479749
옥계계곡,경북 영덕군,경상북도 영덕군 달산면 팔각산로,36.3671667,129.2859491
옥계서원(구미),경북 구미시,경상북도 구미시 여헌로 68,36.1075738,128.4258004
옥동서원,경북 상주시,경상북도 상주시 모동면 수봉2길 29,36.2900451,127.9415361
옥량폭포,경북 상주시,경상북도 상주시 화북면 문장로,36.6026162,127.8981456
옥련사(의성),경북 의성군,경상북도 의성군 안평면 옥련사길 130,36.4188185,128.5509374
옥방천,경북 봉화군,경상북도 봉화군 소천면 분천리,36.9499393,129.0578802
옥산 세심마을,경북 경주시,경상북도 경주시 안강읍 세심길,36.0138549,129.1615725
옥산사(안동),경북 안동시,경상북도 안동시 북후면 벽절길 137,36.6823485,128.6876717
옥산서원 [유네스코 세계문화유산],경북 경주시,경상북도 경주시 안강읍 옥산서원길 216-27,36.011705,129.1633086
옥성서원,경북 상주시,경상북도 상주시 외남면 옥성수자동길 40-11,36.3503097,128.1007215
옥성자연휴양림,경북 구미시,경상북도 구미시 옥성면 휴양림길 150,36.2824723,128.2821358
옥천서원(예천),경북 예천군,경상북도 예천군 감천면 덕율1길 15-21,36.7033344,128.5095408
완귀정,경북 영천시,경상북도 영천시 서당길 25-34,35.9364596,128.9350405
완담서원,경북 예천군,경상북도 예천군 지보면 마산길 313,36.5509706,128.325929
왕피천 관광농원,경북 울진군,경상북도 울진군 근남면 왕피천로 534-1,36.9285918,129.3462985
왕피천계곡,경북 울진군,경상북도 울진군 금강송면 왕피길,36.9346074,129.2487375
왕피천생태탐방로,경북 울진군,경북 울진군 근남면 구산리,36.9213158,129.3406771
왕피천생태탐방로,경북 울진군,경상북도 울진군 금강송면 불영계곡로 1710,36.96579,129.32115
용강서원(청도),경북 청도군,경상북도 청도군 이서면 모산길 45-4,35.6703615,128.6629327
용계서원,경북 영천시,경상북도 영천시 자양면 원각길 49-6,36.0896447,129.0353116
용궁향교,경북 예천군,경상북도 예천군 용궁면 용궁향교길 59,36.5935294,128.3042941
용담사(안동),경북 안동시,경상북도 안동시 길안면 미내소일길 138,36.389777,128.924849
용문사(예천),경북 예천군,경상북도 예천군 용문면 용문사길 285-30,36.7312991,128.370342
용산서원(경주),경북 경주시,경상북도 경주시 내남면 포석로 110-34,35.7526295,129.2084365
용암정,경북 안동시,경상북도 안동시 도산면 선성길,36.6983155,128.8126333
용천사(청도),경북 청도군,경상북도 청도군 각북면 헐티로 1375-9,35.7186111,128.5557596
용천약수,경북 청도군,경상북도 청도군 운문면 정상약수길,35.8154265,128.9635761
용화사(김천),경북 김천시,경상북도 김천시 봉산면 봉산1로 160,36.1478863,128.0386711
용화사(상주),경북 상주시,경상북도 상주시 함창읍 증촌2길 10-13,36.5681723,128.1711663
용흥사(상주),경북 상주시,경상북도 상주시 지천1길 223-35,36.3517682,128.1672007
우계서원,경북 안동시,경상남도 산청군 차황면 친환경로3612번길 108,35.4576395,127.9307782
우곡서원,경북 의성군,경상북도 의성군 의성읍 북부길 355-20,36.3844761,128.6755477
우륵기념탑,경북 고령군,경상북도 고령군 고령읍 주산순환길 209-18,35.7371327,128.2695565
우복동 체험마을,경북 상주시,경상북도 상주시 화북면 청화로 148,36.5712473,127.9292982
운계서원(영덕),경북 영덕군,경상북도 영덕군 병곡면 거무역2길 22,36.5852276,129.3967389
운곡서원,경북 경주시,경상북도 경주시 강동면 사라길 79-13,35.9410153,129.3020952
운달산,경북 문경시,경상북도 문경시 산북면,36.6560029,128.2594249
운람사(의성),경북 의성군,경상북도 의성군 안평면 신안2길 223,36.3610898,128.6063353
운문댐. 동창천,경북 청도군,경상북도 청도군 운문면,35.7155939,128.9132051
운문사,경북 청도군,경상북도 청도군 운문면 운문사길 264,35.6611331,128.9600846
운문산군립공원,경북 청도군,경상북도 청도군 운문면,35.7155939,128.9132051
운문호반에코트레일,경북 청도군,경상북도 청도군 운문면 공암길 64,35.755056,128.9540209
운봉관,경북 청송군,경상북도 청송군 청송읍 금월로 269,36.4332344,129.0553716
운산서원,경북 영덕군,경상북도 영덕군 병곡면 원황길 110-14,36.5699498,129.3897048
운암사(문경),경북 문경시,경상북도 문경시 불정길 149-123,36.627833,128.129353
운암서원(울진),경북 울진군,경상북도 울진군 기성면 기성로 77,36.7496694,129.4648284
운양서원,경북 성주군,경상북도 성주군 벽진면 운정길 167,35.9584719,128.229716
운제산,경북 포항시,경상북도 포항시 남구 대송면 대각리,35.9455098,129.3644256
운주산승마자연휴양림,경북 영천시,경상북도 영천시 임고면 승마휴양림길 105,36.0376736,129.0008294
울릉도,경북 울릉도,경상북도 울릉군 서면 태하길 236,37.5167755,130.7976894
울릉도 등대(태하등대),경북 울릉도,경상북도 울릉군 서면 태하등대길 188,37.5223305,130.7966733
울릉도 신비로여행,경북 울릉도,경상북도 울릉군 울릉읍 봉래2길 32-16,37.4980709,130.9079942
울릉도 유람선,경북 울릉도,경상북도 울릉군 울릉읍 도동길 14,37.4856032,130.9082837
울릉예림원,경북 울릉도,경상북도 울릉군 북면 울릉순환로 2746-24,37.5340892,130.8343276
울진 금강소나무 숲길,경북 울진군,경상북도 울진군 근남면 울진북로 245-5,36.9712904,129.3986704
울진 금강소나무숲길,경북 울진군,경상북도 울진군 근남면 울진북로 245-5,36.9712904,129.3986704
울진 백암온천마을,경북 울진군,경상북도 울진군 온정면 온정1길 119,36.7087088,129.3412336
울진 봉평리 신라비,경북 울진군,경상북도 울진군 죽변면 봉평리 521번지,37.0447722,129.4102189
울진 평해황씨 해월종택,경북 울진군,경상북도 울진군 기성면 해월헌길 70,36.8298155,129.4396194
울진 해안도로,경북 울진군,경상북도 울진군 근남면 망양정로 971,36.9641864,129.4143175
울진 후포항,경북 울진군,경상북도 울진군 후포면 등기산길 29,36.6808716,129.4622003
울진아쿠아리움,경북 울진군,경상북도 울진군 근남면 친환경엑스포로 25,36.9698706,129.4037564
울진엑스포공원,경북 울진군,경상북도 울진군 울진읍 울진중앙로 121,36.9929452,129.4005138
울진향교,경북 울진군,경상북도 울진군 울진읍 향교로 34-13,36.994476,129.3986962
원각사(구미),경북 구미시,경상북도 구미시 선산읍 선주로9길 7-15,36.244953,128.2931806
원계서원,경북 김천시,경상북도 김천시 음지마길 40-5,36.1153835,128.1043729
원주변씨간재종택 및 간재정,경북 안동시,경상북도 안동시 서후면 풍산태사로 2720-30,36.6013721,128.6773433
원효암(경산),경북 경산시,경상북도 경산시 와촌면 갓바위로 386-73,35.9798874,128.7671217
월송정,경북 울진군,경상북도 울진군 평해읍 월송정로 517,36.7437762,129.4689186
월영교,경북 안동시,경상북도 안동시 상아동,36.5782802,128.7509122
월정교,경북 경주시,경상북도 경주시 교촌안길 31,35.8298835,129.2176417
월천서당,경북 안동시,경상북도 안동시 도산면 월천길 437-7,36.6923195,128.8490655
월포해수욕장,경북 포항시,경상북도 포항시 북구 청하면 해안로2308번길,36.202726,129.3711128
위천수변테마공원,경북 군위군,경상북도 군위군 효령면 간동유원지길 8,36.1764184,128.5848985
유교랜드,경북 안동시,경상북도 안동시 관광단지로 346-30,36.569346,128.7785422
유금사(영덕),경북 영덕군,경상북도 영덕군 병곡면 유금길 213-26,36.6458498,129.3657482
유석사(영주),경북 영주시,경상북도 영주시 풍기읍 죽령로1360번길 289,36.9017206,128.475945
유암서원,경북 안동시,경상북도 안동시 와룡면 서주길 571-4,36.6380533,128.7441751
유하사(안동),경북 안동시,경상북도 안동시 와룡면 어은길 39,36.6188851,128.7919603
유호연화,경북 청도군,경북 청도군 화양읍 유등1리,35.677338,128.699928
은해사(영천),경북 영천시,경상북도 영천시 청통면 청통로 951,35.9902546,128.7943133
응봉산(울진),경북 울진군,경상북도 울진군 북면 덕구리,37.0843022,129.2754962
의산서원,경북 영주시,경상북도 영주시 장수면 용주로342번길 11-22,36.7832608,128.5443266
의성 경덕왕릉,경북 의성군,경상북도 의성군 금성면 대리리,36.2668973,128.6741618
의성 금성산 고분군,경북 의성군,경상북도 의성군 금성면 초전1길,36.2758509,128.6654461
의성 만취당,경북 의성군,경상북도 의성군 점곡면 만취당길 17,36.4241965,128.7622958
의성 사촌리 가로숲,경북 의성군,경상북도 의성군 점곡면 점곡길 17,36.4256919,128.7619692
의성 사촌리 향나무,경북 의성군,경상북도 의성군 점곡면 만취당길 12,36.424497,128.7618036
의성 사촌마을,경북 의성군,경상북도 의성군 점곡면 점곡길 17-1,36.4256919,128.7619692
의성 산운생태공원,경북 의성군,경상북도 의성군 금성면 수정사길 19,36.2433702,128.7034769
의성 소계당,경북 의성군,경상북도 의성군 점곡면 의성길안로 1034,36.4009761,128.7739742
의성 월소리 소나무,경북 의성군,경상북도 의성군 안사면 월소3길 62-13,36.4943634,128.4240459
의성 제오리 공룡발자국화석 산지,경북 의성군,경상북도 의성군 금성면 공룡로 179-18,36.2876866,128.7000568
의성 조문국사적지,경북 의성군,경상북도 의성군 금성면 대리리,36.2668973,128.6741618
의성 탑리리 오층석탑,경북 의성군,경상북도 의성군 금성면 오층석탑길 5-3,36.2551947,128.6837256
의성 탑산약수온천,경북 의성군,경상북도 의성군 봉양면 도리원2길 88-42,36.3038227,128.5894203
의성김씨학봉종택,경북 안동시,경상북도 안동시 서후면 풍산태사로 2830-6,36.6095912,128.6696641
의성읍 도서동의 회나무,경북 의성군,경상북도 의성군 의성읍 회나무길 16-2,36.3482321,128.6962349
의성향교,경북 의성군,경상북도 의성군 의성읍 향교길 57,36.3487465,128.701351
의흥향교,경북 군위군,경상북도 군위군 의흥면 읍내길 89-5,36.1735265,128.7199475
이산서원,경북 영주시,경상북도 영주시 이산면 내림로 106-43,36.8152383,128.7012469
이상복경주빵,경북 경주시,경상북도 경주시 산업로 3619,35.8331934,129.2505398
인각사,경북 군위군,경상북도 군위군 고로면 삼국유사로 250,36.1457402,128.8071767
인동향교,경북 구미시,경상북도 구미시 수출대로 333,36.1115052,128.4012364
인량리 전통테마마을,경북 영덕군,경상북도 영덕군 창수면 인량길 178,36.5523238,129.3710579
인량전통테마마을,경북 영덕군,"경상북도 영덕군 창수면 인량길 178
",36.5523238,129.3710579
인문힐링센터여명,경북 영덕군,경상북도 영덕군 창수면 장육사1길 203,36.5983572,129.311294
인용사지,경북 경주시,경상북도 경주시 문천길 16,35.8291272,129.2228074
일월산,경북 영양군,경상북도 영양군 일월면 오리리,36.75708,129.1253684
일출선원(포항),경북 포항시,경상북도 포항시 남구 동해면 정동길 551-74,35.9756071,129.4902031
일출암(일출사),경북 안동시,경상북도 안동시 녹전면 일출길 207,36.7339202,128.7343721
임고서원,경북 영천시,경상북도 영천시 임고면 포은로 447,36.0169644,128.9731115
임정사(경북),경북 성주군,경상북도 성주군 성주읍 성주읍5길 24-35,35.9212555,128.2855888
임하댐,경북 안동시,경상북도 안동시 임하면,36.5247407,128.831074
임허사(포항),경북 포항시,경상북도 포항시 북구 흥해읍 동해대로 1548-4,36.1095814,129.3437377
임호서원,경북 상주시,경상북도 상주시 함창읍 신흥2길 19-8,36.5389283,128.1879594
자계서원,경북 청도군,경상북도 청도군 이서면 자계서원길 13,35.6534844,128.6759803
자동서원,경북 김천시,경상북도 김천시 조마면 강곡4길 132,36.0263852,128.0839139
자비선사,경북 성주군,경상북도 성주군 수륜면 계정길 208,35.7941779,128.2204901
자연생태박물관,경북 문경시,경상북도 문경시 문경읍 새재1길 45,36.7533461,128.0764605
자인향교,경북 경산시,경상북도 경산시 자인면 교촌길9길 14,35.8227609,128.8265223
자하성,경북 청송군,경상북도 청송군 주왕산면 공원길 226,36.3968697,129.1456687
장각폭포,경북 상주시,경상북도 상주시 화북면 상오3길 48,36.5420085,127.9163288
장군당(효령사),경북 군위군,경상북도 군위군 효령면 장군당1길 35-1,36.1226095,128.5714217
장기 목장성비,경북 포항시,경상북도 포항시 남구 동해면 흥환길 43-5,36.0228894,129.5057159
장기 척화비와 근민당,경북 포항시,경상북도 포항시 남구 장기면 읍내길 99,35.8958289,129.4923647
장기향교,경북 포항시,경상북도 포항시 남구 장기면 읍성길 92,35.8966718,129.4879899
장난끼공화국,경북 청송군,경상북도 청송군 청송읍 중앙로 763,36.4401537,129.107314
장대서원,경북 의성군,경상북도 의성군 봉양면 장대1길 34,36.2864048,128.6190772
장사해수욕장,경북 영덕군,경상북도 영덕군 남정면 동해대로 3592,36.2841848,129.3748875
장산서원,경북 경주시,경상북도 경주시 안강읍 옥산서원길 377-2,36.0228404,129.1577708
장수조이월드,경북 영주시,경상북도 영주시 장수면 충효로2032번길 46,36.7653041,128.5609541
장안사(예천),경북 예천군,경상북도 예천군 용궁면 향석리,36.5754622,128.3026158
장육사,경북 영덕군,경상북도 영덕군 창수면 장육사1길 172,36.5987524,129.3012494
장천서원,경북 상주시,경상북도 상주시 낙동면 양진당길 59-15,36.3661299,128.2285882
저동항,경북 울릉도,경상북도 울릉군 울릉읍 울릉순환로,37.493153,130.8999636
적천사(청도),경북 청도군,경상북도 청도군 청도읍 원동길 304,35.6131385,128.7379998
전고령가야왕릉,경북 상주시,경상북도 상주시 함창읍 회천리,36.5701469,128.1794639
전사벌왕릉,경북 상주시,경상북도 상주시 사벌면 화달리,36.4603307,128.2289035
전주유씨무실종택,경북 안동시,경상북도 안동시 임동면 수곡용계로 1714-12,36.5537307,128.9236791
전촌솔밭해변,경북 경주시,경상북도 경주시 감포읍 동해안로 2006-2,35.7863155,129.4908554
절골협곡 (청송 국가지질공원),경북 청송군,경상북도 청송군 주왕산면 주산지리,36.3626468,129.1894888
점촌역 (철도체험학습장),경북 문경시,경상북도 문경시 신흥로 170,36.5961247,128.2037396
정기룡장군유적지(충의사),경북 상주시,경상북도 상주시 사벌국면 충의로 230,36.4445228,128.2132626
제동서원,경북 군위군,경상북도 군위군 효령면 장군당1길 35,36.1232618,128.5726184
제석사(경산),경북 경산시,경상북도 경산시 자인면 북사안길 18,35.821727,128.8212704
조곡서원,경북 경산시,경상북도 경산시 남산면 성산로 262,35.769404,128.8135778
조령산,경북 문경시,경상북도 문경시 문경읍,36.7864038,128.1583203
조지훈/오일도/이문열 문학기행,경북 영양군,경상북도 영양군 일월면 주실길 27,36.7196743,129.10007
존애원,경북 상주시,경상북도 상주시 청리면 율리1길 5,36.3532051,128.1150959
주렁주렁 (경주 보문점),경북 경주시,경상북도 경주시 엑스포로 80,35.8343908,129.2896933
주방계곡,경북 청송군,경상북도 청송군 주왕산면 산의리,36.4044298,129.1719717
주사암(경주),경북 경주시,경상북도 경주시 서면 도계서오길 251-355,35.8532936,129.0500751
주산지 (청송 국가지질공원),경북 청송군,경상북도 청송군 주왕산면 주산지리,36.3626468,129.1894888
주왕산 1. 2. 3 폭포,경북 청송군,경상북도 청송군 주왕산면 상의리,36.4044298,129.1719717
주왕산 관광단지,경북 청송군,경상북도 청송군 주왕산면 주왕산로 494,36.3617275,129.1573351
주왕산 국립공원,경북 청송군,경상북도 청송군 부동면 공원길 169-7,36.3938693,129.1420276
주왕산국립공원,경북 청송군,경상북도 청송군 주왕산면 공원길 169-7,36.3938693,129.1420276
주월사(의성),경북 의성군,경상북도 의성군 사곡면 양지실업길 115,36.3122244,128.8017347
주흘산,경북 문경시,경상북도 문경시 문경읍,36.7864038,128.1583203
죽계구곡,경북 영주시,경상북도 영주시 순흥면 죽계로315번길,36.942806,128.5259215
죽도(울릉),경북 울릉도,경상북도 울릉군 울릉읍 죽도길 59-9,37.5312363,130.9376827
죽령,경북 영주시,경상북도 영주시 풍기읍 수철리,36.899685,128.4558374
죽림사(영천),경북 영천시,경상북도 영천시 금호읍 죽방길 279-57,35.9458746,128.9172609
죽림사(청도),경북 청도군,경상북도 청도군 화양읍 홍도길 205-5,35.6320348,128.7017086
죽림사(포항),경북 포항시,경상북도 포항시 북구 탑산길10번길 11-4,36.0364906,129.3579505
죽변 등대,경북 울진군,경상북도 울진군 죽변면 등대길 52,37.0579973,129.4290394
죽변항,경북 울진군,경상북도 울진군 죽변면,37.0597699,129.4222508
"죽암 몽돌해안 (울릉도, 독도 국가지질공원)",경북 울릉도,경북 울릉군 북면,37.5407417,130.8745991
중평솔밭,경북 청송군,경상북도 청송군 파천면 중평리 34,36.4557989,129.032985
지례예술촌,경북 안동시,경상북도 안동시 임동면 지례예술촌길 427,36.5099073,128.9505227
지례향교,경북 김천시,경상북도 김천시 지례면 향교길 84,35.9895947,128.0273014
지림사(봉화),경북 봉화군,경상북도 봉화군 물야면 문수로 449-66,36.9848586,128.745124
지보사(군위),경북 군위군,경상북도 군위군 군위읍 상곡길 233,36.257833,128.602168
지산서원,경북 청도군,경상북도 청도군 이서면 신촌길 156-4,35.7015085,128.675686
지장사(의성),경북 의성군,경상북도 의성군 안사면 월소1길 148,36.4724062,128.4229398
직지문화공원,경북 김천시,경상북도 김천시 대항면 운수리 31-1,36.1152064,128.0137474
직지사,경북 김천시,경상북도 김천시 대항면 직지사길 95,36.1170395,128.004481
직천서원,경북 경주시,경상북도 경주시 안강읍 대동길 176-15,35.9621112,129.2169679
진남교반,경북 문경시,경상북도 문경시 마성면 신현리,36.6640577,128.1222816
진보향교,경북 청송군,경상북도 청송군 진보면 신한2길 63,36.5418145,129.0445314
진월사(영주),경북 영주시,경상북도 영주시 평은면 납들고개길 119,36.7117226,128.6519811
차유돔바위,경북 영덕군,경상북도 영덕군 축산면,36.5089968,129.4142063
찬경루,경북 청송군,경상북도 청송군 청송읍 금월로 269,36.4332344,129.0553716
창대서원,경북 영천시,경상북도 영천시 창대서원1길 9-18,35.9657726,128.9310167
창석사당,경북 상주시,경상북도 상주시 청리면 가천2길 52,36.3237203,128.1074144
창수전시림,경북 영덕군,경상북도 영덕군 창수면 창수4길,36.619328,129.2423225
창양동 후송당,경북 청송군,경상북도 청송군 현동면 청송로 2587-13,36.2902678,129.0095694
천곡사(포항),경북 포항시,경상북도 포항시 북구 흥해읍 도음로 476,36.0805766,129.2873271
천룡사(경주),경북 경주시,경상북도 경주시 내남면 백운대길 101-388,35.7658019,129.223933
천마총(대릉원),경북 경주시,경상북도 경주시 계림로 9,35.8373569,129.2130064
천부항,경북 울릉도,경상북도 울릉군 북면 천부리,37.5362739,130.8881547
천부해중전망대,경북 울릉도,경상북도 울릉군 북면 울릉순환로 3136-3,37.5459994,130.8730277
천성사,경북 봉화군,경상북도 봉화군 봉성면 꿀덩이길 93,36.9390471,128.7840707
천성암(경산),경북 경산시,경상북도 경산시 와촌면 갓바위로 216-111,35.9803034,128.7758693
철길숲 & 불의정원,경북 포항시,경상북도 포항시 남구 대잠동 171-5,36.0126752,129.3413221
청계사(상주),경북 상주시,경상북도 상주시 화서면 하송3길 213,36.4891518,127.9590305
청도 남산계곡,경북 청도군,경상북도 청도군 화양읍 화양남산길,35.6414172,128.7115227
청도 범곡리 지석묘군,경북 청도군,경상북도 청도군 화양읍 범곡리,35.6341499,128.7260729
청도 석빙고,경북 청도군,경상북도 청도군 화양읍 동천리,35.6296449,128.7135183
청도 성수월마을,경북 청도군,경상북도 청도군 풍각면 장기길 7,35.6608498,128.5836643
청도 와인터널,경북 청도군,경상북도 청도군 화양읍 송금길 100,35.7111372,128.7233932
청도 용암웰빙스파,경북 청도군,경상북도 청도군 화양읍 온천길 23,35.6887807,128.7192485
청도 합천리 석조아미타여래입상,경북 청도군,경상북도 청도군 화양읍 합천리,35.6554554,128.7100242
청도신화랑운문에코트레일,경북 청도군,경상북도 청도군 운문면 운문사길 529,35.6560517,128.9735169
청도신화랑풍류마을,경북 청도군,경상북도 청도군 운문면 신화랑길 1,35.7155939,128.9132051
청도역 (철도체험학습장),경북 청도군,경상북도 청도군 청도읍 청화로 214,35.6398004,128.7461804
청도읍성,경북 청도군,경상북도 청도군 화양읍 동상리,35.6487627,128.7067897
청도한옥학교,경북 청도군,경상북도 청도군 화양읍 양정길 156,35.6403721,128.7278632
청도향교,경북 청도군,경상북도 청도군 화양읍 동교길 36,35.6464878,128.7086494
청량사(봉화),경북 봉화군,경상북도 봉화군 명호면 청량산길 199-152,36.7891954,128.9191467
청량산도립공원,경북 봉화군,경상북도 봉화군 명호면 청량로 255,36.8445604,128.9062624
청량산비나리마을,경북 봉화군,경상북도 봉화군 명호면 비나리길 141,36.8393111,128.879971
청룡사(상주),경북 상주시,경상북도 상주시 중동면 오상리,36.4291884,128.2525955
청룡사(예천),경북 예천군,경상북도 예천군 용문면 선리,36.7227991,128.4032725
청성서원,경북 안동시,경상북도 안동시 풍산읍 웃막실길 8,36.5696365,128.6681828
청송 사남고택,경북 청송군,경상북도 청송군 파천면 중들2길 26,36.4583033,129.021573
청송 송소고택,경북 청송군,경상북도 청송군 파천면 송소고택길 15-2,36.4362239,129.0266092
청송 신기리 느티나무,경북 청송군,경상북도 청송군 파천면 신기리 487-1,36.4833163,129.0336884
청송 신기리 밀양박씨효부각,경북 청송군,경상북도 청송군 파천면 신기리,36.4866181,129.0485426
청송 얼음골 (청송 국가지질공원),경북 청송군,경상북도 청송군 주왕산면 내룡리,36.3376671,129.2109095
청송 자연휴양림 퇴적층 (청송 국가지질공원),경북 청송군,경상북도 청송군 부남면 청송로 3478-96,36.3179058,129.0537256
청송 장전리 향나무,경북 청송군,경상북도 청송군 안덕면 장전리 산 18,36.2867069,128.9831968
청송 참소슬마을,경북 청송군,경상북도 청송군 파천면 덕천길 89,36.4407046,129.0276687
청송 충혼탑,경북 청송군,경상북도 청송군 청송읍 금곡리,36.4205688,129.0725862
청송 평산신씨 판사공파 종택과 분가 고택,경북 청송군,경상북도 청송군 파천면 중들2길 16,36.4584108,129.0229099
청송 홍원리 개오동나무,경북 청송군,경상북도 청송군 부남면 홍원리 547,36.3304804,129.0729832
청송고택,경북 청송군,경상북도 청송군 파천면 송소고택길 15-2,36.4362239,129.0266092
청송백자전수관,경북 청송군,경상북도 청송군 주왕산면 법수길 190,36.3461224,129.1510615
청송솔기온천,경북 청송군,경상북도 청송군 청송읍 중앙로 315,36.4360844,129.0627445
청송초전댁,경북 청송군,경상북도 청송군 파천면 송소고택길 35-3,36.4379687,129.0267136
청송포교당,경북 청송군,경상북도 청송군 청송읍 중앙로 267-11,36.4345511,129.0583126
청송향교,경북 청송군,경상북도 청송군 청송읍 중앙로 259-30,36.4347029,129.05766
청암사(김천),경북 김천시,경상북도 김천시 증산면 평촌2길 335-48,35.8898575,128.0044473
청암서원,경북 상주시,경상북도 상주시 공검면 예주3길 29-32,36.5391688,128.1231218
청옥산,경북 봉화군,경상북도 봉화군 석포면,37.0486457,129.0651698
청천서원,경북 성주군,경상북도 성주군 대가면 칠봉2길 36-16,35.8999956,128.2299191
청하향교,경북 포항시,경상북도 포항시 북구 청하면 청하로233번길 16-5,36.2004394,129.3388676
청화산농원,경북 상주시,경상북도 상주시 화북면 문장로 2199-11,36.6026162,127.8981456
체화정,경북 안동시,경상북도 안동시 풍산읍 풍산태사로 1123-10,36.5792083,128.57849
초암사(영주),경북 영주시,경상북도 영주시 순흥면 죽계로315번길 330,36.9441453,128.5264154
축산항,경북 영덕군,경상북도 영덕군 축산면 축산항5길,36.5101752,129.4474645
축서사(봉화),경북 봉화군,경상북도 봉화군 물야면 월계길 739,36.981546,128.8001343
춘양목송이마을,경북 봉화군,경상북도 봉화군 춘양면 골마길 3,37.0081712,128.8328481
춘천서원,경북 김천시,경상북도 김천시 부항면 부항로 1453-12,36.0080133,127.9372346
충의당,경북 경주시,경상북도 경주시 내남면 이조3길 28-17,35.7528551,129.1960597
충절사·상의재,경북 문경시,경상북도 문경시 산양면 의산길 20-13,36.6400772,128.3035679
치산계곡,경북 영천시,경상북도 영천시 신녕면 치산리,36.0366643,128.7141485
칠곡 가산산성 및 가산바위,경북 칠곡군,경상북도 칠곡군 가산면 가산리,36.0496141,128.5875439
칠곡 송정자연휴양림,경북 칠곡군,경상북도 칠곡군 석적읍 반계3길 88,36.0233383,128.4413803
칠포해수욕장,경북 포항시,경상북도 포항시 북구 흥해읍 해안로,36.126307,129.4050794
"코끼리바위 (울릉도, 독도 국가지질공원)",경북 울릉도,경상북도 울릉군 북면 현포리,37.5297841,130.8392169
타양서원,경북 안동시,경상북도 안동시 일직면 조탑본길 55-11,36.4836688,128.6343315
탁청정종가,경북 안동시,경상북도 안동시 와룡면 군자리길 33-6,36.6735063,128.8030975
태하마을,경북 울릉도,경상북도 울릉군 서면 태하길,37.5165043,130.7991742
태하향목 관광모노레일,경북 울릉도,경상북도 울릉군 서면 태하길 236,37.5167755,130.7976894
토함산,경북 경주시,경상북도 경주시 마동,35.7888162,129.3211349
토함산자연휴양림,경북 경주시,경상북도 경주시 양북면 불국로 1208-45,35.7586672,129.3677535
통구미마을,경북 울릉도,경상북도 울릉군 서면 통구미1길,37.4684006,130.856468
통구미몽돌해변,경북 울릉도,경상북도 울릉군 서면 울릉순환로,37.480499,130.8326912
통일전(경주),경북 경주시,경상북도 경주시 칠불암길 6,35.7982295,129.2394614
퇴계오솔길,경북 안동시,경상북도 안동시 도산면 가송길 162-133,36.7639225,128.8850127
퇴계종택,경북 안동시,경상북도 안동시 도산면 백운로 268,36.7368461,128.8485053
퇴계태실,경북 안동시,경상북도 안동시 도산면 온혜중마길 46-5,36.7497784,128.8284848
팔각산,경북 영덕군,경상북도 영덕군 달산면 팔각산로,36.3671667,129.2859491
팔공산도립공원(갓바위지구),경북 경산시,경상북도 경산시 와촌면,35.9463541,128.8365247
팔공산도립공원(군위군),경북 군위군,경북 군위군 부계면 남산리,36.0278479,128.6441423
팔공산도립공원(은해사지구),경북 영천시,경상북도 영천시 청통면 거조길,36.0139255,128.7775678
평해사구습지 생태공원,경북 울진군,경상북도 울진군 평해읍 월송리 319-2,36.740373,129.4711524
평해향교,경북 울진군,경상북도 울진군 평해읍 평해로 82-28,36.7286533,129.4419075
포스코 역사관,경북 포항시,경상북도 포항시 남구 동해안로6213번길 14,35.997188,129.3870078
포은정몽주유허비,경북 영천시,경상북도 영천시 임고면 우항리 1044-5,36.0062363,128.9855161
포천계곡,경북 성주군,경상북도 성주군 가천면 화죽리,35.8711762,128.1627028
포항 냉수리 신라비와 영일냉수리고분,경북 포항시,경상북도 포항시 북구 신광면 토성리 342-1 (포항 냉수리),36.1298742,129.2630721
포항 달전재사와 하학재,경북 포항시,경상북도 포항시 남구 연일읍 새마을로766번길 59,36.0419049,129.2889001
포항 덕동문화마을,경북 포항시,경상북도 포항시 북구 기북면 오덕리,36.1633617,129.17795
포항 독수리바위,경북 포항시,경상북도 포항시 남구 호미곶면 구만길 226,36.0848105,129.5571851
포항 마북리 느티나무,경북 포항시,경상북도 포항시 북구 신광면 마북리 90,36.1842919,129.254225
포항 발산리 모감주나무와 병아리꽃나무군락,경북 포항시,경상북도 포항시 남구 동해면 호미로2122번길 64,36.047364,129.5179029
포항 분옥정,경북 포항시,경상북도 포항시 북구 기계면 봉계길 146,36.0690674,129.1681601
포항 장기 유배문화 체험관,경북 포항시,경상북도 포항시 남구 장기면 장기로 452,35.9167878,129.485058
포항 장기읍성,경북 포항시,경상북도 포항시 남구 장기면 읍내리 202,35.8966718,129.4879899
포항 초롱구비마을,경북 포항시,경상북도 포항시 남구 장기면 초롱구비길 146,35.8806761,129.4590984
포항 흥해향교 대성전,경북 포항시,경상북도 포항시 북구 흥해읍 동해대로1530번길 1-3,36.109403,129.3431693
포항온천,경북 포항시,경상북도 포항시 북구 법원로97번길 44,36.0837549,129.3806963
포항운하,경북 포항시,경상북도 포항시 남구 희망대로 1040,36.0265955,129.3811149
포항크루즈,경북 포항시,경상북도 포항시 남구 희망대로 1040,36.0265955,129.3811149
풍기인견 홍보전시관,경북 영주시,경상북도 영주시 봉현면 신재로 846,36.862906,128.5307239
풍기향교,경북 영주시,경상북도 영주시 풍기읍 금계로 104,36.8810853,128.5260664
하로서원,경북 김천시,경상북도 김천시 하리안길 19-6,36.0951273,128.1089259
하선대,경북 포항시,경상북도 포항시 남구 동해면 호미로2628번길 79,36.0161214,129.4840934
하양포교당(경산),경북 경산시,경상북도 경산시 하양읍 도리3길 12,35.9184957,128.8175262
하양향교,경북 경산시,경상북도 경산시 하양읍 교리길20길 12-5,35.9289144,128.8139809
하옥계곡,경북 포항시,경상북도 포항시 북구 죽장면,36.1601899,129.0957447
하저해수욕장,경북 영덕군,경상북도 영덕군 강구면 하저리,36.3963032,129.40077
하회 겸암정사,경북 안동시,경상북도 안동시 풍천면 풍일로 181,36.5230563,128.532246
학가산자연휴양림,경북 예천군,경상북도 예천군 보문면 휴양림길 210,36.6769048,128.5932618
학남서원,경북 청도군,경상북도 청도군 각남면 구곡길 125-1,35.6394354,128.6794516
학삼서원,경북 포항시,경상북도 포항시 남구 장기면 학삼길 51-3,35.9249696,129.4929885
학소대,경북 군위군,경상북도 군위군 고로면 화북리,36.1201351,128.7781047
한광사,경북 영천시,경상북도 영천시 신녕면 권응수길 126,36.0840653,128.7663415
한국수력원자력 본사 홍보관,경북 경주시,경상북도 경주시 양북면 불국로 1655,35.7945883,129.3907115
한국역사문화음식학교 라선재,경북 경주시,경상북도 경주시 보문로 424-33,35.8427957,129.285767
한국한의약진흥원,경북 경산시,경상북도 경산시 화랑로 94,35.8228875,128.767027
한밤실농촌체험마을,경북 영주시,경상북도 영주시 부석면 임곡리,37.0119986,128.6501354
한천사(예천),경북 예천군,경상북도 예천군 감천면 한천사길 142,36.7480013,128.515939
한티 순교성지,경북 칠곡군,경상북도 칠곡군 동명면 한티로1길 69,36.0166709,128.6303265
한화리조트 백암온천,경북 울진군,경상북도 울진군 온정면 온천로 129-13,36.7226016,129.3382669
함창향교,경북 상주시,경상북도 상주시 함창읍 무운로 1557-4,36.5763421,128.1558808
항일의병기념공원,경북 청송군,경상북도 청송군 주왕산면 청송로 4123,36.3677465,129.0734969
해뜨는농장,경북 청송군,경상북도 청송군 부동면 주왕산로 494,36.3617275,129.1573351
해봉사(포항),경북 포항시,경상북도 포항시 남구 호미곶면 명월길 304-16,36.0314369,129.5541333
해운사(구미),경북 구미시,경상북도 구미시 금오산로 434-1,36.1061823,128.2987807
해파랑공원,경북 영덕군,경상북도 영덕군 강구면 영덕대게로 132,36.3674916,129.3924393
행계서원,경북 봉화군,경상북도 봉화군 물야면 상황산길 6-62,36.9334478,128.6719747
행남 해안산책로,경북 울릉도,경상북도 울릉군 울릉읍 도동리,37.4928902,130.8985922
허씨비단직물,경북 상주시,경상북도 상주시 함창읍 어풍로 19,36.5635369,128.1841255
현대제철 포항공장,경북 포항시,경상북도 포항시 남구 동해안로 6363,36.0042173,129.3765463
현비암,경북 청송군,경상북도 청송군 청송읍 금곡리 1056-1,36.4185437,129.0669489
현암서원,경북 구미시,경상북도 구미시 수출대로23길 38,36.1135316,128.4213839
혜광사(경산),경북 경산시,경상북도 경산시 장산로24길 7,35.8176911,128.7378619
혜국사,경북 문경시,경상북도 문경시 문경읍 새재로 1052-220,36.756555,128.0871107
호계서원,경북 안동시,경상북도 안동시 임하면 호계길 183,36.5354674,128.8783139
호미곶 등대,경북 포항시,경상북도 포항시 남구 호미곶면 호미곶길 99,36.077311,129.569238
호미곶 해맞이광장,경북 포항시,경상북도 포항시 남구 호미곶면 해맞이로150번길 20,36.077694,129.5685015
호미곶 해수탕,경북 포항시,경상북도 포항시 남구 호미곶면 호미곶길 163,36.0786457,129.5642874
호미곶 해안단구 (경북 동해안 국가지질공원),경북 포항시,경상북도 포항시 남구 호미곶면 해맞이로 136,36.076405,129.5672781
홍제암(봉화),경북 봉화군,경상북도 봉화군 소천면 홍점길 295-85,36.9995265,129.017814
화계서원,경북 군위군,경상북도 군위군 의흥면 금양3길 16-3,36.138031,128.7445606
화기리인동장씨종택,경북 영주시,경상북도 영주시 장수면 화계길 71,36.7693131,128.5751868
화랑마을,경북 경주시,경상북도 경주시 석현로 123,35.8616104,129.1781066
화산산성,경북 군위군,경상북도 군위군 고로면 화북리,36.1201351,128.7781047
화산서원(칠곡),경북 칠곡군,경상북도 칠곡군 석적읍 성곡2길 81-5,36.0739267,128.4316319
화진해수욕장,경북 포항시,경상북도 포항시 북구 송라면 동해대로3218번길,36.2512392,129.3720075
화천서원,경북 안동시,경상북도 안동시 풍천면 광덕솔밭길 72,36.5445599,128.5180542
환성사(경산),경북 경산시,경상북도 경산시 하양읍 환성로 392-30,35.9362655,128.7660162
환호공원,경북 포항시,경상북도 포항시 북구 환호공원길 30,36.0673906,129.3920669
활기찬예천 활체험센터,경북 예천군,경상북도 예천군 예천읍 양궁장길 38,36.6343278,128.468653
황금소마을(농촌체험마을),경북 상주시,경상북도 상주시 이안면 양범안룡길 89,36.5815682,128.141541
황령사(상주),경북 상주시,경상북도 상주시 은척면 성주로 225,36.5385919,128.0184211
황성공원,경북 경주시,경상북도 경주시 용담로 79-41,35.8579253,129.2121561
황악산,경북 김천시,경상북도 김천시 대항면 직지사길,36.1170395,128.004481
황장산,경북 문경시,경상북도 문경시 동로면,36.7733674,128.3149684
회룡포,경북 예천군,경상북도 예천군 용궁면 회룡길 92-16,36.5854169,128.3176589
회룡포여울마을,경북 예천군,경상북도 예천군 용궁면 용개로 357,36.5898253,128.3113158
회연서원,경북 성주군,경상북도 성주군 수륜면 동강한강로 9,35.8550665,128.192841
효곡서원,경북 상주시,경상북도 상주시 공성면 용신2길 51-23,36.3182015,128.067223
후산정사,경북 의성군,경상북도 의성군 점곡면 점곡길 15-8,36.4262005,128.7616396
후정해수욕장,경북 울진군,경상북도 울진군 죽변면 후정2길 67,37.0694053,129.4158632
후포 등대,경북 울진군,경상북도 울진군 후포면 울진대게로,36.6803628,129.4566082
후포해수욕장,경북 울진군,경상북도 울진군 후포면 삼율리,36.6882684,129.4292436
훈령서원,경북 청도군,경상북도 청도군 이서면 신촌길 110-27,35.6997423,128.6810524
흑석사(영주),경북 영주시,경상북도 영주시 이산면 이산로 390-40,36.8230469,128.6717469
흥암서원,경북 상주시,경상북도 상주시 연원1길 34,36.4179534,128.1368389
흥해 이팝나무군락지,경북 포항시,경상북도 포항시 북구 흥해읍 동해대로 1525,36.1090086,129.3407248
흥해향교,경북 포항시,경상북도 포항시 북구 흥해읍 동해대로1530번길 1-3,36.109403,129.3431693
흥해향교와 흥해이팝나무군락,경북 포항시,경상북도 포항시 북구 흥해읍 동해대로1530번길 1-3,36.109403,129.3431693
흥환간이해수욕장,경북 포항시,경상북도 포항시 남구 동해면 호미로,36.0144678,129.4825809
희방사(영주),경북 영주시,경상북도 영주시 풍기읍 죽령로1720번길 278,36.9199502,128.457151
희방폭포,경북 영주시,경상북도 영주시 풍기읍 죽령로1720번길 278,36.9199502,128.457151
