name,region,address,Latitude,Longitude
서울식물원,서울 강서구,서울특별시 강서구 마곡동로 161,37.5692443,126.8353781
동대문역사문화공원,서울 중구,서울특별시 중구 을지로 281,37.5667521,127.0101046
경복궁,서울 종로구,서울특별시 종로구 사직로 161,37.5773616,126.9766844
서울숲,서울 성동구,서울특별시 성동구 뚝섬로 273,37.5431644,127.0418547
남산서울타워,서울 용산구,서울특별시 용산구 남산공원길 105,37.5509473,126.9892965
서울 경교장,서울 종로구,서울특별시 종로구 새문안로 29,37.5683585,126.9674846
북촌한옥마을,서울 종로구,서울특별시 종로구 계동길 37,37.5790313,126.9864082
롯데월드,서울 송파구,서울특별시 송파구 올림픽로 240,37.5112348,127.0980274
낙산공원,서울 종로구,서울특별시 종로구 낙산길 41,37.5807709,127.0064081
삼성산성지,서울 관악구,서울특별시 관악구 호암로 454-16,37.456689,126.9291554
덕수궁,서울 중구,서울특별시 중구 세종대로 99,37.5658705,126.9750079
대림동 차이나타운,서울 영등포구,서울특별시 영등포구 대림동,37.4955091,126.899438
명동,서울 중구,서울특별시 중구 을지로 66,37.5653249,126.9849538
월드컵공원,서울 마포구,서울특별시 마포구 월드컵로 243-60,37.5642503,126.8975812
창덕궁과 후원 [유네스코 세계문화유산],서울 종로구,서울특별시 종로구 율곡로 99,37.5800952,126.9918496
롯데월드타워 서울스카이,서울 송파구,서울특별시 송파구 올림픽로 300,37.5213517,127.1026097
청계천,서울 중구,서울특별시 종로구 창신동,37.5750914,127.0121575
홍대,서울 마포구,서울특별시 마포구 홍익로 20,37.5543308,126.9227687
동대문디자인플라자(DDP),서울 중구,서울특별시 중구 을지로 281,37.5667521,127.0101046
세빛섬,서울 서초구,서울특별시 서초구 올림픽대로 683,37.5117125,126.994887
서울로 7017,서울 중구,서울특별시 중구 한강대로 405,37.555042,126.9695336
올림픽공원,서울 송파구,서울특별시 송파구 올림픽로 424,37.5217853,127.1165203
이랜드크루즈 (한강유람선),서울 영등포구,서울특별시 영등포구 여의동로 290,37.5287832,126.9357239
놀이똥산,서울 종로구,서울특별시 종로구 인사동5길 41,37.5718136,126.9841571
서울 몽촌토성,서울 송파구,서울특별시 송파구 올림픽로 424,37.5217853,127.1165203
창경궁,서울 종로구,서울특별시 종로구 창경궁로 185,37.5802443,126.9946543
레일크루즈 해랑열차,서울 용산구,서울특별시 용산구 한강대로 405,37.5490645,126.9704658
용마폭포공원,서울 중랑구,서울특별시 중랑구 용마산로 250-12,37.5733026,127.0891138
인사동,서울 종로구,서울특별시 종로구 인사동길 62,37.5753975,126.9834891
송파나루공원(석촌호수),서울 송파구,서울특별시 송파구 삼학사로 136,37.5092404,127.0991543
북정마을,서울 성북구,서울특별시 성북구 성북로23길 132-3,37.5927742,126.990972
평화열차 DMZ 트레인,서울 용산구,서울특별시 용산구 한강대로23길 55,37.5288539,126.9640447
북악스카이 팔각정,서울 종로구,서울특별시 종로구 북악산로 267,37.6019354,126.9805359
아차산,서울 광진구,서울특별시 광진구 영화사로 135,37.5537434,127.1003595
서래마을,서울 서초구,서울특별시 서초구 반포동,37.5031833,127.0079167
양천향교,서울 강서구,서울특별시 강서구 양천로47나길 53,37.5729567,126.8398344
종묘 [유네스코 세계문화유산],서울 종로구,서울특별시 종로구 종로 157,37.5729316,126.9943518
경희궁,서울 종로구,서울특별시 종로구 새문안로 55,37.5700566,126.9705312
이태원 관광특구,서울 용산구,서울특별시 용산구 이태원로 196,37.5343325,126.9957857
반포한강공원,서울 서초구,서울특별시 서초구 신반포로11길 40,37.5076669,126.9927035
불암산,서울 노원구,서울특별시 노원구 덕릉로130가길 22,37.6715954,127.0862663
남산골한옥마을,서울 중구,서울특별시 중구 퇴계로34길 28,37.5588388,126.9940727
문화역 서울 284,서울 중구,서울특별시 중구 통일로 1,37.5560186,126.9721029
서울함공원,서울 마포구,서울특별시 마포구 마포나루길 407,37.5546098,126.8957099
한강시민공원 여의도지구(여의도한강공원),서울 영등포구,서울특별시 영등포구 여의동로 330,37.5263086,126.9335824
광화문,서울 종로구,서울특별시 종로구 사직로 161,37.5773616,126.9766844
화랑대 철도공원,서울 노원구,서울특별시 노원구 공릉동,37.6304778,127.0901988
반포대교 달빛무지개분수,서울 서초구,서울특별시 서초구 신반포로11길 40,37.5076669,126.9927035
서해금빛열차,서울 용산구,서울특별시 용산구 한강대로23길 55,37.5288539,126.9640447
서대문독립공원,서울 서대문구,서울특별시 서대문구 통일로 251,37.5743009,126.9559178
부암동,서울 종로구,서울특별시 종로구 창의문로 145,37.592465,126.9641238
챔피언1250,서울 용산구,서울특별시 용산구 한강대로21나길 17,37.5288539,126.9640447
서울 동대문 닭한마리 골목,서울 종로구,서울특별시 종로구 종로40가길 14,37.5703116,127.0058656
백사실계곡,서울 종로구,서울 종로구 부암동 115,37.6003837,126.9663265
서촌마을,서울 종로구,서울특별시 종로구 자하문로6길 16,37.578013,126.9729418
롯데월드타워&롯데월드몰,서울 송파구,서울특별시 송파구 올림픽로 300,37.5213517,127.1026097
"서울 구 벨기에영사관(현, 서울시립미술관 남서울생활미술관)",서울 관악구,서울특별시 관악구 남부순환로 2076,37.4761313,126.9795938
덕수궁 돌담길,서울 중구,서울특별시 중구 세종대로 지하 101,37.5657037,126.9768616
홍릉수목원,서울 동대문구,서울특별시 동대문구 회기로 57,37.5930966,127.0436563
여의도샛강생태공원,서울 영등포구,서울특별시 영등포구 여의동로 48,37.5187274,126.9218961
서울 선릉(성종과 정현왕후)과 정릉(중종) [유네스코 세계문화유산],서울 강남구,서울특별시 강남구 선릉로100길 1,37.5073294,127.0471528
마포 문화비축기지,서울 마포구,서울특별시 마포구 증산로 87,37.5709869,126.894132
와룡공원,서울 종로구,서울특별시 종로구 와룡공원길 192,37.5897312,126.9871209
북서울 꿈의숲,서울 강북구,서울특별시 강북구 월계로 173,37.6214312,127.0406246
신사동 가로수길,서울 강남구,서울특별시 강남구 신사동,37.524124,127.022883
북한산국립공원(서울),서울 성북구,서울특별시 성북구 보국문로 262,37.6195359,127.000735
남대문 갈치조림골목,서울 중구,서울특별시 중구 남대문시장2가길 7,37.5594863,126.9769403
남산 야외식물원,서울 용산구,서울특별시 용산구 소월로 323,37.5460454,126.9884011
국립4.19민주묘지,서울 강북구,서울특별시 강북구 4.19로8길 17,37.6466891,127.0103331
국립서울현충원,서울 동작구,서울특별시 동작구 현충로 210,37.4996897,126.9785099
봉은사(서울),서울 강남구,서울특별시 강남구 봉은사로 531,37.5152006,127.0574369
남산 케이블카,서울 중구,서울특별시 중구 소파로 83,37.5565908,126.9839744
하늘공원,서울 마포구,서울특별시 마포구 하늘공원로 95,37.5674467,126.885455
서울어린이대공원,서울 광진구,서울특별시 광진구 능동로 216,37.549363,127.0818126
진관사계곡,서울 은평구,서울특별시 은평구 진관길 73,37.6383876,126.946406
한강시민공원 난지지구(난지한강공원),서울 마포구,서울특별시 마포구 한강난지로 162,37.5661708,126.8763463
금선사(서울),서울 종로구,서울특별시 종로구 비봉길 137,37.6205778,126.9533792
남산 팔각정,서울 용산구,서울특별시 용산구 남산공원길 105,37.5509473,126.9892965
길상사(서울),서울 성북구,서울특별시 성북구 선잠로5길 68,37.5991321,126.9942654
영등포 신길동 홍어거리,서울 영등포구,서울특별시 영등포구 신길로 200-20,37.5105186,126.911538
아쿠아플라넷 63,서울 영등포구,서울특별시 영등포구 63로 50,37.5194647,126.9398326
서서울호수공원,서울 양천구,서울특별시 양천구 남부순환로64길 20,37.5303487,126.8267642
몽마르뜨공원,서울 서초구,서울특별시 서초구 반포대로37길 59,37.4955596,127.0024831
서울 운현궁,서울 종로구,서울특별시 종로구 삼일대로 464,37.5761402,126.9869738
연남동 공방거리,서울 마포구,서울특별시 마포구 성미산로28길,37.5627405,126.9232683
북촌 8경,서울 종로구,서울특별시 종로구 계동길 37,37.5790313,126.9864082
서울 애니메이션센터,서울 중구,서울특별시 중구 소공로 48,37.5597724,126.9830438
다이나믹 메이즈 (서울 인사동점),서울 종로구,서울특별시 종로구 인사동길 12,37.574546,126.984979
숭례문,서울 중구,서울특별시 중구 세종대로 40,37.5599416,126.9753042
정동전망대,서울 중구,서울특별시 중구 덕수궁길 15,37.5642629,126.9746757
관악산공원 야외식물원,서울 관악구,서울 관악구 대학동 203번지 일대,37.4585522,126.9472851
용산가족공원,서울 용산구,서울특별시 용산구 서빙고로 185,37.5199816,126.9850321
대원군별장,서울 종로구,서울특별시 종로구 자하문로 309,37.5991812,126.958681
서울창포원,서울 도봉구,서울특별시 도봉구 마들로 916,37.6892727,127.0475814
신촌 플레이버스,서울 서대문구,서울특별시 서대문구 연세로5길 11,37.5583106,126.9334543
63스퀘어,서울 영등포구,서울특별시 영등포구 63로 50,37.5194647,126.9398326
쌈지길,서울 종로구,서울특별시 종로구 인사동길 44,37.5741603,126.9848384
구룡산(서울),서울 서초구,서울특별시 서초구 염곡동,37.463043,127.0544047
자양동 양꼬치거리 (중국음식문화거리),서울 광진구,서울특별시 광진구 자양동,37.5324005,127.0715809
서울풍물시장 전통문화체험관,서울 동대문구,서울특별시 동대문구 천호대로4길 21,37.5730037,127.0256147
광화문광장,서울 종로구,서울특별시 종로구 세종대로 172,37.571619,126.976754
대학로,서울 종로구,서울특별시 종로구 혜화로 12,37.5897083,127.0002449
신당동 떡볶이 골목,서울 중구,서울특별시 중구 다산로33길 10-18,37.5629726,127.0145656
드래곤힐스파(용산),서울 용산구,서울특별시 용산구 한강대로21나길 40,37.5273486,126.9640848
VR스테이션,서울 강남구,서울특별시 강남구 강남대로 364,37.4955366,127.0293521
삼청동길,서울 종로구,서울특별시 종로구 삼청로 107,37.5849659,126.9818441
한강방어백골부대전적비,서울 영등포구,서울특별시 영등포구 양화동,37.5483754,126.8890567
서울 삼각지 대구탕 골목,서울 용산구,서울특별시 용산구 한강대로 182,37.5344149,126.9735061
불국사,서울 강남구,서울특별시 강남구 광평로10길 30-71,37.4774118,127.0749332
한강시민공원 뚝섬지구(뚝섬한강공원),서울 광진구,서울특별시 광진구 강변북로 139,37.5293797,127.0739795
더 스파 인 가든파이브,서울 송파구,서울특별시 송파구 충민로 10,37.4782316,127.1193703
서울 약현성당,서울 중구,서울특별시 중구 청파로 447-1,37.5589521,126.9670169
서울 명동성당,서울 중구,서울특별시 중구 명동길 74,37.5632533,126.9868325
만해한용운심우장,서울 성북구,서울특별시 성북구 성북로29길 24,37.5935497,126.9916716
옥천암(서울),서울 서대문구,서울특별시 서대문구 홍지문길 1-38,37.5969618,126.9540747
관악산,서울 관악구,서울특별시 관악구 관악로,37.4814353,126.9549042
봉원사(서울),서울 서대문구,서울특별시 서대문구 봉원사길 120,37.5718203,126.9475878
서울광장,서울 중구,서울특별시 중구 세종대로 110,37.5663797,126.9777154
성락원(서울),서울 성북구,서울특별시 성북구 선잠로2길 47,37.5965136,126.9993466
삼성 딜라이트,서울 서초구,서울특별시 서초구 서초대로74길 11,37.4966085,127.0269023
탑골공원,서울 종로구,서울특별시 종로구 종로 99,37.5705544,126.9884101
봉화산(서울),서울 중랑구,서울특별시 중랑구 신내로21길,37.6140592,127.0889156
응봉산(서울),서울 성동구,서울특별시 성동구 금호동4가 1540,37.5469884,127.0281829
남산공원(서울),서울 중구,서울특별시 중구 삼일대로 231,37.5555891,126.9922104
피노파밀리아,서울 노원구,서울특별시 노원구 중계로 131-17,37.6464414,127.0804954
동대문 문구완구거리,서울 종로구,서울특별시 종로구 종로52길 36,37.571189,127.0144381
반포 서래섬,서울 서초구,서울특별시 서초구 신반포로11길 40,37.5076669,126.9927035
한강시민공원 이촌지구(이촌한강공원),서울 용산구,서울특별시 용산구 이촌로72길 62,37.5177911,126.9707655
한국전통주연구소,서울 종로구,서울특별시 종로구 자하문로 62,37.5815941,126.9711253
여의천,서울 서초구,서울특별시 서초구 신원동,37.4446745,127.0614206
"서울 의릉(경종,선의왕후) [유네스코 세계문화유산]",서울 성북구,서울특별시 성북구 화랑로32길 146-20,37.6046612,127.0563852
서울 정릉(신덕왕후) [유네스코 세계문화유산],서울 성북구,서울특별시 성북구 아리랑로19길 116,37.6020464,127.0065443
국립민속박물관&국립민속박물관 어린이박물관,서울 종로구,서울특별시 종로구 삼청로 37,37.5794588,126.9787219
키자니아 서울,서울 송파구,서울특별시 송파구 올림픽로 240,37.5112348,127.0980274
사육신공원,서울 동작구,서울특별시 동작구 노량진로 191,37.5136948,126.9488514
홍대 벽화거리,서울 마포구,서울특별시 마포구 상수동,37.5454728,126.9244174
한강시민공원 잠실지구(잠실한강공원),서울 송파구,서울특별시 송파구 한가람로 65,37.5175896,127.0867236
북악산 숙정문,서울 성북구,서울특별시 성북구 대사관로 1,37.5961577,126.9848861
백련사(서울),서울 서대문구,서울특별시 서대문구 백련사길 170-43,37.5861934,126.9273572
키즈오토파크,서울 광진구,서울특별시 광진구 능동로 216,37.549363,127.0818126
서울 정동교회,서울 중구,서울특별시 중구 정동길 46,37.5652468,126.97249
마포대교 야경,서울 마포구,서울특별시 마포구 마포동,37.5368623,126.9435802
양재동 화훼공판장 (꽃문화체험관),서울 서초구,서울특별시 서초구 강남대로 27,37.4786708,127.0366274
보라매안전체험관,서울 동작구,서울특별시 동작구 여의대방로20길 33,37.4932342,126.9197115
여의도공원,서울 영등포구,서울특별시 영등포구 여의공원로 120,37.5268082,126.9223229
팹랩 서울,서울 종로구,서울특별시 종로구 청계천로 159,37.569243,126.9952266
SK텔레콤 New ICT체험관 T.um,서울 중구,서울특별시 중구 을지로 65,37.566448,126.985114
도봉산,서울 도봉구,서울특별시 도봉구 도봉산길,37.6879391,127.0336271
삼청공원,서울 종로구,서울특별시 종로구 북촌로 134-3,37.5893704,126.9803132
강남 시티투어 - 트롤리버스,서울 강남구,서울특별시 강남구 압구정로 161,37.5270213,127.0357939
서울 구 러시아공사관,서울 중구,서울특별시 중구 정동길 21-18,37.5676277,126.9714985
서울 태릉(문정왕후)과 강릉(인순왕후) [유네스코 세계문화유산],서울 노원구,서울특별시 노원구 화랑로 681,37.6376541,127.1048077
조계사(서울),서울 종로구,서울특별시 종로구 우정국로 55,37.5737854,126.9818967
상허이태준가옥(수연산방),서울 성북구,서울특별시 성북구 성북로26길 8,37.5950128,126.9948259
온수공원,서울 구로구,서울특별시 구로구 오류동,37.4901258,126.8385254
양재 시민의숲,서울 서초구,서울특별시 서초구 매헌로 99,37.4712172,127.0367358
북한산국립공원,서울 성북구,서울특별시 성북구 보국문로 176-11,37.6195359,127.000735
청와대 앞길,서울 종로구,서울특별시 종로구 궁정동,37.5850029,126.9732194
백범김구선생상(백범 광장),서울 중구,서울특별시 중구 회현동,37.5572302,126.9793303
삼해소주가,서울 종로구,서울특별시 종로구 창덕궁길 142,37.583241,126.9879962
압구정 로데오거리,서울 강남구,서울특별시 강남구 압구정동,37.531684,127.0302926
이태원 앤틱 가구 거리,서울 용산구,서울특별시 용산구 보광로 109-1,37.5325765,126.9944278
세종대왕 동상,서울 종로구,서울특별시 종로구 세종대로 175,37.5721241,126.9760848
서울 영휘원(순헌황귀비)과 숭인원(이진),서울 동대문구,서울특별시 동대문구 홍릉길 90,37.5851358,127.045082
답십리 고미술상가,서울 동대문구,서울특별시 동대문구 고미술로 99,37.5641569,127.0577532
실로암사우나찜질방,서울 중구,서울특별시 중구 중림로 49,37.557665,126.9686146
템플스테이 홍보관,서울 종로구,서울특별시 종로구 우정국로 56,37.5738938,126.9831801
수도박물관,서울 성동구,서울특별시 성동구 왕십리로 27,37.5397059,127.0420438
사직공원(서울),서울 종로구,서울특별시 종로구 사직로9길 12,37.57676,126.9681294
서울역,서울 용산구,서울특별시 용산구 한강대로 405,37.5490645,126.9704658
능인선원,서울 강남구,서울특별시 강남구 양재대로 340,37.4716355,127.0524764
수국사(서울),서울 은평구,서울특별시 은평구 서오릉로23길 8-5,37.616085,126.9051847
성동4차산업혁명체험센터,서울 성동구,서울특별시 성동구 살곶이길 327,37.55462,127.0405238
한강시민공원 양화지구(양화한강공원),서울 영등포구,서울특별시 영등포구 노들로 221,37.5382898,126.9022328
서울 석촌동 고분군,서울 송파구,서울특별시 송파구 가락로11길 19-5,37.5019414,127.1038372
승동교회,서울 종로구,서울특별시 종로구 인사동길 7-1,37.5712897,126.9862143
브이알존 엑스 코엑스 직영점,서울 강남구,서울특별시 강남구 봉은사로 524,37.5101935,127.0585824
서울 신림동 민속순대타운,서울 관악구,서울특별시 관악구 신림로59길 14,37.4832519,126.9287583
청와대,서울 종로구,서울특별시 종로구 효자로13길 45,37.5823713,126.9730483
응암동 감자국 거리,서울 은평구,서울특별시 은평구 응암로 172,37.5871871,126.9166861
용왕정,서울 양천구,서울특별시 양천구 목동,37.5370192,126.8735297
암사생태공원,서울 강동구,서울특별시 강동구 선사로 83-66,37.5499281,127.122235
파리공원,서울 양천구,서울특별시 양천구 목동동로 363,37.5344362,126.8771392
창의문(자하문),서울 종로구,서울특별시 종로구 창의문로 118,37.592565,126.9664811
정몽주 동상,서울 마포구,서울특별시 마포구 합정동,37.5463089,126.9101219
충무공 이순신 동상,서울 종로구,서울특별시 종로구 세종대로 175,37.5721241,126.9760848
환구단,서울 중구,서울특별시 중구 소공로 112,37.5644064,126.9796971
종로 청계 관광특구,서울 종로구,서울특별시 종로구 율곡로 99,37.5800952,126.9918496
독립문,서울 서대문구,서울특별시 서대문구 통일로 251,37.5743009,126.9559178
보라매공원,서울 동작구,서울특별시 동작구 여의대방로20길 33,37.4932342,126.9197115
자매공원(앙카라공원),서울 영등포구,서울특별시 영등포구 의사당대로 지하 166,37.5169088,126.9288823
강남,서울 강남구,서울특별시 강남구 역삼동,37.4999072,127.0373932
서울 종로 낙지볶음 골목,서울 종로구,서울특별시 종로구 종로 19,37.5708033,126.9798544
중명전,서울 중구,서울특별시 중구 정동길 41-11,37.5666833,126.9725246
서소문역사공원,서울 중구,서울특별시 중구 칠패로 5,37.5606422,126.9690479
청계산,서울 서초구,서울특별시 서초구 원터길,37.4421811,127.056286
한강시민공원 망원지구(망원한강공원),서울 마포구,서울특별시 마포구 마포나루길 467,37.5524957,126.8994475
서울 효창공원,서울 용산구,서울특별시 용산구 효창원로 177-18,37.5447965,126.9626631
장충동 족발 골목,서울 중구,서울특별시 중구 장충단로 176,37.5604577,127.0058427
약사사(서울),서울 강서구,서울특별시 강서구 금낭화로17길 261,37.5829837,126.8053645
한강시민공원 잠원지구(잠원한강공원),서울 서초구,서울특별시 서초구 잠원로 221-124,37.5206865,127.0122724
공덕동 족발 골목,서울 마포구,서울특별시 마포구 임정로21길 12-4,37.5456575,126.9578044
덕수궁 대한문,서울 중구,서울특별시 중구 세종대로 99,37.5658705,126.9750079
윌리엄해밀턴쇼 동상,서울 은평구,서울특별시 은평구 응암로 376,37.6044835,126.9232067
크라운해태 키즈뮤지엄,서울 용산구,서울특별시 용산구 한강대로72길 3,37.5406719,126.9736296
무중력지대 양천,서울 양천구,서울특별시 양천구 오목로 359,37.5245067,126.862375
도산공원,서울 강남구,서울특별시 강남구 도산대로45길 20,37.5239121,127.0355914
KT스퀘어,서울 종로구,서울특별시 종로구 세종대로 178,37.5721178,126.9779584
창덕궁 인정문,서울 종로구,서울특별시 종로구 율곡로 99,37.5800952,126.9918496
이음피움봉제역사관,서울 종로구,서울특별시 종로구 창신4가길 26,37.5748709,127.0102586
수락산,서울 노원구,서울특별시 노원구 상계동 산1-1,37.6859801,127.0743568
인왕사(서울),서울 종로구,서울특별시 종로구 통일로18가길 16-1,37.5786473,126.9597697
아차산생태공원,서울 광진구,서울특별시 광진구 영화사로 145,37.5515902,127.1005257
명동 남대문 북창동 다동무교동 관광특구,서울 중구,서울특별시 중구 세종대로 40,37.5599416,126.9753042
"서울 헌릉(태종,원경왕후)과 인릉(순조,순원왕후) [유네스코 세계문화유산]",서울 서초구,서울특별시 서초구 헌인릉길 36-10,37.4651454,127.0826446
서울 문묘와 성균관,서울 종로구,서울 종로구 성균관로 31,37.5858822,126.9960481
금천예술공장,서울 금천구,서울특별시 금천구 범안로15길 57,37.4688435,126.8917602
경희궁 숭정전,서울 중구,서울특별시 종로구 새문안로 45,37.5712077,126.9687336
대모산공원,서울 강남구,서울특별시 강남구 광평로10길 50,37.4805253,127.0824996
예지원,서울 중구,서울특별시 중구 장충단로 72,37.5525546,127.0030594
남산서울타워 한복문화체험관,서울 용산구,서울특별시 용산구 남산공원길 105,37.5509473,126.9892965
청계천 버들습지,서울 동대문구,서울 동대문구 용두동,37.5757009,127.034989
강서습지생태공원,서울 강서구,서울특별시 강서구 양천로27길 279-23,37.5859954,126.8171323
서울 풍납동 토성,서울 송파구,서울특별시 송파구 풍납동,37.5327384,127.1134887
최순우 옛집,서울 성북구,서울특별시 성북구 성북로15길 9,37.5928953,127.0003282
강남 마이스 관광특구,서울 강남구,서울특별시 강남구 영동대로 513,37.5101935,127.0585824
살곶이체육공원,서울 성동구,서울특별시 성동구 사근동길 16-18,37.5601502,127.0431109
관악산 호수공원,서울 관악구,서울특별시 관악구 대학동,37.470546,126.9368929
강변스파랜드,서울 광진구,서울특별시 광진구 구의강변로 45,37.5348617,127.0912641
서울 암사동 유적,서울 강동구,서울특별시 강동구 올림픽로 875,37.5605739,127.1308674
미타사(성동),서울 성동구,서울특별시 성동구 독서당로40길 21,37.5440479,127.0176834
용마산,서울 중랑구,서울특별시 중랑구 용마산로62길 53,37.5781498,127.0948038
국제음식문화거리(INTERNATIONAL FOOD STREET),서울 구로구,서울특별시 구로구 새말로 102,37.5055924,126.8913665
상수동 카페거리,서울 마포구,서울특별시 마포구 상수동,37.5454728,126.9244174
관악산 낙성대공원,서울 관악구,서울특별시 관악구 낙성대로 77,37.4713573,126.9597266
국회의사당,서울 영등포구,서울특별시 영등포구 의사당대로 1,37.5197489,126.9297194
천도교중앙대교당,서울 종로구,서울특별시 종로구 삼일대로 457,37.5752153,126.9857682
인왕산,서울 종로구,서울특별시 종로구 인왕산로1길 29,37.5735323,126.9640974
"아리수 정수센터 (암사,뚝섬,영등포)",서울 강동구,서울특별시 강동구 아리수로 131,37.5634189,127.1413985
대한성공회 서울주교좌성당,서울 중구,서울특별시 중구 세종대로21길 15,37.5672919,126.9754729
오동근린공원,서울 강북구,서울특별시 강북구 덕릉로42길 49,37.6328736,127.0320437
청량사(서울),서울 동대문구,서울특별시 동대문구 제기로31길 10-3,37.5880864,127.0472701
자생식물학습장,서울 종로구,서울특별시 종로구 창경궁로 185,37.5802443,126.9946543
파크하비오 워터킹덤&스파,서울 송파구,서울특별시 송파구 송파대로 111,37.4856859,127.1193237
관악산 생태공원,서울 관악구,서울특별시 관악구 신림로18가길 10,37.4718378,126.9358751
흥인지문,서울 종로구,서울특별시 종로구 종로 288,37.5711295,127.0096878
구암공원,서울 강서구,서울특별시 강서구 허준로5길 42,37.5688397,126.851018
명동관광정보센터,서울 중구,서울특별시 중구 을지로 66,37.5653249,126.9849538
디지털 파빌리온,서울 마포구,서울특별시 마포구 월드컵북로 396,37.5791192,126.8902941
서울 신림동 굴참나무,서울 관악구,서울특별시 관악구 난곡로35길 28-7,37.4708047,126.9169775
길동생태공원,서울 강동구,서울특별시 강동구 천호대로 1291,37.5389424,127.1533138
묘각사(서울),서울 종로구,서울특별시 종로구 종로63가길 31,37.5754815,127.0187537
광흥당,서울 마포구,서울특별시 마포구 독막로21길 15,37.5486062,126.9286702
스파레이,서울 서초구,서울특별시 서초구 강남대로107길 5,37.5179489,127.0181942
수락산 당고개지구 공원,서울 노원구,서울특별시 노원구 상계로 273,37.6645066,127.0737934
육군사관학교,서울 노원구,서울특별시 노원구 화랑로 574,37.6280159,127.10198
홍지문 및 탕춘대성,서울 종로구,서울특별시 종로구 홍지동,37.601247,126.9562041
광진교 8번가,서울 강동구,서울특별시 강동구 구천면로 77,37.5432728,127.1232147
오금공원,서울 송파구,서울특별시 송파구 오금로 363,37.5010097,127.134043
서울 신림동 굴참나무,서울 관악구,서울특별시 송파구 오금로 363,37.5010097,127.134043
서울 남현동 요지,서울 관악구,서울특별시 관악구 남현3길 60,37.4750266,126.9798044
갈산근린공원,서울 양천구,서울특별시 양천구 신정동,37.5166014,126.8638714
송암사,서울 노원구,서울특별시 노원구 덕릉로145길 101,37.6838446,127.0854407
한강시민공원 광나루지구(광나루한강공원),서울 강동구,서울특별시 강동구 선사로 83-66,37.5499281,127.122235
구로공단 노동자생활체험관,서울 금천구,서울특별시 금천구 벚꽃로44길 17,37.482761,126.8836218
황금온천,서울 서초구,서울특별시 서초구 사임당로 143,37.4918146,127.0252252
전통염료식물원,서울 용산구,서울특별시 용산구 서빙고로 137,37.5246635,126.9777271
서울색공원,서울 영등포구,서울특별시 영등포구 여의동로 330,37.5263086,126.9335824
음식문화특화거리(깔깔거리),서울 구로구,서울특별시 구로구 시흥대로 577-2,37.4846836,126.9024444
아차산성,서울 광진구,서울특별시 광진구 광장동,37.5478086,127.1052825
미타사(강서),서울 강서구,서울특별시 강서구 개화동로13길 56-33,37.5805057,126.8031285
창경궁 홍화문,서울 종로구,서울특별시 종로구 율곡로 99,37.5800952,126.9918496
DMC 홍보관,서울 마포구,서울특별시 마포구 월드컵북로 366,37.5777446,126.8921565
사가정공원,서울 중랑구,서울특별시 중랑구 사가정로72길 47,37.5792399,127.0959499
경국사(서울),서울 성북구,서울특별시 성북구 보국문로 113-10,37.6146027,127.0045638
마포전차종점 3·1운동 만세 시위지,서울 마포구,서울특별시 마포구 마포대로 20,37.5383875,126.9449745
광희문,서울 중구,서울특별시 중구 퇴계로 344,37.5643088,127.0097158
이탈리아의무부대 6.25전쟁 참전기념비,서울 영등포구,서울특별시 영등포구 신길로 190,37.509564,126.9118923
진관사(서울),서울 은평구,서울특별시 은평구 진관길 73,37.6383876,126.946406
방이동 생태경관 보전지역,서울 송파구,서울특별시 송파구 동남로 397,37.5115439,127.1398281
청담패션거리,서울 강남구,서울특별시 강남구 청담동,37.5231998,127.0486655
보신각 터,서울 종로구,서울특별시 종로구 종로 54,37.5696848,126.98368
양화진외국인선교사묘원(외인묘지),서울 마포구,서울특별시 마포구 양화진길 46,37.5464592,126.9115418
서울 살곶이 다리,서울 성동구,서울특별시 성동구 성수동,37.5394428,127.0542534
국제선센터,서울 양천구,서울특별시 양천구 목동동로 167,37.5207518,126.8701089
장충단공원,서울 중구,서울특별시 중구 동호로 261,37.5587439,127.0047721
봉화산근린공원,서울 중랑구,서울특별시 중랑구 봉화산로45길,37.6051781,127.0885118
연세로,서울 서대문구,서울특별시 서대문구 연세로 일대,37.5583716,126.9374795
용산성당,서울 용산구,서울특별시 용산구 효창원로15길 37,37.5369121,126.9526194
백인제가옥,서울 종로구,서울특별시 종로구 북촌로7길 16,37.580642,126.9840665
도봉서원,서울 도봉구,서울특별시 도봉구 도봉산길 90,37.6881311,127.0291241
흥천사,서울 성북구,서울특별시 성북구 흥천사길 29,37.5980542,127.0091499
황학정,서울 종로구,서울특별시 종로구 사직로9길 15-32,37.5780479,126.9639534
승가사(서울),서울 종로구,서울특별시 종로구 비봉4길 213,37.6267537,126.9608477
잠실 관광특구,서울 송파구,서울특별시 송파구 올림픽로 240,37.5112348,127.0980274
서울새활용플라자,서울 성동구,서울특별시 성동구 자동차시장길 49,37.5585626,127.0582435
우이동계곡,서울 강북구,서울 강북구 우이동,37.6479697,127.0118806
서울 호암산성(한우물 및 주변산성지),서울 금천구,서울특별시 금천구 시흥동,37.4492857,126.9104662
천호공원,서울 강동구,서울특별시 강동구 올림픽로 702,37.5443685,127.126709
전주이씨광평대군파묘역,서울 강남구,서울특별시 강남구 광평로31길 20,37.4858512,127.0921442
세운상가,서울 종로구,서울특별시 종로구 청계천로 159,37.569243,126.9952266
의열사(용산),서울 용산구,서울특별시 용산구 효창원로 177-18,37.5447965,126.9626631
어린이 감각놀이터 디키디키,서울 중구,서울특별시 중구 을지로 281,37.5667521,127.0101046
마로니에공원,서울 종로구,서울특별시 종로구 대학로 104,37.5804885,127.0024063
세검정 터 (구 세검정),서울 종로구,서울특별시 종로구 세검정로 244,37.6008534,126.9596905
보문사(서울),서울 성북구,서울특별시 성북구 보문사길 20,37.5844589,127.0160872
창덕궁 다래나무,서울 종로구,서울특별시 종로구 율곡로 99,37.5800952,126.9918496
보성사터,서울 종로구,서울특별시 종로구 수송동,37.5739802,126.9804234
당고개순교성지,서울 용산구,서울특별시 용산구 청파로 139-26,37.5340057,126.9668768
도선사(서울),서울 강북구,서울특별시 강북구 삼양로173길 504,37.6554935,126.9897725
장안평 자동차산업 종합정보센터,서울 성동구,서울특별시 성동구 자동차시장3길 64,37.5597188,127.0629024
삼청동오위장김춘영가옥,서울 중구,서울특별시 중구 퇴계로34길 28,37.5588388,126.9940727
낙선재,서울 종로구,서울특별시 종로구 율곡로 99,37.5800952,126.9918496
천간사,서울 은평구,서울특별시 은평구 불광로10길 20-8,37.6173277,126.9343385
새남터기념성당,서울 용산구,서울특별시 용산구 이촌로 80-8,37.5248425,126.9569842
용왕산근린공원,서울 양천구,서울특별시 양천구 목동중앙로 143,37.5411913,126.8755307
맥아더 사령관 한강방어선 시찰지,서울 영등포구,서울특별시 영등포구 신길로 275,37.5157786,126.9122002
명성황후 조난지,서울 종로구,서울특별시 종로구 사직로 161,37.5773616,126.9766844
MBC WORLD(견학홀),서울 마포구,서울특별시 마포구 성암로 267,37.5740931,126.9035854
경의선책거리,서울 마포구,서울특별시 마포구 와우산로35길 50-4,37.5560304,126.9284396
G밸리 패션지원센터,서울 금천구,서울특별시 금천구 디지털로10길 9,37.4773564,126.8891438
JTBC,서울 마포구,서울특별시 마포구 상암산로 48-6,37.577011,126.8900277
청담공원,서울 강남구,서울특별시 강남구 영동대로131길 26,37.5203984,127.0541271
문화철도 959,서울 구로구,서울특별시 구로구 경인로 688,37.4984887,126.8601539
종묘광장공원,서울 종로구,서울특별시 종로구 종로 157,37.5729316,126.9943518
한국가구박물관,서울 성북구,서울특별시 성북구 대사관로 121,37.6001521,126.9934261
"서울교통공사 차량기지 (고덕, 방화, 수서, 군자, 신정, 신내, 천왕, 창동)",서울 성동구,서울특별시 성동구 천호대로 346,37.5625461,127.0572234
망원정지,서울 마포구,서울특별시 마포구 동교로8안길 23,37.5497388,126.9046112
초안산,서울 노원구,서울특별시 노원구 월계동,37.6277451,127.0568215
서울 고려대학교 본관,서울 성북구,서울특별시 성북구 안암로 145,37.5900117,127.0318586
신천 어린이교통공원,서울 송파구,서울특별시 송파구 올림픽로35다길 33,37.5213517,127.1026097
중앙고등학교,서울 종로구,서울특별시 종로구 창덕궁길 164,37.584897,126.9870352
도안사,서울 노원구,서울특별시 노원구 덕릉로145길 99,37.6838446,127.0854407
성덕사,서울 중랑구,서울특별시 중랑구 봉화산로 109-8,37.6034853,127.0867357
민영환 자결터,서울 종로구,서울특별시 종로구 공평동,37.5711946,126.9830812
북한산국립공원(도봉 지구),서울 강북구,서울특별시 도봉구 도봉산길 86,37.6874789,127.0340839
VRZONE 용산 아이파크몰점,서울 용산구,서울특별시 용산구 한강대로23길 55,37.5288539,126.9640447
아현동 전골목,서울 마포구,서울특별시 마포구 굴레방로9길 17,37.5566634,126.9547164
구암서원 터(구암정),서울 강동구,서울특별시 강동구 암사동,37.558248,127.1304539
산마루놀이터,서울 종로구,서울특별시 종로구 창신동,37.5750914,127.0121575
고촌홀(제약박물관),서울 서대문구,서울 서대문구 충정로 8,37.5597031,126.9631582
VRZONE CINEMA(브이알존 시네마),서울 강남구,서울특별시 강남구 도산대로11길 18,37.5185926,127.0226869
연화사(서울),서울 동대문구,서울특별시 동대문구 경희대로3길 56,37.5941978,127.0504829
망우산(서울),서울 중랑구,서울특별시 중랑구 망우동 산 69-1,37.5958179,127.1032459
아시아공원,서울 송파구,서울특별시 송파구 올림픽로 44,37.510097,127.0760185
고덕동 생태경관 보전지역,서울 강동구,서울특별시 강동구 고덕동 396번지 일대,37.5670116,127.1497633
관문사(서울),서울 서초구,서울특별시 서초구 바우뫼로7길 111,37.4737124,127.0222722
대성사(서울),서울 서초구,서울특별시 서초구 남부순환로328길 49,37.4760556,127.0134378
우이동 먹거리마을,서울 강북구,서울특별시 강북구 삼양로181길 101,37.6678975,127.0084045
홍파동 홍난파 가옥,서울 종로구,서울특별시 종로구 송월1길 38,37.5716425,126.9650892
극락사(서울),서울 중랑구,서울특별시 중랑구 망우로91길 98,37.604637,127.1132219
영화사(서울),서울 광진구,서울특별시 광진구 영화사로 107,37.5542997,127.0982851
아리수나라,서울 광진구,서울특별시 광진구 능동로 216,37.549363,127.0818126
헌인릉 생태경관보전지역(오리나무림),서울 서초구,서울특별시 서초구 헌인릉길 34,37.464314,127.0823315
일자산자연공원,서울 강동구,서울특별시 강동구 동남로 660,37.5330568,127.151191
소림사(서울),서울 종로구,서울특별시 종로구 세검정로 241-3,37.601441,126.9587877
궁동저수지 생태공원,서울 구로구,서울특별시 구로구 궁동,37.5003075,126.8289067
대한제국군 서울시가 전투지,서울 중구,서울특별시 중구 세종대로 39,37.5606707,126.9737639
서울생활사박물관,서울 노원구,서울특별시 노원구 동일로174길 27,37.619671,127.0767099
달마사(서울),서울 동작구,서울특별시 동작구 서달로 50-26,37.4984254,126.9622588
서울 방이동 고분군,서울 송파구,서울특별시 송파구 오금로 219,37.507454,127.1184446
아차산봉수대터,서울 중랑구,서울특별시 중랑구 신내동,37.6103313,127.0960772
경희궁 흥화문,서울 종로구,서울특별시 종로구 새문안로 55,37.5700566,126.9705312
서울 연세대학교 언더우드관,서울 서대문구,서울특별시 서대문구 연세로 50,37.564089,126.9389809
서빙고동 부군당,서울 용산구,서울특별시 용산구 서빙고로59길 3-6,37.5204287,126.9931655
오휘스파논현,서울 강남구,서울특별시 강남구 학동로21길 52,37.5163031,127.0262936
백련사(서울),서울 강북구,서울특별시 강북구 4.19로20길 142,37.4861813,126.996234
영등포공원,서울 영등포구,서울특별시 영등포구 신길로 275,37.5157786,126.9122002
한국유림독립운동파리장서비,서울 중구,서울특별시 중구 동호로 261,37.5587439,127.0047721
신선경과 류인호 묘역,서울 송파구,서울특별시 송파구 동남로 263,37.5010097,127.134043
울라스튜디오,서울 용산구,서울특별시 용산구 한강대로7길 4-7,37.5244416,126.9627154
호국지장사(서울),서울 동작구,서울특별시 동작구 현충로 210,37.4996897,126.9785099
절두산 순교성지,서울 마포구,서울특별시 마포구 토정로 6,37.5444056,126.9116248
독립관,서울 서대문구,서울특별시 서대문구 통일로 251,37.5743009,126.9559178
정동교회 이필주 사택 터,서울 중구,서울특별시 중구 정동길 46,37.5652468,126.97249
서울 동관왕묘,서울 종로구,서울특별시 종로구 난계로27길 84,37.5727215,127.0184163
양천구 어린이교통공원,서울 양천구,서울특별시 양천구 목동남로 106-23,37.5095727,126.8701123
유심사,서울 종로구,서울특별시 종로구 계동길 92-3,37.5814675,126.9870216
양재천 생태공원,서울 서초구,서울특별시 서초구 바우뫼로12길,37.4684143,127.032602
브이알존 큐브 강남점,서울 서초구,서울특별시 서초구 서초대로77길 25,37.4998999,127.0255759
숭인근린공원,서울 종로구,서울특별시 종로구 동망산길 150,37.5774818,127.0182146
이원등 상사상,서울 용산구,서울특별시 용산구 양녕로 445,37.520805,126.9611825
화계사(서울),서울 강북구,서울특별시 강북구 화계사길 117,37.6326445,127.0073066
서울 우정총국,서울 종로구,서울특별시 종로구 우정국로 59,37.5743897,126.9825994
스파 도향,서울 강남구,서울특별시 강남구 논현로 611,37.5082099,127.033097
무악산 동봉수대 터,서울 서대문구,서울특별시 서대문구 봉원동,37.5725233,126.9469831
삼각산,서울 강북구,서울특별시 강북구 삼양로173길 460,37.6679006,126.9988537
자운암(서울),서울 관악구,서울특별시 관악구 관악로,37.4814353,126.9549042
미타사(성북),서울 성북구,서울특별시 성북구 보문사길 6-16,37.5851174,127.0159687
보광사 보광선원(서울),서울 강북구,서울특별시 강북구 삼양로145길 176,37.6499531,127.0034326
우남이승만박사 동상,서울 강동구,서울특별시 강동구 고덕로 227,37.5558123,127.1504916
해풍부원군윤택영댁재실,서울 중구,서울특별시 중구 퇴계로34길 28,37.5588388,126.9940727
관훈동 민씨 가옥 (구 부마도위박영효가옥),서울 중구,서울특별시 중구 퇴계로34길 28,37.5588388,126.9940727
호압사(서울),서울 금천구,서울특별시 금천구 호암로 278,37.4525178,126.9255484
세종로공원,서울 종로구,서울특별시 종로구 세종대로 175,37.5721241,126.9760848
삼천사(서울),서울 은평구,서울특별시 은평구 연서로54길 127,37.642433,126.9459794
경성 부민관 폭탄 의거지,서울 중구,서울특별시 중구 세종대로 125,37.5673573,126.976467
3.1독립선언기념탑,서울 서대문구,서울특별시 서대문구 통일로 251,37.5743009,126.9559178
서울 양천고성지,서울 강서구,서울특별시 강서구 가양동,37.5648322,126.8342406
"지양산(무장애숲길,유아숲체험원)",서울 양천구,서울특별시 양천구 신월동,37.519981,126.8365553
서울 연세대학교 스팀슨관,서울 서대문구,서울특별시 서대문구 연세로 50,37.564089,126.9389809
서울 고려대학교 중앙도서관,서울 성북구,서울특별시 성북구 안암로 145,37.5900117,127.0318586
정정공강사상묘역,서울 관악구,서울특별시 관악구 난곡동,37.4693789,126.9202006
올림픽대교,서울 송파구,서울특별시 송파구 신천동,37.5200705,127.0995
보광사(서울),서울 용산구,서울특별시 용산구 장문로15나길 6,37.5270708,126.9974591
정암사,서울 노원구,서울특별시 노원구 덕릉로94길 127,37.6615209,127.0852295
적조사(서울),서울 성북구,서울특별시 성북구 흥천사길 49-23,37.5983496,127.0074133
구 서울대학교 본관,서울 종로구,서울특별시 종로구 동숭길 3,37.5801905,127.0030805
내원사(서울),서울 성북구,서울특별시 성북구 보국문로 262-151,37.6195359,127.000735
서울 대한의원,서울 종로구,서울특별시 종로구 대학로 103,37.5807021,126.9994326
상동교회,서울 중구,서울특별시 중구 남대문로 30,37.5616373,126.9788396
낙원동 아구찜 거리,서울 종로구,서울특별시 종로구 삼일대로 428,37.5728323,126.9880012
해병대104고지전적비,서울 서대문구,서울특별시 서대문구 성산로13길 35-1,37.5676098,126.9260798
구의 아리수 정수센터,서울 광진구,서울특별시 광진구 광나루로 571,37.5471803,127.0924929
브릭캠퍼스 서울,서울 성동구,서울특별시 성동구 서울숲2길 32-14,37.5463874,127.042291
강동예찬시비,서울 강동구,서울특별시 강동구 천호동,37.5439937,127.1256452
개운사(서울),서울 성북구,서울특별시 성북구 개운사길 73,37.5900323,127.0281115
씨랄라 워터파크,서울 영등포구,서울특별시 영등포구 문래로 164,37.517436,126.8997884
효민공 이경직 묘역,서울 관악구,서울특별시 관악구 남현동,37.4675553,126.9794198
김익상 의거지,서울 중구,서울특별시 중구 소파로 126,37.5583238,126.9879994
북악산,서울 종로구,서울특별시 종로구 창의문로 42,37.5906062,126.9709242
탄천,서울 강남구,서울 강남구 율현동,37.4720063,127.1104558
토성산성 어울길,서울 송파구,서울특별시 송파구 올림픽로 383,37.5169204,127.1107338
봉천동 마애미륵불좌상,서울 관악구,서울특별시 관악구 낙성대로15길 56-39,37.4675942,126.962866
생명보험교육문화센터,서울 종로구,서울특별시 종로구 새문안로5길 31 센터포인트 B/D 3층,37.573135,126.9742155
"서울교통공사 차량기지 (도봉, 모란기지)",서울 성동구,서울특별시 성동구 천호대로 346,37.5625461,127.0572234
서울 용산신학교와 원효로 예수성심성당,서울 용산구,서울특별시 용산구 원효로19길 49,37.5341025,126.9542291
3.1독립운동기념탑,서울 중구,서울특별시 중구 장충단로 91,37.5599921,127.0053457
천축사(서울),서울 도봉구,서울특별시 도봉구 도봉산길 92-2,37.6944067,127.0198611
노들섬,서울 용산구,서울특별시 용산구 양녕로 445,37.520805,126.9611825
조선일보 뉴지엄,서울 동작구,서울특별시 동작구 현충로 124,37.506384,126.9671558
시간을 담다,서울 중구,서울특별시 중구 삼일대로8길 20-1,37.5626326,126.9901098
K-Taekwon school 태권도체험,서울 강동구,서울특별시 강동구 고덕로 96,37.5545248,127.1358496
성재이시영선생동상,서울 중구,서울특별시 중구 회현동1가 100-115,37.5548616,126.9798918
이충순 자결 터,서울 중구,서울특별시 중구 서소문로 88,37.5615565,126.9709855
창경궁 명정전,서울 종로구,서울특별시 종로구 창경궁로 185,37.5802443,126.9946543
오미요리연구소,서울 동대문구,서울특별시 동대문구 약령중앙로 35-1,37.5814741,127.036996
"서울교통공사 (신정,수서,천왕)",서울 성동구,서울특별시 성동구 천호대로 346,37.5625461,127.0572234
관음사(서울),서울 관악구,서울특별시 관악구 승방1길 109-80,37.4675172,126.9767728
북한산 생태탐방연수원,서울 도봉구,서울특별시 도봉구 도봉산길 86,37.6874789,127.0340839
유관순동상,서울 중구,서울특별시 중구 장충단로 101,37.5557683,127.0018475
학림사(서울),서울 노원구,서울특별시 노원구 덕릉로129가길 241,37.6821058,127.0773454
용굴암(서울),서울 노원구,서울특별시 노원구 덕릉로129가길 242,37.6738898,127.0808113
로렌스길,서울 마포구,서울특별시 마포구 상수동,37.5454728,126.9244174
경희궁공원,서울 종로구,서울특별시 종로구 새문안로 45,37.5712077,126.9687336
탑골공원 팔각정,서울 종로구,서울특별시 종로구 종로 99,37.5705544,126.9884101
순국선열추념탑,서울 서대문구,서울특별시 서대문구 독립문공원길 80,37.5743009,126.9559178
경찰혼,서울 영등포구,서울특별시 영등포구 국회대로 608,37.5260441,126.9008091
고척동 고인돌,서울 구로구,서울특별시 구로구 고척동,37.5011414,126.8625002
천왕근린공원,서울 구로구,서울특별시 구로구 천왕동,37.4803813,126.8415075
약수사(서울),서울 관악구,서울특별시 관악구 약수암1길 28,37.4784063,126.9516133
정선옹주 묘역,서울 구로구,서울특별시 구로구 궁동,37.5003075,126.8289067
AHC스파,서울 강남구,서울특별시 강남구 도산대로 237,37.5216436,127.0329814
봉국사(서울),서울 성북구,서울특별시 성북구 정릉로 202,37.6039826,127.0086726
사자암(서울),서울 동작구,서울특별시 동작구 국사봉1길 235-14,37.4923517,126.9370575
북악산생태탐방로,서울 종로구,서울특별시 종로구 평창동 일원,37.6166689,127.0026616
동십자각,서울 종로구,서울특별시 종로구 삼청로 1,37.5760934,126.9794415
안중근의사 동상,서울 용산구,서울특별시 용산구 후암동 30-80,37.5532749,126.9806219
서울 관상감 관천대,서울 종로구,서울특별시 종로구 원서동,37.580603,126.9887674
해공신익희선생동상,서울 강동구,서울특별시 강동구 천호3동 448-49호 (천호동 마을마당 내),37.5363339,127.1318582
호국충혼위령비,서울 강서구,서울특별시 강서구 개화동로13길 56-33,37.5805057,126.8031285
이재명 의거지,서울 중구,서울특별시 중구 명동길 74,37.5632533,126.9868325
아띠인력거,서울 종로구,서울특별시 종로구 북촌로5길 43,37.5792971,126.9825315
tbs교통방송,서울 마포구,서울특별시 마포구 매봉산로 31,37.5754986,126.8899652
서울 삼전도비,서울 송파구,서울특별시 송파구 잠실로 148,37.5092404,127.0991543
백마고지 3용사의 상,서울 광진구,서울특별시 광진구 능동로 216,37.549363,127.0818126
훈련원공원,서울 중구,서울특별시 중구 을지로 227,37.5672983,127.0037006
반공 청년운동 순국 열사 기념비,서울 중구,서울특별시 중구 남산공원길 125-72,37.5580879,126.9868818
방화대교,서울 강서구,서울특별시 강서구 방화동,37.5764563,126.813873
신석구 사택 터,서울 중구,서울특별시 중구 청계천로 100,37.5674783,126.9884121
순명비유강원석물,서울 광진구,서울특별시 광진구 능동로 216,37.549363,127.0818126
남강이승훈선생동상,서울 광진구,서울특별시 광진구 능동로 216,37.549363,127.0818126
호국무공수훈자공적비,서울 성동구,서울특별시 성동구,37.5633415,127.0371025
한방스파 여용국,서울 송파구,서울특별시 송파구 석촌호수로12길 60,37.5082963,127.079901
온수도시 자연공원(잣절공원),서울 구로구,서울특별시 구로구 고척로3길 86-52,37.4992011,126.8362583
"계남공원(유아숲체험장, 우렁바위)",서울 양천구,서울특별시 양천구 중앙로 153,37.520694,126.8523726
개봉 유수지,서울 구로구,서울특별시 구로구 개봉동,37.4888722,126.8557494
서울학도병참전기념비,서울 용산구,서울특별시 용산구 두텁바위로 60,37.549307,126.9831061
연필로 명상하기,서울 중구,서울특별시 중구 퇴계로20길 50,37.5580789,126.9862371
순정효황후윤씨친가,서울 중구,서울특별시 중구 퇴계로34길 28,37.5588388,126.9940727
여계묘역,서울 구로구,서울특별시 구로구 고척동,37.5011414,126.8625002
올리바인 스파,서울 종로구,서울특별시 종로구 통일로16길 4-1,37.5757427,126.9575596
도시농업공원,서울 양천구,서울특별시 양천구 신월동,37.519981,126.8365553
녹사평역 지하예술정원,서울 용산구,서울특별시 용산구 녹사평대로 195,37.5347919,126.9870163
구공업전습소본관,서울 종로구,서울특별시 용산구 녹사평대로 195,37.5347919,126.9870163
현대원서공원,서울 종로구,서울특별시 종로구 창덕궁길 19,37.5783244,126.9885598
창덕궁 향나무,서울 종로구,서울특별시 종로구 율곡로 99,37.5800952,126.9918496
원통사(서울),서울 도봉구,서울특별시 도봉구 도봉로169길 520,37.683036,127.0106122
"연의근린공원(생태학습관, 북카페)",서울 양천구,서울특별시 양천구 신정이펜1로 12,37.5133702,126.829922
한강,서울 성동구,서울특별시 성동구 강변북로 257,37.5386913,127.0420444
효사정,서울 동작구,서울특별시 동작구 현충로 55,37.5011692,126.9691815
한복남,서울 종로구,서울특별시 종로구 북촌로5가길 17,37.5802699,126.9818752
반공순국용사 위령탑,서울 영등포구,서울특별시 영등포구 신길1동 20-4,37.5171254,126.9186432
양천생활안전체험교육관,서울 양천구,서울특별시 양천구 목동서로 363,37.5275112,126.8712422
류순정류홍부자 묘역,서울 구로구,서울특별시 구로구 오류동,37.4901258,126.8385254
청룡사(서울),서울 종로구,서울특별시 종로구 동망산길 65,37.579895,127.0167168
서울월드컵경기장 스타디움 투어,서울 마포구,서울특별시 마포구 월드컵로 240,37.5677584,126.8981147
이봉창의사동상,서울 용산구,서울특별시 용산구 효창원로 177-18,37.5447965,126.9626631
유관순열사상,서울 광진구,서울특별시 광진구 능동로 216,37.549363,127.0818126
보나장신구박물관,서울 종로구,서울특별시 종로구 인사동9길 9,37.5735423,126.9845388
정법사(서울),서울 성북구,서울특별시 성북구 대사관로13길 44,37.6017222,126.9908478
나무마을목공방,서울 양천구,서울특별시 양천구 목동서로 159-2,37.5275179,126.8736147
YTN,서울 마포구,서울특별시 마포구 상암산로 76,37.579488,126.892456
목멱산봉수대터,서울 중구,서울특별시 중구 남산공원길 125-72,37.5580879,126.9868818
충주 정토사지 홍법국사탑,서울 용산구,서울특별시 용산구 서빙고로 137,37.5246635,126.9777271
"신트리공원(농촌체험,자연학습장)",서울 양천구,서울특별시 양천구 신정동,37.5166014,126.8638714
감로암(서울),서울 종로구,서울특별시 종로구 율곡로23길 16,37.5752854,127.0066237
본원정사(서울),서울 강북구,서울특별시 강북구 삼각산로 1,37.6373881,127.005223
율곡로,서울 종로구,서울특별시 종로구 율곡로,37.574971,126.9981589
나석주의사동상,서울 중구,서울특별시 중구 을지로 66,37.5653249,126.9849538
이씨레물리노공원(구로근린공원),서울 구로구,서울특별시 구로구 가마산로25길 21,37.497057,126.8895588
마포중앙도서관,서울 마포구,서울특별시 마포구 성산로 128,37.5633288,126.9078837
효령대군이보묘역,서울 서초구,서울특별시 서초구 효령로 135,37.4818413,126.9988767
경운동민병옥가옥,서울 종로구,서울특별시 종로구 인사동10길 23-9,37.574655,126.9858924
충익공신경진묘역,서울 중랑구,서울특별시 중랑구 망우로70길 103,37.5971138,127.1029884
학도암(서울),서울 노원구,서울특별시 노원구 중계로14다길 89,37.6519051,127.0897638
존비코올터장군상,서울 광진구,서울특별시 광진구 능동로 216,37.549363,127.0818126
서울도시건축전시관,서울 중구,서울특별시 중구 세종대로 119,37.5668661,126.9766639
광장시장 한복문화 체험관,서울 종로구,서울특별시 종로구 창경궁로 88,37.5700398,126.9996036
서울 경모궁지,서울 종로구,서울특별시 종로구 대학로 103,37.5807021,126.9994326
고당조만식선생동상,서울 광진구,서울특별시 광진구 능동로 216,37.549363,127.0818126
송재서재필선생상,서울 서대문구,서울특별시 서대문구 통일로 251,37.5743009,126.9559178
엘크레,서울 강남구,서울특별시 강남구 압구정로14길 39,37.521779,127.0235934
대각사,서울 종로구,서울특별시 종로구 율곡로10길 87,37.5736214,126.9918747
수암사,서울 노원구,서울특별시 노원구 상계동,37.6748028,127.0730618
무궁화동산,서울 종로구,서울특별시 종로구 궁정동,37.5850029,126.9732194
고척근린공원,서울 구로구,서울특별시 구로구 고척로45길 39,37.5059009,126.8531819
신검사(서울),서울 강북구,서울특별시 강북구 삼양로179길 209-44,37.6679006,126.9988537
일선사(서울),서울 종로구,서울특별시 종로구 평창6길 79-141,37.6280003,126.9770872
우당 이회영 선생 흉상,서울 중구,서울특별시 중구 명동11길 20,37.5648496,126.9861601
삼성암(서울),서울 강북구,서울특별시 강북구 인수봉로23길 235,37.630339,127.0031599
익선동,서울 종로구,서울특별시 종로구 익선동,37.5742793,126.989835
고하송진우선생동상,서울 광진구,서울특별시 광진구 능동로 216,37.549363,127.0818126
서울 연세대학교 아펜젤러관,서울 서대문구,서울특별시 서대문구 연세로 50,37.564089,126.9389809
용덕사(서울),서울 강북구,서울특별시 강북구 우이동 산68,37.6655648,126.9967984
안양천 사계절 테마원,서울 양천구,서울특별시 양천구 목동동로12길 60,37.5235382,126.8715367
일성이준열사동상,서울 중구,서울특별시 중구 동호로 257-10,37.5583461,127.0038674
푸드뱅크마켓 신월점&50스타트센터,서울 양천구,서울특별시 양천구 곰달래로13길 73,37.5359418,126.8337268
안양암(서울),서울 종로구,서울특별시 종로구 창신5길 59-2,37.5752761,127.0134571
곰달래꿈마을,서울 양천구,서울특별시 양천구 신월동,37.519981,126.8365553
용산공원 갤러리,서울 용산구,서울특별시 용산구 한강대로 237,37.5359824,126.9713509
구로기계공구단지,서울 구로구,서울특별시 구로구 구로중앙로 198,37.5043503,126.8795726
양천나눔누리센터,서울 양천구,서울특별시 양천구 중앙로 250,37.5188604,126.8537234
용암사(서울),서울 은평구,서울특별시 은평구 대서문길 126,37.6520349,126.9528245
만월암(서울),서울 도봉구,서울특별시 도봉구 도봉산길 92-4,37.6968262,127.0176249
150년 수령 느티나무,서울 양천구,서울 양천구 목4동 760-28,37.53758,126.8687506
장수공원(열녀문),서울 양천구,서울특별시 양천구 신월로27길 24,37.5214313,126.8454327
채석장 전망대,서울 종로구,서울특별시 종로구 창신동,37.5750914,127.0121575
대한민국 임시정부 서울연통부 터,서울 중구,서울특별시 중구 서소문로9길 14,37.5631273,126.9700889
오목공원,서울 양천구,서울특별시 양천구 목동서로 159-2,37.5275179,126.8736147
문수사(서울),서울 종로구,서울특별시 종로구 비봉2길 304,37.6312866,126.9726588
망우리 시민공원,서울 중랑구,서울특별시 중랑구 망우로 570,37.5977195,127.0932913
선유도공원,서울 영등포구,서울특별시 영등포구 선유로 343,37.543569,126.8997156
안녕인사동,서울 종로구,서울특별시 종로구 인사동길 49,37.5745213,126.9838508
문래예술공장,서울 영등포구,서울특별시 영등포구 경인로88길 5-4,37.5130462,126.9001786
이태원 우사단길,서울 용산구,서울특별시 용산구 한남동,37.5311789,127.0062454
성수동 수제화거리,서울 성동구,서울특별시 성동구 연무장7길 15,37.5441512,127.0546226
SPA 1899 동인비,서울 강남구,서울특별시 강남구 영동대로 416,37.5065419,127.0653161
설화수 플래그십 스토어,서울 강남구,서울특별시 강남구 도산대로45길 18,37.5235283,127.0354787
기억의 터(일본군 위안부),서울 중구,서울특별시 중구 퇴계로26가길 6,37.5590495,126.9902522
이대거리,서울 서대문구,서울특별시 서대문구 대현동,37.5606558,126.9465796