name,region,address,Latitude,Longitude
선유도,전북 군산시,전라북도 군산시 옥도면 선유남길 34-22,35.8100216,126.4122853
전주한옥마을 [슬로시티],전북 전주시,전라북도 전주시 완산구 어진길 29,35.8175162,127.1530223
지리산 허브밸리,전북 남원시,전라북도 남원시 운봉읍 바래봉길 214,35.4349278,127.5485758
광한루원,전북 남원시,전라북도 남원시 요천로 1447,35.4032881,127.3794357
내변산,전북 부안군,전라북도 부안군 변산면 내변산로 232,35.6518559,126.5474748
선유도해수욕장 (명사십리 해수욕장),전북 군산시,전라북도 군산시 옥도면,35.6709622,126.4965411
장수누리파크,전북 장수군,전라북도 장수군 장수읍 논개사당길 65,35.6417779,127.5284198
우화정(내장산),전북 정읍시,전라북도 정읍시 내장산로 936,35.4933352,126.9278556
동국사(군산),전북 군산시,전라북도 군산시 동국사길 16,35.9827115,126.7076657
보리나라 학원농장,전북 고창군,전라북도 고창군 공음면 학원농장길 158-6,35.3763158,126.5428108
선운사(고창),전북 고창군,전라북도 고창군 아산면 선운사로 250,35.4969385,126.5782255
무주 구천동 33경,전북 무주군,전라북도 무주군 설천면 백련사길 580,35.860082,127.7663099
채석강 (전북 서해안권 국가지질공원),전북 부안군,전라북도 부안군 변산면 격포리,35.6126119,126.4699182
용담호,전북 진안군,전라북도 진안군 안천면 안용로 747,35.9451629,127.5285936
한국도로공사수목원,전북 전주시,전라북도 전주시 덕진구 번영로 462-45,35.8704513,127.0537178
부귀 메타세쿼이아길,전북 진안군,전라북도 진안군 부귀면 모래재로 841,35.8142757,127.3225357
내장산 국립공원,전북 정읍시,전라북도 정읍시 내장산로 936,35.4933352,126.9278556
고창읍성,전북 고창군,전라북도 고창군 고창읍 모양성로 1,35.4304606,126.704482
원연장 꽃잔디마을,전북 진안군,전라북도 진안군 진안읍 정곡길 5-7,35.7808564,127.3909826
내장산국립공원,전북 순창군,전라북도 순창군 복흥면,35.4321399,126.9297562
마이산도립공원,전북 진안군,전라북도 진안군 진안읍 마이산로 255,35.7663331,127.4151117
교룡산국민관광지,전북 남원시,전라북도 남원시 산성순환길 714,35.4279564,127.3643162
무주머루와인동굴,전북 무주군,전라북도 무주군 적상면 산성로 359,35.9653618,127.6968881
무주 반디랜드,전북 무주군,전라북도 무주군 설천면 무설로 1324,36.0111137,127.758702
남원 아담원,전북 남원시,전라북도 남원시 이백면 목가길 193,35.4403247,127.4765231
향적봉(덕유산),전북 무주군,전라북도 무주군 설천면,36.0081479,127.7896811
무녀도?선유도,전북 군산시,전라북도 군산시 옥도면,35.6709622,126.4965411
새만금,전북 부안군,전라북도 부안군 변산면 새만금로 6,35.6971014,126.5591772
경기전,전북 전주시,전라북도 전주시 완산구 태조로 44,35.8153146,127.1497569
군산 신흥동 일본식가옥(히로쓰 가옥),전북 군산시,전라북도 군산시 구영1길 17,35.98622,126.7061525
구 서도역,전북 남원시,전라북도 남원시 사매면 서도길 32,35.490728,127.3293058
장자도,전북 군산시,전라북도 군산시 옥도면 장자도1길 26-2,35.8099032,126.3965768
대아수목원,전북 완주군,전라북도 완주군 동상면 대아수목로 94-34,35.9843467,127.3142561
창포마을,전북 완주군,전라북도 완주군 고산면 대아저수로 385,35.9872433,127.2589071
내소사(부안),전북 부안군,전라북도 부안군 진서면 내소사로 243,35.6175898,126.5873648
익산 미륵사지 [유네스코 세계유산],전북 익산시,전라북도 익산시 금마면 미륵사지로 362,36.0108304,127.0282197
매월당,전북 남원시,전라북도 남원시 금지면 매촌길 47-34,35.3487386,127.2729395
격포해변,전북 부안군,전라북도 부안군 변산면 변산해변로 29-14,35.6298706,126.4701193
무주리조트 관광곤도라,전북 무주군,전라북도 무주군 설천면 만선로 185,35.8893667,127.7389493
이영춘가옥,전북 군산시,전라북도 군산시 동개정길 7,35.9706234,126.7602242
진포해양테마공원,전북 군산시,전라북도 군산시 내항1길 12,35.9902016,126.7152852
구시포 해수찜월드,전북 고창군,전라북도 고창군 상하면 진암구시포로 540,35.4459359,126.4366761
대둔산도립공원(전북),전북 완주군,전북 완주군 운주면 산북리,36.109414,127.3329433
곰소염전,전북 부안군,전라북도 부안군 진서면 진서리,35.605324,126.614309
"덕유산국립공원(본소,적상분소)",전북 무주군,전라북도 무주군 설천면 구천동1로 159,35.9006559,127.7751251
"방화동 자연휴양림,가족휴가촌",전북 장수군,전라북도 장수군 번암면 방화동로 778,35.5928311,127.5285956
군산 해망굴,전북 군산시,전라북도 군산시 군산창2길 48,35.9912502,126.7048504
춘향테마파크,전북 남원시,전라북도 남원시 양림길 14-9,35.4016267,127.3867338
변산자연휴양림,전북 부안군,전라북도 부안군 변산면 변산로 3768,35.5819221,126.5254029
오목대와 이목대,전북 전주시,전라북도 전주시 완산구 기린대로 55,35.8138103,127.1540973
마이산 탑사,전북 진안군,전라북도 진안군 마령면 마이산남로 367,35.7584764,127.411269
전주 풍패지관,전북 전주시,전라북도 전주시 완산구 충경로 59,35.8183209,127.1452331
구시포해수욕장,전북 고창군,전라북도 고창군 상하면 자룡리,35.4403206,126.441601
전주전동성당,전북 전주시,전라북도 전주시 완산구 태조로 51,35.8134083,127.149495
강천산 군립공원,전북 순창군,전라북도 순창군 팔덕면 강천산길 97,35.4087639,127.0675247
덕진공원,전북 전주시,전라북도 전주시 덕진구 권삼득로 390,35.8480368,127.1222124
김제 벽골제,전북 김제시,전라북도 김제시 부량면 벽골제로 442,35.7529497,126.852423
정읍 내장산 관광특구,전북 정읍시,전라북도 정읍시 내장동,35.4954377,126.9138423
완주 삼례문화예술촌,전북 완주군,전라북도 완주군 삼례읍 삼례역로 81-13,35.9060596,127.0661671
월명공원,전북 군산시,전라북도 군산시 월명공원1길 26-3,35.9894702,126.7026794
국립 운장산자연휴양림,전북 진안군,전라북도 진안군 정천면 휴양림길 77,35.8947554,127.4257541
남원관광단지,전북 남원시,전라북도 남원시 양림길 43,35.4022413,127.3900991
운일암 반일암 계곡,전북 진안군,전라북도 진안군 주천면 동상주천로 1926,35.978507,127.4013022
전주 풍남문,전북 전주시,전라북도 전주시 완산구 풍남문3길 1,35.813494,127.1475931
고산자연휴양림,전북 완주군,전라북도 완주군 고산면 고산휴양림로 246,35.9596666,127.2355162
강천사계곡,전북 순창군,전북 순창군 팔덕면,35.391576,127.0971321
적벽강 (전북 서해안권 국가지질공원),전북 부안군,전라북도 부안군 변산면 격포리,35.6126119,126.4699182
변산반도국립공원,전북 부안군,전라북도 부안군 변산면 실상길,35.6407782,126.579428
전주동물원,전북 전주시,전라북도 전주시 덕진구 소리로 68,35.8561158,127.1446737
선운산 (전북 서해안권 국가지질공원),전북 고창군,전라북도 고창군 아산면 선운사로 158-6,35.502533,126.5866689
옥정호(물안개길),전북 임실군,전라북도 임실군 운암면 입석리 마암리 374-8(물안개길)낚시터,35.6251915,127.1447483
옥정호 구절초테마공원,전북 정읍시,전라북도 정읍시 산내면 청정로 926-79,35.5539212,127.019369
고산,전북 고창군,전라북도 고창군 대산면,35.3410363,126.603426
금산사(김제),전북 김제시,전라북도 김제시 금산면 모악15길 1,35.7232427,127.0537729
순창 향가터널,전북 순창군,전라북도 순창군 풍산면 대가리,35.3449202,127.1778449
은파호수공원(은파국민관광지),전북 군산시,전라북도 군산시 미룡동,35.9483234,126.6862517
계화도,전북 부안군,전라북도 부안군 계화면,35.761668,126.6980969
익산 왕궁리유적 [유네스코 세계유산],전북 익산시,전라북도 익산시 왕궁면 궁성로 666,35.9713015,127.0550935
만돌갯벌체험학습장,전북 고창군,전라북도 고창군 심원면 애향갯벌로 320,35.5301843,126.5150781
익산 춘포리 구 일본인 농장 가옥,전북 익산시,전라북도 익산시 춘포면 춘포4길 48,35.898797,127.0059854
바래봉,전북 남원시,전라북도 남원시 운봉읍 바래봉길 196,35.4330709,127.5483153
고창 고인돌 유적 [유네스코 세계문화유산],전북 고창군,전라북도 고창군 고창읍 고인돌공원길 74,35.4417204,126.6514473
지리산 반야봉,전북 남원시,전라북도 남원시 산내면,35.4191955,127.6232065
전주목판서화체험관,전북 전주시,전라북도 전주시 완산구 전주천동로 46,35.8114477,127.1555863
구담마을,전북 임실군,전라북도 임실군 덕치면 천담1길 49,35.4924412,127.1911977
줄포만 갯벌생태공원,전북 부안군,전라북도 부안군 줄포면 생태공원로 38,35.5795477,126.6664971
무주 호롱불마을,전북 무주군,전라북도 무주군 설천면 무설로 682,36.0171069,127.7141802
뱀사골계곡,전북 남원시,전라북도 남원시 산내면 부운리,35.3523613,127.5924722
전주향교,전북 전주시,전라북도 전주시 완산구 향교길 139,35.8128303,127.1571308
국립 덕유산자연휴양림,전북 무주군,전라북도 무주군 무풍면 구천동로 530-62,35.9074907,127.814712
청소년 문화의거리,전북 전주시,전라북도 전주시 완산구 전주객사5길 일대,35.8184408,127.1453629
무주 구천동 관광특구,전북 무주군,전북 무주군,36.0068191,127.6607805
성당포구마을,전북 익산시,전라북도 익산시 성당면 성당로 762,36.1094419,126.9269525
변산해수욕장,전북 부안군,전라북도 부안군 변산면 변산로 2076,35.6204812,126.5166241
소노벨 변산 오션플레이,전북 부안군,전라북도 부안군 변산면 변산해변로 51,35.6317103,126.4701361
무주덕유산리조트 야외노천탕&Pool,전북 무주군,전라북도 무주군 설천면 만선로 185,35.8893667,127.7389493
매창공원,전북 부안군,전라북도 부안군 부안읍 매창로 89,35.7193444,126.7287846
직소폭포 (전북 서해안권 국가지질공원),전북 부안군,전라북도 부안군 변산면 실상길 62,35.6409776,126.5802845
완산칠봉(완산공원),전북 전주시,전라북도 전주시 완산구 서서학동,35.8057232,127.1486396
두동편백나무숲,전북 익산시,전라북도 익산시 성당면 두동길 15,36.1037307,126.9214085
익산교도소세트장,전북 익산시,전라북도 익산시 성당면 함낭로 207,36.0697958,126.9313457
강천사(순창),전북 순창군,전라북도 순창군 팔덕면 강천산길 270,35.398638,127.0556971
무성서원 [유네스코 세계문화유산],전북 정읍시,전라북도 정읍시 칠보면 원촌1길 44-12,35.6017779,126.983951
적상산사고지,전북 무주군,전라북도 무주군 적상면 산성로 960,35.9484745,127.694678
비안도,전북 군산시,전라북도 군산시 옥도면 비안도길 79-1,35.7369283,126.4579185
위도 (전북 서해안권 국가지질공원),전북 부안군,전라북도 부안군 위도면 치도리,35.5914313,126.2811307
전주전통한지원,전북 전주시,전라북도 전주시 완산구 한지길 100-10,35.8159226,127.1535239
송광사(완주),전북 완주군,전라북도 완주군 소양면 송광수만로 255-16,35.8855945,127.2419582
전주한옥마을 임실치즈체험장,전북 전주시,전라북도 전주시 완산구 은행로 12,35.8187827,127.1516488
경암동 철길마을,전북 군산시,전라북도 군산시 경촌4길 14,35.9812798,126.7363759
백련사(무주),전북 무주군,전라북도 무주군 설천면 백련사길 580,35.860082,127.7663099
내장산 케이블카,전북 정읍시,전라북도 정읍시 내장산로 936,35.4933352,126.9278556
순창고추장익는마을,전북 순창군,전라북도 순창군 구림면 산내길 38,35.4831662,127.116633
하섬,전북 부안군,전북 부안군 변산면 마포리 하섬,35.6624203,126.4860136
어청도,전북 군산시,전라북도 군산시 옥도면 어청도길 95-7,36.120295,125.9792351
변산반도 국립공원,전북 부안군,전라북도 부안군 변산면 방파제길 11,35.6258413,126.4712218
칠연계곡,전북 무주군,전라북도 무주군 안성면 칠연로 608,35.8377505,127.7000862
순창장류체험관,전북 순창군,전라북도 순창군 순창읍 민속마을길 55,35.3657696,127.1083601
정혜사(전주),전북 전주시,전라북도 전주시 완산구 외칠봉1길 36,35.8045157,127.1390721
은파 물빛다리,전북 군산시,전라북도 군산시 미룡동,35.9483234,126.6862517
월명호수,전북 군산시,전북 군산시 소룡동 1071-3,35.9742779,126.6792641
군산 발산리 석등,전북 군산시,전라북도 군산시 개정면 바르메길 43,35.9590303,126.7962178
정읍 피향정,전북 정읍시,전라북도 정읍시 태인면 태산로 2951,35.6511974,126.9431007
창원정씨종가,전북 장수군,전라북도 장수군 산서면 서원길 16,35.5655512,127.39529
개암사,전북 부안군,전라북도 부안군 상서면 개암로 248,35.662564,126.6496961
와룡자연휴양림,전북 장수군,전라북도 장수군 천천면 비룡로 362,35.697773,127.498846
관음사(무주),전북 무주군,전라북도 무주군 설천면 양지길 92-38,36.0003596,127.7853975
순창고추장민속마을,전북 순창군,전라북도 순창군 순창읍 백야길 29,35.3667577,127.1033886
남원 만인의총,전북 남원시,전라북도 남원시 만인로 3,35.4204679,127.3773192
군산 임피역사,전북 군산시,전라북도 군산시 임피면 서원석곡로 37,35.9540079,126.863921
수성당,전북 부안군,전라북도 부안군 변산면 적벽강길 54,35.6346927,126.4603089
모항어촌체험마을,전북 부안군,전라북도 부안군 변산면 모항길 107,35.5872168,126.5138679
어청도 등대,전북 군산시,전라북도 군산시 옥도면 어청도길 240,36.1251864,125.9685378
백운동계곡(진안),전북 진안군,전라북도 진안군 백운면 백운동로 325-8,35.681526,127.4278371
초원사진관,전북 군산시,전라북도 군산시 구영2길 12-1,35.9877131,126.7083936
내장산수목원,전북 정읍시,전라북도 정읍시 내장호반로 194-28,35.5098904,126.8981853
금당사(진안),전북 진안군,전라북도 진안군 마령면 마이산남로 217,35.7577274,127.3976135
안국사(무주),전북 무주군,전라북도 무주군 적상면 산성로 1050,35.9447824,127.6917117
전주 한옥마을,전북 전주시,전라북도 전주시 완산구 기린대로 99,35.81859,127.153967
전주한옥마을 전주김치문화관,전북 전주시,전라북도 전주시 완산구 어진길 29,35.8175162,127.1530223
남원 추어마을,전북 남원시,전라북도 남원시 보절면 용동길 47,35.5316456,127.4244151
광한루,전북 남원시,전라북도 남원시 요천로 1447,35.4032881,127.3794357
정읍사문화공원,전북 정읍시,전라북도 정읍시 시기동,35.5563834,126.8555354
익산 액션하우스,전북 익산시,전라북도 익산시 금마면 금마호수길 37,36.0072752,127.0556408
화암사(완주),전북 완주군,전라북도 완주군 경천면 화암사길 271,36.0663134,127.2870608
고창 무장현 관아와 읍성,전북 고창군,전라북도 고창군 무장면 무장읍성길 45,35.4182327,126.5574379
무주 지전마을 옛 담장,전북 무주군,전라북도 무주군 설천면,36.0081479,127.7896811
서동공원,전북 익산시,전라북도 익산시 금마면 고도9길 41-14,36.0015063,127.0570781
무주 트리스쿨,전북 무주군,전라북도 무주군 무주읍 무주로 1788-9,35.9786521,127.6509771
칠보물테마유원지,전북 정읍시,전라북도 정읍시 칠보면 칠보산로 1555,35.5732404,126.9500947
논개사당(의암사),전북 장수군,전라북도 장수군 장수읍 한누리로 393,35.6410294,127.5180878
동상운장산계곡,전북 완주군,전라북도 완주군 동상면 대아리,35.9796908,127.296062
사선대관광지&조각공원,전북 임실군,전라북도 임실군 관촌면 사선2길 68-7,35.6723571,127.2745265
금강하구둑(군산),전북 군산시,전라북도 군산시 성산면 성덕리 411-1,36.0193906,126.7650964
망해사(김제),전북 김제시,전라북도 김제시 진봉면 심포10길 94,35.8596191,126.7155369
남원항공우주천문대,전북 남원시,전라북도 남원시 양림길 48-63,35.3990573,127.387361
근대미술관 (구)일본 제 18은행 군산지점,전북 군산시,전라북도 군산시 해망로 230,35.9899833,126.7128302
오복마을,전북 완주군,전라북도 완주군 경천면 오복대석길 45,36.0165911,127.2533164
라제통문,전북 무주군,전라북도 무주군 설천면 라제통문로,35.9926686,127.8106272
지리산 매동마을,전북 남원시,전라북도 남원시 산내면 매동길 16-4,35.4246266,127.6260911
강천산휴양농원,전북 순창군,전라북도 순창군 구림면 강천로 854-23,35.4276018,127.0628025
산들강웅포마을,전북 익산시,전라북도 익산시 웅포면 강변로 284,36.0877331,126.8843412
완주 고산 놀토피아,전북 완주군,전라북도 완주군 고산면 대아저수로 416,35.988448,127.2419804
풍계서원,전북 남원시,전라북도 남원시 대강면 대강산촌길 35-18,35.4185604,127.2671044
도솔계곡(선운산),전북 고창군,전라북도 고창군 아산면 선운사로 250,35.4969385,126.5782255
순창군 채계산 출렁다리,전북 순창군,전라북도 순창군 적성면,35.3974868,127.2086581
향산사(무주),전북 무주군,전라북도 무주군 무주읍 향한로 27-7,36.0100686,127.6586572
오수휴게소 펫펨레스토랑,전북 임실군,전라북도 임실군 오수면 순천완주고속도로 74,35.5409253,127.3092351
고창신재효고택,전북 고창군,전라북도 고창군 고창읍 동리로 100,35.4323678,126.7028072
구천동계곡,전북 무주군,전라북도 무주군 설천면 구천동1로 159,35.9006559,127.7751251
금산교회,전북 김제시,전라북도 김제시 금산면 모악로 407,35.7193715,127.0352694
전설의 쌍화차 거리,전북 정읍시,전라북도 정읍시 중앙1길 147,35.5675575,126.8566876
고사포해수욕장,전북 부안군,전라북도 부안군 변산면 노루목길 8-8,35.6638923,126.5104403
군산 개정면 구 일본인농장 창고,전북 군산시,전라북도 군산시 개정면 바르메길 53-5,35.9591789,126.7975603
마이산 화엄굴,전북 진안군,전라북도 진안군 마령면 마이산남로 367,35.7584764,127.411269
용화사(고창),전북 고창군,전라북도 고창군 대산면 연화길 88-56,35.3286023,126.5489722
금강철새조망대,전북 군산시,전라북도 군산시 성산면 철새로 120,36.0193906,126.7650964
익산 춘포역사,전북 익산시,전라북도 익산시 춘포면 춘포1길 17-1,35.9037922,127.0049325
은적사(군산),전북 군산시,전라북도 군산시 설림3길 49,35.9748858,126.6854098
화산천주교회(나바위 성당),전북 익산시,전라북도 익산시 망성면 나바위1길 146,36.1385381,126.9991079
진안 웅치골마을,전북 진안군,전라북도 진안군 부귀면 옛웅치길 42,35.8096905,127.3155438
남원 교룡산성,전북 남원시,전라북도 남원시 산곡동,35.427073,127.3623996
완주 인덕마을[농촌체험휴양마을],전북 완주군,전라북도 완주군 소양면 인덕길 245-17,35.8802263,127.2338493
샤또무주,전북 무주군,전라북도 무주군 무풍면 오두재로 238-65,35.9003807,127.8395255
정읍 황토현 전적,전북 정읍시,전라북도 정읍시 덕천면 하학리,35.6226116,126.8043021
근대건축관 (구)조선은행군산지점,전북 군산시,전라북도 군산시 해망로 214,35.9893296,126.7141449
위봉산성군립공원,전북 완주군,전라북도 완주군 소양면 원대흥길 136-3,35.8835912,127.2438623
내장사(정읍),전북 정읍시,전라북도 정읍시 내장산로 1253,35.4896703,126.9018922
전주 남고산성,전북 전주시,전라북도 전주시 완산구 동서학동,35.8028173,127.1575622
선원사(남원),전북 남원시,전라북도 남원시 용성로 151,35.4125785,127.3913645
덕유산국립공원,전북 무주군,전라북도 무주군 설천면 구천동1로 159,35.9006559,127.7751251
마이산 벚꽃길,전북 진안군,전라북도 진안군 마령면 동촌리,35.7476111,127.3909465
국립임실호국원,전북 임실군,전라북도 임실군 강진면 호국로 420,35.5520602,127.1907559
부남강변 유원지,전북 무주군,전라북도 무주군 부남면 대소리,35.9673233,127.5613123
부안 솔섬,전북 부안군,전북 부안군 변산면 도청리,35.6038806,126.4947974
함벽정,전북 익산시,전라북도 익산시 왕궁면 호반로 30-21,35.9931429,127.1022439
국사봉전망대,전북 임실군,전라북도 임실군 운암면 국사봉로 512,35.6402745,127.1379753
망부상과 정읍사,전북 정읍시,전라북도 정읍시 정읍사로 541,35.5509297,126.8617092
도솔암(고창),전북 고창군,전라북도 고창군 아산면 도솔길 294,35.4811289,126.563993
심포항,전북 김제시,전북 김제시 진봉면 심포리,35.858837,126.6998207
귀신사(김제),전북 김제시,전라북도 김제시 금산면 청도6길 40,35.7455294,127.0470315
군산곤충체험학습농장,전북 군산시,전라북도 군산시 나포면 뜰아름길 70,36.0078954,126.8218262
무주한풍루,전북 무주군,전라북도 무주군 무주읍 한풍루로 326-5,36.0039619,127.6623673
섬진강,전북 순창군,전북 순창군 풍산면 대가리,35.3449202,127.1778449
동호해수욕장,전북 고창군,전라북도 고창군 해리면 동호리,35.5090529,126.4889245
정읍김동수씨가옥,전북 정읍시,전라북도 정읍시 산외면 공동길 72-10,35.615856,127.0194492
용안생태습지공원,전북 익산시,전라북도 익산시 용안면 강변로,36.1270096,126.941631
위봉사(완주),전북 완주군,전라북도 완주군 소양면 위봉길 53,35.9101456,127.256735
남원 만복사지,전북 남원시,전라북도 남원시 만복사길 10-3,35.4075102,127.3680605
신시도 어촌체험마을,전북 군산시,전라북도 군산시 옥도면 신시도길 83-7,35.8176872,126.4533195
익산 쌍릉,전북 익산시,전라북도 익산시 석왕동,35.9760752,127.0238417
병풍폭포,전북 순창군,전라북도 순창군 팔덕면 강천산길 113,35.4080949,127.0665702
곰소항,전북 부안군,전라북도 부안군 진서면 곰소리,35.5931892,126.6087035
향가유원지,전북 순창군,전라북도 순창군 풍산면 향가로 575,35.3424563,127.1804313
진안 마이산 줄사철나무 군락,전북 진안군,전라북도 진안군 마령면 마이산남로 367,35.7584764,127.411269
지리산국립공원(남원),전북 남원시,전라북도 남원시 산내면 와운길 10,35.3715532,127.5786649
진안 원촌마을,전북 진안군,전라북도 진안군 백운면 임진로 1326-13,35.6907531,127.3982489
은수사,전북 진안군,전라북도 진안군 마령면 마이산남로 406,35.7594881,127.4144972
남원몽심재,전북 남원시,전라북도 남원시 수지면 내호곡2길 19,35.3379549,127.3747209
명사십리 및 구시포 (전북 서해안권 국가지질공원),전북 고창군,전라북도 고창군 상하면 진암구시포로 545,35.445517,126.4357139
금평저수지,전북 김제시,전북 김제시 금산면 청도리,35.7369164,127.0442558
임실 대말방죽 숲(가시연꽃 자생지),전북 임실군,전북 임실군 오수면 대정리,35.5105209,127.3466848
섬진강댐,전북 임실군,전라북도 임실군 강진면 옥정호로 608-13,35.5424882,127.1116699
국립 회문산자연휴양림,전북 순창군,전라북도 순창군 구림면 안심길 249,35.4989182,127.1181029
익산 함라마을 옛 담장,전북 익산시,전라북도 익산시 함라면 천남1길,36.0602469,126.9104869
무주 무풍승지마을,전북 무주군,전라북도 무주군 무풍면 철목길 61,35.9604931,127.8399671
학소암(전주),전북 전주시,전라북도 전주시 완산구 평화7길 49-67,35.7865515,127.1322782
부안 원숭이학교 자연사박물관,전북 부안군,전라북도 부안군 상서면 부안로 1783,35.6683247,126.6716347
남원 흥부마을,전북 남원시,전라북도 남원시 아영면 흥부1길 48-1,35.5196474,127.5840722
부안청림천문대,전북 부안군,전라북도 부안군 상서면 노적길 25,35.6577067,126.6152364
익산 구 익옥수리조합 사무실 및 창고,전북 익산시,전라북도 익산시 평동로1길 28-4,35.9352692,126.9465833
구암사(순창),전북 순창군,전라북도 순창군 복흥면 봉덕길 131-144,35.4554721,126.8859884
김제 외갓집마을,전북 김제시,전라북도 김제시 금구면 사방길 110-5,35.8102031,126.9865951
혼불문학관,전북 남원시,전라북도 남원시 사매면 노봉안길 52,35.4808692,127.3200286
마이산 타포니지형,전북 진안군,전라북도 진안군 진안읍 마이산로 255,35.7663331,127.4151117
익산 붕새언덕마을,전북 익산시,전라북도 익산시 웅포면 붕새1길 29-6,36.1282276,126.8982505
자만마을 벽화갤러리,전북 전주시,전라북도 전주시 완산구 교동,35.8120258,127.1659307
갑오동학혁명 100주년 기념탑,전북 정읍시,전라북도 정읍시 내장호반로 214,35.4996462,126.9170929
정읍 전봉준 유적,전북 정읍시,전라북도 정읍시 이평면 조소1길 20,35.670958,126.8145863
모악산도립공원,전북 김제시,전라북도 김제시 금산면 모악15길,35.7228416,127.067367
오수의견공원,전북 임실군,전라북도 임실군 오수면 충효로 2096-16,35.5453263,127.3330391
용강서원,전북 전주시,전라북도 전주시 덕진구 원동회룡길 59-3,35.8552143,127.0402304
죽도(진안),전북 진안군,전라북도 진안군 상전면 죽도길,35.830336,127.5103121
갈거계곡,전북 진안군,전라북도 진안군 정천면 휴양림길 77,35.8947554,127.4257541
완주 대승한지마을,전북 완주군,전라북도 완주군 소양면 복은길 18,35.8543208,127.2944615
군산항,전북 군산시,전라북도 군산시 내항2길 45,35.9904032,126.7101385
신재생에너지 테마파크,전북 부안군,전라북도 부안군 하서면 신재생에너지로 10,35.7104811,126.5975835
두동교회 구본당,전북 익산시,전라북도 익산시 성당면 두동길 17-1,36.1035273,126.9206383
오송제,전북 전주시,전라북도 전주시 덕진구 송천동 1가,35.860772,127.1287357
장수 논개생가마을 [농촌전통테마],전북 장수군,전라북도 장수군 장계면 논개생가길 21-5,35.6782997,127.6204639
숭림사(익산),전북 익산시,전라북도 익산시 웅포면 백제로 495-57,36.0816042,126.9156176
고창하전갯벌마을,전북 고창군,전북 고창군 심원면 하전리,35.535014,126.570781
삼례책마을,전북 완주군,전라북도 완주군 삼례읍 삼례역로 68,35.9075865,127.065953
장수향교,전북 장수군,전라북도 장수군 장수읍 향교길 31-14,35.6481872,127.5230959
선운사 백파율사비,전북 고창군,전라북도 고창군 아산면 선운사로 250,35.4969385,126.5782255
은파호수공원 음악분수,전북 군산시,전라북도 군산시 미룡동,35.9483234,126.6862517
채계산,전북 순창군,전라북도 순창군 적성면 담순로 2172-33,35.4012244,127.226091
금구원야외조각미술관,전북 부안군,전라북도 부안군 변산면 조각공원길 31,35.6205083,126.4887532
전라좌수영세트장,전북 부안군,전라북도 부안군 변산면 궁항영상길 91,35.6097893,126.4655662
모항해수욕장,전북 부안군,전라북도 부안군 변산면 모항길 23-1,35.5831428,126.5083087
익산 주현동 구 일본인 농장 사무실,전북 익산시,전라북도 익산시 중앙로4길 59,35.933228,126.9533039
구시포마을,전북 고창군,전라북도 고창군 상하면 구시포해변길 150,35.4451803,126.4427175
전봉준 장군 생가터,전북 고창군,전라북도 고창군 고창읍 당촌길 41-8,35.4487098,126.6683859
왕궁온천,전북 익산시,전라북도 익산시 왕궁면 온천길 38,35.9240894,127.0579238
실상사(남원),전북 남원시,전라북도 남원시 산내면 입석길 94-129,35.4167148,127.6351305
만일사(순창),전북 순창군,전라북도 순창군 구림면 안심길 103-134,35.4860926,127.1178177
새만금유람선,전북 군산시,전라북도 군산시 옥도면 선유도3길 52-4,35.8106824,126.4162652
산외한우마을,전북 정읍시,전라북도 정읍시 산외면 산외로 450,35.6259786,127.0473487
수선루,전북 진안군,전라북도 진안군 마령면 임진로,35.7400685,127.3629364
남고사(전주),전북 전주시,전라북도 전주시 완산구 남고산성1길 53-88,35.7996931,127.1589834
선유도 월명유람선,전북 군산시,전라북도 군산시 비응로 6,35.9350927,126.5263803
원통사(무주),전북 무주군,전라북도 무주군 안성면 원통사로 676,35.8189326,127.6990592
칠연의총,전북 무주군,전라북도 무주군 안성면 칠연로 608,35.8377505,127.7000862
남원 황산대첩비지,전북 남원시,전라북도 남원시 운봉읍 가산화수길 84,35.4578893,127.5616965
적상산,전북 무주군,전라북도 무주군 적상면 괴목리,35.9155505,127.7178651
익산 왕궁리 오층석탑,전북 익산시,전라북도 익산시 왕궁면 왕궁리,35.974286,127.0639906
문화공감 곳간(관광두레 주민사업체),전북 익산시,전라북도 익산시 고봉로 279,35.9569778,126.9703314
국악의 성지,전북 남원시,전라북도 남원시 운봉읍 비전길 69,35.4601672,127.5684388
진안 능길마을,전북 진안군,전라북도 진안군 동향면 능금로 193,35.8596254,127.590889
장원목장,전북 익산시,전라북도 익산시 웅포면 용골길 25,36.1308801,126.9093942
섬진강댐 물 문화관,전북 임실군,전라북도 임실군 운암면 강운로 1239,35.6063984,127.1102863
북고사(무주),전북 무주군,전라북도 무주군 무주읍 북고사길 67,36.0173274,127.6595034
구장군폭포,전북 순창군,전북 순창군 팔덕면 청계리,35.4071696,127.0687011
천호성지,전북 완주군,전라북도 완주군 비봉면 천호성지길 124,36.0380317,127.1304799
원불교중앙총부,전북 익산시,전라북도 익산시 익산대로 501,35.9713303,126.9521791
진안 은수사 청실배나무,전북 진안군,전라북도 진안군 마령면 마이산남로 406,35.7594881,127.4144972
지리산 원천마을(남원),전북 남원시,전라북도 남원시 산내면 산내원천길 33,35.4121331,127.6162667
진안 감동마을,전북 진안군,전라북도 진안군 용담면,35.9660576,127.5203765
금선폭포,전북 정읍시,전북 정읍시 내장동,35.4954377,126.9138423
무주덕유산리조트,전북 무주군,전라북도 무주군 설천면 만선로 185,35.8893667,127.7389493
부안다목적댐,전북 부안군,전라북도 부안군 변산면 부안댐로 281,35.6728263,126.5644272
다가공원,전북 전주시,전라북도 전주시 완산구 중화산동1가 150-3,35.81413,127.1378153
분옥담과 선녀탕,전북 부안군,전라북도 부안군 변산면 실상길 52,35.6417738,126.5798575
구봉산(진안),전북 진안군,전북 진안군 주천면 운봉리,35.9394856,127.4254251
우금산성,전북 부안군,전라북도 부안군 상서면 감교리,35.6630326,126.6609193
김정회고가,전북 고창군,전라북도 고창군 고창읍 도산1길 16,35.4400786,126.6599805
상록해수욕장,전북 부안군,전라북도 부안군 변산면 변산로 3210-16,35.6204812,126.5166241
산동리 남근석,전북 순창군,전라북도 순창군 팔덕면 팔왕길 77,35.3839893,127.0872793
연자봉,전북 정읍시,전라북도 정읍시 내장산로 936,35.4933352,126.9278556
익산역 (철도체험학습장),전북 익산시,전라북도 익산시 익산대로 153,35.9406663,126.945799
익산 미륵산성,전북 익산시,전북 익산시 금마면 신용리,36.016237,127.0534563
원통사지,전북 무주군,전라북도 무주군 안성면 원통사로 676,35.8189326,127.6990592
방장산,전북 고창군,전라북도 고창군 신림면 신평리,35.4640617,126.7445059
용추폭포(고창),전북 고창군,전북 고창군 신림면 가평리,35.4740833,126.7597912
전주자연생태 체험센터,전북 전주시,전라북도 전주시 완산구 바람쐬는길 21,35.8116361,127.1625488
미륵산(익산),전북 익산시,전라북도 익산시 금마면 신용리,36.016237,127.0534563
용추계곡,전북 임실군,전라북도 임실군 청웅면 두복리,35.5784673,127.177379
하이트진로 전주공장,전북 완주군,전라북도 완주군 용진읍 신지송광로 25-33,35.9189129,127.1769207
훈몽재 유지,전북 순창군,전라북도 순창군 쌍치면 둔전2길 83,35.472234,126.968398
논개생가,전북 장수군,전라북도 장수군 장계면 의암로 558,35.6794934,127.6211233
춘향사당,전북 남원시,전라북도 남원시 요천로 1447,35.4032881,127.3794357
춘향허브마을,전북 남원시,전라북도 남원시 운봉읍 바래봉길 139,35.4326946,127.5422159
남천교 청연루,전북 전주시,전라북도 전주시 완산구 천경로 40,35.8099856,127.1535172
부안동문안당산,전북 부안군,전라북도 부안군 부안읍 동중리,35.7328862,126.7354056
모악산,전북 완주군,전라북도 완주군 구이면,35.7318915,127.1209314
귀정사(남원),전북 남원시,전라북도 남원시 산동면 대상2길 246,35.5124009,127.4555792
덕산계곡,전북 장수군,전라북도 장수군 장수읍 덕산리 772,35.6021063,127.543392
동락원,전북 전주시,전라북도 전주시 완산구 은행로 33-6,35.8168033,127.1527709
천양정,전북 전주시,전라북도 전주시 완산구 전주천서로 237,35.8154323,127.1379263
오봉산,전북 완주군,전라북도 완주군 구이면 백여리 소모마을 일원,35.65245,127.105771
세심자연휴양림,전북 임실군,전라북도 임실군 삼계면 임삼로 485,35.5141541,127.2401519
가마소계곡,전북 부안군,전라북도 부안군 상서면 청림리,35.6565133,126.6209965
장군목유원지,전북 순창군,전라북도 순창군 동계면 장군목길 686-1,35.469734,127.1903663
석탄사(정읍),전북 정읍시,전라북도 정읍시 칠보면 허궁실2길 186-125,35.5640541,126.9862564
청하서원,전북 전주시,전라북도 전주시 완산구 중인1길 272,35.7573812,127.0850557
남원자연휴양림,전북 남원시,전라북도 남원시 보산로 228,35.4602539,127.4170303
황윤석 생가,전북 고창군,전라북도 고창군 성내면 조동길 33,35.5602853,126.7551849
미당 서정주 생가,전북 고창군,전라북도 고창군 부안면 미당길 16,35.5354077,126.6080606
하늘내들꽃마을 [녹색농촌체험],전북 장수군,전라북도 장수군 천천면 천천북로 554,35.7904147,127.5427842
데미샘,전북 진안군,전라북도 진안군 백운면 데미샘1길,35.6485938,127.4549625
익산 미륵사지 당간지주,전북 익산시,전라북도 익산시 금마면 기양리,36.0143805,127.0235436
비비정예술열차,전북 완주군,전라북도 완주군 삼례읍 비비정길 73-21,35.8995493,127.0681123
옥천암(진안),전북 진안군,전라북도 진안군 용담면 주용로 227-164,35.9656472,127.4758398
줄포만갯벌생태공원,전북 부안군,전라북도 부안군 줄포면 생태공원로 38,35.5795477,126.6664971
대아저수지(대아호),전북 완주군,전라북도 완주군 동상면 대아리,35.9796908,127.296062
부안김씨종중고문서,전북 부안군,전라북도 부안군 보안면 우동길 47-20,35.6210974,126.6392659
순창 충신리 석장승,전북 순창군,전라북도 순창군 순창읍 장류로 407-11,35.3771609,127.1480619
운곡습지,전북 고창군,전라북도 고창군 아산면 용계리 212번지,35.4754448,126.6326236
낙양사,전북 김제시,전라북도 김제시 금구면 청운4길 87-3,35.8115444,126.9801116
금강호 관광지,전북 군산시,전북 군산시 성산면 성덕리,36.0177549,126.7680125
달오름마을,전북 남원시,전라북도 남원시 인월면 인월서길 42,35.4567719,127.5926244
완주 두억마을 [농촌체험휴양마을],전북 완주군,전라북도 완주군 용진읍 두억길 13-12,35.8955824,127.1913175
만경강,전북 익산시,전라북도 익산시 춘포면 만경강길 905,35.8989883,127.0258058
뱀사골 와운마을,전북 남원시,전라북도 남원시 산내면 와운길 249,35.3628538,127.5925994
옥구향교,전북 군산시,전라북도 군산시 옥구읍 광월길 33-50,35.9305628,126.7071797
남원성,전북 남원시,전라북도 남원시 동충동,35.4115453,127.3815747
약수암(전주),전북 전주시,전라북도 전주시 덕진구 도당산로 46-10,35.8450654,127.1583995
대모암(순창),전북 순창군,전라북도 순창군 순창읍 장류로 197-22,35.3728763,127.1240598
완주 안덕마을,전북 완주군,전라북도 완주군 구이면 장파길 72,35.6950703,127.0998489
백학관광농원,전북 정읍시,전라북도 정읍시 백학3길 81-30,35.4992075,126.8469403
선비문화체험관 우리누리,전북 정읍시,전라북도 정읍시 산내면 청정로 1694,35.5763587,127.0650435
내장산 굴거리나무군락,전북 정읍시,전라북도 정읍시 내장산로 987-30,35.4865305,126.9165026
순창향교,전북 순창군,전라북도 순창군 순창읍 교성1길 13,35.3734718,127.1343916
정읍어린이교통공원,전북 정읍시,전라북도 정읍시 벚꽃로 537,35.5559628,126.8694779
익산 중앙동 구 삼산의원,전북 익산시,전라북도 익산시 중앙로 22-253,35.937781,126.9492563
임실 오수망루,전북 임실군,전라북도 임실군 오수면 오수로 146,35.5381001,127.3288103
토옥동계곡,전북 장수군,전라북도 장수군 계북면 양악리,35.7949685,127.6693978
정읍 보화리 석조이불입상,전북 정읍시,전라북도 정읍시 소성면 보화리 116,35.5592362,126.7772921
익산제석사지,전북 익산시,전라북도 익산시 왕궁면 왕궁리,35.974286,127.0639906
백운관광농원,전북 진안군,전라북도 진안군 백운면 백운동로 426-5,35.6817646,127.435794
신림저수지,전북 고창군,전라북도 고창군 신림면 왕림로 130,35.4676999,126.7076331
진포시비공원,전북 군산시,전라북도 군산시 내흥동,35.9973381,126.7586379
상원사(고창),전북 고창군,전라북도 고창군 고창읍 월곡리,35.4395856,126.7264944
무주 신풍령약수터,전북 무주군,전라북도 무주군 무풍면 구천동로,35.8918153,127.8162145
선운산 생태숲,전북 고창군,전라북도 고창군 아산면 선운사로 158-6,35.502533,126.5866689
내도리강변유원지,전북 무주군,전라북도 무주군 무주읍 내도로 126,36.0167105,127.6450692
모항갯벌체험장,전북 부안군,전라북도 부안군 변산면 모항길 107,35.5872168,126.5138679
원등산,전북 완주군,전라북도 완주군 소양면 해월리 다리목마을 일원,35.884568,127.260458
신광사(장수),전북 장수군,전라북도 장수군 천천면 신광길 31,35.7047943,127.4947199
고창 무장 동학농민혁명 기포지,전북 고창군,전라북도 고창군 공음면 구암리,35.4018391,126.506708
문수사(고창),전북 고창군,전라북도 고창군 고수면 칠성길 135,35.3808119,126.7260064
장수 봉덕리 느티나무,전북 장수군,전라북도 장수군 천천면 고금길 48,35.7353108,127.5286263
백제도예원,전북 익산시,전라북도 익산시 하나로 685,35.9400674,126.9801655
진포대첩 기념탑,전북 군산시,전라북도 군산시 성산면 강변로 477,36.0112627,126.756237
내장산조각공원,전북 정읍시,전라북도 정읍시 내장호반로 214,35.4996462,126.9170929
옥산서원,전북 정읍시,전라북도 정읍시 소성면 애당모촌길 9,35.5298925,126.7799029
백현서원,전북 완주군,전라북도 완주군 고산면 눈기러기로 66-73,35.9857436,127.2121063
고스락,전북 익산시,전라북도 익산시 함열읍 익산대로 1424-14,36.046271,126.9596013
순창 거북장수마을 [농촌전통테마],전북 순창군,전라북도 순창군 동계면 귀미로 290,35.4438245,127.2115218
격포항,전북 부안군,전북 부안군 변산면 격포리,35.6126119,126.4699182
완주상관편백숲,전북 완주군,전라북도 완주군 상관면 죽림리,35.7407044,127.2198943
강증산 탄생지,전북 정읍시,전라북도 정읍시 덕천면 신송길 34-2,35.630694,126.8413401
황강서원,전북 전주시,전라북도 전주시 완산구 황강서원5길 8-7,35.829055,127.1032346
한국과학기술연구원(KIST) 전북분원,전북 완주군,전라북도 완주군 봉동읍 추동로 92,35.9627339,127.1566443
가인 김병로 생가터,전북 순창군,전라북도 순창군 복흥면 하리길 160,35.450595,126.9773621
방축도,전북 군산시,전라북도 군산시 옥도면 방축도1길 13-1,35.8505637,126.3752386
용담댐 물 문화관,전북 진안군,전라북도 진안군 안천면 안용로 747,35.9451629,127.5285936
무주 적상산성,전북 무주군,전라북도 무주군 적상면 괴목리,35.9155505,127.7178651
두포갯벌체험장,전북 부안군,전라북도 부안군 변산면 도청두포길 13,35.6042505,126.47996
무병장수마을,전북 장수군,전라북도 장수군 계북면 토옥동로 114,35.8065131,127.6397363
태봉사(익산),전북 익산시,전라북도 익산시 삼기면 연동리 150,36.0330864,127.0193747
죽림정사(백용성 조사 탄생성지),전북 장수군,전라북도 장수군 번암면 죽림2길 31,35.5396266,127.5413698
운수사(임실),전북 임실군,전라북도 임실군 임실읍 봉황10길 109,35.6178712,127.2855817
남원서천리당산,전북 남원시,전라북도 남원시 운봉읍 서천리,35.4371308,127.5265807
부안 격포리 후박나무군락,전북 부안군,전라북도 부안군 변산면 격포리 산35-14,35.634992,126.4613785
운심사(군산),전북 군산시,전라북도 군산시 대야면 오동길 30-28,35.9465774,126.8116919
장안산관광농원,전북 장수군,전라북도 장수군 계남면 지소골길 126-11,35.6547961,127.5910404
죽림폭포공원,전북 정읍시,전라북도 정읍시 천변로 176,35.5603566,126.8519352
신석정 고택,전북 부안군,전라북도 부안군 부안읍 석정로 63,35.7403931,126.7346154
적상산성 호국사비,전북 무주군,전라북도 무주군 적상면 산성로 1050,35.9447824,127.6917117
권희문가옥,전북 장수군,전라북도 장수군 산서면 오메길 9,35.587531,127.3863888
대원사(완주),전북 완주군,전라북도 완주군 구이면 모악산길 243,35.7323698,127.0956688
전주 초코파이 체험장,전북 전주시,전라북도 전주시 완산구 간납로 1,35.8173732,127.1577844
치명자산성지,전북 전주시,전라북도 전주시 완산구 바람쐬는길 89,35.8072184,127.1662654
용흥리 해정사지 석탑,전북 정읍시,전라북도 정읍시 고부면 해정길 56-48,35.624356,126.762676
익산 고도리 석조여래입상,전북 익산시,전라북도 익산시 금마면 동고도리,35.9928331,127.05943
지리산 북부 국립공원,전북 남원시,전라북도 남원시 주천면 정령치로 255,35.3894042,127.4615046
구룡계곡,전북 남원시,전라북도 남원시 주천면 구룡폭포길,35.395277,127.4965724
월명암(부안),전북 부안군,전라북도 부안군 변산면 내변산로 236-180,35.6408083,126.5582122
성황사(부안),전북 부안군,전라북도 부안군 부안읍 서림공원길 92,35.7354101,126.7308728
장자도 어촌체험마을,전북 군산시,전라북도 군산시 옥도면 장자도1길 26-2,35.8099032,126.3965768
성모암(김제),전북 김제시,전라북도 김제시 만경읍 화포3길 54-9,35.8872357,126.8050538
백지사터,전북 익산시,전라북도 익산시 여산면 영전길 2-95,36.0590999,127.0851964
수만리마애석불,전북 완주군,전라북도 완주군 동상면 수만리 4,35.9183209,127.2856289
위도 치도리마을,전북 부안군,전라북도 부안군 위도면 날마통길,35.5946422,126.262395
임피향교,전북 군산시,전라북도 군산시 임피면 임피향교길 46,35.988094,126.8482753
무주향교,전북 무주군,전라북도 무주군 무주읍 단천로 135,36.0081568,127.6659746
성수산자연휴양림,전북 임실군,전라북도 임실군 성수면 성수산길 374,35.6377086,127.4052838
와룡소계곡,전북 부안군,전라북도 부안군 변산면 실상길 60,35.6417738,126.5798575
선운산 낙조대,전북 고창군,전라북도 고창군 아산면 선운사로 158-6,35.502533,126.5866689
용담사(남원),전북 남원시,전라북도 남원시 주천면 원천로 165-12,35.409618,127.4111248
해월암(임실),전북 임실군,전라북도 임실군 오수면 오수8길 49-30,35.5370027,127.3229351
진안 평지리 이팝나무 군,전북 진안군,전라북도 진안군 마령면 임진로 2122,35.7354689,127.3699825
부안 유천리 요지,전북 부안군,전라북도 부안군 보안면 유천리,35.6012267,126.654236
백운사(익산),전북 익산시,전라북도 익산시 여산면 천호산길 155-23,36.0433742,127.1221612
이매창묘,전북 부안군,전라북도 부안군 부안읍 매창로 89,35.7193444,126.7287846
강천산계곡,전북 순창군,전북 순창군 팔덕면 청계리,35.4071696,127.0687011
관성묘,전북 전주시,전라북도 전주시 완산구 남고산성1길 159-9,35.7966656,127.1601415
진안향교,전북 진안군,전라북도 진안군 진안읍 향교길 13-6,35.7939633,127.4268762
무주 삼공리 반송,전북 무주군,전라북도 무주군 설천면 삼공리 산31,35.877476,127.778883
화산서원(익산),전북 익산시,전라북도 익산시 금마면 용순신기길 44-76,36.0143978,127.0378572
심원계곡,전북 남원시,전라북도 남원시 산내면 지리산로 842-8,35.3851324,127.5881926
남원향교,전북 남원시,전라북도 남원시 향교길 43,35.4218206,127.3830714
무주반디랜드 반딧불이자연학교,전북 무주군,전라북도 무주군 설천면 무설로 1324,36.0111137,127.758702
한벽당,전북 전주시,전라북도 전주시 완산구 기린대로 2,35.8118759,127.1608821
지사면 고인돌군,전북 임실군,전라북도 임실군 지사면 계산리,35.5594898,127.3422342
고부구읍성,전북 정읍시,전라북도 정읍시 고부면 고부리,35.6174244,126.7708889
두곡서원(김제),전북 김제시,전라북도 김제시 진봉면 심포9길 31,35.8565391,126.7159165
장현식고택,전북 전주시,전라북도 전주시 완산구 향교길 119-6,35.8124684,127.1565548
용굴,전북 정읍시,전라북도 정읍시 내장산로 936,35.4933352,126.9278556
구송정 유원지,전북 순창군,전라북도 순창군 동계면 서호길 48-12,35.4308342,127.2379409
정구례고가(정구례옛집),전북 김제시,전라북도 김제시 장화2길 150-5,35.7739497,126.8585735
3.1동산,전북 임실군,전라북도 임실군 임실읍 이도리,35.617628,127.2857628
이배원 가옥,전북 익산시,전라북도 익산시 함라면 천남1길 13,36.0603311,126.9102509
소충사,전북 임실군,전라북도 임실군 성수면 산성로 725-23,35.6232249,127.3470047
고창 무장객사,전북 고창군,전라북도 고창군 무장면 무장읍성길 45,35.4182327,126.5574379
말목장터와 감나무,전북 정읍시,전라북도 정읍시 이평면 두자리,35.657435,126.8382328
추수경장군묘역,전북 완주군,전라북도 완주군 봉동읍 추동안길 14-7,35.9596649,127.1523363
군산 발산리 오층석탑,전북 군산시,전라북도 군산시 개정면 바르메길 43,35.9590303,126.7962178
백산저수지,전북 김제시,전북 김제시 백산면 하정리,35.8427978,126.8944789
정령치,전북 남원시,전라북도 남원시 산내면 정령치로 1523,35.3638574,127.5220679
고창오거리당산,전북 고창군,전라북도 고창군 고창읍 읍내리 584-6,35.433499,126.6961969
순창 남계리 석장승,전북 순창군,전라북도 순창군 순창읍 장류로 407-11,35.3771609,127.1480619
부안 도청리 호랑가시나무군락,전북 부안군,전라북도 부안군 변산면 도청길 106,35.5861207,126.5112302
정읍향교,전북 정읍시,전라북도 정읍시 충정로 184,35.5669259,126.8605133
합미성(장수),전북 장수군,전라북도 장수군 장수읍 석천리,35.5761486,127.4695279
주천서원,전북 진안군,전라북도 진안군 주천면 금평1길 30-7,35.9747629,127.4303345
영등동 유적,전북 익산시,전라북도 익산시 궁동로 57,35.9626723,126.9777362
고창 고색창연마을 [농촌전통테마],전북 고창군,전라북도 고창군 신림면 가평1길 65,35.4779383,126.7416927
도덕폭포,전북 정읍시,전북 정읍시 내장동,35.4954377,126.9138423
화동서원,전북 고창군,전라북도 고창군 대산면 교동길 24,35.3443515,126.5862075
익산 낭산산성,전북 익산시,전라북도 익산시 낭산면 낭산리 산48,36.0569718,127.037519
와룡암,전북 진안군,전라북도 진안군 주천면 금평1길 10-8,35.9755778,127.4294161
청룡사(김제),전북 김제시,전라북도 김제시 금산면 모악15길 80-122,35.7196985,127.0653922
충무공원,전북 정읍시,전라북도 정읍시 충정로 214-3,35.5689651,126.8577034
의사전해산 추모비,전북 장수군,전라북도 장수군 번암면,35.5320003,127.5438587
영천사,전북 김제시,전라북도 김제시 황산5길 106-28,35.7783763,126.9338238
국사봉(순창),전북 순창군,전라북도 순창군 쌍치면 국사봉로 308-75,35.525897,126.9811211
청림리 석불좌상,전북 부안군,전라북도 부안군 상서면 개암로 248,35.662564,126.6496961
염의서원,전북 군산시,전라북도 군산시 옥산면 염의서원길 156-9,35.9401145,126.7141636
임옥산효자비,전북 장수군,전라북도 장수군 산서면 오산리,35.5967183,127.380924
최호장군유지,전북 군산시,전라북도 군산시 개정면 원발산길 33-2,35.9684217,126.795266
보천사(군산),전북 군산시,전라북도 군산시 서수면 내무장길 249,36.0120365,126.8535212
임실향교,전북 임실군,전라북도 임실군 임실읍 봉황7길 23,35.617095,127.2793507
야미도,전북 군산시,전라북도 군산시 옥도면 야미도3길 25-2,35.8415603,126.4903365
월명사(김제),전북 김제시,전라북도 김제시 금산면 모악7길 128-27,35.7254396,127.0257038
선계폭포,전북 부안군,전북 부안군 보안면 우동리,35.6242479,126.6361572
진안 배넘실마을,전북 진안군,전라북도 진안군 상전면 금지2길 4-3,35.8605251,127.4754011
고창선사문화탐방로1,전북 고창군,전라북도 고창군 고창읍 고인돌공원길 74,35.4417204,126.6514473
잼버리 공원,전북 부안군,전라북도 부안군 하서면 백련리,35.6975486,126.6014391
청메골 선산마을,전북 고창군,전라북도 고창군 공음면 학원농장길 158-6,35.3763158,126.5428108
참당암(고창),전북 고창군,전라북도 고창군 아산면 도솔길 194-77,35.492878,126.5637497
남산사(정읍),전북 정읍시,전라북도 정읍시 북면 정신로 183-64,35.6087303,126.862275
여산숲정이순교성지,전북 익산시,전라북도 익산시 여산면 여산리,36.0569181,127.090249
승암사(전주),전북 전주시,전라북도 전주시 완산구 바람쐬는길 47-13,35.8091457,127.1642292
반계선생유적지,전북 부안군,전라북도 부안군 보안면 반계로 97-68,35.6195552,126.6306657
청운사(김제),전북 김제시,전라북도 김제시 청하면 청공로 185-80,35.8928755,126.8471583
김제향교,전북 김제시,전라북도 김제시 향교길 89-3,35.8004859,126.8794082
금강생태문화탐방로1,전북 군산시,전라북도 군산시 내흥2길 197,35.9985395,126.7595201
동림저수지,전북 고창군,전라북도 고창군 성내면 신성리,35.5514831,126.7337211
하곡마을,전북 진안군,전라북도 진안군 부귀면 하수항길 9-20,35.8521669,127.3933816
산속등대 복합문화공간,전북 완주군,전라북도 완주군 소양면 원암로 82,35.869166,127.2525324
장재영가옥,전북 장수군,전라북도 장수군 번암면 원노단길 15,35.532431,127.5427947
부용사,전북 김제시,전라북도 김제시 백구면 황토로 1074-30,35.8790118,126.9559235
후지리탑동석불,전북 정읍시,전라북도 정읍시 영원면 후지리,35.6379544,126.7717649
문창서원,전북 군산시,전라북도 군산시 옥구읍 광월길 33-50,35.9305628,126.7071797
덕천서원,전북 무주군,전라북도 무주군 설천면 이남3길 18-5,35.9964941,127.8012265
청호저수지,전북 부안군,전북 부안군 하서면 청호리,35.7334217,126.6525107
쌍용사(김제),전북 김제시,전라북도 김제시 금산면 금산사1길 70-11,35.7213934,127.0049708
강천사 모과나무,전북 순창군,전라북도 순창군 팔덕면 강천산길 270,35.398638,127.0556971
흥복사(김제),전북 김제시,전라북도 김제시 승반길 103,35.8290198,126.9062352
익산 두여마을,전북 익산시,전라북도 익산시 여산면 용기길 66,36.0761275,127.0689189
위봉폭포,전북 완주군,전라북도 완주군 소양면 대흥리,35.9037773,127.2396811
석불사(익산),전북 익산시,전라북도 익산시 삼기면 진북로 273,36.0297943,127.0075699
권번문화예술원 예가인,전북 정읍시,전라북도 정읍시 산외면 공동길 58,35.6173675,127.0199155
금강생태문화탐방로2,전북 군산시,전라북도 군산시 나포면 철새로 987-1,36.0483722,126.8480648
견두산,전북 남원시,전라북도 남원시 수지면 고평리,35.3473662,127.4004582
위도해수욕장,전북 부안군,전라북도 부안군 위도면 위도로 366,35.6054565,126.2850191
진흥굴,전북 고창군,전라북도 고창군 아산면 선운사로 250,35.4969385,126.5782255
고창 분청사기요지,전북 고창군,전라북도 고창군 부안면 수동리,35.5363629,126.6654178
대아관광농원,전북 완주군,전라북도 완주군 고산면 대아저수로 304,35.9827773,127.2516377
수분마을,전북 장수군,전라북도 장수군 장수읍 뜬봉샘길 50,35.5908971,127.5002578
부안향교,전북 부안군,전라북도 부안군 부안읍 당간지주1길 15,35.730514,126.7287851
귀래정(순창),전북 순창군,전라북도 순창군 순창읍 가남리 산2-1,35.3643998,127.1387304
마이산 미로공원,전북 진안군,전라북도 진안군 진안읍 단양리,35.7712447,127.4211188
심곡사(익산),전북 익산시,전라북도 익산시 낭산면 장암길 113,36.0376452,127.0365169
사곡리남근석,전북 임실군,전라북도 임실군 덕치면 사곡리 1019,35.5168824,127.1778674
만취정,전북 임실군,전라북도 임실군 삼계면 산수1길 62,35.4798011,127.2791896
삼불암,전북 김제시,전라북도 김제시 죽산면 서포4길 443,35.7720322,126.7892175
고홍건신도비,전북 부안군,전라북도 부안군 하서면 석불산길 138,35.7266944,126.6418513
봉황사(김제),전북 김제시,전라북도 김제시 금구면 오봉2길 474,35.7747611,127.0714021
고산향교,전북 완주군,전라북도 완주군 고산면 고산로 147-27,35.9760681,127.2138547
운장산,전북 완주군,전라북도 완주군 동상면,35.9368622,127.2967783
발산리 육각부도,전북 군산시,전라북도 군산시 개정면 바르메길 43,35.9590303,126.7962178
운장산(진안),전북 진안군,전북 진안군 주천면,35.9751599,127.4257385
천곡서원,전북 완주군,전라북도 완주군 화산면 화산남로 52-32,36.0036914,127.227144
고창선사문화탐방로2,전북 고창군,전라북도 고창군 고창읍 고인돌공원길 75,35.4417204,126.6514473
김제평야,전북 김제시,"전라북도 김제시 만경읍 화포리,소토리,청하면 동지산리 일대",35.9027779,126.8462648
금마저수지,전북 익산시,전라북도 익산시 금마면 고도9길 41-64,36.0017938,127.0568451
학정리석불,전북 임실군,전라북도 임실군 삼계면 학정2길 117-8,35.505827,127.2307084
삼성산,전북 정읍시,전라북도 정읍시 신정동,35.4934581,126.8485871
불주사(불지사),전북 군산시,전라북도 군산시 나포면 군둔길 226,36.0246185,126.8468031
무주국제화교육센터,전북 무주군,전라북도 무주군 무주읍 한풍루로 326-36,36.0022174,127.6641062
도산서당,전북 고창군,전라북도 고창군 고창읍 도산1길 4,35.4396874,126.6609484
노동환가옥,전북 임실군,전라북도 임실군 삼계면 후천1길 19-20,35.4843856,127.2661987
문팩토리매직 (관광두레 주민사업체),전북 군산시,전라북도 군산시 동령길 33-1,35.9876333,126.7135404
대원사 용각부도,전북 완주군,전라북도 완주군 구이면 모악산길 243,35.7323698,127.0956688
용추폭포(무주),전북 무주군,전라북도 무주군 안성면 칠연로,35.8550286,127.6699634
대항갯벌체험,전북 부안군,전라북도 부안군 변산면 변산로 1906,35.6676998,126.5159933
내소사삼층석탑,전북 부안군,전라북도 부안군 진서면 내소사로 243,35.6175898,126.5873648
금강,전북 장수군,전라북도 장수군 천천면 오리골길,35.7845578,127.5256051
상주사,전북 군산시,전라북도 군산시 서수면 함안로 57-29,36.0008504,126.8523201
부안 우리밀마을,전북 부안군,전라북도 부안군 보안면 반계로 14,35.6121302,126.63279
동고사(전주),전북 전주시,전라북도 전주시 완산구 낙수정2길 103-100,35.8097395,127.1678423
군산 시간여행마을,전북 군산시,전라북도 군산시 내항1길 8,35.9886233,126.7181297
남문안당산,전북 부안군,전라북도 부안군 부안읍 남문안길 10,35.7307316,126.7348965
신흥계곡,전북 완주군,전라북도 완주군 경천면,36.0225245,127.2526153
도산서원,전북 무주군,전라북도 무주군 안성면 사전1길 24-13,35.8718738,127.6684511
삼세오충렬사,전북 익산시,전라북도 익산시 용안면 현내로 468,36.1198845,126.9603238
무주 금척마을(금자마을),전북 무주군,전라북도 무주군 무풍면 탄방로 181,35.9683464,127.8748032
옥산서원,전북 군산시,전라북도 군산시 옥구읍 광월길 33-50,35.9305628,126.7071797
조경단,전북 전주시,전라북도 전주시 덕진구 덕진동,35.845357,127.1207252
화산서원(진안),전북 진안군,전라북도 진안군 안천면 백삼로 30-1,35.9033245,127.5603385
용봉사(김제),전북 김제시,전라북도 김제시 용지면 봉의로 205,35.8749512,126.9651626
은적사(김제),전북 김제시,전라북도 김제시 금산면 구성3길 126-20,35.738546,127.0100716
미륵암석불,전북 남원시,전라북도 남원시 시묘길 24-35,35.3891277,127.3719222
익산 입점리 고분,전북 익산시,전라북도 익산시 웅포면 입점고분길 80,36.0475955,126.8732051
홀어머니산성,전북 순창군,전라북도 순창군 순창읍 백산리,35.3656296,127.1137774
추령천,전북 순창군,전라북도 순창군 복흥면 석보리,35.4651644,126.9885887
임병찬 창의유적지,전북 정읍시,전라북도 정읍시 산내면 종성리,35.5274475,127.0833941
사현사,전북 김제시,전라북도 김제시 금구면 선비로 1017-27,35.7867192,127.0252264
이병기선생 생가,전북 익산시,전라북도 익산시 여산면 가람1길 64-8,36.0359339,127.0847586
금구향교,전북 김제시,전라북도 김제시 금구면 금구3길 12,35.7728506,127.0112768
구암동산,전북 군산시,전라북도 군산시 영명길 29,35.9863334,126.7420728
봉래구곡,전북 부안군,전라북도 부안군 변산면 중계리,35.6568087,126.5757899
남원 신계리 마애여래좌상,전북 남원시,전라북도 남원시 대산면 신계리,35.4284016,127.3045089
미륵사지 석등하대석,전북 익산시,전라북도 익산시 금마면 기양리 미륵사지내,36.012325,127.0306222
자천대,전북 군산시,전라북도 군산시 옥구읍 광월길 33-50,35.9305628,126.7071797
장안산군립공원,전북 장수군,전북 장수군 계남면 장안리,35.6507086,127.593617
망제동석불입상(대암석불),전북 정읍시,전라북도 정읍시 망제동 보화리,35.6059364,126.8427852
타루비(장수),전북 장수군,전라북도 장수군 천천면 장자울로 4,35.6847852,127.5170868
만석보혁파비,전북 정읍시,전라북도 정읍시 이평면 하송리,35.6781952,126.8537888
익산 아홉마디풀향기마을,전북 익산시,전라북도 익산시 함라면 소룡길 15-14,36.0340139,126.8746724
충렬사,전북 정읍시,전라북도 정읍시 충정로 228-13,35.5698862,126.8574101
성황산,전북 정읍시,전라북도 정읍시 수성동,35.5691905,126.8533688
용담향교,전북 진안군,전라북도 진안군 동향면 진성로 1697,35.842103,127.5758798
천황사(진안),전북 진안군,전라북도 진안군 정천면 수암길 54,35.905173,127.4318584
동고산성,전북 전주시,전라북도 전주시 완산구 대성동,35.7930023,127.1749153
고창선사문화탐방로3,전북 고창군,전라북도 고창군 고창읍 고인돌공원길 75,35.4417204,126.6514473
서고사(전주),전북 전주시,전라북도 전주시 덕진구 정여립로 1010-90,35.8352562,127.0849716
충경사,전북 전주시,전라북도 전주시 완산구 남고산성1길 31,35.8050989,127.1568872
치동서원,전북 군산시,전라북도 군산시 옥구읍 오곡길 29-13,35.9149989,126.6913494
창덕리 남근석,전북 순창군,전라북도 순창군 팔덕면 창덕리,35.3713299,127.0740691
남중동 오층 석탑,전북 익산시,전라북도 익산시 익산대로24길 8-5,35.9455434,126.9521162
용암사,전북 장수군,전라북도 장수군 천천면 춘송리,35.728098,127.5470387
대곡리암각화,전북 남원시,전라북도 남원시 대산면 대곡리,35.4076927,127.3152025
고창향교,전북 고창군,전라북도 고창군 고창읍 향교길 27-3,35.4375504,126.7026382
만석보지,전북 정읍시,전라북도 정읍시 이평면 하송리,35.6781952,126.8537888
천국사(김제),전북 김제시,전라북도 김제시 금산면 청도4길 143-28,35.7358597,127.0550917
선국사(남원),전북 남원시,전라북도 남원시 산성길 239,35.4292728,127.3577477
영월암(장수),전북 장수군,전라북도 장수군 산서면 봉서로 182-135,35.5468555,127.3859036
여원치마애불상,전북 남원시,전라북도 남원시 이백면 양가리,35.4430758,127.4812836
임실향교 대성전,전북 임실군,전라북도 임실군 임실읍 봉황7길 23,35.617095,127.2793507
부안 구암리 지석묘군,전북 부안군,전라북도 부안군 하서면 석상리,35.702116,126.6426584
운곡서원,전북 고창군,전라북도 고창군 아산면 운곡서원길 337,35.4696776,126.6517155
고창갯벌 (전북 서해안권 국가지질공원),전북 고창군,전라북도 고창군 심원면 만돌리,35.5269836,126.5191827
남원 실상사 석장생,전북 남원시,전라북도 남원시 산내면 입석길 94-129,35.4167148,127.6351305
고리봉,전북 남원시,전라북도 남원시 대강면 강석리,35.3624175,127.2293757
안현돋음볕마을,전북 고창군,전라북도 고창군 부안면 안현길 14,35.5389331,126.6116088
죽도마을,전북 고창군,전라북도 고창군 부안면 봉암리 683,35.5714795,126.5888576
동편제탯자리,전북 남원시,전라북도 남원시 운봉읍 비전길 7,35.4577767,127.5626788
남평문씨열녀비,전북 장수군,전라북도 장수군 산서면 오산리,35.5967183,127.380924
전주동헌,전북 전주시,전라북도 전주시 완산구 향교길 119-6,35.8124684,127.1565548
김기서강학당,전북 고창군,전라북도 고창군 고수면 사동길 40-160,35.3945801,126.706453
백산서원,전북 김제시,전라북도 김제시 백산면 하서3길 84,35.8256186,126.8718349
용문굴,전북 고창군,전라북도 고창군 아산면 선운사로 250,35.4969385,126.5782255
반곡서원(진주),전북 전주시,전라북도 전주시 완산구 황학1길 11-24,35.8075662,127.1556518
용연정,전북 장수군,전라북도 장수군 계북면 양악길 156-12,35.8037727,127.6423411
화암사 우화루,전북 완주군,전라북도 완주군 경천면 화암사길 271,36.0663134,127.2870608
천등산,전북 완주군,전라북도 완주군 운주면 산복리,36.109414,127.3329433
미륵암(남원),전북 남원시,전라북도 남원시 시묘길 24-35,35.3891277,127.3719222
김제동헌,전북 김제시,전라북도 김제시 동헌4길 46-1,35.8007363,126.882103
법인정사(김제),전북 김제시,전라북도 김제시 금구면 선비로 1126-26,35.7873596,127.0376974
이웅재고가,전북 임실군,전라북도 임실군 오수면 둔덕2길 55,35.5043642,127.3168312
천일폭포,전북 무주군,전라북도 무주군 적상면 산성로,35.9716333,127.6932819
남원 진기리 느티나무,전북 남원시,전라북도 남원시 보절면 보절신기길 14-3,35.4958092,127.4220289
불정사(전주),전북 전주시,전라북도 전주시 완산구 남고산성1길 53-140,35.8029171,127.1560196
벽성서원,전북 김제시,전라북도 김제시 향교길 89-16,35.8011708,126.8796995
해리마을,전북 고창군,전북 고창군 해리면 동호리,35.5090529,126.4889245
도동서원(고창),전북 고창군,전라북도 고창군 신림면 가평1길 64,35.4780589,126.7420257
팔효사,전북 김제시,전라북도 김제시 효자로 109-2,35.7924006,126.8890419
화산서원비,전북 전주시,전라북도 전주시 완산구 중화산동,35.8195981,127.120609
용호서원,전북 남원시,전라북도 남원시 주천면 정령치로 269,35.3885854,127.4624478
"섬진강(천담,구담)",전북 임실군,전라북도 임실군 덕치면 천담2길 104,35.4784027,127.1796153
영광정,전북 순창군,전북 순창군 쌍치면 둔전리,35.4749142,126.9712281
성산공원,전북 김제시,전라북도 김제시 향교길 89-16,35.8011708,126.8796995
용화사(부안),전북 부안군,전라북도 부안군 행안면 미륵골길 43,35.732711,126.7145913
안심사(완주),전북 완주군,전라북도 완주군 운주면 안심길 372,36.1082627,127.3030323
월강사,전북 장수군,전라북도 장수군 장계면 도장골길 37-8,35.731962,127.5962035
백장암 삼층석탑,전북 남원시,전라북도 남원시 산내면 천왕봉로 447-76,35.443001,127.6201473
남원사(익산),전북 익산시,전라북도 익산시 여산면 서촌1길 34-3,36.0556508,127.0827201
태권도공원 전망대,전북 무주군,전라북도 무주군 설천면 무설로 1482,36.0105237,127.7779884
호산서원,전북 완주군,전라북도 완주군 삼례읍 비비정길 73-16,35.8996126,127.0683674
정읍 은선리 삼층석탑,전북 정읍시,전라북도 정읍시 영원면 은선리 43,35.6436278,126.793704
성관사,전북 장수군,전라북도 장수군 장계면 장무로 492-83,35.7523542,127.6038539
육송사,전북 김제시,전라북도 김제시 금산면 삼봉길 203-7,35.7314499,127.0067791
익산향교,전북 익산시,전라북도 익산시 금마면 고도7길 11-3,35.9968892,127.0585904
내원암,전북 부안군,전라북도 부안군 위도면 내원암길 42,35.5878923,126.2729749
오리정,전북 남원시,전라북도 남원시 사매면 월평리,35.4909316,127.3491828
성가리 백로마을,전북 임실군,전북 임실군 임실읍 성가리,35.6112662,127.2717782
치목삼베마을,전북 무주군,전라북도 무주군 적상면 치목길 83,35.9308565,127.7095948
이임간유허비,전북 장수군,전라북도 장수군 천천면 월곡리,35.6958997,127.5332123
백련산,전북 임실군,전라북도 임실군 강진면 강진방현길 65,35.5536672,127.1500004
도계서원,전북 정읍시,전라북도 정읍시 덕천면 도계1길 34-13,35.6383147,126.8123967
관응사(김제),전북 김제시,전라북도 김제시 금구면 선비로 1354-42,35.7896052,127.0574471
익산 백제토기도요지,전북 익산시,전라북도 익산시 금마면 신용리 92-2,36.0158808,127.0566262
마이산 신제,전북 진안군,전라북도 진안군 마령면 마이산남로,35.7562203,127.4012561
서벽정,전북 무주군,전라북도 무주군 설천면 구천동로 1868-30,35.958618,127.7680111
망모당,전북 익산시,전라북도 익산시 왕궁면 장중길 105-8,35.9688027,127.0941887
옥계천,전북 완주군,전라북도 완주군 운주면 산북리 평촌,36.109414,127.3329433
용산저수지,전북 정읍시,전북 정읍시 용산동,35.5110388,126.862645
장수양악탑,전북 장수군,전라북도 장수군 계북면 양악길 156-12,35.8037727,127.6423411
천마봉,전북 고창군,전라북도 고창군 아산면 삼인리,35.4808027,126.5703443
환봉서원,전북 남원시,전라북도 남원시 금지면 금지순환길 269,35.3391553,127.2847651
우동리당산,전북 부안군,전라북도 부안군 보안면 우동길 41,35.619688,126.6383272
의견비,전북 임실군,전라북도 임실군 오수면 오수3길 5,35.5372293,127.3292752
오수리석불,전북 임실군,전라북도 임실군 오수면 오수10길 24-22,35.5342805,127.3254898
수운정,전북 임실군,전라북도 임실군 신덕면 금정길 62-4,35.668623,127.208859
수덕정,전북 익산시,전라북도 익산시 여산면 태성1길 199,36.0703882,127.0993542
"문태서, 박춘실 의병대장 전적비",전북 장수군,전라북도 장수군 계북면 양악길,35.8089674,127.635616
석담사,전북 김제시,전라북도 김제시 백구면 백구2길 3-3,35.89179,126.9505212
효충서원,전북 부안군,전라북도 부안군 하서면,35.7155507,126.6620352
승방원,전북 김제시,전라북도 김제시 아리랑로 1832-21,35.8158919,126.8967254
죽림암(임실),전북 임실군,전라북도 임실군 임실읍 호반로 79-53,35.6167794,127.2697435
지리산 천년송,전북 남원시,전라북도 남원시 산내면 와운길 255,35.3628538,127.5925994
용암서원(김제),전북 김제시,전라북도 김제시 향교길 89-22,35.8011027,126.8792579
여산동헌,전북 익산시,전라북도 익산시 여산면 동헌길 13,36.0592319,127.0857288
고부향교,전북 정읍시,전라북도 정읍시 고부면 교동4길 18,35.6215983,126.7710659
학당서원,전북 김제시,전라북도 김제시 백산면 생건길 48,35.8317492,126.8902424
남원시 옻칠공예관,전북 남원시,전라북도 남원시 요천로 1234-5,35.4220847,127.3989478
전주 동문예술거리,전북 전주시,전라북도 전주시 완산구 현무2길 38,35.8210166,127.1497935
유천서원,전북 남원시,전라북도 남원시 주생면 유매길 37,35.3838757,127.3160511
백암리남근석,전북 정읍시,전라북도 정읍시 칠보면 백암리 1095,35.5994204,126.952104
아석정,전북 익산시,전라북도 익산시 금마면 아리랑로 9-34,35.996921,127.0491294
남계정,전북 완주군,전라북도 완주군 구이면 원두현길 12-12,35.7432289,127.1229487
낙덕정,전북 순창군,전라북도 순창군 북V면 상송리,35.4500952,126.9598845
광제정,전북 임실군,전라북도 임실군 삼계면 세심길 82,35.4935076,127.2444684
달궁계곡,전북 남원시,전라북도 남원시 산내면 지리산로,35.3851324,127.5881926
개령암지 마애불상군,전북 남원시,전라북도 남원시 산내면 정령치로 1523,35.3638574,127.5220679
보흥사,전북 진안군,전라북도 진안군 마령면 원강정1길 16-133,35.7468557,127.3753901
신의연효자각,전북 진안군,전라북도 진안군 백운면 평노길 117,35.7122373,127.417271
조해영가옥,전북 익산시,전라북도 익산시 함라면 수동길 8,36.0612814,126.9105952
청계서원(부안),전북 부안군,전라북도 부안군 상서면 구청등길 49,35.6713082,126.6807192
장철성고택,전북 김제시,전라북도 김제시 금구면 서도길 69,35.7704031,127.0026044
창동서원,전북 정읍시,전라북도 정읍시 이평면 창골길 38-27,35.6551488,126.8113458
지지계곡,전북 장수군,전북 장수군 번암면 지지리 438-3,35.5987321,127.5946904
봉서사(완주),전북 완주군,전라북도 완주군 용진읍 봉서안길 313,35.9088271,127.219816
영모정,전북 진안군,전라북도 진안군 백운면 노촌리 676,35.7119115,127.417374
예종대왕태실 및 비,전북 전주시,전라북도 전주시 완산구 풍남동3가 102,35.815133,127.1501926
천곡사지 칠층석탑,전북 정읍시,전라북도 정읍시 망제천곡길,35.6173595,126.8302112
지음서원,전북 김제시,전라북도 김제시 진멀길 134-7,35.8176795,126.8834524
자락정,전북 장수군,전라북도 장수군 장계면 삼봉리,35.7202021,127.6084611
구암서원,전북 김제시,전라북도 김제시 용지면 용지로 443-16,35.8528899,126.9541671
사자사지,전북 익산시,전라북도 익산시 금마면 구룡길 57-125,36.0225758,127.0386287
사자사(사자암),전북 익산시,전라북도 익산시 금마면 구룡길 57-125,36.0225758,127.0386287
마이돈테마공원,전북 진안군,전라북도 진안군 진안읍 마이산로 130,35.7735489,127.4165262
화산사,전북 장수군,전라북도 장수군 계남면 화산길 24-21,35.6931185,127.5872086
계산서원,전북 고창군,전라북도 고창군 상하면 상라길 117,35.4561091,126.5043511
미륵암(장수),전북 장수군,전라북도 장수군 산서면 초장길 51-54,35.6034479,127.3789809
조앙사,전북 김제시,전라북도 김제시 만경읍 화포3길 63-12,35.8864242,126.8036539
도암서원,전북 장수군,전라북도 장수군 장계면 서변길 49-27,35.7389527,127.5905586
운서정,전북 임실군,전라북도 임실군 관촌면 관진로 61-20,35.6701441,127.2765944
반곡서원(완주),전북 완주군,전라북도 완주군 비봉면 반곡서원길 52-29,36.0182931,127.1808221
여산향교대성전,전북 익산시,전라북도 익산시 여산면 여산교동길 23-2,36.0549686,127.0904209
만화서원,전북 고창군,전라북도 고창군 신림면 만화길 50,35.4934308,126.7087431
백석서원,전북 김제시,전라북도 김제시 범득골길 187-22,35.8098226,126.8636968
성흥사(군산),전북 군산시,전라북도 군산시 성산면 큰골길 32-65,36.0027024,126.7820294
소세양신도비,전북 익산시,전라북도 익산시 왕궁면 용화리,36.0101908,127.0764093
두남천,전북 진안군,전북 진안군 부귀면 두남리 170,35.8429772,127.4170879
타루각,전북 장수군,전라북도 장수군 천천면 장자울로 4,35.6847852,127.5170868
천반산,전북 장수군,전라북도 장수군 천천면 연평리,35.7974313,127.5307643
익산 토성,전북 익산시,전북 익산시 금마면 서고도리,35.9915083,127.0422877
실상암,전북 순창군,전라북도 순창군 순창읍 금산로 56,35.3807753,127.1328476
원각사(김제),전북 김제시,전라북도 김제시 사정거리1길 20,35.8017309,126.8838106
관곡서원 소장 전적 및 고문서,전북 임실군,전라북도 임실군 지사면 관기1길 32-7,35.5970936,127.3598938
부안 낙조대,전북 부안군,전라북도 부안군 변산면 운산로,35.6543877,126.530682
만경향교,전북 김제시,전라북도 김제시 만경읍 두내산1길 25-10,35.8541877,126.8208133
김안균가옥,전북 익산시,전라북도 익산시 함라면 수동길 20,36.0608675,126.9094787
고산향교대성전,전북 완주군,전라북도 완주군 고산면 고산로 147-23,35.9760681,127.2138547
기미3.1운동비,전북 장수군,전북 장수군 산서면 동화리,35.5954867,127.3953936
화동서원,전북 김제시,전라북도 김제시 장화동,35.7713231,126.8586337
정수사(완주),전북 완주군,전라북도 완주군 상관면 정수사길 18,35.7831895,127.2533857
회문산,전북 순창군,전라북도 순창군 구림면 안심길 249,35.4989182,127.1181029
봉황대(장수),전북 장수군,전북 장수군 천천면 연평리,35.7974313,127.5307643
어은정,전북 순창군,전라북도 순창군 적성면 평남길 107-32,35.4237872,127.2174996
장선천,전북 완주군,전라북도 완주군 운주면 장성리 577,36.0924359,127.27745
문수사(익산),전북 익산시,전라북도 익산시 여산면 천호산길 140,36.0425659,127.1178866
대제복구비,전북 김제시,전라북도 김제시 후신길 4-27,35.7991549,126.8665537
창주서원,전북 남원시,전라북도 남원시 춘향로 64,35.4209267,127.3952418
간재선생유지,전북 부안군,전라북도 부안군 계화면 양지길 12,35.7941363,126.6371601
호암서원,전북 남원시,전라북도 남원시 덕과면 덕과도촌길 67-8,35.5057577,127.3899888
연석산,전북 완주군,전라북도 완주군 동상면 사봉리 연동마을,35.907307,127.331667
벽련암(정읍),전북 정읍시,전라북도 정읍시 내장산로 1220-74,35.4932028,126.905286
문수사(김제),전북 김제시,전라북도 김제시 황산5길 158,35.780729,126.9318324
일제강점기 군산역사관,전북 군산시,전라북도 군산시 동국사길 21,35.9828611,126.7075107
덕태산,전북 진안군,전라북도 진안군 백운면 백운동로 401-109,35.6890439,127.4408328
장수 장수리 의암송,전북 장수군,전라북도 장수군 장수읍 호비로 10,35.6476851,127.521269
팔성사(전북),전북 장수군,전라북도 장수군 장수읍 비행로 1455-94,35.6208439,127.479414
무장향교 대성전,전북 고창군,전라북도 고창군 무장면 교흥교촌길 9,35.4276881,126.5661206
백산서원,전북 익산시,전라북도 익산시 동서로3길 15,35.959933,126.9463401
남고서원,전북 정읍시,전라북도 정읍시 북면 보림1길 392,35.5727886,126.9204027
왜가리서식지,전북 임실군,전북 임실군 임실읍 성가리,35.6112662,127.2717782
자명사(익산),전북 익산시,전라북도 익산시 용안면 을동길 76-12,36.1299143,126.9541002
문수사 목조여래좌상,전북 익산시,전라북도 익산시 여산면 천호산길 140,36.0425659,127.1178866
월암서원,전북 고창군,전라북도 고창군 고창읍 월암길 75,35.4320826,126.7307595
율산서원,전북 김제시,전라북도 김제시 명덕1길 240-8,35.795059,126.8381742
화산서원(장수),전북 장수군,전라북도 장수군 계남면 화산길 24-21,35.6931185,127.5872086
동죽서원,전북 정읍시,전라북도 정읍시 덕천면 학전길 32-57,35.6138571,126.8152572
익산 연동리 석조여래좌상,전북 익산시,전라북도 익산시 삼기면 진북로 273,36.0297943,127.0075699
사동서원,전북 장수군,전라북도 장수군 산서면 사창길 35,35.5649245,127.3785722
구암정,전북 순창군,전라북도 순창군 동계면 구미리,35.4450122,127.2146977
서강사,전북 김제시,전라북도 김제시 금구면 양시로 125-27,35.7695565,127.0039841
흥덕향교,전북 고창군,전라북도 고창군 흥덕면 흥덕향교길 28-12,35.5260884,126.6933844
김육불망비,전북 익산시,전라북도 익산시 함라면 천남1길 13,36.0603311,126.9102509
상이암(임실),전북 임실군,전라북도 임실군 성수면 성수산길 658,35.6371766,127.4237898
도암서원,전북 고창군,전라북도 고창군 공음면 갑촌길 20,35.3773494,126.5068471
김남택신도비,전북 장수군,전라북도 장수군 계남면 원호덕길 79,35.710628,127.5906018
학천서원,전북 완주군,전라북도 완주군 구이면 상학길 50-8,35.7340216,127.1102619
월명공원 채만식문학비,전북 군산시,전라북도 군산시 강변로 449,36.0085755,126.7579253
원흥사(장수),전북 장수군,전라북도 장수군 산서면 원흥길 102-6,35.5893405,127.4209183
용안향교 대성전,전북 익산시,전라북도 익산시 용안면 용안교동1길 34-11,36.1215946,126.9543783
수열비,전북 장수군,전라북도 장수군 계남면 화음리,35.6989823,127.593001
정토사(정읍),전북 정읍시,전라북도 정읍시 정우면 정신로 832-20,35.658413,126.8883099
여산척화비,전북 익산시,전라북도 익산시 여산면 동헌길 13,36.0592319,127.0857288
압계서원,전북 장수군,전라북도 장수군 산서면 구암길 77-14,35.5979158,127.4038622
태인향교,전북 정읍시,전라북도 정읍시 태인면 향교2길 45,35.6540323,126.9405698
화산서원,전북 완주군,전라북도 완주군 소양면 소양신원길 186,35.8389402,127.3005319
태인동헌,전북 정읍시,전라북도 정읍시 태인면 동헌길 24,35.6537311,126.946102
창계서원,전북 장수군,전라북도 장수군 장수읍 양선길 33-6,35.6635517,127.5237865
효충서원,전북 임실군,전라북도 임실군 임실읍 임삼로 1590-20,35.5946785,127.2632524
송우암수명유허비,전북 정읍시,전라북도 정읍시 우암로 54-1,35.5663949,126.8569788
삼현서원,전북 김제시,전라북도 김제시 백산면 하흥로 243-16,35.8291883,126.8864055
순평사금동여래좌상,전북 순창군,전라북도 순창군 순창읍 금산로 66,35.3809839,127.1318867
칠보산,전북 정읍시,전라북도 정읍시 칠보면 축현리,35.5769115,126.9449885
죽계서원(무주),전북 무주군,전라북도 무주군 안성면 평장길 79,35.8455917,127.6450239
팔공산(성적산),전북 장수군,전북 장수군 장수읍 대성리 산 258-2,35.6187385,127.4599926
오괴정,전북 임실군,전라북도 임실군 삼계면 삼은2길 22-31,35.5108125,127.3027938
화강서원,전북 고창군,전라북도 고창군 고창읍 주곡1길 68-34,35.432676,126.672206
분양서원,전북 무주군,전라북도 무주군 무풍면 지성길 119,35.9548461,127.8576356
흥성동헌,전북 고창군,전라북도 고창군 흥덕면 동헌길 4,35.522572,126.700182
고림사,전북 진안군,전라북도 진안군 진안읍 상역로 174-96,35.8072332,127.404193
영천서원,전북 임실군,전라북도 임실군 지사면 영천3길 33,35.5752981,127.3747045
승방서원,전북 김제시,전라북도 김제시 아리랑로 1832-21,35.8158919,126.8967254
주진천,전북 고창군,전라북도 고창군 아산면 주진리,35.434515,126.6159377
백산서원,전북 무주군,전라북도 무주군 무풍면 북리길 40,35.9718307,127.8489266
남궁찬묘석상,전북 익산시,전라북도 익산시 성당면 목사동길 48,36.0908601,126.925936
순화리삼층석탑,전북 순창군,전라북도 순창군 순창읍 장류로 295-11,35.3780812,127.1337304
선린사(전주),전북 전주시,전라북도 전주시 덕진구 한배미6길 55,35.8197937,127.1690322
임실 진구사지 석등,전북 임실군,전라북도 임실군 신평면 용암리,35.6428513,127.2015029
유천서원,전북 부안군,전라북도 부안군 보안면,35.6121319,126.6713092
학선암,전북 김제시,전라북도 김제시 금산면 구성3길 522,35.7440231,127.0216333
남원 추어탕 거리,전북 남원시,전라북도 남원시 천거동,35.4014557,127.3781881
신안서원,전북 임실군,전라북도 임실군 임실읍 신안1길 8-12,35.5998576,127.2393084
김복규·김기종 효자 정려비 및 정판,전북 임실군,전라북도 임실군 임실읍 임삼로 1590-20,35.5946785,127.2632524
경각산,전북 완주군,전라북도 완주군 구이면 광곡리,35.7437151,127.1721739
정인승유허비,전북 장수군,전라북도 장수군 계북면 양악길 119,35.805556,127.6382557
불명산,전북 완주군,전라북도 완주군 경천면 용복리,36.0513348,127.2547048
무장향교,전북 고창군,전라북도 고창군 무장면 교흥교촌길 9,35.4276881,126.5661206
남산서원(김제),전북 김제시,전라북도 김제시 성덕면 만경로 600-92,35.8406221,126.8247155
운봉향교,전북 남원시,전라북도 남원시 운봉읍 운봉남길 217-28,35.4212927,127.5308787
다천사(정읍),전북 정읍시,전라북도 정읍시 태인면 태흥1길 59,35.6524492,126.9530009
정산사,전북 고창군,전라북도 고창군 고창읍 월암안길 8,35.428219,126.7303676
함열향교,전북 익산시,전라북도 익산시 함라면 함라교동길 27-4,36.0638124,126.9095413
노채마을,전북 진안군,전라북도 진안군 안천면 자노로 312-1,35.879817,127.5585901
신광사 대웅전,전북 장수군,전라북도 장수군 천천면 신광길 31,35.7047943,127.4947199
덕음암(남원),전북 남원시,전라북도 남원시 소리길 122-24,35.4057164,127.3914073
지선당,전북 진안군,전라북도 진안군 동향면 내금2길 70,35.8475744,127.590797
서외리 당간지주,전북 부안군,전라북도 부안군 부안읍 서외리,35.725875,126.7288697
소양 마수벽화마을,전북 완주군,전라북도 완주군 소양면 황윤리,35.8496514,127.2405299
문덕봉,전북 남원시,전라북도 남원시 대강면 평촌2길,35.3811821,127.2429668
소자파묘비,전북 익산시,전라북도 익산시 왕궁면 화곡1길 53-15,36.0050457,127.0823083
석산리 마애여래좌상,전북 순창군,전라북도 순창군 적성면 석산리 산130-1,35.4442701,127.194363
주암서원,전북 임실군,전라북도 임실군 지사면 방계3길 46-1,35.5656131,127.3545436
만덕산,전북 완주군,"전라북도 완주군 소양면 신촌, 상관면 마치리",35.8069182,127.2808321
관음사(남원),전북 남원시,전라북도 남원시 보절면 관음사길 82,35.4778781,127.4102624
용장서원,전북 남원시,전라북도 남원시 주생면 상동길 7-1,35.3976083,127.3408717
천황산(만행산),전북 남원시,전라북도 남원시 산동면 만행산길,35.5287629,127.4704665
신흥사(임실),전북 임실군,전라북도 임실군 관촌면 상월로 889-19,35.7547521,127.259837
봉양서원,전북 완주군,전라북도 완주군 비봉면 장승길 28-11,36.0097512,127.1338145
월강서원,전북 장수군,전라북도 장수군 장계면 도장골길 37-8,35.731962,127.5962035
학정서원,전북 임실군,전라북도 임실군 청웅면 구고8길 35-3,35.5760473,127.2013633
삼현서원,전북 완주군,전라북도 완주군 비봉면 장승길 34,36.0111497,127.1333921
원흥석불입상,전북 장수군,전라북도 장수군 산서면 원흥길 102-6,35.5893405,127.4209183
장문리오층석탑,전북 정읍시,전라북도 정읍시 고부면 장문리,35.625447,126.783763
격포마을,전북 부안군,전북 부안군 변산면 격포리,35.6126119,126.4699182
고암서원,전북 정읍시,전라북도 정읍시 모촌길 48-17,35.5710954,126.8231769
마이산홍삼족욕카페,전북 진안군,전라북도 진안군 진안읍 마이산로 130,35.7735489,127.4165262
봉강서원,전북 완주군,전라북도 완주군 봉동읍 봉강구만길 29,35.909693,127.1553026
현주서원,전북 임실군,전라북도 임실군 지사면 계산4길 89,35.5543952,127.3497583
풍혈냉천,전북 진안군,전라북도 진안군 성수면 양화안길,35.7343451,127.302521
용안향교,전북 익산시,전라북도 익산시 용안면 용안교동1길 34-11,36.1215946,126.9543783
관곡서원,전북 임실군,전라북도 임실군 지사면 관기1길 32-7,35.5970936,127.3598938
두암서원,전북 정읍시,전라북도 정읍시 소성면 보애길 368,35.5251239,126.7729178
은천계곡,전북 완주군,전라북도 완주군 동상면 대아리,35.9796908,127.296062
운암산,전북 완주군,전라북도 완주군 동상면 대아리,35.9796908,127.296062
옥천사(진안),전북 진안군,전라북도 진안군 동향면,35.8381336,127.5678709
영선사(전북),전북 남원시,전라북도 남원시 인월면 황산로 1987-51,35.4684208,127.6212299
백용성조사유허비,전북 장수군,전라북도 장수군 번암면 죽림2길 31,35.5396266,127.5413698
남복리오층석탑,전북 정읍시,전라북도 정읍시 고부면 영원로 596-31,35.6154144,126.778324
현동사,전북 익산시,전라북도 익산시 삼기면 현동1길 3,36.0252106,127.0162326
노양서원,전북 정읍시,전라북도 정읍시 상흑길 44,35.5973287,126.8219477
혜봉사,전북 김제시,전라북도 김제시 금구면 양시로 142-13,35.7693785,127.0065399
덕암서원,전북 임실군,전라북도 임실군 지사면 원산3길 1-22,35.5872486,127.3593123
입암산,전북 정읍시,전라북도 정읍시 입암면 입암로,35.4881881,126.8013002
모현동 부도,전북 익산시,전라북도 익산시 군익로11길 29-11,35.94433,126.936704
타관산,전북 장수군,전라북도 장수군 장수읍 팔공로 50-19,35.6245986,127.4921946
덕재산,전북 임실군,전라북도 임실군 성수면 봉강리,35.5948591,127.3298671
원적계곡,전북 정읍시,전북 정읍시 내장동,35.4954377,126.9138423
원등사(완주),전북 완주군,전라북도 완주군 소양면 원등산길 386,35.881739,127.2925306
대승서원,전북 완주군,전라북도 완주군 소양면 신원상리길 84-7,35.8598374,127.2971807
모덕사(김제),전북 김제시,전라북도 김제시 입석7길 73-21,35.7891203,126.8665833
저산서원(김제),전북 김제시,전라북도 김제시 공덕면 회룡길 423-6,35.8984105,126.8818865
용계서원,전북 정읍시,전라북도 정읍시 칠보면 동편길 41-3,35.6017914,126.9884514
매계서원,전북 남원시,전라북도 남원시 사매면 세동길 13-7,35.4824964,127.364221
여원재(여원치),전북 남원시,전라북도 남원시 운봉읍 황산로 767,35.4468395,127.5022007
영계서원,전북 진안군,전라북도 진안군 마령면 원강정1길 42,35.7392556,127.3633382
말도 등대,전북 군산시,전라북도 군산시 옥도면 말도2길 29,35.8581463,126.315164
여산향교,전북 익산시,전라북도 익산시 여산면 여산교동길 23-2,36.0549686,127.0904209
세걸산,전북 남원시,전라북도 남원시 운봉읍 행정공안길,35.4071454,127.5325513
되재성당,전북 완주군,전라북도 완주군 화산면 승치리,36.0719413,127.2174539
사산서원,전북 부안군,전라북도 부안군 주산면 세앙길 6,35.6667686,126.7035023
관음봉,전북 부안군,전라북도 부안군 진서면 원암길,35.6087767,126.5835545
실상사(전주),전북 전주시,전라북도 전주시 덕진구 어은로 89-11,35.8204981,127.1287428
보령서원,전북 부안군,전라북도 부안군 상서면 봉은길 90-5,35.6574572,126.6645559
계양서원,전북 부안군,전라북도 부안군 계화면 양지길 12,35.7941363,126.6371601
오강서원,전북 익산시,전라북도 익산시 석암로,35.9443709,127.006202
내동산,전북 진안군,전라북도 진안군 백운면 덕현리,35.6891536,127.3779771
연도,전북 군산시,전라북도 군산시 옥도면 연도1길 18-3,36.0813913,126.4412127
성수산,전북 임실군,전라북도 임실군 성수면 성수산길 373,35.6374133,127.4053533
숭모서원,전북 부안군,전라북도 부안군 보안면 보안남로 367,35.6185048,126.708484
법인사(정읍),전북 정읍시,전라북도 정읍시 상신경1길 97,35.5586787,126.8811008
유선사(정읍),전북 정읍시,전라북도 정읍시 고부면 영원로 644-224,35.6107413,126.7910259
효충사,전북 부안군,전라북도 부안군 하서면 석불산길 156-8,35.72793,126.6402497
정혜사(정읍),전북 정읍시,전라북도 정읍시 죽림2길 28,35.564658,126.8452467
두승산,전북 정읍시,전라북도 정읍시 흑암신흥길 62-3,35.6028976,126.8076229
구산서원,전북 진안군,전라북도 진안군 마령면 임진로 2361-82,35.7455298,127.3455308
승련사(남원),전북 남원시,전라북도 남원시 산동면 요천로 2675-90,35.4901544,127.4530478
석상암(고창),전북 고창군,전라북도 고창군 아산면 선운사로 250,35.4969385,126.5782255
연화사(남원),전북 남원시,전라북도 남원시 이백면 응령길 168,35.4188063,127.4675338
종남산,전북 완주군,전라북도 완주군 소양면 대흥리,35.9037773,127.2396811
용암서원(장수),전북 장수군,전라북도 장수군 천천면 천천로 45-19,35.7395849,127.5327712
원적암(정읍),전북 정읍시,전라북도 정읍시 내장산로 1253,35.4896703,126.9018922
일광사(정읍),전북 정읍시,전라북도 정읍시 성황산길 50,35.5735192,126.8566326
진안 홍삼스파,전북 진안군,전라북도 진안군 진안읍 외사양길 16-10,35.7767445,127.4168063
보림사(정읍),전북 정읍시,전라북도 정읍시 북면 보림1길 497,35.5659254,126.9200491
대복사(남원),전북 남원시,전라북도 남원시 대복사길 61,35.4167665,127.368574
창덕암(남원),전북 남원시,전라북도 남원시 산동면 중절길,35.482182,127.4816485
금선계곡,전북 정읍시,전라북도 정읍시 내장산로 1207,35.4878779,126.9074896
경옥봉,전북 완주군,전라북도 완주군 동상면 대아수목로,35.9876651,127.31506
임실 치즈마을,전북 임실군,전라북도 임실군 임실읍 치즈마을1길 4,35.6362644,127.2948218
스파라쿠아 전주온천,전북 전주시,전라북도 전주시 완산구 신촌3길 24,35.8174308,127.1156332
서해안 바람공원,전북 고창군,전라북도 고창군 심원면 애향갯벌로 311,35.5308548,126.5147868
뜬봉샘 생태관광지,전북 장수군,전라북도 장수군 장수읍 물뿌랭이길 10-18,35.5921239,127.5013603
발효소스토굴,전북 순창군,전라북도 순창군 순창읍 민속마을길 61-59,35.3663605,127.106363
순창건강장수체험과학관,전북 순창군,전라북도 순창군 인계면 인덕로 427-127,35.4308002,127.1419083
설화공원,전북 완주군,전라북도 완주군 이서면 농생명로 100,35.8340732,127.0319939
