name,region,address,Latitude,Longitude
섭지코지,제주 서귀포시,제주특별자치도 서귀포시 성산읍 섭지코지로 107,33.4305782,126.9277688
성산일출봉 [유네스코 세계자연유산],제주 서귀포시,제주특별자치도 서귀포시 성산읍 일출로 284-12,33.4621467,126.9364271
휴애리자연생활공원,제주 서귀포시,제주특별자치도 서귀포시 남원읍 신례동로 256,33.3085402,126.6344826
쇠소깍,제주 서귀포시,제주특별자치도 서귀포시 쇠소깍로 128,33.2522055,126.6231188
아부오름,제주 제주시,제주특별자치도 제주시 구좌읍 금백조로,33.444752,126.7775324
산굼부리,제주 제주시,제주특별자치도 제주시 조천읍 비자림로 768,33.4349076,126.6885996
이호테우해변,제주 제주시,제주특별자치도 제주시 도리로,33.5008197,126.4643053
비자림,제주 제주시,제주특별자치도 제주시 구좌읍 비자숲길,33.4912729,126.8108509
카멜리아힐,제주 서귀포시,제주특별자치도 서귀포시 안덕면 병악로 166,33.2901143,126.3684044
새별오름,제주 제주시,제주특별자치도 제주시 애월읍 봉성리 산,33.3659432,126.35644
돈내코(원앙폭포),제주 서귀포시,제주특별자치도 서귀포시 돈내코로 137,33.3005301,126.5817449
광치기해변,제주 서귀포시,제주특별자치도 서귀포시 성산읍 고성리,33.4445754,126.9095025
만장굴 (제주도 국가지질공원),제주 제주시,제주특별자치도 제주시 구좌읍 만장굴길 182,33.5291,126.7714308
신풍 신천 바다목장,제주 서귀포시,제주특별자치도 서귀포시 성산읍 일주동로 5417,33.416346,126.889907
제주절물자연휴양림,제주 제주시,제주특별자치도 제주시 명림로 584,33.4393726,126.6284479
용눈이오름,제주 제주시,제주특별자치도 제주시 구좌읍 종달논길,33.4925079,126.898571
서귀포 가시리마을 (녹산로 유채꽃도로),제주 서귀포시,제주특별자치도 서귀포시 표선면 가시로565번길 20,33.3535804,126.7715936
천제연폭포,제주 서귀포시,제주특별자치도 서귀포시 천제연로 132,33.2526783,126.4184383
퍼시픽랜드,제주 서귀포시,제주특별자치도 서귀포시 중문관광로 154-17,33.2444327,126.4161942
제주 유리의성,제주 제주시,제주특별자치도 제주시 한경면 녹차분재로 462,33.3148365,126.2734488
따라비 오름,제주 서귀포시,제주특별자치도 서귀포시 표선면 가시리,33.3988071,126.7063341
새섬 새연교,제주 서귀포시,제주특별자치도 서귀포시 남성중로 40,33.2392231,126.5586562
산방산(제주),제주 서귀포시,제주특별자치도 서귀포시 안덕면 산방로 218-10,33.2367056,126.3128294
1100고지습지,제주 서귀포시,제주특별자치도 서귀포시 색달동 산 1-2,33.3577741,126.4625184
성읍민속마을,제주 서귀포시,제주특별자치도 서귀포시 표선면 성읍정의현로 19,33.3863435,126.7997102
중문관광단지,제주 서귀포시,제주특별자치도 서귀포시 중문관광로 38,33.2548555,126.4136132
추자도,제주 제주시,제주특별자치도 제주시 추자면,33.9636825,126.2961287
거문오름 [세계자연유산],제주 제주시,제주특별자치도 제주시 조천읍 선교로 569-36,33.4569601,126.7143895
가파도,제주 서귀포시,제주특별자치도 서귀포시 대정읍 가파로,33.1710594,126.2731193
신창풍차해안도로,제주 제주시,제주특별자치도 제주시 한경면 신창리 1322-1,33.3433767,126.1739996
고살리 숲길,제주 서귀포시,제주특별자치도 서귀포시 남원읍 하례리 산54-1,33.3163888,126.5973999
제주 산방산탄산온천,제주 서귀포시,제주특별자치도 서귀포시 안덕면 사계북로41번길 192,33.2481936,126.2989561
수목원테마파크(아이스뮤지엄),제주 제주시,제주특별자치도 제주시 은수길 69,33.470619,126.4881811
한림공원,제주 제주시,제주특별자치도 제주시 한림읍 한림로 300,33.3894949,126.2396825
용머리해안,제주 서귀포시,제주특별자치도 서귀포시 안덕면 산방로 218-10,33.2367056,126.3128294
물영아리 오름,제주 서귀포시,제주특별자치도 서귀포시 남원읍 남조로 988-11,33.3190481,126.7087521
브릭캠퍼스 제주,제주 제주시,제주특별자치도 제주시 1100로 3047,33.4584094,126.4854567
물영아리오름,제주 서귀포시,제주특별자치도 서귀포시 남원읍 태수로 552,33.3267953,126.7170516
제주허브동산,제주 서귀포시,제주특별자치도 서귀포시 표선면 돈오름로 170,33.3298498,126.8148541
함덕 서우봉 해변 (함덕해수욕장),제주 제주시,제주특별자치도 제주시 조천읍 조함해안로,33.5440366,126.6537771
한라산 (제주도 국가지질공원),제주 제주시,제주특별자치도 제주시 1100로 2070-61,33.3922314,126.4945663
서건도,제주 서귀포시,제주특별자치도 서귀포시 강정동,33.2615636,126.49447
천지연폭포 (제주도 국가지질공원),제주 서귀포시,제주특별자치도 서귀포시 천지동,33.2479047,126.5612847
세화해변,제주 제주시,제주특별자치도 제주시 구좌읍 세화길,33.5221815,126.8610231
남원 큰엉해안,제주 서귀포시,제주특별자치도 서귀포시 남원읍 태위로 522-17,33.2733787,126.7037541
한라산 영실,제주 서귀포시,제주특별자치도 서귀포시 영실로 246,33.3698523,126.5556383
에코랜드테마파크,제주 제주시,제주특별자치도 제주시 조천읍 번영로 1278-169,33.4555296,126.6681873
수월봉,제주 제주시,제주특별자치도 제주시 한경면 고락로,33.3040143,126.1973502
월정리해변(월정리해수욕장),제주 제주시,제주특별자치도 제주시 구좌읍 해맞이해안로 480-1,33.5593822,126.7931782
용천동굴 [유네스코 세계자연유산],제주 제주시,제주특별자치도 제주시 구좌읍 월정리,33.5468086,126.7838117
사라봉공원,제주 제주시,제주특별자치도 제주시 사라봉동길 74,33.5180564,126.5460544
한라수목원,제주 제주시,제주특별자치도 제주시 수목원길 72,33.4699272,126.4932445
황우지해안,제주 서귀포시,제주특별자치도 서귀포시 서홍동,33.2639577,126.5507293
제주 노루생태관찰원,제주 제주시,제주특별자치도 제주시 명림로 520,33.4444421,126.6266442
주상절리대(대포동지삿개),제주 서귀포시,제주특별자치도 서귀포시 이어도로 36-30,33.240469,126.493008
한라생태숲,제주 제주시,제주특별자치도 제주시 516로 2596,33.430924,126.595761
제주4·3평화공원,제주 제주시,제주특별자치도 제주시 명림로 430,33.4505801,126.6181207
정물오름,제주 제주시,제주특별자치도 제주시 한림읍 산록남로 214-12,33.339292,126.3355934
조랑말체험공원,제주 서귀포시,제주특별자치도 서귀포시 표선면 녹산로 381-15,33.3831271,126.7362573
용두암,제주 제주시,제주특별자치도 제주시 용두암길,33.5135307,126.5129323
제주 당처물동굴 [유네스코 세계자연유산],제주 제주시,제주특별자치도 제주시 구좌읍 월정리,33.5468086,126.7838117
마라도 등대,제주 서귀포시,제주특별자치도 서귀포시 대정읍 마라로 161,33.1168114,126.2692432
협재해변,제주 제주시,제주특별자치도 제주시 한림읍,33.4103985,126.2671535
어멍아방잔치마을,제주 서귀포시,제주특별자치도 서귀포시 성산읍 신풍하동로 39,33.3618401,126.8405958
제주불빛정원,제주 제주시,제주특별자치도 제주시 애월읍 평화로 2346,33.4222395,126.4092532
제주도 국가지질공원,제주 제주시,제주특별자치도 제주시 조천읍 선교로 569-36,33.4569601,126.7143895
김녕성세기해변 (김녕해수욕장),제주 제주시,제주특별자치도 제주시 구좌읍 해맞이해안로,33.5291668,126.8538817
최남단체험감귤농장,제주 서귀포시,제주특별자치도 서귀포시 남원읍 남위남성로 164,33.290019,126.693846
혼인지,제주 서귀포시,제주특별자치도 서귀포시 성산읍 혼인지로 39-22,33.4149305,126.8941019
생각하는 정원,제주 제주시,제주특별자치도 제주시 한경면 녹차분재로 675,33.3257082,126.2552516
중문·색달 해변,제주 서귀포시,제주특별자치도 서귀포시 중문관광로72번길,33.2507877,126.4085947
표선 해비치 해변,제주 서귀포시,제주특별자치도 서귀포시 표선면 민속해안로,33.3126457,126.8232437
종달리 해안도로,제주 제주시,제주특별자치도 제주시 구좌읍 종달리,33.4880673,126.8804954
제주 선흘리 벵뒤굴 [유네스코 세계자연유산],제주 제주시,제주특별자치도 제주시 조천읍,33.5344076,126.6342455
제주도 관광특구,제주,제주특별자치도,33.4890113,126.4983023
서귀포자연휴양림,제주 서귀포시,제주특별자치도 서귀포시 1100로 882,33.3116678,126.4587607
엉또폭포,제주 서귀포시,제주특별자치도 서귀포시 엉또로,33.2657677,126.5010776
금능석물원,제주 제주시,제주특별자치도 제주시 한림읍 한림로 176,33.384592,126.2268717
제주다원 녹차미로공원,제주 서귀포시,제주특별자치도 서귀포시 산록남로 1240,33.3017887,126.5095926
서귀포 하논분화구,제주 서귀포시,제주특별자치도 서귀포시 일주동로 8823,33.2541891,126.5463553
정방폭포,제주 서귀포시,제주특별자치도 서귀포시 동흥동,33.2663197,126.5671727
여미지식물원,제주 서귀포시,제주특별자치도 서귀포시 중문관광로 93,33.2526607,126.4146465
선흘곶자왈 (제주도 국가지질공원),제주 제주시,제주특별자치도 제주시 조천읍 선흘리 산12 제주특별자치도,33.5170339,126.7176118
휴림,제주 제주시,제주특별자치도 제주시 애월읍 광령남서길 40,33.443436,126.4289921
제주러브랜드,제주 제주시,제주특별자치도 제주시 1100로 2894-72,33.4519922,126.4890053
우도(해양도립공원),제주 제주시,제주특별자치도 제주시 우도면 우도로 153,33.5063307,126.953232
제주 동백마을,제주 서귀포시,제주특별자치도 서귀포시 남원읍 한신로531번길 22-1,33.3204358,126.7451736
어승생,제주 제주시,제주특별자치도 제주시 해안동,33.4284365,126.4673892
제주도 하도리,제주 제주시,제주특별자치도 제주시 구좌읍 해맞이해안로 1973,33.5377667,126.8372139
수월봉과 차귀해안,제주 제주시,제주특별자치도 제주시 한경면 노을해안로 1013-70,33.293735,126.162815
메이즈랜드,제주 제주시,제주특별자치도 제주시 구좌읍 비자림로 2134-47,33.4887415,126.8009514
제주선인장마을,제주 제주시,제주특별자치도 제주시 한림읍 월령1길 1-1,33.3752373,126.2157061
이상한 나라의 앨리스,제주 서귀포시,제주특별자치도 서귀포시 안덕면 중산간서로 1881,33.2889437,126.3218702
송악산,제주 서귀포시,제주특별자치도 서귀포시 대정읍 송악관광로,33.2164826,126.2768451
신양 섭지해수욕장,제주 서귀포시,제주특별자치도 서귀포시 성산읍 섭지코지로 88,33.4354584,126.9225361
제주 센트럴파크,제주 제주시,제주특별자치도 제주시 조천읍 비자림로 606,33.433598,126.6747271
천왕사(제주),제주 제주시,제주특별자치도 제주시 1100로 2528-171,33.4048478,126.5028106
선녀와나무꾼 테마공원,제주 제주시,제주특별자치도 제주시 조천읍 선교로 267,33.4786897,126.7030403
손지오름,제주 제주시,제주특별자치도 제주시 구좌읍 종달논길,33.4925079,126.898571
군산오름,제주 서귀포시,제주특별자치도 서귀포시 안덕면 창천리 564 제주특별자치도,33.2551426,126.3683605
다이나믹 메이즈 (제주 성읍점),제주 서귀포시,제주특별자치도 서귀포시 표선면 번영로 2644,33.3992006,126.7852521
제주 초콜릿랜드,제주 서귀포시,제주특별자치도 서귀포시 중문관광로110번길 15,33.2499302,126.4132655
구시물,제주 제주시,제주특별자치도 서귀포시 남원읍 서의로,33.3002857,126.7126203
어영소공원,제주 제주시,제주특별자치도 제주시 용담3동,33.5164659,126.4922919
사라봉,제주 제주시,제주특별자치도 제주시 사라봉동길,33.5169418,126.5468087
제주별빛누리공원,제주 제주시,제주특별자치도 제주시 선돌목동길 60,33.4450231,126.5492487
제주공룡랜드,제주 제주시,제주특별자치도 제주시 애월읍 광령평화2길 1,33.4408969,126.4345309
관덕정(제주),제주 제주시,제주특별자치도 제주시 관덕로 19,33.5133537,126.5214452
번개과학체험관,제주 서귀포시,제주특별자치도 서귀포시 토평공단로 78-27,33.2894549,126.5876107
더마파크,제주 제주시,제주특별자치도 제주시 한림읍 월림7길 155,33.3555222,126.2420266
하도어촌체험마을,제주 제주시,제주특별자치도 제주시 구좌읍 해맞이해안로,33.5291668,126.8538817
한라산 백록담,제주 서귀포시,제주특별자치도 서귀포시 토평동,33.2844099,126.5796743
한라산국립공원,제주 제주시,제주특별자치도 제주시 1100로 2010-61,33.4561511,126.48637
제주 항파두리 항몽 유적,제주 제주시,제주특별자치도 제주시 애월읍 항파두리로 50,33.4521245,126.4074522
우도 산호해변(서빈백사),제주 제주시,제주특별자치도 제주시 우도면 우도해안길,33.5074342,126.954269
제주조각공원(포레스트 판타지아),제주 서귀포시,제주특별자치도 서귀포시 안덕면 일주서로 1836,33.256807,126.321633
일출랜드,제주 서귀포시,제주특별자치도 서귀포시 성산읍 중산간동로 4150-30,33.3835243,126.8413634
마라도(마라해양도립공원),제주 서귀포시,제주특별자치도 서귀포시 대정읍 마라로101번길 46,33.1185369,126.2673483
연화못(하가못),제주 제주시,제주특별자치도 제주시 애월읍 하가로,33.4587799,126.3533392
붉은오름자연휴양림,제주 서귀포시,제주특별자치도 서귀포시 표선면 남조로 1487-73,33.4018105,126.6753835
제주1100 고지습지,제주 서귀포시,제주특별자치도 서귀포시 1100로 1555,33.2763665,126.4476633
천지연 걸매생태공원,제주 서귀포시,제주특별자치도 서귀포시 서홍로 4-42,33.2499864,126.5551498
제주 삼성혈,제주 제주시,제주특별자치도 제주시 삼성로 22,33.5047027,126.529358
이중섭 문화거리,제주 서귀포시,제주특별자치도 서귀포시 이중섭로 29,33.2455319,126.564526
동백동산,제주 제주시,제주특별자치도 제주시 조천읍 동백로 77,33.5097,126.7150807
제주 서광다원,제주 서귀포시,제주 서귀포시 안덕면 신화역사로 446,33.3053836,126.2922923
제주도예촌,제주 서귀포시,제주특별자치도 서귀포시 대정읍 암반수마농로441번길 3,33.2657552,126.2350007
제주맥주,제주 제주시,제주특별자치도 제주시 한림읍 금능농공길 62-11,33.3586429,126.2415545
화조원,제주 제주시,제주특별자치도 제주시 애월읍 애원로 804,33.4431304,126.3385993
서귀포 전기버스 시티투어,제주 서귀포시,제주특별자치도 서귀포시 중산간동로7894번길 18-5,33.2671561,126.5733776
우도잠수함,제주 서귀포시,제주특별자치도 서귀포시 성산읍 성산등용로 112-7,33.4721117,126.9331983
약천사(제주),제주 서귀포시,제주특별자치도 서귀포시 이어도로 293-28,33.2457655,126.4493336
만장굴,제주 제주시,제주특별자치도 제주시 구좌읍 만장굴길 182,33.5291,126.7714308
금능으뜸원해변,제주 제주시,제주특별자치도 제주시 한림읍 금능길,33.3881374,126.2294884
외돌개(제주),제주 서귀포시,제주특별자치도 서귀포시 서흥동,33.2639577,126.5507293
김녕미로공원,제주 제주시,제주특별자치도 제주시 구좌읍 만장굴길 122,33.5365289,126.7721332
동광리농촌체험마을,제주 서귀포시,제주특별자치도 서귀포시 안덕면 동광로 107,33.3066059,126.3374721
곽지과물해변,제주 제주시,제주특별자치도 제주시 애월읍 금성5길,33.4475423,126.3016504
넥슨컴퓨터박물관,제주 제주시,제주특별자치도 제주시 노형동,33.483098,126.4772312
불탑사(제주),제주 제주시,제주특별자치도 제주시 원당로16길 41,33.5290754,126.5984511
제주마방목지,제주 제주시,제주특별자치도 제주시 516로 2480,33.4269778,126.6040726
다희연,제주 제주시,제주특별자치도 제주시 조천읍 선교로 117,33.4727191,126.7061921
정석 항공관,제주 서귀포시,제주특별자치도 서귀포시 표선면 녹산로 554,33.390274,126.732908
신화테마파크,제주 서귀포시,제주특별자치도 서귀포시 안덕면 신화역사로304번길 98,33.3048997,126.3153838
별방진,제주 제주시,제주특별자치도 제주시 구좌읍 해맞이해안로,33.5291668,126.8538817
용두암해수랜드,제주 제주시,제주특별자치도 제주시 서해안로 630,33.5158506,126.5042915
점보빌리지,제주 서귀포시,제주특별자치도 서귀포시 안덕면 평화로319번길 31-11,33.2762284,126.3053462
한라산 성판악,제주 제주시,제주특별자치도 제주시 조천읍 516로 1865,33.3848518,126.6195473
월정사(제주),제주 제주시,제주특별자치도 제주시 아연로 216-5,33.4665539,126.5103517
남제주 억새오름길,제주 서귀포시,제주특별자치도 서귀포시 성산읍 제성로,33.4535129,126.878831
마라도잠수함,제주 서귀포시,제주특별자치도 서귀포시 안덕면 형제해안로 13,33.2280708,126.305499
북촌 돌하르방공원,제주 제주시,제주특별자치도 제주시 조천읍 북촌서1길 70,33.5387743,126.6887213
서귀포유람선 뉴파라다이스호,제주 서귀포시,제주특별자치도 서귀포시 남성중로 40,33.2392231,126.5586562
다랑쉬오름(월랑봉),제주 제주시,제주특별자치도 제주시 구좌읍 세화리 산6,33.4895966,126.8316644
김녕사굴 [유네스코 세계자연유산],제주 제주시,제주특별자치도 제주시 구좌읍 만장굴길 34,33.5440204,126.7746911
금호리조트 제주아쿠아나,제주 서귀포시,제주특별자치도 서귀포시 남원읍 태위로 522-12,33.2729636,126.7014772
알뜨르비행장 및 일본군 비행기 격납고,제주 서귀포시,제주특별자치도 서귀포시 대정읍 상모리,33.2218976,126.2741296
제주샘주 공장,제주 제주시,제주특별자치도 제주시 애월읍 애원로 283,33.4446362,126.3375372
SOS박물관,제주 서귀포시,제주특별자치도 서귀포시 월드컵로 31,33.2472388,126.5092079
펀테마파크,제주 제주시,제주특별자치도 제주시 조천읍 선교로 266-4,33.4789094,126.7007702
성이시돌목장,제주 제주시,제주특별자치도 제주시 한림읍 금악동길 35,33.3471269,126.3263663
서귀포잠수함,제주 서귀포시,제주특별자치도 서귀포시 남성중로 40,33.2392231,126.5586562
서귀포해양도립공원,제주 서귀포시,제주특별자치도 서귀포시 남성중로,33.2542585,126.553507
선임교,제주 서귀포시,제주특별자치도 서귀포시 중문로105번길 37,33.2615336,126.4239687
강정천,제주 서귀포시,제주특별자치도 서귀포시 강정통물로,33.2366013,126.4772906
한라산소주 공장투어,제주 제주시,제주특별자치도 제주시 한림읍 한림로 555,33.4073649,126.2563337
제주목관아,제주 제주시,제주특별자치도 제주시 관덕로 25,33.5140904,126.5222108
북촌리 4.3길,제주 제주시,제주특별자치도 제주시 조천읍 북촌3길 3,33.5459875,126.6887641
모충사,제주 제주시,제주특별자치도 제주시 사라봉길 75,33.5164215,126.5470246
제주힐링명상센터 (무병장수테마파크),제주 제주시,제주특별자치도 제주시 애월읍 어음13길 196,33.3954527,126.3610827
아홉굿마을,제주 제주시,제주특별자치도 제주시 한경면 낙수로 97,33.3280452,126.2270023
산방굴사(제주),제주 서귀포시,제주특별자치도 서귀포시 안덕면 산방로,33.2386241,126.3146142
비양도,제주 제주시,제주특별자치도 제주시 한림읍 한림해안로 146,33.4154301,126.2621894
서귀포 예래생태마을,제주 서귀포시,제주특별자치도 서귀포시 예래로 82,33.2542814,126.3979513
마라도가는 여객선,제주 서귀포시,제주특별자치도 서귀포시 대정읍 송악관광로 424,33.207412,126.2905823
제주샘주 양조장,제주 제주시,제주특별자치도 제주시 애월읍 애원로 283,33.4446362,126.3375372
산지 등대,제주 제주시,제주특별자치도 제주시 사라봉동길 108-1,33.5213071,126.545873
제주 하도리 철새도래지,제주 제주시,제주특별자치도 제주시 구좌읍 하도리,33.5149849,126.8817696
화순 금모래 해변,제주 서귀포시,제주특별자치도 서귀포시 안덕면 화순해안로,33.2435927,126.3346668
평화통일 불사리탑,제주 제주시,제주특별자치도 제주시 조천읍 일주동로 884,33.5322075,126.6359211
서프라이즈 테마파크,제주 제주시,제주특별자치도 제주시 조천읍 남조로 2243,33.465478,126.6586605
맥파이 브루어리,제주 제주시,제주특별자치도 제주시 동회천1길 23,33.5031946,126.6172668
대발이파크,제주 서귀포시,제주특별자치도 서귀포시 남원읍 태위로 536,33.2746312,126.7058491
서귀포 김정희 유배지,제주 서귀포시,제주특별자치도 서귀포시 대정읍 추사로 44,33.249837,126.2786308
두맹이골목,제주 제주시,제주특별자치도 제주시 동문로14길 13,33.5124491,126.5334729
금룡사(제주),제주 제주시,제주특별자치도 제주시 구좌읍 김녕로 148-11,33.5538398,126.7535715
코코몽에코파크 (제주),제주 서귀포시,제주특별자치도 서귀포시 남원읍 태위로 536,33.2746312,126.7058491
제주 토끼섬 문주란 자생지,제주 제주시,제주특별자치도 제주시 구좌읍 문주란로,33.5191608,126.886196
협재굴(한림공원),제주 제주시,제주특별자치도 제주시 한림읍 한림로 300,33.3894949,126.2396825
마린파크,제주 서귀포시,제주특별자치도 서귀포시 안덕면 화순중앙로 132,33.2408107,126.3347888
제주워터월드,제주 서귀포시,제주특별자치도 서귀포시 월드컵로 31,33.2472388,126.5092079
신화워터파크,제주 서귀포시,제주특별자치도 서귀포시 안덕면 신화역사로304번길 98,33.3048997,126.3153838
물드리네,제주 제주시,제주특별자치도 제주시 한경면 낙산로 4-28,33.3225546,126.2269836
검멀레해변,제주 제주시,제주특별자치도 제주시 우도면 우도해안길,33.5074342,126.954269
삼양 검은모래해변,제주 제주시,제주특별자치도 제주시 서흘길,33.5284277,126.5892921
성산포유람선,제주 서귀포시,제주특별자치도 서귀포시 성산읍 성산등용로 112-7,33.4721117,126.9331983
금산공원(납읍난대림지대),제주 제주시,제주특별자치도 제주시 애월읍 납읍리,33.4323416,126.3380584
방사탑(제주),제주 제주시,제주특별자치도 제주시 조천읍 신흥로1길 24-14,33.5482136,126.6507623
소정방폭포,제주 서귀포시,제주특별자치도 서귀포시 칠십리로214번길,33.2455584,126.5748092
쇠머리오름(우도봉),제주 제주시,제주특별자치도 제주시 우도면 삼양고수물길,33.5175812,126.9540748
제주 유수암마을,제주 제주시,제주특별자치도 제주시 애월읍 유수암평화길 14,33.4413679,126.4029559
관음사(제주),제주 제주시,제주특별자치도 제주시 산록북로 660,33.4217169,126.5588129
서귀포시 성산포,제주 서귀포시,제주특별자치도 서귀포시 성산읍 일출로 284-12,33.4621467,126.9364271
우도마을,제주 제주시,제주특별자치도 제주시 우도면 우도비양길,33.5102656,126.962433
쌍용굴(한림공원),제주 제주시,제주특별자치도 제주시 한림읍 한림로 300,33.3894949,126.2396825
하고수동해변,제주 제주시,제주특별자치도 제주시 우도면 연평리,33.5033191,126.9556775
제주 삼양동 유적,제주 제주시,제주특별자치도 제주시 선사로2길 13,33.5236295,126.5881816
도순다원,제주 서귀포시,제주특별자치도 서귀포시 중산간서로356번길 152-41,33.272975,126.4830571
낙타트레킹,제주 서귀포시,제주특별자치도 서귀포시 표선면 번영로 2564-21,33.3726822,126.7971235
방선문,제주 제주시,제주특별자치도 제주시 오라이동,33.4189867,126.5196085
오현단,제주 제주시,제주특별자치도 제주시 오현길 61,33.5101353,126.525622
제주 명도암참살이마을,제주 제주시,제주특별자치도 제주시 명림로 268-71,33.4616354,126.6070908
안덕계곡,제주 서귀포시,제주특별자치도 서귀포시 안덕면 서안골로,33.2538879,126.348325
교래 삼다수마을,제주 제주시,제주 제주시 조천읍 교래리,33.4276176,126.6665803
제주성지,제주 제주시,제주특별자치도 제주시 오현길 61,33.5101353,126.525622
"저지오름(닥몰오름,새오름)",제주 제주시,제주특별자치도 제주시 한경면 중산간서로,33.3190089,126.2462643
산지천,제주 제주시,제주 제주시 건입동,33.5170777,126.5445896
용연,제주 제주시,제주특별자치도 제주시 동한두기길,33.5161161,126.5155067
갈중이(천연염색체험),제주 서귀포시,제주특별자치도 서귀포시 안덕면 사계남로216번길 24-61,33.2350833,126.3136705
오조마을,제주 서귀포시,제주특별자치도 서귀포시 성산읍 오조로 85,33.4614863,126.9150522
구엄어촌체험마을,제주 제주시,제주특별자치도 제주시 애월읍 애월해안로,33.4782235,126.3665625
KBS 제주,제주 제주시,제주특별자치도 제주시 복지로1길 8,33.4880252,126.5263723
명월대,제주 제주시,제주특별자치도 제주시 한림읍 명월리,33.3799082,126.2776652
제주 성읍마을 고창환 고택,제주 서귀포시,제주특별자치도 서귀포시 표선면 성읍서문로 4-7,33.3872628,126.8002196
삼매봉,제주 서귀포시,제주특별자치도 서귀포시 남성로115번길 83,33.2439423,126.5463564
무릉2리마을,제주 서귀포시,제주특별자치도 서귀포시 대정읍 중산간서로 2868,33.2747978,126.2353875
복신미륵,제주 제주시,제주특별자치도 제주시 건입동,33.5148171,126.5317254
백제사,제주 제주시,제주특별자치도 제주시 애월읍 광령남6길 54,33.4479785,126.4266563
금오름,제주 제주시,제주특별자치도 제주시 한림읍 금악북로,33.3579292,126.3113252
제주세계자연유산센터,제주 제주시,제주특별자치도 제주시 조천읍 선교로 569-36,33.4569601,126.7143895
문섬/섶섬/범섬/새섬,제주 서귀포시,제주특별자치도 서귀포시 막숙포로,33.2359288,126.513206
석부작박물관,제주 서귀포시,제주특별자치도 서귀포시 일주동로 8941,33.2504829,126.5367012
제주향교,제주 제주시,제주특별자치도 제주시 서문로 43,33.5114017,126.5156311
산지천,제주 제주시,제주특별자치도 제주시 일도1동 1146-22,33.5123105,126.5279518
제주해녀항일운동기념탑,제주 제주시,제주특별자치도 제주시 구좌읍 하종로 120,33.4997602,126.878892
제주 청수마을,제주 제주시,제주특별자치도 제주시 한경면 대한로 1036,33.3178122,126.2476775
엉알해안,제주 제주시,제주특별자치도 제주시 한경면 노을해안로,33.3019154,126.1657993
지미봉,제주 제주시,제주특별자치도 제주시 구좌읍 종달로1길 91-16,33.4967605,126.9067339
사진놀이터,제주 제주시,제주특별자치도 제주시 애월읍 평화로 2835,33.456158,126.4419907
신산공원,제주 제주시,제주특별자치도 제주시 신산로 92-12,33.5053177,126.5337062
법화사,제주 서귀포시,제주특별자치도 서귀포시 하원북로35번길 15-28,33.2650948,126.4578289
협재굴,제주 제주시,제주특별자치도 제주시 한림읍 한림로 300,33.3894949,126.2396825
제주 노루생태관찰원,제주 제주시,제주특별자치도 제주시 명림로 520,33.4444421,126.6266442
하례리생태관광마을,제주 서귀포시,제주특별자치도 서귀포시 남원읍 하례중앙로 95,33.2691981,126.6254689
서귀포시 걸매생태공원,제주 서귀포시,제주특별자치도 서귀포시 서홍로 4-42,33.2499864,126.5551498
서귀포 칠십리 해안경승지,제주 서귀포시,제주특별자치도 서귀포시 호근동,33.2613388,126.5332641
서귀포 알토산마을,제주 서귀포시,제주특별자치도 서귀포시 표선면 토산중앙로16번길 1,33.3088635,126.7797614
"거슨세미(세미오름, 샘오름)",제주 제주시,제주특별자치도 제주시 구좌읍 비자림로,33.467852,126.7724183
연북정,제주 제주시,제주특별자치도 제주시 조천읍 조천리,33.5243102,126.6444174
이중섭 거주지,제주 서귀포시,제주특별자치도 서귀포시 이중섭로 29,33.2455319,126.564526
마라도 가파도 정기여객선,제주 서귀포시,제주특별자치도 서귀포시 대정읍 최남단해안로 120,33.2100551,126.2585746
혼인지마을,제주 서귀포시,제주특별자치도 서귀포시 성산읍 혼인지로 39-22,33.4149305,126.8941019
사라봉(모충사) 의병항쟁기념탑,제주 제주시,제주특별자치도 제주시 사라봉길 75,33.5164215,126.5470246
선광사(제주),제주 서귀포시,제주특별자치도 서귀포시 남원읍 태위로510번길 42,33.2783613,126.7016216
갈마못(갈뫼못),제주 서귀포시,제주특별자치도 서귀포시 성산읍 중산간동로,33.4119114,126.8416603
도너리오름,제주 서귀포시,제주특별자치도 서귀포시 안덕면 동광로,33.3089803,126.3402728
쌍용굴,제주 제주시,제주특별자치도 제주시 한림읍 한림로 300,33.3894949,126.2396825
동백동산 습지센터,제주 제주시,제주특별자치도 제주시 조천읍 동백로 77,33.5097,126.7150807
위미1리어촌체험마을,제주 서귀포시,제주특별자치도 서귀포시 남원읍 위미해안로 43,33.2708926,126.6588484
사라오름,제주 서귀포시,제주특별자치도 서귀포시 남원읍 신례리 산 2-1,33.3709058,126.5704745
원당사지,제주 제주시,제주특별자치도 제주시 원당로16길 41,33.5290754,126.5984511
새신오름(신서악),제주 제주시,제주특별자치도 제주시 한경면 산양6길,33.2952963,126.237824
산천단곰솔,제주 제주시,제주특별자치도 제주시 516로 3041-24,33.4476021,126.5548455
귤림서원,제주 제주시,제주특별자치도 제주시 이도1동,33.5084288,126.5255881
열안지(오라동),제주 제주시,제주특별자치도 제주시 산록북로,33.4250584,126.5441645
각시바우오름,제주 서귀포시,제주특별자치도 서귀포시 호근동 2112,33.2767541,126.5270288
형제섬,제주 서귀포시,제주특별자치도 서귀포시 안덕면 사계리,33.237032,126.3020597
양금석가옥,제주 서귀포시,제주특별자치도 서귀포시 남원읍 신례로298번길 3-6,33.291316,126.6286896
하모리해변,제주 서귀포시,제주특별자치도 서귀포시 대정읍 최남단해안로,33.2122848,126.2625612
주식회사 제이엠그랑블루요트,제주 서귀포시,제주특별자치도 서귀포시 대포로 172-7,33.2382005,126.4397619
서귀본향당,제주 서귀포시,제주특별자치도 서귀포시 이중섭로 23-11,33.2461676,126.5648386
하늬복이오름,제주 서귀포시,제주특별자치도 서귀포시 안덕면 상천리 산89-1,33.3264189,126.3922173
한수풀 해녀학교,제주 제주시,제주특별자치도 제주시 한림읍 한림해안로 623-6,33.43666,126.2748879
높은오름,제주 제주시,제주특별자치도 제주시 구좌읍 중산간동로,33.4741742,126.7701439
서귀포 용왕난드르마을,제주 서귀포시,제주특별자치도 서귀포시 안덕면 대평감산로 8,33.2354335,126.3670703
예래마을,제주 서귀포시,제주특별자치도 서귀포시 예래로 82,33.2542814,126.3979513
웃세오름,제주 제주시,제주특별자치도 제주시 애월읍 평화로,33.4099645,126.3988615
절부암,제주 제주시,제주특별자치도 제주시 한경면 용수리 4242-4,33.3239129,126.1674051
가마오름,제주 제주시,제주특별자치도 제주시 한경면 청수서5길,33.3039283,126.2538299
보덕사(제주),제주 제주시,제주특별자치도 제주시 독짓골8길 26,33.4916746,126.5323631
제주 성읍마을 고평오 고택,제주 서귀포시,제주특별자치도 서귀포시 표선면 성읍정의현로34번길 5-3,33.3859928,126.8018428
제주 서귀포 상예마을,제주 서귀포시,제주특별자치도 서귀포시 존제로15번길 2,33.2656791,126.3770217
차귀도,제주 제주시,제주특별자치도 제주시 한경면 고산리,33.3040691,126.1881455
가세오름,제주 서귀포시,제주특별자치도 서귀포시 표선면 세화로,33.3202259,126.7912297
보목마을,제주 서귀포시,제주특별자치도 서귀포시 칠십리로,33.2458603,126.5913123
하멜기념비,제주 서귀포시,제주특별자치도 서귀포시 안덕면 사계리 112-3,33.2328609,126.3140629
신촌향사,제주 제주시,제주특별자치도 제주시 조천읍 신촌5길,33.5365137,126.6213689
바늘오름,제주 제주시,제주특별자치도 제주시 조천읍 남조로,33.4845921,126.6554822
신양마을,제주 서귀포시,제주특별자치도 서귀포시 성산읍 신고로,33.4404976,126.9157525
천아오름,제주 제주시,제주특별자치도 제주시 애월읍 평화로,33.4099645,126.3988615
고근산,제주 서귀포시,제주특별자치도 서귀포시 고근산로,33.2689372,126.5124627
보림사(제주),제주 제주시,제주특별자치도 제주시 사라봉동길 61,33.5175033,126.5464059
수악(물오름),제주 서귀포시,제주특별자치도 서귀포시 남원읍 영실로,33.3698523,126.5556383
우도 등대,제주 제주시,제주특별자치도 제주시 우도면 우도봉길 105,33.4930058,126.9649595
정의현성,제주 서귀포시,제주특별자치도 서귀포시 표선면 성읍정의현로 104,33.3917468,126.801178
제주탐나라공화국,제주 제주시,제주특별자치도 제주시 한림읍 한창로 897,33.3497668,126.3055719
"수보사(구,광명사)",제주 서귀포시,제주특별자치도 서귀포시 중문상로17번길 51,33.2490127,126.4191621
소남머리,제주 서귀포시,제주특별자치도 서귀포시 서귀동,33.2471409,126.5640547
구두리오름,제주 서귀포시,제주특별자치도 서귀포시 남원읍 남조로,33.3190481,126.7087521
제지기오름,제주 서귀포시,제주특별자치도 서귀포시 보목동,33.2460103,126.6009132
월영사(제주),제주 제주시,제주특별자치도 제주시 애월읍 하귀동남2길 40-16,33.4779707,126.4141035
감낭오름,제주 서귀포시,제주특별자치도 서귀포시 안덕면 평화로,33.3195978,126.342428
열안지오름(봉개동),제주 제주시,제주특별자치도 제주시 명림로,33.4629574,126.6161368
지속가능환경교육센터,제주 제주시,제주특별자치도 제주시 송이길 226,33.4619221,126.6291653
개오름,제주 서귀포시,제주특별자치도 서귀포시 표선면 성읍이리로57번길 162,33.4239746,126.7687182
정의향교,제주 서귀포시,제주특별자치도 서귀포시 표선면 성읍서문로 14,33.3868721,126.8000014
가새기오름,제주 제주시,제주특별자치도 제주시 연미길,33.4884191,126.5050501
다려도,제주 제주시,제주특별자치도 제주시 조천읍 북촌리,33.5365952,126.696662
가문이오름(감은이오름),제주 서귀포시,제주특별자치도 서귀포시 표선면 가시리 산,33.3537012,126.7714295
폭낭오름,제주 제주시,제주특별자치도 제주시 애월읍 화전길,33.3493269,126.3803653
거미오름,제주 제주시,제주특별자치도 제주시 구좌읍 종달리 산70,33.4885805,126.8755487
비양봉,제주 제주시,제주특별자치도 제주시 한림읍 비양도길,33.4061795,126.2290513
갑선이오름,제주 서귀포시,제주특별자치도 서귀포시 표선면 가시로592번길,33.355936,126.7788791
무수천,제주 제주시,제주특별자치도 제주시 애월읍 무수천길,33.4636494,126.4439199
대정향교,제주 서귀포시,제주특별자치도 서귀포시 안덕면 향교로 165-17,33.2393513,126.2883891
오백나한,제주 서귀포시,제주특별자치도 서귀포시 영실로,33.3698523,126.5556383
걸시오름,제주 제주시,제주특별자치도 제주시 연동 산150,33.4113296,126.5054579
가메창(암메),제주 제주시,제주특별자치도 제주시 한경면 청수로 13-3,33.3209072,126.2460821
가시오름,제주 서귀포시,제주특별자치도 서귀포시 대정읍 하모이삼로21번길,33.2246614,126.2502767
추자도 등대,제주 제주시,제주특별자치도 제주시 추자면 영흥4길 43,33.9578136,126.2982323
흙붉은오름,제주 제주시,제주특별자치도 서귀포시 남원읍 영실로,33.3698523,126.5556383
거린사슴,제주 서귀포시,제주특별자치도 서귀포시 1100로 823,33.3073168,126.4548441
송아오름,제주 제주시,제주특별자치도 제주시 한경면 조수리 135,33.3358786,126.2382756
동수악,제주 서귀포시,제주특별자치도 서귀포시 남원읍 한신로,33.3156694,126.7260679
도리미오름,제주 제주시,제주특별자치도 제주시 구좌읍 중산간동로,33.4741742,126.7701439
개오리오름,제주 제주시,제주특별자치도 제주시 명림로,33.4629574,126.6161368
둔지봉,제주 제주시,제주특별자치도 제주시 구좌읍 비자림로,33.467852,126.7724183
후곡악,제주 서귀포시,제주특별자치도 서귀포시 성산읍 일주동로,33.416346,126.889907
삼의봉,제주 제주시,제주특별자치도 제주시 아라1동 산 24-2,33.4400202,126.5619636
왕이메,제주 서귀포시,제주특별자치도 서귀포시 안덕면 광평로,33.3371357,126.3933668
한대오름,제주 제주시,제주특별자치도 제주시 애월읍 화전길 201,33.3511411,126.3877935
정물알오름,제주 제주시,제주특별자치도 제주시 한림읍 금악로,33.3608137,126.2984226
모지오름,제주 서귀포시,제주특별자치도 서귀포시 표선면 번영로,33.3726822,126.7971235
모구리오름,제주 서귀포시,제주특별자치도 서귀포시 성산읍 서성일로,33.4268965,126.8647243
갯거리오름(갯그르),제주 서귀포시,제주특별자치도 서귀포시 1100로,33.2763665,126.4476633
괴오름,제주 제주시,제주특별자치도 제주시 애월읍 봉성리 산41,33.3689588,126.3505941
삼의양오름,제주 제주시,제주특별자치도 제주시 간월동로,33.4878931,126.5482839
별도봉(베리오름),제주 제주시,제주특별자치도 제주시 선반로,33.5152542,126.5637477
감은이오름,제주 제주시,제주특별자치도 제주시 구좌읍 번영로,33.4308303,126.7431198
신흥2리마을,제주 서귀포시,제주특별자치도 서귀포시 남원읍 중산간동로 5807,33.3039456,126.6708275
서귀포 치유의 숲,제주 서귀포시,제주특별자치도 서귀포시 산록남로 2271,33.2919985,126.5294125
닭머르해안길,제주 제주시,제주특별자치도 제주시 조천읍 신촌북3길 62-1,33.5377861,126.6133195
엉덩물계곡,제주 서귀포시,제주특별자치도 서귀포시 중문관광로 192,33.2475278,126.4185955
방주교회,제주 서귀포시,제주특별자치도 서귀포시 안덕면 산록남로762번길 113,33.305073,126.3876637