name,region,address,lat,lon
CJ 블로썸 캠퍼스 (CJ제일제당),충북 진천군,충청북도 진천군 진천읍 씨제이로 110,36.8782964,127.4615591
가락공방,충북 청주시,충청북도 청주시 상당구 탑동로 95-5,36.6335701,127.502508
가산사,충북 옥천군,충청북도 옥천군 안내면 안내회남로 671,36.4015241,127.5974932
가섭사,충북 음성군,충청북도 음성군 음성읍 가섭길 494,36.9665974,127.7030402
각연사(괴산),충북 괴산군,충청북도 괴산군 칠성면 각연길 451,36.7548201,127.9272744
갈기산,충북 영동군,충청북도 영동군 양산면 호탄리,36.1328522,127.6329943
갈론계곡(갈은구곡),충북 괴산군,충청북도 괴산군 칠성면 사은리,36.7357961,127.8566438
감곡매괴성모순례지성당,충북 음성군,충청북도 음성군 감곡면 성당길 10,37.1219476,127.6411531
강천사(제천),충북 제천시,충청북도 제천시 송학면 옥천3길 56-10,37.2065293,128.2667458
개심사 목조여래좌상과 목조관음보살좌상,충북 괴산군,충청북도 괴산군 괴산읍 역말길 22,36.8151016,127.7945922
개심사(괴산),충북 괴산군,충청북도 괴산군 괴산읍 역말길 22,36.8151016,127.7945922
검암서원,충북 청주시,충청북도 청주시 상당구 가덕면 병암리 215-2,36.5788978,127.5715502
계담서원,충북 괴산군,충청북도 괴산군 감물면 감물로이담5길 19,36.870928,127.8641927
계명산자연휴양림,충북 충주시,충청북도 충주시 충주호수로 1170,37.0000143,127.9700503
고미술거리,충북 충주시,충청북도 충주시 중앙탑면 가곡로 2077,37.0749439,127.858536
고산 9경,충북 괴산군,충청북도 괴산군 괴산읍 제월리,36.8227541,127.8266657
고산사 석조관음보살좌상,충북 제천시,충청북도 제천시 덕산면 월악로9길 113,36.9278334,128.1154633
고산사 석조나한상,충북 제천시,충청북도 제천시 덕산면 월악로9길 113,36.9278334,128.1154633
공림사,충북 괴산군,충청북도 괴산군 청천면 괴산로공림길 104,36.6318163,127.8166426
공전자연학교,충북 제천시,충청북도 제천시 봉양읍 의암로 345,37.1142925,128.0793649
과일나라테마공원,충북 영동군,충청북도 영동군 영동읍 영동힐링로 248,36.1750235,127.7834305
관음암(충북),충북 보은군,충청북도 보은군 속리산면 법주사로 658-191,36.5575014,127.8674678
광덕사,충북 증평군,충청북도 증평군 도안면 상그린로 239,36.832667,127.6246296
광운농촌교육농장,충북 영동군,충북 영동군 양산면 수두리,36.1415123,127.6546478
괴산 고산정 및 제월대,충북 괴산군,충청북도 괴산군 괴산읍 제월리,36.8227541,127.8266657
괴산 김항묵 고택,충북 괴산군,충청북도 괴산군 칠성면 칠성로4길 20,36.7816481,127.85932
괴산 둔율 올갱이마을,충북 괴산군,충청북도 괴산군 칠성면 둔율길 142,36.7830176,127.8487827
괴산 문당리 서낭단,충북 괴산군,충청북도 괴산군 청안면 문당리,36.7511113,127.6782451
괴산 미륵산성,충북 괴산군,충청북도 괴산군 청천면 고성리,36.6533135,127.7930389
괴산 백운사 승탑군,충북 괴산군,충청북도 괴산군 사리면 사리로소매2길 125-146,36.8548635,127.6674723
괴산 보안사 삼층석탑,충북 괴산군,충청북도 괴산군 청안면 효근1길 3-8,36.7580821,127.6546499
괴산 봉학사지 석조여래좌상,충북 괴산군,충청북도 괴산군 사리면 모래재로시동2길 231,36.8194504,127.6838752
괴산 봉학사지 오층석탑,충북 괴산군,충청북도 괴산군 사리면 사담리,36.8180861,127.655245
괴산 사담리 망개나무 자생지,충북 괴산군,충청북도 괴산군 청천면 사담리,36.6253227,127.8312852
괴산 삼방리 마애여래좌상,충북 괴산군,충청북도 괴산군 불정면 삼방리,36.9328094,127.7995234
괴산 삼방리 삼층석탑,충북 괴산군,충청북도 괴산군 불정면 삼방연지길 49,36.934228,127.8095434
괴산 송덕리 미선나무 자생지,충북 괴산군,충청북도 괴산군 장연면 송덕리,36.7990687,127.950576
괴산 송시열 유적,충북 괴산군,충청북도 괴산군 청천면 화양동길 188,36.6687714,127.8114156
괴산 수월정,충북 괴산군,충청북도 괴산군 칠성면 산막이옛길 315-38,36.7469298,127.8388477
괴산 오가리 느티나무,충북 괴산군,충청북도 괴산군 장연면 미선로오가7길 19-7,36.8261758,127.9574671
괴산 올갱이국 거리,충북 괴산군,충청북도 괴산군 괴산읍 동부리,36.8104487,127.7998226
괴산 외사리 당간지주,충북 괴산군,충청북도 괴산군 칠성면 외사리,36.7713707,127.8420498
괴산 원풍리 마애불좌상,충북 괴산군,충청북도 괴산군 연풍면 원풍리,36.7996,128.0302148
괴산 율지리 미선나무 자생지,충북 괴산군,충청북도 괴산군 칠성면 율지리,36.7711491,127.8700453
괴산 읍내리 은행나무,충북 괴산군,충청북도 괴산군 청안면 청안읍내로3길 8,36.7722516,127.6394826
괴산 이창훈 고가,충북 괴산군,충청북도 괴산군 감물면 충민로오간길 64,36.8408669,127.8592643
괴산 장담 충신각,충북 괴산군,충청북도 괴산군 청안면 청안읍내로 151,36.783495,127.6395375
괴산 적석리 소나무,충북 괴산군,충청북도 괴산군 연풍면 적석리,36.7571197,127.9625482
괴산 정인지 묘소,충북 괴산군,충청북도 괴산군 불정면 외령로1길 24,36.9256291,127.8199913
괴산 청안 안민헌,충북 괴산군,충청북도 괴산군 청안면 청안읍내로2길 5,36.7719554,127.6392823
괴산 청천리 고가,충북 괴산군,충청북도 괴산군 청천면 청천4길 17,36.6618033,127.7380888
괴산 칠충사와 피세정,충북 괴산군,충청북도 괴산군 문광면 괴산로 3440-14,36.7890002,127.7822349
"괴산 홍범식 고가(벽초 홍명희 생가, 일완 홍범식 고택)",충북 괴산군,충청북도 괴산군 괴산읍 임꺽정로 16,36.8136522,127.7948942
괴산군수 관사,충북 괴산군,충청북도 괴산군 괴산읍 읍내로13길 12,36.8106709,127.7943014
괴산동헌,충북 괴산군,충청북도 괴산군 괴산읍 향교길 23,36.8153035,127.7889001
괴산중학교 구 본관,충북 괴산군,충청북도 괴산군 괴산읍 괴산로 3527,36.7969351,127.7836928
괴산향교,충북 괴산군,충청북도 괴산군 괴산읍 향교길 23,36.8153035,127.7889001
괴산호,충북 괴산군,충청북도 괴산군 칠성면,36.7879634,127.86395
교동민화마을(관광두레 주민사업체),충북 제천시,충청북도 제천시 용두천로20길 18,37.1410208,128.2167462
구계서원,충북 청주시,충청북도 청주시 서원구 안뜸로47번길 28,36.6133724,127.4824318
구녀산,충북 청주시,충청북도 청주시 청원구 내수읍 초정리,36.7190076,127.5986652
구담봉.옥순봉,충북 단양군,충청북도 단양군 단성면 장회리,36.9295517,128.2635426
구룡산 장승공원,충북 청주시,충청북도 청주시 서원구 현도면 하석2길 153,36.6424341,127.4890319
구병리아름마을,충북 보은군,충청북도 보은군 속리산면 구병길 6,36.4801481,127.8711831
구병산,충북 보은군,충청북도 보은군 마로면 적암리,36.4552977,127.8651029
구인사(단양),충북 단양군,충청북도 단양군 영춘면 구인사길 73,37.0322228,128.4805528
구절사,충북 옥천군,충청북도 옥천군 군서면 상중길 226,36.305013,127.5001624
국계서원,충북 청주시,충청북도 청주시 청원구 내수읍,36.723897,127.535439
국립 황정산자연휴양림,충북 단양군,충청북도 단양군 대강면 황정산로 239-11,36.8412875,128.3497368
국립현대미술관(청주관),충북 청주시,충청북도 청주시 청원구 상당로 314,36.6554335,127.4901913
군자산,충북 괴산군,충청북도 괴산군 칠성면 쌍곡리,36.7362656,127.9087001
금강유원지,충북 옥천군,충청북도 옥천군 동이면 금강로 596,36.2792461,127.6740378
금당서원,충북 증평군,충청북도 증평군 도안면 금당1길 34-5,36.8049528,127.6231456
금성사(영동),충북 영동군,충청북도 영동군 영동읍 난계로 1120-28,36.177188,127.7672328
금수산,충북 단양군,충청북도 단양군 적성면 상학1길 210,36.9760201,128.2733714
금월봉,충북 제천시,충청북도 제천시 금성면 월굴리,37.0484707,128.1602707
금화서원,충북 보은군,충청북도 보은군 삼승면 선곡리,36.4298966,127.715171
기암서원,충북 청주시,충청북도 청주시 상당구 낭성면 갈산3길 15,36.6555173,127.5698266
김시민장군 충민사,충북 괴산군,충청북도 괴산군 괴산읍 충민사길 46,36.8362083,127.8472363
깊은산속 옹달샘,충북 충주시,충청북도 충주시 노은면 우성1길 201-61,37.0274817,127.7523836
꽃단지마을,충북 제천시,충청북도 제천시 한수면 월악로7길 94,36.9276172,128.1026443
꽃절(화사),충북 음성군,충청북도 음성군 원남면 보덕로 330,36.8994102,127.6345811
낙영산,충북 괴산군,충청북도 괴산군 청천면 고성리,36.6533135,127.7930389
난계 박연선생 생가,충북 영동군,충청북도 영동군 심천면 하고당1길 14-17,36.2179988,127.7025066
남천계곡,충북 단양군,충청북도 단양군 영춘면 남천계곡로 375,37.0400862,128.513275
낭추골 현장체험학습원,충북 청주시,충청북도 청주시 상당구 낭성면 단재로 1890,36.598121,127.6180379
노목계곡,충북 제천시,충청북도 제천시 봉양읍 옥전길,37.176978,128.0862699
노은영당,충북 진천군,충청북도 진천군 이월면 논실길 113-10,36.9235465,127.4161076
높은벌,충북 옥천군,충청북도 옥천군 청성면 고당로1길,36.2848585,127.7022551
"능강계곡, 얼음골",충북 제천시,충청북도 제천시 수산면 옥순봉로 1185,36.955213,128.2153962
능암온천랜드,충북 충주시,충청북도 충주시 앙성면 새바지길 37,37.0935915,127.8020437
다리안계곡,충북 단양군,충청북도 단양군 단양읍 다리안로 528-10,36.9731031,128.4173187
단양 감골 바람개비마을,충북 단양군,충청북도 단양군 적성면 금수산로 784-10,36.9737851,128.2844118
단양 고수동굴,충북 단양군,충청북도 단양군 단양읍 고수동굴길 8,36.9884069,128.3816062
단양 관광특구,충북 단양군,충청북도 단양군 단양읍 고수동굴길 3-11,36.9874129,128.3816069
단양 금굴 구석기유적지,충북 단양군,충청북도 단양군 단양읍 도담리,36.9984905,128.3627411
단양 다리안관광지,충북 단양군,충청북도 단양군 단양읍 소백산등산길 12,36.9636055,128.4204742
단양 방곡도깨비마을,충북 단양군,충청북도 단양군 대강면 선암계곡로 148,36.8282431,128.3114135
단양 사인암,충북 단양군,충청북도 단양군 대강면 사인암2길 42,36.8943884,128.3403949
단양 수양개빛터널,충북 단양군,충청북도 단양군 적성면 수양개유적로 390,36.9601957,128.3325843
단양 신라 적성비,충북 단양군,충청북도 단양군 단성면 하방3길,36.9395935,128.3207627
단양 온달동굴,충북 단양군,충청북도 단양군 영춘면 온달로 23,37.0626113,128.4926074
단양 온달산성,충북 단양군,충청북도 단양군 영춘면 하리,37.0670117,128.4858333
단양 장익는 마을,충북 단양군,충청북도 단양군 대강면 도예로 427-48,36.8176988,128.321063
단양 적성,충북 단양군,충청북도 단양군 단성면,36.9371158,128.3234095
단양 천동동굴,충북 단양군,충청북도 단양군 단양읍 천동2길,36.9710168,128.4247655
단양 팔경,충북 단양군,충청북도 단양군 단성면,36.9371158,128.3234095
단양 향산리 삼층석탑,충북 단양군,충청북도 단양군 가곡면 향산1길 14-3,37.0543631,128.417173
단양강 잔도,충북 단양군,충청북도 단양군 단양읍 삼봉로 31,36.9820869,128.3485245
단양고수동굴,충북 단양군,충청북도 단양군 단양읍 고수동굴길 8,36.9884069,128.3816062
단양조자형가옥,충북 단양군,충청북도 단양군 가곡면 덕천1길 19,37.0033149,128.3837548
단양향교,충북 단양군,충청북도 단양군 단성면 충혼로 26,36.937277,128.3228852
단호사(충주),충북 충주시,충청북도 충주시 충원대로 201,36.94676,127.9007175
달천,충북 괴산군,충청북도 괴산군 칠성면 두천리,36.7945362,127.8421476
대성사(옥천),충북 옥천군,충청북도 옥천군 옥천읍 지용로 142,36.3165316,127.59086
대성사(이원),충북 옥천군,충청북도 옥천군 이원면 강청길 36-9,36.2456574,127.613704
대원사(충주),충북 충주시,충청북도 충주시 사직산12길 55,36.9693096,127.9292485
대청댐,충북 청주시,대전광역시 대덕구 대청로 618-136,36.4743145,127.4816416
대한성공회 진천성당,충북 진천군,충청북도 진천군 진천읍 문화3길 72,36.8435331,127.4425913
대흥사(진천),충북 진천군,충청북도 진천군 진천읍 문진로 1300-80,36.8405225,127.4226245
덕동계곡,충북 제천시,충청북도 제천시 백운면 화당로2길 19,37.1721273,127.9877707
덕동생태숲,충북 제천시,충청북도 제천시 백운면 덕동로 435,37.2098886,127.9629265
덕주사 마애여래입상 (덕주사 마애불),충북 제천시,충청북도 제천시 한수면 미륵송계로2길 87,36.8618164,128.0990167
덕주사 약사여래입상,충북 제천시,충청북도 제천시 한수면 미륵송계로2길 87,36.8618164,128.0990167
덕주사(제천),충북 제천시,충청북도 제천시 한수면 미륵송계로2길 87,36.8618164,128.0990167
덕천서원,충북 청주시,충청북도 청주시 상당구 가덕면 노동3길 16-30,36.5435554,127.5344768
도담삼봉,충북 단양군,충청북도 단양군 매포읍 삼봉로 644-33,37.0029983,128.3432616
도담삼봉 음악분수,충북 단양군,충청북도 단양군 매포읍 삼봉로 644-13,37.0007407,128.3417706
도락산,충북 단양군,충청북도 단양군 단성면 가산리,36.8776051,128.3036204
도란원 샤토미소,충북 영동군,충청북도 영동군 매곡면 유전장척길 143,36.192102,127.9367511
도마령,충북 영동군,충청북도 영동군 용화면 조동리,36.0573434,127.8251649
도명산,충북 괴산군,충청북도 괴산군 청천면 화양동길 12,36.6788696,127.802618
독수리봉,충북 보은군,충청북도 보은군 회남면 안내회남로 1390-1,36.4214837,127.5806898
동락전승비,충북 충주시,충청북도 충주시 신니면 신덕로,36.9966891,127.7212227
동래부사송상현충렬사(청주),충북 청주시,충청북도 청주시 흥덕구 강상로18번길 44,36.6218601,127.3920169
동부창고,충북 청주시,충청북도 청주시 청원구 상당로 314,36.6554335,127.4901913
동화사(충북),충북 청주시,충청북도 청주시 서원구 남이면 척산화당로 444,36.5454862,127.4852391
두타산(충북),충북 진천군,충청북도 진천군 초평면 용정리,36.8399176,127.5227837
둔주봉,충북 옥천군,충청북도 옥천군 안남면,36.3562127,127.6727809
만동묘정비,충북 괴산군,충청북도 괴산군 청천면 화양동길 188,36.6687714,127.8114156
만뢰사,충북 진천군,충청북도 진천군 백곡면 강당길 50-6,36.891485,127.3222362
만뢰산,충북 진천군,충청북도 진천군 백곡면 대문리,36.8672644,127.3328985
만성사(문수암),충북 진천군,충청북도 진천군 진천읍 금사로 252-106,36.8212592,127.392109
만수계곡,충북 보은군,충청북도 보은군 속리산면 만수길 136,36.495315,127.8678127
만천하 알파인코스터,충북 단양군,충청북도 단양군 적성면 옷바위길 10,36.9770829,128.3369439
만천하 짚와이어,충북 단양군,충청북도 단양군 적성면 옷바위길 10,36.9770829,128.3369439
매학폭포,충북 충주시,충청북도 충주시 수안보면 사문리,36.8343464,128.0447125
멍딩이마을,충북 괴산군,충청북도 괴산군 소수면 원소로명덕2길 3,36.8404881,127.717723
명암산채건강마을,충북 제천시,충청북도 제천시 봉양읍 명암로3길 91,37.1854332,128.120489
명암유원지,충북 청주시,충청북도 청주시 상당구 성내로124번길 14,36.6646083,127.5426991
목계나루,충북 충주시,충청북도 충주시 엄정면 동계길 29-1,37.0746311,127.8886041
목계솔밭(충주),충북 충주시,충청북도 충주시 중앙탑면 첨단산업로,37.0460598,127.8587064
목담서원,충북 옥천군,충청북도 옥천군 동이면 옥천동이로 788-30,36.286528,127.6408757
목도강변유원지,충북 괴산군,충청북도 괴산군 불정면 목도리,36.8755787,127.8435926
목은영당,충북 청주시,충청북도 청주시 청원구 충청대로272번길 230-14,36.6772818,127.5085313
무극전적 국민관광지,충북 음성군,충청북도 음성군 음성읍 생음대로 594,36.9511967,127.6468141
무암사,충북 제천시,충청북도 제천시 금성면 청풍호로39길 285,37.0307898,128.2052353
묵정서원,충북 청주시,충청북도 청주시 상당구 낭성면 관정길 71-29,36.6143002,127.6296392
문성자연휴양림,충북 충주시,충청북도 충주시 노은면 우성1길 191,37.0274709,127.7544342
문수암(옥천),충북 옥천군,충청북도 옥천군 청성면 도장1길 33,36.3792402,127.731047
문암생태공원,충북 청주시,충청북도 청주시 흥덕구 문암동 100,36.6741613,127.4512318
문의문화재단지,충북 청주시,충청북도 청주시 상당구 문의면 대청호반로 721,36.5070855,127.4937073
문의향교,충북 청주시,충청북도 청주시 상당구 문의면 문의시내1길 11-14,36.5177548,127.4961708
물안뜰체험관,충북 진천군,충청북도 진천군 백곡면 백곡로 964,36.8870811,127.3490356
물한계곡,충북 영동군,충청북도 영동군 상촌면,36.1488053,127.9142032
미동산수목원,충북 청주시,충청북도 청주시 상당구 미원면 수목원길 51,36.6259601,127.6671926
미륵대흥사(단양),충북 단양군,충청북도 단양군 대강면 황정산로 423,36.8564792,128.3476899
미륵리 불두,충북 충주시,충청북도 충주시 수안보면 미륵리,36.8205886,128.0940826
미륵사(증평),충북 증평군,충청북도 증평군 증평읍 미륵댕이1길 13-5,36.7950573,127.5853647
미타사(음성),충북 음성군,충청북도 음성군 소이면 소이로61번길 164,36.9551103,127.7314399
민주지산,충북 영동군,충청북도 영동군 상촌면 물한리,36.059221,127.8743293
민주지산 자연휴양림,충북 영동군,충청북도 영동군 용화면 휴양림길 60,36.0537347,127.8268477
박달산(괴산),충북 괴산군,충청북도 괴산군 장연면,36.8242064,127.9552112
박달재,충북 제천시,충청북도 제천시 봉양읍 원박리,37.1334392,128.0772171
박달재자연휴양림,충북 제천시,충청북도 제천시 백운면 금봉로 228,37.1508881,128.0439019
박약재,충북 제천시,충청북도 제천시 중말16길 5-4,37.1365649,128.2645821
반기문 유엔사무총장 생가마을,충북 음성군,충청북도 음성군 원남면 행치길 17-1,36.8924433,127.6651866
반야사,충북 영동군,충청북도 영동군 황간면 백화산로 652,36.2803361,127.9089149
방곡 도예촌,충북 단양군,충청북도 단양군 대강면 선암계곡로 133,36.8266532,128.3111605
배론성지,충북 제천시,충청북도 제천시 봉양읍 배론성지길 296,37.1602799,128.0838569
백곡저수지,충북 진천군,충북 진천군 진천읍 건송리,36.8668497,127.3991198
백련사(제천),충북 제천시,충청북도 제천시 봉양읍 명암로5길 414,37.2281528,128.1387645
백록서원,충북 청주시,충청북도 청주시 흥덕구 옥산면 환희3길 38-20,36.6742064,127.3593847
백마권역마을,충북 괴산군,충청북도 괴산군 사리면 사리로 517,36.8254627,127.6496129
백마산,충북 음성군,충북 음성군 원남면 주봉리,36.8669019,127.6774186
백악산,충북 괴산군,충청북도 괴산군 청천면 사담리,36.6253227,127.8312852
백운사(괴산),충북 괴산군,충청북도 괴산군 사리면 사리로소매2길 125-146,36.8548635,127.6674723
백운암(충주),충북 충주시,충청북도 충주시 엄정면 내창로 617-80,37.1147524,127.921095
백족사(충북),충북 청주시,충청북도 청주시 상당구 가덕면 은행상야로 441-122,36.593092,127.5840482
백화산,충북 영동군,충청북도 영동군 황간면 우매리,36.2707579,127.9016706
벌랏한지마을,충북 청주시,충청북도 청주시 상당구 문의면 염티소전로 708,36.6510445,127.4870295
별새꽃돌 자연탐사과학관,충북 제천시,충청북도 제천시 봉양읍 옥전4길 45,37.1857506,128.0580581
보강천미루나무숲,충북 증평군,충청북도 증평군 증평읍 인삼로 104-48,36.7884519,127.5802944
보광사(괴산),충북 괴산군,충청북도 괴산군 사리면 모래재로시동2길 231,36.8194504,127.6838752
보광산관광농원,충북 괴산군,충청북도 괴산군 사리면 모래재로 646-8,36.8062322,127.6813205
보련마을,충북 진천군,충청북도 진천군 진천읍 보련골길 41-22,36.8462722,127.3510395
보련산,충북 충주시,충청북도 충주시 노은면 수룡봉황길 249,37.0600899,127.8016641
보살사(청주),충북 청주시,충청북도 청주시 상당구 낙가산로 168,36.6284387,127.536241
보안사 석조여래좌상,충북 괴산군,충청북도 괴산군 청안면 효근1길 3-8,36.7580821,127.6546499
보안사(괴산),충북 괴산군,충청북도 괴산군 청안면 효근1길 3-8,36.7580821,127.6546499
보은 법주사[유네스코 세계문화유산],충북 보은군,충청북도 보은군 속리산면 법주사로 405,36.5420409,127.833111
보은 분저실마을,충북 보은군,충청북도 보은군 회남면 군막길 8,36.4233094,127.5750049
보은 삼년산성,충북 보은군,충청북도 보은군 보은읍 어암리,36.477961,127.7424231
보은 서원리 소나무,충북 보은군,충청북도 보은군 장안면 서원리,36.4793391,127.8241342
보은 선병국가옥,충북 보은군,충청북도 보은군 장안면 개안길 10-2,36.4685558,127.7906173
보은 속리 정이품송,충북 보은군,충청북도 보은군 속리산면 상판리,36.5141178,127.8260988
보은 하얀민들레마을,충북 보은군,충청북도 보은군 회인면 부수길 111-2,36.491936,127.6096295
보은동헌,충북 보은군,충청북도 보은군 보은읍 삼산로 56-14,36.4845026,127.7154182
보은향교,충북 보은군,충청북도 보은군 보은읍 향교2길 21-5,36.4919883,127.7135414
보타사(증평),충북 증평군,충청북도 증평군 증평읍 초평로 1571,36.8045752,127.5471757
보탑사(진천),충북 진천군,충청북도 진천군 진천읍 김유신길 641,36.8397967,127.3409364
보현사(청주),충북 청주시,충청북도 청주시 청원구 우암산로 190-37,36.6505762,127.500853
복천사(제천),충북 제천시,충청북도 제천시 독순로21길 14,37.1385338,128.2176699
복천암(보은),충북 보은군,충청북도 보은군 속리산면 법주사로 702-5,36.5514668,127.8528731
복천암(청주),충북 청주시,충청북도 청주시 상당구 교동로71번길 120,36.6432814,127.5001094
봉유재,충북 영동군,충청북도 영동군 매곡면 내동1길 40-2,36.2060754,127.9271303
봉학골산림욕장,충북 음성군,충청북도 음성군 음성읍 용광로230번길 138,36.9719739,127.691103
봉학사(충주),충북 충주시,충청북도 충주시 중앙탑면 장천윗말1길 173,37.0501348,127.8559681
봉황경(능암리섬),충북 충주시,충북 충주시 가금면 가흥리,37.0672072,127.8531011
봉황자연휴양림,충북 충주시,충북 충주시 가금면 수룡봉황길 540,37.0577395,127.8268634
부소담악(추소정),충북 옥천군,충청북도 옥천군 군북면 추소리 519-1,36.3481342,127.5579871
북단양리조트,충북 단양군,충청북도 단양군 적성면 적성로 172-64,37.0260136,128.2893305
북벽,충북 단양군,충청북도 단양군 영춘면 북벽길 51-3,37.084506,128.4924566
불휘농장,충북 영동군,충청북도 영동군 심천면 약목2길 26,36.2018604,127.720418
비학봉마을,충북 괴산군,충청북도 괴산군 칠성면 명태재로 265,36.7691756,127.8400479
사담계곡,충북 괴산군,충청북도 괴산군 청천면 괴산로대방래길 158,36.6185224,127.8237475
사담계곡유원지,충북 괴산군,충청북도 괴산군 청천면 괴산로대방래길 158,36.6185224,127.8237475
산막와이너리,충북 영동군,충청북도 영동군 영동읍 산막골길 31-45,36.1666201,127.8198451
산모랭이풀내음,충북 보은군,충청북도 보은군 내북면 산척상궁로 421-100,36.5142585,127.6469239
삼가저수지,충북 보은군,충청북도 보은군 속리산면,36.5121012,127.8103758
삼탄유원지,충북 충주시,충청북도 충주시 산척면 인등로 177,37.0739498,127.9811433
삼형제 저수지,충북 음성군,"충북 음성군 음성읍, 사정리, 금왕읍 육령리.백야리",36.9437246,127.6529137
상선암,충북 단양군,충청북도 단양군 단성면 선암계곡로 790,36.8722173,128.2906796
상수허브랜드,충북 청주시,충청북도 청주시 서원구 남이면 부용외천길 18,36.5299466,127.426205
상천민속마을,충북 제천시,충청북도 제천시 수산면 상천1길 16,36.9658472,128.2383545
상현서원,충북 보은군,충청북도 보은군 장안면 장안로 225,36.479996,127.7989486
상환암(충북),충북 보은군,충청북도 보은군 속리산면 법주사로 658-22,36.547124,127.8598277
새밭계곡,충북 단양군,충청북도 단양군 가곡면 새밭로 845,36.9880498,128.4625246
서문풍물야시장 & 서문시장삼겹살거리,충북 청주시,충청북도 청주시 상당구,36.6510445,127.4870295
서원계곡,충북 보은군,충청북도 보은군 장안면 장안로 491-4,36.4801332,127.8181545
서정우 가옥,충북 음성군,충청북도 음성군 감곡면 영산로55번길,37.0782689,127.6371846
서한순 효자문,충북 진천군,충청북도 진천군 진천읍 사석리,36.8311502,127.4113189
석문,충북 단양군,충청북도 단양군 매포읍 삼봉로 644-33,37.0029983,128.3432616
석보군묘각,충북 괴산군,충청북도 괴산군 청안면 조천상길 74-21,36.7799441,127.6621901
석종사(충주),충북 충주시,충청북도 충주시 직동길 271-56,36.9482764,127.9694412
석천암(괴산),충북 괴산군,충청북도 괴산군 청천면 삼송길 205-182,36.6722912,127.9017067
선암계곡(하선암),충북 단양군,충청북도 단양군 단성면 선암계곡로 1337,36.90788,128.3093556
선암골생태유람길(고개넘어길),충북,충청북도 단양군 단성면 벌천리 일대,36.8726937,128.2626233
선암골생태유람길(농촌풍경길),충북 단양군,충청북도 단양군 대강면 사인암리 일대,36.894303,128.3406567
선암골생태유람길(물소리길),충북 단양군,충청북도 단양군 단성면 하방리 일대,36.9428975,128.3189927
선암골생태유람길(숲소리길),충북 단양군,충청북도 단양군 대강면 방곡리 일대,36.8296889,128.3236577
선유구곡(선유동계곡),충북 괴산군,충청북도 괴산군 청천면 선유동길 179,36.6847204,127.8807275
설성공원,충북 음성군,충청북도 음성군 음성읍 설성공원길 28,36.9327088,127.6909135
성내동 관아골,충북 충주시,충청북도 충주시 관아4길 15,36.9707192,127.9343933
성림사(진천),충북 진천군,충청북도 진천군 덕산면 인화길 83,36.8814456,127.4887625
성불산자연휴양림,충북 괴산군,충청북도 괴산군 괴산읍 충민로기곡길 78,36.807843,127.84621
소노문 단양 오션플레이,충북 단양군,충청북도 단양군 단양읍 삼봉로 187-17,36.9776625,128.3622929
소백산 가리점마을(마조리마을),충북 단양군,충청북도 단양군 단양읍 마조로 237,36.9449013,128.3913713
소백산 천문대,충북 단양군,충청북도 단양군 단양읍 소백산길 639,36.9345692,128.4584765
소백산국립공원,충북 단양군,충청북도 단양군 가곡면 남한강로 494,37.0244188,128.3841161
소백산국립공원(북부),충북 단양군,충청북도 단양군 가곡면 남한강로 494,37.0244188,128.3841161
소선암자연휴양림,충북 단양군,충청북도 단양군 단성면 대잠2길 15,36.9194166,128.3107984
속리산 관광특구,충북 보은군,충청북도 보은군 속리산면 법주사로 405,36.5420409,127.833111
속리산 산채비빔밥 거리,충북 보은군,충청북도 보은군 속리산면 법주사로 223,36.528565,127.8195677
속리산 숲체험휴양마을,충북 보은군,충청북도 보은군 속리산면 속리산로 596,36.5227181,127.7955243
속리산국립공원,충북 보은군,충청북도 보은군 속리산면 법주사로 84,36.5172567,127.8174804
속리산국립공원(충북),충북 보은군,충북 보은군 속리산면 상판리,36.5141178,127.8260988
속리산조각공원,충북 보은군,충청북도 보은군 속리산면 법주사로 293,36.5341792,127.8253317
솔밭관광농원,충북 괴산군,충청북도 괴산군 괴산읍 능촌로5길 39,36.8395895,127.8507333
송계계곡,충북 제천시,충청북도 제천시 한수면 미륵송계로,36.8811445,128.0809593
송계서원,충북 청주시,충청북도 청주시 흥덕구 내곡로 40-18,36.6616791,127.429632
송천서원,충북 청주시,충청북도 청주시 청원구 오창읍 오창양지길 22-3,36.73887,127.4439379
수레의산자연휴양림,충북 음성군,충청북도 음성군 생극면 차생로 310-108,37.0378111,127.6525284
수룡폭포,충북 충주시,충청북도 충주시 노은면 수룡봉황길 249,37.0600899,127.8016641
수문폭포,충북 제천시,충청북도 제천시 덕산면 월악산로,36.894082,128.1352872
수안보 인공암벽장,충북 충주시,충청북도 충주시 수안보면 수안보로 129,36.8421731,127.9986826
수안보 하이스파,충북 충주시,충청북도 충주시 수안보면 물탕2길 17,36.8469301,127.9908861
수안보온천 관광특구,충북 충주시,충청북도 충주시 수안보면 주정산로 12,36.848325,127.9892365
수암골 벽화마을,충북 청주시,충청북도 청주시 상당구 수암로 58,36.6472564,127.4942949
수암골전망대,충북 청주시,충청북도 청주시 상당구 수동로5번길 2,36.6464284,127.4954098
수옥정관광지,충북 괴산군,충청북도 괴산군 연풍면 수옥정길 174,36.8135126,128.0362539
수옥폭포,충북 괴산군,충청북도 괴산군 연풍면 원풍리 141-2,36.8054261,128.026509
수운정(단양),충북 단양군,충청북도 단양군 대강면 황정리,36.8623999,128.3481818
수정암(충북),충북 보은군,충청북도 보은군 속리산면 법주사로 379,36.5420409,127.833111
수주팔봉,충북 충주시,충청북도 충주시 살미면,36.9053519,127.9645788
슬로시티 제천(수산면측백숲과 옥순봉생태공원),충북 제천시,충청북도 제천시 수산면 월악로26길 39,36.9337382,128.1809731
신륵사(제천),충북 제천시,충청북도 제천시 덕산면 월악산로4길 180,36.8792246,128.1306395
신선봉,충북 괴산군,충청북도 괴산군 연풍면 원풍리,36.7996,128.0302148
신풍전통한지체험,충북 괴산군,충청북도 괴산군 연풍면 원풍로 224-11,36.7839046,128.0173705
신항서원,충북 청주시,충청북도 청주시 상당구 이정골로 115-8,36.6359994,127.5260556
신흥사(충주),충북 충주시,충청북도 충주시 엄정면 족동2길 197,37.1121962,127.9457114
심천역(영동),충북 영동군,충청북도 영동군 심천면 심천로5길 5-1,36.2364767,127.7216276
쌍곡구곡,충북 괴산군,충청북도 괴산군 칠성면 쌍곡로 242,36.7617151,127.88971
악어봉,충북 충주시,충청북도 충주시 살미면 신당리,36.918123,128.0562083
악휘봉,충북 괴산군,충청북도 괴산군 연풍면 입석길 172,36.7643101,127.9579471
안골관광농원,충북 진천군,충청북도 진천군 백곡면 용암2길 108-36,36.8748075,127.3667183
안심사(청원),충북 청주시,충청북도 청주시 서원구 남이면 사동길 169-28,36.5523393,127.4132802
안터선사공원,충북 옥천군,충청북도 옥천군 동이면 안터1길 36,36.3190253,127.6186568
암서재,충북 괴산군,충청북도 괴산군 청천면 화양동2길 30,36.6685945,127.8147487
앙성온천지구,충북 충주시,충청북도 충주시 앙성면 가곡로,37.0974611,127.7771704
앙성탄산온천,충북 충주시,충청북도 충주시 앙성면 가곡로 1457,37.0937823,127.7970789
애한정,충북 괴산군,충청북도 괴산군 괴산읍 충민로검승1길 18-9,36.8058119,127.8230032
양방산전망대,충북 단양군,충청북도 단양군 단양읍 양방산길 350,36.9682771,128.3817898
어제 달천 충렬사비,충북 충주시,충청북도 충주시 충열1길 6,36.946158,127.9050858
에이스 침대 음성공장,충북 음성군,충청북도 음성군 삼성면 상곡로 55-35,37.0007101,127.4504006
여적암(보은),충북 보은군,충청북도 보은군 속리산면 사내1길 407,36.5560753,127.8314745
연곡계곡,충북 진천군,충청북도 진천군 진천읍 연곡리,36.8441844,127.352566
연곡저수지,충북 진천군,충청북도 진천군 진천읍 연곡리,36.8441844,127.352566
연안이씨 쌍효각,충북 충주시,충청북도 충주시 동량면 대전리1길 25,37.0517694,127.9328609
연제 안승갑 고가,충북 진천군,충청북도 진천군 진천읍 보련골길 46,36.8461612,127.3533278
연풍성지,충북 괴산군,충청북도 괴산군 연풍면 중앙로홍문2길 14,36.7637857,127.9940087
연풍향교,충북 괴산군,충청북도 괴산군 연풍면 향교로 40-2,36.7649961,127.9984185
연풍향청,충북 괴산군,충청북도 괴산군 연풍면 중앙로 44,36.7631162,127.9960058
연화사(청주),충북 청주시,충청북도 청주시 흥덕구 부모산로 134,36.6348484,127.4119855
영국사(영동),충북 영동군,충청북도 영동군 양산면 영국동길 225-35,36.158107,127.610484
영동 가학루,충북 영동군,충청북도 영동군 황간면 남성리,36.2313473,127.9214693
영동 국악체험촌,충북 영동군,충청북도 영동군 심천면 국악로1길 33,36.2121126,127.6996011
영동 금강모치마을,충북 영동군,충청북도 영동군 학산면 모리1길 38,36.1117833,127.6476432
영동 난계사,충북 영동군,충청북도 영동군 심천면 국악로 13-34,36.2105315,127.7031455
영동 덕수이씨 육세팔효정문,충북 영동군,충청북도 영동군 양산면 원당리,36.1188064,127.6861896
영동 비단강숲마을,충북 영동군,충청북도 영동군 양산면 수두1길 20-27,36.1327036,127.6580591
영동 사로당,충북 영동군,충청북도 영동군 매곡면 내동1길 8,36.2053004,127.9303283
영동 삼괴당,충북 영동군,충청북도 영동군 상촌면 임산3길 28-13,36.1483176,127.9113814
영동 성위제가옥,충북 영동군,충청북도 영동군 학산면 미촌길 67-11,36.1209934,127.710477
영동 세천재,충북 영동군,충청북도 영동군 매곡면 내오곡길 94-97,36.1791578,127.9422445
영동 영모재,충북 영동군,충청북도 영동군 상촌면 관기길 16-5,36.1507324,127.916633
영동 와인터널,충북 영동군,충청북도 영동군 영동읍 영동힐링로 30,36.1626316,127.7864597
영동 추풍령 전적 및 장지현 순절비,충북 영동군,충청북도 영동군 추풍령면,36.2144945,127.998893
영동 한천정사,충북 영동군,충청북도 영동군 황간면 원촌동1길 48,36.2340869,127.8921633
영동 화수루,충북 영동군,충청북도 영동군 상촌면 하도대3안길 33-18,36.1346655,127.8954072
영동 흥학당,충북 영동군,충청북도 영동군 매곡면 내동1길 42,36.2059075,127.9266645
영동규당고택,충북 영동군,충청북도 영동군 영동읍 금동로4길 9-9,36.1806701,127.7764766
영동김참판고택(김선조가옥),충북 영동군,충청북도 영동군 양강면 괴목1길 13-5,36.1530519,127.7547461
영동블루와인농원,충북 영동군,충청북도 영동군 양산면 호탄길 53-23,36.1323327,127.637082
영동소석고택,충북 영동군,충청북도 영동군 심천면 초강로6길 26,36.21802,127.7126614
영동향교,충북 영동군,충청북도 영동군 영동읍 성안길 20-9,36.1757361,127.7700774
영모사,충북 충주시,충청북도 충주시 동량면 내동1길,37.0553714,127.9532699
영수사(진천),충북 진천군,충청북도 진천군 초평면 영구리길 60-125,36.8352696,127.5512832
영천사(충북),충북 영동군,충청북도 영동군 황간면 신흥2길 12-127,36.2419701,127.9069211
영축선원(충북),충북 영동군,충청북도 영동군 매곡면 해평길 240-29,36.1466339,127.9479335
영춘향교,충북 단양군,충청북도 단양군 영춘면 영부로 2884-3,37.081477,128.4886084
오갑사지 석불좌상,충북 충주시,충청북도 충주시 앙성면 모점1길 404,37.1509851,127.7126847
오뚜기 대풍공장,충북 음성군,충청북도 음성군 대소면 대풍산단로 128,36.9661747,127.4646555
옥계폭포,충북 영동군,충청북도 영동군 심천면 고당리,36.2115459,127.6870777
옥순대교,충북 제천시,충청북도 제천시 수산면 옥순봉로 399,36.9491725,128.231751
옥천 경율당,충북 옥천군,충청북도 옥천군 안남면 종미3길 120,36.3414059,127.6693831
옥천 독락정,충북 옥천군,충청북도 옥천군 안남면 연주길 170,36.3475564,127.665284
옥천 석탄리 고인돌,충북 옥천군,충청북도 옥천군 동이면 안터1길 36,36.3190253,127.6186568
옥천 석탄리 선돌,충북 옥천군,충청북도 옥천군 동이면 안터1길 36,36.3190253,127.6186568
옥천 수생식물학습원,충북 옥천군,충청북도 옥천군 군북면 방아실길 255,36.3914091,127.5530649
옥천 육영수 생가,충북 옥천군,충청북도 옥천군 옥천읍 향수길 119,36.3180285,127.5874421
옥천 이지당,충북 옥천군,충청북도 옥천군 군북면 이백6길 126,36.3295237,127.5559057
옥천 장수마을,충북 옥천군,충청북도 옥천군 청성면 장수로1길 79-1,36.3158186,127.7436776
옥천 후율당,충북 옥천군,충청북도 옥천군 안내면 도이길 42,36.4024349,127.6719577
옥천향교,충북 옥천군,충청북도 옥천군 옥천읍 향수8길 8-5,36.3181173,127.5865307
옥화9경,충북 청주시,충청북도 청주시 상당구 미원면 운암2길,36.5985806,127.6970425
옥화자연휴양림,충북 청주시,충청북도 청주시 상당구 미원면 운암옥화길 140,36.5985806,127.6970425
온달관광지,충북 단양군,충청북도 단양군 영춘면 온달로 23,37.0626113,128.4926074
용담사(충주),충북 충주시,충청북도 충주시 신니면 내포길 27-110,37.0071613,127.7118279
용담폭포,충북 제천시,충청북도 제천시 수산면 상천1길,36.9671725,128.2394971
용두산 산림욕장,충북 제천시,충청북도 제천시 명암로,37.184171,128.1420492
용암사(옥천),충북 옥천군,충청북도 옥천군 옥천읍 삼청2길 400,36.2594581,127.5640179
용하구곡,충북 제천시,충북 제천시 덕산면 억수리,36.871492,128.151321
용화사(진천),충북 진천군,충청북도 진천군 진천읍 소강정1길 83,36.8553649,127.4511884
용화사(청주),충북 청주시,충청북도 청주시 서원구 무심서로 565,36.6416246,127.4820829
우드트레인,충북 제천시,충청북도 제천시 봉양읍 의암로 698,37.1008466,128.0779727
우록서원,충북 청주시,충청북도 청주시 서원구 현도면 우록리,36.5080121,127.4307948
우암 송시열묘,충북 괴산군,충청북도 괴산군 청천면 청천8길 19,36.662285,127.7362325
우암산,충북 청주시,충청북도 청주시 상당구 교동로71번길 91,36.6419211,127.4993734
"우천석, 우팽 부자 묘소",충북 충주시,충청북도 충주시 산척면 송강행정길 53,37.0813147,127.9645864
운곡서원,충북 청주시,충청북도 청주시 상당구 목련로214번길 37-3,36.6058601,127.5280777
운곡서원(음성),충북 음성군,충청북도 음성군 삼성면 청용로365번길 22,37.0173876,127.4669778
운용사(충북),충북 청주시,충청북도 청주시 상당구 미원면 운용길,36.6361046,127.6584298
원각사(충북),충북 제천시,충청북도 제천시 의병대로 118,37.1348329,128.2136535
원호 유허비 및 관란정,충북 제천시,충청북도 제천시 송학면 장곡리,37.2077457,128.3175693
월류봉(한천팔경),충북 영동군,충청북도 영동군 황간면 원촌리 48-3,36.234255,127.8917226
월리사(청주),충북 청주시,충청북도 청주시 상당구 문의면 염티소전로 55-100,36.6510445,127.4870295
월명사(제천),충북 제천시,충청북도 제천시 송학면 시곡5길 3,37.1916984,128.2804579
월악산 약초마을,충북 제천시,충청북도 제천시 덕산면 약초로 78,36.9102063,128.1645824
월악산국립공원,충북 제천시,충청북도 제천시 한수면 미륵송계로 1647,36.8870188,128.0785411
월악산국립공원,충북 제천시,충청북도 제천시 한수면 미륵송계로 1647,36.8870188,128.0785411
위정사,충북 괴산군,충청북도 괴산군 장연면 충민로광진8길 53-1,36.8803959,127.9434416
율리휴양촌,충북 증평군,충청북도 증평군 증평읍 율리휴양로 287,36.7172611,127.6366367
음성 경호정,충북 음성군,충청북도 음성군 음성읍 설성공원길 28,36.9327088,127.6909135
음성 읍내리 삼층석탑,충북 음성군,충청북도 음성군 음성읍 설성공원길 28,36.9327088,127.6909135
음성 하당골녹색체험마을,충북 음성군,충청북도 음성군 원남면 하초로 74,36.9077114,127.6767402
음성 흥미진진한 팩토리 투어센터,충북 음성군,충청북도 음성군 대소면 대풍산단로 78,36.9711275,127.464668
음성김주태가옥,충북 음성군,충청북도 음성군 감곡면 영산안길 47-13,37.0808928,127.6577025
음성동요마을,충북 음성군,충청북도 음성군 생극면 오신로342번길 27,37.0273912,127.6299239
음성큰바위얼굴조각공원,충북 음성군,충청북도 음성군 생극면 일생로 500,37.0328814,127.5759173
음성향교,충북 음성군,충청북도 음성군 음성읍 중앙로 223,36.9417319,127.6946336
이시진 효자각,충북 충주시,충청북도 충주시 동량면 대전리1길 149,37.0556323,127.9463667
임경업 장군 묘소,충북 충주시,충청북도 충주시 풍동,36.9290342,127.9093948
자연드림파크(괴산),충북 괴산군,충청북도 괴산군 칠성면 자연드림길 240,36.766995,127.8602978
장락사(제천),충북 제천시,충청북도 제천시 탑안로8길 24,37.14787,128.2308136
"장령산자연휴양림(구, 장용산자연휴양림)",충북 옥천군,충청북도 옥천군 군서면 장령산로 519,36.232468,127.5625848
장암 정호 묘소,충북 괴산군,충청북도 괴산군 불정면 지장리,36.8642181,127.8323692
장회나루,충북 단양군,충청북도 단양군 단성면 장회리,36.9295517,128.2635426
정방사,충북 제천시,충청북도 제천시 수산면 옥순봉로12길 165,36.9989833,128.2074024
정심사(충주),충북 충주시,충청북도 충주시 유주막로 248,36.93818,127.9283635
정안둥구나무마을,충북 증평군,충청북도 증평군 증평읍 증안2길 22,36.7713245,127.5738526
정지용 생가,충북 옥천군,충청북도 옥천군 옥천읍 향수길 56,36.3149497,127.5817065
제3한방명의촌 한방자연치유센터,충북 제천시,충청북도 제천시 청풍면 학현소야로 324,37.0115611,128.2210115
제비봉,충북 단양군,충청북도 단양군 단성면 장회리,36.9295517,128.2635426
제원 송계리 망개나무,충북 제천시,충청북도 제천시 한수면 미륵송계로 1405,36.8661603,128.0872468
제천 교리 방단석조물,충북 제천시,충청북도 제천시 청풍면 교리,37.0169056,128.1899343
제천 덕주산성,충북 제천시,충청북도 제천시 한수면 송계리,36.863527,128.0785028
제천 무암사 목조아미타여래좌상,충북 제천시,충청북도 제천시 금성면 청풍호로39길 285,37.0307898,128.2052353
제천 백련사 목조아미타여래좌상,충북 제천시,충청북도 제천시 봉양읍 명암로5길 414,37.2281528,128.1387645
제천 사자빈신사지 사사자 구층석탑,충북 제천시,충청북도 제천시 한수면 송계리 1002-1,36.8739048,128.0878186
제천 산야초마을,충북 제천시,충청북도 제천시 수산면 옥순봉로6길 3,36.9701165,128.2265966
제천 소악사지 삼층석탑,충북 제천시,충청북도 제천시 송학면,37.1847701,128.2608167
제천 송계리 대불정주 범자비,충북 제천시,충청북도 제천시 한수면 송계리,36.863527,128.0785028
제천 시곡리 석조여래입상,충북 제천시,충청북도 제천시 송학면 시곡리,37.1983181,128.2703105
제천 엽연초생산조합 구사옥,충북 제천시,충청북도 제천시 의병대로12길 8,37.1364868,128.2068891
제천 엽연초수납 취급소,충북 제천시,충청북도 제천시 의병대로12길 14-1,37.1370371,128.2065552
제천 옥순봉,충북 제천시,충청북도 제천시 수산면,36.9337865,128.1809975
제천 의림지와 제림,충북 제천시,충청북도 제천시 의림지로 33,37.1740612,128.2080737
제천 입석리 선돌,충북 제천시,충청북도 제천시 송학면 입석리,37.2078473,128.2948605
제천 자양영당,충북 제천시,충청북도 제천시 봉양읍 의암로 566-7,37.0992402,128.0864738
제천 장락동 칠층모전석탑,충북 제천시,충청북도 제천시 탑안로8길 24,37.14787,128.2308136
제천 점말동굴유적,충북 제천시,충청북도 제천시 송학면 포전리,37.1978564,128.2354484
제천 중전리 고가,충북 제천시,충청북도 제천시 금성면 신담길 278,37.0624162,128.1909105
제천 지곡리 고가,충북 제천시,충청북도 제천시 청풍면 청풍호로 2048,37.0043169,128.171511
제천 청풍 금남루,충북 제천시,충청북도 제천시 청풍면 청풍호로 2048,37.0043169,128.171511
제천 청풍 금병헌,충북 제천시,충청북도 제천시 청풍면 청풍호로 2048,37.0043169,128.171511
제천 청풍 망월산성,충북 제천시,충청북도 제천시 청풍면 청풍호로 2048,37.0043169,128.171511
제천 청풍 응청각,충북 제천시,충청북도 제천시 청풍면 청풍호로 2048,37.0043169,128.171511
제천 청풍 한벽루,충북 제천시,충청북도 제천시 청풍면 청풍호로 2048,37.0043169,128.171511
제천 청풍관광마을,충북 제천시,충청북도 제천시 청풍면 배시론로 3,36.9965078,128.1661917
제천 한산사 석조여래입상,충북 제천시,충청북도 제천시 용두천로8길 27,37.1344496,128.2133711
제천솔방죽 생태공원,충북 제천시,충청북도 제천시 청전동 240-1 일원,37.1572737,128.2081943
제천역 (철도체험학습장),충북 제천시,충청북도 제천시 의림대로 1,37.1277513,128.2047664
제천한방엑스포공원,충북 제천시,충청북도 제천시 한방엑스포로 19,37.1431993,128.1603772
제천향교,충북 제천시,충청북도 제천시 칠성로 117,37.1417307,128.2178817
조동산촌마을,충북 영동군,충청북도 영동군 용화면 민주지산로 765,36.0463553,127.8147179
조령민속공예촌,충북 괴산군,충청북도 괴산군 연풍면 원풍로 224-11,36.7839046,128.0173705
조령산자연휴양림,충북 괴산군,충청북도 괴산군 연풍면 새재로 1795,36.8120957,128.0470655
조산공원,충북 충주시,충청북도 충주시 수안보면 조산공원길 64,36.8438634,127.991178
좌구산자연휴양림,충북 증평군,충청북도 증평군 증평읍 솟점말길 107,36.7054168,127.6511754
주정산 봉수,충북 충주시,충청북도 충주시 수안보면 온천리,36.851824,127.9870796
죽계서원(청주),충북 청주시,충청북도 청주시 청원구 북이면 용계4길 8-12,36.7584842,127.5221022
죽령폭포,충북 단양군,충청북도 단양군 대강면 죽령로,36.9120651,128.4001915
중부내륙순환열차(O-트레인),충북 제천시,서울특별시 용산구 한강대로 405,37.5490645,126.9704658
중사자암,충북 보은군,충청북도 보은군 속리산면 법주사로 832,36.5613833,127.853872
중선암,충북 단양군,충청북도 단양군 단성면,36.9371158,128.3234095
중앙탑공원(충주),충북 충주시,충청북도 충주시 중앙탑면 중앙탑길 112-28,37.0163939,127.8652604
중원 문주리 와요지,충북 충주시,충청북도 충주시 대소원면 문주리,36.9053823,127.8921123
중원 미륵리 도요지,충북 충주시,충청북도 충주시 수안보면 미륵송계로 835,36.8239221,128.088155
중원 미륵리 사지 석조보살의상,충북 충주시,충청북도 충주시 수안보면 미륵리,36.8205886,128.0940826
중원 미륵리 삼층석탑,충북 충주시,충청북도 충주시 수안보면 미륵리,36.8205886,128.0940826
중원 미륵리 석등,충북 충주시,충청북도 충주시 수안보면 미륵리,36.8205886,128.0940826
중원 원평리 미륵석불,충북 충주시,충청북도 충주시 신니면 원평리 108,37.0000156,127.7207005
중원당 (청명주 양조장),충북 충주시,충청북도 충주시 중앙탑면 청금로 112-10,36.99724,127.8788279
중화사(영동),충북 영동군,충청북도 영동군 영동읍 화신로 529,36.1481621,127.8390489
증평 남하리 석조보살입상,충북 증평군,충청북도 증평군 증평읍 남하리,36.7556962,127.597704
증평 미암리 석조관음보살입상,충북 증평군,충청북도 증평군 증평읍 송산리,36.803473,127.5763313
증평 에듀팜(블랙스톤 벨포레 리조트),충북 증평군,충청북도 증평군 도안면 벨포레길 346,36.8388255,127.5821424
증평 연병호 생가,충북 증평군,충청북도 증평군 도안면 산정길 21,36.828426,127.62034
증평 장이익어가는마을,충북 증평군,충청북도 증평군 증평읍 송티로 76-12,36.8000819,127.5783338
증평 좌구산 구름다리 & 좌구산 숲 명상의 집,충북 증평군,충청북도 증평군 증평읍 솟점말길 107,36.7054168,127.6511754
증평 좌구산천문대,충북 증평군,충청북도 증평군 증평읍 솟점말길 187,36.7103022,127.6491052
증평 증안골마을,충북 증평군,충청북도 증평군 증평읍 삼보로 113,36.7807001,127.577053
"지장사(구, 대각사)",충북 영동군,충청북도 영동군 황간면 황간동로 284-28,36.246422,127.9200709
지천서원,충북 음성군,충청북도 음성군 생극면 팔성길 88,37.0468572,127.5933944
진천 금성대군 사당,충북 진천군,충청북도 진천군 초평면 수의1길 75-7,36.790343,127.5510299
진천 길상사,충북 진천군,충청북도 진천군 진천읍 문진로 1411-38,36.8535609,127.4239809
진천 김유신 탄생지와 태실,충북 진천군,충청북도 진천군 진천읍 김유신길 170-4,36.8404378,127.3755666
진천 노원리 왜가리 번식지,충북 진천군,충청북도 진천군 이월면 논실길 113-12,36.9231897,127.4157489
진천 농다리,충북 진천군,충청북도 진천군 문백면 구곡리,36.8345396,127.4904527
진천 덕산양조(주),충북 진천군,충청북도 진천군 덕산면 초금로 712,36.9082437,127.5086787
진천 배티 성지,충북 진천군,충청북도 진천군 백곡면 배티로 663-13,36.927,127.3262737
진천 산수리와 삼용리 요지,충북 진천군,충청북도 진천군 이월면 삼용리,36.9028265,127.4677154
진천 생거진천화랑촌,충북 진천군,충청북도 진천군 진천읍 보련골길 40-4,36.8456408,127.3530855
진천 신헌 고가,충북 진천군,충청북도 진천군 이월면 논실안길 58-1,36.9236447,127.4164671
진천 연곡리 석비,충북 진천군,충청북도 진천군 진천읍 김유신길 641,36.8397967,127.3409364
진천 이시발 신도비,충북 진천군,충청북도 진천군 초평면 용정리,36.8399176,127.5227837
진천 이영남 묘소,충북 진천군,충청북도 진천군 덕산읍 기전리,36.8881063,127.5328525
진천 정송강사,충북 진천군,충청북도 진천군 문백면 송강로 523,36.7987599,127.4093409
진천 태화4년명 마애여래입상,충북 진천군,충청북도 진천군 초평면 용정리,36.8399176,127.5227837
진천공예마을,충북 진천군,충청북도 진천군 문백면 공예촌길 116-3,36.7898013,127.4567948
진천만뢰산 자연생태공원,충북 진천군,충청북도 진천군 진천읍 김유신길 340-38,36.8498849,127.3657174
진천향교,충북 진천군,충청북도 진천군 진천읍 문화5길 30,36.8494576,127.4350152
창룡사(충주),충북 충주시,충청북도 충주시 고든골길 63-89,36.9516043,127.9599284
채운암,충북 괴산군,충청북도 괴산군 청천면 화양동2길 30,36.6685945,127.8147487
채운암 대웅전,충북 괴산군,충청북도 괴산군 청천면 화양동2길 30,36.6685945,127.8147487
천동관광지,충북 단양군,충청북도 단양군 단양읍 다리안로 534,36.9731031,128.4173187
천동동굴,충북 단양군,충청북도 단양군 단양읍 천동2길 18,36.9724281,128.4201296
천등산전통발효식품,충북 충주시,충청북도 충주시 산척면 세고개로 277,37.092339,127.9584075
천태산,충북 영동군,충청북도 영동군 양산면 누교리,36.1645147,127.623615
청남대,충북 청주시,충청북도 청주시 상당구 문의면 청남대길 646,36.4612029,127.4885521
청덕사,충북 괴산군,충청북도 괴산군 불정면 한불로청덕2길 14,36.8719962,127.850488
청련암(단양),충북 단양군,충청북도 단양군 대강면 사인암2길 42,36.8943884,128.3403949
청룡사(청주),충북 청주시,충청북도 청주시 흥덕구 청정로 116,36.6062257,127.3795455
청룡사(충주),충북 충주시,충청북도 충주시 소태면 청룡사지길 147,37.1323331,127.840051
청룡사지,충북 충주시,충청북도 충주시 소태면 청룡사지길 147,37.1323331,127.840051
청목화랑,충북 보은군,충청북도 보은군 보은읍 보청대로 1471,36.4877066,127.7539644
청산향교,충북 옥천군,충청북도 옥천군 청산면 교평2길 18,36.3457225,127.7972378
청안 사마소,충북 괴산군,충청북도 괴산군 청안면 청안읍내로5길 33-13,36.7748408,127.6413076
청안향교,충북 괴산군,충청북도 괴산군 청안면 청안읍내로5길 33-14,36.7753637,127.6419897
청원 연꽃마을,충북 청주시,충청북도 청주시 흥덕구 강내면 궁현연꽃2길 33-6,36.5812996,127.367774
청주 무농정,충북 청주시,충청북도 청주시 상당구 단재로 273,36.6057506,127.5020429
청주 문의문산관,충북 청주시,충청북도 청주시 상당구 문의면 대청호반로 721,36.5070855,127.4937073
청주 상당산성,충북 청주시,충청북도 청주시 상당구 산성동 산28-2,36.6651471,127.5331628
청주 성공회 성당,충북 청주시,충청북도 청주시 상당구 교동로47번길 33,36.6387931,127.4938481
청주 신전동 고가,충북 청주시,충청북도 청주시 흥덕구 신전로175번길 169,36.6089288,127.4019989
청주 신채호사당 및 묘소,충북 청주시,충청북도 청주시 상당구 낭성면 귀래길 249,36.6361392,127.6201662
청주 용두사지 철당간,충북 청주시,충청북도 청주시 상당구 남문로 2가 48-19,36.6330656,127.4897573
청주 정북동 토성,충북 청주시,충청북도 청주시 청원구 정북동,36.6877003,127.4572828
청주 중앙공원,충북 청주시,충청북도 청주시 상당구 상당로55번길 33,36.6328272,127.4887916
청주 충청도병마절도사영문,충북 청주시,충청북도 청주시 상당구 남사로 115,36.6325147,127.4873758
청주 탑동 양관,충북 청주시,충청북도 청주시 상당구 탑동로32번길 17-6,36.6283849,127.4989321
청주 흥덕사지,충북 청주시,충청북도 청주시 흥덕구 직지대로 713,36.6441486,127.471756
청주가로수길,충북 청주시,충청북도 청주시 흥덕구 휴암동,36.6164678,127.4089662
청주동물원,충북 청주시,충청북도 청주시 상당구 명암로 224,36.6519876,127.5231213
청주에듀피아,충북 청주시,충청북도 청주시 청원구 상당로 314,36.6554335,127.4901913
청주향교,충북 청주시,충청북도 청주시 상당구 대성로122번길 81,36.6371915,127.4969975
청풍 황석리 고가,충북 제천시,충청북도 제천시 청풍면 청풍호로 2048,37.0043169,128.171511
청풍 후산리 고가,충북 제천시,충청북도 제천시 청풍면 청풍호로 2048,37.0043169,128.171511
청풍문화재단지,충북 제천시,충청북도 제천시 청풍면 청풍호로 2048,37.0043169,128.171511
청풍정,충북 옥천군,충청북도 옥천군 군북면 석호리,36.3695774,127.5879838
청풍향교,충북 제천시,충청북도 제천시 청풍면 청풍호로 2048,37.0043169,128.171511
청풍호 관광모노레일,충북 제천시,충청북도 제천시 청풍면 청풍명월로 879-17,37.0027955,128.1354326
청풍호 유람선,충북 제천시,충청북도 제천시 청풍면 청풍호로50길 6,37.0122312,128.179197
청풍호반케이블카,충북 제천시,충청북도 제천시 청풍면 문화재길 166,37.0039484,128.1708057
체화서원,충북 청주시,충청북도 청주시 상당구 남일면 가산리,36.5671372,127.4995461
초정약수,충북 청주시,충청북도 청주시 청원구 내수읍 초정리,36.7190076,127.5986652
충강공 이상급 신도비,충북 충주시,충청북도 충주시 주덕읍 사락리,37.0107796,127.7950908
충북 제천 수산·박달재 [슬로시티],충북 제천시,충청북도 제천시 백운면 평동리,37.1493922,128.0376193
충북 제천시,충북 제천시,충청북도 제천시 수산면 전역,36.9337865,128.1809975
충북도민안전체험관,충북 청주시,충청북도 청주시 흥덕구 풍년로180번길 37-1,36.6290395,127.4334204
충북알프스자연휴양림,충북 보은군,충청북도 보은군 산외면 속리산로 1880,36.5731675,127.7857319
충용사,충북 음성군,충청북도 음성군 음성읍 용광로114번길 113,36.9554153,127.6911968
충주 강천리 석불입상,충북 충주시,충청북도 충주시 앙성면 지당리,37.0902512,127.7107661
충주 견학리 토성,충북 충주시,충청북도 충주시 신니면 성하2길,36.9827883,127.7606343
충주 고불선원 소조여래좌상,충북 충주시,충청북도 충주시 신니면 선당길,36.9952291,127.7122308
충주 관아공원,충북 충주시,충청북도 충주시 관아1길 21,36.9705039,127.9361568
충주 김생사지,충북 충주시,충청북도 충주시 금가면 김생로 325,37.0062346,127.908136
충주 단호사 삼층석탑,충북 충주시,충청북도 충주시 충원대로 201,36.94676,127.9007175
충주 단호사 철조여래좌상,충북 충주시,충청북도 충주시 충원대로 201,36.94676,127.9007175
충주 대림산성,충북 충주시,충청북도 충주시 살미면 향산리,36.9231084,127.9333903
충주 라바랜드,충북 충주시,충청북도 충주시 남한강로 30,36.9885109,127.9062016
충주 문주리 석불좌상,충북 충주시,충청북도 충주시 대소원면 팔봉로 359,36.9034307,127.9027722
충주 미륵대원지,충북 충주시,충청북도 충주시 수안보면 미륵리사지길 150,36.8224102,128.0947422
충주 미륵리 사지 귀부,충북 충주시,충청북도 충주시 수안보면,36.8472401,127.9947687
충주 미륵리 사지 사각석등,충북 충주시,충청북도 충주시 수안보면 미륵리 52-3,36.8221359,128.0951835
충주 미륵리 석조여래입상,충북 충주시,충청북도 충주시 수안보면 미륵리,36.8205886,128.0940826
충주 미륵리 오층석탑,충북 충주시,충청북도 충주시 수안보면 미륵리 56,36.821889,128.0951686
충주 민속공예거리,충북 충주시,충청북도 충주시 중앙탑면 가곡로 1965,37.0769365,127.8464173
충주 박팽년 사당,충북 충주시,충청북도 충주시 신니면 참샘길 115,37.001883,127.7452515
충주 봉황리 마애불상군,충북 충주시,충청북도 충주시 중앙탑면 봉황리,37.0586499,127.8345268
충주 부흥사 방단적석유구,충북 충주시,충청북도 충주시 엄정면 서계1길,37.0783405,127.8850501
충주 산성,충북 충주시,충청북도 충주시 직동,36.945694,127.9654915
충주 상대촌농촌체험마을,충북 충주시,충청북도 충주시 앙성면 둔터로 558,37.0974632,127.7154147
충주 석보군 묘소,충북 충주시,충청북도 충주시 소태면,37.1097595,127.8477368
충주 숭선사지,충북 충주시,충청북도 충주시 신니면 문숭리,37.0222058,127.701178
충주 숭선사지 당간지주,충북 충주시,충청북도 충주시 신니면 숭선길 56,37.020246,127.6991106
충주 신청리 지석묘,충북 충주시,충청북도 충주시 신니면 신청리,37.0071998,127.7399224
충주 신흥사 석조 나한상,충북 충주시,충청북도 충주시 엄정면 족동2길 197,37.1121962,127.9457114
충주 억정사지 대지국사탑비,충북 충주시,충청북도 충주시 엄정면 비석2길 35-21,37.1035353,127.9273204
충주 원평리 삼층석탑,충북 충주시,충청북도 충주시 신니면,36.9957493,127.7365152
충주 이수일 묘소,충북 충주시,충청북도 충주시 금가면 석교길 19,37.0110285,127.8850561
충주 이수일 신도비,충북 충주시,충청북도 충주시 금가면 석교길 19,37.0110285,127.8850561
충주 이시진 묘소,충북 충주시,충청북도 충주시 동량면 대전리1길,37.049295,127.9447868
충주 임충민공 충렬사,충북 충주시,충청북도 충주시 충열1길 6,36.946158,127.9050858
충주 장미산성,충북 충주시,충청북도 충주시 중앙탑면 장천리,37.0610997,127.8718711
충주 정토사지 법경대사탑비,충북 충주시,충청북도 충주시 동량면 하천리,37.039246,128.0431489
충주 제금당,충북 충주시,충청북도 충주시 관아1길 21,36.9705039,127.9361568
충주 조동리 선사유적,충북 충주시,충청북도 충주시 동량면 조동1길,37.0267611,127.9661067
충주 조동리 지석묘,충북 충주시,충청북도 충주시 동량면 조동리,37.0348412,127.984953
충주 지당리 석불입상,충북 충주시,충청북도 충주시 앙성면 삼당2길 11,37.1139967,127.7250826
충주 창동리 마애여래상,충북 충주시,충청북도 충주시 중앙탑면 창동리,36.9876245,127.8784557
충주 창동리 오층석탑,충북 충주시,충청북도 충주시 중앙탑면 청금로 112-10,36.99724,127.8788279
충주 창룡사 다층 청석탑,충북 충주시,충청북도 충주시 고든골길 63-89,36.9516043,127.9599284
충주 청녕헌,충북 충주시,충청북도 충주시 관아1길 21,36.9705039,127.9361568
충주 청룡사 위전비,충북 충주시,충청북도 충주시 소태면 청룡사지길 147,37.1323331,127.840051
충주 최응성 고가,충북 충주시,충청북도 충주시 살미면 중원대로 2220,36.8957106,127.9803536
충주 추평리 삼층석탑,충북 충주시,충청북도 충주시 엄정면 추평리,37.1220398,127.9357407
충주 탄금대와 탄금대공원,충북 충주시,충청북도 충주시 탄금대안길 105,36.9870966,127.8991464
충주 탑평리 칠층석탑,충북 충주시,충청북도 충주시 중앙탑면 탑평리 11,37.0158358,127.8666155
충주 하니마을,충북 충주시,충북 충주시 살미면 재오개리 호수로2114,36.9434836,127.9977033
충주댐,충북 충주시,충청북도 충주시 충주호수로 737,37.0000143,127.9700503
충주댐 물 문화관,충북 충주시,충청북도 충주시 동량면 지등로 745,37.0013181,127.9905003
충주라이트월드,충북 충주시,충청북도 충주시 남한강로 24,36.9889211,127.9052967
충주세계무술공원,충북 충주시,충청북도 충주시 남한강로 24,36.9889211,127.9052967
충주자연생태체험관,충북 충주시,충청북도 충주시 동량면 지등로 260,37.0013181,127.9905003
충주자연호텔,충북 충주시,충청북도 충주시 살미면 팔봉로 1061,36.8876845,127.9558355
충주향교,충북 충주시,충청북도 충주시 교동9길,36.9740226,127.9393832
충주호,충북 충주시,충청북도 충주시 동량면 조동리,37.0348412,127.984953
충주호 유람선,충북 단양군,충청북도 단양군 단성면 월악로 3811-19,36.9322093,128.2536443
충주호관광선 청풍나루,충북 제천시,충청북도 제천시 청풍면 문화재길 54,37.008056,128.1726082
취묵당,충북 괴산군,충청북도 괴산군 괴산읍 충민사길 45,36.8361006,127.8434167
칠보산,충북 괴산군,충청북도 괴산군 칠성면 태성리,36.7590207,127.9230271
코리아크래프트브류어리,충북 음성군,충청북도 음성군 원남면 원남산단로 97,36.8876107,127.6892237
탁사정,충북 제천시,충청북도 제천시 봉양읍 제원로 478,37.1667158,128.1062986
탈골암(충북),충북 보은군,충청북도 보은군 속리산면 법주사로 569-72,36.5483279,127.8472194
태교사,충북 음성군,충청북도 음성군 원남면 원중로399번길 316,36.8620082,127.5888534
티테라피체험장,충북 제천시,충청북도 제천시 바이오밸리1로 56,37.1471141,128.1680043
팔봉서원,충북 충주시,충청북도 충주시 대소원면 팔봉안길 11-6,36.9011041,127.9227035
평동전통떡마을,충북 청주시,충청북도 청주시 흥덕구 평동로 147,36.6597603,127.4145533
포암산(충주),충북 충주시,충청북도 충주시 수안보면 미륵리사지길,36.8224157,128.0918768
표충사,충북 청주시,충청북도 청주시 상당구 수동로53번길 9,36.6468029,127.4936045
풍류문화관,충북 충주시,충청북도 충주시 중앙탑면 탑정안길 10,37.0184848,127.8656245
하강서원,충북 충주시,충청북도 충주시 금가면 김생로 1455-54,37.0541535,127.8881696
하늘다리,충북 진천군,충청북도 진천군 초평면 평화로 403-132,36.8291753,127.5044103
하늘재,충북 충주시,충청북도 충주시 수안보면 미륵송계로 614,36.8295084,128.0676934
하담 김시양 신도비,충북 괴산군,충청북도 괴산군 괴산읍 능촌로 182,36.8383492,127.8387996
하이트진로 청주공장,충북 청주시,충청북도 청주시 서원구 현도면 현도공단로 177,36.6424341,127.4890319
한국기초과학지원연구원(오창),충북 청주시,충청북도 청주시 청원구 오창읍 연구단지로 162,36.7192572,127.4356433
한국전통문화체험학교,충북 제천시,충청북도 제천시 덕산면 월악산로4길 10,36.891803,128.1380423
한드미마을,충북 단양군,충청북도 단양군 가곡면 한드미길 30-12,36.9892501,128.4387848
한산사(제천),충북 제천시,충청북도 제천시 용두천로8길 27,37.1344496,128.2133711
한삼인 증평공장,충북 증평군,충청북도 증평군 증평읍 중앙로 88,36.7750444,127.573301
한천팔경,충북 영동군,충청북도 영동군 황간면 원촌리,36.2406353,127.8896966
현암사(충북),충북 청주시,충청북도 청주시 서원구 현도면 대청호반로 151,36.6424341,127.4890319
호암지,충북 충주시,충청북도 충주시 호암동,36.9520711,127.9272754
화동강목판본,충북 제천시,충청북도 제천시 봉양읍 의암로 566-7,37.0992402,128.0864738
화암서원,충북 괴산군,충청북도 괴산군 괴산읍 괴강로 313,36.8034594,127.8239455
화양구곡(화양동계곡),충북 괴산군,충청북도 괴산군 청천면 화양동길 78,36.6729582,127.8024094
화양동관광농원,충북 괴산군,충청북도 괴산군 청천면 다보길 8,36.6424348,127.8854819
화양서원,충북 괴산군,충청북도 괴산군 청천면 화양동길 188,36.6687714,127.8114156
화양서원 묘정비,충북 괴산군,충청북도 괴산군 청천면 화양동길 188,36.6687714,127.8114156
황간향교,충북 영동군,충청북도 영동군 황간면 구교리길 88,36.228372,127.9158766
황강 영당 및 수암사,충북 제천시,충청북도 제천시 한수면 미륵송계로 1801,36.8996441,128.0731109
황정산,충북 단양군,충북 단양군 대강면 직티리,36.8828782,128.3333051
회인향교,충북 보은군,충청북도 보은군 회인면 부수1길 31-11,36.496795,127.6013138
후평숲유원지,충북 괴산군,충청북도 괴산군 청천면 후평도원로 129-19,36.6590248,127.7549808
희양산,충북 괴산군,충청북도 괴산군 연풍면,36.7664216,128.0006213
