name,region,address,lat,lon
(구)강경노동조합,충남 논산시,충청남도 논산시 강경읍 옥녀봉로27번길 30-5,36.160849,127.0146018
(구)한일은행 강경지점,충남 논산시,충청남도 논산시 강경읍 계백로167번길 50,36.1621297,127.0151537
(주) 외가집 농업회사법인,충남 부여군,충청남도 부여군 옥산면 안골로41번길 21-12,36.1861994,126.7323929
JFK 대천 워터파크,충남 보령시,충청남도 보령시 대해로 876,36.3070417,126.5183187
LG 태안 태양광 발전소,충남 태안군,충청남도 태안군 원북면 발전로 130,36.8841716,126.2141167
LG화학 대산공장,충남 서산시,충청남도 서산시 대산읍 독곶1로 54,37.0042603,126.37941
가야산(서산),충남 서산시,충청남도 서산시 해미면 산수리,36.707103,126.5870692
가의도,충남 태안군,충청남도 태안군 근흥면 가의도길,36.6748071,126.0694825
가파마을,충남 청양군,충청남도 청양군 대치면 가파로 506-6,36.4976225,126.8796372
각원사,충남 천안시,충청남도 천안시 동남구 각원사길 245,36.8342011,127.1968302
간곡서원,충남 부여군,충청남도 부여군 임천면 성흥로283번길 31-4,36.1824989,126.9084467
간월도 어리굴젓 기념탑,충남 서산시,충청남도 서산시 부석면 간월도리,36.6179258,126.4324388
간월도마을,충남 서산시,충청남도 서산시 부석면 간월도리,36.6179258,126.4324388
간월암(서산),충남 서산시,충청남도 서산시 부석면 간월도1길 119-29,36.6036534,126.411209
갈두천권역마을,충남 태안군,충청남도 태안군 원북면 대기길 12-20,36.7985788,126.2572211
갈음이해수욕장,충남 태안군,충청남도 태안군 근흥면 갈음이길 38-30,36.6935676,126.1639858
갑사,충남 공주시,충청남도 공주시 계룡면 갑사로 567-3,36.3656004,127.1875176
갑사계곡,충남 공주시,충청남도 공주시 계룡면 갑사로 225,36.3629905,127.1587394
강경 구 연수당 건재 약방,충남 논산시,충청남도 논산시 강경읍 옥녀봉로24번길 14,36.1620784,127.0184553
강경 옥녀봉,충남 논산시,충청남도 논산시 강경읍 북옥리,36.164973,127.0132315
강경 중앙초등학교 강당,충남 논산시,충청남도 논산시 강경읍 옥녀봉로 8,36.1603539,127.0195026
강경근대거리,충남 논산시,충청남도 논산시 강경읍 옥녀봉로 30-5,36.1618011,127.017943
강경미내다리,충남 논산시,충청남도 논산시 채운면 삼거리,36.1555648,127.0429312
강당골(양화담),충남 아산시,충청남도 아산시 송악면,36.7317626,127.0089277
강댕이 미륵불,충남 서산시,충청남도 서산시 운산면 마애삼존불길 18-1,36.7776835,126.6025291
개삼터·개삼각,충남 금산군,충청남도 금산군 남이면 개삼로 101,36.0748004,127.4788768
개심사(서산),충남 서산시,충청남도 서산시 운산면 개심사로 321-86,36.7467952,126.5904038
개태사(논산),충남 논산시,충청남도 논산시 연산면 계백로 2614-11,36.2407588,127.2294385
개화예술공원,충남 보령시,충청남도 보령시 성주면 성주산로 673-47,36.3142342,126.6582727
거북이마을,충남 홍성군,충청남도 홍성군 구항면 거북로 422-41,36.5724472,126.6121029
거전마을 [농촌체험],충남 부여군,충청남도 부여군 은산면 지천로525번길 7-14,36.3596767,126.8403765
검계서원,충남 천안시,충청남도 천안시 동남구 풍세면 금호1길 117-10,36.7479916,127.0901133
결성동헌,충남 홍성군,충청남도 홍성군 결성면 읍내리,36.5272688,126.5469884
결성향교,충남 홍성군,충청남도 홍성군 결성면 홍남서로707번길 21-8,36.5288542,126.5432091
계룡 사계고택,충남 계룡시,충청남도 계룡시 두마면 사계로 122-4,36.2656306,127.271735
계룡 입암저수지,충남 계룡시,충청남도 계룡시 두마면 입암길 218,36.243248,127.2554764
계룡산 국립공원,충남 공주시,충청남도 공주시 반포면 동학사1로 327-6,36.3566829,127.2325192
계룡산국립공원,충남 공주시,충남 공주시 반포면,36.3968922,127.2503067
계룡산도예촌,충남 공주시,충청남도 공주시 반포면 도예촌길 71-25,36.3899336,127.2152896
계룡산상신농촌체험휴양마을,충남 공주시,충청남도 공주시 반포면 상하신길 396,36.3845154,127.2202471
계룡산신도내주초석석재,충남 계룡시,충청남도 계룡시 두마면,36.2668651,127.272786
계백장군 유적지,충남 논산시,충청남도 논산시 부적면 신풍리,36.1829802,127.176227
고경명선생비,충남 금산군,충청남도 금산군 금성면 양전리,36.1191344,127.4842405
고대도,충남 보령시,충청남도 보령시 오천면 고대도1길 1,36.3878168,126.3668837
고란사(고란약수),충남 부여군,충청남도 부여군 부여읍 부소로 1-25,36.2925938,126.9132116
고란사유람선,충남 부여군,충청남도 부여군 부여읍 부소로,36.2857425,126.9179975
고령박씨종중재실,충남 천안시,충청남도 천안시 동남구 북면 박문수길 147,36.7785254,127.2723299
고로서원,충남 공주시,충청남도 공주시 사곡면 능계길 60-67,36.5111239,127.0225965
고마나루,충남 공주시,충청남도 공주시 백제큰길 2045,36.4475596,127.0817538
고산사(홍성),충남 홍성군,충청남도 홍성군 결성면 만해로127번길 41,36.5457893,126.5415791
고운식물원,충남 청양군,충청남도 청양군 청양읍 식물원길 398-23,36.435268,126.7608801
고파도,충남 서산시,충청남도 서산시 팔봉면 고파도2길 10,36.9107069,126.3360485
곡교천변 은행나무길,충남 아산시,충청남도 아산시 염치읍 송곡리,36.8054006,127.0167934
공주 갑사 철당간,충남 공주시,충청남도 공주시 계룡면 갑사로 567-3,36.3656004,127.1875176
공주 계룡산 중악단,충남 공주시,충청남도 공주시 계룡면 신원사동길 1,36.3352417,127.1839734
공주 공산성 [유네스코 세계유산],충남 공주시,충청남도 공주시 웅진로 280,36.4650154,127.1236051
공주 반죽동당간지주,충남 공주시,충청남도 공주시 제민1길 15,36.4513416,127.1224258
공주 산림휴양마을,충남 공주시,충청남도 공주시 수원지공원길 222,36.4364439,127.1210972
공주 석장리 유적,충남 공주시,충청남도 공주시 금벽로 990,36.4476804,127.1885991
공주 송산리 고분군과 무령왕릉 [유네스코 세계유산],충남 공주시,충청남도 공주시 왕릉로 37-2,36.4612284,127.1128601
공주 우금치 전적,충남 공주시,충청남도 공주시 금학동,36.4389526,127.1191536
공주 원골마을,충남 공주시,충청남도 공주시 신풍면 원골예술길 94,36.5272831,126.960863
공주 정지산 유적,충남 공주시,충청남도 공주시 금성동,36.4666115,127.1219244
공주 중동성당,충남 공주시,충청남도 공주시 성당길 6,36.4547995,127.1274561
공주 황새바위 순교성지,충남 공주시,충청남도 공주시 왕릉로 118,36.4634623,127.1196473
공주상신리 당간지주,충남 공주시,충청남도 공주시 반포면,36.3968922,127.2503067
공주서혈사지,충남 공주시,충청남도 공주시 시어골2길 96-9,36.4425266,127.1116665
공주치즈스쿨,충남 공주시,충청남도 공주시 신풍면 충의로 2358,36.4921985,126.9402263
공주향교,충남 공주시,충청남도 공주시 향교1길 26,36.4582643,127.1168667
관북리유적과 부소산성 [유네스코 세계유산],충남 부여군,충청남도 부여군 부여읍 부소로 15,36.2851899,126.9127733
관음사석탑,충남 아산시,충청남도 아산시 영인면 여민루길 122,36.8461671,126.9534064
관촉사(논산),충남 논산시,충청남도 논산시 관촉로1번길 25,36.1882846,127.1131223
광덕사(천안),충남 천안시,충청남도 천안시 동남구 광덕면 광덕사길 30,36.6756817,127.0424345
광덕산,충남 천안시,충청남도 천안시 동남구 광덕면 광덕사길 30,36.6756817,127.0424345
광덕산 관광농원,충남 천안시,충청남도 천안시 동남구 광덕면 해사동길 15,36.6744572,127.0360929
광덕산(아산),충남 아산시,충청남도 천안시 동남구 광덕면 광덕사길,36.678211,127.0424157
광시 한우거리,충남 예산군,충청남도 예산군 광시면 광시소길,36.548894,126.7733622
광천토굴새우젓단지,충남 홍성군,충청남도 홍성군 광천읍 광천로 91,36.4846317,126.6154522
구 강경성결교회 예배당,충남 논산시,충청남도 논산시 강경읍 계백로219번길 40-1,36.1628906,127.0184696
"구, 강경공립상업학교 관사",충남 논산시,충청남도 논산시 강경읍 계백로 220,36.1609319,127.0231775
구드래조각공원,충남 부여군,충청남도 부여군 부여읍 나루터로 60,36.2874884,126.9084646
구례포해수욕장,충남 태안군,충청남도 태안군 원북면 황촌리,36.8628581,126.2048024
구름포해수욕장,충남 태안군,충청남도 태안군 소원면 의항리,36.7979007,126.1519171
구절암(홍성),충남 홍성군,충청남도 홍성군 구항면 거북로218번길 163,36.5691339,126.6257382
국립 망향의 동산,충남 천안시,충청남도 천안시 서북구 성거읍 망향로 372-8,36.8528484,127.1852545
국립 생태원,충남 서천군,충청남도 서천군 마서면 금강로 1210,36.0276334,126.7200186
국립 오서산자연휴양림,충남 보령시,충청남도 보령시 청라면 오서산길 531,36.4547199,126.672206
국립 용현자연휴양림,충남 서산시,충청남도 서산시 운산면 마애삼존불길 339,36.7504494,126.6088719
국립 희리산해송자연휴양림,충남 서천군,충청남도 서천군 종천면 희리산길 206,36.1130631,126.6657284
국립생태원(서천),충남 서천군,충청남도 서천군 마서면 금강로 1210,36.0276334,126.7200186
국사봉과 천태산,충남 금산군,충청남도 금산군 제원면,36.1125373,127.5460902
군지폭포,충남 논산시,충청남도 논산시 벌곡면 수락계곡길,36.1513662,127.3100217
군창지,충남 부여군,충청남도 부여군 부여읍 쌍북리,36.2858855,126.9241202
궁리포구,충남 홍성군,충청남도 홍성군 서부면 남당항로 853-5,36.5888708,126.457746
권율장군 이치대첩비,충남 금산군,충청남도 금산군 진산면 대둔산로 191,36.1321939,127.3529368
권충민공순절비,충남 금산군,충청남도 금산군 제원면 저곡리,36.1092812,127.5619052
궐리사,충남 논산시,충청남도 논산시 노성면 교촌길 35,36.2824055,127.1330924
귀암사,충남 금산군,충청남도 금산군 부리면 평촌1길 2,36.0749043,127.5670328
그림이 있는 정원,충남 홍성군,충청남도 홍성군 광천읍 충서로400번길 102-36,36.5189126,126.6291814
금강 농바우마을 [농촌전통테마마을],충남 금산군,충청남도 금산군 부리면 어재1길 2,36.083725,127.5945457
금강 문화관,충남 부여군,충청남도 부여군 부여읍 북포로 451,36.3165503,126.9396445
금강아트센터,충남 공주시,충청남도 공주시 반포면 왕흥장악로 837,36.4288398,127.2021489
금강암(보령),충남 보령시,충청남도 보령시 미산면 보령호로 1139-102,36.2608192,126.6576079
금강온천,충남 공주시,충청남도 공주시 고마나루길 51-12,36.4630042,127.1073629
금강하구둑 관광지,충남 서천군,충청남도 서천군 마서면 장산로855번길 56-2,36.0198945,126.7367259
금곡서원,충남 논산시,충청남도 논산시 연무읍 왕릉로 170-35,36.1181336,127.0842544
금산 대원정사,충남 금산군,충청남도 금산군 금산읍 비범3길 17,36.1085226,127.4916127
금산 바리실마을,충남 금산군,충청남도 금산군 제원면 바리실길 206,36.1341777,127.5243147
금산 백령성,충남 금산군,충청남도 금산군 남이면 역평리,36.060086,127.4085651
금산 천내리 용호석,충남 금산군,충청남도 금산군 제원면 천내리,36.1181881,127.5894235
금산 천내리/용화리 고인돌,충남 금산군,충청남도 금산군 제원면 용화리,36.0949893,127.5912098
금산 충렬사,충남 금산군,충청남도 금산군 금성면 진산로 356-10,36.1304887,127.4563043
금산 칠백의총,충남 금산군,충청남도 금산군 금성면 의총길 50,36.1299559,127.4917878
금산생태숲,충남 금산군,충청남도 금산군 남이면 느티골길 200,36.0612309,127.3733401
금산인삼관,충남 금산군,충청남도 금산군 금산읍 인삼광장로 30,36.1000256,127.5006731
금산향교,충남 금산군,충청남도 금산군 금산읍 비단로 298,36.1108454,127.4899472
금지암(부여),충남 부여군,충청남도 부여군 내산면 월명산길 487,36.2557188,126.7198653
기지포해수욕장,충남 태안군,충청남도 태안군 안면읍 해안관광로 745-19,36.5631723,126.3237007
김공 휘 유경 효자문·김공 휘 홍익 충신문,충남 서산시,충청남도 서산시 음암면 유계리,36.7560178,126.519853
김좌진장군묘,충남 보령시,충청남도 보령시 청소면 김좌진로 200,36.4568794,126.6160651
김좌진장군생가지,충남 홍성군,충청남도 홍성군 갈산면 백야로546번길 12,36.5976091,126.54717
꽃지해수욕장,충남 태안군,충청남도 태안군 안면읍 승언리,36.5144302,126.3529178
꽃지해안공원,충남 태안군,충청남도 태안군 안면읍,36.520472,126.3444969
꾸지나무골해수욕장,충남 태안군,충청남도 태안군 이원면 내리,36.9520615,126.2947774
낙화암,충남 부여군,충청남도 부여군 부여읍 북포로,36.3040934,126.937815
난지섬해수욕장,충남 당진시,충청남도 당진시 석문면 난지1길 67,37.0477185,126.4249173
남당리 행복마을,충남 서천군,충청남도 서천군 비인면 남당길63번길 23-6,36.1713577,126.6159057
남당마을,충남 홍성군,충청남도 홍성군 서부면 남당리,36.5435969,126.483456
남당항,충남 홍성군,충청남도 홍성군 서부면 남당리,36.5435969,126.483456
남산서원(부여),충남 부여군,충청남도 부여군 장암면 의자로 613,36.2312848,126.9464012
남연군의묘,충남 예산군,충청남도 예산군 덕산면 상가리,36.7173939,126.621787
남이자연휴양림,충남 금산군,충청남도 금산군 남이면 느티골길 200,36.0612309,127.3733401
남천리 산촌생태마을,충남 청양군,충청남도 청양군 정산면 면암로 288-184,36.4541479,126.9838207
남포관아문,충남 보령시,충청남도 보령시 남포면 읍성향교길 19,36.3056996,126.6092007
남포방조제,충남 보령시,충청남도 보령시 남포방조제로 154,36.2985941,126.5278769
남포읍성,충남 보령시,충청남도 보령시 남포면 읍성향교길 19,36.3056996,126.6092007
남포향교,충남 보령시,충청남도 보령시 남포면 읍성향교길 133,36.3050869,126.6190841
남포향교 대성전,충남 보령시,충청남도 보령시 남포면 읍성향교길 133,36.3050869,126.6190841
낭산사,충남 부여군,충청남도 부여군 세도면 사동로 174-6,36.1941181,126.9314689
내원사(홍성),충남 홍성군,충청남도 홍성군 장곡면 광성1길 53,36.4827922,126.6774776
내포보부상촌,충남 예산군,충청남도 예산군 덕산면 온천단지1로 55,36.6938205,126.6560522
냉천골,충남 청양군,충청남도 청양군 정산면 칠갑산로,36.4227492,126.9192262
네이처월드,충남 태안군,충청남도 태안군 남면 마검포길 200,36.6196327,126.3058838
노강서원,충남 논산시,충청남도 논산시 광석면 오강길 56-5,36.2596698,127.0732142
노성향교,충남 논산시,충청남도 논산시 노성면 노성산성길 54,36.2820513,127.1306029
노은단,충남 홍성군,충청남도 홍성군 홍북면 노은리,36.64377,126.7254925
녹도,충남 보령시,충청남도 보령시 오천면 녹도2길 33-2,36.2689337,126.265116
논산 노성산성,충남 논산시,충청남도 논산시 노성면 송당리,36.2758671,127.1134895
논산 딸기삼촌농장,충남 논산시,충청남도 논산시 노성면 병사리,36.2772843,127.1012059
논산 선샤인스튜디오,충남 논산시,충청남도 논산시 연무읍 봉황로 90,36.1026102,127.1060206
논산 연산역 급수탑,충남 논산시,충청남도 논산시 연산면 선비로275번길 31-2,36.212811,127.20209
논산 황산벌참살이마을,충남 논산시,충청남도 논산시 연산면 고정1길 43,36.1969477,127.1867741
논산명재고택,충남 논산시,충청남도 논산시 노성면 노성산성길 50,36.2820378,127.1310984
느린호수길,충남 예산군,충청남도 예산군 응봉면,36.6586111,126.7611336
느티골산림욕장,충남 금산군,충청남도 금산군 남이면 느티골길 200,36.0612309,127.3733401
다라미자운영마을,충남 아산시,충청남도 아산시 송악면 평촌길 107-9,36.7343964,127.0012037
단호박올리고마을,충남 당진시,충청남도 당진시 신평면 동산절길 39,36.8934811,126.738092
당진 백석올미마을,충남 당진시,충청남도 당진시 순성면 매실로 246,36.8226333,126.697642
당진 삽교호,충남 당진시,충청남도 당진시 신평면,36.8852316,126.7735905
당진 안국사지 석탑,충남 당진시,충청남도 당진시 정미면 원당골1길 188,36.8321488,126.5569157
당진 영전황토마을,충남 당진시,충청남도 당진시 고대면 황토마을로 141,36.9666475,126.5622178
당진면천읍성,충남 당진시,충청남도 당진시 면천면 몽산길 14,36.8181945,126.6661218
당진전력문화홍보관,충남 당진시,충청남도 당진시 석문면 교로길 30,37.0507484,126.512488
당진필경사,충남 당진시,충청남도 당진시 송악읍 상록수길 97,36.9521721,126.7714215
당진항만관광공사 (삽교호 함상공원),충남 당진시,충청남도 당진시 신평면 삽교천3길 79,36.8907704,126.8242581
당진향교,충남 당진시,충청남도 당진시 교동2길 33-18,36.892629,126.6335978
대난지도,충남 당진시,충청남도 당진시 석문면 난지1길,37.0502631,126.435459
대둔산도립공원(금산),충남 금산군,충남 금산군 진산면,36.1442601,127.3702265
대둔산도립공원(논산),충남 논산시,충청남도 논산시 벌곡면 수락계곡길,36.1513662,127.3100217
대둔산자연휴양림,충남 금산군,충청남도 금산군 진산면 대둔산로 6,36.1227595,127.3440305
대련사,충남 예산군,충청남도 예산군 광시면 동산2길 119,36.5873238,126.7817796
대조사(부여),충남 부여군,충청남도 부여군 임천면 성흥로197번길 112,36.1909331,126.9007171
대천 필랜드,충남 보령시,충청남도 보령시 대해로 860,36.3079831,126.5196003
대천한내돌다리,충남 보령시,충청남도 보령시 동대동,36.3497089,126.622103
대천항,충남 보령시,충청남도 보령시 대천항중앙길 42,36.3271959,126.5093584
대천해수욕장,충남 보령시,충청남도 보령시 머드로 123,36.3155199,126.5107767
대흥동헌,충남 예산군,충청남도 예산군 대흥면 의좋은형제길 33,36.6066477,126.7884359
대흥향교,충남 예산군,충청남도 예산군 대흥면 교촌향교길 88,36.6113233,126.7829056
덕산도립공원,충남 예산군,충청남도 예산군 덕산면,36.7013072,126.6652355
덕산사(금산),충남 금산군,충청남도 금산군 부리면 배정이길 37,36.0600227,127.5417436
덕산온천지구,충남 예산군,충청남도 예산군 덕산면,36.7013072,126.6652355
덕산향교,충남 예산군,충청남도 예산군 덕산면 덕산향교길 88-34,36.7001375,126.657426
덕숭산,충남 예산군,충청남도 예산군 덕산면,36.7013072,126.6652355
도강영당,충남 부여군,충청남도 부여군 부여읍 부소로 15,36.2851899,126.9127733
도령서당,충남 공주시,충청남도 공주시 의당면 서당길 144-13,36.5556584,127.1411925
도림계곡,충남 청양군,충청남도 청양군 장평면,36.3418189,126.8931047
도정딸기마을,충남 논산시,충청남도 논산시 양촌면 황산벌로380번길 15,36.1345229,127.2438743
독대섬,충남 보령시,충청남도 보령시 웅천읍 독산리,36.2314854,126.540506
독산해수욕장(홀뫼해수욕장),충남 보령시,충청남도 보령시 웅천읍 열린바다로 585,36.2234089,126.5316508
돈암서원 [유네스코 세계문화유산],충남 논산시,충청남도 논산시 연산면 임3길 26-14,36.2092251,127.1807629
동곡서원,충남 부여군,충청남도 부여군 세도면 성흥로 479-9,36.1790209,126.9280789
동백꽃마을,충남 서천군,충청남도 서천군 마서면 합전길 77,36.0485626,126.6688209
동백정,충남 서천군,충청남도 서천군 서면 서인로235번길 103,36.1378613,126.4935634
동절사,충남 부여군,충청남도 부여군 남면 금천로318번길 37-29,36.1995523,126.7975941
동학사(공주),충남 공주시,충청남도 공주시 반포면 동학사1로 462,36.3533,127.2196327
동학사계곡,충남 공주시,충청남도 공주시 반포면 동학사1로,36.360386,127.2399926
동혈사,충남 공주시,충청남도 공주시 의당면 동혈사길 77,36.5557121,127.1594701
두마신원재,충남 계룡시,충청남도 계룡시 두마면 왕대2길 43,36.255202,127.2703741
두여해수욕장,충남 태안군,충청남도 태안군 안면읍 정당리 1313-1,36.5508737,126.3576326
두웅습지,충남 태안군,충청남도 태안군 원북면 신두해변길 291-30,36.8357675,126.195906
두웅습지,충남 태안군,충청남도 태안군 원북면 신두해변길 291-30,36.8357675,126.195906
마검포해수욕장,충남 태안군,충청남도 태안군 남면 신온리,36.6151262,126.3014989
마곡사 천연송림욕장,충남 공주시,충청남도 공주시 사곡면 마곡사로,36.5236887,127.0246583
마곡사[유네스코 세계문화유산],충남 공주시,충청남도 공주시 사곡면 마곡사로 966,36.5585432,127.0120353
만대어촌체험마을,충남 태안군,충청남도 태안군 이원면 내리 666-24,36.9520615,126.2947774
만리포해수욕장,충남 태안군,충청남도 태안군 소원면 모항리 일원,36.7685619,126.1412846
만수산자연휴양림,충남 부여군,충청남도 부여군 외산면 휴양로 107,36.3383091,126.7111345
만해 한용운선생 생가지,충남 홍성군,충청남도 홍성군 결성면 만해로318번길 83,36.5627944,126.553611
망일사(서산),충남 서산시,충청남도 서산시 대산읍 망일산로 831-134,36.9377207,126.4467263
매화둠벙마을,충남 태안군,충청남도 태안군 원북면 동해길 301-41,36.8123589,126.2266894
맨삽지(학성리 공룡발자국화석),충남 보령시,충청남도 보령시 천북면 학성리 산45,36.4528381,126.4844926
면천향교,충남 당진시,충청남도 당진시 면천면 동문2길 36-7,36.8206558,126.6724308
명국삼장비,충남 공주시,충청남도 공주시 금성동 10-2,36.4619074,127.1285748
명대골계곡,충남 보령시,충청남도 보령시 청라면 장현리,36.4381654,126.6715324
명탄서원,충남 공주시,충청남도 공주시 명탄서원길 48,36.4587516,127.1563329
모덕사,충남 청양군,충청남도 청양군 목면 나분동길 12,36.4461209,127.0078095
모원재,충남 계룡시,충청남도 계룡시 두마면 왕대2길 6-10,36.2548516,127.2733551
목애당,충남 태안군,충청남도 태안군 태안읍 백화로 54,36.7576285,126.2967205
목천향교,충남 천안시,충청남도 천안시 동남구 목천읍 교촌6길 7,36.7996369,127.2290998
몽대포구,충남 태안군,충청남도 태안군 남면 몽대로 495-71,36.6725828,126.2739451
몽산리석가여래좌상,충남 태안군,충청남도 태안군 남면 몽산리,36.6869346,126.2740307
몽산포해수욕장,충남 태안군,충청남도 태안군 남면 신장리,36.6910869,126.2956623
무궁화학습원(괴목정),충남 계룡시,충청남도 계룡시 신도안면 남선리,36.3120446,127.2497621
무량사(부여),충남 부여군,충청남도 부여군 외산면 무량로 203,36.3169846,126.6929223
무상사(계룡),충남 계룡시,충청남도 계룡시 엄사면 향적산길 129,36.2916066,127.2122063
무진암(부여),충남 부여군,충청남도 부여군 외산면 무량로 181-17,36.3141642,126.6929549
무창포 비체팰리스 스파,충남 보령시,충청남도 보령시 웅천읍 열린바다1길 78,36.2394397,126.5315457
무창포어촌체험마을,충남 보령시,충청남도 보령시 웅천읍 열린바다2길 46,36.2485451,126.5370439
무창포항,충남 보령시,충청남도 보령시 웅천읍 열린바다2길 46,36.2485451,126.5370439
무창포해수욕장,충남 보령시,충청남도 보령시 웅천읍 열린바다1길 10,36.2445217,126.5365626
문수사(서산),충남 서산시,충청남도 서산시 운산면 문수골길 201,36.7788418,126.5895035
문헌서원,충남 서천군,충청남도 서천군 기산면 서원로172번길 66,36.0917124,126.785471
바람아래해수욕장,충남 태안군,충청남도 태안군 고남면 장곡리,36.4309938,126.3780996
박문수묘,충남 천안시,충청남도 천안시 동남구 북면 은지리,36.782596,127.2702015
반산서원,충남 부여군,충청남도 부여군 임천면 충절로1001번길 22,36.1754609,126.892613
밧개해수욕장,충남 태안군,충청남도 태안군 안면읍 승언리,36.5144302,126.3529178
방갈마을,충남 태안군,충청남도 태안군 원북면 방갈리,36.8948887,126.2247896
방포해수욕장,충남 태안군,충청남도 태안군 안면읍 방포1길 29-1,36.5088225,126.33323
백리포해수욕장,충남 태안군,충청남도 태안군 소원면 의항리,36.7979007,126.1519171
백마강,충남 부여군,충청남도 부여군 규암면 백제문로 553,36.3065588,126.9170575
백사장항,충남 태안군,충청남도 태안군 안면읍 백사장1길 124,36.5856614,126.3153381
백사장해수욕장,충남 태안군,충청남도 태안군 안면읍 창기리,36.5817116,126.3390389
백운사(보령),충남 보령시,충청남도 보령시 성주면 심원계곡로 259-200,36.3521181,126.6735964
백제 오천결사대 충혼탑,충남 부여군,충남 부여군 부여읍 동남리,36.2724157,126.9143732
백제문화단지,충남 부여군,충청남도 부여군 규암면 백제문로 455,36.3067451,126.9069269
백화산,충남 태안군,충청남도 태안군 태안읍 동문리 41-2 일대,36.7500035,126.3080239
벌천포해수욕장,충남 서산시,충청남도 서산시 대산읍 오지리,36.9572752,126.3664187
보덕사(예산),충남 예산군,충청남도 예산군 덕산면 가야산로 400-74,36.7189971,126.6356209
보령 냉풍욕장,충남 보령시,충청남도 보령시 청라면 냉풍욕장길 190,36.376395,126.671233
보령 방자구이마을,충남 보령시,충청남도 보령시 천북면 홍보로 793-12,36.5044109,126.5163363
보령 성주사지,충남 보령시,충청남도 보령시 성주면 심원계곡로 99,36.3434153,126.6556847
보령 시민탑광장,충남 보령시,충청남도 보령시 해수욕장4길 7,36.3054077,126.5160516
보령 천북굴단지,충남 보령시,충청남도 보령시 천북면,36.478695,126.5272809
보령 청소역,충남 보령시,충청남도 보령시 청소면 청소큰길 176,36.4459402,126.5907367
보령 충청수영성,충남 보령시,충청남도 보령시 오천면 충청수영로,36.4333943,126.54313
보령 해수욕장 관광특구,충남 보령시,충청남도 보령시,36.3331629,126.6129441
보령방조제,충남 보령시,충청남도 보령시 오천면,36.4383534,126.5224226
보령석탄박물관,충남 보령시,충청남도 보령시 성주면 성주산로 508,36.3259737,126.6528805
보령성곽&보령관아문,충남 보령시,충청남도 보령시 주포면 보령리,36.4136257,126.5929812
보령에너지월드(보령발전본부),충남 보령시,충청남도 보령시 오천면,36.4383534,126.5224226
보령향교,충남 보령시,충청남도 보령시 주포면 향교말길 45,36.4113574,126.5949707
보령호,충남 보령시,충청남도 보령시 미산면 보령호로 819,36.2456373,126.6608726
보석사(금산),충남 금산군,충청남도 금산군 남이면 보석사1길 30,36.0544053,127.4758335
봉곡사,충남 아산시,충청남도 아산시 송악면 도송로632번길 138,36.6987411,126.9664775
봉곡서원,충남 논산시,충청남도 논산시 연무읍 황화로 290,36.0983909,127.0934255
봉서사(서천),충남 서천군,충청남도 서천군 한산면 건지산길 113,36.0882838,126.7916862
봉선저수지,충남 서천군,충청남도 서천군 시초면 봉선리 226,36.1193227,126.7765362
봉수산 자연휴양림,충남 예산군,충청남도 예산군 대흥면 임존성길 153,36.5988799,126.78253
부사방조제,충남 서천군,충청남도 서천군 서면 부사리,36.1665664,126.552574
부산각서석,충남 부여군,충청남도 부여군 규암면,36.2752985,126.8841833
부산서원,충남 부여군,충청남도 부여군 규암면 진변로136번길 11-5,36.2839693,126.8943528
부석사(서산),충남 서산시,충청남도 서산시 부석면 부석사길 243,36.7037339,126.4123786
부여 가림성,충남 부여군,충청남도 부여군 임천면 성흥로97번길 167,36.1953003,126.8996131
부여 군수리 사지,충남 부여군,충청남도 부여군 부여읍,36.2755478,126.9112371
부여 나성 [유네스코 세계문화유산],충남 부여군,충청남도 부여군 부여읍 동문로142번길 100-11,36.2554235,126.943154
부여 능산리 고분군 [유네스코 세계유산],충남 부여군,충청남도 부여군 부여읍 왕릉로 61,36.2761461,126.9421079
부여 능안골 고분군,충남 부여군,충청남도 부여군 부여읍 능산리,36.2750794,126.9615559
부여 반교마을,충남 부여군,충청남도 부여군 외산면 반교동로 9-8,36.28375,126.7176167
부여 산직리지석묘,충남 부여군,충청남도 부여군 초촌면 산직리,36.2561759,127.0466014
부여 세탑리오층석탑,충남 부여군,충청남도 부여군 초촌면 금백로 909-70,36.2773436,127.0183933
부여 송국리 유적,충남 부여군,충청남도 부여군 초촌면 선사로225번길 54,36.2658678,127.0351735
부여 신암친환경마을,충남 부여군,충청남도 부여군 초촌면 신암로 178,36.2791141,126.986899
부여 정림사지 오층석탑 [유네스코 세계유산],충남 부여군,충청남도 부여군 부여읍 정림로 83,36.2787109,126.9142501
부여 청마산성,충남 부여군,충청남도 부여군 부여읍 능산리,36.2750794,126.9615559
부여금사리성당,충남 부여군,충청남도 부여군 구룡면 성충로1342번길 21,36.2494494,126.7981618
부여기와마을,충남 부여군,충청남도 부여군 부여읍 월함로 277,36.3040182,126.9373413
부여향교,충남 부여군,충청남도 부여군 부여읍 의열로 21-4,36.2804738,126.9150549
부풍사,충남 부여군,충청남도 부여군 규암면 백제문로 7,36.2765102,126.8855566
비인 선도리 쌍도해안,충남 서천군,충청남도 서천군 비인면 선도리,36.1331671,126.5918212
비인향교,충남 서천군,충청남도 서천군 비인면 비인로136번길 68,36.1401832,126.6082928
사목해수욕장,충남 태안군,충청남도 태안군 이원면 내리,36.9520615,126.2947774
산혜암(홍성),충남 홍성군,충청남도 홍성군 홍성읍 홍덕서로 185-22,36.6092566,126.6258973
삼길포항,충남 서산시,충청남도 서산시 대산읍 삼길포1로 1-15,36.9990379,126.4510788
삼봉해수욕장,충남 태안군,충청남도 태안군 안면읍,36.520472,126.3444969
삽시도,충남 보령시,충청남도 보령시 오천면 삽시도,36.340923,126.3562296
상가리미륵불,충남 예산군,충청남도 예산군 덕산면 상기리,36.7013072,126.6652355
상양관광농원,충남 보령시,충청남도 보령시 주교면 문화마을길 178-58,36.3697072,126.5920785
상화원,충남 보령시,충청남도 보령시 남포면 남포방조제로 408-52,36.2773366,126.5376765
샛별해수욕장,충남 태안군,충청남도 태안군 안면읍 샛별길 184-2,36.4485113,126.3360975
서광사(서산),충남 서산시,충청남도 서산시 부춘산1로 44,36.7917299,126.4453992
서대산,충남 금산군,충청남도 금산군 추부면,36.1948535,127.4760206
서동공원과 궁남지,충남 부여군,충청남도 부여군 부여읍 궁남로 52,36.2695673,126.9122129
서동요 테마파크,충남 부여군,충청남도 부여군 충화면 충신로 616,36.1453932,126.8235523
서산 경주김씨 고택,충남 서산시,충청남도 서산시 음암면 한다리길 45,36.7410307,126.5193237
서산 꽃송아리마을,충남 서산시,충청남도 서산시 팔봉면 한월당로 704,36.8084841,126.3985581
서산 버드랜드,충남 서산시,충청남도 서산시 부석면 천수만로 655-73,36.6313291,126.3783564
서산 보원사지,충남 서산시,충청남도 서산시 운산면 용현리,36.7562622,126.6028203
서산 용현리 마애여래삼존상,충남 서산시,충청남도 서산시 운산면 마애삼존불길 65-13,36.7737667,126.605246
서산 유기방가옥,충남 서산시,충청남도 서산시 운산면 이문안길 72-10,36.8246941,126.5734262
서산 해미읍성,충남 서산시,충청남도 서산시 해미면 남문2로 143,36.7131204,126.5491704
서산 회포마을,충남 서산시,충청남도 서산시 대산읍 윤산리,36.9531373,126.4678827
서산A지구방조제,충남 서산시,충청남도 홍성군 서부면 남당항로,36.5590286,126.4729063
서산객사,충남 서산시,충청남도 서산시 동헌로 149,36.7827545,126.4504693
서산관광농원,충남 서산시,충청남도 서산시 수석1길 32,36.7698837,126.4903114
서산관아문 및 외동헌,충남 서산시,충청남도 서산시 관아문길 1,36.7844396,126.4501261
서산동문동 오층석탑 및 당간지주,충남 서산시,충청남도 서산시 탑동2로 15,36.7866131,126.4534511
서산버드랜드,충남 서산시,충청남도 서산시 부석면 천수만로 655-73,36.6313291,126.3783564
서산시 천수만,충남 서산시,충청남도 서산시 부석면 간월도1길 119-29,36.6036534,126.411209
서산여미리석불입상,충남 서산시,충청남도 서산시 운산면 여미리,36.8221626,126.5713864
서산창작예술촌,충남 서산시,충청남도 서산시 지곡면 중왕1길 87-5,36.874014,126.3869879
서산해미읍성회화나무,충남 서산시,충청남도 서산시 해미면 동문1길 36-1,36.7121263,126.5516044
서산향교,충남 서산시,충청남도 서산시 향교1로 26,36.790898,126.4565916
서산향교은행나무,충남 서산시,충청남도 서산시 향교1로 26,36.790898,126.4565916
서천 달고개모시마을,충남 서천군,충청남도 서천군 화양면 화한로504번길 5,36.0657209,126.8213308
서천 동자북마을,충남 서천군,충청남도 서천군 한산면 신성로 36-16,36.0842085,126.8131551
서천 마량리 동백나무 숲,충남 서천군,충청남도 서천군 서면 서인로235번길 103,36.1378613,126.4935634
서천 성북리 오층석탑,충남 서천군,충청남도 서천군 비인면 서인로1243번길,36.1473552,126.597561
서천 이하복 고택,충남 서천군,충청남도 서천군 기산면 신막로57번길 32-3,36.0809383,126.7593627
서천 한산소곡주 양조장,충남 서천군,충청남도 서천군 한산면 충절로 1118,36.0798898,126.8021099
서천군 조류 생태 전시관,충남 서천군,충청남도 서천군 마서면 장산로 916,36.0227534,126.7427377
서천식물예술원,충남 서천군,충청남도 서천군 기산면 화출길42번길 17,36.0773763,126.769295
서천이색체험마을,충남 서천군,충청남도 서천군 기산면 화출길42번길 2-10,36.0758372,126.7682599
서천향교,충남 서천군,충청남도 서천군 서천읍 서천향교길 53-5,36.0797669,126.6968821
서천황새마을,충남 서천군,충청남도 서천군 마서면 계동길24번길 22-6,36.0652931,126.7040219
석대도,충남 보령시,충청남도 보령시 웅천읍 관당리,36.246464,126.5455865
석련사(홍성),충남 홍성군,충청남도 홍성군 구항면 구성북로160번길 76,36.6045918,126.6181395
석성향교,충남 부여군,충청남도 부여군 석성면 석성향교길 18,36.2279092,126.990453
선도리갯벌체험마을,충남 서천군,충청남도 서천군 비인면 갯벌체험로 428-13,36.132836,126.5828062
선림사(보령),충남 보령시,충청남도 보령시 오천면 충청수영로 521-64,36.4378976,126.5501207
선샤인랜드,충남 논산시,충청남도 논산시 연무읍 봉황로 102,36.0942201,127.1104456
선화당(공주),충남 공주시,충청남도 공주시 관광단지길 30-8,36.465579,127.1096564
설화산,충남 아산시,충청남도 아산시 송악면 외암로,36.7008375,126.9992012
성거산,충남 천안시,충청남도 천안시 동남구 목천읍 송전1길 98,36.834202,127.2226379
성곡사,충남 공주시,충청남도 공주시 우성면 성곡길 371,36.5063054,127.0700797
성불사(천안),충남 천안시,충청남도 천안시 동남구 성불사길 144,36.8283618,127.1969955
성암서원,충남 서산시,충청남도 서산시 성암1로 45,36.7821428,126.4441982
성주산자연휴양림,충남 보령시,충청남도 보령시 성주면 화장골길 57-228,36.3368122,126.6555164
세계꽃식물원,충남 아산시,충청남도 아산시 도고면 아산만로 37-37,36.7509658,126.8596183
세심사(아산),충남 아산시,충청남도 아산시 염치읍 산양길 180,36.8420748,126.9269038
세양사,충남 부여군,충청남도 부여군 충화면 칠선로 47,36.1933687,126.8125539
소노벨 천안 오션파크,충남 천안시,충청남도 천안시 동남구 성남면 종합휴양지로 200,36.7571865,127.2241221
소도,충남 보령시,충청남도 보령시 오천면 효자도리,36.3834841,126.4439894
속동전망대,충남 홍성군,충청남도 홍성군 서부면 남당항로 689,36.5767826,126.4644756
솔뫼성지,충남 당진시,충청남도 당진시 우강면 솔뫼로 132,36.819515,126.7865369
솔향기길1,충남 태안군,충청남도 태안군 이원면 원이로 2949,36.94246,126.29236
솔향기길2,충남 태안군,충청남도 태안군 이원면 꾸지나무길 81-28,36.9358346,126.2939272
솔향기길3,충남 서산시,충청남도 서산시 대산읍 가로림로 972,36.9615555,126.3339824
송곡서원,충남 서산시,충청남도 서산시 인지면 무학로 1353-9,36.726958,126.4120416
송덕암(서산),충남 서산시,충청남도 서산시 해미면 큰골로 11-84,36.6851472,126.5798412
송불암(논산),충남 논산시,충청남도 논산시 연산면 황룡재로 92-18,36.2082006,127.2250547
송석마을,충남 서천군,충청남도 서천군 마서면,36.062059,126.7067518
송악 오돌개마을,충남 아산시,충청남도 아산시 송악면 송악로 112,36.7228522,126.9818401
송정그림마을,충남 부여군,충청남도 부여군 양화면 양화북로242번길 11,36.1381623,126.8305133
수덕사,충남 예산군,충청남도 예산군 덕산면 수덕사안길 79,36.6623679,126.6226843
수락계곡,충남 논산시,충청남도 논산시 벌곡면,36.205937,127.264865
수리바위,충남 부여군,충청남도 부여군 외산면 만수리,36.3188926,126.6919961
수리치골 성지,충남 공주시,충청남도 공주시 신풍면 용수봉갑길 544,36.5198535,126.8965255
수북정,충남 부여군,충청남도 부여군 규암면 규암리,36.2748221,126.8878072
수심대,충남 금산군,충청남도 금산군 복수면 수심대길 30,36.1637499,127.3951425
숙모전,충남 공주시,충청남도 공주시 반포면 동학사1로 462,36.3533,127.2196327
순교성지 갈매못,충남 보령시,충청남도 보령시 오천면 오천해안로 610,36.4279567,126.5075501
숭의사,충남 태안군,충청남도 태안군 남면 적돌길 415,36.6581835,126.3255807
스플라스 리솜,충남 예산군,충청남도 예산군 덕산면 온천단지3로 45-7,36.6939718,126.6562206
신경섭 전통가옥,충남 보령시,충청남도 보령시 청라면 장밭길 62,36.42079,126.6681799
신두리해수욕장,충남 태안군,충청남도 태안군 원북면 신두리,36.8342278,126.2026206
신성리 갈대밭,충남 서천군,충청남도 서천군 한산면 신성리 125-1,36.0682933,126.8607835
신안사(금산),충남 금산군,충청남도 금산군 제원면 신안사로 970,36.170739,127.5825453
신원사,충남 공주시,충청남도 공주시 계룡면 신원사동길 1,36.3352417,127.1839734
신정호관광지,충남 아산시,충청남도 아산시 신정로 616,36.7731311,126.9858804
신진도,충남 태안군,충청남도 태안군 근흥면 신진도리,36.6797289,126.1421631
신창향교,충남 아산시,충청남도 아산시 신창면 서부남로840번길 29,36.7798908,126.931848
신평양조장 백련 양조문화원,충남 당진시,충청남도 당진시 신평면 신평로 813,36.8836272,126.7747563
신흑마을,충남 보령시,충청남도 보령시 신흑동,36.3223038,126.5263893
심연동계곡(성주계곡),충남 보령시,충청남도 보령시 성주면 심원계곡로 270 심연동계곡,36.3545377,126.6610888
쌍계사(논산),충남 논산시,충청남도 논산시 양촌면 중산길 192,36.1055962,127.205769
쌍수정사적비,충남 공주시,충청남도 공주시 공산성길 59-22,36.4631287,127.128107
아그로랜드 태신목장,충남 예산군,충청남도 예산군 고덕면 상몽2길 231,36.7919114,126.7044918
아름다운정원 화수목,충남 천안시,충청남도 천안시 동남구 목천읍 교천지산길 175,36.7823623,127.198938
아리랜드,충남 서천군,충청남도 서천군 마서면 합전길68번길 21,36.0465985,126.669926
아미산(부여),충남 부여군,충청남도 부여군 외산면,36.3042776,126.704189
아산 강당골마을,충남 아산시,충청남도 아산시 송악면 강당로 187-5,36.7169664,127.0156206
아산 공세리성당,충남 아산시,충청남도 아산시 인주면 공세리성당길 10,36.8829251,126.913515
아산 기쁨두배마을,충남 아산시,충청남도 아산시 둔포면 석곡길 101,36.9121101,127.056326
아산 내이랑마을,충남 아산시,충청남도 아산시 영인면 신봉길 248,36.899657,126.996258
아산 대통령마을 [농촌전통테마],충남 아산시,충청남도 아산시 음봉면 충무로604번길 106-20,36.8343953,127.0229543
아산 맹씨 행단(맹사성 고택),충남 아산시,충청남도 아산시 배방읍 행단길 23-4,36.7469448,127.042057
아산 스파비스,충남 아산시,충청남도 아산시 음봉면 아산온천로157번길 67,36.8553091,126.9781516
아산 외암마을 참판댁,충남 아산시,충청남도 아산시 송악면 외암민속길 42-15,36.7302995,127.0186121
아산 용궁댁,충남 아산시,충청남도 아산시 도고면 도고산로587번길 73-21,36.7403253,126.8923642
아산 윤보선 대통령 생가,충남 아산시,충청남도 아산시 둔포면 해위길52번길 29,36.8972975,127.0185514
아산 이충무공 유허,충남 아산시,충청남도 아산시 염치읍 현충사길 126,36.806513,127.0308048
아산 이충무공묘,충남 아산시,충청남도 아산시 음봉면 고룡산로 12-38,36.8502447,127.0124972
아산 평촌리 석조약사여래입상,충남 아산시,충청남도 아산시 송악면 평촌길50번길 147-20,36.7443271,127.0080858
아산 환경과학공원,충남 아산시,충청남도 아산시 실옥로 220,36.7987254,126.9776544
아산 희안마을,충남 아산시,충청남도 아산시 남부로8번길 41-10,36.7676774,126.9824116
아산만방조제,충남 아산시,충청남도 아산시 인주면 공세리,36.8879575,126.9150088
아산시 생활자원처리장,충남 아산시,충청남도 아산시 배미로 154,36.7910867,126.9742047
아산시 온천 관광특구,충남 아산시,충청남도 아산시,36.789796,127.0018494
아산온천,충남 아산시,충청남도 아산시 음봉면 아산온천로 217-7,36.8540514,126.9804951
아산향교,충남 아산시,충청남도 아산시 영인면 여민루길 82,36.8493414,126.9520344
아인리석탑,충남 금산군,충청남도 금산군 금산읍 용머리길 29,36.1053962,127.4817513
아일랜드 리솜 오아식스 선셋스파,충남 태안군,충청남도 태안군 안면읍 꽃지해안로 204,36.488864,126.336883
안면도,충남 태안군,충청남도 태안군 안면읍 장터로 149,36.5203881,126.3447279
안면도 미로공원,충남 태안군,충청남도 태안군 고남면 대야로 13-6,36.4480992,126.3911524
안면도수목원,충남 태안군,충청남도 태안군 안면읍 안면대로 3195-6,36.4972055,126.3617957
안면도자연휴양림,충남 태안군,충청남도 태안군 안면읍 안면대로 3195-6,36.4972055,126.3617957
안면암(태안),충남 태안군,충청남도 태안군 안면읍 여수해길 198-160,36.559436,126.3746987
안면해수욕장,충남 태안군,충청남도 태안군 안면읍 정당리,36.5508737,126.3576326
안회당과 여하정,충남 홍성군,충청남도 홍성군 홍성읍 아문길 27,36.6013022,126.6608855
안흥성,충남 태안군,충청남도 태안군 근흥면 안흥성길 33-6,36.6816929,126.158717
안흥항,충남 태안군,충청남도 태안군 근흥면 안흥1길 49-2,36.6796222,126.1528965
알프스마을,충남 청양군,충청남도 청양군 정산면 천장호길 223-35,36.4097434,126.914249
어은돌해수욕장,충남 태안군,충청남도 태안군 소원면 연들길 92,36.7526737,126.131321
에너지자립섬 자급자족 죽도,충남 홍성군,충청남도 홍성군 서부면 죽도리,36.5164219,126.4405805
에덴힐스 힐링파크,충남 홍성군,충청남도 홍성군 서부면 와룡로126번길 90,36.5749547,126.5277992
에코힐링 황톳길,충남 천안시,충청남도 천안시 서북구 공원로 159,36.8001686,127.1064013
여민루,충남 아산시,충청남도 아산시 영인면 아산리길 26,36.8550376,126.9540962
연미산 자연미술공원,충남 공주시,충청남도 공주시 우성면 연미산고개길 98,36.4766683,127.0983914
연산역 (철도체험학습장),충남 논산시,충청남도 논산시 연산면 선비로275번길 31-2,36.212811,127.20209
연산향교,충남 논산시,충청남도 논산시 연산면 관동1길 88-12,36.2236337,127.2098897
연산향교 대성전,충남 논산시,충청남도 논산시 연산면 관동1길 88-12,36.2236337,127.2098897
연포해수욕장,충남 태안군,충청남도 태안군 근흥면 도황리,36.6953051,126.2020427
염선재,충남 계룡시,충청남도 계룡시 사계로 5-16,36.2693923,127.2618727
영괴대,충남 아산시,충청남도 아산시 온천대로 1459,36.7831061,126.999949
영남루(천안),충남 천안시,충청남도 천안시 동남구 충절로 410,36.7837024,127.168094
영랑사(당진),충남 당진시,충청남도 당진시 고대면 진관로 142-52,36.912387,126.5940201
영목항,충남 태안군,충청남도 태안군 고남면 월고지길 55,36.3995788,126.4267807
영수암(서천),충남 서천군,충청남도 서천군 종천면 충서로143번길 64,36.0909614,126.6642588
영은사(공주),충남 공주시,충청남도 공주시 공산성길 59-22,36.4631287,127.128107
영인산,충남 아산시,충청남도 아산시 염치읍 아산온천로,36.848624,126.9652422
영인산자연휴양림,충남 아산시,충청남도 아산시 영인면 아산온천로 16-26,36.8402934,126.9513585
영인석불,충남 아산시,충청남도 아산시 영인면 영인로96번길 16-6,36.8582449,126.9521618
영인신현리미륵불,충남 아산시,충청남도 아산시 영인면 영인산로 511-21,36.8609517,126.9283916
영천암(금산),충남 금산군,충청남도 금산군 남이면 보석사1길 148,36.0603064,127.4693651
영탑사(당진),충남 당진시,충청남도 당진시 면천면 성하로 139-33,36.8107524,126.6503316
예당관광지,충남 예산군,충청남도 예산군 응봉면 예당관광로 161,36.6380724,126.7994234
예당호 조각공원,충남 예산군,충청남도 예산군 응봉면 예당관광로 123,36.6363324,126.7950255
예당호 출렁다리(음악분수),충남 예산군,충청남도 예산군 응봉면,36.6586111,126.7611336
예덕상무사,충남 예산군,충청남도 예산군 덕산면 덕산온천로 183-9,36.6869605,126.6523538
예산 알토란사과마을,충남 예산군,충청남도 예산군 응봉면 운곡길 88,36.651935,126.7796553
예산 용궁리 백송,충남 예산군,충청남도 예산군 신암면 용궁리 산 73-28,36.750861,126.7966426
예산 임존성,충남 예산군,충청남도 예산군 광시면 마사리,36.5809665,126.7685234
예산 화전리 석조사면불상,충남 예산군,충청남도 예산군 봉산면 화전2길 19-6,36.7534491,126.6793963
예산 황새공원,충남 예산군,충청남도 예산군 광시면 시목대리길 62-19,36.5438393,126.7978947
예산향교,충남 예산군,충청남도 예산군 예산읍 향교길 31,36.6837988,126.8529923
오덕사(부여),충남 부여군,충청남도 부여군 충화면 오덕로86번길 105,36.1555293,126.7967908
오서산,충남 보령시,충청남도 보령시 청소면 성연리,36.4500512,126.6393969
오천항,충남 보령시,충청남도 보령시 오천면 오천해안로 782-5,36.4393372,126.5209232
오천향교,충남 보령시,충청남도 보령시 오천면 향교길 45-26,36.418185,126.545404
온양관광호텔 온천탕,충남 아산시,충청남도 아산시 온천대로 1459,36.7831061,126.999949
온양온천지구,충남 아산시,충청남도 아산시 온천동,36.7881586,127.0009043
온양이씨어필각,충남 금산군,충청남도 금산군 금성면 어필각로 412,36.1519466,127.4873518
온양향교,충남 아산시,충청남도 아산시 외암로 1414-11,36.7626925,127.0158687
온주아문 및 동헌,충남 아산시,충청남도 아산시 온주길 27,36.7621586,127.0185524
옹도 등대,충남 태안군,충청남도 태안군 근흥면 가의도리,36.6756569,126.0693781
왕대사(보령),충남 보령시,충청남도 보령시 절길 44,36.3455793,126.5595763
왕의영당,충남 부여군,충청남도 부여군 양화면 오초로172번길 16-12,36.1489552,126.8637151
왜목마을,충남 당진시,충청남도 당진시 석문면 왜목길 26,37.0444351,126.5260959
왜목해수욕장,충남 당진시,충청남도 당진시 석문면 왜목길 26,37.0444351,126.5260959
외암민속마을,충남 아산시,충청남도 아산시 송악면 외암민속길9번길 13-2,36.7310028,127.0144092
외연도,충남 보령시,충청남도 보령시 오천면 외연도1길 64,36.2286264,126.0817868
용강서원,충남 금산군,충청남도 금산군 제원면 용화로 258,36.0992089,127.5886423
용도어촌체험마을,충남 서산시,충청남도 서산시 대산읍 웅도리,36.923035,126.3776411
용두해수욕장,충남 보령시,충청남도 보령시 남포면 열린바다로 82-45,36.2601197,126.5427868
용문서원,충남 공주시,충청남도 공주시 중동골길 54-12,36.453611,127.1259369
용봉사(홍성),충남 홍성군,충청남도 홍성군 홍북면 용봉산1길 109,36.6502438,126.6557194
용봉산,충남 홍성군,충청남도 홍성군 홍북면 용봉산2길 87,36.6449358,126.6568158
용봉산자연휴양림,충남 홍성군,충청남도 홍성군 홍북면 용봉산2길 87,36.6449358,126.6568158
용비저수지,충남 서산시,충청남도 서산시 운산면 용현리,36.7562622,126.6028203
용암사(논산),충남 논산시,충청남도 논산시 강경읍 강경로66번길 28,36.1514542,127.0165474
용장천들,충남 서산시,충청남도 서산시 운산면,36.8106976,126.5806326
우도(서산),충남 서산시,충청남도 서산시 지곡면 도성마동길,36.876804,126.4011115
우산성,충남 청양군,충청남도 청양군 청양읍 백천리,36.4672178,126.8192223
운여해변,충남 태안군,충청남도 태안군 고남면 장삼포로 535-57,36.4295965,126.3597273
웅도,충남 서산시,충청남도 서산시 대산읍 웅도1길 92,36.9195329,126.3832902
웅비탑,충남 공주시,충청남도 공주시 백제큰길 2104,36.4714997,127.1116808
웅천돌문화공원,충남 보령시,충청남도 보령시 웅천읍 구장터3길 102,36.2393112,126.5908877
원산도,충남 보령시,충청남도 보령시 오천면 원산도3길 37,36.3689385,126.4211646
원청리 해안사구,충남 태안군,충청남도 태안군 남면 몽산포길 65-27,36.6699444,126.2875478
월성위김한신묘,충남 예산군,충청남도 예산군 신암면 용궁리,36.7498587,126.80153
월하성어촌체험마을,충남 서천군,충청남도 서천군 서면 월하성길 96,36.1328548,126.5623066
위례산과 위례성지,충남 천안시,충청남도 천안시 동남구 북면,36.8274371,127.2732331
유부도,충남 서천군,충청남도 서천군 장항읍 유부도길,35.993869,126.6016636
윤창암(보령),충남 보령시,충청남도 보령시 남포면 창동1길 233-25,36.3138329,126.6283981
은선폭포,충남 공주시,충남 공주시 반포면 학봉리,36.3521852,127.2526249
은진향교,충남 논산시,충청남도 논산시 은진면 탑정로427번길 14-1,36.1709594,127.1120882
은진향교 대성전,충남 논산시,충청남도 논산시 은진면 탑정로427번길 14-1,36.1709594,127.1120882
은포리해안도로,충남 보령시,충청남도 보령시 주교면 송학리,36.3863097,126.5295863
음봉 꾀꼴성마을,충남 아산시,충청남도 아산시 음봉면 음봉로337번길 7-115,36.850229,127.0457721
의병승장비,충남 금산군,충청남도 금산군 남이면 심천길 8-9,36.052206,127.4762033
의열사(부여),충남 부여군,충청남도 부여군 부여읍 의열로29번길 11-33,36.2803555,126.9162241
의항해수욕장,충남 태안군,충청남도 태안군 소원면 의항리,36.7979007,126.1519171
이동녕선생 생가지,충남 천안시,충청남도 천안시 동남구 목천읍 동리4길 36,36.7905069,127.2394098
이상재선생 생가지,충남 서천군,충청남도 서천군 한산면 종단길 71,36.0998815,126.8062152
이심원충신정려현판,충남 계룡시,충청남도 계룡시 금암1길 7,36.2799907,127.2469363
이안숲속,충남 공주시,충청남도 공주시 반포면 수목원길 25,36.4225733,127.199946
이원반도,충남 태안군,충청남도 태안군 이원면 내리,36.9520615,126.2947774
이응로선생사적지(수덕여관),충남 예산군,충청남도 예산군 덕산면 사천리,36.653595,126.6204101
이종일선생생가지,충남 태안군,충청남도 태안군 원북면 옥파로 199-7,36.8997931,126.205045
이지함선생묘,충남 보령시,충청남도 보령시 주교면 토정로 1048,36.3890437,126.50762
이충무공사적비,충남 아산시,충청남도 아산시 온천대로 1496,36.7804269,127.0034914
인취사(아산),충남 아산시,충청남도 아산시 신창면 서부남로790번길 20-52,36.78491,126.9270202
일락사(서산),충남 서산시,충청남도 서산시 해미면 일락골길 501,36.7280504,126.5887617
임천향교,충남 부여군,충청남도 부여군 임천면 성흥로75번길 6-7,36.1925838,126.892363
자온대,충남 부여군,충청남도 부여군 규암면 규암리,36.2748221,126.8878072
작천계곡,충남 청양군,충청남도 청양군 대치면,36.4444167,126.8321305
장고도,충남 보령시,충청남도 보령시 오천면,36.4383534,126.5224226
장곡사(충남),충남 청양군,충청남도 청양군 대치면 장곡길 241,36.4172886,126.8595665
장돌해수욕장,충남 태안군,충청남도 태안군 고남면 장곡리,36.4309938,126.3780996
장삼포해수욕장,충남 태안군,충청남도 태안군 고남면 장곡리,36.4309938,126.3780996
장안해수욕장,충남 보령시,충청남도 보령시 웅천읍 장안1길 35,36.1991894,126.5409316
장항 스카이워크 (기벌포 해전 전망대),충남 서천군,충청남도 서천군 장항읍 장항산단로34번길 74-45,36.0223212,126.6653907
장항송림산림욕장 (장항 솔숲),충남 서천군,충청남도 서천군 장항읍,36.0105645,126.7002835
적벽강 휴양의 집,충남 금산군,충청남도 금산군 부리면 수통1길 17,36.0505608,127.5913195
적벽강(금산),충남 금산군,충청남도 금산군 부리면 적벽강로 697 일원,36.0505608,127.5913195
전견훤묘(견훤왕릉),충남 논산시,충청남도 논산시 연무읍 왕릉로 122,36.1187419,127.0859024
정각사(부여),충남 부여군,충청남도 부여군 석성면 왕릉로정각사길 165,36.2562928,126.9831388
정동호 가옥,충남 예산군,충청남도 예산군 고덕면 지곡오추길 133-62,36.7638032,126.7198067
정산향교,충남 청양군,충청남도 청양군 정산면 칠갑산로 1849-29,36.4157573,126.9441112
정순왕후생가,충남 서산시,충청남도 서산시 음암면 한다리길 39,36.7408205,126.5190131
정암사(홍성),충남 홍성군,충청남도 홍성군 광천읍 오서길 625,36.4707785,126.64667
정혜사(청양),충남 청양군,충청남도 청양군 장평면 상지길 165-10,36.3693206,126.8558041
조개부리마을,충남 태안군,충청남도 태안군 고남면 옷점길 141-26,36.4141975,126.4016933
조류생태전시관,충남 서천군,충청남도 서천군 마서면 장산로 916,36.0227534,126.7427377
조병옥박사 생가지,충남 천안시,충청남도 천안시 동남구 병천면 유관순길 249,36.7516571,127.3147218
조양문,충남 홍성군,충청남도 홍성군 홍성읍 아문길 27,36.6013022,126.6608855
조왕사(부여),충남 부여군,충청남도 부여군 부여읍 계백로 334-47,36.2777266,126.9213004
조헌사당(표충사),충남 금산군,충청남도 금산군 복수면 수심대길 32,36.1640062,127.3948415
죽도(보령),충남 보령시,충청남도 보령시 남포면 남포방조제로 408-54,36.2773366,126.5376765
죽도(홍성),충남 홍성군,충청남도 홍성군 서부면 죽도길 8,36.5193052,126.4411779
죽림서원,충남 논산시,충청남도 논산시 강경읍 금백로 20-3,36.1552392,127.0093077
죽사(서산),충남 서산시,충청남도 서산시 인지면 갓고개길 242-24,36.7930997,126.4126626
중리어촌체험마을,충남 서산시,충청남도 서산시 지곡면 어름들2길 66,36.8803605,126.3845472
중앙호수공원 카페거리,충남 서산시,충청남도 서산시 호수공원4로 27,36.7748259,126.4490918
지장정사(논산),충남 논산시,충청남도 논산시 노성면 화곡안길 103,36.3296739,127.1130039
지중해마을,충남 아산시,충청남도 아산시 탕정면 탕정면로8번길 55-7,36.7975413,127.0605217
지천구곡,충남 청양군,충청남도 청양군 대치면 지천구곡로 424-7,36.3975955,126.8352697
직산향교,충남 천안시,충청남도 천안시 서북구 직산읍 군서1길 35-6,36.9027583,127.1589353
진산향교,충남 금산군,충청남도 금산군 진산면 교촌1길 45-20,36.1544166,127.3769115
진악산,충남 금산군,충청남도 금산군 남이면,36.0453507,127.4367046
차브민,충남 당진시,충청남도 당진시 송산면 석문방조제로 486-39,36.9803747,126.669972
참샘골 호박농원,충남 서산시,충청남도 서산시 대산읍 운산나루터길 71,36.9287956,126.4673359
창강서원,충남 부여군,충청남도 부여군 부여읍 삼충로서원북길 13-2,36.3344117,126.9777236
창렬사,충남 부여군,충청남도 부여군 구룡면 금사남로 78,36.2451979,126.7966816
천내강,충남 금산군,충청남도 금산군 제원면,36.1125373,127.5460902
천리포수목원,충남 태안군,충청남도 태안군 소원면 천리포1길 187,36.7987541,126.1496077
천리포해수욕장,충남 태안군,충청남도 태안군 소원면 의항리,36.7979007,126.1519171
천마산,충남 계룡시,충남 계룡시 금암동,36.2732826,127.2522952
천방산,충남 서천군,충청남도 서천군 문산면 신농리,36.1374142,126.7497248
천수만(철새도래지),충남 서산시,충남 서산시 부석면,36.7148465,126.3935442
천안 노은정,충남 천안시,충청남도 천안시 동남구 병천면 도원리,36.7828555,127.3145177
천안 두아람마을 [농촌전통테마],충남 천안시,충청남도 천안시 동남구 광덕면 보산원4길 11,36.6915386,127.0759499
천안 병천순대거리,충남 천안시,충청남도 천안시 동남구 병천면 아우내순대길 28,36.7600841,127.2986452
천안 봉선홍경사 갈기비,충남 천안시,충청남도 천안시 서북구 성환읍 대홍3길 77-48,36.9431105,127.1347025
천안 유관순 열사 유적,충남 천안시,충청남도 천안시 동남구 병천면 유관순길 38,36.7596383,127.3074615
천안 천흥사지 당간지주·오층석탑,충남 천안시,충청남도 천안시 서북구 성거읍 천흥4길 115-5,36.8722858,127.213669
천안삼거리공원,충남 천안시,충청남도 천안시 동남구 충절로 410,36.7837024,127.168094
천안상록리조트,충남 천안시,충청남도 천안시 동남구 수신면 수신로 576,36.7420428,127.2873208
천안상록리조트 아쿠아피아,충남 천안시,충청남도 천안시 동남구 수신면 수신로 576,36.7420428,127.2873208
천안역 (철도체험학습장),충남 천안시,충청남도 천안시 동남구 대흥로 239,36.810144,127.1466733
천안향교,충남 천안시,충청남도 천안시 동남구 향교1길 89,36.8176692,127.1728892
천장사(서산),충남 서산시,충청남도 서산시 고북면 천장사길 100,36.6698313,126.571728
천장호,충남 청양군,충청남도 청양군 정산면 천장호길 24-23,36.4139521,126.9191243
천장호 출렁다리,충남 청양군,충청남도 청양군 정산면 천장호길 24,36.4145314,126.9217978
천정대,충남 부여군,충청남도 부여군 규암면 호암리,36.3082298,126.918918
천호지(단대호수),충남 천안시,충청남도 천안시 안서동,36.8392816,127.1895989
청라 은행마을 (보령),충남 보령시,충청남도 보령시 청라면 오서산길 150-65,36.4273531,126.6753732
청산수목원,충남 태안군,충청남도 태안군 남면 연꽃길 70,36.6871894,126.2973994
청양 다락골 줄무덤 성지,충남 청양군,충청남도 청양군 화성면 다락골길 78-6,36.4433962,126.6924859
청양 은골구기자마을,충남 청양군,충청남도 청양군 비봉면 은골길 119,36.5206881,126.7985053
청양 칠갑사니마을,충남 청양군,충청남도 청양군 대치면 칠갑산로 668-23,36.4381001,126.8455246
청양 칠갑산 산꽃마을,충남 청양군,충청남도 청양군 대치면 까치내로 1063-1,36.4093557,126.8358758
청양향교,충남 청양군,충청남도 청양군 청양읍 향교길 20-6,36.4548524,126.8155522
청일사,충남 부여군,충청남도 부여군 홍산면 홍내로29번길 35-4,36.2273668,126.7633062
청포대해수욕장,충남 태안군,충청남도 태안군 남면 신온리,36.6151262,126.3014989
청풍사,충남 금산군,충청남도 금산군 부리면 무금로 1688,36.063969,127.5472967
최영장군 사당,충남 홍성군,충청남도 홍성군 홍북읍 대안리,36.6371069,126.7394865
추사고택,충남 예산군,충청남도 예산군 신암면 추사고택로 261,36.7468473,126.7997644
추사김정희선생고택·묘,충남 예산군,충청남도 예산군 신암면 추사고택로 261,36.7468473,126.7997644
춘장대해수욕장,충남 서천군,충청남도 서천군 서면 춘장대길 20,36.1632311,126.5244154
충곡서원,충남 논산시,충청남도 논산시 부적면 충곡로269번길 60-7,36.198594,127.1772243
충남 서산빛들마을,충남 서산시,충청남도 서산시 부석면 마룡심포길 77-7,36.655534,126.3751289
충남 예산 대흥&응봉 [슬로시티],충남 예산군,충청남도 예산군 대흥면 중리길 49,36.6066655,126.790366
충남 예산군,충남 예산군,충청남도 예산군 대흥면 전역,36.6067503,126.7883646
충의사 (매헌 윤봉길 의사 유적),충남 예산군,충청남도 예산군 덕산면 덕산온천로 183-5,36.6864601,126.6514507
충청남도 안전체험관,충남 천안시,충청남도 천안시 동남구 태조산길 267-17,36.8186661,127.1965834
충현서원,충남 공주시,충청남도 공주시 반포면 공암장터길 28-6,36.3977257,127.2498064
칠갑산 장승공원,충남 청양군,충청남도 청양군 대치면 장곡리,36.412458,126.854967
칠갑산도립공원,충남 청양군,충청남도 청양군 대치면 장곡길 241,36.4172886,126.8595665
칠갑산자연휴양림,충남 청양군,충청남도 청양군 대치면 칠갑산로 668-103,36.431286,126.8421516
칠갑산천문대 스타파크,충남 청양군,충청남도 청양군 정산면 한티고개길 178-46,36.4335417,126.8898792
칠산서원,충남 부여군,충청남도 부여군 임천면 부흥로171번길 73,36.1656879,126.9127778
탑선리석탑,충남 금산군,충청남도 금산군 금산읍 탑선길 36,36.1055458,127.4978293
탑정저수지,충남 논산시,충남 논산시 부적면 신풍리,36.1829802,127.176227
태국사(태안),충남 태안군,충청남도 태안군 근흥면 안흥성길 9-29,36.6833497,126.1582892
태안 노을지는갯마을,충남 태안군,충청남도 태안군 소원면 법산길 274-7,36.7415665,126.1957805
태안 동문리 마애삼존불입상,충남 태안군,충청남도 태안군 태안읍 원이로 78-132,36.7669674,126.2986777
태안 볏가리마을,충남 태안군,충청남도 태안군 이원면 볏가리길 62,36.8984023,126.2939645
태안 신두리 해안사구,충남 태안군,충청남도 태안군 원북면 신두리,36.8342278,126.2026206
태안 안면도 모감주나무군락,충남 태안군,충청남도 태안군 안면읍 방포항길,36.5055765,126.336036
태안군 신두리 해안사구,충남 태안군,충청남도 태안군 원북면 신두해변길 201-122,36.8436507,126.1950067
태안해안 국립공원,충남 태안군,충청남도 태안군 태안읍 귀실길 9,36.7463975,126.2923265
태안해안국립공원,충남 태안군,충청남도 태안군 태안읍 귀실길 9,36.7463975,126.2923265
태안향교,충남 태안군,충청남도 태안군 태안읍 백화1길 7,36.7575758,126.2963338
태을암(태안),충남 태안군,충청남도 태안군 태안읍 원이로 78-132,36.7669674,126.2986777
태조대왕 태실,충남 금산군,충청남도 금산군 추부면 마전리,36.1935052,127.4616519
태조산(태조봉),충남 천안시,충청남도 천안시 동남구 목천읍 덕전리,36.8142139,127.2142563
태학산자연휴양림,충남 천안시,충청남도 천안시 동남구 풍세면 돈마루1길 188,36.7315705,127.0938931
퇴수서원,충남 부여군,충청남도 부여군 임천면 충절로1001번길 24,36.1755207,126.8921653
파도리해수욕장,충남 태안군,충청남도 태안군 소원면 모항파도로 49,36.7490506,126.135434
파라다이스 스파도고,충남 아산시,충청남도 아산시 도고면 도고온천로 176,36.7662476,126.8865625
팔괘정,충남 논산시,충청남도 논산시 강경읍,36.1581125,127.0179975
팔봉산(서산),충남 서산시,충청남도 서산시 팔봉면 양길리,36.825086,126.3785787
팜카밀레,충남 태안군,충청남도 태안군 남면 우운길 56-19,36.6873196,126.2825037
평강뜰애,충남 보령시,충청남도 보령시 청라면 가느실길 106,36.3892202,126.6427451
푸레기마을,충남 당진시,충청남도 당진시 석문면 초락1로 147,36.9930124,126.5024733
피나클랜드,충남 아산시,충청남도 아산시 영인면 월선길 20-42,36.8739509,126.9270233
하늘물빛정원,충남 금산군,충청남도 금산군 추부면 검한1길 156,36.2249613,127.4838402
학림사(공주),충남 공주시,충청남도 공주시 반포면 제석골길 67,36.3649326,127.2475126
학암포해수욕장,충남 태안군,충청남도 태안군 원북면 방갈리,36.8948887,126.2247896
한국문화연수원,충남 공주시,충청남도 공주시 사곡면 마곡사로 1065,36.5655727,127.010108
한국최초 성경전래지 기념관,충남 서천군,충청남도 서천군 서면 서인로 89-16,36.1316488,126.5012031
한민족역사문화공원,충남 천안시,충청남도 천안시 동남구 목천읍 교천지산길 284-88,36.7938464,127.1994209
한산소곡주갤러리,충남 서천군,충청남도 서천군 한산면 충절로1173번길 21-1,36.0845374,126.8045342
한산향교,충남 서천군,충청남도 서천군 한산면 한산향교길 76-31,36.0846635,126.7942787
한우목장,충남 서산시,충청남도 서산시 운산면 태봉리 산,36.778874,126.5900011
합덕성당,충남 당진시,충청남도 당진시 합덕읍 합덕성당2길 16,36.7927917,126.7855378
해미순교성지(여숫골),충남 서산시,충청남도 서산시 해미면 성지1로 13,36.7126867,126.5380309
해미향교,충남 서산시,충청남도 서산시 해미면 해미향교길 2-13,36.7209984,126.5502435
해변기암절벽,충남 보령시,충청남도 보령시 오천면,36.4383534,126.5224226
해상인도교 (대하랑꽃게랑),충남 태안군,충청남도 태안군 안면읍 창기리,36.5817116,126.3390389
행림서원,충남 논산시,충청남도 논산시 가야곡면 육곡길 27-1,36.1344394,127.1614655
행복한여행나눔 (관광두레 주민사업체),충남 홍성군,충청남도 홍성군 홍성읍 대학길 25,36.5811832,126.662175
향천사(예산),충남 예산군,충청남도 예산군 예산읍 향천사로 117-20,36.6903333,126.8609943
현대트랜시스,충남 서산시,충청남도 서산시 지곡면 충의로 958,36.8590251,126.44084
현충사,충남 아산시,충청남도 아산시 염치읍 현충사길 126,36.806513,127.0308048
호도,충남 보령시,충청남도 보령시 오천면 호도길 22,36.3017413,126.2644708
호도해수욕장,충남 보령시,충청남도 보령시 오천면 녹도1길 3,36.2676531,126.2664786
홍도마을,충남 금산군,충청남도 금산군 남일면 홍도1길 57,36.0176396,127.5197263
홍산객사,충남 부여군,충청남도 부여군 홍산면 북촌로 47,36.2157253,126.7566519
홍산동헌,충남 부여군,충청남도 부여군 홍산면 동헌로 38,36.2152381,126.7551227
홍산향교,충남 부여군,충청남도 부여군 홍산면 홍내로21번길 61,36.2284532,126.7617841
홍성 문당환경농업마을,충남 홍성군,충청남도 홍성군 홍동면 문당길 141,36.5354789,126.7022595
홍성 속동갯벌마을,충남 홍성군,충청남도 홍성군 서부면 남당항로 689,36.5767826,126.4644756
홍성 오관리 당간지주,충남 홍성군,충청남도 홍성군 홍성읍 오관리,36.5990636,126.6637343
홍성 용봉산체험마을,충남 홍성군,충청남도 홍성군 홍북읍 이응노로 287,36.6312906,126.6513762
홍성 하누리마을,충남 홍성군,충청남도 홍성군 광천읍 매현1길 7-4,36.5228635,126.6339127
홍성 한솔기마을,충남 홍성군,충청남도 홍성군 홍북읍 매죽헌길 351-26,36.6433556,126.7238091
홍성 홍주읍성,충남 홍성군,충청남도 홍성군 홍성읍 오관리,36.5990636,126.6637343
홍성 홍주의사총,충남 홍성군,충청남도 홍성군 홍성읍 의사로 79,36.6051537,126.6710246
홍성방조제,충남 홍성군,충청남도 홍성군 서부면,36.5802645,126.5172309
홍성상하리미륵불,충남 홍성군,충청남도 홍성군 홍북읍,36.650011,126.6917318
홍성온천,충남 홍성군,충청남도 홍성군 홍성읍 내포로 42,36.5991133,126.6636134
홍원항,충남 서천군,충청남도 서천군 서면 홍원길 130-3,36.1586932,126.4992204
홍주아문,충남 홍성군,충청남도 홍성군 홍성읍 아문길 27,36.6013022,126.6608855
홍주향교,충남 홍성군,충청남도 홍성군 홍성읍 충서로1575번길 93,36.6097106,126.6664038
화암사(부여),충남 부여군,충청남도 부여군 외산면 조령서로73번길 142,36.3354168,126.7397466
화암사(예산),충남 예산군,충청남도 예산군 신암면 용궁1길 21-29,36.7383801,126.8003833
화암서원,충남 보령시,충청남도 보령시 청라면 죽성로 411,36.3942086,126.6273238
화장골계곡,충남 보령시,충청남도 보령시 성주면 화장골길 85,36.3368122,126.6555164
효암서원,충남 논산시,충청남도 논산시 가야곡면 덕은로470번길 18-8,36.1657366,127.1901454
효자도,충남 보령시,충청남도 보령시 오천면 효자도길 82,36.3827233,126.4411159
훼미리랜드 충무풀장,충남 아산시,충청남도 아산시 염치읍 충무로 547,36.8278999,127.0094618
휴정서원,충남 논산시,충청남도 논산시 부적면 신풍길 87,36.181872,127.1789267
흑성산성,충남 천안시,충청남도 천안시 동남구 목천읍 교촌리,36.7962003,127.225339
흥주사(태안),충남 태안군,충청남도 태안군 태안읍 속말1길 61-61,36.7712115,126.3140576
히흣 도예공방,충남 천안시,충청남도 천안시 동남구 대흥로 323,36.8166513,127.1505755
