,name,region,tel,keyword,photo,address,lat,lon
0,비엔나 인형박물관,강원 평창군,033-333-3330,"['가족과함께', '남녀노소', '문화시설', '복합문화공간', '아이가_좋아하는_여행']",https://cdn.visitkorea.or.kr/img/call?cmd=VIEW&id=8cc9d966-e7b1-49b9-b616-6375a17cd5bc&thumb,강원도 평창군 대관령면 솔봉로 296,37.66272045,128.66395359999999
1,박인환문학관,강원 인제군,033-462-2086,"['가족과함께', '강원권', '기념관', '문학', '문학관', '문학기행', '문화시설', '박인환문학관']",https://cdn.visitkorea.or.kr/img/call?cmd=VIEW&id=8fe0d398-b9f3-49b9-93e9-79ccb020b5a1&thumb,강원도 인제군 인제읍 인제로156번길 50,38.06277763,128.1717233
2,참소리축음기&에디슨과학박물관,강원 강릉시,033-655-1130,"['강원권', '기차여행', '문화시설', '박물관', '아이와함께', '에디슨과학박물관']",https://cdn.visitkorea.or.kr/img/call?cmd=VIEW&id=b44519a2-1326-485c-aa79-00462c9e5d2e&thumb,강원도 강릉시 경포로 393,37.79796032,128.89738799999998
3,고성 DMZ박물관,강원 고성군,033-681-0625,"['DMZ여행', '강원권', '겨울방학가볼만한곳', '고성DMZ박물관', '문화시설', '미세먼지_피하는_실내여행']",https://cdn.visitkorea.or.kr/img/call?cmd=VIEW&id=14a8ba68-ec41-4605-ac23-9d8091b4e179&thumb,강원도 고성군 현내면 통일전망대로 369,38.57624688,128.3825278
4,속초시립박물관·속초실향민문화촌,강원 속초시,033-639-2978,"['강원권', '교과서속여행', '문화시설', '미세먼지_피하는_실내여행', '박물관']",https://cdn.visitkorea.or.kr/img/call?cmd=VIEW&id=f3b81fba-c3bd-4d8c-8e28-30f04c1c44cc&thumb,강원도 속초시 신흥2길 16,38.20105323,128.5382041
5,한얼문예박물관,강원 횡성군,033-345-0151,"['문화시설', '문화예술', '박물관', '박물관여행', '복합문화공간', '열린문화공간']",https://cdn.visitkorea.or.kr/img/call?cmd=VIEW&id=d7236de3-7d84-426b-a784-975b1fe67574&thumb,강원도 횡성군 우천면 경강로 2885-2,37.48911759,128.072891
6,뮤지엄 산,강원 원주시,033-730-9000,"['가족과함께', '무장애여행지', '문화시설', '문화예술공간', '복합문화공간', '연인과함께']",https://cdn.visitkorea.or.kr/img/call?cmd=VIEW&id=18bcd23d-d675-491c-bc95-68dbfe1b9c93&thumb,강원도 원주시 지정면 오크밸리2길 260,37.41532774,127.82346979999998
7,강릉시 오죽헌/시립박물관,강원 강릉시,033-660-3301,"['강릉시시립박물관', '강릉시오죽헌', '강원권', '교과서속여행', '문화시설', '미세먼지_피하는_실내여행']",https://cdn.visitkorea.or.kr/img/call?cmd=VIEW&id=a259f950-c527-40f9-9932-050151f183cc&thumb,강원도 강릉시 율곡로3139번길 24,37.77830804,128.87671459999999
8,이효석 문학관,강원 평창군,033-330-2700,"['가족여행', '강원권', '기념관', '기차여행', '단체관람', '무장애', '문화시설', '미세먼지_피하는_실내여행']",https://cdn.visitkorea.or.kr/img/call?cmd=VIEW&id=96306636-061e-460d-a8f8-edcc6c3190d2&thumb,강원도 평창군 봉평면 효석문학길 73-25,37.61317497,128.37011529999998
9,젊은달 와이파크,강원 영월군,033-372-9411,"['가족과함께', '문화공간', '문화시설', '문화예술', '문화예술공간', '문화예술활동']",https://cdn.visitkorea.or.kr/img/call?cmd=VIEW&id=f18c9181-1597-488d-8d3f-9c79808e637a&thumb,강원도 영월군 주천면 송학주천로 1467-9,37.27400332,128.2692247
10,춘천 애니메이션박물관,강원 춘천시,033-245-6470,"['가족과함께', '교육여행', '남녀노소', '문화공간', '문화시설', '아이가_좋아하는_여행']",https://cdn.visitkorea.or.kr/img/call?cmd=VIEW&id=187525be-b0f6-42b2-86dd-d5faa2e0dea3&thumb,강원도 춘천시 서면 박사로 854,37.89302024,127.69192439999999
11,동양자수박물관,강원 강릉시,033-644-0600,"['강원권', '교과서속여행', '기념품판매', '동양자수박물관', '문화시설', '박물관']",https://cdn.visitkorea.or.kr/img/call?cmd=VIEW&id=a5b00405-6f73-42c8-bed1-8da4d6c5a718&thumb,강원도 강릉시 죽헌길 140-12,37.77809202,128.88025670000002
12,백룡동굴 생태체험학습장,강원 평창군,033-334-7200,"['가족여행', '강원권', '문화시설', '미세먼지탈출_이색동굴여행', '백룡동굴', '백룡동굴생태체험학습장']",https://cdn.visitkorea.or.kr/img/call?cmd=VIEW&id=14f762a0-ebd3-43d8-961d-696b8d42d374&thumb,강원도 평창군 미탄면 문희길 63,37.27786222,128.5770659
13,삼척 동굴신비관,강원 삼척시,033-574-6828,"['가족과함께', '가족여행', '강원권', '기차여행', '단체관람', '문화시설', '미세먼지탈출_이색동굴여행']",https://cdn.visitkorea.or.kr/img/call?cmd=VIEW&id=d668467a-3e95-4c88-9212-7a8aa8151286&thumb,강원도 삼척시 엑스포로 69,37.43806226,129.15824990000002
14,화진포 해양박물관,강원 고성군,033-682-7300,"['강원권', '기차여행', '단체관람', '무더위_피해_실내여행', '문화시설', '박물관']",https://cdn.visitkorea.or.kr/img/call?cmd=VIEW&id=489a3bf7-006c-48b5-9c64-9f987bc53139&thumb,강원도 고성군 현내면 화진포길 412,38.48138177,128.4356979
15,책과인쇄박물관,강원 춘천시,033-264-9923,"['가족과함께', '김유정문학촌', '남녀노소', '문화공간', '문화시설', '미세먼지_피하는_실내여행']",https://cdn.visitkorea.or.kr/img/call?cmd=VIEW&id=31f8717f-8aad-4a5f-a608-5d3338e234b1&thumb,강원도 춘천시 신동면 풍류1길 156,37.81942663,127.7248512
16,설악산 탐방안내소,강원 속초시,033-636-7700,"['가족여행', '가족체험여행', '강원권', '관광안내소', '남녀노소', '등산객', '문화시설']",https://cdn.visitkorea.or.kr/img/call?cmd=VIEW&id=3e356879-3df4-48f1-b4cb-e80e4ede74ba&thumb,강원도 속초시 설악산로 833,38.16712471,128.51725929999998
17,춘천문화예술회관,강원 춘천시,033-259-5841,"['가족여행', '강원권', '공연장', '나들이', '데이트코스', '문화시설', '아이와함께']",https://cdn.visitkorea.or.kr/img/call?cmd=VIEW&id=182259c7-a1e2-4e84-a54c-137b1e36eb81&thumb,강원도 춘천시 효자상길5번길 13,37.87261579,127.7293405
18,인제산촌민속박물관,강원 인제군,033-462-2086,"['강원권', '교과서속여행', '기차여행', '문화시설', '미세먼지_피하는_실내여행']",https://cdn.visitkorea.or.kr/img/call?cmd=VIEW&id=d06f22eb-36d3-4293-9298-8103c9cbc82b&thumb,강원도 인제군 인제읍 인제로156번길 50,38.06277763,128.1717233
19,태백 고생대자연사박물관,강원 태백시,033-581-3003,"['강원권', '교과서속여행', '문화시설', '미세먼지_피하는_실내여행', '박물관']",https://cdn.visitkorea.or.kr/img/call?cmd=VIEW&id=9e9f97ec-19dd-4d72-9f36-5d2a2ffbc915&thumb,강원도 태백시 태백로 2249,37.0948994,129.03963190000002
20,평창무이예술관,강원 평창군,033-335-4118,"['가족여행', '강원권', '기차여행', '데이트코스', '문화시설', '미술관', '실내여행지']",https://cdn.visitkorea.or.kr/img/call?cmd=VIEW&id=30bf770c-3f8f-43e6-8edc-cbfb8411c24c&thumb,강원도 평창군 봉평면 사리평길 233,37.61527565,128.3487846
21,오산리선사유적박물관,강원 양양군,033-670-2442,"['강원권', '교과서속여행', '문화시설', '박물관', '실내여행지', '아이와함께', '오산리선사유적박물관']",https://cdn.visitkorea.or.kr/img/call?cmd=VIEW&id=f4d562b2-aea9-4416-8863-108c462786f0&thumb,강원도 양양군 손양면 학포길 33,38.08589573,128.6604739
22,정동진시간박물관,강원 강릉시,033-645-4540,"['강원권', '문화시설', '박물관', '정동진시간박물관']",https://cdn.visitkorea.or.kr/img/call?cmd=VIEW&id=82bf23a4-4f68-4cd5-b8bd-4330e82d2811&thumb,강원도 강릉시 강동면 헌화로 990-1,37.68694053,129.0375964
23,춘천막국수체험박물관,강원 춘천시,033-244-8869,"['강원권', '교과서속여행', '문화시설', '박물관', '사계절', '실내여행지', '아이와함께']",https://cdn.visitkorea.or.kr/img/call?cmd=VIEW&id=aa7d31f5-80ca-44ca-bea1-dd068df0e391&thumb,강원도 춘천시 신북읍 신북로 264,37.94879306,127.74977990000001
24,고판화박물관,강원 원주시,033-761-7885,"['가족과함께', '가족여행', '강원권', '고판화박물관', '문화시설', '문화체험', '박물관']",https://cdn.visitkorea.or.kr/img/call?cmd=VIEW&id=f1ac01f4-d131-4347-987c-39425162a623&thumb,강원도 원주시 신림면 물안길 62,37.25743819,128.1280298
25,철암탄광역사촌,강원 태백시,033-582-8070,"['강원권', '문화시설', '박물관', '아이와함께', '역사', '역사공부', '역사촌', '철암탄광역사촌']",https://cdn.visitkorea.or.kr/img/call?cmd=VIEW&id=52b8f9b0-f169-46b3-ae8c-861b0a0511a9&thumb,강원도 태백시 동태백로 404,37.11423472,129.0371857
26,화진포역사안보전시관,강원 고성군,033-680-3677,"['가족여행', '교과서속여행', '문화시설', '바다풍경', '봄나들이', '아이와함께']",https://cdn.visitkorea.or.kr/img/call?cmd=VIEW&id=9a7ffa4f-97ba-4f0f-b289-0ee2b4e2f691&thumb,강원도 고성군 거진읍 화진포길 300-1,38.473643,128.44191999999998
27,6.25 전쟁체험전시관,강원 고성군,033-682-0088,"['6.25전쟁체험전시관', '강원권', '교과서속여행', '문화시설', '아이와함께', '역사를품은곳']",https://cdn.visitkorea.or.kr/img/call?cmd=VIEW&id=4b738779-becb-4540-a5e9-7e34ffb2bded&thumb,강원도 고성군 현내면 금강산로 481,38.51438609,128.416703
28,박수근미술관,강원 양구군,033-480-2655,"['DMZ', '강원권', '기차여행', '나홀로여행', '단체관람', '당일치기여행', '문화시설']",https://cdn.visitkorea.or.kr/img/call?cmd=VIEW&id=cc79cf8e-ef90-41a2-abfb-a35f059e2de7&thumb,강원도 양구군 양구읍 박수근로 265-15,38.096241299999996,127.98157649999999
29,원주역사박물관,강원 원주시,033-737-4371,"['가족여행', '강원권', '당일치기여행', '문화시설', '박물관', '서울근교여행', '아이와함께']",https://cdn.visitkorea.or.kr/img/call?cmd=VIEW&id=72fb5f69-87b4-4ec7-99ba-51a9308a3a12&thumb,강원도 원주시 봉산로 134,37.34309272,127.9664064
30,정선아리랑센터(아리랑박물관),강원 정선군,033-560-3000,"['가족과함께', '공연&전시', '문화시설', '아이와함께', '역사를품은곳', '역사속']",https://cdn.visitkorea.or.kr/img/call?cmd=VIEW&id=0f3ba194-b70d-44df-9beb-10f918b37b9d&thumb,강원도 정선군 정선읍 애산로 51,37.37638383,128.671536
31,강원도 산림박물관,강원 춘천시,033-248-6685,"['강원권', '강원도산림박물관', '교과서속여행', '문화시설', '박물관', '사계절']",https://cdn.visitkorea.or.kr/img/call?cmd=VIEW&id=e0b62802-f54a-48ba-b035-235ed4934e17&thumb,강원도 춘천시 화목원길 24,37.92264687,127.7251595
32,영월아프리카미술박물관,강원 영월군,033-372-3229,"['강원권', '걷기길', '교과서속여행', '문화시설', '박물관', '아이와함께', '영월아프리카미술박물관']",https://cdn.visitkorea.or.kr/img/call?cmd=VIEW&id=8ee0c558-38ab-408b-8ac5-49ecdb6f150d&thumb,강원도 영월군 김삿갓면 영월동로 1107-1,37.13187895,128.5353509
33,석봉도자기미술관,강원 속초시,033-638-7712,"['강원권', '기차여행', '단체관람', '문화시설', '박물관', '석봉도자기미술관', '아이와함께']",https://cdn.visitkorea.or.kr/img/call?cmd=VIEW&id=fc7c6eb9-bcb2-4170-8c9a-736e226d4047&thumb,강원도 속초시 엑스포로 156,38.19795098,128.5825629
34,속초문화원,강원 속초시,033-632-1231,"['강원권', '기차여행', '문화시설', '속초문화원', '아이와함께', '체험학습']",https://cdn.visitkorea.or.kr/img/call?cmd=VIEW&id=d7c3a4a9-b636-49a3-b803-0089f8ee8210&thumb,강원도 속초시 번영로 155,38.21304612,128.58837240000003
35,남이섬 노래박물관,강원 춘천시,031-580-8193,"['가요전시관', '가족과함께', '가평군', '강원도', '공연', '남산면', '남이섬', '남이섬가볼만한곳']",https://cdn.visitkorea.or.kr/img/call?cmd=VIEW&id=01bd4aa1-602e-47dd-816c-7123276cfa95&thumb,강원도 춘천시 남산면 남이섬길 1,37.79012495,127.5261287
36,설악트릭미술관,강원 고성군,033-632-1311,"['가족여행', '가족체험여행', '강원권', '데이트코스', '문화시설', '미술관', '사진찍기']",https://cdn.visitkorea.or.kr/img/call?cmd=VIEW&id=0578d94a-d8eb-4556-8ccd-72b9abf83a71&thumb,강원도 고성군 토성면 고성대로 47-24,38.20960704,128.5021644
37,에티오피아 한국전 참전기념관,강원 춘천시,033-240-7649,"['강원권', '교과서속여행', '기념관', '문화시설', '미세먼지_피하는_실내여행']",https://cdn.visitkorea.or.kr/img/call?cmd=VIEW&id=865ba02a-3477-4044-ab8f-284b670d1807&thumb,강원도 춘천시 이디오피아길 1,37.8737992,127.71178880000001
38,화진포생태박물관,강원 고성군,033-681-8311,"['가족여행', '강원권', '교과서속여행', '문화시설', '미세먼지_피하는_실내여행']",https://cdn.visitkorea.or.kr/img/call?cmd=VIEW&id=4c544d75-ad66-40db-8ab5-4fc831637b24&thumb,강원도 고성군 거진읍 화진포길 278,38.47218738,128.4436214
39,진부령미술관,강원 고성군,033-681-7667,"['강원권', '문화시설', '미세먼지_피하는_실내여행', '미술관', '실내관광지', '실내여행지']",https://cdn.visitkorea.or.kr/img/call?cmd=VIEW&id=4b2a4cd0-9a22-40e3-8cb8-a176f6b0bf86&thumb,강원도 고성군 간성읍 흘리길 15-10,38.26547302,128.359622
40,조각미술관 바우지움,강원 고성군,033-632-6632,"['강원권', '고성가볼만한곳', '문화시설', '문화예술', '문화예술활동', '미술관']",https://cdn.visitkorea.or.kr/img/call?cmd=VIEW&id=5387456d-f39a-4441-a81c-871578a48658&thumb,강원도 고성군 토성면 원암온천3길 37,38.21234555,128.5151501
41,영월 동굴생태관,강원 영월군,033-372-6828,"['가족과함께', '강원권', '문화시설', '미세먼지탈출_이색동굴여행', '박물관', '생태관광지']",https://cdn.visitkorea.or.kr/img/call?cmd=VIEW&id=f3fb5015-c148-4475-b2a5-cd5ddfc3300a&thumb,강원도 영월군 김삿갓면 영월동로 1121-15,37.13035675,128.5367419
42,조선민화박물관,강원 영월군,033-375-6100,"['가족여행', '강원권', '기차여행', '문화시설', '박물관', '아이와함께', '전시관']",https://cdn.visitkorea.or.kr/img/call?cmd=VIEW&id=4e62d93b-a0c4-4602-b8fe-3a7228f0000b&thumb,강원도 영월군 김삿갓면 김삿갓로 432-10,37.09631131,128.60662079999997
43,태백시 문화예술회관,강원 태백시,033-550-2781,"['가족여행', '강원권', '공연장', '문화시설', '사계절', '실내여행지', '예술', '태백시문화예술회관']",https://cdn.visitkorea.or.kr/img/call?cmd=VIEW&id=2447af79-c284-4bc7-9a54-a19d04435579&thumb,강원도 태백시 고원로 203,37.17196057,128.98803940000002
44,춘천미술관,강원 춘천시,033-241-1856,"['강원권', '기차여행', '당일치기여행', '문화시설', '미술관', '서울근교여행', '연인과함께']",https://cdn.visitkorea.or.kr/img/call?cmd=VIEW&id=c9c75c40-294e-4813-8ef7-e3914ab6d765&thumb,강원도 춘천시 서부대성로 71,37.88237413,127.7313736
45,인제 하늘내린센터,강원 인제군,033-460-8900,"['강원권', '문화시설', '사계절', '스포츠센터', '인제하늘내린센터', '친구와함께']",https://cdn.visitkorea.or.kr/img/call?cmd=VIEW&id=1604226d-bf7b-4d6c-ae38-a0be5dd85646&thumb,강원도 인제군 인제읍 비봉로44번길 100,38.06067411,128.164952
46,강원 신재생에너지전시관,강원 평창군,033-336-5008,"['강원권', '강원신재생에너지전시관', '교과서속여행', '문화시설', '사계절', '실내여행지']",https://cdn.visitkorea.or.kr/img/call?cmd=VIEW&id=4e78b540-0974-43fe-bfff-95b85a38a8fe&thumb,강원도 평창군 대관령면 경강로 5754,37.68552302,128.7583027
47,국립춘천박물관,강원 춘천시,033-260-1500,"['강원권', '교과서속여행', '국립춘천박물관', '기차여행', '문화시설', '미세먼지_피하는_실내여행']",https://cdn.visitkorea.or.kr/img/call?cmd=VIEW&id=15496bfd-78b6-4b02-ae3c-ea949137f043&thumb,강원도 춘천시 우석로 70,37.86401877,127.75219070000001
48,만해문학박물관,강원 인제군,033-462-2303,"['가족여행', '강원권', '기차여행', '당일치기여행', '만해문학박물관', '문화시설']",https://cdn.visitkorea.or.kr/img/call?cmd=VIEW&id=12c117a8-2253-404e-9109-36f8a271324c&thumb,강원도 인제군 북면 만해로 91,38.18753627,128.318117
49,삼척 민물고기전시관,강원 삼척시,033-570-4452,"['가족체험여행', '기차여행', '농촌체험여행', '당일치기여행', '문화시설', '삼척민물고기전시관']",https://cdn.visitkorea.or.kr/img/call?cmd=VIEW&id=59abc2df-e48d-46fe-92b1-082ff9a66d66&thumb,강원도 삼척시 근덕면 초당길 234,37.38769134,129.1966788
50,양구전쟁기념관,강원 양구군,033-480-2674,"['강원권', '교과서속여행', '기념관', '문화시설', '아이와함께', '양구전쟁기념관']",https://cdn.visitkorea.or.kr/img/call?cmd=VIEW&id=4c42c049-0db5-4215-92ca-499c60193ef5&thumb,강원도 양구군 해안면 해안서화로 35,38.2900609,128.1455851
51,삼척문화예술회관,강원 삼척시,033-572-1331,"['강원권', '단체관람', '문화시설', '삼척문화예술회관', '아이와함께', '연인과함께']",https://cdn.visitkorea.or.kr/img/call?cmd=VIEW&id=d2919c34-f9f9-41ed-9769-5b1154322dc4&thumb,강원도 삼척시 엑스포로 45,37.43896328,129.1601383
52,화천생태영상센터,강원 화천군,033-441-2050,"['가족여행', '강원권', '교육장', '교육프로그램', '문화시설', '사계절', '아이와함께']",https://cdn.visitkorea.or.kr/img/call?cmd=VIEW&id=0bd8a7bb-1f56-48a4-b9b1-c325b8f1ae32&thumb,강원도 화천군 하남면 용화산로 1357,38.09020734,127.6973318
53,모형항공기박물관,강원 춘천시,033-262-5123,"['가족과함께', '모형항공기', '모형항공기박물관', '문화시설', '박물관', '비행기']",https://cdn.visitkorea.or.kr/img/call?cmd=VIEW&id=034eb9f6-6ae6-452b-bdce-be719290040a&thumb,강원도 춘천시 동산면 영서로 141,37.75170977,127.82225459999998
54,정선향토박물관,강원 정선군,033-560-3418,"['가족여행', '강원권', '교과서속여행', '기차여행', '문화시설', '박물관', '아이와함께']",https://cdn.visitkorea.or.kr/img/call?cmd=VIEW&id=f5b50651-9f6f-4f40-a2f2-f728e0a6f0fd&thumb,강원도 정선군 화암면 화암동굴길 12-2,37.34999156,128.7891456
55,춘천인형극장,강원 춘천시,033-242-8450,"['가족과함께', '극장', '문화시설', '상설공연', '소품전시', '아이와함께', '인형극장']",https://cdn.visitkorea.or.kr/img/call?cmd=VIEW&id=784ecda6-5a09-4fb4-9612-86fb1214b591&thumb,강원도 춘천시 영서로 3017,37.92101625,127.72010449999999
56,속초문화회관,강원 속초시,033-639-2080,"['가족여행', '강원권', '공연장', '기차여행', '데이트코스', '문화시설', '속초문화회관']",https://cdn.visitkorea.or.kr/img/call?cmd=VIEW&id=0aa7438e-0a80-4c34-9c21-1ff9be607c04&thumb,강원도 속초시 번영로 155,38.21304612,128.58837240000003
57,숲사랑홍보관,강원 강릉시,033-644-4852,"['강원권', '교과서속여행', '문화시설', '사계절', '숲사랑홍보관', '실내여행지']",https://cdn.visitkorea.or.kr/img/call?cmd=VIEW&id=a9c966db-ddd2-4694-9d48-a4c8f0dc664f&thumb,강원도 강릉시 사천면 미노길 1,37.81715301,128.85131869999998
58,화천박물관,강원 화천군,033-440-2549,"['가족과함께', '강원권', '겨울방학가볼만한곳', '남녀노소', '문화시설', '미세먼지_피하는_실내여행']",https://cdn.visitkorea.or.kr/img/call?cmd=VIEW&id=8772086a-de8f-46e8-aa24-69d489932356&thumb,강원도 화천군 하남면 춘화로 3337,38.09782649,127.70408859999999
59,난고 김삿갓 문학관,강원 영월군,033-375-7900,"['강원권', '기차여행', '난고김삿갓문화관', '당일치기여행', '문화시설', '아이와함께']",https://cdn.visitkorea.or.kr/img/call?cmd=VIEW&id=4cb0c043-9e44-4593-83df-1940b13a8940&thumb,강원도 영월군 김삿갓면 김삿갓로 216-22,37.07949201,128.60173659999998
60,양구백자박물관,강원 양구군,033-480-2664,"['가족과함께', '강원권', '교과서속여행', '남녀노소', '도자기체험', '문화시설']",https://cdn.visitkorea.or.kr/img/call?cmd=VIEW&id=4c85e187-5061-4eb8-919d-0097b4931e78&thumb,강원도 양구군 방산면 평화로 5182,38.20727188,127.95140359999998
61,강원종합박물관,강원 삼척시,033-541-1523,"['강원도권', '강원종합박물관', '기차여행', '문화시설', '박물관', '복합문화공간']",https://cdn.visitkorea.or.kr/img/call?cmd=VIEW&id=d2ba5ac5-a609-4f55-b6c6-7c848c595a02&thumb,강원도 삼척시 신기면 강원남부로 3016,37.35140608,129.08414390000002
62,엄마꿈박물관,강원 강릉시,033-823-2700,"['가족과함께', '강릉가볼만한곳', '남녀노소', '문화시설', '복합문화공간', '아이와함께']",https://cdn.visitkorea.or.kr/img/call?cmd=VIEW&id=9866fb52-3133-432a-9259-b94d01200a7c&thumb,강원도 강릉시 구정면 정등로 130,37.72922013,128.87416509999997
63,동강사진박물관,강원 영월군,033-375-4554,"['강원권', '교과서속여행', '동강사진박물관', '문화시설', '미세먼지_피하는_실내여행']",https://cdn.visitkorea.or.kr/img/call?cmd=VIEW&id=edc8da93-ecdd-4c0e-bd38-94971e8aae13&thumb,강원도 영월군 영월읍 영월로 1909-10,37.18193994,128.46155109999998
64,태백석탄박물관,강원 태백시,033-552-7730,"['가족와함께', '강원권', '문화시설', '아이와함께', '역사체험', '태백석탄박물관']",https://cdn.visitkorea.or.kr/img/call?cmd=VIEW&id=e4c9ebfd-e3c3-4eeb-8c31-4dca741aa60b&thumb,강원도 태백시 천제단길 195,37.11724029,128.9505662
65,이승복기념관,강원 평창군,033-332-9351,"['강원권', '걷기길', '걷기여행', '기념관', '문화시설', '사계절', '아이와함께', '이승복기념관']",https://cdn.visitkorea.or.kr/img/call?cmd=VIEW&id=d2c13f83-0570-4a06-a9c5-6231bb58612e&thumb,강원도 평창군 용평면 운두령로 500-11,37.67220152,128.4644788
66,월정사 성보박물관(평창),강원 평창군,033-339-7000,"['강원권', '국보', '문화시설', '미세먼지_피하는_실내여행', '불교', '불교문화']",https://cdn.visitkorea.or.kr/img/call?cmd=VIEW&id=78f979cc-bcf6-449e-bc92-40fa51a93e95&thumb,강원도 평창군 진부면 오대산로 176,37.71884927,128.60295779999998
67,발해역사관,강원 속초시,033-639-2798,"['가족체험', '문화시설', '미세먼지_피하는_실내여행', '속초시립박물관', '아이와함께']",https://cdn.visitkorea.or.kr/img/call?cmd=VIEW&id=197f7b8f-19dc-4715-b4b9-459de303c73d&thumb,강원도 속초시 신흥2길 16,38.20105323,128.5382041
68,대관령박물관,강원 강릉시,033-660-3830,"['가족여행', '강원권', '기차여행', '나들이', '대관령박물관', '문화시설', '박물관']",https://cdn.visitkorea.or.kr/img/call?cmd=VIEW&id=bf919a52-6899-4023-83d5-c5ecb84b0a6e&thumb,강원도 강릉시 성산면 대관령옛길 1,37.71677638,128.80402959999998
69,국립산악박물관,강원 속초시,033-638-4459,"['가족여행', '강원권', '국립산악박물관', '남녀노소', '문화시설', '박물관', '복합레저스포츠']",https://cdn.visitkorea.or.kr/img/call?cmd=VIEW&id=801a5ade-553f-4c88-bde2-d8c620192ce7&thumb,강원도 속초시 노학동 735,38.202863,128.540405
70,토지문화관,강원 원주시,033-762-1382,"['가족여행', '강원권', '교과서속여행', '기차여행', '단체체험', '문화시설', '박물관']",https://cdn.visitkorea.or.kr/img/call?cmd=VIEW&id=1b4a96fb-6a10-48f8-b212-317cf82355de&thumb,강원도 원주시 흥업면 매지회촌길 79,37.25750686,127.91135039999999
71,태백문화원,강원 태백시,033-553-3160,"['강원도', '문화시설', '문화원', '애향심', '전통문화', '전통문화보존', '지역문화']",https://cdn.visitkorea.or.kr/img/call?cmd=VIEW&id=128c84ef-558c-47e6-b6ac-6a3439374491&thumb,강원도 태백시 태백로 1136,37.15672217,128.98945940000002
72,양양문화원,강원 양양군,033-671-8762,"['문화시설', '복합문화공간', '양양문화원', '열린문화공간', '친구와 함께']",https://cdn.visitkorea.or.kr/img/call?cmd=VIEW&id=1d591ba2-62f2-42bb-8494-c4eb05cc0054&thumb,강원도 양양군 양양읍 양양로 114-5,38.07417742,128.6164416
73,춘천문화원,강원 춘천시,033-254-5105,"['강원권', '공공시설', '문화시설', '춘천문화원']",https://cdn.visitkorea.or.kr/img/call?cmd=VIEW&id=c432ad65-abbd-49d6-a4b3-ff7efb2e9be2&thumb,강원도 춘천시 퇴계농공로 40,37.84958257,127.7436554
74,횡성문화원,강원 횡성군,033-343-2271,"['강원권', '문화시설', '문화예술교육', '횡성문화원']",https://cdn.visitkorea.or.kr/img/call?cmd=VIEW&id=7a03f887-ea31-4316-bd4b-5d9cbfc5f448&thumb,강원도 횡성군 횡성읍 횡성로 371,37.48666226,127.9839932
75,강원경찰박물관,강원 춘천시,033-245-0481,"['강원경찰박물관', '강원권', '기차여행', '단체관람', '문화시설', '박물관', '서울근교여행']",https://cdn.visitkorea.or.kr/img/call?cmd=VIEW&id=a8deb828-9cc4-4ddc-ad19-aa4e23b4f796&thumb,강원도 춘천시 신북읍 신샘밭로 361,37.92530023,127.7499325
76,환희컵박물관,강원 강릉시,033-661-3413,"['가족과함께', '강릉가볼만한곳', '강릉여행', '강릉여행코스', '문화시설', '미세먼지_피하는_실내여행']",https://cdn.visitkorea.or.kr/img/call?cmd=VIEW&id=3ebf64d8-cc17-4f93-a894-6344cff91261&thumb,강원도 강릉시 한밭골길 76-29,37.78973509,128.8654889
77,파로호 안보전시관,강원 화천군,033-440-2563,"['강원권', '문화시설', '안보여행', '역사공부', '역사를품은곳', '역사속', '역사속으로']",https://cdn.visitkorea.or.kr/img/call?cmd=VIEW&id=4ffb5b38-edab-47c3-986c-b5e1e8846d2e&thumb,강원도 화천군 간동면 파로호로 208,38.09499168,127.77152949999999
78,양구통일관,강원 양구군,033-480-2674,"['강원권', '교과서속여행', '문화시설', '실내여행지', '아이와함께', '양구통일관']",https://cdn.visitkorea.or.kr/img/call?cmd=VIEW&id=1fdef121-59dc-40ba-b1da-ecc24e402fba&thumb,강원도 양구군 해안면 해안서화로 35,38.2900609,128.1455851
79,영월곤충박물관,강원 영월군,033-374-5888,"['가족과함께', '곤충류', '곤충박물관', '문화시설', '박물관', '아이와함께', '자연체험']",https://cdn.visitkorea.or.kr/img/call?cmd=VIEW&id=a19f6e5b-c565-4623-87eb-2a2100f5c2fa&thumb,강원도 영월군 영월읍 동강로 716,37.22820572,128.505455
80,춘천시립도서관,강원 춘천시,033-245-5102,"['가족와함께', '강원권', '문화시설', '아이와함께', '춘천시립도서관']",https://cdn.visitkorea.or.kr/img/call?cmd=VIEW&id=914b9938-2f13-4023-bb18-50ac02155f1e&thumb,강원도 춘천시 우석로 100,37.86198997,127.7550186
81,고성문화원,강원 고성군,033-681-2922,"['고성문화원', '문화시설', '복합문화공간', '열린문화공간']",https://cdn.visitkorea.or.kr/img/call?cmd=VIEW&id=c90c3a1b-31f0-4bdf-9495-6d598ddff4c3&thumb,강원도 고성군 간성읍 간성로 71-7,38.37873572,128.46690790000002
82,단종역사관,강원 영월군,033-370-2468,"['강원권', '교과서속여행', '기념관', '기차여행', '단종역사관', '문화시설', '박물관']",https://cdn.visitkorea.or.kr/img/call?cmd=VIEW&id=781679c2-ad06-4a0a-8477-1f085a76656d&thumb,강원도 영월군 영월읍 단종로 190,37.19681856,128.4528928
83,양구선사박물관,강원 양구군,033-480-2677,"['강원권', '고인돌공원', '기차여행', '무료관람', '문화시설', '박물관', '아이와함께']",https://cdn.visitkorea.or.kr/img/call?cmd=VIEW&id=e2a734cb-294a-4cb5-bf7f-793d69b1c6db&thumb,강원도 양구군 양구읍 금강산로 439-52,38.12356299,127.99042479999999
84,토이로봇관,강원 춘천시,033-245-6460,"['남녀노소', '문화시설', '미세먼지_피하는_실내여행', '복합문화공간', '아이가_좋아하는_여행']",https://cdn.visitkorea.or.kr/img/call?cmd=VIEW&id=19ca325d-70af-4836-bfb1-bb405c0967c5&thumb,강원도 춘천시 서면 박사로 854,37.89302024,127.69192439999999
85,횡성군문화예술회관,강원 횡성군,033-340-5951,"['가족과함께', '강원권', '공연/행사', '공연관람', '문화공연', '문화시설', '문화행사']",https://cdn.visitkorea.or.kr/img/call?cmd=VIEW&id=3d9b0e89-5daa-4781-b3d9-da217d9346d4&thumb,강원도 횡성군 횡성읍 문예로 75,37.48863768,127.9751991
86,삼척시립박물관,강원 삼척시,033-575-0768,"['강원권', '단체관람', '문화시설', '박물관', '삼척시립박물관', '아이와함께', '연중무휴']",https://cdn.visitkorea.or.kr/img/call?cmd=VIEW&id=ab303410-9200-4a96-a5eb-55c59e0506f9&thumb,강원도 삼척시 엑스포로 54,37.43891237,129.1584091
87,치악예술관,강원 원주시,033-763-9114,"['가족여행', '강원권', '공연장', '기차여행', '데이트코스', '문화시설', '상설공연']",https://cdn.visitkorea.or.kr/img/call?cmd=VIEW&id=5188c74e-0e91-4373-851e-6c10d2248a72&thumb,강원도 원주시 서원대로 331,37.33543707,127.94460559999999
88,강릉문화원,강원 강릉시,033-648-3014,"['강릉문화원', '문화강좌', '문화시설', '열린문화공간']",https://cdn.visitkorea.or.kr/img/call?cmd=VIEW&id=996b870f-cbe6-489c-b0ae-8281be022356&thumb,강원도 강릉시 하슬라로 96,37.75876307,128.8738456
89,평창문화원,강원 평창군,,"['강원도', '무장애', '문화시설', '문화예술', '문화원', '평창군']",https://cdn.visitkorea.or.kr/img/call?cmd=VIEW&id=f413036f-9717-47b1-a556-cc9550b69ef3&thumb,강원도 평창군 평창읍 문화예술길 53,37.36177697,128.3901095
90,미술관 자작나무숲,강원 횡성군,033-342-6833,"['기획전시', '문화시설', '문화예술', '문화예술공간', '문화예술창작공간', '미술관']",https://cdn.visitkorea.or.kr/img/call?cmd=VIEW&id=b05d5a32-3542-4932-b6ec-43b86930b81c&thumb,강원도 횡성군 우천면 한우로두곡5길 186,37.49276094,128.0500584
91,강릉단오제전수교육관,강원 강릉시,033-660-3940,"['강릉단오제', '교육프로그램', '문화공간', '문화시설']",https://cdn.visitkorea.or.kr/img/call?cmd=VIEW&id=d23ed198-ffdd-49eb-b1a7-5ed763251798&thumb,강원도 강릉시 단오장길 1,37.74820182,128.8950411
92,영월문화원,강원 영월군,033-373-3434,"['강원권', '교육프로그램', '문화시설', '영월문화원']",https://cdn.visitkorea.or.kr/img/call?cmd=VIEW&id=507a15ec-224a-4d05-96fe-915c1d161a4c&thumb,강원도 영월군 영월읍 단종로 12,37.18462839,128.4685497
93,홍천교육도서관,강원 홍천군,033-434-3236,"['강원권', '도서관', '문화시설', '사계절', '실내여행지', '아이와함께', '체험학습']",https://cdn.visitkorea.or.kr/img/call?cmd=VIEW&id=4b39aa33-afba-419c-8a5d-b8df701abf7f&thumb,강원도 홍천군 홍천읍 꽃뫼로 93,37.69179363,127.8838503
94,동해문화원,강원 동해시,033-531-3298,"['강원권', '교육프로그램', '동해문화원', '문화시설']",https://cdn.visitkorea.or.kr/img/call?cmd=VIEW&id=59d3e314-80c7-4687-a17f-4b60c794c917&thumb,강원도 영월군 주천면 송학주천로 899-6,37.52451219,129.1125058
95,인도미술박물관,강원 영월군,033-375-2883,"['강원권', '문화공간', '문화시설', '문화예술공간', '박물관', '복합문화공간', '아이와함께']",https://cdn.visitkorea.or.kr/img/call?cmd=VIEW&id=02246be4-32b7-45ff-a6dd-2ca57df74920&thumb,강원도 동해시 천곡2길 8,37.23587339,128.2392085
96,삼척 어촌민속전시관,강원 삼척시,033-572-4429,"['가족여행', '강원권', '기차여행', '단체관람', '문화시설', '삼척어촌민속전시관']",https://cdn.visitkorea.or.kr/img/call?cmd=VIEW&id=0b683368-d9fb-4be9-a4c2-80bad380274c&thumb,강원도 삼척시 원덕읍 삼척로 1852-6,37.26795788,129.3272826
97,호야지리박물관,강원 영월군,033-372-8872,"['가족여행', '강원권', '교과서속여행', '문화시설', '박물관', '사계절', '아이와함께']",https://cdn.visitkorea.or.kr/img/call?cmd=VIEW&id=1ba717a3-c1dc-439e-9f4a-e4e225fea2d9&thumb,강원도 영월군 수주면 무릉법흥로 303,37.29994177,128.26269950000002
98,원주문화원,강원 원주시,033-764-3794,"['강원권', '교육프로그램', '문화시설', '원주문화원']",https://cdn.visitkorea.or.kr/img/call?cmd=VIEW&id=86017673-6c42-4303-84db-d6d59508907c&thumb,강원도 원주시 일산로 72,37.34561281,127.9504594
99,국제현대미술관,강원 영월군,033-375-2752,"['강원권', '국제현대미술관', '당일치기여행', '문화시설', '문화예술공간', '미세먼지_피하는_실내여행']",https://cdn.visitkorea.or.kr/img/call?cmd=VIEW&id=4e3d2cf3-eb92-4f45-b976-b6b973841cc6&thumb,강원도 영월군 영월읍 삼옥길 31,37.20840155,128.50690459999998
100,생명건강과학관,강원 홍천군,033-430-2836,"['가족과함께', '건강여행', '과학체험', '무더위_피해_실내여행', '문화시설', '실내여행']",https://cdn.visitkorea.or.kr/img/call?cmd=VIEW&id=8fba6f98-b626-4c8e-b1e5-0229025f37e8&thumb,강원도 홍천군 홍천읍 생명과학관길 78,37.67909826,127.88058500000001
101,공지천시민공원 야외공연장,강원 춘천시,033-250-3152,"['강원권', '공지천시민공원', '기차여행', '데이트코스', '문화시설', '야외공연장']",https://cdn.visitkorea.or.kr/img/call?cmd=VIEW&id=c1319648-e226-4160-b6f4-909c64b9e21b&thumb,강원도 춘천시 수변공원길 18,37.87454686,127.7061971
102,축제극장 몸짓,강원 춘천시,033-259-5821,"['강원권', '문화시설', '상설공연', '연인과함께', '예술', '음악회', '축제극장몸짓']",https://cdn.visitkorea.or.kr/img/call?cmd=VIEW&id=c993b6a4-9219-4942-b8ba-29a9e5e12007&thumb,강원도 춘천시 춘천로 112,37.87309537,127.7278102
103,아라리인형의집,강원 정선군,033-563-9667,"['문화시설', '박물관', '아라리인형의집', '아이와 함께', '인형극', '전시관']",https://cdn.visitkorea.or.kr/img/call?cmd=VIEW&id=0472ad3f-f65e-45ee-ad6e-5217e96e11e8&thumb,강원도 정선군 북평면 명주내길 43-1,37.43807911,128.6469695
104,원주시립중앙도서관,강원 원주시,033-737-4360,"['강원도', '남녀노소', '도서관', '독서', '문화시설', '복합문화공간', '시립도서관']",https://cdn.visitkorea.or.kr/img/call?cmd=VIEW&id=6be3972e-f275-4cd3-ace4-5ce16b4aad99&thumb,강원도 원주시 서원대로 472-12,37.32654285,127.9538485
105,일현미술관,강원 양양군,033-670-8450,"['강원권', '나홀로여행', '문화공간', '문화시설', '문화예술', '문화예술공간', '미술관']",https://cdn.visitkorea.or.kr/img/call?cmd=VIEW&id=6a39925b-e693-4b81-8a85-1fc7887b275d&thumb,강원도 양양군 손양면 선사유적로 359,38.06055227,128.6789588
106,화천교육도서관,강원 화천군,033-441-6343,"['강원권', '도서관', '문화시설', '사계절', '실내여행지', '아이와함께', '체험학습']",https://cdn.visitkorea.or.kr/img/call?cmd=VIEW&id=b64eae34-ef6f-4063-8d56-19b593cdf3dc&thumb,강원도 화천군 화천읍 상승로3길 22,38.1067605,127.7044047
107,정선아리랑 전수관,강원 정선군,033-560-2897,"['문화시설', '아이와 함께', '이색체험', '전통문화', '정선아리랑']",https://cdn.visitkorea.or.kr/img/call?cmd=VIEW&id=14b55de5-90d6-4195-871c-215ac76678a7&thumb,강원도 정선군 여량면 아우라지길 69,37.47574532,128.7243668
108,강원대학교중앙박물관,강원 춘천시,033-250-8076,"['강원권', '강원대학교박물관', '기차여행', '무료관람', '문화시설', '박물관', '실내여행지']",https://cdn.visitkorea.or.kr/img/call?cmd=VIEW&id=e010239b-7612-45de-9b28-58f056f6b8bb&thumb,강원도 춘천시 강원대학길 1,37.86802431,127.74838740000001
109,삼척문화원,강원 삼척시,033-573-2882,"['문화시설', '복합문화공간', '삼척문화원', '열린문화공간']",https://cdn.visitkorea.or.kr/img/call?cmd=VIEW&id=dd7cec24-3d28-40b6-a7bf-c5070be4e59c&thumb,강원도 삼척시 오십천로 408,37.44111821,129.1627621
110,한림대학교박물관,강원 춘천시,033-248-2851,"['강원권', '무료관람', '문화시설', '박물관', '서울근교여행', '실내여행지', '아이와함께']",https://cdn.visitkorea.or.kr/img/call?cmd=VIEW&id=1cf304bf-9ea9-4903-9610-d919a53196de&thumb,강원도 춘천시 한림대학길 1,37.88542866,127.73495729999999
111,동내도서관,강원 춘천시,033-245-5125,"['강원도', '도서관', '독서', '무장애', '문화시설', '춘천시']",https://cdn.visitkorea.or.kr/img/call?cmd=VIEW&id=eb8924af-fcd1-463f-8e00-c45fc76ebddb&thumb,강원도 춘천시 동내면 학곡동1길 17-4,37.83610363,127.7629175
112,소양도서관,강원 춘천시,033-245-5142,"['강원도', '도서', '도서관', '무장애', '문화시설', '시립', '춘천시']",https://cdn.visitkorea.or.kr/img/call?cmd=VIEW&id=3fa7bc74-9000-45fe-9bd4-035fc9dd6687&thumb,강원도 춘천시 삭주로145번길 69-8,37.89273428,127.7452892
113,내설악 백공미술관,강원 인제군,033-461-2780,"['강원권', '나홀로여행', '내설악백공미술관', '데이트코스', '문화시설', '문화예술공간']",https://cdn.visitkorea.or.kr/img/call?cmd=VIEW&id=5966701e-66a7-45e8-befa-796cbe1491b6&thumb,강원도 인제군 북면 황태길 245,38.2133718,128.3622348
114,홍천문화예술회관,강원 홍천군,033-439-5800,"['강원권', '문화시설', '복합문화공간', '열린문화공간', '홍천문화예술회관']",https://cdn.visitkorea.or.kr/img/call?cmd=VIEW&id=de642f93-6632-47f4-a6b2-2bb4eacc07e1&thumb,강원도 홍천군 홍천읍 설악로 1792,37.68896743,127.89547150000001
115,화천문화원,강원 화천군,033-442-2507,"['문화시설', '복합문화공간', '열린문화공간', '화천문화원']",https://cdn.visitkorea.or.kr/img/call?cmd=VIEW&id=b96415eb-7e43-4e68-9495-2069bc528f34&thumb,강원도 화천군 화천읍 상승로 91,38.10871906,127.7047633
116,고성교육도서관,강원 고성군,033-682-4886,"['강원권', '고성교육도서관', '문화시설', '아이와함께']",https://cdn.visitkorea.or.kr/img/call?cmd=VIEW&id=3f3f885f-4656-4214-b495-f0996728d507&thumb,강원도 고성군 거진읍 거탄진로29번길 7,38.43919194,128.4500537
117,호안다구박물관,강원 영월군,033-378-5779,"['강원권', '문화시설', '미식여행', '박물관', '역사공부', '역사속', '역사속으로']",https://cdn.visitkorea.or.kr/img/call?cmd=VIEW&id=a1074b81-95ee-4bb9-a754-4c52bdc83b67&thumb,강원도 영월군 김삿갓면 내리계곡로 1088,37.10579141,128.67705700000002
118,무릉고서화미술박물관,강원 원주시,033-763-1535,"['강원권', '고미술품', '교육체험', '무릉고서화미술박물관', '문화시설', '미술작품']",https://cdn.visitkorea.or.kr/img/call?cmd=VIEW&id=fc4d2fab-d103-4186-b4d5-a6e0d3c25aea&thumb,강원도 원주시 흥업면 사제로 399-10,37.32528094,127.8865608
119,강릉원주대학교 박물관,강원 강릉시,033-640-2596,"['강릉여행', '문화시설', '민속자료', '역사속으로', '역사이야기', '전시실', '전통&역사']",https://cdn.visitkorea.or.kr/img/call?cmd=VIEW&id=7a0400a2-a7fb-4016-be7c-b07d026dbf33&thumb,강원도 강릉시 죽헌길 7,37.76569493,128.8700048
120,양구팔랑민속관,강원 양구군,033-480-2653,"['문화시설', '민속놀이', '민속예술', '아이와 함께', '양구팔랑민속관', '전통문화']",https://cdn.visitkorea.or.kr/img/call?cmd=VIEW&id=b57ac148-a63c-4be6-8b60-76183ea0f08e&thumb,강원도 양구군 동면 바랑길158번길 5,38.2096687,128.0658656
121,횡성댐 물문화관,강원 횡성군,033-340-0255,"['문화시설', '횡성가볼만한곳', '횡성댐', '횡성댐물문화관']",https://cdn.visitkorea.or.kr/img/call?cmd=VIEW&id=43e41b01-44a3-4871-94bb-1e88649c103d&thumb,강원도 횡성군 갑천면 섬강로 1012,37.5424631,128.0382673
122,철원문화원,강원 철원군,033-452-6235,"['교육프로그램', '문화시설', '철원문화원']",https://cdn.visitkorea.or.kr/img/call?cmd=VIEW&id=366bacd7-83b6-4229-8ab0-7dbe70cc063f&thumb,강원도 철원군 갈말읍 삼부연로 42,38.14534032,127.31281969999999
123,남산도서관(춘천),강원 춘천시,033-262-2332,"['강원권', '문화시설', '아이와함께', '춘천남산도서관']",https://cdn.visitkorea.or.kr/img/call?cmd=VIEW&id=cdc38f6c-591a-42b2-9893-d60d4f4c6305&thumb,강원도 춘천시 남산면 강촌로 311,37.79319778,127.643318
124,마리소리골악기박물관,강원 홍천군,033-430-2437,"['가족과함께', '가족이색체험', '무더위_피해_실내여행', '문화센터', '문화시설']",https://cdn.visitkorea.or.kr/img/call?cmd=VIEW&id=dbf1f15c-e3bd-4cbc-9ec0-60857104717d&thumb,강원도 홍천군 서석면 마리소리길 207,37.73788994,128.2511229
125,양구문화원,강원 양구군,033-481-2681,"['강원권', '교육프로그램', '문화시설', '양구문화원']",https://cdn.visitkorea.or.kr/img/call?cmd=VIEW&id=de38bae7-3147-4ccf-ab5c-6e2533e77857&thumb,강원도 양구군 양구읍 비봉로73번길 52,38.10901005,127.9839223
126,황영조 기념관,강원 삼척시,033-576-0009,"['강원권', '기념관', '단체관람', '문화시설', '아이와함께', '연중무휴', '전통&역사문화체험']",https://cdn.visitkorea.or.kr/img/call?cmd=VIEW&id=b2af321a-efe2-4428-b82c-3933365d9777&thumb,강원도 삼척시 근덕면 초곡길 176,37.30726311,129.2947313
127,이상원미술관,강원 춘천시,033-255-9001,"['문화시설', '야외전시', '이상원미술관', '춘천가볼만한곳']",https://cdn.visitkorea.or.kr/img/call?cmd=VIEW&id=64b3fe35-e564-486a-8d1e-7713260aa78d&thumb,강원도 춘천시 사북면 화악지암길 99,37.96832347,127.57835220000001
128,홍천문화원,강원 홍천군,033-434-2080,"['문화시설', '문화예술', '열린문화공간', '홍천문화원']",https://cdn.visitkorea.or.kr/img/call?cmd=VIEW&id=null&thumb,강원도 홍천군 홍천읍 연봉중앙로 11-8,37.68195853,127.87427350000002
129,억새전시관,강원 정선군,033-591-1004,"['공예품', '문화시설', '아이와함께', '역사를품은곳', '역사속', '역사속으로', '역사이야기']",https://cdn.visitkorea.or.kr/img/call?cmd=VIEW&id=d36a69cf-1a4b-43ba-99f2-877727144d3a&thumb,강원도 정선군 남면 칠현로 83,37.26932409,128.73976399999998
130,남이섬 류지움 (류홍쥔 세계민족악기전시관),강원 춘천시,031-580-8193,"['남이섬', '남이섬류지움', '문화시설', '세계민족악기전시관', '춘천가볼만한곳']",https://cdn.visitkorea.or.kr/img/call?cmd=VIEW&id=d97537f6-144b-431d-91e5-b97b07e9506a&thumb,강원도 춘천시 남산면 남이섬길 1,37.79012495,127.5261287
131,인제문화원,강원 인제군,033-461-6678,"['문화강좌', '문화시설', '열린문화공간', '인제문화원']",https://cdn.visitkorea.or.kr/img/call?cmd=VIEW&id=null&thumb,강원도 인제군 인제읍 비봉로44번길 100,38.06067411,128.164952
132,도계유리나라,강원 삼척시,033-570-4206,"['가족', '공예', '문화시설', '수학여행', '유리', '재생산업', '체험']",https://cdn.visitkorea.or.kr/img/call?cmd=VIEW&id=0511f9a5-96bb-42dd-8467-fcd7151b67ba&thumb,강원도 삼척시 도계읍 강원남부로 893-36,37.19371311,129.0321752
133,강원도 탄광문화촌,강원 영월군,033-372-1520,"['가족체험여행', '강원권', '강원도탄광문화촌', '관광지', '미세먼지_피하는_실내여행']",https://cdn.visitkorea.or.kr/img/call?cmd=VIEW&id=1afcb975-dce1-4199-89c7-422ed13609d2&thumb,강원도 영월군 북면 밤재로 351,37.2631059,128.4669049
134,고성 DMZ박물관,강원 고성군,033-681-0625,"['DMZ여행', '강원권', '겨울방학가볼만한곳', '고성DMZ박물관', '문화시설', '미세먼지_피하는_실내여행']",https://cdn.visitkorea.or.kr/img/call?cmd=VIEW&id=14a8ba68-ec41-4605-ac23-9d8091b4e179&thumb,강원도 고성군 현내면 통일전망대로 369,38.57624688,128.3825278
135,속초시립박물관·속초실향민문화촌,강원 속초시,033-639-2978,"['강원권', '교과서속여행', '문화시설', '미세먼지_피하는_실내여행', '박물관']",https://cdn.visitkorea.or.kr/img/call?cmd=VIEW&id=f3b81fba-c3bd-4d8c-8e28-30f04c1c44cc&thumb,강원도 속초시 신흥2길 16,38.20105323,128.5382041
136,강릉시 오죽헌/시립박물관,강원 강릉시,033-660-3301,"['강릉시시립박물관', '강릉시오죽헌', '강원권', '교과서속여행', '문화시설', '미세먼지_피하는_실내여행']",https://cdn.visitkorea.or.kr/img/call?cmd=VIEW&id=a259f950-c527-40f9-9932-050151f183cc&thumb,강원도 강릉시 율곡로3139번길 24,37.77830804,128.8767146
137,속초스파랜드,강원 속초시,033-638-9926,"['가족여행', '강원권', '관광지', '데이트코스', '목욕탕', '사계절', '속초스파랜드']",https://cdn.visitkorea.or.kr/img/call?cmd=VIEW&id=e6c9a58e-2150-4286-be87-29b69cc9d8e3&thumb,강원도 속초시 미시령로3359번길 20,38.20711811,128.5746015
138,이효석 문학관,강원 평창군,033-330-2700,"['가족여행', '강원권', '기념관', '기차여행', '단체관람', '무장애', '문화시설', '미세먼지_피하는_실내여행']",https://cdn.visitkorea.or.kr/img/call?cmd=VIEW&id=96306636-061e-460d-a8f8-edcc6c3190d2&thumb,강원도 평창군 봉평면 효석문학길 73-25,37.61317497,128.37011529999998
139,"홍천테마파크(구, 예술촌)",강원 홍천군,033-436-1988,"['가족여행', '관광지', '남녀노소', '사계절', '산책하기', '산책하기좋은곳', '실내여행지']",https://cdn.visitkorea.or.kr/img/call?cmd=VIEW&id=8364df58-ece3-4f70-a806-16e97f46e35a&thumb,강원도 홍천군 서석면 구룡령로 2800-22,37.70435935,128.214896
140,태백 고생대자연사박물관,강원 태백시,033-581-3003,"['강원권', '교과서속여행', '문화시설', '미세먼지_피하는_실내여행', '박물관']",https://cdn.visitkorea.or.kr/img/call?cmd=VIEW&id=9e9f97ec-19dd-4d72-9f36-5d2a2ffbc915&thumb,강원도 태백시 태백로 2249,37.0948994,129.03963190000002
141,평창무이예술관,강원 평창군,033-335-4118,"['가족여행', '강원권', '기차여행', '데이트코스', '문화시설', '미술관', '실내여행지']",https://cdn.visitkorea.or.kr/img/call?cmd=VIEW&id=30bf770c-3f8f-43e6-8edc-cbfb8411c24c&thumb,강원도 평창군 봉평면 사리평길 233,37.61527565,128.3487846
142,오산리선사유적박물관,강원 양양군,033-670-2442,"['강원권', '교과서속여행', '문화시설', '박물관', '실내여행지', '아이와함께', '오산리선사유적박물관']",https://cdn.visitkorea.or.kr/img/call?cmd=VIEW&id=f4d562b2-aea9-4416-8863-108c462786f0&thumb,강원도 양양군 손양면 학포길 33,38.08589573,128.6604739
143,춘천막국수체험박물관,강원 춘천시,033-244-8869,"['강원권', '교과서속여행', '문화시설', '박물관', '사계절', '실내여행지', '아이와함께']",https://cdn.visitkorea.or.kr/img/call?cmd=VIEW&id=aa7d31f5-80ca-44ca-bea1-dd068df0e391&thumb,강원도 춘천시 신북읍 신북로 264,37.94879306,127.7497799
144,강원도 산림박물관,강원 춘천시,033-248-6685,"['강원권', '강원도산림박물관', '교과서속여행', '문화시설', '박물관', '사계절']",https://cdn.visitkorea.or.kr/img/call?cmd=VIEW&id=e0b62802-f54a-48ba-b035-235ed4934e17&thumb,강원도 춘천시 화목원길 24,37.92264687,127.7251595
145,에티오피아 한국전 참전기념관,강원 춘천시,033-240-7649,"['강원권', '교과서속여행', '기념관', '문화시설', '미세먼지_피하는_실내여행']",https://cdn.visitkorea.or.kr/img/call?cmd=VIEW&id=865ba02a-3477-4044-ab8f-284b670d1807&thumb,강원도 춘천시 이디오피아길 1,37.8737992,127.7117888
146,화진포생태박물관,강원 고성군,033-681-8311,"['가족여행', '강원권', '교과서속여행', '문화시설', '미세먼지_피하는_실내여행']",https://cdn.visitkorea.or.kr/img/call?cmd=VIEW&id=4c544d75-ad66-40db-8ab5-4fc831637b24&thumb,강원도 고성군 거진읍 화진포길 278,38.47218738,128.4436214
147,진부령미술관,강원 고성군,033-681-7667,"['강원권', '문화시설', '미세먼지_피하는_실내여행', '미술관', '실내관광지', '실내여행지']",https://cdn.visitkorea.or.kr/img/call?cmd=VIEW&id=4b2a4cd0-9a22-40e3-8cb8-a176f6b0bf86&thumb,강원도 고성군 간성읍 흘리길 15-10,38.26547302,128.359622
148,태백시 문화예술회관,강원 태백시,033-550-2781,"['가족여행', '강원권', '공연장', '문화시설', '사계절', '실내여행지', '예술', '태백시문화예술회관']",https://cdn.visitkorea.or.kr/img/call?cmd=VIEW&id=2447af79-c284-4bc7-9a54-a19d04435579&thumb,강원도 태백시 고원로 203,37.17196057,128.98803940000002
149,강원 신재생에너지전시관,강원 평창군,033-336-5008,"['강원권', '강원신재생에너지전시관', '교과서속여행', '문화시설', '사계절', '실내여행지']",https://cdn.visitkorea.or.kr/img/call?cmd=VIEW&id=4e78b540-0974-43fe-bfff-95b85a38a8fe&thumb,강원도 평창군 대관령면 경강로 5754,37.68552302,128.7583027
150,국립춘천박물관,강원 춘천시,033-260-1500,"['강원권', '교과서속여행', '국립춘천박물관', '기차여행', '문화시설', '미세먼지_피하는_실내여행']",https://cdn.visitkorea.or.kr/img/call?cmd=VIEW&id=15496bfd-78b6-4b02-ae3c-ea949137f043&thumb,강원도 춘천시 우석로 70,37.86401877,127.7521907
151,숲사랑홍보관,강원 강릉시,033-644-4852,"['강원권', '교과서속여행', '문화시설', '사계절', '숲사랑홍보관', '실내여행지']",https://cdn.visitkorea.or.kr/img/call?cmd=VIEW&id=a9c966db-ddd2-4694-9d48-a4c8f0dc664f&thumb,강원도 강릉시 사천면 미노길 1,37.81715301,128.85131869999998
152,동강사진박물관,강원 영월군,033-375-4554,"['강원권', '교과서속여행', '동강사진박물관', '문화시설', '미세먼지_피하는_실내여행']",https://cdn.visitkorea.or.kr/img/call?cmd=VIEW&id=edc8da93-ecdd-4c0e-bd38-94971e8aae13&thumb,강원도 영월군 영월읍 영월로 1909-10,37.18193994,128.46155109999998
153,커피커퍼 커피박물관,강원 강릉시,070-8888-0077,"['가족과함께', '강릉커피', '강릉커피거리', '강릉커피박물관', '미세먼지_피하는_실내여행']",https://cdn.visitkorea.or.kr/img/call?cmd=VIEW&id=21ad0dee-071f-4d0a-a7de-cbd06fc69043&thumb,강원도 강릉시 왕산면 왕산로 2171-19,37.65223553,128.784661
154,양구통일관,강원 양구군,033-480-2674,"['강원권', '교과서속여행', '문화시설', '실내여행지', '아이와함께', '양구통일관']",https://cdn.visitkorea.or.kr/img/call?cmd=VIEW&id=1fdef121-59dc-40ba-b1da-ecc24e402fba&thumb,강원도 양구군 해안면 해안서화로 35,38.2900609,128.1455851
155,홍천교육도서관,강원 홍천군,033-434-3236,"['강원권', '도서관', '문화시설', '사계절', '실내여행지', '아이와함께', '체험학습']",https://cdn.visitkorea.or.kr/img/call?cmd=VIEW&id=4b39aa33-afba-419c-8a5d-b8df701abf7f&thumb,강원도 홍천군 홍천읍 꽃뫼로 93,37.69179363,127.8838503
156,화천교육도서관,강원 화천군,033-441-6343,"['강원권', '도서관', '문화시설', '사계절', '실내여행지', '아이와함께', '체험학습']",https://cdn.visitkorea.or.kr/img/call?cmd=VIEW&id=b64eae34-ef6f-4063-8d56-19b593cdf3dc&thumb,강원도 화천군 화천읍 상승로3길 22,38.1067605,127.7044047
157,강원대학교중앙박물관,강원 춘천시,033-250-8076,"['강원권', '강원대학교박물관', '기차여행', '무료관람', '문화시설', '박물관', '실내여행지']",https://cdn.visitkorea.or.kr/img/call?cmd=VIEW&id=e010239b-7612-45de-9b28-58f056f6b8bb&thumb,강원도 춘천시 강원대학길 1,37.86802431,127.7483874
158,한림대학교박물관,강원 춘천시,033-248-2851,"['강원권', '무료관람', '문화시설', '박물관', '서울근교여행', '실내여행지', '아이와함께']",https://cdn.visitkorea.or.kr/img/call?cmd=VIEW&id=1cf304bf-9ea9-4903-9610-d919a53196de&thumb,강원도 춘천시 한림대학길 1,37.88542866,127.7349573
159,내설악 백공미술관,강원 인제군,033-461-2780,"['강원권', '나홀로여행', '내설악백공미술관', '데이트코스', '문화시설', '문화예술공간']",https://cdn.visitkorea.or.kr/img/call?cmd=VIEW&id=5966701e-66a7-45e8-befa-796cbe1491b6&thumb,강원도 인제군 북면 황태길 245,38.2133718,128.3622348
160,동해 논골담길 (등대 담화마을),강원 동해시,033-530-2231,"['가족여행', '강원권', '레포츠', '산책코스', '언택트관광지_100선', '주말여행']",https://cdn.visitkorea.or.kr/img/call?cmd=VIEW&id=f1e7e482-3aaa-49ad-b092-3d3845090ce0&thumb,강원도 동해시 일출로 97,37.55216582,129.1183172
161,속초 외옹치 바다향기로,강원 속초시,033-639-2362,"['걷기길', '레포츠', '외옹치바다향기로', '트레킹', '해안길산책', '힐링산책']",https://cdn.visitkorea.or.kr/img/call?cmd=VIEW&id=d68d3eb4-4ced-4d51-a46c-415613ed98eb&thumb,강원도 속초시 대포항길 186,38.18061259,128.6127912
162,서피비치,강원 양양군,033-672-0695,"['강원권', '레포츠', '서피비치', '서핑', '캠핑', '해변가']",https://cdn.visitkorea.or.kr/img/call?cmd=VIEW&id=e23adeef-4055-4d3b-8a9e-4753c2925579&thumb,강원도 양양군 현북면 하조대해안길 119,38.02775348,128.7175212
163,오대산 선재길,강원 평창군,033-332-6417,"['강원권', '걷기여행', '레포츠', '산림욕', '오대산선재길', '자연']",https://cdn.visitkorea.or.kr/img/call?cmd=VIEW&id=8c3dfdc6-02dd-41de-ad3d-47deb173b4e0&thumb,강원도 평창군 진부면 오대산로 374-8,37.73167848,128.59313640000002
164,정동심곡바다부채길,강원 강릉시,033-641-9445,"['동해바다', '레포츠', '무장애', '바다여행', '바다풍경', '천연기념물']",https://cdn.visitkorea.or.kr/img/call?cmd=VIEW&id=040ab8fa-b966-4427-b920-93e5eecb06e6&thumb,강원도 강릉시 강동면,37.72809432,128.9542264
165,정선레일바이크,강원 정선군,033-563-8787,"['데이트코스', '레일바이크', '레포츠', '아이와함께', '연인과함께', '친구와함께']",https://cdn.visitkorea.or.kr/img/call?cmd=VIEW&id=6075da2d-7a8d-41b4-80d1-bc7658e5b5ac&thumb,강원도 정선군 여량면 노추산로 745,37.5170461,128.7304317
166,강릉컬링센터 (강릉실내빙상장),강원 강릉시,033-647-8388,"['2018평창동계올림픽', '가족과함께', '강릉시', '겨울스포츠', '남녀노소', '레저스포츠']",https://cdn.visitkorea.or.kr/img/call?cmd=VIEW&id=87b2005d-bc9c-445f-b85f-f229dc7a01a4&thumb,강원도 강릉시 종합운동장길 32,37.77372394,128.8925583
167,춘천 의암호 자전거길(물레길),강원 춘천시,033-250-3089,"['강원권', '레포츠', '언택트관광지_100선', '자전거길', '휴양여행', '힐링']",https://cdn.visitkorea.or.kr/img/call?cmd=VIEW&id=5bb743d8-35f7-4282-a943-07ce0010ce5d&thumb,강원도 춘천시 스포츠타운길 113-1,37.85496429,127.6857679
168,매봉힐링쉼터 오토캠핑장,강원 원주시,033-761-2282,['레포츠'],https://cdn.visitkorea.or.kr/img/call?cmd=VIEW&id=bad86d9d-66a2-4548-b751-00d63e69d1a6&thumb,강원도 원주시 신림면 창촌길 132,37.26059982,128.13873590000003
169,삼척 해양레일바이크,강원 삼척시,033-576-0656,"['2014', '가족과함께', '강원권', '레포츠', '문화관광자원 부문', '바다풍경', '삼척해양레일바이크']",https://cdn.visitkorea.or.kr/img/call?cmd=VIEW&id=74c7c51e-65a3-464c-bf73-ecf4e085bea6&thumb,강원도 삼척시 근덕면 공양왕길 2,37.32364924,129.2663648
170,무릉계곡 힐링캠핑장,강원 동해시,033-539-3700,"['가족캠핑', '동해캠핑장', '레포츠', '무릉계곡', '숲속캠핑']",https://cdn.visitkorea.or.kr/img/call?cmd=VIEW&id=0de0c59c-f2ef-4470-b9ab-71deaaf04712&thumb,강원도 동해시 삼화로 467,37.46439798,129.0265553
171,춘천물레길,강원 춘천시,033-242-8463,"['강원권', '레포츠', '서울근교여행', '수상레포츠', '아이와함께', '아이와함께']",https://cdn.visitkorea.or.kr/img/call?cmd=VIEW&id=c7c87596-2e0c-470f-9265-45578070b26d&thumb,강원도 춘천시 스포츠타운길 113-1,37.85496429,127.6857679
172,화천 파로호 자전거 100리길,강원 화천군,033-440-2557,"['강원권', '레포츠', '화천파로호자전거100리길', '휴양여행', '힐링']",https://cdn.visitkorea.or.kr/img/call?cmd=VIEW&id=37290d46-140b-412d-aa16-2171f1893fae&thumb,강원도 화천군 하남면 춘화로 3331-50,38.09647885,127.69959080000001
173,송지호 오토캠핑장,강원 고성군,033-681-5244,"['가족과함께', '레포츠', '송지호', '아이와함께', '오토캠핑장', '휴식여행']",https://cdn.visitkorea.or.kr/img/call?cmd=VIEW&id=89b7ad74-a49b-49ca-a560-0448388a5924&thumb,강원도 고성군 죽왕면 동해대로 6090,38.34277885,128.5131604
174,화이트캐빈,강원 평창군,033-333-7444,"['겨울스포츠', '레포츠', '복합레저스포츠', '숙박업소', '스키대여', '스키렌탈']",https://cdn.visitkorea.or.kr/img/call?cmd=VIEW&id=ac4f7bdd-c438-4ddf-bbaf-6e5a7f3ede6a&thumb,강원도 평창군 봉평면 태기로 93,37.58771675,128.3216319
175,정동진 레일바이크,강원 강릉시,033-655-7786,"['강릉가볼만한곳', '경치좋은곳', '레포츠', '바다경치', '바다내음', '아이와함께']",https://cdn.visitkorea.or.kr/img/call?cmd=VIEW&id=45c12ce7-4a04-474d-81b7-71053df8d7b1&thumb,강원도 강릉시 강동면 정동역길 17,37.6913387,129.0328303
176,인제나르샤파크(구. 인제 밀리터리 테마파크),강원 인제군,033-461-0141,"['강원권', '레포츠', '레포츠여행', '레포츠체험', '번지점프', '서바이벌', '이색체험']",https://cdn.visitkorea.or.kr/img/call?cmd=VIEW&id=b7ee3a77-bd88-48ba-8902-120e9b5a488b&thumb,강원도 인제군 인제읍 비봉로44번길 81,38.06007315,128.1679637
177,강원도 세계잼버리 수련장,강원 고성군,033-633-8107,"['강원권', '강원도세계잼버리수련장', '국제대회', '레포츠', '세계잼버리', '수련장']",https://cdn.visitkorea.or.kr/img/call?cmd=VIEW&id=b0f563d0-fe13-400b-860f-988aca3f6409&thumb,강원도 고성군 토성면 잼버리로 244,38.22362848,128.5001397
178,분주령야생화 트레킹,강원 태백시,033-550-0000,"['레포츠', '자연여행', '트레킹', '휴식여행']",https://cdn.visitkorea.or.kr/img/call?cmd=VIEW&id=72d0a7f5-8477-4dc0-a67e-0534b9a7ca8f&thumb,강원도 태백시 화전동,37.20157912,128.9420334
179,화암카트체험장,강원 정선군,033-560-3419,"['가족체험', '경치좋은곳', '남녀노소', '레포츠', '연인과함께', '이색체험', '자연좋은곳']",https://cdn.visitkorea.or.kr/img/call?cmd=VIEW&id=662696be-ccce-4920-b898-caf4899f9a7c&thumb,강원도 정선군 화암면 소금강로 973,37.34909317,128.7876859
180,강릉 올림픽파크,강원 강릉시,033-640-5946,"['강릉종합운동장', '레포츠', '빙상장', '산책하기좋은곳', '스케이팅', '아이스하키']",https://cdn.visitkorea.or.kr/img/call?cmd=VIEW&id=6ab75b1d-7228-4178-9c38-73dcbc5412f7&thumb,강원도 강릉시 수리골길 76,37.77705623,128.8969607
181,동해시 바다낚시,강원 동해시,033-539-8656,"['강원권', '동해시바다낚시', '레포츠', '자연좋은곳']",https://cdn.visitkorea.or.kr/img/call?cmd=VIEW&id=588e5c0a-c6f1-453c-b28d-32a9a37bd29f&thumb,강원도 동해시 동해대로 6270-10,37.59225327,129.0896922
182,덕풍계곡 트레킹,강원 삼척시,033-570-5221,"['가족여행', '강원권', '덕풍계곡트레킹', '레포츠', '여름가볼만한곳', '여름여행']",https://cdn.visitkorea.or.kr/img/call?cmd=VIEW&id=4a2ab7bf-759d-4af1-b0c2-bdfc48be0c3e&thumb,강원도 삼척시 가곡면 풍곡리,37.08903333,129.1634262
183,내린천 짚트랙 휴레저,강원 인제군,,"['가족여행', '강원권', '내린천짚트랙휴레저', '레포츠', '힐링']",https://cdn.visitkorea.or.kr/img/call?cmd=VIEW&id=352ac637-da09-4b06-81bb-a11525b4acaa&thumb,강원도 인제군 인제읍 내린천로 5693,38.00988909,128.2392314
184,[강릉 바우길 1구간] 선자령 풍차길,강원 평창군,033-645-0990,"['가족과함께', '강원권', '레포츠', '선자령풍차길']",https://cdn.visitkorea.or.kr/img/call?cmd=VIEW&id=74505d7f-e243-4598-ab49-b582bafeb6cc&thumb,강원도 평창군 대관령면 경강로 5754,37.68552302,128.7583027
185,강촌레일파크,강원 춘천시,033-245-1000,"['가족여행', '강원권', '강촌레일파크', '레포츠']",https://cdn.visitkorea.or.kr/img/call?cmd=VIEW&id=7122ceb5-012d-433a-8a8a-9056e7dc5e4d&thumb,강원도 춘천시 신동면 김유정로 1383,37.81564654,127.7121815
186,노추산 모정탑길,강원 강릉시,033-647-2540,['레포츠'],https://cdn.visitkorea.or.kr/img/call?cmd=VIEW&id=72a3caa4-3b90-4510-b84b-836805de994a&thumb,강원도 강릉시 왕산면 노추산로,37.56051411,128.71669939999998
187,델피노 CC (대명 델피노),강원 고성군,033-639-8401,"['강원권', '골프장', '델피노CC', '레포츠']",https://cdn.visitkorea.or.kr/img/call?cmd=VIEW&id=f2537099-0874-47d8-950e-cde44de92744&thumb,강원도 고성군 토성면 미시령옛길 1153,38.21312066,128.493436
188,하이원리조트 스키장,강원 정선군,1588-7789,"['가족과함께', '강원권', '겨울스포츠', '레포츠', '스키장', '친구와함께', '하이원리조트']",https://cdn.visitkorea.or.kr/img/call?cmd=VIEW&id=64377543-16b0-4c55-9b62-289ad7011c35&thumb,강원도 정선군 고한읍 하이원길 500,37.20393887,128.8394697
189,칠족령 트레킹,강원 평창군,033-330-2399,"['경치좋은곳', '레포츠', '산책길', '산책하기', '산책하기좋은곳', '자연속으로']",https://cdn.visitkorea.or.kr/img/call?cmd=VIEW&id=06c5c1bc-c022-4f36-beb9-5191edf63429&thumb,강원도 평창군 미탄면 문희길 63,37.27786222,128.5770659
190,평창 포레스트 어드벤처,강원 평창군,033-333-8138,"['레포츠', '모험심', '문화활동', '어드벤처', '체험활동', '친구와함께', '휘닉스파크']",https://cdn.visitkorea.or.kr/img/call?cmd=VIEW&id=b1540fce-44b8-4a78-90b4-b39ea45496ff&thumb,강원도 평창군 봉평면 태기로 174,37.58246341,128.3268678
191,엑스게임리조트(내린천 번지점프),강원 인제군,033-461-5216,"['가족여행', '강원권', '내린천번지점프', '레포츠', '번지점프', '엑스게임리조트']",https://cdn.visitkorea.or.kr/img/call?cmd=VIEW&id=3617078f-a1e8-49a4-a386-fe396cb41a60&thumb,강원도 인제군 인제읍 설악로 2254,38.07759867,128.1861034
192,홍천 가리산 레포츠파크,강원 홍천군,070-8831-8138,"['가족과함께', '남녀노소', '레포츠', '레포츠파크', '복합레저스포츠', '아이와함께']",https://cdn.visitkorea.or.kr/img/call?cmd=VIEW&id=ab4523fe-6f01-49f8-9709-602861bc278a&thumb,강원도 홍천군 두촌면 가리산길 426,37.86563579999999,127.9811498
193,알펜시아리조트 스키장,강원 평창군,02-2202-3433,"['가족과함께', '겨울레포츠', '레포츠', '복합레저스포츠', '스키장', '알펜시아']",https://cdn.visitkorea.or.kr/img/call?cmd=VIEW&id=6b1543bb-b3f5-4450-adb1-591a22699c47&thumb,강원도 평창군 대관령면 솔봉로 325,37.65925417,128.68401070000002
194,[강릉 바우길 2구간] 대관령 옛길,강원 평창군,033-645-0990,"['가족여행', '강원권', '대관령옛길', '레포츠']",https://cdn.visitkorea.or.kr/img/call?cmd=VIEW&id=88e10d27-75b9-4b86-a5ff-0bc3198f623f&thumb,강원도 평창군 대관령면 경강로 5754,37.68552302,128.7583027
195,휘닉스 태기산CC,강원 평창군,1577-0755,"['골프', '레포츠', '평창', '휘닉스', '휘닉스파크태기산']",https://cdn.visitkorea.or.kr/img/call?cmd=VIEW&id=2a67b6cb-8e7e-423d-ac88-c3693b47873b&thumb,강원도 평창군 봉평면 태기로 174,37.58246341,128.3268678
196,용평리조트 스키장,강원 평창군,1588-0009,"['가족과함께', '강원권', '겨을 스포츠', '레포츠', '스키장', '용평리조트', '친구와함께']",https://cdn.visitkorea.or.kr/img/call?cmd=VIEW&id=aff2dce9-809f-4ca3-9e25-fdce6d53ae67&thumb,강원도 평창군 대관령면 올림픽로 715,37.65094444,128.7055569
197,인제스피디움리조트 서킷,강원 인제군,1644-3366,"['레이싱', '레포츠', '이색체험', '인제스피디움리조트']",https://cdn.visitkorea.or.kr/img/call?cmd=VIEW&id=2b610aac-6303-4473-865d-d3de4eee81f2&thumb,강원도 인제군 기린면 상하답로 130,38.00260361,128.29538459999998
198,알프스벨리 사계절썰매장,강원 춘천시,080-3030-2580,"['겨울스포츠', '눈썰매장', '레포츠', '복합레저스포츠', '사계절', '사계절썰매장']",https://cdn.visitkorea.or.kr/img/call?cmd=VIEW&id=0fc54e01-5cff-4528-9610-c2e3c523a34e&thumb,강원도 춘천시 사북면 화악지암길 322-65,37.973130600000005,127.59825829999998
199,대명 비발디파크 눈썰매장,강원 홍천군,1588-4888,['레포츠'],https://cdn.visitkorea.or.kr/img/call?cmd=VIEW&id=5d9bd879-6003-4f47-897b-75e899babf5b&thumb,강원도 홍천군 서면 한치골길 262,37.65233706,127.6873348
200,원주레일파크,강원 원주시,033-733-6600,"['가족여행', '강원권', '레포츠', '원주레일파크', '이색체험', '자녀와함께']",https://cdn.visitkorea.or.kr/img/call?cmd=VIEW&id=406a45f4-22cc-4171-8072-0244a24e6a84&thumb,강원도 원주시 지정면 간현로 163,37.3630494,127.8372631
201,한탄강번지점프(코리아레저),강원 철원군,1577-5759,"['레저', '레포츠', '번지점프', '스릴', '철원군', '한탄강']",https://cdn.visitkorea.or.kr/img/call?cmd=VIEW&id=91a5be56-0cef-4ab4-9f3d-97e98e3bc148&thumb,강원도 철원군 갈말읍 태봉대교길 153,38.20563584,127.2693067
202,DMZ 평화의길(고성 A/B코스),강원 고성군,1644-1306,"['DMZ평화의길', '가족과함께', '고성DMZ', '교육여행', '레포츠', '아이와함께']",https://cdn.visitkorea.or.kr/img/call?cmd=VIEW&id=48bdc0f4-29ee-4e28-ac4a-6be992d953e8&thumb,강원도 고성군 현내면 금강산로 481,38.51438609,128.416703
203,순담계곡,강원 철원군,033-450-5365,"['강원권', '계곡', '관광지', '레포츠', '순담계곡', '자연']",https://cdn.visitkorea.or.kr/img/call?cmd=VIEW&id=ecd1a3e6-ee7b-40a2-bfbb-e1402285d584&thumb,강원도 철원군 갈말읍 순담길 143-3,38.177098,127.29814099999999
204,휘닉스 스노우파크,강원 평창군,1588-2828,"['가족과함께', '겨울 스포츠', '레포츠', '복합레저스포츠', '스키장', '익스트림스포츠']",https://cdn.visitkorea.or.kr/img/call?cmd=VIEW&id=8eb3bc54-52f3-4c0b-bbb5-34bfc711ff11&thumb,강원도 평창군 봉평면 태기로 174,37.58246341,128.3268678
205,강원랜드 카지노,강원 정선군,1588-7789,"['강원랜드', '레포츠', '이색체험', '정선가볼만한곳', '종합레저', '카지노', '휴식여행']",https://cdn.visitkorea.or.kr/img/call?cmd=VIEW&id=0a6ae8a9-8824-4778-8ed0-c4fcfcff10bd&thumb,강원도 정선군 사북읍 하이원길 265,37.21187405,128.8214537
206,의암호,강원 춘천시,033-260-5221,"['낚시', '레포츠', '붕어', '얼음낚시', '의암호']",https://cdn.visitkorea.or.kr/img/call?cmd=VIEW&id=fc9ca4a7-fb2e-4f1d-beed-8db11188073e&thumb,강원도 춘천시 신동면 옛경춘로 114,37.83741091,127.67740390000002
207,강촌 자전거 하이킹,강원 춘천시,033-250-3089,"['강촌역', '강촌자전거하이킹', '경치좋은곳', '남녀노소', '레포츠', '자유여행']",https://cdn.visitkorea.or.kr/img/call?cmd=VIEW&id=15abf5a1-c9f1-4045-83fb-f749c5a1a601&thumb,강원도 춘천시 남산면 강촌로 150,37.80580644,127.634126
208,영월에코빌리지 유스호스텔,강원 영월군,033-375-6800,"['강원권', '레포츠', '자연좋은곳', '지구를살리는_맑은여정_에코 투어', '청소년수련원']",https://cdn.visitkorea.or.kr/img/call?cmd=VIEW&id=b0982457-6104-4116-83f6-6ff77a464df7&thumb,강원도 영월군 영월읍 동강로 716,37.22820572,128.505455
209,엘리시안 강촌 컨트리클럽,강원 춘천시,033-260-2000,['레포츠'],https://cdn.visitkorea.or.kr/img/call?cmd=VIEW&id=363b0907-b557-41a5-b13d-1a3592eed878&thumb,강원도 춘천시 남산면 북한강변길 688,37.83001982,127.57862320000001
210,횡성스포랜드,강원 횡성군,033-344-2500,"['강원권', '레포츠', '사격장', '횡성스포랜드']",https://cdn.visitkorea.or.kr/img/call?cmd=VIEW&id=4a3b3bfb-ecb5-447a-bc96-7c009112b4a0&thumb,강원도 횡성군 공근면 금계로 380-57,37.56154865,127.98683999999999
211,초곡 용굴촛대바위길,강원 삼척시,033-575-4605,"['가족과함께', '레포츠', '바다경치', '아이와함께', '연인과함께', '트레킹', '해안길산책']",https://cdn.visitkorea.or.kr/img/call?cmd=VIEW&id=8983c779-d2e7-4bef-9279-ea97acbb0ac1&thumb,강원도 삼척시 근덕면 초곡길 236-4,37.30964672,129.29477409999998
212,횡성호수길,강원 횡성군,033-340-2546,"['남녀노소', '레포츠', '산책로', '휴식하기좋은곳', '힐링산책']",https://cdn.visitkorea.or.kr/img/call?cmd=VIEW&id=1c0597c6-df4d-4871-b4ca-5b7bdea559c9&thumb,강원도 횡성군 갑천면 태기로구방5길 40,37.54555631,128.0670139
213,삼척항 - 새천년도로변,강원 삼척시,033-575-1330,['레포츠'],https://cdn.visitkorea.or.kr/img/call?cmd=VIEW&id=bfefff30-64e4-47bf-b2f9-df39f7887b6d&thumb,강원도 삼척시 삼척항길 196,37.43618802,129.1881603
214,[강릉 바우길 6구간] 굴산사 가는 길,강원 강릉시,033-645-0990,"['강릉바우길', '강원권', '걷기길', '굴산사', '레포츠']",https://cdn.visitkorea.or.kr/img/call?cmd=VIEW&id=e5231f59-f2b1-4e80-91ad-2588df261d89&thumb,강원도 강릉시 남항진동,37.75885178,128.9555711
215,만항재,강원 태백시,033-550-2828,"['레포츠', '산책코스', '야생화군락지', '트레킹']",https://cdn.visitkorea.or.kr/img/call?cmd=VIEW&id=d76570f8-988a-4647-a3fd-dd7f4e1e0d70&thumb,강원도 태백시 혈동,37.11756555,128.9095094
216,오크밸리스키장,강원 원주시,033-769-7070,"['가족과함께', '강원권', '겨울스포츠', '레포츠', '스키장', '친구와함께', '한솔오크밸리']",https://cdn.visitkorea.or.kr/img/call?cmd=VIEW&id=98805e66-fb2b-48cf-be8d-6e0270ec5147&thumb,강원도 원주시 지정면 오크밸리2길 58,37.40780168,127.8089639
217,비발디파크 스키월드,강원 홍천군,1588-4888,"['가족과함께', '겨울 스포츠', '레포츠', '복합레저스포츠', '스키장', '스키장', '익스트림스포츠']",https://cdn.visitkorea.or.kr/img/call?cmd=VIEW&id=587b77d1-becb-4248-a69e-d92ec23cc6d9&thumb,강원도 홍천군 서면 한치골길 262,37.65233706,127.6873348
218,섬지골 캠핑장,강원 영월군,070-8843-0045,"['가족과함께', '가족캠핑', '레포츠', '숲속캠핑', '영월캠핑장', '캠핑장']",https://cdn.visitkorea.or.kr/img/call?cmd=VIEW&id=5bbe9799-e9ea-4914-bc4f-a81d241bd4f3&thumb,강원도 영월군 상동읍 섬지골길 19,37.12232414,128.7451699
219,원주종합체육관,강원 원주시,033-737-4758,"['강원권', '레포츠', '실내체육관', '원주종합체육관']",https://cdn.visitkorea.or.kr/img/call?cmd=VIEW&id=0eae5a52-24fc-4fcd-a0ec-cad288ee1e7d&thumb,강원도 원주시 서원대로 281,37.33906197,127.94191509999999
220,한스캠핑장,강원 원주시,033-766-7930,"['가족캠핑', '레포츠', '원주캠핑장', '자연친화적']",https://cdn.visitkorea.or.kr/img/call?cmd=VIEW&id=50c6f91d-8f0f-48c6-a607-a62eaa4a1af0&thumb,강원도 원주시 신림면 신림황둔로 1072,37.25501531,128.1783589
221,주문진 방파제,강원 강릉시,033-640-4535,"['강릉바다낚시', '강원권', '레포츠', '바다낚시', '주문진낚시']",https://cdn.visitkorea.or.kr/img/call?cmd=VIEW&id=d49b2fdf-c4d4-4169-8966-ef28abfea7dd&thumb,강원도 강릉시 주문진읍 해안로 1609,37.87955118,128.83355490000002
222,강릉바우길(9구간),강원 강릉시,033-645-0990,"['강릉바우길', '강릉트래킹', '레포츠', '트래킹', '트래킹코스']",https://cdn.visitkorea.or.kr/img/call?cmd=VIEW&id=6dfe2a35-7c28-48c9-a8b3-8d5c206fab04&thumb,강원도 강릉시 강동면 정동역길 17,37.6913387,129.0328303
223,평창올림픽플라자,강원 평창군,1330,"['2018동계올림픽', '레포츠', '올림픽개,폐회식장', '평창', '평창올림픽']",https://cdn.visitkorea.or.kr/img/call?cmd=VIEW&id=9df1ef79-15fa-43f8-82a6-45476218d5a6&thumb,강원도 평창군 대관령면 올림픽로,37.64906625,128.6882091
224,영월스포츠파크,강원 영월군,033-370-2089,"['강원권', '레포츠', '복합레포츠', '영월스포츠파크', '이색체험']",https://cdn.visitkorea.or.kr/img/call?cmd=VIEW&id=d5cf33b9-3413-432a-8a22-d1c08a848219&thumb,강원도 영월군 영월읍 제방안길 100,37.17427054,128.4591706
225,렌탈의전설,강원 원주시,033-732-7950,"['강원권', '겨울스포츠', '레포츠', '스키샵', '스키장비렌탈샵', '익스트림스포츠']",https://cdn.visitkorea.or.kr/img/call?cmd=VIEW&id=4b2bbc5f-27d6-43e2-9e9c-f3ad71d74004&thumb,강원도 원주시 지정면 구재로 132,37.39886519,127.7919344
226,아라나비(스카이 어촌체험),강원 강릉시,033-641-9002,['레포츠'],https://cdn.visitkorea.or.kr/img/call?cmd=VIEW&id=1af1285a-ad82-4587-9807-c73198400724&thumb,강원도 강릉시 공항길127번길 35-7,37.76700343,128.9514255
227,덕풍계곡 플라이낚시,강원 삼척시,033-576-0394,"['가족과함께', '낚시', '덕풍계곡', '레포츠', '산천어', '자연풍경']",https://cdn.visitkorea.or.kr/img/call?cmd=VIEW&id=22477d74-a1b8-4677-bcce-7093d5a2e6f5&thumb,강원도 삼척시 가곡면 풍곡안길 17-18,37.12468951,129.15595520000002
228,금대 에코힐링 캠핑장,강원 원주시,033-763-5232,"['가족여행', '강원권', '레포츠', '영원사', '치악산', '캠핑장']",https://cdn.visitkorea.or.kr/img/call?cmd=VIEW&id=e05459a6-aab0-4fa6-a855-2ccebc7c5a04&thumb,강원도 원주시 판부면 영원산성길 372,37.29334864,128.0183053
229,설악파인리조트 아쿠아펀,강원 속초시,033-635-5800,"['가족과함께', '레포츠', '설악파인리조트가든스파', '속초시', '워터파크']",https://cdn.visitkorea.or.kr/img/call?cmd=VIEW&id=fbe6a0c3-d424-4c08-9aa6-5057abb0b9b8&thumb,강원도 속초시 관광로408번길 14,38.19553403,128.5391009
230,영월국민체육센터,강원 영월군,033-370-2089,"['강원권', '레포츠', '영월국민체육센터', '체육센터']",https://cdn.visitkorea.or.kr/img/call?cmd=VIEW&id=f47c1f9a-d882-4f39-95fd-26d12e4801f3&thumb,강원도 영월군 영월읍 제방안길 100,37.17427054,128.4591706
231,엘리시안 강촌 스키장,강원 춘천시,033-260-2000,"['가족과함께', '겨울스포츠', '레포츠', '복합레저스포츠', '스키장', '엘리시안강촌']",https://cdn.visitkorea.or.kr/img/call?cmd=VIEW&id=f5275341-b703-4129-9ac4-28bc388c128a&thumb,강원도 춘천시 남산면 북한강변길 688,37.83001982,127.57862320000001
232,화천 명품DMZ코스,강원 화천군,033-440-2575,"['강원권', '레포츠', '자전거코스', '화천명품DMZ코스']",https://cdn.visitkorea.or.kr/img/call?cmd=VIEW&id=0af6351b-0bf7-4f4e-9d8d-5d9d5992d836&thumb,강원도 화천군 하남면 춘화로,38.01986307,127.72132890000002
233,소양강둘레길,강원 인제군,033-460-2170,"['레포츠', '소양강둘레길', '인제트레킹', '트레킹코스']",https://cdn.visitkorea.or.kr/img/call?cmd=VIEW&id=05c7e402-a765-4bc5-9f43-b9422ec94ac4&thumb,강원도 인제군 인제읍 남북리,38.07813464,128.1462287
234,설악산국립공원 자동차야영장,강원 속초시,033-801-0903,"['가족과함께', '레포츠', '설악산국립공원', '아이와함께', '여름방학가기좋은곳']",https://cdn.visitkorea.or.kr/img/call?cmd=VIEW&id=ea02896b-7019-47ca-bdbb-458552e55ef6&thumb,강원도 속초시 설악동 370번지,38.16318607,128.54251100000002
235,양구청소년수련관,강원 양구군,033-480-2361,['레포츠'],https://cdn.visitkorea.or.kr/img/call?cmd=VIEW&id=c8f7182e-2d1b-4d31-917f-4cee18dd1858&thumb,강원도 양구군 양구읍 박수근로 366-33,38.10632441,127.9815131
236,치악산 구룡자동차야영장,강원 원주시,033-732-4635,"['가족여행', '강원권', '레포츠', '자동차야영장', '치악산']",https://cdn.visitkorea.or.kr/img/call?cmd=VIEW&id=0e94ec33-091e-4996-8da7-3de8c2677e58&thumb,강원도 원주시 소초면 구룡사로,37.41768906,128.0511727
237,레이싱파크,강원 태백시,033-581-2400,"['레이싱파크', '레포츠', '모터스포츠경기장', '이색체험']",https://cdn.visitkorea.or.kr/img/call?cmd=VIEW&id=d1467247-0f07-44fe-b22e-5618f5f5bbc2&thumb,강원도 태백시 사군드리길 240,37.08263185,129.02017
238,롱비치 서프스쿨,강원 양양군,010-2331-7590,['레포츠'],https://cdn.visitkorea.or.kr/img/call?cmd=VIEW&id=fdfdad4f-037c-47bb-9a45-cbe2d2ca47a1&thumb,강원도 양양군 현남면 갯마을길 42-20,37.94855125,128.7789584
239,속초 바다낚시,강원 속초시,033-639-2690,"['강원권', '레포츠', '바다낚시', '속초낚시', '속초바다', '속초바다낚시']",https://cdn.visitkorea.or.kr/img/call?cmd=VIEW&id=04ff38cc-d812-4adb-8bb8-3df0eba359be&thumb,강원도 속초시 동명항길,38.21181642,128.59739960000002
240,원주시청소년수련관,강원 원주시,033-742-9997,"['강원권', '레포츠', '원주청소년수련관', '청소년수련관']",https://cdn.visitkorea.or.kr/img/call?cmd=VIEW&id=3267c195-c3fa-4757-826d-42ecac4c0475&thumb,강원도 원주시 서원대로 234,37.34096572,127.93568959999999
241,철원군 병영체험수련원,강원 철원군,033-452-8411,"['강원권', '레포츠', '이색체험', '철원']",https://cdn.visitkorea.or.kr/img/call?cmd=VIEW&id=8b92b074-574e-4adf-8f83-398e52d9c447&thumb,강원도 철원군 갈말읍 텃골4길 3-26,38.19613177,127.3770736
242,가리산(홍천) 등산로,강원 홍천군,033-435-6034,"['가족과함께', '레포츠', '산책길', '아이와함께', '자연체험', '힐링&휴양']",https://cdn.visitkorea.or.kr/img/call?cmd=VIEW&id=f61aefca-0adb-4b90-acde-f7fa490ee647&thumb,강원도 홍천군 두촌면 가리산길 260-9,37.85440999,127.99874640000002
243,임원항 (임원항방파제 ~ 도미굴),강원 삼척시,033-572-6011,"['강원권', '낚시', '레포츠', '임원항']",https://cdn.visitkorea.or.kr/img/call?cmd=VIEW&id=0be77cfd-eebd-4e67-8477-0a4e95c80a0f&thumb,강원도 삼척시 원덕읍 임원항구로 30-11,37.22975726,129.3460863
244,해파랑길 45코스,강원 속초시,033-633-3171,"['레포츠', '속초가볼만한곳', '트레킹', '해파랑길']",https://cdn.visitkorea.or.kr/img/call?cmd=VIEW&id=afa27bc1-d32a-490d-b421-371ebf10e34f&thumb,강원도 속초시 대포동 421-51,38.174458,128.60714199999998
245,길캠프,강원 영월군,010-4001-2211,"['계곡캠핑장', '길캠프', '레포츠', '영월캠핑장']",https://cdn.visitkorea.or.kr/img/call?cmd=VIEW&id=280d2556-c65f-46ec-af1d-d1942fb7cabd&thumb,강원도 영월군 수주면 황정길 29,37.30298146,128.1541652
246,알펜시아 카지노,강원 평창군,033-333-8828,['레포츠'],https://cdn.visitkorea.or.kr/img/call?cmd=VIEW&id=7e6f7ae6-265e-4da0-9feb-6df339dcf116&thumb,강원도 평창군 대관령면 솔봉로 325,37.65925417,128.68401070000002
247,켄싱턴리조트 오토캠핑장,강원 고성군,033-631-7601,"['강원권', '레포츠', '캠핑장', '켄싱턴리조트오토캠핑장']",https://cdn.visitkorea.or.kr/img/call?cmd=VIEW&id=95d1105f-f012-49b6-ac1a-07a74454c7d7&thumb,강원도 고성군 토성면 중앙로 646,38.2410455,128.5723908
248,강릉승마장,강원 강릉시,033-644-6264,['레포츠'],https://cdn.visitkorea.or.kr/img/call?cmd=VIEW&id=d7b69ce4-8379-4465-9762-d78e98a5c3be&thumb,강원도 강릉시 강동면 임곡로 1-17,37.72662789,128.9806569
249,맹방해수욕장근처,강원 삼척시,033-575-1330,"['강원권', '강원도', '레포츠', '맹방해수욕장', '바다낚시', '삼척바다', '삼척바다낚시']",https://cdn.visitkorea.or.kr/img/call?cmd=VIEW&id=ad96fd9f-679e-411b-afa4-ba9ae3a4b465&thumb,강원도 삼척시 근덕면 맹방해변로,37.38544237,129.2273135
250,한탄강래프팅,강원 철원군,033-452-8006,"['래프팅', '레포츠', '철원', '철원여행', '한탄강래프팅']",https://cdn.visitkorea.or.kr/img/call?cmd=VIEW&id=846c4059-ec3c-4054-a887-114abd9335d7&thumb,강원도 철원군 갈말읍 순담길 143-1,38.17666774,127.2977432
251,어라연 (강원고생대 국가지질공원),강원 영월군,033-560-2379,"['강원고생대_국가지질공원', '강원권', '경치좋은곳', '관광지', '국가지질공원']",https://cdn.visitkorea.or.kr/img/call?cmd=VIEW&id=2d3fe258-e466-4700-8814-aba74b51960e&thumb,강원도 영월군 영월읍 거운리,37.24051548,128.532199
252,넌스키난보드,강원 원주시,010-5262-0088,"['겨울스포츠', '레포츠', '복합레저스포츠', '스키 강습소', '스키대여', '스키대여']",https://cdn.visitkorea.or.kr/img/call?cmd=VIEW&id=c3dc6d2e-dbdf-4ebc-b78c-b528a629fe9b&thumb,강원도 원주시 지정면 구재로 132,37.39886519,127.7919344
253,교암해변,강원 고성군,033-680-3356,"['강원권', '경치좋은곳', '관광지', '교암해변', '레포츠', '바다풍경', '연인과함께']",https://cdn.visitkorea.or.kr/img/call?cmd=VIEW&id=61097d2c-e66d-42e0-bb0b-3d5163280b37&thumb,강원도 고성군 토성면,38.25728970000001,128.5589065
254,설악동야영장,강원 속초시,033-636-1262,"['가족여행', '레포츠', '설악산', '야영장', '자연환경']",https://cdn.visitkorea.or.kr/img/call?cmd=VIEW&id=50f19736-480a-4295-97e0-52b7cb6b9742&thumb,강원도 속초시 청봉로 25,38.16159314,128.5451766
255,망상 제2오토캠핑장,강원 동해시,033-539-3618,['레포츠'],https://cdn.visitkorea.or.kr/img/call?cmd=VIEW&id=6b13a9a1-586a-4040-bb60-f98543ead5af&thumb,강원도 동해시 동해대로 6220,37.59009113,129.09434280000002
256,법흥캠핑장,강원 영월군,010-9251-2203,"['가족여행', '레포츠', '영월', '캠핑장', '힐링']",https://cdn.visitkorea.or.kr/img/call?cmd=VIEW&id=b1b646c8-26e8-4915-97f2-d74b31b62e8a&thumb,강원도 영월군 무릉도원면 백년계곡길 14-3,37.3661425,128.27380520000003
257,[강릉 바우길 5구간] 바다 호숫길,강원 강릉시,033-645-0990,"['강릉바우길', '강릉트래킹', '레포츠', '트래킹', '트래킹코스']",https://cdn.visitkorea.or.kr/img/call?cmd=VIEW&id=c23b4b23-55ff-40ac-acaf-12dcf422f184&thumb,강원도 강릉시 사천면 사천진리,37.84158802,128.8678885
258,화진포,강원 고성군,033-682-5700,"['낚시체험', '레포츠', '배낚시', '화진포호수']",https://cdn.visitkorea.or.kr/img/call?cmd=VIEW&id=9202a7cd-039f-4e7a-a0b6-d68858f6fd9f&thumb,강원도 고성군 현내면 화진포길 386,38.47839561,128.4374861
259,내린천 래프팅,강원 인제군,033-462-5887,"['내린천', '내린천래프팅', '래프팅', '레포츠', '수상스포츠', '여름피서지', '연인과함께친구와함께']",https://cdn.visitkorea.or.kr/img/call?cmd=VIEW&id=d730650a-be99-4771-a22e-d3e8169aa72c&thumb,강원도 인제군 인제읍 내린천로 6211,38.04304029,128.20681159999998
260,보보스캇 캠핑장,강원 영월군,033-375-1011,"['레포츠', '보보스캇캠핑장', '영월캠핑장', '이색체험지']",https://cdn.visitkorea.or.kr/img/call?cmd=VIEW&id=7f618fea-27e6-4a79-bc27-6757cc2b67d0&thumb,강원도 영월군 주천면 미다리길 50-24,37.29124006,128.3263332
261,한여울 1코스,강원 철원군,033-450-5365,"['레포츠', '산책코스', '철원군', '트래킹', '한여울 1코스']",https://cdn.visitkorea.or.kr/img/call?cmd=VIEW&id=eb7759f5-ae3e-41b9-9838-2e26b3b370e2&thumb,강원도 철원군 동송읍 한탄강길 208,38.20344715,127.27003559999999
262,국민여가오토캠핑장,강원 속초시,033-633-3171,['레포츠'],https://cdn.visitkorea.or.kr/img/call?cmd=VIEW&id=f254ccea-dd65-4178-9542-d934e134c1f3&thumb,강원도 속초시 해오름로 190,38.19057054,128.6020243
263,장호항방파제,강원 삼척시,033-570-3915,"['강원권', '레포츠', '바다낚시', '삼척낚시터', '삼척바다낚시']",https://cdn.visitkorea.or.kr/img/call?cmd=VIEW&id=84bc06b2-d091-40f2-beba-54b19860f722&thumb,강원도 삼척시 근덕면 장호항길,37.28643781,129.3178991
264,비젼스키샵,강원 홍천군,033-434-1948,"['겨울스포츠', '레포츠', '복합레저스포츠', '서울근교스키장', '스키대여', '스키렌탈']",https://cdn.visitkorea.or.kr/img/call?cmd=VIEW&id=b013c89b-a3b6-4dd0-a9f8-ee4169c6382d&thumb,강원도 홍천군 서면 한서로 2166,37.61475,127.673653
265,캐라비언 코리아,강원 동해시,033-535-3194,"['가족과함께', '강원권', '겨울스포츠', '레저', '레포츠', '스포츠체험', '체험', '캐라비언코리아']",https://cdn.visitkorea.or.kr/img/call?cmd=VIEW&id=ac2fa7d8-3096-485c-b861-06d13e1b58a8&thumb,강원도 동해시 해안로 635-7,37.55693337,129.103073
266,웰리힐리파크 스노우파크,강원 횡성군,1544-8833,"['가족과함께', '겨울스포츠', '레포츠', '복합레저스포츠', '스키장', '스키장', '익스트림스포츠']",https://cdn.visitkorea.or.kr/img/call?cmd=VIEW&id=785bf6ff-c821-47bf-9e3b-ceca41460e2f&thumb,강원도 횡성군 둔내면 고원로 451,37.49012611,128.2501389
267,취병낚시터,강원 원주시,033-731-5908,"['강원권', '계곡형저수지', '레포츠', '민물낚시', '원주낚시터', '원주저수지']",https://cdn.visitkorea.or.kr/img/call?cmd=VIEW&id=3f333aca-5e1c-4c7c-bf1e-da4054601630&thumb,강원도 원주시 문막읍 취병로 267,37.32237616,127.7937183
268,소양호(빙어낚시),강원 인제군,033-460-2170,"['낚시', '레포츠', '빙어', '소양호', '인제군']",https://cdn.visitkorea.or.kr/img/call?cmd=VIEW&id=b819f70d-ba0d-47e4-831f-07a6a7e363b9&thumb,강원도 인제군 인제읍 설악로,38.09529137,128.1807116
269,철원관광레저,강원 철원군,033-455-1111,"['농촌체험', '래프팅', '레저', '레포츠', '온천', '철원가볼만한곳']",https://cdn.visitkorea.or.kr/img/call?cmd=VIEW&id=d2dd8f00-54c5-45ca-b974-25267d46caec&thumb,강원도 철원군 갈말읍 갈말로 358,38.18541205,127.30742420000001
270,정선 알파인경기장,강원 정선군,1330,"['2018평창동계올림픽', '레포츠', '스키종목경기장', '알파인스키', '평창동계올림픽']",https://cdn.visitkorea.or.kr/img/call?cmd=VIEW&id=e46f86bc-25b1-4100-85aa-8967a5319b86&thumb,강원도 정선군 북평면 오대천로 549-6,37.47006629,128.6175235
271,동강래프팅(평창),강원 영월군,033-330-2771,"['동강래프팅', '레포츠', '레포츠여행', '레포츠체험', '수상레포츠', '여름피서지']",https://cdn.visitkorea.or.kr/img/call?cmd=VIEW&id=7d4ef217-c6c0-47a3-ae22-f7d43f5f835c&thumb,강원도 평창군 미탄면 마하리,37.28325552,128.5626157
272,동강 래프팅(정선),강원 정선군,1544-9053,"['가족여행', '강원권', '경치좋은곳', '동강래프팅', '레포츠', '아이와함께', '연인과함께']",https://cdn.visitkorea.or.kr/img/call?cmd=VIEW&id=a7d0cfeb-649c-40ea-baa8-64770861c312&thumb,강원도 정선군 정선읍 정선로,37.37317353,128.6136327
273,카트조이,강원 철원군,033-452-3822,"['데이트', '레포츠', '모터스포츠', '복합레저스포츠', '아이와함께', '연인과함께']",https://cdn.visitkorea.or.kr/img/call?cmd=VIEW&id=9e55cad7-62ee-4fe1-8624-dc0733595f1d&thumb,강원도 철원군 갈말읍 드르니길 26,38.1503527,127.2984811
274,설악레저스쿨(바다래프팅),강원 속초시,1544-9562,['레포츠'],https://cdn.visitkorea.or.kr/img/call?cmd=VIEW&id=836e0fbe-1555-42a6-b8f1-01481030835b&thumb,강원도 속초시 동해대로 4236,38.19776126,128.577531
275,속초연안 배낚시,강원 속초시,033-632-9796,"['강원권', '레포츠', '바다낚시', '배낚시', '속초바다', '속초바다낚시']",https://cdn.visitkorea.or.kr/img/call?cmd=VIEW&id=ba58cc40-faa6-4f2f-bf67-6d529dae5979&thumb,강원도 속초시 장사항해안길 58,38.22664409,128.5880191
276,[강릉 바우길 8구간] 산우에 바닷길,강원 강릉시,033-645-0990,"['강릉바우길', '강릉트래킹', '레포츠', '정동진역', '트래킹']",https://cdn.visitkorea.or.kr/img/call?cmd=VIEW&id=56e12660-9461-419f-9893-ff8a88557ed0&thumb,강원도 강릉시 강동면 안인진리,37.727715,128.9889586
277,태백국민체육센터,강원 태백시,033-552-4499,"['강원권', '레포츠', '수영장', '에어로빅장', '요가', '태백국민체육센터', '헬스장']",https://cdn.visitkorea.or.kr/img/call?cmd=VIEW&id=519a624e-c6fd-4ff0-a50f-26059a949a3c&thumb,강원도 태백시 번영로 220,37.16293569,128.9852903
278,어성전숲속수련장,강원 양양군,033-673-1558,['레포츠'],https://cdn.visitkorea.or.kr/img/call?cmd=VIEW&id=6fc08486-6ed8-47cc-89da-a78251da73ac&thumb,강원도 양양군 현북면 부연동길 1303,37.911116,128.652313
279,원천낚시터,강원 화천군,033-441-3677,"['강원권', '낚시', '레포츠', '원천낚시터', '춘천호']",https://cdn.visitkorea.or.kr/img/call?cmd=VIEW&id=36ccf073-9cb1-4d6b-8e7a-86a495c9984b&thumb,강원도 화천군 하남면 호수길 163,38.04839794,127.6767754
280,K2 스키&보드,강원 춘천시,2 010-4840-9662,"['겨울스포츠', '레포츠', '복합레저스포츠', '스키대여', '스키렌탈', '스키샵', '익스트림스포츠']",https://cdn.visitkorea.or.kr/img/call?cmd=VIEW&id=24cb8040-85f4-47a6-bf67-86baa15be9eb&thumb,강원도 춘천시 남산면 북한강변길 822,37.82892827,127.60242520000001
281,강원도자연학습원,강원 원주시,033-731-1600,['레포츠'],https://cdn.visitkorea.or.kr/img/call?cmd=VIEW&id=80585c7a-4089-4811-b516-8166c144f93e&thumb,강원도 원주시 소초면 구룡사로 451,37.40384479,128.0527829
282,파로호 낚시터,강원 양구군,033-480-2675,"['강원권', '레포츠', '민물낚시', '양구낚시터', '양구파로호', '유명낚시터']",https://cdn.visitkorea.or.kr/img/call?cmd=VIEW&id=42418606-681e-4770-859f-796d4e4ab6ce&thumb,강원도 양구군 양구읍 파로호로,38.11297438,127.9780314
283,해파랑길 33코스,강원 동해시,033-539-8172,['레포츠'],https://cdn.visitkorea.or.kr/img/call?cmd=VIEW&id=5a363ee5-ce05-4016-b0a1-08f625327b4c&thumb,강원도 동해시 촛대바위길 2,37.478552,129.15819299999998
284,간현청소년수련원,강원 원주시,033-732-9954,"['레포츠', '숙박', '원주숙소', '청소년수련원']",https://cdn.visitkorea.or.kr/img/call?cmd=VIEW&id=fcf73481-4e2a-41fd-a255-4b2b601e8ce2&thumb,강원도 원주시 지정면 소금산길 125,37.36759006,127.82310849999999
285,오투리조트 스키장,강원 태백시,033-580-7000,"['가족과함께', '겨울스포츠', '레포츠', '복합레저스포츠', '스키장', '익스트림스포츠']",https://cdn.visitkorea.or.kr/img/call?cmd=VIEW&id=fd59f720-76ef-4ee7-a7ff-8ef243448d22&thumb,강원도 태백시 서학로 861,37.17171176,128.9587558
286,속초항 방파제낚시,강원 속초시,033-639-2544,"['강원권', '레포츠', '바다낚시', '속초낚시터', '속초바다낚시']",https://cdn.visitkorea.or.kr/img/call?cmd=VIEW&id=1c26f2f9-9449-4ffb-86e5-35d723af9e82&thumb,강원도 속초시 영금정로 46,38.21143036,128.6009143
287,내린천 수변공원,강원 인제군,033-460-2170,"['레포츠', '여름피서지', '이색체험', '인제내린천', '휴식하기좋은곳']",https://cdn.visitkorea.or.kr/img/call?cmd=VIEW&id=521c23d7-f2a8-48b4-9cc1-6883902c260f&thumb,강원도 인제군 인제읍 내린천로 5693,38.00988909,128.2392314
288,강원도청소년수련관,강원 춘천시,033-255-6601,"['강원권', '레포츠', '청소년수련관']",https://cdn.visitkorea.or.kr/img/call?cmd=VIEW&id=df6c29bb-2594-4389-934b-71704e9560c5&thumb,강원도 춘천시 신샘밭로 89,37.92294014,127.7206389
289,강릉항요트마리나,강원 강릉시,070-8816-6543,"['강릉항', '강릉항요트마리나', '레포츠', '요트체험', '이색체험']",https://cdn.visitkorea.or.kr/img/call?cmd=VIEW&id=9acc6502-2ae1-4d71-a140-33db9713400e&thumb,강원도 강릉시 창해로14번길 51-20,37.77236822,128.9510358
290,철원청소년회관,강원 철원군,033-450-4741,"['강원권', '레포츠', '연중무휴', '철원청소년회관']",https://cdn.visitkorea.or.kr/img/call?cmd=VIEW&id=3aaf3628-8398-4e21-aef8-d74f233cc078&thumb,강원도 철원군 갈말읍 명성로139번길 52,38.14586869,127.3021894
291,장암산 활공장,강원 평창군,033-332-2625,"['강원권', '레포츠', '장암산활공장', '패러글라이딩']",https://cdn.visitkorea.or.kr/img/call?cmd=VIEW&id=36f6f7e6-3dd4-4338-8b5c-4d790424b92d&thumb,강원도 평창군 평창읍 장암동길 129,37.39763576,128.4218058
292,해파랑길 35코스,강원 강릉시,033-640-5125,['레포츠'],https://cdn.visitkorea.or.kr/img/call?cmd=VIEW&id=13a43bfc-b603-4fc4-8c26-e2bc64003809&thumb,강원도 강릉시 금진리 105-10,37.609161,129.03547700000001
293,오대산 명상의 숲길,강원 평창군,,"['강원권', '레포츠', '명상의숲길', '오대산', '트레킹']",https://cdn.visitkorea.or.kr/img/call?cmd=VIEW&id=b6dc96f4-f90d-44be-b33e-41bccf820bdd&thumb,강원도 평창군 진부면 동산리,37.75876119,128.5656899
294,조나단 패러글라이딩 스쿨,강원 평창군,02-3472-1877,['레포츠'],https://cdn.visitkorea.or.kr/img/call?cmd=VIEW&id=9c322d8a-b0d3-49bd-94b6-2a8aea3d90b7&thumb,강원도 평창군 평창읍 장암동길 167,37.3968963,128.4209257
295,강릉시 청소년 해양수련원,강원 강릉시,033-662-0911,"['레포츠', '숙박']",https://cdn.visitkorea.or.kr/img/call?cmd=VIEW&id=c454db47-304f-42a5-b3a2-5995cddfa73c&thumb,강원도 강릉시 주문진읍 동해대로 4940,37.91492638,128.8124264
296,국립평창청소년수련원,강원 평창군,033-330-0800,"['강원권', '국립평창청소년수련원', '레포츠', '청소년수련원']",https://cdn.visitkorea.or.kr/img/call?cmd=VIEW&id=ec3bc50c-14e1-45b3-b5f9-c2cf06ceac29&thumb,강원도 평창군 용평면 새터마을길 108,37.58321603,128.40200729999998
297,해파랑길 39코스,강원 강릉시,033-640-5125,['레포츠'],https://cdn.visitkorea.or.kr/img/call?cmd=VIEW&id=ef62963e-6d87-4fbd-9900-8048f2115317&thumb,강원도 강릉시 병산동 881,37.75801692,128.9443953
298,거진방파제,강원 고성군,033-680-3357,"['강원권', '고성낚시터', '고성바다낚시', '레포츠', '바다낚시']",https://cdn.visitkorea.or.kr/img/call?cmd=VIEW&id=2838b3d4-88d0-4d4d-9ec4-ab51416af627&thumb,강원도 고성군 거진읍 거진항1길 62-3,38.44567754,128.4617328
299,옥스필드컨트리클럽,강원 횡성군,033-340-7700,"['강원권', '골프장', '레포츠', '옥스필드컨트리클럽', '횡성']",https://cdn.visitkorea.or.kr/img/call?cmd=VIEW&id=01b3bac1-e2ed-4173-ac7c-0baac7058351&thumb,강원도 횡성군 서원면 경강로유현6길 28,37.52377953,127.84201350000001
300,서바이벌게임(철원),강원 철원군,033-450-4790,['레포츠'],https://cdn.visitkorea.or.kr/img/call?cmd=VIEW&id=undefined&thumb,강원도 철원군 갈말읍 삼부연로 51,38.14675637,127.31346129999999
301,양양오토캠핑장,강원 양양군,033-672-3702,"['레포츠', '양양오토캠핑장', '양양캠핑장', '오토캠핑장']",https://cdn.visitkorea.or.kr/img/call?cmd=VIEW&id=a6e6daa5-73f1-4862-9735-200a70fa1cc2&thumb,강원도 양양군 손양면 동명로 321-20,38.09005807,128.6564612
302,블랙밸리 컨트리클럽,강원 삼척시,033-540-5300,"['골프리조트', '골프장', '레포츠', '연인과함께', '친구와함께']",https://cdn.visitkorea.or.kr/img/call?cmd=VIEW&id=fe9bf6e1-8b85-40ca-bc82-def191891b57&thumb,강원도 삼척시 도계읍 도상로 307-84,37.21818252,129.073433
303,송강카누학교,강원 인제군,033-461-1659,"['레포츠', '송강카누학교', '인제', '인제여행', '카누', '카누체험']",https://cdn.visitkorea.or.kr/img/call?cmd=VIEW&id=66f1be95-10b2-42d0-9e49-ffb5a40b5844&thumb,강원도 인제군 인제읍 내린천로 6215,38.04321966,128.2063809
304,평창낚시터,강원 평창군,033-332-7850,"['강원권', '레포츠', '민물낚시', '평창낚시터']",https://cdn.visitkorea.or.kr/img/call?cmd=VIEW&id=7c5a917b-45f7-40ef-896c-27946f2bed45&thumb,강원도 평창군 평창읍 등강길 44-1,37.349082200000005,128.3792976
305,영월군청소년수련관,강원 영월군,033-813-1388,"['YMCA', '강원권', '레포츠', '영월', '청소년수련관']",https://cdn.visitkorea.or.kr/img/call?cmd=VIEW&id=56ce4838-69f0-4c4a-923c-8b830c244b31&thumb,강원도 영월군 영월읍 제방안길 100,37.17427054,128.4591706
306,썬크루즈요트,강원 강릉시,033-610-7000,"['레포츠', '썬크루즈요트', '요트체험', '이색체험']",https://cdn.visitkorea.or.kr/img/call?cmd=VIEW&id=8ef68f80-b1cd-4fcd-b8a2-adb59a5a3409&thumb,강원도 강릉시 강동면 헌화로 950-39,37.68406187,129.0419045
307,호렙오대산청소년수련원,강원 평창군,033-333-6157,['레포츠'],https://cdn.visitkorea.or.kr/img/call?cmd=VIEW&id=4805eda0-18ce-4956-95c5-13c132e49e07&thumb,강원도 평창군 진부면 진고개로 351-16,37.69808714,128.5985044
308,바다배낚시,강원 강릉시,,"['강원권', '동해바다', '레포츠', '배낚시']",https://cdn.visitkorea.or.kr/img/call?cmd=VIEW&id=dff10539-5990-42cc-8420-9d810b924148&thumb,강원도 강릉시 강동면 하시동리 1413,37.7438589,128.9666669
309,해양관광레저스포츠센터,강원 삼척시,033-576-0611,['레포츠'],https://cdn.visitkorea.or.kr/img/call?cmd=VIEW&id=9b5d2e59-7b6f-4196-bfc5-88960d6bf80b&thumb,강원도 삼척시 근덕면 덕산해변길 104,37.38598085,129.24069939999998
310,영월천문대 캠핑장,강원 영월군,033-372-1577,"['레포츠', '아이와함께', '야외캠핑장', '영월캠핑장']",https://cdn.visitkorea.or.kr/img/call?cmd=VIEW&id=2244c885-7684-42b8-a000-35ffd1139b7d&thumb,강원도 영월군 북면 사만길 173,37.2636301,128.4099556
311,진밭골 캠핑&글램핑,강원 원주시,010-2338-8198,"['레포츠', '원주글램핑', '원주캠핑장', '진밭골글램핑', '진밭골캠핑장']",https://cdn.visitkorea.or.kr/img/call?cmd=VIEW&id=cc1446c3-8de2-48dd-a742-fd6a836d2182&thumb,강원도 원주시 문막읍 취병로 638-3,37.34374094,127.77138390000002
312,하조대백사장,강원 양양군,033-670-2397,"['레포츠', '바다낚시', '양양낚시', '양양여행', '양양여행지추천', '하조대']",https://cdn.visitkorea.or.kr/img/call?cmd=VIEW&id=96449129-87a5-46ea-b7d5-74d60d59f6b0&thumb,강원도 양양군 현북면 하조대해안길 119,38.02775348,128.7175212
313,양구 사명산 MTB여행길,강원 양구군,033-480-2675,['레포츠'],https://cdn.visitkorea.or.kr/img/call?cmd=VIEW&id=acc5c7e2-376c-459f-94d1-24fa0628a124&thumb,강원도 양구군 양구읍 학안로 142,38.07256808,127.984242
314,해파랑길 41코스,강원 강릉시,033-640-5125,"['레포츠', '트레킹', '해파랑길', '해파랑길41코스']",https://cdn.visitkorea.or.kr/img/call?cmd=VIEW&id=4920fc03-2a24-483b-9d8f-6af05fb629a3&thumb,강원도 강릉시 주문진읍 향호리 8-35,37.91133802,128.8185966
315,한여울 2코스,강원 철원군,033-450-5365,"['강원권', '레포츠', '산책코스', '트래킹', '한여울2코스', '한탄강']",https://cdn.visitkorea.or.kr/img/call?cmd=VIEW&id=0ee2c4a0-bb73-4d0c-8202-6d9779df5977&thumb,강원도 철원군 동송읍 한탄강길 208,38.20344715,127.27003559999999
316,춘천시청소년여행의집,강원 춘천시,033-250-3560,['레포츠'],https://cdn.visitkorea.or.kr/img/call?cmd=VIEW&id=d57a54c6-a4d3-478c-9b8f-989a1009b7bd&thumb,강원도 춘천시 영서로 3035,37.92319102,127.7204818
317,동서울레스피아 골프장,강원 원주시,033-732-3700,['레포츠'],https://cdn.visitkorea.or.kr/img/call?cmd=VIEW&id=7c2a3d34-9f3d-4769-94ec-d81f696bbaf4&thumb,강원도 원주시 지정면 신평석화로 236,37.40082885,127.87948999999999
318,새막골 캠프,강원 영월군,010-2914-1621,"['레포츠', '새막골캠프', '야외캠핑장', '캠핑장']",https://cdn.visitkorea.or.kr/img/call?cmd=VIEW&id=0b9a2fea-e1f2-4ace-89d4-19319e55db50&thumb,강원도 영월군 수주면 새막골길 72-115,37.32360986,128.1785338
319,치악산금강송길,강원 원주시,033-737-2111,"['레포츠', '원주트레킹', '치악산국립공원', '트레킹']",https://cdn.visitkorea.or.kr/img/call?cmd=VIEW&id=c2ed2b18-0b1b-4a6a-885e-113c9097949a&thumb,강원도 원주시 소초면 구룡사로 500,37.39956708,128.0496655
320,한여울 5코스,강원 철원군,033-450-5365,"['레포츠', '산책길', '숲길', '트래킹', '한여울 5코스']",https://cdn.visitkorea.or.kr/img/call?cmd=VIEW&id=5f0bf859-50a7-4f3e-a13b-aa285cf84adb&thumb,강원도 철원군 철원읍 사요길 167,38.250273,127.192627
321,[강릉 바우길 11구간] 신사임당길,강원 강릉시,033-645-0990,"['강릉바우길', '강릉트래킹', '레포츠', '트래킹', '트래킹코스']",https://cdn.visitkorea.or.kr/img/call?cmd=VIEW&id=df2040d5-8332-4730-b7f1-c4d14e59501a&thumb,강원도 강릉시 성산면 위촌길 198,37.75885165,128.84773859999999
322,오대천(수항계곡) 래프팅,강원 평창군,033-333-8666,['레포츠'],https://cdn.visitkorea.or.kr/img/call?cmd=VIEW&id=53e2818d-7381-4c5f-85bb-3555953efa03&thumb,강원도 평창군 진부면 오대천로 553,37.53420623,128.56655609999999
323,대관령 옛길,강원 강릉시,033-640-5420,"['강원도트레킹', '대관령옛길', '레포츠', '트레킹', '트레킹코스']",https://cdn.visitkorea.or.kr/img/call?cmd=VIEW&id=e358f5c6-72a9-451f-a0c8-dfae03efcf64&thumb,강원도 강릉시 성산면 어흘리,37.70926816,128.78155800000002
324,관동하키센터,강원 강릉시,1330,['레포츠'],https://cdn.visitkorea.or.kr/img/call?cmd=VIEW&id=f71fa082-5d89-46ad-84d1-82adaa4bbd15&thumb,강원도 강릉시 범일로579번길 24,37.73732878,128.8737046
325,오크밸리 C.C,강원 원주시,033-730-3500,['레포츠'],https://cdn.visitkorea.or.kr/img/call?cmd=VIEW&id=62a22716-c959-42ab-bc2e-6e2be02680c5&thumb,강원도 원주시 지정면 오크밸리2길 58,37.40780168,127.8089639
326,한여울 6코스,강원 철원군,033-450-5365,"['강원권', '경치좋은곳', '레포츠', '산책', '생태공원', '자연좋은곳', '테마', '한여울6코스']",https://cdn.visitkorea.or.kr/img/call?cmd=VIEW&id=94e56d24-1385-427e-aee3-2b0f5db6231b&thumb,강원도 철원군 동송읍 이평리 메뚜기교,37.268713700000006,128.2676066
327,겨울세상,강원 정선군,033-591-7794,"['강원권', '겨울스포츠', '레포츠', '스키샵', '스키장비렌탈샵']",https://cdn.visitkorea.or.kr/img/call?cmd=VIEW&id=4dbac2b1-082f-4016-85a6-bb2d6582d1fd&thumb,강원도 정선군 고한읍 고한로 83,37.20546911,128.8475989
328,연대천래프팅,강원 영월군,1522-3898,"['래프팅', '레포츠', '아이와함께', '여름여행지', '여름철', '여름철휴가지', '여름피서지']",https://cdn.visitkorea.or.kr/img/call?cmd=VIEW&id=7fa0acd5-c588-447d-a27b-91740e7598bf&thumb,강원도 영월군 영월읍 섭새길 78-4,37.23186566,128.5133316
329,S-스키,강원 원주시,010-9462-7162,"['겨울스포츠', '레포츠', '복합레저스포츠', '스키대여', '스키렌탈', '스키샵', '익스트림스포츠']",https://cdn.visitkorea.or.kr/img/call?cmd=VIEW&id=3eee87ec-e2be-4793-a7d9-b274d2914288&thumb,강원도 원주시 지정면 구재로 46,37.39219305,127.7890197
330,단종대왕 유배길,강원 영월군,033-370-2541,['레포츠'],https://cdn.visitkorea.or.kr/img/call?cmd=VIEW&id=ccb87854-32a2-4199-95ef-c9818840318f&thumb,강원도 영월군 주천면 주천리 1125-4,37.268713700000006,128.2676066
331,춘천 자전거길,강원 춘천시,033-250-3089,['레포츠'],https://cdn.visitkorea.or.kr/img/call?cmd=VIEW&id=b3c457c3-da60-4220-8808-c4eddb40db96&thumb,강원도 춘천시 서면 신매리,37.91987807,127.71337959999998
332,봄내길 1코스,강원 춘천시,033-251-9363,['레포츠'],https://cdn.visitkorea.or.kr/img/call?cmd=VIEW&id=c52fddda-dc7c-4259-bc60-96dc0fce75d7&thumb,강원도 춘천시 신동면 실레길 25,37.81912478,127.71866750000001
333,잼버리카트장,강원 고성군,033-635-2555,"['레포츠', '이색체험', '잼버리카트장', '카트체험']",https://cdn.visitkorea.or.kr/img/call?cmd=VIEW&id=18af924d-f8f8-4c5c-8b94-0d2037047b4e&thumb,강원도 고성군 토성면 잼버리로 244,38.22362848,128.5001397
334,김삿갓계곡 캠핑장,강원 영월군,010-4567-5558,"['김삿갓계곡', '김삿갓계곡캠핑장', '레포츠', '야외캠핑장']",https://cdn.visitkorea.or.kr/img/call?cmd=VIEW&id=eafd3daf-d680-4aae-bf87-bbd5617d583f&thumb,강원도 영월군 김삿갓면 김삿갓로 216-30,37.07926182,128.60266950000002
335,죽헌저수지,강원 강릉시,033-640-4531,"['강릉권', '강릉낚시', '레포츠', '민물낚시']",https://cdn.visitkorea.or.kr/img/call?cmd=VIEW&id=3c69c10a-2ba6-4798-ba3a-661f30bb2c24&thumb,강원도 강릉시 유죽길,37.78027589,128.8753256
336,[강릉 바우길 7구간] 풍호연가길,강원 강릉시,033-645-0990,"['강릉바우길', '강릉트래킹', '레포츠', '트래킹', '트래킹코스']",https://cdn.visitkorea.or.kr/img/call?cmd=VIEW&id=e98e1a05-248b-47d7-8fde-18e9c2e47e01&thumb,강원도 강릉시 구정면 금평로 117,37.70661509,128.8890232
337,한탄강 래프팅,강원 철원군,033-450-5365,['레포츠'],https://cdn.visitkorea.or.kr/img/call?cmd=VIEW&id=55d66027-a148-4e9e-8b16-84bbcf3b5673&thumb,강원도 철원군 갈말읍 삼부연로,38.14815433,127.31466110000001
338,스키토탈,강원 홍천군,033-435-0888,['레포츠'],https://cdn.visitkorea.or.kr/img/call?cmd=VIEW&id=24aa49f0-d95d-4a97-af65-041e57712996&thumb,강원도 홍천군 서면 한서로 2101,37.61901417,127.6688068
339,금진방파제,강원 강릉시,033-640-4531,"['강릉낚시터', '강릉바다낚시', '강원권', '레포츠', '바다낚시']",https://cdn.visitkorea.or.kr/img/call?cmd=VIEW&id=4726909d-733b-436f-a6d8-ede82dde234d&thumb,강원도 강릉시 옥계면 헌화로,37.65875929,129.0566231
340,익사이팅코리아,강원 철원군,033-455-5441,"['래프팅', '레포츠', '한탄강래프팅']",https://cdn.visitkorea.or.kr/img/call?cmd=VIEW&id=87a71ff3-c30a-4324-91c0-ceb6be1335d4&thumb,강원도 철원군 동송읍 태봉로 1814-1,38.18931191,127.28994109999998
341,[강릉 바우길 4구간] 사천 둑방길,강원 강릉시,033-645-0990,"['강릉바우길', '강릉트래킹', '레포츠', '트래킹', '트래킹코스']",https://cdn.visitkorea.or.kr/img/call?cmd=VIEW&id=1a48e07e-61ca-43bc-8fec-323109a8c31e&thumb,강원도 강릉시 성산면 삼왕길 204-15,37.76036099,128.7945446
342,샘마을레저파크,강원 춘천시,033-263-0125,['레포츠'],https://cdn.visitkorea.or.kr/img/call?cmd=VIEW&id=454e5287-5d29-4908-8d93-aa29e2617d64&thumb,강원도 춘천시 남산면 방하로 429,37.77318141,127.5417642
343,백도해변오토캠핑장,강원 고성군,010-5501-0390,"['레포츠', '백도해변오토캠핑장', '야영장', '오토캠핑장']",https://cdn.visitkorea.or.kr/img/call?cmd=VIEW&id=8607ec90-b51a-4473-89fc-8a0b47fb7054&thumb,강원도 고성군 죽왕면 문암항길 133,38.30161938,128.5459142
344,동강 오토캠핑장,강원 영월군,070-4213-8188,"['동강오토캠핑장', '레포츠', '영월카라반', '영월캠핑장', '오토캠핑장']",https://cdn.visitkorea.or.kr/img/call?cmd=VIEW&id=f33fdde7-4be8-44ed-8f24-cd12071a14ed&thumb,강원도 영월군 영월읍 둥글바위길 33,37.20221237,128.50390579999998
345,해파랑길 44코스,강원 양양군,033-640-5125,"['레포츠', '트레킹', '트레킹코스', '해파랑길', '해파랑길44코스']",https://cdn.visitkorea.or.kr/img/call?cmd=VIEW&id=661d2f22-be1f-400b-a3d1-da3abd3037e7&thumb,강원도 양양군 손양면 수산리 89-3,38.07961653,128.67216100000002
346,속초스쿠버센터,강원 속초시,033-635-3373,['레포츠'],https://cdn.visitkorea.or.kr/img/call?cmd=VIEW&id=24e75cc1-fa5f-4a5f-b047-ab6001ef3592&thumb,강원도 속초시 영랑해안9길 7-1,38.21851973,128.5932908
347,보드트레이더,강원 평창군,033-333-8300,"['겨울스포츠', '레포츠', '보드트레이더', '스키대여', '스키렌탈', '스키샵', '스키장']",https://cdn.visitkorea.or.kr/img/call?cmd=VIEW&id=460c7045-1dad-4bcf-8e93-c60a08947668&thumb,강원도 평창군 봉평면 태기로 321,37.57551426,128.340018
348,이무기낚시터,강원 원주시,033-747-3386,"['강원권', '레포츠', '민물낚시', '원주낚시터']",https://cdn.visitkorea.or.kr/img/call?cmd=VIEW&id=97f6db18-7341-4758-a3f6-029c53b4c08b&thumb,강원도 원주시 소초면 신양선녀길 99,37.41304365,127.9726254
349,해파랑길 37코스,강원 강릉시,033-640-5125,['레포츠'],https://cdn.visitkorea.or.kr/img/call?cmd=VIEW&id=b017a620-97bc-43de-94b2-b3d690532bea&thumb,강원도 강릉시 강동면 안인진리 16-5,37.73446181,128.9897742
350,해파랑길 38코스,강원 강릉시,033-640-5125,['레포츠'],https://cdn.visitkorea.or.kr/img/call?cmd=VIEW&id=5c51e851-1851-4539-acde-61d56adf98a5&thumb,강원도 강릉시 구정면 금평로 117,37.70661509,128.8890232
351,고산낚시터,강원 원주시,033-731-4151,"['강원권', '고산낚시터', '낚시터', '레포츠']",https://cdn.visitkorea.or.kr/img/call?cmd=VIEW&id=92cd21af-02db-4757-b492-2d0e3868133a&thumb,강원도 원주시 호저면 호저로 1140,37.46676342,127.91759640000002
352,강원쥬라기랜드,강원 횡성군,010-7456-3937,['레포츠'],https://cdn.visitkorea.or.kr/img/call?cmd=VIEW&id=170bd2ff-4fca-4c27-b4b4-e9d44af50e9c&thumb,강원도 횡성군 서원면 경강로 646-18,37.52401345,127.8683496
353,한여울 4코스,강원 철원군,033-450-5365,"['레포츠', '산책로', '산행', '왕건', '한여울 4코스']",https://cdn.visitkorea.or.kr/img/call?cmd=VIEW&id=e8cf8636-446f-45c0-8b2c-fa98fe2a6dee&thumb,강원도 철원군 철원읍 금학로 591,38.23944032,127.2135054
354,태백시청소년수련관,강원 태백시,033-554-0411,"['강원권', '레포츠', '청소년수련관', '태백']",https://cdn.visitkorea.or.kr/img/call?cmd=VIEW&id=785dd524-b92d-49d2-9963-b3035d4581e1&thumb,강원도 태백시 천제단길 148,37.12170837,128.9516411
355,리더스스키,강원 홍천군,033-435-1113,"['강원권', '겨울스포츠', '레포츠', '스키샵', '스키장비렌탈샵', '익스트림스포츠']",https://cdn.visitkorea.or.kr/img/call?cmd=VIEW&id=a02c6bb5-ce1c-433d-93a3-7d53d9d5966c&thumb,강원도 홍천군 서면 한치골길 70,37.62748118,127.66814840000002
356,동강레포츠,강원 평창군,033-333-6600,['레포츠'],https://cdn.visitkorea.or.kr/img/call?cmd=VIEW&id=42b84f57-c2fc-4add-bee3-9322e3d2be31&thumb,강원도 영월군 영월읍 제방안길,37.17608769,128.465545
357,동강 래프팅(영월),강원 영월군,1577-0545,['레포츠'],https://cdn.visitkorea.or.kr/img/call?cmd=VIEW&id=c53c0dbc-b449-4464-a288-00874d1e8b7f&thumb,강원도 평창군 미탄면 마하길 41-5,37.2916362,128.5410876
358,수산항 낚시터,강원 양양군,033-670-2411,"['강원권', '레포츠', '바다낚시', '양양낚시', '양양낚시터', '양양바다']",https://cdn.visitkorea.or.kr/img/call?cmd=VIEW&id=c412e929-61d0-4954-80cc-7a3387d2012b&thumb,강원도 양양군 손양면 수산1길 20-24,38.07688762,128.6747762
359,오투리조트 골프장,강원 태백시,033-580-7000,"['강원권', '골프장', '레포츠', '오투리조트']",https://cdn.visitkorea.or.kr/img/call?cmd=VIEW&id=b62c2a29-9a40-488c-9577-a062d828d239&thumb,강원도 태백시 서학로 861,37.17171176,128.9587558
360,봄내길 3코스,강원 춘천시,033-251-9363,['레포츠'],https://cdn.visitkorea.or.kr/img/call?cmd=VIEW&id=e4555898-b739-440e-bdc1-e3cc5f2e568d&thumb,강원도 춘천시 서면 당숲안길 81,37.83784571,127.60817479999999
361,해파랑길 40코스,강원 강릉시,033-640-5125,['레포츠'],https://cdn.visitkorea.or.kr/img/call?cmd=VIEW&id=a2a800f2-164e-4536-a9ae-7e1c900161ef&thumb,강원도 강릉시 사천면 공회당길 27-1,37.83931059,128.8741371
362,만해마을 수련원,강원 인제군,033-462-2303,['레포츠'],https://cdn.visitkorea.or.kr/img/call?cmd=VIEW&id=e6c92f55-3985-41a1-9941-3f0b6463648c&thumb,강원도 인제군 북면 만해로 91,38.18753627,128.318117
363,대명 비발디컨트리클럽(퍼블릭),강원 홍천군,1644-0063,['레포츠'],https://cdn.visitkorea.or.kr/img/call?cmd=VIEW&id=0f5b024a-3061-41bc-aec1-f20b501024d6&thumb,강원도 홍천군 서면 한치골길 200,37.63865599,127.6736479
364,화진포 오토캠핑장,강원 고성군,033-682-4290,"['고성캠핑장', '레포츠', '야외캠핑장', '오토캠핑장', '화진포오토캠핑장']",https://cdn.visitkorea.or.kr/img/call?cmd=VIEW&id=4f34a42a-ddad-479a-9132-5afe913ae559&thumb,강원도 고성군 현내면 모정2길 2,38.47047649,128.4198125
365,강촌 번지점프,강원 춘천시,033-262-2228,['레포츠'],https://cdn.visitkorea.or.kr/img/call?cmd=VIEW&id=32154731-7818-4115-9aad-f5ba6cd99966&thumb,강원도 춘천시 남산면 강촌로 256,37.79695454,127.63928020000002
366,[강릉 바우길 10구간] 심스테파노 길,강원 강릉시,033-645-0990,"['강릉바우길', '강릉트래킹', '레포츠', '트래킹']",https://cdn.visitkorea.or.kr/img/call?cmd=VIEW&id=undefined&thumb,강원도 강릉시 성산면 삼왕길 204-15,37.76036099,128.7945446
367,강촌스키보드타운,강원 춘천시,033-264-5800,"['강원권', '강촌스키보드타운', '겨울스포츠', '레포츠', '보드', '복합레저스포츠']",https://cdn.visitkorea.or.kr/img/call?cmd=VIEW&id=3b49410d-1f2a-40eb-b000-e755e6ef57b6&thumb,강원도 춘천시 남산면 서백길 68,37.84201693,127.5514388
368,한여울 3코스,강원 철원군,033-450-5365,"['레포츠', '산책코스', '트래킹', '학저수지', '한여울 3코스']",https://cdn.visitkorea.or.kr/img/call?cmd=VIEW&id=9464a1f9-6e75-4d4a-8602-3e3599a35074&thumb,강원도 철원군 동송읍 오덕로 273,38.23171908,127.2396229
369,오십천하구,강원 삼척시,033-575-1330,"['강원권', '레포츠', '바다낚시', '삼척낚시']",https://cdn.visitkorea.or.kr/img/call?cmd=VIEW&id=385dd98d-9dde-4644-b40c-928dcbf26141&thumb,강원도 삼척시 오분동 삼척항길,37.43264791,129.1862807
370,바다캠핑장,강원 양양군,033-672-3386,"['레포츠', '바다캠핑장', '양양캠핑장', '오토캠핑장']",https://cdn.visitkorea.or.kr/img/call?cmd=VIEW&id=227b61c5-3ea4-42da-af33-0a6ed71cc4ce&thumb,강원도 양양군 손양면 동명로 321-14,38.0895173,128.65812409999998
371,양양 낙산 해변야영장,강원 양양군,070-8876-2379,['레포츠'],https://cdn.visitkorea.or.kr/img/call?cmd=VIEW&id=5d129e29-b44e-45ba-8c9c-6b76619980c5&thumb,강원도 양양군 양양읍 해맞이길 115,38.112722999999995,128.63767009999998
372,강사랑래프팅,강원 영월군,033-375-6925,"['동강래프팅', '레포츠', '영월동강래프팅', '영월래프팅']",https://cdn.visitkorea.or.kr/img/call?cmd=VIEW&id=53632c41-7280-4f87-a275-6d967ed1a9e2&thumb,강원도 영월군 영월읍 동강로 878,37.23659715,128.5133596
373,순담레져,강원 철원군,033-452-5353,['레포츠'],https://cdn.visitkorea.or.kr/img/call?cmd=VIEW&id=78a2186d-67cb-4483-8e93-0a6d05fb1088&thumb,강원도 철원군 갈말읍 순담길 149,38.17676282,127.2975139
374,대평낚시터,강원 원주시,033-761-3002,"['강원권', '낚시터', '대평낚시터', '레포츠']",https://cdn.visitkorea.or.kr/img/call?cmd=VIEW&id=39960e07-fe1b-4eea-8c44-baff382de61b&thumb,강원도 원주시 관설동 1348-2,37.31213143,127.97061399999998
375,주문리어촌계,강원 강릉시,033-660-3414,"['강원권', '레포츠', '자연', '주문리어촌계', '호수']",https://cdn.visitkorea.or.kr/img/call?cmd=VIEW&id=46024a00-d077-4f5c-948f-5240f6df4195&thumb,강원도 강릉시 주문진읍 주문북로 210,37.91013153,128.8176761
376,환타피아,강원 평창군,033-335-8687,"['겨울스포츠', '레포츠', '복합레저스포츠', '스키대여', '스키렌탈', '스키샵', '익스트림스포츠']",https://cdn.visitkorea.or.kr/img/call?cmd=VIEW&id=51fcfa06-4b3e-422f-abba-90d8b43cd90f&thumb,강원도 평창군 대관령면 올림픽로 240,37.66504409,128.70453
377,한탄강썬래프팅,강원 철원군,033-452-8989,"['래프팅', '레포츠', '철원래프팅', '한탄강래프팅']",https://cdn.visitkorea.or.kr/img/call?cmd=VIEW&id=eee9b037-e142-42bf-a766-88696b5eb15b&thumb,강원도 철원군 갈말읍 호국로 5053-1,38.17007117,127.31957709999999
378,하이원 컨트리클럽,강원 정선군,1588-7789,"['강원권', '골프장', '레포츠', '정선', '하이원']",https://cdn.visitkorea.or.kr/img/call?cmd=VIEW&id=8caf4c5a-b241-441f-b535-3b2dc41d7279&thumb,강원도 정선군 사북읍 하이원길 265,37.21187405,128.8214537
379,산악자전거 자운리코스,강원 홍천군,033-430-2490,"['레포츠', '산악자전거코스', '홍천자전거코스']",https://cdn.visitkorea.or.kr/img/call?cmd=VIEW&id=44c741fa-7910-4469-869e-171251668b17&thumb,강원도 홍천군 내면 자운리 일대,37.7263859,128.3942755
380,한백레저,강원 인제군,033-461-5033,['레포츠'],https://cdn.visitkorea.or.kr/img/call?cmd=VIEW&id=56dc1403-e048-4a7c-a011-c80ffe6a04ac&thumb,강원도 인제군 인제읍 내린천로 6211,38.04304029,128.20681159999998
381,코리아레저캠프,강원 철원군,033-455-1137,['레포츠'],https://cdn.visitkorea.or.kr/img/call?cmd=VIEW&id=b0cbb36d-694b-4b2e-95a2-c4d20a1d5135&thumb,강원도 철원군 동송읍 태봉로 1842-5,38.18905059,127.2871088
382,용평스키라인,강원 평창군,033-335-1991,"['겨울스포츠', '레포츠', '복합레저스포츠', '스키대여', '스키렌탈', '스키샵', '익스트림스포츠']",https://cdn.visitkorea.or.kr/img/call?cmd=VIEW&id=d690d6a5-dcfe-4193-8e5d-e77ecbff4879&thumb,강원도 평창군 대관령면 삼현동1길 10-6,37.66219491,128.6986281
383,평창유스호스텔,강원 평창군,033-332-7501,['레포츠'],https://cdn.visitkorea.or.kr/img/call?cmd=VIEW&id=1cbef584-9981-439d-aa4c-d213a1561cc0&thumb,강원도 평창군 방림면 칡사리길 254-14,37.42953694,128.2704486
384,토미스노우보드,강원 평창군,033-334-1688,"['겨울스포츠', '레포츠', '복합레저스포츠', '스키대여', '스키렌탈', '스키샵', '익스트림스포츠']",https://cdn.visitkorea.or.kr/img/call?cmd=VIEW&id=bfd4b54d-1814-4593-9501-ed975416e91c&thumb,강원도 평창군 봉평면 태기로 262,37.57987952,128.33661899999998
385,설악프라자컨트리클럽,강원 속초시,033-630-5511,"['강원권', '골프장', '레포츠', '설악프라자']",https://cdn.visitkorea.or.kr/img/call?cmd=VIEW&id=31943959-3de7-4604-ba8f-ac3d578fc630&thumb,강원도 속초시 미시령로2983번길 111,38.21030036,128.52872140000002
386,요트마리나,강원 양양군,033-671-4152,['레포츠'],https://cdn.visitkorea.or.kr/img/call?cmd=VIEW&id=69c285d0-eaba-4237-8218-6851977d07aa&thumb,강원도 양양군 손양면 수산1길 20-24,38.07688762,128.6747762
387,R#,강원 홍천군,033-435-5628,"['강원권', '겨울스포츠', '레포츠', '스키대여', '스키샵', '스키장비렌탈샵', '익스트림스포츠']",https://cdn.visitkorea.or.kr/img/call?cmd=VIEW&id=9ab41e5f-50b6-4927-9ab3-987f7ce7990f&thumb,강원도 홍천군 서면 한서로 2133,37.61702279,127.67149740000002
388,서핑,강원 양양군,070-4400-9995,"['레포츠', '양양서핑', '이색체험', '해양스포츠']",https://cdn.visitkorea.or.kr/img/call?cmd=VIEW&id=669f0cac-4b89-4825-80b6-b03404f75a4e&thumb,강원도 양양군 현북면 동해대로 1290,38.00748989,128.7297912
389,수달레저,강원 영월군,033-374-1783,"['래프팅', '레포츠', '모터바이크', '모터패러', '서바이벌', '수달레저', '스키', '스킨스쿠버']",https://cdn.visitkorea.or.kr/img/call?cmd=VIEW&id=4f477765-2a85-4fe5-8cfc-e561eac07be4&thumb,강원도 영월군 영월읍 동강로 871-11,37.23567741,128.5117196
390,영월동강삼성래프팅,강원 영월군,033-375-0092,"['동강래프팅', '래프팅', '레포츠', '영월동강래프팅', '영월래프팅']",https://cdn.visitkorea.or.kr/img/call?cmd=VIEW&id=81198264-84fd-45a2-88b5-ab3ef2c093c4&thumb,강원도 영월군 영월읍 동강로 245-4,37.20222459,128.50611370000001
391,록키스키,강원 횡성군,033-342-8768,"['겨울스포츠', '레포츠', '복합레저스포츠', '스키대여', '스키렌탈', '스키샵', '익스트림스포츠']",https://cdn.visitkorea.or.kr/img/call?cmd=VIEW&id=553add1f-b96b-4863-9b13-f08bf88cdbff&thumb,강원도 횡성군 둔내면 고원로 389,37.49868859,128.23841969999998
392,코리아레저 번지점프장,강원 철원군,033-452-2211,"['레포츠', '번지점프장', '이색체험지', '철원번지점프']",https://cdn.visitkorea.or.kr/img/call?cmd=VIEW&id=db1131d7-7769-4231-9e83-53d94a2cd8d5&thumb,강원도 철원군 갈말읍 태봉대교길 153,38.20563584,127.2693067
393,아날로거 글램핑,강원 영월군,033-375-4752,"['레포츠', '아날로거글램핑', '야외캠핑장', '영월글램핑']",https://cdn.visitkorea.or.kr/img/call?cmd=VIEW&id=8b929a4f-1fc6-4580-bc7d-15eb01bb01f9&thumb,강원도 영월군 수주면 무릉법흥로 852-24,37.33359533,128.28284240000002
394,덕산포구,강원 삼척시,033-575-1330,"['강원권', '레포츠', '바다낚시', '삼척바다', '삼척바다낚시']",https://cdn.visitkorea.or.kr/img/call?cmd=VIEW&id=92c28934-b9f9-4bbc-a591-a695d012098c&thumb,강원도 삼척시 근덕면 덕산해안로,37.38199264,129.2470821
395,봄내길 4코스,강원 춘천시,033-251-9363,['레포츠'],https://cdn.visitkorea.or.kr/img/call?cmd=VIEW&id=10ad6c9d-2ba9-400c-b7ba-81acc1a58139&thumb,강원도 춘천시 서면 금산2길 21,37.90346175,127.69939120000001
396,해파랑길 36코스,강원 강릉시,033-640-5125,['레포츠'],https://cdn.visitkorea.or.kr/img/call?cmd=VIEW&id=544208c0-f1e3-419f-bffd-c2dfbb916463&thumb,강원도 강릉시 강동면 정동역길 17,37.6913387,129.0328303
397,천일스키샵,강원 평창군,033-332-1001,"['강원권', '겨울스포츠', '레포츠', '복합레저스포츠', '스키대여', '스키렌탈', '스키샵']",https://cdn.visitkorea.or.kr/img/call?cmd=VIEW&id=cb18e899-b962-4053-a1f8-af89b770858d&thumb,강원도 평창군 봉평면 태기로 131,37.58582879,128.3248831
398,세븐스키,강원 정선군,033-591-4777,"['겨울스포츠', '레포츠', '복합레저스포츠', '스키대여', '스키렌탈', '스키샵', '익스트림스포츠']",https://cdn.visitkorea.or.kr/img/call?cmd=VIEW&id=d597eb6a-1691-47af-8893-68cdb8df3d93&thumb,강원도 정선군 고한읍 고한로 8,37.20960347,128.8413399
399,본적산 황부자 며느리 친정가는길,강원 태백시,033-550-2828,['레포츠'],https://cdn.visitkorea.or.kr/img/call?cmd=VIEW&id=e10e923e-34e5-4b28-bcce-4ecc0279d4c4&thumb,강원도 태백시 고원로 203,37.17196057,128.98803940000002
400,[강릉 바우길 3구간] 어명을 받은 소나무길,강원 강릉시,033-645-0990,"['강릉바우길', '강릉트래킹', '레포츠', '트래킹', '트래킹코스']",https://cdn.visitkorea.or.kr/img/call?cmd=VIEW&id=undefined&thumb,강원도 강릉시 성산면 보광리,37.7488719,128.7804788
401,동서울레스피아 연수원,강원 원주시,031-595-5168,['레포츠'],https://cdn.visitkorea.or.kr/img/call?cmd=VIEW&id=66ede1f3-16ee-47ad-9375-622e130fad75&thumb,강원도 원주시 지정면 신평석화로 236,37.40082885,127.87948999999999
402,마리나요트,강원 속초시,033-632-0006,"['레포츠', '마리나요트', '요트체험', '이색체험']",https://cdn.visitkorea.or.kr/img/call?cmd=VIEW&id=35d2542a-4e66-4c97-808a-5412ebb614ee&thumb,강원도 속초시 철새길 106,38.19231195,128.5897431
403,금대에코힐링캠핑장,강원 원주시,033-763-5232,['레포츠'],https://cdn.visitkorea.or.kr/img/call?cmd=VIEW&id=c55011e1-1007-4ed8-8d6b-faa3f1551322&thumb,강원도 원주시 판부면 영원산성길 372,37.29334864,128.0183053
404,거두리낚시터,강원 춘천시,033-262-6995,"['강원권', '레포츠', '민물낚시', '춘천낚시', '춘천낚시터']",https://cdn.visitkorea.or.kr/img/call?cmd=VIEW&id=f12cf604-379e-4ab4-ae5f-c34252a8726c&thumb,강원도 춘천시 동내면 거두리 312-3,37.85993897,127.788923
405,문화마을 둘레길,강원 평창군,033-330-2742,['레포츠'],https://cdn.visitkorea.or.kr/img/call?cmd=VIEW&id=61f48504-84a3-44d7-b24c-40cb2538055b&thumb,강원도 평창군 봉평면 이효석길 167,37.61491792,128.37260849999998
406,닥터스노우,강원 평창군,033-336-4233,"['강원권', '겨울스포츠', '닥터스노우', '레포츠', '보드렌탈', '복합레저스포츠']",https://cdn.visitkorea.or.kr/img/call?cmd=VIEW&id=6496a852-ec05-4236-bda2-f3797e581336&thumb,강원도 평창군 대관령면 올림픽로 56,37.67377447,128.70047659999997
407,레포츠114,강원 철원군,114 033-452-5277,"['레포츠', '레포츠여행', '레포츠체험', '여름여행지', '여름철', '여름철휴가지']",https://cdn.visitkorea.or.kr/img/call?cmd=VIEW&id=da650114-11a0-4c6c-b33d-66f15989129f&thumb,강원도 철원군 갈말읍 순담길 149,38.17676282,127.2975139
408,사기막저수지,강원 강릉시,033-640-4531,"['강릉낚시터', '레포츠', '민물낚시']",https://cdn.visitkorea.or.kr/img/call?cmd=VIEW&id=4c64d989-aaf2-45a5-8b83-96a852bd5ecd&thumb,강원도 강릉시 사천면 중앙서로,37.79411210000001,128.8185159
409,태용래프팅,강원 영월군,033-374-1444,"['동강래프팅', '래프팅', '레포츠', '서바이벌']",https://cdn.visitkorea.or.kr/img/call?cmd=VIEW&id=95469fed-0720-4a85-b2c1-cbdc8d60da59&thumb,강원도 영월군 영월읍 동강로 871-18,37.23596899,128.5119574
410,썸머쿨래프팅,강원 영월군,033-372-1412,"['동강래프팅', '레포츠', '영월동강래프팅', '영월래프팅']",https://cdn.visitkorea.or.kr/img/call?cmd=VIEW&id=a2d06b98-88a9-4daf-b795-f454bc7cf099&thumb,강원도 영월군 영월읍 동강로 241,37.20170179,128.5063589
411,미남스키,강원 평창군,033-332-8820,"['강원권', '겨울스포츠', '레포츠', '미남스키', '복합레저스포츠', '스노보드대여']",https://cdn.visitkorea.or.kr/img/call?cmd=VIEW&id=a44a2c5f-1af0-46e9-b2ac-2d9e8b48b850&thumb,강원도 평창군 봉평면 태기로 362,37.57277324,128.3422557
412,내린천 번지점프,강원 인제군,033-461-5216,['레포츠'],https://cdn.visitkorea.or.kr/img/call?cmd=VIEW&id=3a27d825-7e6f-4784-849d-9ea5462244b5&thumb,강원도 인제군 인제읍 설악로 2254,38.07759867,128.1861034
413,동강드림래프팅,강원 영월군,1899-3168,"['동강래프팅', '래프팅', '레포츠', '영월동강래프팅', '영월래프팅']",https://cdn.visitkorea.or.kr/img/call?cmd=VIEW&id=b6d79f0f-aaa7-47aa-a57b-9e0ba759e1d0&thumb,강원도 영월군 영월읍 어라연길 48,37.23463513,128.5171612
414,눈밥,강원 홍천군,033-435-1218,"['겨울스포츠', '레포츠', '복합레저스포츠', '복합레저스포츠', '스키대여', '스키렌탈']",https://cdn.visitkorea.or.kr/img/call?cmd=VIEW&id=e22e9476-1320-44db-81b3-32cf9b7cd51c&thumb,강원도 홍천군 서면 한치골길 911,37.69059048,127.6992044
415,카트조이레저 레저카트,강원 철원군,033-452-3822,"['레포츠', '아이와함께', '이색체험', '카트레저']",https://cdn.visitkorea.or.kr/img/call?cmd=VIEW&id=64dd6ce8-983d-48ac-88fc-cfe8c1ffdf59&thumb,강원도 철원군 갈말읍 드르니길 26,38.1503527,127.2984811
416,강촌레저 서바이벌,강원 춘천시,010-4858-0255,['레포츠'],https://cdn.visitkorea.or.kr/img/call?cmd=VIEW&id=fbe847ed-3808-443b-a37f-6de0031aefc4&thumb,강원도 춘천시 남산면 강촌로 151-1,37.80624754,127.63803119999999
417,스키스,강원 홍천군,033-434-8426,"['겨울스포츠', '레포츠', '복합레저스포츠', '스키대여', '스키렌탈', '스키샵', '익스트림스포츠']",https://cdn.visitkorea.or.kr/img/call?cmd=VIEW&id=6946c93a-e210-4ec3-ab4c-6c512f53c94e&thumb,강원도 홍천군 서면 한치골길 48,37.6256903,127.66751529999999
418,에스앤에스,강원 홍천군,033-435-7873,"['겨울스포츠', '레포츠', '복합레저스포츠', '스키대여', '스키렌탈', '스키샵', '익스트림스포츠']",https://cdn.visitkorea.or.kr/img/call?cmd=VIEW&id=ff85eb8d-60df-46b5-8459-ac7e67dd3d69&thumb,강원도 홍천군 서면 한서로 2054,37.62231517,127.6657129
419,성동힐링센터 휴영월캠프,강원 영월군,033-375-8870,"['가족여행', '동강', '래프팅', '레포츠', '캠프', '힐링']",https://cdn.visitkorea.or.kr/img/call?cmd=VIEW&id=efdf9dfa-f812-4fd8-9cb9-93b14715c60b&thumb,강원도 영월군 영월읍 동강로 1488-23,37.26913077,128.52632759999997
420,대화장터 가는길,강원 평창군,,"['강원권', '레포츠', '산책코스', '효석문화100리길']",https://cdn.visitkorea.or.kr/img/call?cmd=VIEW&id=bc9c2464-098c-4621-a511-53ad3b58296e&thumb,강원도 평창군 용평면 장평리 301-8,37.57817189,128.41622759999998
421,가지오래프팅,강원 영월군,033-374-9077,"['가지오래프팅', '강원권', '레저', '레포츠']",https://cdn.visitkorea.or.kr/img/call?cmd=VIEW&id=e1473a0c-9f60-47d3-abe9-1d42dede0a5f&thumb,강원도 영월군 영월읍 삼옥길 4,37.20784217,128.50910990000003
422,겨울세상,강원 평창군,033-336-5556,"['겨울스포츠', '레포츠', '복합레저스포츠', '스키대여', '스키렌탈', '스키샵', '익스트림스포츠']",https://cdn.visitkorea.or.kr/img/call?cmd=VIEW&id=ad447c82-9f97-4708-9c53-98f2258886af&thumb,강원도 평창군 대관령면 올림픽로 24,37.67667613,128.69994440000002
423,파인리즈컨트리클럽,강원 고성군,1577-6399,"['강원권', '골프장', '레포츠']",https://cdn.visitkorea.or.kr/img/call?cmd=VIEW&id=2d0d9231-49ef-4930-b8cb-4c825a6e2a50&thumb,강원도 고성군 토성면 잼버리동로 267,38.24322089,128.5375866
424,대관령스포츠,강원 평창군,033-334-0024,"['강원권', '겨울스포츠', '대관령스포츠', '레포츠', '복합레저스포츠', '스키대여']",https://cdn.visitkorea.or.kr/img/call?cmd=VIEW&id=b9e562d1-be43-4a39-865c-bc5af18cada8&thumb,강원도 평창군 봉평면 태기로 493,37.56363761,128.3501723
425,수인리낚시터,강원 양구군,033-480-2251,"['강원권', '레포츠', '민물낚시', '양구낚시', '양구낚시터']",https://cdn.visitkorea.or.kr/img/call?cmd=VIEW&id=b3f3e632-9f17-4092-91bf-83a159047bb5&thumb,강원도 양구군 양구읍 웅진리 332,38.04033144,127.9497506
426,파크밸리골프클럽,강원 원주시,033-731-4811,['레포츠'],https://cdn.visitkorea.or.kr/img/call?cmd=VIEW&id=50b5a329-1f59-4b00-a7da-3f4d0fd4be57&thumb,강원도 원주시 소초면 바우실길 281,37.38889492,128.013145
427,화이트스포츠,강원 횡성군,033-342-9800,"['겨울스포츠', '레포츠', '복합레저스포츠', '스키 강습소', '스키대여', '스키렌탈']",https://cdn.visitkorea.or.kr/img/call?cmd=VIEW&id=7e4ea7aa-8bb1-40a1-b791-0531eb0c3a74&thumb,강원도 횡성군 둔내면 고원로398번길 15-1,37.49675135,128.238215
428,용평 버치힐골프클럽,강원 평창군,1522-3111,['레포츠'],https://cdn.visitkorea.or.kr/img/call?cmd=VIEW&id=e9ac1387-ba09-47eb-b7d8-3e120584ca32&thumb,강원도 평창군 대관령면 올림픽로 715,37.65094444,128.7055569
429,수산항 요트 및 카누 체험,강원 양양군,033-672-3739,"['레포츠', '수산항', '수상레포츠', '요트체험', '카누체험']",https://cdn.visitkorea.or.kr/img/call?cmd=VIEW&id=15bf44f5-06c5-4876-a8cc-2d6104ea1300&thumb,강원도 양양군 손양면 수산1길 26-41,38.08028931,128.67336640000002
430,로시놀,강원 평창군,033-336-1221,"['겨울스포츠', '레포츠', '복합레저스포츠', '스키대여', '스키렌탈', '스키샵', '익스트림스포츠']",https://cdn.visitkorea.or.kr/img/call?cmd=VIEW&id=054917f1-8009-4938-acdc-bb6c80476f4d&thumb,강원도 평창군 대관령면 올림픽로 183,37.66676761,128.7100081
431,스키911,강원 횡성군,911 033-344-9119,"['겨울스포츠', '레포츠', '복합레저스포츠', '스키대여', '스키렌탈', '스키샵', '익스트림스포츠']",https://cdn.visitkorea.or.kr/img/call?cmd=VIEW&id=86419ab3-5ee0-4e4a-b301-eed5d019e693&thumb,강원도 횡성군 둔내면 고원로 162,37.51134347,128.22434840000003
432,기화리조트,강원 춘천시,033-263-1151,['레포츠'],https://cdn.visitkorea.or.kr/img/call?cmd=VIEW&id=e8315145-b4a4-4603-b255-7358180ee644&thumb,강원도 춘천시 남산면 방하로 444,37.77453253,127.54145859999998
433,구룡령 옛길,강원 양양군,033-670-2251,"['구룡령', '레포츠', '양양트레킹코스', '트레킹']",https://cdn.visitkorea.or.kr/img/call?cmd=VIEW&id=af14f066-5a16-4f28-83ff-62d36a589b5b&thumb,강원도 양양군 서면 갈천리 산21-2,37.908556700000005,128.50914699999998
434,방림 천제당길,강원 평창군,033-330-2742,['레포츠'],https://cdn.visitkorea.or.kr/img/call?cmd=VIEW&id=1f9ea1f0-c01e-42ee-adce-9c4818a0c734&thumb,강원도 평창군 방림면 천제당길,37.42744201,128.4139069
435,바이스포츠,강원 평창군,033-335-4958,"['겨울스포츠', '레포츠', '복합레저스포츠', '스키대여', '스키렌탈', '스키샵', '익스트림스포츠']",https://cdn.visitkorea.or.kr/img/call?cmd=VIEW&id=783fc14c-9fa7-4dd7-bcad-690888be76ae&thumb,강원도 평창군 대관령면 삼현동1길 10-6,37.66219491,128.6986281
436,짚트랙,강원 인제군,033-461-5216,['레포츠'],https://cdn.visitkorea.or.kr/img/call?cmd=VIEW&id=33ec6d0c-ff06-4216-b06d-e2feb20722d0&thumb,강원도 인제군 인제읍 내린천로 6211,38.04304029,128.20681159999998
437,100고개길,강원 원주시,033-737-2111,['레포츠'],https://cdn.visitkorea.or.kr/img/call?cmd=VIEW&id=844282b7-2296-433b-8008-23b8900dfa03&thumb,강원도 원주시 치악로 1906,37.35124633,127.9559887
438,코리아레저스쿨,강원 평창군,033-335-7787,"['겨울스포츠', '레포츠', '복합레저스포츠', '스키대여', '스키렌탈', '스키샵', '익스트림스포츠']",https://cdn.visitkorea.or.kr/img/call?cmd=VIEW&id=6a52244f-0dcd-4c65-9692-f16d0f102ece&thumb,강원도 평창군 대관령면 솔봉로 469,37.655824100000004,128.6824173
439,눈의나라,강원 정선군,033-591-1221,"['겨울스포츠', '레포츠', '복합레저스포츠', '스키 강습소', '스키대여', '스키렌탈']",https://cdn.visitkorea.or.kr/img/call?cmd=VIEW&id=e5c6177f-2926-4231-b0d8-bba0028a0d23&thumb,강원도 정선군 고한읍 고한로 47,37.20717375,128.8443454
440,동양원목오토캠핑장,강원 영월군,010-5358-7265,"['동양원목오토캠핑장', '레포츠', '영월캠핑장', '오토캠핑장']",https://cdn.visitkorea.or.kr/img/call?cmd=VIEW&id=3f1e5da9-cd5b-48a3-b206-79f205a6dc63&thumb,강원도 영월군 수주면 명마동길 13,37.2862959,128.2779438
441,무실배과수원길,강원 원주시,033-737-2111,['레포츠'],https://cdn.visitkorea.or.kr/img/call?cmd=VIEW&id=83a9f006-74ff-402f-9e09-5c1946e2f0c5&thumb,강원도 원주시 만대로 155,37.33543002,127.92165929999999
442,스키짱 주인짱,강원 횡성군,033-342-6004,"['겨울스포츠', '레포츠', '복합레저스포츠', '스키대여', '스키렌탈', '스키샵', '스포츠']",https://cdn.visitkorea.or.kr/img/call?cmd=VIEW&id=ace75b97-6ed6-45e5-aa8f-75dd809ab6fd&thumb,강원도 횡성군 둔내면 고원로 98,37.50981767,128.2171697
443,휘닉스 컨트리클럽,강원 평창군,1577-0755,['레포츠'],https://cdn.visitkorea.or.kr/img/call?cmd=VIEW&id=32ef65c9-acc7-4eb6-8558-9b67ac006840&thumb,강원도 평창군 봉평면 태기로 174,37.58246341,128.3268678
444,스노우밸리,강원 원주시,033-743-6076,"['겨울스포츠', '레포츠', '복합레저스포츠', '스키대여', '스키렌탈', '스키샵', '익스트림스포츠']",https://cdn.visitkorea.or.kr/img/call?cmd=VIEW&id=74b588aa-2796-446a-8e1c-d9a83ff1aa42&thumb,강원도 원주시 지정면 구재로 269,37.40701547,127.80154340000001
445,눈내리는겨울,강원 평창군,033-335-9959,['레포츠'],https://cdn.visitkorea.or.kr/img/call?cmd=VIEW&id=734177f9-a11b-4f60-8614-fe6772f418e6&thumb,강원도 평창군 대관령면 올림픽로 236,37.66513502,128.7049764
446,드림하이원스키샵,강원 정선군,033-591-3025,"['겨울스포츠', '레포츠', '복합레저스포츠', '스키대여', '스키렌탈', '스키샵', '익스트림스포츠']",https://cdn.visitkorea.or.kr/img/call?cmd=VIEW&id=e62f5f68-76dc-4b0a-9bd3-192b1b9cb5ee&thumb,강원도 정선군 고한읍 물한리길 52,37.21013111,128.8383149
447,연어 자전거길,강원 양양군,033-670-2114,"['레포츠', '연어자전거길', '자전거트레킹', '트레킹']",https://cdn.visitkorea.or.kr/img/call?cmd=VIEW&id=c5edd881-d0e5-41b5-bfd9-3b431c67e2c5&thumb,강원도 양양군 양양읍 남문리,38.07355871,128.6250446
448,원주두리캠핑장,강원 원주시,010-4032-9469,"['계곡캠핑장', '레포츠', '원주두리캠핑장', '원주캠핑장']",https://cdn.visitkorea.or.kr/img/call?cmd=VIEW&id=ca75fd5b-ef21-45a8-8ac3-beb8ccb92ae6&thumb,강원도 원주시 신림면 신림황둔로 974,37.24854211,128.16871650000002
449,오크글램핑,강원 원주시,033-733-2253,"['레포츠', '오크글램핑', '원주글램핑', '원주캠핑장']",https://cdn.visitkorea.or.kr/img/call?cmd=VIEW&id=ef2644ef-0e6f-4f5d-9633-55a48e3918a4&thumb,강원도 원주시 지정면 송정로 2-1,37.38459621,127.8602439
450,소금산 암벽등반,강원 원주시,033-731-4088,['레포츠'],https://cdn.visitkorea.or.kr/img/call?cmd=VIEW&id=0b1f41ef-a78a-4f08-8363-03ccb788727f&thumb,강원도 원주시 지정면 소금산길 26,37.36489335,127.83254550000001
451,성우스키샵,강원 횡성군,033-345-5735,"['겨울스포츠', '레포츠', '복합레저스포츠', '스키대여', '스키렌탈', '스키샵', '익스트림스포츠']",https://cdn.visitkorea.or.kr/img/call?cmd=VIEW&id=56d7b8f4-2b2b-4bf8-b36d-ef007f713fc3&thumb,강원도 횡성군 둔내면 고원로 419,37.49732538,128.24081370000002
452,황학동캠핑장,강원 원주시,,['레포츠'],https://cdn.visitkorea.or.kr/img/call?cmd=VIEW&id=d510991a-3b5d-41a6-8a3b-1d66dcf49637&thumb,강원도 원주시 신림면 구학산로 1456-6,37.20869039,128.0453531
453,치악신림오토캠핑장,강원 원주시,010-2612-1134,"['레포츠', '오토캠핑장', '원주오토캠핑장', '치악신림오토캠핑장']",https://cdn.visitkorea.or.kr/img/call?cmd=VIEW&id=d83743c9-42c2-49e5-a222-3371cbd9582c&thumb,강원도 원주시 신림면 성남로 194,37.2622395,128.08453799999998
454,아이언웨이,강원 인제군,033-461-5216,['레포츠'],https://cdn.visitkorea.or.kr/img/call?cmd=VIEW&id=aa50bfb7-d647-40a4-a493-b0071785c843&thumb,강원도 인제군 인제읍 내린천로 6211,38.04304029,128.20681159999998
455,아르고,강원 인제군,033-461-5216,['레포츠'],https://cdn.visitkorea.or.kr/img/call?cmd=VIEW&id=f15ac53c-f5d9-485b-88e6-f215df3dfed5&thumb,강원도 인제군 인제읍 내린천로 6211,38.04304029,128.20681159999998
456,금대길,강원 원주시,033-737-2111,['레포츠'],https://cdn.visitkorea.or.kr/img/call?cmd=VIEW&id=621f1ef9-c661-40d2-9c04-18451f93e04a&thumb,강원도 원주시 동부순환로 26,37.31848877,127.9713524
457,봄내길 2코스,강원 춘천시,033-251-9363,['레포츠'],https://cdn.visitkorea.or.kr/img/call?cmd=VIEW&id=d5c80f7a-43ff-4ac8-b172-1cae30209fbd&thumb,강원도 춘천시 남산면 강촌구곡길 254,37.79703294,127.6158514
458,아이러브스키,강원 횡성군,033-342-4550,"['강원권', '겨울스포츠', '레포츠', '복합레저스포츠', '스키대여', '스키렌탈', '스키샵']",https://cdn.visitkorea.or.kr/img/call?cmd=VIEW&id=4866e7ec-81b7-4aff-91e1-9399052b6146&thumb,강원도 횡성군 둔내면 고원로 387,37.4989106,128.2382896
459,파크밸리CC,강원 원주시,033-744-4000,"['골프장', '레포츠', '원주골프장', '파크밸리CC']",https://cdn.visitkorea.or.kr/img/call?cmd=VIEW&id=7bb148ac-f488-4ea6-a58e-3f0e118f28a3&thumb,강원도 원주시 소초면 바우실길 281,37.38889492,128.013145
460,땡스키,강원 춘천시,033-263-8388,"['겨울스포츠', '레포츠', '복합레저스포츠', '스키대여', '스키렌탈', '스키샵', '익스트림스포츠']",https://cdn.visitkorea.or.kr/img/call?cmd=VIEW&id=1b23b60f-9c64-4cc9-99b0-42f162342d13&thumb,강원도 춘천시 남산면 서백길 86-4,37.84065705,127.55176570000002
461,스키뱅크,강원 평창군,033-336-8144,"['겨울스포츠', '레포츠', '복합레저스포츠', '스키대여', '스키렌탈', '스키샵', '익스트림스포츠']",https://cdn.visitkorea.or.kr/img/call?cmd=VIEW&id=98ca1023-20cb-4abc-be24-40c3ca800874&thumb,강원도 평창군 대관령면 올림픽로 56,37.67377447,128.70047659999997
462,사람과자연,강원 평창군,033-335-3330,"['겨울스포츠', '레포츠', '복합레저스포츠', '스키대여', '스키렌탈', '스키샵', '익스트림스포츠']",https://cdn.visitkorea.or.kr/img/call?cmd=VIEW&id=908e8934-4b52-40fb-ac72-6881edc28739&thumb,강원도 평창군 대관령면 올림픽로 234,37.66524956,128.7053288
463,장사어촌계 배낚시,강원 속초시,033-632-9479,"['강원권', '레포츠', '바다낚시', '배낚시', '속초바다', '속초바다낚시']",https://cdn.visitkorea.or.kr/img/call?cmd=VIEW&id=60f964bd-2a0a-4c85-a83c-50c90b63f75c&thumb,강원도 속초시 장사항해안길 58,38.22664409,128.5880191
464,보트,강원 강릉시,033-651-3344,"['레포츠', '보트체험', '이색체험', '해양스포츠']",https://cdn.visitkorea.or.kr/img/call?cmd=VIEW&id=null&thumb,강원도 강릉시 송정동 268,37.78544903,128.9279328
465,스키아이,강원 평창군,010-4385-8888,['레포츠'],https://cdn.visitkorea.or.kr/img/call?cmd=VIEW&id=9f74469f-eb85-4643-9f72-969412be42e7&thumb,강원도 평창군 봉평면 태기로 789-122,37.57526073,128.3639134
466,금방아민박캠핑장,강원 영월군,010-2258-7967,"['금방아민박캠핑장', '레포츠', '영월민박', '영월캠핑장']",https://cdn.visitkorea.or.kr/img/call?cmd=VIEW&id=78431bf7-d783-4e53-bf27-d534122fd9d3&thumb,강원도 영월군 수주면 무릉법흥로 516,37.31786034,128.2603555
467,아빠가 만든 캠핑장,강원 영월군,010-2766-9010,"['가족과함께', '레포츠', '아이와함께', '영월캠핑장']",https://cdn.visitkorea.or.kr/img/call?cmd=VIEW&id=67467544-3edc-49b2-bd1f-6e3a8f8b6f8e&thumb,강원도 영월군 북면 덕전길 240,37.25562363,128.3930078
468,하얀여울 캠핑장,강원 영월군,033-374-9058,"['레포츠', '야외캠핑장', '영월캠핑장', '하얀여울캠핑장']",https://cdn.visitkorea.or.kr/img/call?cmd=VIEW&id=60085e94-4785-4888-9343-ea76b29a6d83&thumb,강원도 영월군 수주면 무릉법흥로 932,37.34028551,128.2805875
469,녹색경관길,강원 양양군,033-670-2114,"['녹색경관길', '레포츠', '산책코스', '트레킹']",https://cdn.visitkorea.or.kr/img/call?cmd=VIEW&id=8de96330-42f3-40c1-a2cc-7e890748d548&thumb,강원도 양양군 강현면 정암리,38.14304691,128.6073493
470,배말나루길,강원 원주시,033-737-2111,['레포츠'],https://cdn.visitkorea.or.kr/img/call?cmd=VIEW&id=c7f8f507-505c-4007-9ff5-e9992a33c41c&thumb,강원도 원주시 북원로 2613,37.37711036,127.9442443
471,포인트스키,강원 평창군,033-336-0297,"['겨울스포츠', '레포츠', '복합레저스포츠', '스키대여', '스키렌탈', '스키샵', '익스트림스포츠']",https://cdn.visitkorea.or.kr/img/call?cmd=VIEW&id=fbc70ffb-40ef-4bd9-ba84-61bb3b4f11f5&thumb,강원도 평창군 대관령면 올림픽로 12,37.67775657,128.69995559999998
472,용평 나인골프클럽,강원 평창군,1522-3111,['레포츠'],https://cdn.visitkorea.or.kr/img/call?cmd=VIEW&id=1c0069e3-f6b0-40fa-b50c-a0a413891719&thumb,강원도 평창군 대관령면 올림픽로 715,37.65094444,128.7055569
473,월드스키,강원 횡성군,033-344-4221,"['겨울스포츠', '레포츠', '복합레저스포츠', '스키대여', '스키렌탈', '스키샵', '익스트림스포츠']",https://cdn.visitkorea.or.kr/img/call?cmd=VIEW&id=5ff00941-98f6-418f-a6fd-acdf02b577bb&thumb,강원도 횡성군 둔내면 고원로 112,37.51012341,128.2190176
474,황둔애오토캠핑장,강원 원주시,010-2620-7967,"['레포츠', '오토캠핑장', '원주오토캠핑장', '원주캠핑장', '황둔애오토캠핑장']",https://cdn.visitkorea.or.kr/img/call?cmd=VIEW&id=2d800958-bae1-4a73-9958-f587ac459364&thumb,강원도 원주시 신림면 신림황둔로 1032,37.25176372,128.17528570000002
475,꽃밭머리길,강원 원주시,033-737-5132,['레포츠'],https://cdn.visitkorea.or.kr/img/call?cmd=VIEW&id=83969a52-13a8-4cc8-b624-b972c9132b33&thumb,강원도 원주시 고문골길 1,37.34325563,128.0020442
476,스키911,강원 평창군,911 033-335-1235,"['겨울스포츠', '레포츠', '복합레저스포츠', '스키대여', '스키렌탈', '스키샵', '익스트림스포츠']",https://cdn.visitkorea.or.kr/img/call?cmd=VIEW&id=4e09cfc1-bc46-407d-9572-709c44df8c62&thumb,강원도 평창군 대관령면 올림픽로 10,37.67785529,128.69988759999998
477,강윤정프로샵(오크점),강원 원주시,033-742-4320,"['겨울스포츠', '레포츠', '복합레저스포츠', '스키대여', '스키렌탈', '스키샵', '익스트림스포츠']",https://cdn.visitkorea.or.kr/img/call?cmd=VIEW&id=7acc0279-c2d3-4532-a76b-bb3b91dcb61e&thumb,강원도 원주시 지정면 구재로 216,37.40320606,127.79898610000001
478,그루터기 캠핑장,강원 양양군,010-673-8767,"['그루터기캠핑장', '레포츠', '양양캠핑장', '양양펜션']",https://cdn.visitkorea.or.kr/img/call?cmd=VIEW&id=ba2fb892-ac23-4358-b25f-39a5782fb36e&thumb,강원도 양양군 서면 구룡령로 1694,37.95566652,128.5091045
479,치악산휴양림길,강원 원주시,033-737-2111,"['레포츠', '원주트레킹코스', '치악산휴양림', '치악산휴양림길', '트레킹']",https://cdn.visitkorea.or.kr/img/call?cmd=VIEW&id=5c6c707c-88f0-4234-83f8-9bc0112a6bc3&thumb,강원도 원주시 판부면 휴양림길 66,37.2558736,128.03138
480,건등낚시터,강원 원주시,033-735-5294,"['강원권', '레포츠', '민물낚시', '원주낚시', '원주낚시터']",https://cdn.visitkorea.or.kr/img/call?cmd=VIEW&id=2a057f77-d287-4eb4-a036-8baeb2cd733c&thumb,강원도 원주시 문막읍 건등리 137-2,37.31223516,127.83685200000001
481,한반도승마장,강원 영월군,033-372-2333,['레포츠'],https://cdn.visitkorea.or.kr/img/call?cmd=VIEW&id=f84d66b5-b7a9-4532-b8ad-d698a893b49f&thumb,강원도 영월군 주천면 주천리 304,37.26188169,128.2907635
482,연화산둘레길,강원 태백시,033-581-0029,['레포츠'],https://cdn.visitkorea.or.kr/img/call?cmd=VIEW&id=f72a2906-4e61-4eec-babf-a5cecfa16f2e&thumb,강원도 태백시 연화산길 155,37.14775613,129.0108908
483,더스노우(the snow),강원 춘천시,010-5050-8910,"['겨울스포츠', '레포츠', '복합레저스포츠', '스키대여', '스키렌탈', '스키샵', '익스트림스포츠']",https://cdn.visitkorea.or.kr/img/call?cmd=VIEW&id=27d08e07-a77a-4668-bdcc-8401d8b56f84&thumb,강원도 춘천시 남산면 서백길 81,37.84092372,127.5522486
484,드림월드프로샵,강원 횡성군,033-345-2022,"['겨울스포츠', '레포츠', '복합레저스포츠', '스키 강습소', '스키대여', '스키샵']",https://cdn.visitkorea.or.kr/img/call?cmd=VIEW&id=87876b1e-2425-483c-928f-098ce7e5c8a7&thumb,강원도 횡성군 둔내면 고원로 397,37.49817999,128.23897979999998
485,개야강변 야영장,강원 홍천군,033-434-0454,"['개야강변야영장', '레포츠', '홍천낚시터', '홍천야영장']",https://cdn.visitkorea.or.kr/img/call?cmd=VIEW&id=24d98f31-bc14-41ce-ba50-78d4c930fd2c&thumb,강원도 홍천군 서면 개야마을길,37.69594713,127.63328519999999
486,북원역사길,강원 원주시,033-737-2111,['레포츠'],https://cdn.visitkorea.or.kr/img/call?cmd=VIEW&id=6a55e2c4-d26f-4a7f-9a79-d482b2d345b2&thumb,강원도 원주시 원일로 85,37.3481818,127.9499428
487,백운낚시터,강원 원주시,033-762-4630,"['강원권', '레포츠', '민물낚시', '원주낚시', '원주낚시터']",https://cdn.visitkorea.or.kr/img/call?cmd=VIEW&id=afcd7cb9-e2de-46bc-810a-6f3fdf5c6b24&thumb,강원도 원주시 판부면 서곡리,37.28367211,127.9481129
488,굴봉산 캠핑장,강원 춘천시,033-254-1190,['레포츠'],https://cdn.visitkorea.or.kr/img/call?cmd=VIEW&id=193a0ac4-3997-4a17-b46e-a069acd84940&thumb,강원도 춘천시 남산면 백양리 252-1,37.80487849,127.5738119
489,상순네 오토캠핑장,강원 영월군,010-8994-3167,['레포츠'],https://cdn.visitkorea.or.kr/img/call?cmd=VIEW&id=efc239b3-600b-4fbd-aee9-209e5e7f6c6e&thumb,강원도 영월군 중동면 고장골길 76-6,37.1549652,128.6586681
490,설인스키샵,강원 평창군,033-335-7663,"['겨울스포츠', '레포츠', '복합레저스포츠', '스키대여', '스키대여', '스키렌탈']",https://cdn.visitkorea.or.kr/img/call?cmd=VIEW&id=b68a7a5a-d6fb-4859-ae0e-0cc733ecd217&thumb,강원도 평창군 대관령면 삼현동1길 10-6,37.66219491,128.6986281
491,스키114,강원 횡성군,114 033-343-5114,"['겨울스포츠', '레포츠', '복합레저스포츠', '스키 강습소', '스키대여', '스키렌탈']",https://cdn.visitkorea.or.kr/img/call?cmd=VIEW&id=5ab78acf-e818-43a7-8aff-4a8fde58aaad&thumb,강원도 횡성군 둔내면 고원로 222,37.50875214,128.2261388
492,피싱12,강원 홍천군,033-434-0847,"['레포츠', '무궁화낚시터', '피싱12', '홍천낚시터']",https://cdn.visitkorea.or.kr/img/call?cmd=VIEW&id=fa5a85b3-6456-4661-a6f4-866fef39ffab&thumb,강원도 홍천군 서면 밤벌길2번길 35,37.6948838,127.6022465
493,저류지캠핑장,강원 영월군,033-372-1263,"['레포츠', '야외캠핑장', '영월캠핑장', '저류지캠핑장']",https://cdn.visitkorea.or.kr/img/call?cmd=VIEW&id=34adc7de-c710-4046-8e47-0e59cf117880&thumb,강원도 영월군 영월읍 방절리 352-1,37.191354100000005,128.4483631
494,솔숲캠핑장,강원 영월군,010-8903-8962,['레포츠'],https://cdn.visitkorea.or.kr/img/call?cmd=VIEW&id=0eeeb103-b0e1-4755-bd9e-06fe28873d4f&thumb,강원도 영월군 수주면 무릉법흥로 588-80,37.32495693,128.2610776
495,백야,강원 평창군,033-332-4407,"['겨울스포츠', '레포츠', '복합레저스포츠', '스키 강습소', '스키대여', '스키렌탈']",https://cdn.visitkorea.or.kr/img/call?cmd=VIEW&id=359c831e-c575-44de-bb04-0f32da7053a4&thumb,강원도 평창군 봉평면 태기로 527,37.56412279999999,128.3538263
496,스노우뱅크,강원 정선군,033-591-1588,"['겨울스포츠', '레포츠', '복합레저스포츠', '스키 강습소', '스키대여', '스키렌탈']",https://cdn.visitkorea.or.kr/img/call?cmd=VIEW&id=dee713c2-b236-4c0a-951e-782a68f0c947&thumb,강원도 정선군 고한읍 고한로 36,37.20787721,128.8432506
497,월명리낚시터,강원 양구군,033-482-3385,"['강원권', '레포츠', '민물낚시', '양구낚시', '양구낚시터']",https://cdn.visitkorea.or.kr/img/call?cmd=VIEW&id=b4639901-9fd2-410c-b517-7c91f5df9cfd&thumb,강원도 양구군 양구읍 간척월명로 1715,38.11779545,127.89806000000002
498,두산분교캠핑장,강원 영월군,010-5471-6388,['레포츠'],https://cdn.visitkorea.or.kr/img/call?cmd=VIEW&id=740192c1-6427-43ee-900c-80d9f02799d8&thumb,강원도 영월군 수주면 두산길 241,37.30814595,128.1699154
499,인공암벽장,강원 태백시,033-552-8229,"['레포츠', '암벽체험', '이색체험', '인공암벽장']",https://cdn.visitkorea.or.kr/img/call?cmd=VIEW&id=33f2f6d5-1269-4142-849d-ca77be29defc&thumb,강원도 태백시 천제단길 203-52,37.11468043,128.9514681
500,동강시스타CC,강원 영월군,033-905-2800,"['골프장', '동강시스타CC', '레포츠', '영월골프클럽']",https://cdn.visitkorea.or.kr/img/call?cmd=VIEW&id=d3894ec2-727a-4d4c-bfd7-0229b683b156&thumb,강원도 영월군 영월읍 삼옥리 362,37.21668835,128.5114018
501,뜨란솔 캠핑장,강원 영월군,033-374-7677,"['레포츠', '야외캠핑장', '영월캠핑장', '이색체험']",https://cdn.visitkorea.or.kr/img/call?cmd=VIEW&id=c0b77cf0-22a5-482d-9f91-832cd1eab12d&thumb,강원도 영월군 수주면 법흥리 625-1,37.33182282,128.2763987
502,상동통나무캠핑장,강원 영월군,033-378-6622,"['레포츠', '야외캠핑장', '영월캠핑장']",https://cdn.visitkorea.or.kr/img/call?cmd=VIEW&id=09d5593e-b895-4cfe-abc4-81ce2d903647&thumb,강원도 영월군 상동읍 태백산로 3419,37.12028826,128.8420259
503,어울림 펜션캠핑장,강원 영월군,010-2693-8456,"['레포츠', '야외캠핑장', '영월캠핑장', '영월펜션']",https://cdn.visitkorea.or.kr/img/call?cmd=VIEW&id=9184894a-2789-41d0-ade5-ce58cd9f407a&thumb,강원도 영월군 한반도면 후탄리 329-2,37.1986022,128.37303219999998
504,인구항 배낚시,강원 양양군,033-671-8721,"['강원권', '레포츠', '바다낚시', '배낚시', '양양바다', '양양바다낚시']",https://cdn.visitkorea.or.kr/img/call?cmd=VIEW&id=18d0865e-10a2-4dca-88b1-4e7c6cf2dce8&thumb,강원도 양양군 현남면 인구리,37.95909493,128.745476
505,안보등산로,강원 강릉시,033-640-5420,"['레포츠', '안보등산로', '안보체험길', '트레킹']",https://cdn.visitkorea.or.kr/img/call?cmd=VIEW&id=null&thumb,강원도 강릉시 강동면 정동진리,37.69471431,129.0109086
506,물가애 캠핑장,강원 원주시,010-8330-5002,['레포츠'],https://cdn.visitkorea.or.kr/img/call?cmd=VIEW&id=null&thumb,강원도 원주시 호저면 칠봉로 840-74,37.46167279,127.89968049999999
507,장산야영장캠핑장,강원 영월군,033-378-3000,['레포츠'],https://cdn.visitkorea.or.kr/img/call?cmd=VIEW&id=cc490321-5944-41c2-8f45-cc791e8c39d0&thumb,강원도 영월군 상동읍 천평리 58-1,37.10923097,128.8664732
508,준스키,강원 평창군,010-3737-2522,"['겨울스포츠', '레포츠', '복합레저스포츠', '스키대여', '스키렌탈', '스키샵', '익스트림스포츠']",https://cdn.visitkorea.or.kr/img/call?cmd=VIEW&id=c5eac3d2-21a2-409e-9870-f2ea3cacb4fd&thumb,강원도 평창군 봉평면 태기로 155,37.58459165,128.32704669999998
509,모곡레저타운,강원 홍천군,033-435-8333,"['레포츠', '모곡레저타운', '오토캠핑장', '홍천밤벌유원지']",https://cdn.visitkorea.or.kr/img/call?cmd=VIEW&id=fa96f9e4-333b-46d1-b115-659de485e3a7&thumb,강원도 홍천군 서면 밤벌길 141,37.70308127,127.6023404
510,늘푸른 캠핑장,강원 영월군,070-4145-1008,"['늘푸른캠핑장', '레포츠', '야외캠핑장', '영월캠핑장']",https://cdn.visitkorea.or.kr/img/call?cmd=VIEW&id=f4a0896d-3803-4ca2-b2a3-c28bc3545c50&thumb,강원도 영월군 김삿갓면 내리계곡로 1116-4,37.10783739,128.67563059999998
511,달과별 캠핑장,강원 영월군,070-4254-5549,"['달과별캠핑장', '레포츠', '야외캠핑장', '영월캠핑장']",https://cdn.visitkorea.or.kr/img/call?cmd=VIEW&id=d4d3af02-8e90-403f-bc5e-96c66702efd6&thumb,강원도 영월군 상동읍 덕구리 15,37.095493299999994,128.8104426
512,별마로 펜션캠핑,강원 영월군,010-4138-3919,"['레포츠', '법흥계곡', '별마로펜션캠핑', '영월캠핑장', '영월펜션']",https://cdn.visitkorea.or.kr/img/call?cmd=VIEW&id=e016047c-b1fb-4c23-8902-1ae97f5affe3&thumb,강원도 영월군 수주면 무릉법흥로 1078-22,37.35149848,128.2800842
513,사슬치 캠핑장,강원 영월군,010-4822-7852,"['레포츠', '사슬치캠핑장', '야외캠핑장', '영월캠핑장']",https://cdn.visitkorea.or.kr/img/call?cmd=VIEW&id=353624cc-1700-43ea-a30e-917781e01a15&thumb,강원도 영월군 주천면 용석리 339,37.22051846,128.2960727
514,거북이낚시터,강원 춘천시,033-242-3199,"['강원권', '레포츠', '민물낚시', '춘천낚시', '춘천낚시터']",https://cdn.visitkorea.or.kr/img/call?cmd=VIEW&id=d0afb517-9cd2-4948-abbe-e9844e8d56bf&thumb,강원도 춘천시 서면 현암리 698-3,37.8754407,127.6780412
515,용평골프클럽,강원 평창군,1522-3111,['레포츠'],https://cdn.visitkorea.or.kr/img/call?cmd=VIEW&id=378fd683-6f0a-4ff3-84b6-27ac0ad08722&thumb,강원도 평창군 대관령면 올림픽로 715,37.65094444,128.7055569
516,봉포다이빙,강원 고성군,033-631-1565,"['다이빙체험', '레포츠', '봉포다이빙', '이색체험']",https://cdn.visitkorea.or.kr/img/call?cmd=VIEW&id=9770ce31-f5fe-4236-bb9d-f9ae97321dec&thumb,강원도 고성군 토성면 봉포해변길 114,38.25088876,128.56730100000001
517,아야진 스쿠버리조트,강원 고성군,033-632-8182,"['레포츠', '스쿠버체험', '아야진스쿠버리조트', '아이와함께', '이색체험']",https://cdn.visitkorea.or.kr/img/call?cmd=VIEW&id=b7fde539-5124-4fc6-a347-a05987e26222&thumb,강원도 고성군 토성면 아야진해변길 104,38.27400369,128.5561386
518,아야진항 배낚시,강원 고성군,010-5694-1230,"['강원권', '고성바다', '고성바다낚시', '레포츠', '바다낚시']",https://cdn.visitkorea.or.kr/img/call?cmd=VIEW&id=83ade91b-c8cf-4d77-a515-f0185c0e5ea5&thumb,강원도 고성군 토성면 아야진해변길 80,38.27214478,128.5560294
519,휴가를 부탁해 캠핑장,강원 영월군,010-5410-8591,"['레포츠', '야외캠핑장', '영월캠핑장', '오토캠핑장']",https://cdn.visitkorea.or.kr/img/call?cmd=VIEW&id=f444b759-e799-4442-bbd5-cb83f0674b78&thumb,강원도 영월군 김삿갓면 내리계곡로 1024,37.10344411,128.68284440000002
520,월척낚시터,강원 춘천시,033-243-2271,"['강원권', '레포츠', '민물낚시', '춘천낚시', '춘천낚시터']",https://cdn.visitkorea.or.kr/img/call?cmd=VIEW&id=866d4105-f157-44da-9800-731c2805c0a1&thumb,강원도 춘천시 서면 박사로 914-14,37.89784898,127.69451979999998
521,서울스키,강원 횡성군,033-344-4441,"['겨울스포츠', '레포츠', '복합레저스포츠', '스키대여', '스키렌탈', '스키샵', '익스트림스포츠']",https://cdn.visitkorea.or.kr/img/call?cmd=VIEW&id=009e2a07-fdcb-4cc0-b5ba-25c6309afa1f&thumb,강원도 횡성군 둔내면 고원로 404,37.497454,128.2391171
522,좋은친구들,강원 정선군,1644-5822,"['겨울스포츠', '레포츠', '복합레저스포츠', '스키대여', '스키렌탈', '스키샵', '익스트림스포츠']",https://cdn.visitkorea.or.kr/img/call?cmd=VIEW&id=cb43bc2d-f9f9-4eb6-9cd6-949990279249&thumb,강원도 정선군 고한읍 고한로 8,37.20960347,128.8413399
523,알프스스키,강원 평창군,033-336-1777,"['겨울스포츠', '레포츠', '복합레저스포츠', '스키대여', '스키렌탈', '스키샵', '익스트림스포츠']",https://cdn.visitkorea.or.kr/img/call?cmd=VIEW&id=4c2fa944-a539-4efa-8e3f-9eb744033dae&thumb,강원도 평창군 대관령면 올림픽로 18,37.67720095,128.7001023
524,교암 스쿠버리조트,강원 고성군,033-632-1187,"['교암스쿠버리조트', '교암해수욕장', '레포츠', '스킨스쿠버다이빙']",https://cdn.visitkorea.or.kr/img/call?cmd=VIEW&id=6f49aebc-b209-466c-be1c-179291450c67&thumb,강원도 고성군 토성면 천학정길 12,38.28928623,128.5478624
525,마대산장 캠핑장,강원 영월군,033-375-5114,"['레포츠', '마대산장캠핑장', '야외캠핑장', '영월캠핑장']",https://cdn.visitkorea.or.kr/img/call?cmd=VIEW&id=0ce57bff-b02c-4e97-81d5-129515e7d74d&thumb,강원도 영월군 대야리 116-3,37.10796724,128.5619585
526,기사문항 배낚시,강원 양양군,033-672-8988,"['강원권', '레포츠', '바다낚시', '배낚시', '양양바다', '양양바다낚시']",https://cdn.visitkorea.or.kr/img/call?cmd=VIEW&id=0b1fcec5-1d4c-4749-a97c-a264207cf747&thumb,강원도 양양군 현북면 기사문리,38.0083682,128.7260957
527,아리울 캠핑장,강원 원주시,010-4463-6420,['레포츠'],https://cdn.visitkorea.or.kr/img/call?cmd=VIEW&id=9522fbf7-1513-4140-bd56-ba4e2e05fe68&thumb,강원도 원주시 신림면 재사동길 143,37.237885600000006,128.1640233
528,광명낚시터,강원 춘천시,033-243-5127,"['강원권', '레포츠', '민물낚시', '춘천낚시터']",https://cdn.visitkorea.or.kr/img/call?cmd=VIEW&id=da6e2151-07fd-44ac-bcb6-5f405ea4041d&thumb,강원도 춘천시 서면 박사로 741-11,37.88621512,127.683806
529,판운 캠핑장,강원 영월군,033-375-0157,"['레포츠', '야외캠핑장', '영월캠핑장', '판운캠핑장']",https://cdn.visitkorea.or.kr/img/call?cmd=VIEW&id=00d3201d-03b0-44d0-837c-7460529a9bc3&thumb,강원도 영월군 주천면 미다리길 58,37.29153777,128.3265636
530,호식이 캠핑장,강원 영월군,010-3181-6696,"['레포츠', '야외캠핑장', '영월캠핑장', '호식이캠핑장']",https://cdn.visitkorea.or.kr/img/call?cmd=VIEW&id=255134dd-e4f7-44bf-9e88-def3185ce0aa&thumb,강원도 영월군 주천면 중선로 215,37.31163628,128.31879479999998
531,힐링 캠프,강원 영월군,010-3331-3254,"['레포츠', '야외캠핑장', '영월캠핑장', '힐링캠프']",https://cdn.visitkorea.or.kr/img/call?cmd=VIEW&id=3cd84e04-aa7a-405c-a349-d73139af4bee&thumb,강원도 영월군 수주면 무릉법흥로 1208-7,37.36410794,128.2734027
532,사이클경기장,강원 양양군,033-670-2883,"['레포츠', '사이클경기장', '아이와함께', '이색경기장']",https://cdn.visitkorea.or.kr/img/call?cmd=VIEW&id=8143ae80-4d4a-43b2-a416-0ee1d99cf8b3&thumb,강원도 양양군 양양읍 군청길 1,38.07550927,128.6189563
533,호호캠핑장,강원 원주시,010-5180-2351,"['레포츠', '야외캠핑장', '원주캠핑장', '호호캠핑장']",https://cdn.visitkorea.or.kr/img/call?cmd=VIEW&id=4a17ed65-8d9f-4024-ba73-3a3a1c70184d&thumb,강원도 원주시 신림면 무시정길 16,37.25180467,128.0824294
534,한터둘레길,강원 원주시,033-737-2111,"['강원트레킹코스', '레포츠', '트레킹', '한터둘레길']",https://cdn.visitkorea.or.kr/img/call?cmd=VIEW&id=34418d05-96ce-48fc-88ae-4fa2c8404f6d&thumb,강원도 원주시 호저면 대덕길 133,37.42552234,127.93855970000001
535,한다리골야영장,강원 원주시,010-9674-0101,"['레포츠', '원주야영장', '원주캠핑장', '한다리골야영장']",https://cdn.visitkorea.or.kr/img/call?cmd=VIEW&id=7625e04e-f079-4ca6-bcd7-f27066bfbf50&thumb,강원도 원주시 소초면 백교길 84-15,37.42608775,128.0645576
536,오리온스,강원 횡성군,033-342-9784,"['겨울스포츠', '레포츠', '복합레저스포츠', '스키 강습소', '스키대여', '스키렌탈']",https://cdn.visitkorea.or.kr/img/call?cmd=VIEW&id=2cd40a90-0288-4251-8045-3e63dbab88d3&thumb,강원도 횡성군 둔내면 고원로412번길 6,37.49683527,128.2396631
537,수산항 배낚시,강원 양양군,033-672-3739,"['강원권', '레포츠', '바다낚시', '배낚시', '양양바다', '양양바다낚시']",https://cdn.visitkorea.or.kr/img/call?cmd=VIEW&id=030d4a05-e2f8-497c-b0e8-c79af3a3865a&thumb,강원도 양양군 손양면 수산리,38.07930952,128.6715418
538,매화마을 녹색길,강원 평창군,033-330-2399,['레포츠'],https://cdn.visitkorea.or.kr/img/call?cmd=VIEW&id=6f43ccb7-4e28-44c9-b97d-6b9d3da28a6b&thumb,강원도 평창군 도돈리 29-31,37.32734958,128.3717113
539,동해종합운동장,강원 동해시,033-539-3560,"['동해운동장', '레포츠', '종합휴식공간', '천연잔디구장']",https://cdn.visitkorea.or.kr/img/call?cmd=VIEW&id=72b84842-85b6-42a4-bab0-14e63caaf9a6&thumb,강원도 동해시 덕골길 10,37.51606095,129.1021986
540,느티나무 캠핑장,강원 영월군,010-9963-0201,"['느티나무캠핑장', '레포츠', '야외캠핑장', '영월캠핑장']",https://cdn.visitkorea.or.kr/img/call?cmd=VIEW&id=d198640c-0673-4735-b9ba-27b9b9a1585a&thumb,강원도 영월군 김삿갓면 내리계곡로 1061,37.10398598,128.6784954
541,외룡캠핑장,강원 영월군,033-378-5376,"['가족과함께', '레포츠', '아이와함께', '영월캠핑장', '외룡캠핑장']",https://cdn.visitkorea.or.kr/img/call?cmd=VIEW&id=db218ab1-1bfe-431b-a97e-c1d2af966fda&thumb,강원도 영월군 김삿갓면 영월동로 2696,37.11374321,128.6662789
542,천진항배낚시,강원 고성군,033-631-7894,"['강원권', '고성바다', '고성바다낚시', '레포츠', '바다낚시', '배낚시']",https://cdn.visitkorea.or.kr/img/call?cmd=VIEW&id=6b0ed6bb-12af-4e8e-93f7-822a03b7dcb8&thumb,강원도 고성군 토성면 천진리,38.25781325,128.5495771
543,산솔 캠핑장,강원 영월군,010-9775-7474,"['레포츠', '산솔캠핑장', '야외캠핑장', '영월캠핑장']",https://cdn.visitkorea.or.kr/img/call?cmd=VIEW&id=bcd184b6-cac4-4890-a390-71e6616f9a12&thumb,강원도 영월군 중동면 녹전리 193,37.14690521,128.7077736
544,솔밭캠프,강원 영월군,010-5483-7066,"['레포츠', '솔밭캠프', '야외캠핑장', '영월캠핑장', '캠핑장']",https://cdn.visitkorea.or.kr/img/call?cmd=VIEW&id=0a736a6d-3daf-4e9e-8943-6732c2914b56&thumb,강원도 영월군 수주면 무릉법흥로 715-20,37.32938121,128.268993
545,약수터캠핑장,강원 영월군,010-2201-8824,"['레포츠', '야외캠핑장', '약수터캠핑장', '영월캠핑장']",https://cdn.visitkorea.or.kr/img/call?cmd=VIEW&id=af4844ec-573f-4b78-ab14-22ab065d7a48&thumb,강원도 영월군 중동면 태백산로 1133-7,37.14634425,128.6769979
546,솔밭가족캠프촌,강원 양양군,033-672-8782,"['가족과함께', '레포츠', '솔밭가족캠프촌', '아이와함께', '양양캠핑장']",https://cdn.visitkorea.or.kr/img/call?cmd=VIEW&id=1582143c-c02b-490c-8bb6-a0e23c2e0e0a&thumb,강원도 양양군 손양면 송평길 38,38.09098838,128.6538245
547,행복빌리지캠핑장,강원 원주시,010-9317-2559,"['레포츠', '야외캠핑장', '원주캠핑장', '행복빌리지캠핑장']",https://cdn.visitkorea.or.kr/img/call?cmd=VIEW&id=3bea425e-2256-4792-b419-1f53c30d2801&thumb,강원도 원주시 신림면 신림황둔로 662,37.25139215,128.1361799
548,장구봉길,강원 원주시,033-733-1330,"['레포츠', '원주트레킹코스', '장구봉길', '트레킹']",https://cdn.visitkorea.or.kr/img/call?cmd=VIEW&id=null&thumb,강원도 원주시 상지대길 80,37.37046377,127.9342686
549,월운여울길,강원 원주시,033-737-2111,"['강원권', '레포츠', '원주트레킹코스', '트레킹']",https://cdn.visitkorea.or.kr/img/call?cmd=VIEW&id=592d8605-dd78-44df-ac7f-b83efe6a8706&thumb,강원도 원주시 강변로 385,37.34175638,127.9622374
550,신포리낚시터,강원 춘천시,033-243-8351,"['강원권', '레포츠', '민물낚시', '춘천낚시', '춘천낚시터']",https://cdn.visitkorea.or.kr/img/call?cmd=VIEW&id=959f32d2-d81c-4fad-9fe1-3c1249e58fe1&thumb,강원도 춘천시 사북면 지촌길 36-6,38.03134884,127.644624
551,그린낚시터,강원 춘천시,033-255-1314,"['강원권', '낚시', '레포츠', '민물낚시', '춘천낚시', '춘천낚시터']",https://cdn.visitkorea.or.kr/img/call?cmd=VIEW&id=0f4e85b0-9638-4c5b-9250-ad4818a665e1&thumb,강원도 춘천시 강창골길 64,37.86744581,127.70022279999999
552,금천낚시터,강원 태백시,033-581-3132,"['강원권', '레포츠', '민물낚시', '태백낚시', '태백낚시터']",https://cdn.visitkorea.or.kr/img/call?cmd=VIEW&id=8b790765-8299-4e15-bac7-cc90c77f5207&thumb,강원도 태백시 금천길 159,37.09384758,128.9953468
553,공현진항 배낚시,강원 고성군,010-8631-7880,"['강원권', '고성바다', '고성바다낚시', '레포츠', '바다낚시', '배낚시']",https://cdn.visitkorea.or.kr/img/call?cmd=VIEW&id=30f75b5b-68b7-4377-a20a-44bf990b8f6e&thumb,강원도 고성군 공현진해변길,38.35438522,128.5107391
554,포안캠핑장,강원 영월군,033-374-1426,"['레포츠', '야외캠핑장', '영월캠핑장', '포안캠핑장']",https://cdn.visitkorea.or.kr/img/call?cmd=VIEW&id=9412255b-8ebb-49a8-b474-c9b23e53cb77&thumb,강원도 영월군 수주면 두산리 224,37.31320032,128.17719820000002
555,저금어지길,강원 원주시,033-737-2111,"['강원권여행', '레포츠', '원주트레킹코스', '저금어지길']",https://cdn.visitkorea.or.kr/img/call?cmd=VIEW&id=432d075f-17ea-4b1e-8b41-3449255f7361&thumb,강원도 원주시 호저로 226,37.39548162,127.937183
556,반계낚시터,강원 원주시,033-731-4650,"['강원권', '레포츠', '민물낚시', '원주낚시', '원주낚시터']",https://cdn.visitkorea.or.kr/img/call?cmd=VIEW&id=294b70c0-65b1-4d12-a804-40dc7b746efe&thumb,강원도 원주시 문막읍 반계리 산 1,37.302575299999994,127.79906979999998
557,귀운낚시터,강원 원주시,033-761-5744,"['강원권', '레포츠', '민물낚시', '원주낚시', '원주낚시터']",https://cdn.visitkorea.or.kr/img/call?cmd=VIEW&id=1f9a6d9c-4bbf-4bd7-b2d6-66db8a1bcd36&thumb,강원도 원주시 귀래면 귀래리 1412-2,37.22547308,127.8598637
558,아날로거 무릉도원점,강원 영월군,033-375-4752,"['글램핑', '레포츠', '법흥계곡', '아날로거무릉도원캠핑장', '영월캠핑장']",https://cdn.visitkorea.or.kr/img/call?cmd=VIEW&id=c25c04e4-f52b-45b0-a953-3b54fe8304d5&thumb,강원도 영월군 수주면 아래골길 10,37.29277068,128.2753723
559,소치길,강원 인제군,033-460-2170,"['농촌체험', '농촌테마마을', '레포츠', '소치길', '트레킹']",https://cdn.visitkorea.or.kr/img/call?cmd=VIEW&id=ce029bc7-2e1f-4a1b-8d96-e614ac45f5e8&thumb,강원도 인제군 남면 갑둔리,37.91512972,128.1442356
560,연가리 조침령길,강원 인제군,033-460-2170,['레포츠'],https://cdn.visitkorea.or.kr/img/call?cmd=VIEW&id=d5ba42b9-3726-4032-af28-79b1221a7a2d&thumb,강원도 인제군 기린면 조침령로 1436-8,37.97449705,128.436899
561,구학리산채관광마을,강원 원주시,070-7075-9898,['레포츠'],https://cdn.visitkorea.or.kr/img/call?cmd=VIEW&id=9140ddda-e2d6-4050-8d44-1701cd374a8a&thumb,강원도 원주시 신림면 구학산로 1624,37.21058217,128.0635688
562,호반낚시터,강원 춘천시,033-263-5179,"['강원권', '레포츠', '민물낚시', '춘천낚시', '춘천낚시터']",https://cdn.visitkorea.or.kr/img/call?cmd=VIEW&id=fec67fa0-f582-4871-bf1f-812e1a46182a&thumb,강원도 춘천시 송암길 47,37.85281146,127.68668799999999
563,삼천낚시터,강원 춘천시,033-251-3145,"['강원권', '레포츠', '민물낚시', '춘천낚시', '춘천낚시터']",https://cdn.visitkorea.or.kr/img/call?cmd=VIEW&id=03439c3a-2eed-42f5-9db4-e573fb64d7a8&thumb,강원도 춘천시 삼천동 335-1,37.86300615,127.6908953
564,고탄리낚시터,강원 춘천시,033-244-4300,"['강원권', '레포츠', '민물낚시', '춘천낚시']",https://cdn.visitkorea.or.kr/img/call?cmd=VIEW&id=8f35a0c4-b71b-4fc6-8629-73ea421c591d&thumb,강원도 춘천시 사북면 춘화로 337,37.98003844,127.6913541
565,구룡레저타운야영장,강원 원주시,033-732-0995,['레포츠'],https://cdn.visitkorea.or.kr/img/call?cmd=VIEW&id=28f2b21f-a804-49bf-a556-63b1d3d27eae&thumb,강원도 원주시 소초면 학곡리 530-1,37.44011003,128.0546148
566,풍경,강원 영월군,033-372-9720,"['레포츠', '아이와함께', '영월캠핑장', '풍경캠핑장']",https://cdn.visitkorea.or.kr/img/call?cmd=VIEW&id=b2a27a83-801c-48f9-8da9-91e17d08076c&thumb,강원도 영월군 수주면 법흥리 704,37.32690687,128.26176529999998
567,웅진리낚시터,강원 양구군,033-480-2251,"['강원권', '레포츠', '민물낚시', '양구낚시', '양구낚시터']",https://cdn.visitkorea.or.kr/img/call?cmd=VIEW&id=947140c9-9a3c-4e49-9fee-52cad0bcdd4c&thumb,강원도 양구군 양구읍 웅진리 490,38.06076163,127.9408176
568,청룡레저,강원 철원군,033-455-6123,"['레저공간', '레포츠', '청룡레저']",https://cdn.visitkorea.or.kr/img/call?cmd=VIEW&id=e2907890-8226-4ce7-966c-571c411cbb92&thumb,강원도 철원군 동송읍 태봉로 1850,38.18941525,127.2862685
569,오투리조트스키장,강원 태백시,033-580-7000,"['겨울레포츠', '레포츠', '스키장', '오투리조트']",https://cdn.visitkorea.or.kr/img/call?cmd=VIEW&id=1cd84479-adb4-4db9-bd4b-8097130521ca&thumb,강원도 태백시 서학로 861,37.17171176,128.9587558
570,천진 스쿠버리조트,강원 고성군,070-4232-1005,"['레포츠', '스쿠버체험', '이색체험', '천진스쿠버리조트']",https://cdn.visitkorea.or.kr/img/call?cmd=VIEW&id=b57b18e0-1348-45dd-a710-5aa9260a3db6&thumb,강원도 고성군 토성면 천진해변길 46,38.26056603,128.56066909999998
571,운학캠프,강원 영월군,010-3756-5640,"['계곡캠핑장', '레포츠', '아이와함께', '영월캠핑장']",https://cdn.visitkorea.or.kr/img/call?cmd=VIEW&id=b493ef6f-3949-4e2a-aef3-49f4bf3dd445&thumb,강원도 영월군 수주면 학산길 26-9,37.31928446,128.188241
572,청산캠프,강원 영월군,010-8878-9180,"['레포츠', '야외캠핑장', '영월캠핑장', '캠프장']",https://cdn.visitkorea.or.kr/img/call?cmd=VIEW&id=a2becee4-0cea-4b53-a20a-a75172677d38&thumb,강원도 영월군 수주면 무릉법흥로 782-10,37.33092075,128.2747621
573,샌드파인골프클럽(샌드파인GC),강원 강릉시,033-640-0600,"['강릉골프장', '골프장', '레포츠', '샌드파인골프클럽']",https://cdn.visitkorea.or.kr/img/call?cmd=VIEW&id=null&thumb,강원도 강릉시 저동등길 53,37.79622492,128.8810137
574,메이플비치골프,강원 강릉시,033-823-2000,"['강릉골프장', '골프장', '레포츠', '메이플비치골프']",https://cdn.visitkorea.or.kr/img/call?cmd=VIEW&id=null&thumb,강원도 강릉시 강동면 하시동리 산101,37.74765042,128.9689648
575,원평리낚시터,강원 춘천시,033-243-6820,"['강원권', '레포츠', '민물낚시', '춘천낚시', '춘천낚시터']",https://cdn.visitkorea.or.kr/img/call?cmd=VIEW&id=a1a5357c-c4d7-4e1f-bb58-7f69d886f104&thumb,강원도 춘천시 사북면 원평길 36-64,38.00295664,127.6436077
576,소문난드림낚시터,강원 춘천시,033-244-8831,"['강원권', '레포츠', '민물낚시', '춘천낚시', '춘천낚시터']",https://cdn.visitkorea.or.kr/img/call?cmd=VIEW&id=983e5333-8de4-4fe6-a486-987932c08833&thumb,강원도 춘천시 서면 덕두원리,37.86793175,127.6424443
577,자연이랑 캠프,강원 영월군,010-3450-3093,"['레포츠', '야외캠핑장', '영월캠핑장', '이색체험']",https://cdn.visitkorea.or.kr/img/call?cmd=VIEW&id=57306092-19ee-4699-b037-86acd29313b5&thumb,강원도 영월군 수주면 무릉법흥로 1174,37.36078801,128.2746199
578,정든오토캠프,강원 영월군,033-372-1388,"['레포츠', '영월캠핑장', '오토캠핑장', '정든오토캠프']",https://cdn.visitkorea.or.kr/img/call?cmd=VIEW&id=c171d32b-4633-4209-8a74-ef9be7a5708e&thumb,강원도 영월군 수주면 무릉법흥로 644-9,37.3249562,128.26303719999999
579,지구캠프,강원 영월군,033-374-5003,"['가족과함께', '레포츠', '아이와함께', '영월캠핑장']",https://cdn.visitkorea.or.kr/img/call?cmd=VIEW&id=aacbd32d-b69e-4606-830b-b957ed773c65&thumb,강원도 영월군 수주면 무릉법흥로 1104,37.35528841,128.2787348
580,황토와 통나무 캠프,강원 영월군,070-8821-2615,"['가족과함께', '레포츠', '아이와함께', '영월캠핑장', '영월펜션']",https://cdn.visitkorea.or.kr/img/call?cmd=VIEW&id=634ea04f-b851-45b3-8dbc-abf0490cdc94&thumb,강원도 영월군 수주면 백년계곡길 66-16,37.37167517,128.2737624
581,상무룡리낚시터,강원 양구군,033-481-6382,"['강원권', '레포츠', '민물낚시', '양구낚시', '양구낚시터']",https://cdn.visitkorea.or.kr/img/call?cmd=VIEW&id=bb97bbec-2d5e-41a9-aa89-7cae88d396fd&thumb,강원도 양구군 양구읍 상무룡로 786-18,38.14518786,127.9013311
582,꿈엔들캠프,강원 영월군,010-5574-2500,['레포츠'],https://cdn.visitkorea.or.kr/img/call?cmd=VIEW&id=988619ed-c45c-4f99-bf8f-b59b4dfc3400&thumb,강원도 영월군 수주면 무릉법흥로 968-12,37.3428711,128.28097979999998
583,춘천 박사마을 어린이 글램핑장,강원 춘천시,033-240-1791,"['가족여행', '강원도', '강원도여행', '글램핑장', '레포츠', '춘천', '춘천글램핑']",https://cdn.visitkorea.or.kr/img/call?cmd=VIEW&id=5f5f9727-83ff-41b8-b7a5-e44bcc08e6a5&thumb,강원도 춘천시 서면 박사로 770,37.88754095,127.6857843
584,강릉 중앙시장,강원 강릉시,033-648-2285,"['강릉중앙시장', '강원권', '먹거리', '쇼핑', '전통시장']",https://cdn.visitkorea.or.kr/img/call?cmd=VIEW&id=d5f1863e-4b55-4cc9-8f68-59e8e8fe85b4&thumb,강원도 강릉시 금성로 21,37.75400020000001,128.8985828
585,속초관광수산시장 (구: 중앙시장),강원 속초시,033-635-8433,"['가족여행', '강원권', '사계절', '속초관광수산시장', '속초중앙시장', '쇼핑', '시장맛집']",https://cdn.visitkorea.or.kr/img/call?cmd=VIEW&id=c58a355b-45a5-4e43-b6e9-fb79102f7ce4&thumb,강원도 속초시 중앙로147번길 12,38.2039602,128.590525
586,"정선 아리랑시장 (2, 7일)",강원 정선군,1544-9053,"['2012', '가족여행', '강원권', '사계절', '쇼핑', '쇼핑 부문', '수상내역', '시장맛집']",https://cdn.visitkorea.or.kr/img/call?cmd=VIEW&id=f7c756d2-5abf-49fc-8786-b9021905be14&thumb,강원도 정선군 정선읍 봉양7길 39,37.3803926,128.6651696
587,강릉 주문진수산시장,강원 강릉시,033-661-7302,"['가족여행', '강릉주문진수산시장', '강원권', '기차여행', '나들이', '나홀로여행']",https://cdn.visitkorea.or.kr/img/call?cmd=VIEW&id=efd94183-c404-46f5-bf00-362a4fcb54eb&thumb,강원도 강릉시 주문진읍 시장1길 4-1,37.8910555,128.82786090000002
588,"봉평5일장 / 봉평시장 (2, 7 일)",강원 평창군,033-330-2771,"['가족여행', '강원권', '기차여행', '나들이', '나홀로여행', '먹거리', '봉평시장']",https://cdn.visitkorea.or.kr/img/call?cmd=VIEW&id=2427674f-c7d5-4a91-a5e0-420f063b7aa3&thumb,강원도 평창군 봉평면 동이장터길 14-1,37.6161686,128.377656
589,원주 중앙시장,강원 원주시,033-743-2570,"['가족여행', '강원권', '기차여행', '나들이', '나홀로여행', '먹거리', '서울근교여행']",https://cdn.visitkorea.or.kr/img/call?cmd=VIEW&id=1658dcb9-c52f-4398-a881-3ab896af3c10&thumb,강원도 원주시 중앙시장길 6,37.3499847,127.949244
590,춘천 낭만시장 (구. 중앙시장),강원 춘천시,033-254-2558,"['가족여행', '강원권', '기차여행', '나들이', '나홀로여행', '먹거리', '서울근교여행']",https://cdn.visitkorea.or.kr/img/call?cmd=VIEW&id=1196f3c2-5844-45c0-a274-a20929c6051e&thumb,강원 춘천시 죽림동 13-2,37.8777843,127.7253037
591,강릉 주문진종합시장,강원 강릉시,033-662-2180,"['가족여행', '강릉주문진종합시장', '강원권', '기차여행', '나들이', '나홀로여행']",https://cdn.visitkorea.or.kr/img/call?cmd=VIEW&id=ebd5ad19-2067-48e9-b060-52e56c399455&thumb,강원도 강릉시 주문진읍 시장1길 4-1,37.8910555,128.82786090000002
592,"양양전통시장 (4, 9일)",강원 양양군,033-671-2878,"['가족여행', '강원권', '사계절', '쇼핑', '시장맛집', '아이와함께', '양양전통시장']",https://cdn.visitkorea.or.kr/img/call?cmd=VIEW&id=d871e9a4-671d-4476-986d-4661cf1d2228&thumb,강원도 양양군 양양읍 남문5길 9,38.074993,128.6231795
593,"평창올림픽시장(구,평창전통시장)",강원 평창군,033-332-8804,"['가족여행', '강원권', '나들이', '나홀로여행', '먹거리', '쇼핑', '시장맛집', '아이와함께']",https://cdn.visitkorea.or.kr/img/call?cmd=VIEW&id=da88b4c3-f6e6-4790-ba64-10af2819671a&thumb,강원도 평창군 평창읍 평창시장1길 10,37.36680070000001,128.3946301
594,고성 DMZ박물관 뮤지엄샵,강원 고성군,033-681-0625,"['DMZ여행', '가족여행', '강원권', '고성DMZ박물관뮤지엄샵', '기념품판매', '기차여행']",https://cdn.visitkorea.or.kr/img/call?cmd=VIEW&id=3d1fa2e1-7915-4b4a-9028-22bc708d6eba&thumb,강원도 고성군 현내면 통일전망대로 369,38.5762182,128.3824776
595,"홍천 중앙시장 (1,6일)",강원 홍천군,033-434-2955,"['가족여행', '강원권', '나들이', '나홀로여행', '먹거리', '쇼핑', '시장맛집', '아이와함께']",https://cdn.visitkorea.or.kr/img/call?cmd=VIEW&id=b9f22349-389a-498a-8678-36e535b711b3&thumb,강원도 홍천군 홍천읍 홍천로8길 17,37.6912111,127.8860962
596,"횡성장 / 횡성시장 (1, 6일)",강원 횡성군,033-342-2389,"['가족여행', '강원권', '나들이', '나홀로여행', '먹거리', '쇼핑', '시장맛집', '아이와함께']",https://cdn.visitkorea.or.kr/img/call?cmd=VIEW&id=e0f824d6-73a9-4c4e-a833-b693bebb0f75&thumb,강원도 횡성군 횡성읍 삼일로 4-2,37.4898313,127.9866799
597,"임계사통팔달시장 / 임계장 (5, 10일)",강원 정선군,033-562-2930,"['가족여행', '강원권', '사계절', '쇼핑', '시장맛집', '아이와함께', '임계장', '재래시장']",https://cdn.visitkorea.or.kr/img/call?cmd=VIEW&id=89b03a1a-042b-406a-b98a-e5530b4ce188&thumb,강원도 정선군 임계면 송계2길 6,37.4949106,128.8509341
598,강릉 동부시장,강원 강릉시,033-648-5976,"['가족여행', '강릉동부시장', '강원권', '기차여행', '나들이', '나홀로여행', '먹거리']",https://cdn.visitkorea.or.kr/img/call?cmd=VIEW&id=ef94efe5-eeeb-4123-baf5-8bb02670b249&thumb,강원도 강릉시 율곡로 2831,37.7568508,128.8979012
599,황지 자유시장,강원 태백시,033-552-2634,"['가족여행', '강원권', '기차여행', '나들이', '나홀로여행', '먹거리', '서울근교여행']",https://cdn.visitkorea.or.kr/img/call?cmd=VIEW&id=6c71e182-57ac-47f8-ace8-3d5226ef05ae&thumb,강원도 태백시 시장안3길 5-1,37.173745200000006,128.9934461
600,"원주5일장 / 원주민속풍물시장 (2, 7일)",강원 원주시,033-746-9114,"['가족여행', '강원권', '나들이', '나홀로여행', '먹거리', '쇼핑', '시장맛집', '아이와함께']",https://cdn.visitkorea.or.kr/img/call?cmd=VIEW&id=c7510b51-fce7-431b-9634-57019bb56edf&thumb,강원도 원주시 강변로 531-1,37.3512506,127.9533259
601,사직번개시장 (삼척 번개시장),강원 삼척시,033-570-3351,"['가족여행', '강원권', '기차여행', '나들이', '나홀로여행', '먹거리', '사직번개시장']",https://cdn.visitkorea.or.kr/img/call?cmd=VIEW&id=6c40565a-0941-4a08-8d5e-d3ceced2cc96&thumb,강원도 삼척시 중앙로 10,37.4306519,129.17855120000002
602,"통리장 (5, 15, 25일)",강원 태백시,033-550-2103,"['가족여행', '강원권', '기차여행', '나들이', '나홀로여행', '먹거리', '서울근교여행']",https://cdn.visitkorea.or.kr/img/call?cmd=VIEW&id=84bc4bdb-b6e2-477c-a956-4ec8f7bd2e9a&thumb,강원도 태백시 통리1길 39,37.1697078,129.03632439999998
603,"북평민속오일장 (3, 8일)",강원 동해시,033-521-3675,"['가족여행', '강원권', '기차여행', '나들이', '나홀로여행', '데이트코스', '마을축제']",https://cdn.visitkorea.or.kr/img/call?cmd=VIEW&id=e6eb67ab-210e-4a7d-aee2-00a3bb85e701&thumb,강원도 동해시 대동로 111-4,37.4816208,129.1267656
604,"화천장 (3, 8일)",강원 화천군,033-442-4013,"['가족여행', '강원권', '사계절', '쇼핑', '시장맛집', '아이와함께', '어르신추천코스']",https://cdn.visitkorea.or.kr/img/call?cmd=VIEW&id=6aedd757-650e-4b53-8c4f-f147bc499480&thumb,강원도 화천군 화천읍 하리,38.1010028,127.6970633
605,미로예술 원주중앙시장,강원 원주시,033-743-2570,"['가족과함께', '쇼핑', '연인과함께', '원주1박2일코스', '원주가볼만한곳', '원주당일코스']",https://cdn.visitkorea.or.kr/img/call?cmd=VIEW&id=e917c375-d276-4c1c-857f-fda874078341&thumb,강원도 원주시 중앙시장길 6,37.3499847,127.949244
606,원주중원전통시장,강원 원주시,033-733-1330,"['가족여행', '강원권', '기차여행', '나들이', '나홀로여행', '데이트코스', '먹거리']",https://cdn.visitkorea.or.kr/img/call?cmd=VIEW&id=c5893126-bf91-4f85-8d50-a5c51edb5ca0&thumb,강원도 원주시 중앙시장길 20-3,37.350493,127.9495947
607,원주 중앙시민전통시장,강원 원주시,033-732-6501,"['가족여행', '강원권', '기차여행', '나들이', '나홀로여행', '먹거리', '서울근교여행']",https://cdn.visitkorea.or.kr/img/call?cmd=VIEW&id=443c1e04-f97c-42e7-9261-01764ba4afaf&thumb,강원도 원주시 중앙시장길 31-3,37.35122929999999,127.9497004
608,"삼척 중앙시장 (2, 7일)",강원 삼척시,033-572-0909,"['가족여행', '강원권', '기차여행', '나들이', '나홀로여행', '먹거리', '삼척중앙시장']",https://cdn.visitkorea.or.kr/img/call?cmd=VIEW&id=044e0d5f-f96b-4679-b3a3-2be3bca27fdd&thumb,강원도 삼척시 진주로 12-21,37.4420761,129.16466
609,"고성 간성시장 (2, 7일)",강원 고성군,033-680-3377,"['가족여행', '간성전통시장', '강원권', '고성간성시장', '기차여행', '나들이', '나홀로여행']",https://cdn.visitkorea.or.kr/img/call?cmd=VIEW&id=9df73df1-04a3-4fe9-a40e-c2df6770b7cd&thumb,강원도 고성군 간성읍 간성시장2길 6,38.3796755,128.4699356
610,"신 철원시장 (3, 8일)",강원 철원군,033-452-3389,"['가족여행', '강원권', '사계절', '쇼핑', '시장맛집', '신철원시장', '아이와함께']",https://cdn.visitkorea.or.kr/img/call?cmd=VIEW&id=b13bb67c-f41b-4a7a-ace0-db461f356048&thumb,강원도 철원군 갈말읍 삼부연로18번길 12-3,38.1447311,127.3097524
611,"진부장 / 진부시장 (3, 8일)",강원 평창군,033-335-3133,"['가족여행', '강원권', '기차여행', '나들이', '나홀로여행', '먹거리', '쇼핑', '시장맛집']",https://cdn.visitkorea.or.kr/img/call?cmd=VIEW&id=7a033710-daf2-4ddf-b8c5-84a560ccbe3b&thumb,강원도 평창군 진부면 진부시장안길 18,37.6374105,128.5581936
612,이매진나미[한국관광 품질인증/Korea Quality],강원 춘천시,031-580-8012,"['강원추천쇼핑', '쇼핑', '이매진나미', '한국관광품질인증', '한국관광품질인증업소']",https://cdn.visitkorea.or.kr/img/call?cmd=VIEW&id=0bcbcf40-c4a3-46a8-bc20-392a15ab214c&thumb,강원도 춘천시 남산면 남이섬길 1,37.7899352,127.5258072
613,강릉 농산물도매시장,강원 강릉시,033-646-4654,"['가족여행', '강릉농산물도매시장', '강원권', '기차여행', '나들이', '나홀로여행']",https://cdn.visitkorea.or.kr/img/call?cmd=VIEW&id=ee876dff-ecea-4856-8f42-488e1943e723&thumb,강원도 강릉시 유산로 60,37.7373569,128.9180696
614,춘천 남부시장,강원 춘천시,033-242-1561,"['가족여행', '강원권', '기차여행', '나들이', '나홀로여행', '먹거리', '서울근교여행']",https://cdn.visitkorea.or.kr/img/call?cmd=VIEW&id=95d61296-747b-4dc1-a61f-71e1aded0517&thumb,강원도 춘천시 공지로 367,37.8705169,127.7257638
615,영월 서부아침시장,강원 영월군,033-372-1933,"['가족여행', '강원권', '기차여행', '나들이', '나홀로여행', '먹거리', '서울근교여행']",https://cdn.visitkorea.or.kr/img/call?cmd=VIEW&id=d7ea3bbc-3ba7-449a-9ca5-ff233c0a7008&thumb,강원도 영월군 영월읍 중앙로 30-1,37.1833136,128.4667398
616,"거진장 / 고성 거진시장 (1, 6일)",강원 고성군,033-682-1001,"['가족여행', '강원권', '거진장', '고성거진시장', '나들이', '데이트코스', '먹거리']",https://cdn.visitkorea.or.kr/img/call?cmd=VIEW&id=21c1f081-5e6e-43dd-bbe0-dbdc87b1ba4a&thumb,강원도 고성군 거진읍 거진시장길 17-11,38.4476517,128.4542458
617,원주 남부시장,강원 원주시,033-764-0607,"['가족여행', '강원권', '기차여행', '나들이', '나홀로여행', '먹거리', '서울근교여행']",https://cdn.visitkorea.or.kr/img/call?cmd=VIEW&id=0dc4318f-bf92-48ce-ac30-772fb621c7ed&thumb,강원도 원주시 치악로 1803,37.343087,127.9543659
618,홍천한우 늘푸름,강원 홍천군,033-439-3400,"['가족여행', '강원권', '기차여행', '나들이', '나홀로여행', '먹거리', '서울근교여행']",https://cdn.visitkorea.or.kr/img/call?cmd=VIEW&id=8fb113da-c9dc-48a5-9fcd-47738c929524&thumb,강원도 홍천군 홍천읍 홍천로5길 25,37.6906968,127.8826194
619,장성5일장/장성중앙시장,강원 태백시,033-581-6521,"['가족여행', '강원권', '기차여행', '나들이', '나홀로여행', '데이트코스', '먹거리']",https://cdn.visitkorea.or.kr/img/call?cmd=VIEW&id=be6b3271-3112-4082-81af-730001b3654c&thumb,강원도 태백시 장성1길 190,37.100717,129.0097928
620,옥산가(춘천옥),강원 춘천시,1544-0741,"['강원권', '산업관광', '쇼핑', '옥산가', '춘천옥']",https://cdn.visitkorea.or.kr/img/call?cmd=VIEW&id=88b3c28b-f2f7-4b8b-90c4-9b26bfa75405&thumb,강원도 춘천시 동면 금옥길 228,37.9200179,127.8053454
621,춘천 동부시장,강원 춘천시,033-254-2235,"['가족여행', '강원권', '기차여행', '나들이', '나홀로여행', '먹거리', '서울근교여행']",https://cdn.visitkorea.or.kr/img/call?cmd=VIEW&id=840b047b-9995-4fd6-99b6-598f44de6191&thumb,강원도 춘천시 동부시장길 8,37.8772117,127.7341235
622,삼척 도계전두시장,강원 삼척시,033-541-8151,"['가족여행', '강원권', '기차여행', '나들이', '나홀로여행', '먹거리', '삼척도계전두시장']",https://cdn.visitkorea.or.kr/img/call?cmd=VIEW&id=3029ef62-d899-4c38-b172-df13dc99beae&thumb,강원도 삼척시 도계읍 83-2,37.2363961,129.0451533
623,강릉 서부시장,강원 강릉시,033-648-9136,"['가족여행', '강릉서부시장', '강원권', '기차여행', '나들이', '나홀로여행', '먹거리']",https://cdn.visitkorea.or.kr/img/call?cmd=VIEW&id=0a63b5e4-f4d6-41d1-80c2-64ac15e4e6aa&thumb,강원도 강릉시 임영로155번길 6,37.7550085,128.8908612
624,화천 중앙시장,강원 화천군,033-442-4545,"['가족여행', '강원권', '기차여행', '나들이', '나홀로여행', '마을축제', '먹거리']",https://cdn.visitkorea.or.kr/img/call?cmd=VIEW&id=76928809-bdbb-44c6-a17f-562675c8a4e6&thumb,강원도 화천군 화천읍 중앙로4길 12,38.104047,127.7053974
625,강릉교동건어물,강원 강릉시,033-651-1050,"['가족여행', '강동교동건어물', '강원권', '기념품판매', '기차여행', '나들이', '나홀로여행']",https://cdn.visitkorea.or.kr/img/call?cmd=VIEW&id=a0cd6620-2ea3-47f4-a8fd-1843cdccd884&thumb,강원도 강릉시 옥가로50번길 7,37.7606393,128.9010056
626,삼척중앙시장 문라이트야시장,강원 삼척시,033-572-0909 033-575-8525,"['삼척', '쇼핑', '야시장']",https://cdn.visitkorea.or.kr/img/call?cmd=VIEW&id=78c10699-6833-4fdc-9ade-f96569f70be6&thumb,강원도 삼척시 진주로 12-21,37.4420761,129.16466
627,청호활어회센터,강원 속초시,033-630-7731,['쇼핑'],https://cdn.visitkorea.or.kr/img/call?cmd=VIEW&id=2fe2a386-eeac-4eae-86aa-da1f8a2eb3f3&thumb,강원도 속초시 설악금강대교로 67,38.2049653,128.59357240000003
628,정선산나물,강원 정선군,033-562-4503,"['쇼핑', '재래시장', '전통시장', '특산품']",https://cdn.visitkorea.or.kr/img/call?cmd=VIEW&id=ac22c862-ce9f-43ee-9f77-eb516b439206&thumb,강원도 정선군 북평면 숙암장재터길 221,37.5463953,128.61448629999998
629,양양5일장,강원 양양군,033-671-2878,"['쇼핑', '양양', '전통시장', '특산품']",https://cdn.visitkorea.or.kr/img/call?cmd=VIEW&id=a4d83f0c-7c06-4825-a51b-92f0805dbaab&thumb,강원도 양양군 양양읍 남문5길 9,38.074993,128.6231795
630,정선석공예단지,강원 정선군,,"['공예사', '광산', '석공예단지', '쇼핑', '정선', '특산품']",https://cdn.visitkorea.or.kr/img/call?cmd=VIEW&id=75773393-6a86-458a-a4b3-2a74a9b138c5&thumb,강원도 정선군 정선읍 소금강로 19,37.3543493,128.719986
631,양구명품관 (강원),강원 양구군,033-480-2575,"['가족여행', '강원권', '기념품판매', '나홀로여행', '서울근교여행', '쇼핑', '아이와함께']",https://cdn.visitkorea.or.kr/img/call?cmd=VIEW&id=eb132295-ed83-4751-8241-36916bf88efb&thumb,강원도 양구군 양구읍 관공서로 10,38.1067747,127.9906064
632,춘천잣 (춘천농산),강원 춘천시,033-261-8444,"['가족여행', '강원권', '기념품판매', '기차여행', '나들이', '나홀로여행', '서울근교여행']",https://cdn.visitkorea.or.kr/img/call?cmd=VIEW&id=7999ac07-b103-4196-b36c-bb7831db5c9f&thumb,강원도 춘천시 신동면 정족3길 59,37.8306732,127.7415872
633,"춘천 풍물시장 / 풍물장 (2, 7일)",강원 춘천시,033-253-5814,"['가족여행', '강원권', '기차여행', '나들이', '나홀로여행', '먹거리', '서울근교여행']",https://cdn.visitkorea.or.kr/img/call?cmd=VIEW&id=c8819393-d70c-499d-b8dd-e9e193aa61d0&thumb,강원도 춘천시 영서로 2352-20,37.8679399,127.71699879999998
634,횡성축협한우프라자 (우천점),강원 횡성군,033-345-6160,"['쇼핑', '식당', '우천면', '한우', '횡성군', '횡성한우']",https://cdn.visitkorea.or.kr/img/call?cmd=VIEW&id=89c65443-807c-4453-bc50-dc0b28bb544b&thumb,강원도 횡성군 우천면 우항3길 6,37.4598988,128.0637167
635,원주 문막시장,강원 원주시,033-734-4985,"['가족여행', '강원권', '기차여행', '나들이', '나홀로여행', '먹거리', '서울근교여행']",https://cdn.visitkorea.or.kr/img/call?cmd=VIEW&id=cf967d29-490f-4df2-904b-dc20765ca712&thumb,강원도 원주시 문막읍 문막시장1길 52-10,37.3059981,127.8153547
636,원주 단구시장,강원 원주시,033-761-8269,"['가족여행', '강원권', '기차여행', '나들이', '나홀로여행', '먹거리', '바다풍경']",https://cdn.visitkorea.or.kr/img/call?cmd=VIEW&id=9c6b456a-e265-4317-8027-21cbb9abff50&thumb,강원도 원주시 송림길 48-13,37.331352,127.9525449
637,정선 5일장,강원 정선군,033-563-6200,"['쇼핑', '재래시장', '체험여행코스']",https://cdn.visitkorea.or.kr/img/call?cmd=VIEW&id=bf1ad2ab-99de-430a-9a14-24089ebb06f5&thumb,강원도 정선군 정선읍 봉양7길 39,37.3803926,128.6651696
638,동쪽바다중앙시장,강원 동해시,033-532-3889,"['가족여행', '강원권', '기차여행', '나들이', '나홀로여행', '동쪽바다중앙시장']",https://cdn.visitkorea.or.kr/img/call?cmd=VIEW&id=8ab0a932-941e-44a5-93f7-a1ab4b921a97&thumb,강원도 동해시 중앙시장길 12,37.5510523,129.1085439
639,아남프라자,강원 속초시,033-636-2000,['쇼핑'],https://cdn.visitkorea.or.kr/img/call?cmd=VIEW&id=b5bbfd9c-61cb-4277-91bf-38fb2b9643f5&thumb,강원도 속초시 중앙로5번길 8,38.20935410000001,128.58845060000002
640,원주 자유시장,강원 원주시,033-746-5037,"['가족여행', '강원권', '나들이', '나홀로여행', '먹거리', '쇼핑', '시장맛집', '아이와함께']",https://cdn.visitkorea.or.kr/img/call?cmd=VIEW&id=3f40f452-ec57-4e1f-aa9b-54b3eab86f01&thumb,강원도 원주시 자유시장길 11,37.35129910000001,127.94860990000002
641,춘천 서부시장,강원 춘천시,033-242-5004,"['가족여행', '강원권', '기차여행', '나들이', '나홀로여행', '먹거리', '서울근교여행']",https://cdn.visitkorea.or.kr/img/call?cmd=VIEW&id=18688a4b-c46d-4884-88ea-b0c622cf3f82&thumb,강원도 춘천시 서부대성로 12,37.8847783,127.7246195
642,원주 안경백화점,강원 원주시,033-764-0026,"['쇼핑', '안경', '안경점', '원주']",https://cdn.visitkorea.or.kr/img/call?cmd=VIEW&id=cab30b9e-2d4c-4eee-b0b7-8bf19aacbcdc&thumb,강원도 원주시 남원로 530,37.3313642,127.9471836
643,"양구장 / 양구 중앙시장 (5,10일)",강원 양구군,033-481-3594,"['가족여행', '강원권', '기차여행', '나들이', '나홀로여행', '먹거리', '쇼핑', '시장맛집']",https://cdn.visitkorea.or.kr/img/call?cmd=VIEW&id=105363ee-a276-46b5-bf4c-f11e30197f0e&thumb,강원도 양구군 양구읍 중앙길 68,38.10409420000001,127.9892966
644,태백농특산물직판장,강원 태백시,033-554-1357,"['가족여행', '강원권', '기념품판매', '기차여행', '나들이', '나홀로여행', '데이트코스']",https://cdn.visitkorea.or.kr/img/call?cmd=VIEW&id=9b2bdbb7-24d1-4d6a-9d12-8de02a89f008&thumb,강원도 태백시 천제단길 138,37.1218994,128.9531835
645,"와수시장 (1,6일)",강원 철원군,033-458-9688,"['가족여행', '강원권', '사계절', '쇼핑', '시장맛집', '아이와함께', '어르신추천코스']",https://cdn.visitkorea.or.kr/img/call?cmd=VIEW&id=6a2b7501-3141-44d2-8b0f-ad9cc20bbbc3&thumb,강원도 철원군 서면 와수로184번길 12,38.2392454,127.4398009
646,"여량장 (1, 6일)",강원 정선군,1544-9053,"['가족과함께', '강원권', '사계절', '쇼핑', '아이와함께', '여량장', '재래시장', '전통시장']",https://cdn.visitkorea.or.kr/img/call?cmd=VIEW&id=a6877d5f-8ead-4c51-91aa-1d3a5263af3b&thumb,강원도 정선군 여량면 여량6길 10,37.4705941,128.7204545
647,"주천시장 (1, 6일)",강원 영월군,033-372-7879,"['가족여행', '강원권', '기차여행', '나들이', '나홀로여행', '먹거리', '서울근교여행']",https://cdn.visitkorea.or.kr/img/call?cmd=VIEW&id=4be3c4d1-ec00-4f07-a5c7-a73bfb912c44&thumb,강원도 영월군 주천면 주천시장길 47-5,37.2710818,128.266413
648,"근덕장 / 근덕교가시장 (1, 6일)",강원 삼척시,033-572-3011,"['가족여행', '강원권', '근덕교가시장', '근덕장', '사계절', '쇼핑', '시장맛집', '아이와함께']",https://cdn.visitkorea.or.kr/img/call?cmd=VIEW&id=8eefd780-3654-405d-a55f-11e3aa7340a9&thumb,강원도 삼척시 근덕면 교가길 19,37.380407,129.2270825
649,향토공예관,강원 춘천시,033-254-4419,"['가족여행', '강원권', '기념품판매', '나들이', '나홀로여행', '서울근교여행', '쇼핑']",https://cdn.visitkorea.or.kr/img/call?cmd=VIEW&id=5d44b36b-8425-4363-91d4-fee94ab68bda&thumb,강원도 춘천시 춘천로 19,37.8668787,127.7212173
650,원주 농산물도매시장,강원 원주시,033-737-4351,"['가족여행', '강원권', '기차여행', '나들이', '나홀로여행', '서울근교여행', '쇼핑']",https://cdn.visitkorea.or.kr/img/call?cmd=VIEW&id=c0260f51-bc72-42ec-a671-54e3e68a80d1&thumb,강원도 원주시 서원대로 33,37.3544809,127.9235799
651,"대화시장 (4,9일)",강원 평창군,033-333-5777,"['가족여행', '강원권', '기차여행', '나들이', '나홀로여행', '대화시장', '데이트코스']",https://cdn.visitkorea.or.kr/img/call?cmd=VIEW&id=79d752a7-54fa-49e7-abe6-17fda0c466d8&thumb,강원도 평창군 대화면 대화3길 46,37.50056220000001,128.4549001
652,장송모 도자연구원,강원 횡성군,033-342-0011,"['강원권', '무형문화재', '쇼핑', '장송모도자연구원', '전통문화체험', '전통산업']",https://cdn.visitkorea.or.kr/img/call?cmd=VIEW&id=cabfb460-93b2-4e13-911c-65e0b4cc9cc9&thumb,강원도 횡성군 공근면 창봉길 32,37.5733471,127.9406938
653,"원통장 (2, 7일)",강원 인제군,033-460-2170,"['가족여행', '강원권', '기차여행', '나들이', '나홀로여행', '먹거리', '쇼핑', '시장맛집']",https://cdn.visitkorea.or.kr/img/call?cmd=VIEW&id=57716391-a312-48d4-b7ab-77f7b2180ff0&thumb,강원도 인제군 북면 원통리 647-6,38.1209424,128.219331
654,"동송장 / 동송시장 (5,10일)",강원 철원군,033-455-6262,"['가족여행', '강원권', '나들이', '나홀로여행', '동송시장', '동송장', '먹거리', '쇼핑']",https://cdn.visitkorea.or.kr/img/call?cmd=VIEW&id=1af20e14-d106-46c9-87a5-8acc2db74527&thumb,강원도 철원군 동송읍 이평로47번길 21,38.2087625,127.21927990000002
655,오죽헌기념품판매장,강원 강릉시,033-647-7555,"['강릉', '쇼핑', '신사임당생가', '율곡이이생가']",https://cdn.visitkorea.or.kr/img/call?cmd=VIEW&id=undefined&thumb,강원도 강릉시 율곡로3139번길 24,37.7791837,128.8794575
656,쇠바우골탄광문화장터,강원 태백시,,"['문화장터', '쇼핑', '철암역', '철암장터']",https://cdn.visitkorea.or.kr/img/call?cmd=VIEW&id=31191bfa-147b-4d77-b4cf-c4fcc5b50533&thumb,강원도 태백시 동태백로 434,37.1166638,129.0377738
657,정선수리취떡,강원 정선군,033-562-9009,"['관광지', '쇼핑', '재래시장', '전통시장']",https://cdn.visitkorea.or.kr/img/call?cmd=VIEW&id=8167ca84-b2f2-4af7-93c5-11faaeef2fa1&thumb,강원도 정선군 정선읍 5일장길 37-10,37.380958,128.6646236
658,횡성 안흥장,강원 횡성군,033-340-2603,"['농산물', '뻥튀기', '쇼핑', '시장']",https://cdn.visitkorea.or.kr/img/call?cmd=VIEW&id=undefined&thumb,강원도 횡성군 안흥면 안흥로 27,37.4125243,128.1562501
659,신철원 전통시장,강원 철원군,033-450-4523,"['쇼핑', '전통시장', '철원', '철원시장']",https://cdn.visitkorea.or.kr/img/call?cmd=VIEW&id=524df384-3554-45f7-899f-66d5e75e19d1&thumb,강원도 철원군 갈말읍 삼부연로18번길 16-2,38.1447311,127.3097524
660,주례마을 향토농산물,강원 정선군,033-562-9595,"['쇼핑', '오일장', '주도', '특산품', '향토농산물']",https://cdn.visitkorea.or.kr/img/call?cmd=VIEW&id=d73f1715-cf81-416e-9016-2a13cb467582&thumb,강원도 정선군 여량면 여량6길 10,37.4705941,128.7204545
661,한반도쉼터 농산물판매장,강원 영월군,010-5372-6320,"['건강음식', '쇼핑', '영월', '판매장']",https://cdn.visitkorea.or.kr/img/call?cmd=VIEW&id=null&thumb,강원도 영월군 한반도면 한반도로 555,37.2197078,128.3575541
662,물치항활어회센터,강원 양양군,033-673-2556,"['물치항', '물치항활어회센터', '쇼핑', '양양여행']",https://cdn.visitkorea.or.kr/img/call?cmd=VIEW&id=6275f94e-5990-4f2f-8fad-f71f7ddd7f31&thumb,강원도 양양군 강현면 동해대로 3584,38.1560315,128.61008600000002
663,독립서점 틔움,강원 원주시,033-743-5564,"['북카페', '서점', '쇼핑', '원주시']",https://cdn.visitkorea.or.kr/img/call?cmd=VIEW&id=31f598ab-9df9-40a1-89fb-ace047a7d5a5&thumb,강원도 원주시 남산로 209,37.3546878,127.9420605
664,동네책방 스몰굿씽,강원 원주시,070-8881-7601,"['북카페', '서점', '쇼핑', '원주시']",https://cdn.visitkorea.or.kr/img/call?cmd=VIEW&id=105b6131-82dd-4188-9976-5a0801967a08&thumb,강원도 원주시 판부면 매봉길 52-1,37.3206032,127.9455043
