,name,region,tel,keyword,photo,address,lat,lon,Unnamed: 0
0,유리섬박물관,경기 안산시,032-885-6262,"['가족체험여행', '남녀노소', '문화시설', '사계절', '수도권', '아이와함께', '안산가볼만한곳']",https://cdn.visitkorea.or.kr/img/call?cmd=VIEW&id=6626a1a9-6006-4887-9f1e-93736d6cc512&thumb,경기도 안산시 단원구 부흥로 254,37.21975458,126.60241909999999,
1,돼지박물관(돼지보러오면돼지),경기 이천시,031-641-7540,"['가족체험여행', '농촌체험', '돼지박물관', '마을축제', '문화시설', '박물관', '사계절']",https://cdn.visitkorea.or.kr/img/call?cmd=VIEW&id=a4c82bab-8e1e-4231-8fe6-934fa8fb75a6&thumb,경기도 이천시 율면 임오산로372번길 129-7,37.08577621,127.5839422,
2,아쿠아플라넷 일산,경기 고양시,031-960-8500,"['당일치기여행', '데이트코스', '문화시설', '미세먼지_피하는_실내여행', '사계절']",https://cdn.visitkorea.or.kr/img/call?cmd=VIEW&id=e2a8bda8-46b4-4b62-8146-86a9e184b88c&thumb,경기도 고양시 일산서구 한류월드로 282,37.66383701,126.7556101,
3,조명박물관,경기 양주시,070-7780-8911,"['교과서속여행', '문화시설', '박물관', '복합문화공간', '사계절', '상설공연', '수도권']",https://cdn.visitkorea.or.kr/img/call?cmd=VIEW&id=04084d57-5cbe-4850-a018-b0418f05d781&thumb,경기도 양주시 광적면 광적로 235-48,37.83609524,126.96753059999999,
4,한국잡월드,경기 성남시,1644-1333,"['경상남도과학교육원', '교육여행', '남녀노소', '문화시설', '사계절', '수도권']",https://cdn.visitkorea.or.kr/img/call?cmd=VIEW&id=b5f71425-ee73-4a4c-b0dc-f3e9fb55e3ce&thumb,경기도 성남시 분당구 분당수서로 501,37.37849451,127.1063938,
5,한국근현대사박물관,경기 파주시,031-957-1125,"['근현대사여행', '문화시설', '박물관', '수도권', '안보관광', '역사공부', '역사를품은곳']",https://cdn.visitkorea.or.kr/img/call?cmd=VIEW&id=2fdab79e-86f3-4474-8e01-c992b3c124c0&thumb,경기도 파주시 탄현면 헤이리마을길 59-85,37.79087271,126.69520190000001,
6,경기도미술관,경기 안산시,031-481-7000,"['경기도미술관', '남녀노소', '문화시설', '문화예술', '미술관', '미술작품', '복합문화공간']",https://cdn.visitkorea.or.kr/img/call?cmd=VIEW&id=8812d329-b4de-4b2a-b423-463b9730ac41&thumb,경기도 안산시 단원구 동산로 268,37.32507855,126.80998980000001,
7,해우재,경기 수원시,031-271-9777,"['가족여행', '가족체험여행', '당일치기여행', '똥도서관', '문화시설', '박물관']",https://cdn.visitkorea.or.kr/img/call?cmd=VIEW&id=9cd038b3-ecf5-427c-8ddb-9d2ce5ed91c4&thumb,경기도 수원시 장안구 장안로458번길 9,37.31922693,126.97804409999999,
8,미메시스 아트 뮤지엄,경기 파주시,031-955-4100,"['문화공간', '문화시설', '문화예술창작공간', '문화예술활동', '미메시스아트뮤지엄']",https://cdn.visitkorea.or.kr/img/call?cmd=VIEW&id=90cf7334-7fd9-45b8-9f74-eca45bbba0c2&thumb,경기도 파주시 문발로 253,37.71664923,126.6890972,
9,목아박물관,경기 여주시,031-885-9952,"['나들이', '목아박물관', '문화시설', '미세먼지_피하는_실내여행', '박물관', '수도권']",https://cdn.visitkorea.or.kr/img/call?cmd=VIEW&id=012813fe-1ca3-4065-ad10-f4f25d400b13&thumb,경기도 여주시 강천면 이문안길 21,37.28855027,127.68812290000001,
10,국립과천과학관,경기,02-3677-1500,"['가족과함께', '겨울방학가볼만한곳', '과천가볼만한곳', '국립과천과학관', '남녀노소']",https://cdn.visitkorea.or.kr/img/call?cmd=VIEW&id=d1fce5dd-69bd-4723-8cc3-330f0fe7a0ca&thumb,경기도 과천시 상하벌로 110,37.43963718,127.00229499999999,
11,경기도자박물관,경기 광주시,031-799-1500,"['가족여행', '경기도자박물관', '문화시설', '서울근교여행', '아이와함께', '예술']",https://cdn.visitkorea.or.kr/img/call?cmd=VIEW&id=329b617f-ea11-46b6-8ca0-6d502d7f2c7f&thumb,경기도 광주시 곤지암읍 경충대로 727,37.35028278,127.3347855,
12,청암민속박물관,경기 양주시,031-855-5100,"['기차여행', '문화시설', '박물관', '서울근교여행', '수도권', '아이와함께', '이색체험']",https://cdn.visitkorea.or.kr/img/call?cmd=VIEW&id=464014a8-8941-4d96-a109-56ebe7ead2b6&thumb,경기도 양주시 장흥면 권율로 83-5,37.72205241,126.9457903,
13,수원화성박물관,경기 수원시,031-228-4242,"['문화공간', '문화시설', '박물관', '복합문화공간', '수도권', '수원화성박물관']",https://cdn.visitkorea.or.kr/img/call?cmd=VIEW&id=3b1c372a-ab86-48c5-84ca-5c3065283310&thumb,경기도 수원시 팔달구 창룡대로 21,37.28259139,127.01898510000001,
14,여주박물관,경기 여주시,031-887-3583,"['교과서속여행', '문화시설', '미세먼지_피하는_실내여행', '박물관', '수도권']",https://cdn.visitkorea.or.kr/img/call?cmd=VIEW&id=a71e90cb-fb0f-491e-8866-b2fe5bd866b8&thumb,경기도 여주시 신륵사길 6-12,37.29965313,127.6533791,
15,구하우스미술관,경기 양평군,031-774-7460,"['건축여행', '구하우스', '기획전시', '문화시설', '미술관', '수도권', '양평가볼만한곳']",https://cdn.visitkorea.or.kr/img/call?cmd=VIEW&id=cad82fbf-a791-4ceb-a7fa-be4bdcae06b3&thumb,경기도 양평군 서종면 무내미길 49-12,37.60305157,127.35114440000001,
16,C 아트뮤지엄(숲속의 미술공원),경기 양평군,031-775-6945,"['C아트뮤지엄', '당일치기여행', '문화공간', '문화시설', '미술관', '미술작품']",https://cdn.visitkorea.or.kr/img/call?cmd=VIEW&id=94daf80d-ff43-4c09-8efc-ce26fe7a06a4&thumb,경기도 양평군 양동면 다락근이길 57-13,37.39488762,127.7373348,
17,경기도박물관,경기 용인시,031-288-5300,"['가족여행', '경기도박물관', '무료관람', '문화시설', '박물관', '수도권', '아이와함께']",https://cdn.visitkorea.or.kr/img/call?cmd=VIEW&id=157b0d55-4dd9-46a5-8eeb-4d1b1facc513&thumb,경기도 용인시 기흥구 상갈로 6,37.26817020000001,127.1088507,
18,경기도어린이박물관,경기 용인시,031-270-8600,"['가족여행', '경기도어린이박물관', '교과서속여행', '문화시설', '박물관', '수도권']",https://cdn.visitkorea.or.kr/img/call?cmd=VIEW&id=31d6e42d-979b-4649-afd5-1f089a490a04&thumb,경기도 용인시 기흥구 상갈로 6,37.26817020000001,127.1088507,
19,안산 어촌민속박물관,경기 안산시,032-886-0126,"['가족여행', '가족체험여행', '문화시설', '박물관', '수도권', '아이와함께', '안산가볼만한곳']",https://cdn.visitkorea.or.kr/img/call?cmd=VIEW&id=8e415e31-bd91-4de9-9deb-6d260fac3103&thumb,경기도 안산시 단원구 대부황금로 7,37.19250726,126.64612050000001,
20,박물관 얼굴,경기 광주시,031-765-3522,"['가족여행', '경기권', '경기도 광주', '문화시설', '박물관얼굴', '서울근교', '체험학습']",https://cdn.visitkorea.or.kr/img/call?cmd=VIEW&id=a79b87d4-c251-4b42-a708-c59daaf10e86&thumb,경기도 광주시 남종면 분원길 3-6,37.4939575,127.30205090000001,
21,부천자연생태공원,경기 부천시,032-320-3000,"['나들이', '문화시설', '박물관', '부천자연생태공원', '서울근교여행', '아이와함께']",https://cdn.visitkorea.or.kr/img/call?cmd=VIEW&id=80a216cc-3f06-401b-a76d-c2d6a862cee5&thumb,경기도 부천시 원미구 길주로 660,37.50512868,126.8156874,
22,더 파크 아프리카뮤지엄,경기 포천시,031-543-3600,"['교과서속여행', '더파크아프리카뮤지엄', '문화시설', '박물관', '수도권', '아이와함께']",https://cdn.visitkorea.or.kr/img/call?cmd=VIEW&id=b4291a81-f3fd-46f9-a314-3d50585f4900&thumb,경기도 포천시 소흘읍 광릉수목원로 967,37.77526972,127.1393277,
23,전곡선사박물관,경기 연천군,031-830-5600,"['가족여행', '문화시설', '박물관', '수도권', '아이와함께', '전곡선사박물관']",https://cdn.visitkorea.or.kr/img/call?cmd=VIEW&id=ab0986f3-2f0b-417d-8ea5-c43bc735608d&thumb,경기도 연천군 전곡읍 평화로443번길 2,38.01159172,127.0637623,
24,백남준아트센터,경기 용인시,031-201-8500,"['문화시설', '문화예술', '미세먼지_피하는_실내여행', '미술관', '백남준아트센터']",https://cdn.visitkorea.or.kr/img/call?cmd=VIEW&id=58055fa4-ed5f-4245-a8e1-6193f3c028e2&thumb,경기도 용인시 기흥구 백남준로 10,37.26914663,127.1104379,
25,모란미술관,경기 남양주시,031-594-8001,"['나들이', '데이트코스', '모란미술관', '문화시설', '미술관', '수도권', '실내여행지']",https://cdn.visitkorea.or.kr/img/call?cmd=VIEW&id=3ca6ffc9-68e9-4ec8-a467-0a0aa1b20483&thumb,경기도 남양주시 화도읍 경춘로2110번길 8,37.42467857,126.8634321,
26,광명업사이클아트센터,경기 광명시,02-2680-6952,"['가족과함께', '광명업사이클아트센터', '문화시설', '복합문화공간', '수도권']",https://cdn.visitkorea.or.kr/img/call?cmd=VIEW&id=0e6a3ba5-4892-48d7-a5fc-c691a7e85317&thumb,경기도 광명시 가학로85번길 142,37.6504135,127.32377749999999,
27,추억의 청춘뮤지엄,경기 양평군,031-775-8907,"['SNS감성사진', '감성사진', '문화시설', '복합문화공간', '사진찍기', '사진찍기좋은곳']",https://cdn.visitkorea.or.kr/img/call?cmd=VIEW&id=e7a0b1b9-891e-402e-b228-d91e141faf07&thumb,경기도 양평군 용문면 용문산로 620,37.5445765,127.5854011,
28,프라움악기박물관,경기 남양주시,031-521-6043,"['남양주가볼만한곳', '데이트코스', '문화공간', '문화시설', '복합문화공간', '사계절']",https://cdn.visitkorea.or.kr/img/call?cmd=VIEW&id=9e5a026d-d0b3-4516-9e59-f228db38d1c7&thumb,경기도 남양주시 와부읍 경강로 756,37.56850845,127.22704920000001,
29,부천시립심곡도서관,경기 부천시,032-625-4588,"['남녀노소', '도서관', '독서교육', '문화공간', '문화시설', '부천시립심곡도서관']",https://cdn.visitkorea.or.kr/img/call?cmd=VIEW&id=2ebf3bd2-0e70-43d5-a4f4-3264cd792100&thumb,경기도 부천시 성무로 24,37.48035202,126.7839472,
30,왈츠와 닥터만 커피박물관,경기 남양주시,031-576-0020,"['가족여행', '경기권', '문화시설', '서울근교여행', '왈츠와닥터만커피박물관']",https://cdn.visitkorea.or.kr/img/call?cmd=VIEW&id=a1b08438-933e-442f-952c-5e00679765d6&thumb,경기도 남양주시 조안면 북한강로 856-37,37.59196631,127.33845649999999,
31,수원시립아이파크미술관,경기 수원시,031-228-3800,"['문화시설', '문화예술공간', '미술관', '복합문화공간', '수도권', '수원시립아이파크미술관']",https://cdn.visitkorea.or.kr/img/call?cmd=VIEW&id=3aeedfbf-d58a-4740-812c-d03d21624b9e&thumb,경기도 수원시 팔달구 정조로 833,37.28270503,127.01582509999999,
32,안산문화원,경기 안산시,031-415-0041,"['가족여행', '경기권', '무장애', '문화시설', '서울근교여행', '안산문화원', '안산시']",https://cdn.visitkorea.or.kr/img/call?cmd=VIEW&id=6aa68e80-5a33-496d-8334-dbd0db4fa594&thumb,경기도 안산시 상록구 석호로 144,37.29932569,126.84763170000001,
33,국립수목원 산림박물관,경기 포천시,031-540-2000,"['국립수목원', '문화시설', '박물관', '산림박물관', '수도권', '수목원', '아이와함께']",https://cdn.visitkorea.or.kr/img/call?cmd=VIEW&id=489bc826-2926-4fd9-96c6-afbbf4f21799&thumb,경기도 포천시 소흘읍 광릉수목원로 415,37.75624231,127.1656646,
34,기형도문학관,경기 광명시,02-2621-8860,"['문학관', '문화시설', '복합문화공간', '시문학', '아이와함께', '열린문화공간']",https://cdn.visitkorea.or.kr/img/call?cmd=VIEW&id=6360782c-0a72-4bac-8693-4b6d95d9b6e1&thumb,경기도 광명시 오리로 268,37.42640701,126.8815782,
35,수원광교박물관,경기 수원시,031-228-4175,"['문화시설', '박물관', '수도권', '수원광교박물관', '아이와함께', '역사를품은곳']",https://cdn.visitkorea.or.kr/img/call?cmd=VIEW&id=24d44390-1633-4ff4-aef2-cf81f4c06218&thumb,경기도 수원시 영통구 광교로 182,37.29634871,127.0514216,
36,남양주시립박물관,경기 남양주시,031-590-8600,"['가족과함께', '남녀노소', '남양주시립박물관', '문화공간', '문화시설', '박물관']",https://cdn.visitkorea.or.kr/img/call?cmd=VIEW&id=6287129e-815e-48d0-a559-bcdd30c08a17&thumb,경기도 남양주시 와부읍 팔당로 121,37.54638614,127.2443744,
37,경기아트센터,경기 수원시,031-230-3200,"['경기도문화의전당', '단체관람', '문화시설', '서울근교여행', '아이와함께', '연인과함께']",https://cdn.visitkorea.or.kr/img/call?cmd=VIEW&id=82705d2e-71c0-47fd-b9cf-0c157f7b8430&thumb,경기도 수원시 팔달구 효원로307번길 20,37.26158333,127.0375696,
38,안성맞춤박물관,경기 안성시,031-676-4352,"['나들이', '문화시설', '박물관', '서울근교여행', '아이와함께', '안성맞춤박물관']",https://cdn.visitkorea.or.kr/img/call?cmd=VIEW&id=0c8320d1-2ba8-4d28-8028-c8a8ecf6ffdf&thumb,경기도 안성시 대덕면 서동대로 4726-15,37.01131789,127.22835590000001,
39,경기북부어린이박물관,경기 동두천시,031-860-2860,"['겨울방학가볼만한곳', '경기북부어린이박물관', '문화공간', '문화시설', '박물관']",https://cdn.visitkorea.or.kr/img/call?cmd=VIEW&id=46d3669f-0ce3-4f89-91c8-b031ea0fcc4e&thumb,경기도 동두천시 평화로2910번길 46,37.94467141,127.06445120000001,
40,한국 초콜릿연구소뮤지엄,경기 가평군,031-585-4691,"['가족과함께', '가족체험', '가평가볼만한곳', '문화시설', '복합문화공간', '아이와함께']",https://cdn.visitkorea.or.kr/img/call?cmd=VIEW&id=c25d1a61-82de-4880-a831-01423c18aa21&thumb,경기도 가평군 청평면 경춘로 157,37.69012485,127.38030309999999,
41,안성 3.1운동기념관,경기 안성시,31 031-678-2478,"['3·1운동_100주년_여행지추천', '가족여행', '교과서속여행', '기념관', '문화시설']",https://cdn.visitkorea.or.kr/img/call?cmd=VIEW&id=fcbccdce-018f-4419-822c-0006cd61b43e&thumb,경기도 안성시 원곡면 만세로 868,37.06278466,127.17529520000001,
42,여주세계생활도자관,경기 여주시,031-884-8644,"['가족여행', '도자기박물관', '문화시설', '미세먼지_피하는_실내여행', '반달미술관']",https://cdn.visitkorea.or.kr/img/call?cmd=VIEW&id=fdeae97a-ed9e-4541-854e-9e006c170665&thumb,경기도 여주시 신륵사길 7,37.30014504,127.65454620000001,
43,양평군립미술관,경기 양평군,031-775-8515,"['경기도', '기념품판매', '문화시설', '문화행사', '미술관', '아이와함께', '양평군립미술관']",https://cdn.visitkorea.or.kr/img/call?cmd=VIEW&id=fd5c5fa6-fe68-4b04-9baf-3fc3a61ce707&thumb,경기도 양평군 양평읍 문화복지길 2,37.49709935,127.4839989,
44,일본군'위안부'역사관,경기 광주시,031-768-0064,"['경기도 광주', '나눔의 집', '문화시설', '위안부', '일본군위안부역사관', '전쟁범죄']",https://cdn.visitkorea.or.kr/img/call?cmd=VIEW&id=b58322c7-4796-4985-83c6-1b3926b158f5&thumb,경기도 광주시 퇴촌면 가새골길 85,37.4428472,127.32201979999999,
45,한국미술관,경기 용인시,031-283-6418,"['데이트코스', '문화시설', '미술관', '수도권', '아이와함께', '연인과함께', '예술']",https://cdn.visitkorea.or.kr/img/call?cmd=VIEW&id=c1085628-915e-4411-90a3-db68d09f8ad9&thumb,경기도 용인시 기흥구 마북로 244-2,37.30896613,127.1319669,
46,김포독립운동기념관,경기 김포시,031-996-6270,"['교과서속여행', '기념관', '김포독립기념관', '무장애', '문화시설', '미세먼지_피하는_실내여행']",https://cdn.visitkorea.or.kr/img/call?cmd=VIEW&id=e80dffb4-830d-4341-bba3-e64eee98a4cb&thumb,경기도 김포시 양촌읍 양곡2로30번길 46,37.65335898,126.62964199999999,
47,지앤아트스페이스,경기 용인시,031-286-8500,"['남녀노소', '당일치기여행', '도예가', '도예체험', '문화시설', '미술관', '수도권']",https://cdn.visitkorea.or.kr/img/call?cmd=VIEW&id=0039c7b1-e6b4-480b-8199-4dfd0ceecfec&thumb,경기도 용인시 기흥구 백남준로 7,37.26991208,127.11012509999999,
48,만해기념관,경기 광주시,031-744-3100,"['가족여행', '근대문화유산', '만해기념관', '문화시설', '박물관', '수도권', '아이와함께']",https://cdn.visitkorea.or.kr/img/call?cmd=VIEW&id=b79f4094-a994-4431-9271-9fdf8a9da7cf&thumb,경기도 광주시 남한산성면 남한산성로792번길 24-8,37.47780122,127.18130500000001,
49,이천시립월전미술관,경기 이천시,031-637-0033,"['나들이', '데이트코스', '문화시설', '미술관', '수도권', '실내여행지', '아이와함께']",https://cdn.visitkorea.or.kr/img/call?cmd=VIEW&id=547ec234-c663-4bcc-93f0-d072d565b5dd&thumb,경기도 이천시 경충대로2709번길 185,37.28016656,127.4240472,
50,과천시민회관,경기,02-504-7300,"['공연장', '과천시민회관', '데이트코스', '문화시설', '복합문화공간', '상설공연']",https://cdn.visitkorea.or.kr/img/call?cmd=VIEW&id=179cb158-1b18-41c0-ad0a-7b35f61c201c&thumb,경기도 과천시 통영로 5,37.42819272,126.9891524,
51,용인 포은아트홀,경기 용인시,031-260-3300,"['가족여행', '데이트코스', '문화공간', '문화시설', '문화행사', '복합문화공간']",https://cdn.visitkorea.or.kr/img/call?cmd=VIEW&id=81321c14-4be2-43ed-b797-ef8623ee805a&thumb,경기도 용인시 수지구 포은대로 499,37.32561804,127.1047625,
52,부천시립원미도서관,경기 부천시,032-625-4723,"['남녀노소', '독서교육', '문화공간', '문화시설', '부천시립원미도서관']",https://cdn.visitkorea.or.kr/img/call?cmd=VIEW&id=6885cbb6-2347-453a-8ac4-bf63dca13051&thumb,경기도 부천시 소사로 456,37.4979854,126.7990398,
53,고양 아람누리,경기 고양시,1577-7766,"['고양아람누리', '문화시설', '문화행사', '복합문화공간', '상설공연', '수도권']",https://cdn.visitkorea.or.kr/img/call?cmd=VIEW&id=48f272ba-f2ad-4259-8f59-63e906e0aa82&thumb,경기도 고양시 일산동구 중앙로 1286,37.661485600000006,126.77445829999999,
54,고양 선인장전시관,경기 고양시,031-908-4525,"['고양선인장전시관', '당일치기여행', '문화시설', '서울근교여행', '수도권', '아이와함께']",https://cdn.visitkorea.or.kr/img/call?cmd=VIEW&id=c9f1784b-9cea-419b-908c-bf664c9f7b03&thumb,경기도 고양시 일산동구 호수로 731,37.66444706,126.7604422,
55,남한산성아트홀(광주시문화스포츠센터 공연장),경기 광주시,031-760-4480,"['가족여행', '남한산성아트홀', '데이트코스', '문화공간', '문화시설', '문화행사']",https://cdn.visitkorea.or.kr/img/call?cmd=VIEW&id=a81337bf-eb1f-4fbf-aa7c-83fbc1a4deb7&thumb,경기도 광주시 회안대로 891,37.4268685,127.25470609999999,
56,재미있는 추억 박물관,경기 파주시,031-943-2552,"['가족과함께', '골동품', '남녀노소', '문화시설', '박물관', '아이와함께', '연인과함께']",https://cdn.visitkorea.or.kr/img/call?cmd=VIEW&id=0aa89924-c8b9-4d3d-b355-4e2e28c6de8f&thumb,경기도 파주시 탄현면 헤이리마을길 93-148,37.79090185,126.69815729999999,
57,우석헌자연사박물관,경기 남양주시,031-572-9555,"['교과서속여행', '문화시설', '박물관', '사계절', '수도권', '실내여행지', '아이와함께']",https://cdn.visitkorea.or.kr/img/call?cmd=VIEW&id=8a6d6c1f-dd1c-4381-b545-d830c32e6a14&thumb,경기도 남양주시 진접읍 금강로 1095,37.69803201,127.1608188,
58,성호박물관,경기 안산시,031-481-2574,"['기념관', '무장애', '문화시설', '박물관', '서울근교여행', '성호기념관', '아이와함께']",https://cdn.visitkorea.or.kr/img/call?cmd=VIEW&id=19cf9afd-7052-458a-8ab1-fad2d5176053&thumb,경기도 안산시 상록구 성호로 131,37.31507523,126.85957739999999,
59,국립현대미술관(과천관),경기,02-2188-6000,"['과천관', '국립현대미술관', '나들이', '데이트코스', '문화시설', '미술관', '수도권']",https://cdn.visitkorea.or.kr/img/call?cmd=VIEW&id=3714fee5-3884-4159-8ebf-b69d7e8d713e&thumb,경기도 과천시 광명로 313,37.43100343,127.01992990000001,
60,경기도국악당,경기 용인시,031-289-6400,"['가족여행', '경기도국악당', '단체관람', '문화시설', '아이와함께', '연인과함께']",https://cdn.visitkorea.or.kr/img/call?cmd=VIEW&id=e2a5bde6-d18d-4c99-8cbf-54cf28d01e2d&thumb,경기도 용인시 기흥구 민속촌로 89,37.25940011,127.11361969999999,
61,일산밤가시초가,경기 고양시,031-8075-3388,"['가족여행', '경기권', '문화시설', '서울근교여행', '역사', '일산밤가시초가', '전통가옥']",https://cdn.visitkorea.or.kr/img/call?cmd=VIEW&id=26e9da51-e54b-47d9-831f-044f3a2f21ae&thumb,경기도 고양시 일산동구 햇살로105번길 36-7,37.67019413,126.78029540000001,
62,수원박물관,경기 수원시,031-228-4150,"['가족과함께', '교과서속여행', '남녀노소', '문화시설', '미세먼지_피하는_실내여행']",https://cdn.visitkorea.or.kr/img/call?cmd=VIEW&id=4aa9a7aa-6fd7-4b15-8377-3575dc8e63d3&thumb,경기도 수원시 영통구 창룡대로 265,37.29764714,127.03563290000001,
63,와동 생태곤충 체험관,경기 안산시,031-481-2629,"['가볼만한축제', '문화시설', '생태관', '생태테마', '아이와함께', '와동생태곤충체험관']",https://cdn.visitkorea.or.kr/img/call?cmd=VIEW&id=e9a13341-bd20-4051-b96d-d6a5c6335238&thumb,경기도 안산시 단원구 와동공원로 109,37.34001915,126.82030259999999,
64,뮤지엄그라운드,경기 용인시,031-265-8200,"['남녀노소', '문화공간', '문화시설', '문화예술', '문화예술공간', '미술관', '미술작품']",https://cdn.visitkorea.or.kr/img/call?cmd=VIEW&id=78d69bd2-2f9d-4b6e-bc6c-1490cf46970b&thumb,경기도 용인시 수지구 샘말로 122,37.35645009,127.0440969,
65,호암미술관,경기 용인시,031-320-1801,"['가족여행', '경기권', '문화시설', '서울근교여행', '호암미술관']",https://cdn.visitkorea.or.kr/img/call?cmd=VIEW&id=5d473405-a72b-4d87-b79a-38000133ae7f&thumb,경기도 용인시 처인구 포곡읍 에버랜드로562번길 38,37.29321604,127.192333,
66,부천 물 박물관,경기 부천시,032-625-3399,"['나들이', '문화시설', '박물관', '부천물박물관', '서울근교여행', '아이와함께']",https://cdn.visitkorea.or.kr/img/call?cmd=VIEW&id=4b261d1d-f45a-4457-a9f5-f5a129abff9c&thumb,경기도 부천시 길주로 691,37.520247999999995,126.812149,
67,남양주 어린이비전센터,경기 남양주시,031-560-1560,"['겨울방학가볼만한곳', '남양주어린이비전센터', '문화시설', '서울근교여행']",https://cdn.visitkorea.or.kr/img/call?cmd=VIEW&id=a8f303a8-5008-4989-8d43-a792d323b90f&thumb,경기도 남양주시 진접읍 해밀예당1로 96,37.71709051,127.19104879999999,
68,김포 아트빌리지,경기 김포시,031-996-6836,"['문화시설', '복합문화공간', '아이와함께', '연인과함께', '열린문화공간', '이색체험']",https://cdn.visitkorea.or.kr/img/call?cmd=VIEW&id=060d66ca-dcdc-4e9e-bd08-67466a91e048&thumb,경기도 김포시 모담공원로 170,37.64663282,126.6962136,
69,남송미술관,경기 가평군,031-581-0772,"['남송미술관', '명지산', '문화시설', '미술관', '수도권', '예술', '전망', '주말추천여행지']",https://cdn.visitkorea.or.kr/img/call?cmd=VIEW&id=d2186c0a-d175-441e-bdf4-6dc89dda97a7&thumb,경기도 가평군 북면 백둔로 322,37.9045119,127.4722748,
70,판교박물관,경기 성남시,031-729-4535,"['교과서속여행', '문화시설', '박물관', '수도권', '아이와함께', '역사공부', '역사를품은곳']",https://cdn.visitkorea.or.kr/img/call?cmd=VIEW&id=5914969e-cf4a-48b7-bd95-4186c3315224&thumb,경기도 성남시 분당구 판교로 191,37.40108358,127.09554569999999,
71,광주문화원(경기),경기 광주시,031-764-0686,"['광주문화원', '문화시설', '문화원', '사계절', '서울근교여행', '수도권', '실내여행지']",https://cdn.visitkorea.or.kr/img/call?cmd=VIEW&id=18a265ed-906e-4089-ab69-d61d6a983685&thumb,경기도 광주시 문화로85번길 19-12,37.40997626,127.2493751,
72,수원시미술전시관,경기 수원시,031-243-3647,"['가족여행', '문화시설', '미술관', '사계절', '수도권', '수원시미술전시관', '예술']",https://cdn.visitkorea.or.kr/img/call?cmd=VIEW&id=104addec-5ce3-4086-98f1-11285dc553d5&thumb,경기도 수원시 장안구 송정로 19,37.29703674,126.9994548,
73,서울액션스쿨 (마샬아트센터),경기 파주시,031-946-6746,"['남녀노소', '마샬아트센터', '문화시설', '서울액션스쿨', '수도권', '연인과함께']",https://cdn.visitkorea.or.kr/img/call?cmd=VIEW&id=0ee822cc-198d-4998-8666-b2a3a9738864&thumb,경기도 파주시 탄현면 헤이리마을길 18-61,37.78739839,126.6948364,
74,최용신기념관,경기 안산시,031-481-3040,"['교과서속여행', '근대문화유산', '기념관', '문화시설', '수도권', '애국계몽', '애국심']",https://cdn.visitkorea.or.kr/img/call?cmd=VIEW&id=d6055cc3-927b-4e8c-ac58-b9d8083dbf9b&thumb,경기도 안산시 상록구 샘골서길 64,37.29964386,126.8627402,
75,포천 반월아트홀,경기 포천시,031-540-6213,"['가족여행', '문화시설', '상설공연', '수도권', '아이와함께', '연인과함께', '예술']",https://cdn.visitkorea.or.kr/img/call?cmd=VIEW&id=91f7d377-55f2-444f-8f04-8551bbfb967a&thumb,경기도 포천시 군내면 청성로 111,37.89610864,127.21241840000002,
76,용인시여성회관,경기 용인시,1577-1122,"['문화공간', '문화시설', '문화행사', '복합문화공간', '사계절', '상설공연', '수도권']",https://cdn.visitkorea.or.kr/img/call?cmd=VIEW&id=aaa62baf-d5e1-488e-a8b7-a1dc297e6299&thumb,경기도 용인시 수지구 문정로7번길 15,37.32052477,127.095499,
77,한국항공대학교 항공우주박물관,경기 고양시,02-300-0466,"['문화시설', '박물관', '수도권', '아이와함께', '전시관', '체험학습', '친구와함께']",https://cdn.visitkorea.or.kr/img/call?cmd=VIEW&id=d43f029f-bb4f-4150-a6fe-e76f0211a5f8&thumb,경기도 고양시 덕양구 항공대학로 76,37.59901633,126.86417250000001,
78,고양 어린이박물관,경기 고양시,031-839-0300,"['가족과함께', '문화시설', '미세먼지_피하는_실내여행', '복합문화공간', '아이가_좋아하는_여행']",https://cdn.visitkorea.or.kr/img/call?cmd=VIEW&id=0b574fb7-f5ca-446a-a03f-fb187685e0e3&thumb,경기도 고양시 덕양구 화중로 26,37.62948078,126.8309491,
79,파주 나비나라박물관,경기 파주시,031-955-3727,"['가족과함께', '공예품', '나비전시관', '문화시설', '박물관', '서울근교여행', '수도권']",https://cdn.visitkorea.or.kr/img/call?cmd=VIEW&id=8068eb36-8a17-4e37-aae8-527dd906678f&thumb,경기도 파주시 광인사길 161,37.71485205,126.68691240000001,
80,배다골테마파크 고양민속박물관,경기 고양시,031-970-7339,"['가족과함께', '고양시', '데이트', '문화시설', '아이와함게']",https://cdn.visitkorea.or.kr/img/call?cmd=VIEW&id=57c8ea1b-821e-4483-be63-050e3dfdf499&thumb,경기도 고양시 덕양구 배다골길 131,37.63016535,126.84810929999999,
81,의왕조류생태과학관,경기 의왕시,031-8086-7490,"['교과서속여행', '무더위_피해_실내놀이', '문화시설', '박물관', '사계절', '수도권']",https://cdn.visitkorea.or.kr/img/call?cmd=VIEW&id=4abe289e-aa37-4e07-8ea2-0301b264285f&thumb,경기도 의왕시 왕송못동로 209,37.31088595,126.9503038,
82,여주곤충박물관,경기 여주시,031-885-1400,"['가족과함께', '곤충류', '곤충박물관', '곤충생태관', '곤충체험학습', '남녀노소']",https://cdn.visitkorea.or.kr/img/call?cmd=VIEW&id=e0ac3f64-abaa-460d-ad2f-00e8b54b5cc3&thumb,경기도 여주시 명품로 308-28,37.24330328,127.61602820000002,
83,중남미문화원,경기 고양시,031-962-9291,"['나들이', '데이트코스', '문화시설', '미술관', '박물관', '수도권', '실내여행지']",https://cdn.visitkorea.or.kr/img/call?cmd=VIEW&id=cd0f4b56-1249-4971-94a6-2ceaac2b7ff9&thumb,경기도 고양시 덕양구 대양로285번길 33-15,37.70358397,126.8953482,
84,고양 화장실전시관,경기 고양시,031-8075-4351,"['가족과함께', '고양가볼만한곳', '문화시설', '미세먼지_피하는_실내여행', '산책하기']",https://cdn.visitkorea.or.kr/img/call?cmd=VIEW&id=236416f4-830d-4053-9034-1740d4cd0147&thumb,경기도 고양시 일산동구 호수로 731,37.66444706,126.7604422,
85,현대어린이책미술관,경기 성남시,031-5170-3700,"['가족과함께', '문화시설', '미술관', '수도권', '아이와함께', '전시관', '체험학습']",https://cdn.visitkorea.or.kr/img/call?cmd=VIEW&id=7d30f5c1-bd20-4efe-bb40-c20125f163a3&thumb,경기도 성남시 분당구 판교역로146번길 20,37.39279462,127.1120875,
86,죽포미술관,경기 여주시,031-881-5905,"['남녀노소', '문화시설', '문화예술', '문화예술활동', '미술관', '복합문화공간']",https://cdn.visitkorea.or.kr/img/call?cmd=VIEW&id=c3cc4254-1643-43d7-abdc-0b91d664ca0c&thumb,경기도 여주시 산북면 고촌길 26-10,37.4100311,127.44263810000001,
87,갤러리박영,경기 파주시,031-955-4071,"['갤러리박영', '문화시설', '문화예술', '미술관', '수도권', '열린문화공간', '이색체험']",https://cdn.visitkorea.or.kr/img/call?cmd=VIEW&id=3352cf9a-8918-49e3-834b-be3fc118e5ee&thumb,경기도 파주시 회동길 37-9,37.70574008,126.6843092,
88,한과문화박물관 한가원,경기 포천시,031-533-8121,"['가족체험여행', '문화시설', '박물관', '서울근교여행', '수도권', '아이와함께']",https://cdn.visitkorea.or.kr/img/call?cmd=VIEW&id=1ec52d4d-c297-4da4-8d7c-f11461811ff2&thumb,경기도 포천시 영북면 산정호수로322번길 26-9,38.068356099999995,127.3037294,
89,용인시문예회관,경기 용인시,031-335-0455,"['가족여행', '데이트코스', '문화공간', '문화시설', '문화행사', '복합문화공간']",https://cdn.visitkorea.or.kr/img/call?cmd=VIEW&id=9f19f38f-f08d-46e0-8d9d-21736fbfa264&thumb,경기도 용인시 처인구 중부대로1392번길 15,37.23174325,127.1988706,
90,평택남부문화예술회관,경기 평택시,031-8024-5415,"['공연장', '데이트코스', '문화시설', '복합문화공간', '아이와함께', '연인과함께']",https://cdn.visitkorea.or.kr/img/call?cmd=VIEW&id=f19e4341-e9aa-493b-bbc9-51453f83fb61&thumb,경기도 평택시 중앙로 277,36.99113416,127.1140857,
91,연천수레울아트홀,경기 연천군,031-834-3770,"['가족여행', '데이트코스', '문화공간', '문화시설', '문화행사', '복합문화공간']",https://cdn.visitkorea.or.kr/img/call?cmd=VIEW&id=be875192-5bec-4b82-ba83-220048df9aad&thumb,경기도 연천군 연천읍 문화로 150,38.10712455,127.0797463,
92,동화나라,경기 파주시,031-942-1956,"['당일치기여행', '독서여행', '독서회', '동화나라', '문화공간', '문화시설', '복합문화공간']",https://cdn.visitkorea.or.kr/img/call?cmd=VIEW&id=5016451e-8b87-41b3-b679-bb50b072e833&thumb,경기도 파주시 탄현면 헤이리마을길 93-20,37.79066684,126.69852949999999,
93,성남문화원,경기 성남시,031-756-1082,"['경기도', '무장애', '문화시설', '문화원', '성남시', '지방문화원', '지역문화']",https://cdn.visitkorea.or.kr/img/call?cmd=VIEW&id=06cf3344-5258-420b-828d-d3ac807cfd8d&thumb,경기도 성남시 수정구 산성대로215번길 7,37.43905043,127.1408494,
94,오산문화예술회관,경기 오산시,031-379-9900,"['가족과함께', '공연/전시', '문화공간', '문화시설', '문화예술', '문화예술공간']",https://cdn.visitkorea.or.kr/img/call?cmd=VIEW&id=deaa35f5-3234-4ab9-b393-e7ecfc9690ef&thumb,경기도 오산시 경기동로 41,37.15954898,127.076857,
95,인터렉티브아트뮤지엄,경기 가평군,070-8899-4251,"['문화시설', '수도권', '연중무휴', '인터렉티브아트뮤지엄']",https://cdn.visitkorea.or.kr/img/call?cmd=VIEW&id=29c80d49-7618-4a4a-a3d5-f73f8051280d&thumb,경기도 가평군 가평읍 호반로 1655,37.74347669,127.51062579999999,
96,보름산미술관(김포),경기 김포시,031-985-0005,"['문화시설', '문화예술', '문화예술공간', '문화예술활동', '미술자료', '미술작품']",https://cdn.visitkorea.or.kr/img/call?cmd=VIEW&id=95535a78-e643-4852-88e6-d38a7e041357&thumb,경기도 김포시 고촌읍 수기로 100-78,37.59637231,126.760888,
97,안성 남사당 공연장,경기 안성시,031-678-2518,"['가족여행', '문화시설', '서울근교여행', '안성남사당공연장', '연인과함께', '음악회']",https://cdn.visitkorea.or.kr/img/call?cmd=VIEW&id=838bd420-aebd-40fd-8ed7-7f3b3d2cc53b&thumb,경기도 안성시 보개면 남사당로 198-2,37.03181804,127.31005060000001,
98,지도박물관,경기 수원시,031-210-2667,"['교과서속여행', '문화시설', '박물관', '사계절', '수도권', '실내여행지', '아이와함께']",https://cdn.visitkorea.or.kr/img/call?cmd=VIEW&id=d825f882-afb9-4d2a-a497-dd414779be82&thumb,경기도 수원시 영통구 월드컵로 92,37.27577145,127.0549634,
99,이천아트홀,경기 이천시,031-644-2100,"['가족여행', '데이트코스', '문화공간', '문화시설', '문화예술', '문화예술활동']",https://cdn.visitkorea.or.kr/img/call?cmd=VIEW&id=d384aa11-f7be-4a25-9efb-c7d591a69dc8&thumb,경기도 이천시 부악로 40,37.27212308,127.43503659999999,
100,한국등잔박물관,경기 용인시,031-334-0797,"['당일치기여행', '문화시설', '박물관', '수도권', '실내여행지', '아이와함께', '이색체험']",https://cdn.visitkorea.or.kr/img/call?cmd=VIEW&id=219145af-7f2b-4e59-9df6-9d416a39b11f&thumb,경기도 용인시 처인구 모현읍 능곡로56번길 8,37.33658645,127.17788090000002,
101,의정부문화원,경기 의정부시,031-872-5678,"['문화강좌', '문화시설', '열린문화공간', '의정부문화원']",https://cdn.visitkorea.or.kr/img/call?cmd=VIEW&id=a4f3c478-841f-4e05-b958-3e0227930186&thumb,경기도 의정부시 산단로 123,37.74638963,127.0794087,
102,말박물관,경기,02-509-1287,"['나들이', '말박물관', '문화시설', '박물관', '수도권', '실내여행지', '아이와함께']",https://cdn.visitkorea.or.kr/img/call?cmd=VIEW&id=bcdb62df-0c6c-49db-8c8c-007c253c50fa&thumb,경기도 과천시 경마공원대로 107,37.44120036,127.01612659999998,
103,하남역사박물관,경기 하남시,031-790-7990,"['교과서속여행', '문화시설', '박물관', '사계절', '수도권', '실내여행지', '아이와함께']",https://cdn.visitkorea.or.kr/img/call?cmd=VIEW&id=6987f3a8-6053-4fd9-9c39-739706cbc47f&thumb,경기도 하남시 덕풍동로 30,37.54546042,127.20608419999999,
104,양평 친환경농업박물관,경기 양평군,070-7715-3796,"['가족과함께', '가족여행', '농업박물관', '문화시설', '박물관', '산책하기좋은곳']",https://cdn.visitkorea.or.kr/img/call?cmd=VIEW&id=645f11f8-8dc5-4bd4-bf25-559fd6b7ca60&thumb,경기도 양평군 용문면 용문산로 670,37.54760517,127.58122479999999,
105,킨텍스,경기 고양시,031-810-8114,"['문화시설', '복합문화공간', '수도권', '열린문화공간', '전시관', '컨벤션', '킨텍스']",https://cdn.visitkorea.or.kr/img/call?cmd=VIEW&id=5466e110-f401-4a06-9322-035185c81ea1&thumb,경기도 고양시 일산서구 킨텍스로 217-60,37.66893348,126.74580279999999,
106,김포인삼쌀맥주갤러리,경기 김포시,031-996-0021,"['김포가볼만한곳', '김포인삼쌀맥주갤러리', '문화시설', '수도권', '수제맥주']",https://cdn.visitkorea.or.kr/img/call?cmd=VIEW&id=293c0d08-2406-4438-a1b6-f1dbaf55c319&thumb,경기도 김포시 대곶면 대명항로 518,37.64653895,126.5637598,
107,평택북부문화예술회관,경기 평택시,031-8024-7391,"['공연장', '데이트코스', '문화시설', '복합문화공간', '아이와함께', '연인과함께']",https://cdn.visitkorea.or.kr/img/call?cmd=VIEW&id=c2573ab2-fbb8-437f-ae49-e4ac1df6f452&thumb,경기도 평택시 경기대로 1366,37.06581156,127.0650909,
108,광명문화원,경기 광명시,02-2618-5800,"['광명문화원', '문화시설', '서울근교여행', '수도권', '아이와함께', '예술', '전통&역사문화체험']",https://cdn.visitkorea.or.kr/img/call?cmd=VIEW&id=35df2a1d-cd9c-4018-a817-094db6a6a880&thumb,경기도 광명시 철망산로 42,37.467468700000005,126.8732102,
109,가평현암농경유물박물관,경기 가평군,031-581-0612,"['가평현암농경유물박물관', '교과서속여행', '문화시설', '박물관', '수도권', '실내여행지']",https://cdn.visitkorea.or.kr/img/call?cmd=VIEW&id=2d20226c-f459-49e1-bccc-aa2891a7a383&thumb,경기도 가평군 북면 석장모루길 13,37.87934605,127.5481207,
110,양주시립 회암사지박물관,경기 양주시,031-8082-4187,"['건축', '문화시설', '양주시', '역사유물', '전통&역사문화체험', '회암사', '회암사지박물관']",https://cdn.visitkorea.or.kr/img/call?cmd=VIEW&id=880828fb-e214-4141-9369-ecd9b010cb86&thumb,경기도 양주시 회암사길 11,37.84122644,127.1029809,
111,활판공방,경기 파주시,031-955-0084,"['가족과함께', '근대문화', '근대문화예술', '근대사', '근대역사', '남녀노소', '문화시설']",https://cdn.visitkorea.or.kr/img/call?cmd=VIEW&id=8b4d0c0e-4f8f-4523-9eee-308d66f7eafe&thumb,경기도 파주시 문발로 203,37.71262039,126.6865563,
112,성남아트센터,경기 성남시,031-783-8000,"['가족여행', '문화시설', '문화행사', '사계절', '상설공연', '성남아트센터', '수도권']",https://cdn.visitkorea.or.kr/img/call?cmd=VIEW&id=c083b65b-d404-404f-b98d-e0fe4cd22f80&thumb,경기도 성남시 분당구 성남대로 808,37.40295657,127.13055990000002,
113,창조자연사박물관,경기 시흥시,031-435-1009,"['교과서속여행', '문화시설', '박물관', '사계절', '수도권', '실내여행지', '아이와함께']",https://cdn.visitkorea.or.kr/img/call?cmd=VIEW&id=9c27cd88-8f9d-4161-93f8-ce3951dc7046&thumb,경기도 시흥시 두문로71번길 4,37.43371524,126.7864731,
114,명필름아트센터,경기 파주시,031-930-6600,"['명필름아트센터', '문화공간', '문화시설', '문화콘텐츠산업', '미술관', '복합문화공간']",https://cdn.visitkorea.or.kr/img/call?cmd=VIEW&id=4923c0a9-e06c-4299-a0fa-66a62852d729&thumb,경기도 파주시 회동길 530-20,37.72349442,126.69335840000001,
115,경기과천교육도서관,경기,02-3677-0371,"['과천시', '독서교육', '문화시설', '아이와 함께']",https://cdn.visitkorea.or.kr/img/call?cmd=VIEW&id=fbf97664-cd32-40f6-ba0c-e4ff2e96eaec&thumb,경기도 과천시 도서관길 36,37.4323292,126.99660619999999,
116,영은미술관,경기 광주시,031-761-0137,"['가족여행', '단체관람', '데이트코스', '문화시설', '미술관', '서울근교여행', '아이와함께']",https://cdn.visitkorea.or.kr/img/call?cmd=VIEW&id=eac2f96c-7142-44fe-9864-f15e076a4044&thumb,경기도 광주시 청석로 300,37.41355842,127.268748,
117,예아리박물관,경기 용인시,031-323-7277,"['교과서속여행', '문화시설', '사계절', '수도권', '아이와함께', '여름방학가볼만한곳']",https://cdn.visitkorea.or.kr/img/call?cmd=VIEW&id=a61cfc8c-0668-4255-9861-69076661b31a&thumb,경기도 용인시 처인구 백암면 원설로270번길 25,37.14132389,127.3642612,
118,아지동테마파크(헤이리마을),경기 파주시,031-947-0677,"['가족과함께', '가족체험', '문화시설', '아이와함께', '역사공부', '역사속으로']",https://cdn.visitkorea.or.kr/img/call?cmd=VIEW&id=883c5b43-4ce2-4919-9b0a-1a029374b052&thumb,경기도 파주시 탄현면 헤이리마을길 93-75,37.79140653,126.69624879999999,
119,평촌아트홀,경기 안양시,031-687-0525,"['가족여행', '공연장', '문화시설', '문화예술', '복합문화공간', '사계절', '수도권']",https://cdn.visitkorea.or.kr/img/call?cmd=VIEW&id=571b2a6c-f023-46ae-93dc-b621141df984&thumb,경기도 안양시 동안구 평촌대로 76,37.37998052,126.9640318,
120,시흥문화원,경기 시흥시,031-317-0827,"['문화시설', '문화원', '사계절', '상설전시', '서울근교여행', '수도권', '시흥문화원']",https://cdn.visitkorea.or.kr/img/call?cmd=VIEW&id=0fd5e574-597b-415b-8e65-3742471b37cc&thumb,경기도 시흥시 연성로13번길 3,37.39044726,126.8047632,
121,가평문화예술회관,경기 가평군,031-8078-8076,"['가평문화예술회관', '공연장', '데이트코스', '문화시설', '문화행사', '상설공연']",https://cdn.visitkorea.or.kr/img/call?cmd=VIEW&id=2b01fbe4-86fc-421b-974b-dd0eb139aaaa&thumb,경기도 가평군 가평읍 문화로 131,37.82542273,127.5069577,
122,태평무 전수관,경기 안성시,031-676-0141,"['가족여행', '문화시설', '서울근교여행', '수도권', '태평무전수관']",https://cdn.visitkorea.or.kr/img/call?cmd=VIEW&id=2fd2e116-1500-420c-b78c-0828ed5f1aab&thumb,경기도 안성시 태평무길 42,37.03581661,127.26656650000001,
123,유엔군 초전기념관,경기 오산시,031-377-1625,"['가족여행', '교과서속여행', '문화시설', '사계절', '수도권', '아이와함께', '역사공부']",https://cdn.visitkorea.or.kr/img/call?cmd=VIEW&id=11d396c4-82ac-4338-8863-1eb970cf4b8f&thumb,경기도 오산시 경기대로 742,37.184610600000006,127.0490138,
124,부천문화원,경기 부천시,032-651-3739,"['문화강좌', '문화시설', '부천문화원', '열린문화공간']",https://cdn.visitkorea.or.kr/img/call?cmd=VIEW&id=f91aa26c-cd04-4ebc-bfe1-d243f1a5baf2&thumb,경기도 부천시 경인로92번길 33,37.48250488,126.766558,
125,안양아트센터,경기 안양시,031-687-0500,"['공연장', '데이트코스', '문화시설', '상설공연', '수도권', '아이와함께', '안양아트센터']",https://cdn.visitkorea.or.kr/img/call?cmd=VIEW&id=55f4dcdd-e318-4c43-a7ff-d99a65d4cad5&thumb,경기도 안양시 만안구 문예로36번길 16,37.38458842,126.931366,
126,지혜샘어린이도서관,경기 수원시,031-225-5566,"['경기도', '도서관', '무장애', '문화시설', '수원시', '어린이']",https://cdn.visitkorea.or.kr/img/call?cmd=VIEW&id=b0885f0d-45a8-4368-968c-e2b10464b3eb&thumb,경기도 수원시 권선구 동탄원천로 818,37.248009,127.0400808,
127,군포문화원,경기 군포시,031-397-0195,"['군포문화원', '무형문화재', '문화시설', '서울근교여행', '수도권', '아이와함께']",https://cdn.visitkorea.or.kr/img/call?cmd=VIEW&id=ea4afb29-3b5b-41e4-a014-7a3b764d1896&thumb,경기도 군포시 한세로56번길 12,37.34722585,126.9548318,
128,아시아출판문화정보센터,경기 파주시,031-955-0050,"['문화시설', '복합문화공간', '수도권', '실내여행지', '아시아출판문화정보센터']",https://cdn.visitkorea.or.kr/img/call?cmd=VIEW&id=f5039f19-bbcc-4cc7-9d5f-3835647b1ca7&thumb,경기도 파주시 회동길 145,37.70848115,126.68679329999999,
129,성포예술광장(성포예술공원),경기 안산시,031-481-5415,"['데이트코스', '문화시설', '서울근교여행', '성포예술공원', '성포예술광장', '수도권']",https://cdn.visitkorea.or.kr/img/call?cmd=VIEW&id=015b49b5-f865-4582-a96b-437d6fff750e&thumb,경기도 안산시 상록구 성포로 6,37.322456,126.84243300000001,
130,한국기독교역사박물관,경기 이천시,031-632-1391,"['교과서속여행', '문화시설', '박물관', '사계절', '수도권', '실내여행지', '아이와함께']",https://cdn.visitkorea.or.kr/img/call?cmd=VIEW&id=eda9418d-bfb3-4e91-a9bb-dadda7dc4fe1&thumb,경기도 이천시 대월면 대평로214번길 10-13,37.22281443,127.4992512,
131,풀짚공예박물관,경기 광주시,031-717-4538,"['공예체험', '공예품', '문화시설', '복합문화공간', '열린문화공간', '예술창작']",https://cdn.visitkorea.or.kr/img/call?cmd=VIEW&id=1f02a570-2b23-4772-8d09-f070cd91c868&thumb,경기도 광주시 오포읍 문형산길 76,37.364197600000004,127.16510770000001,
132,부천수석박물관,경기 부천시,032-655-2900,"['나들이', '문화시설', '박물관', '부천수석박물관', '서울근교여행', '아이와함께']",https://cdn.visitkorea.or.kr/img/call?cmd=VIEW&id=920958f9-4038-4a10-8bd1-d12bfe924446&thumb,경기도 부천시 소사로 482,37.50256527,126.79902539999999,
133,충현박물관,경기 광명시,02-898-0505,"['문화시설', '서울근교여행', '수도권', '충현박물관']",https://cdn.visitkorea.or.kr/img/call?cmd=VIEW&id=b6087114-9dec-42d6-94c9-285b6a23b080&thumb,경기도 광명시 오리로347번길 5-6,37.4339273,126.8777258,
134,석장리미술관,경기 연천군,031-835-2859,"['가족여행', '문화시설', '미술관', '사계절', '석장리미술관', '수도권', '예술', '이색체험']",https://cdn.visitkorea.or.kr/img/call?cmd=VIEW&id=aaca8a26-1235-4bba-9e90-46e6b359362f&thumb,경기도 연천군 백학면 백왕로225번길 240,38.05396568,126.91764180000001,
135,수원 청소년 문화센터,경기 수원시,031-218-0400,"['경기권', '교육공간', '문화복합시설', '문화시설', '수원청소년문화센터']",https://cdn.visitkorea.or.kr/img/call?cmd=VIEW&id=undefined&thumb,경기도 수원시 팔달구 권광로 293,37.27363194,127.0350112,
136,93뮤지엄,경기 파주시,031-948-6677,"['문화시설', '복합문화공간', '사진찍기', '사진찍기좋은곳', '사진촬영', '아이와함께']",https://cdn.visitkorea.or.kr/img/call?cmd=VIEW&id=4de08111-3d6d-4a30-a1db-e48ba160558a&thumb,경기도 파주시 탄현면 헤이리마을길 59-58,37.78979276,126.6963307,
137,추사박물관(과천),경기,02-2150-3650,"['가족체험여행', '교과서속여행', '문화시설', '박물관', '사계절', '수도권', '아이와함께']",https://cdn.visitkorea.or.kr/img/call?cmd=VIEW&id=e5bdbd16-4973-40e6-9b08-1e223da1e90e&thumb,경기도 과천시 추사로 78,37.45300477,127.02872509999999,
138,화성시어린이문화센터,경기 화성시,031-5183-3200,"['문화강좌', '문화생활', '문화시설', '아이와 함께', '어린이', '화성시']",https://cdn.visitkorea.or.kr/img/call?cmd=VIEW&id=da98e48e-e887-41a0-b054-81a7f87ad1c5&thumb,경기도 화성시 봉담읍 동화길 146,37.21233387,126.9608019,
139,파주시립중앙도서관,경기 파주시,031-940-5661,"['도서관', '독서', '독서회', '무장애', '문화시설', '시립', '파주시']",https://cdn.visitkorea.or.kr/img/call?cmd=VIEW&id=57f815f8-ab51-40a4-9dd4-520c36adc113&thumb,경기도 파주시 쇠재로 33,37.75001951,126.77071480000001,
140,평택문화원,경기 평택시,031-655-2002,"['문화시설', '복합문화공간', '아이와 함께', '열린문화공간', '평택문화원']",https://cdn.visitkorea.or.kr/img/call?cmd=VIEW&id=f948587c-2f1f-4dcd-8eec-ffb466a253cd&thumb,경기도 평택시 중앙로 277,36.99113416,127.1140857,
141,수원 영통도서관,경기 수원시,031-228-4758,"['도서관', '문화시설', '수도권', '영통도서관']",https://cdn.visitkorea.or.kr/img/call?cmd=VIEW&id=9849eb9a-1e1b-4561-aab0-d22f8e266d67&thumb,경기도 수원시 영통구 청명로 151,37.25718838,127.07205890000002,
142,열화당책박물관,경기 파주시,031-955-7020,"['가족과함께', '문화공간', '문화시설', '문화행사', '박물관', '복합문화공간', '수도권']",https://cdn.visitkorea.or.kr/img/call?cmd=VIEW&id=df660ef8-977b-4e7f-83e2-6657868d45ad&thumb,경기도 파주시 광인사길 25,37.70896725,126.6846747,
143,통진두레문화센터,경기 김포시,031-983-7225,"['가족여행', '데이트코스', '문화공간', '문화시설', '문화예술활동', '문화행사']",https://cdn.visitkorea.or.kr/img/call?cmd=VIEW&id=f9202e01-6c0b-42f2-a7f3-e3d63f033723&thumb,경기도 김포시 통진읍 김포대로 2347-8,37.69584376,126.58701429999999,
144,노작홍사용문학관,경기 화성시,031-8015-0880,"['교과서속여행', '노작홍사용문학관', '문화시설', '수도권', '아이와함께', '전시관']",https://cdn.visitkorea.or.kr/img/call?cmd=VIEW&id=77e5df75-ea33-41e8-98ca-abee0ddad04f&thumb,경기도 화성시 노작로 206,37.20562051,127.075897,
145,미누현대미술관,경기 성남시,031-754-9696,"['문화공간', '문화시설', '문화예술', '문화예술공간', '문화예술활동', '복합문화공간']",https://cdn.visitkorea.or.kr/img/call?cmd=VIEW&id=37e6c5ac-4863-480d-9b2e-0f27c8cd7ff2&thumb,경기도 성남시 수정구 공원로 360,37.44558105,127.1493753,
146,자유수호평화박물관,경기 동두천시,031-860-3330,"['교과서속여행', '문화시설', '박물관', '아이와함께', '자유수호평화박물관', '전통&역사문화체험']",https://cdn.visitkorea.or.kr/img/call?cmd=VIEW&id=bc6808f5-72a5-45f9-bd23-240b6f092968&thumb,경기도 동두천시 평화로2910번길 96-63,37.94250341,127.0660575,
147,아티누스,경기 파주시,031-948-6225,"['당일치기여행', '독서여행', '독서회', '문화시설', '복합문화공간', '브런치카페']",https://cdn.visitkorea.or.kr/img/call?cmd=VIEW&id=ef5c3226-c6f9-4d5a-8ecd-eb5576f72f20&thumb,경기도 파주시 탄현면 헤이리마을길 59-77,37.79031237,126.6955022,
148,헤이리 커피박물관,경기 파주시,070-4176-1212,"['남녀노소', '데이트', '문화공간', '문화시설', '박물관', '수제커피', '원두커피']",https://cdn.visitkorea.or.kr/img/call?cmd=VIEW&id=b1c61b85-a88c-4a4c-a428-c5fa75f75812&thumb,경기도 파주시 탄현면 헤이리마을길 23,37.78789469,126.69646000000002,
149,죽전야외음악당,경기 용인시,031-896-7595,"['가족여행', '공연장', '데이트코스', '문화공간', '문화시설', '문화행사', '복합문화공간']",https://cdn.visitkorea.or.kr/img/call?cmd=VIEW&id=567eaab2-f8de-4379-b4cc-317263ec7303&thumb,경기도 용인시 수지구 죽전로168번길 9,37.32544816,127.12647390000001,
150,안산문화예술의전당,경기 안산시,080-481-4000,"['가족여행', '문화시설', '박물관', '서울근교여행', '실내여행지', '아이와함께']",https://cdn.visitkorea.or.kr/img/call?cmd=VIEW&id=69d9062d-93d5-4423-ae76-b3326ebd96db&thumb,경기도 안산시 단원구 화랑로 312,37.31842711,126.82310729999999,
151,세종대왕 역사문화관,경기 여주시,031-885-3123,"['가족과함께', '문화시설', '세종대왕릉', '세종대왕역사문화관', '아이와함께']",https://cdn.visitkorea.or.kr/img/call?cmd=VIEW&id=0dfbe38d-d060-41c2-aac9-c5c8a3264a92&thumb,경기도 여주시 능서면 영릉로 269-10,37.30493307,127.6113328,
152,고양시립 주엽어린이도서관,경기 고양시,031-8075-9170,"['고양시립주엽어린이도서관', '도서관', '문화시설', '사계절', '수도권', '아이와함께']",https://cdn.visitkorea.or.kr/img/call?cmd=VIEW&id=f94470fa-35ed-4e25-9889-ef37ab20bdeb&thumb,경기도 고양시 일산서구 주엽로 104,37.66846313,126.75650459999999,
153,옛생활 체험박물관 타임캡슐,경기 파주시,031-949-9408,"['남녀노소', '문화시설', '역사를품은곳', '역사속', '역사속으로', '역사여행', '역사이야기']",https://cdn.visitkorea.or.kr/img/call?cmd=VIEW&id=e2650117-b186-4253-8e38-3d4509c9eaba&thumb,경기도 파주시 탄현면 헤이리마을길 59-63,37.79024205,126.69583429999999,
154,양주문화원,경기 양주시,031-836-6467,"['경기도', '광적면', '문화발전', '문화시설', '문화원', '양주시', '지역문화']",https://cdn.visitkorea.or.kr/img/call?cmd=VIEW&id=e13be6c3-4be5-4f51-b111-b2680465e046&thumb,경기도 양주시 광적면 삼일로29번길 20,37.82221958,126.98686640000001,
155,의정부예술의전당,경기 의정부시,031-828-5841,"['가족여행', '문화시설', '아이와함께', '연인과함께', '예술', '음악회', '의정부예술의전당']",https://cdn.visitkorea.or.kr/img/call?cmd=VIEW&id=95beb4d8-a827-4bd8-ba2e-a3bf68845d57&thumb,경기도 의정부시 의정로 1,37.7333846,127.0341291,
156,부천활박물관,경기 부천시,032-614-2678,"['가족여행', '가족체험여행', '경상권', '교과서속여행', '문화시설', '부천활박물관']",https://cdn.visitkorea.or.kr/img/call?cmd=VIEW&id=a3550b1b-23fc-4392-8728-2f6143e0a2f1&thumb,경기도 부천시 소사로 482,37.50256527,126.79902539999999,
157,고양 어울림누리,경기 고양시,1577-7766,"['고양어울림누리', '문화시설', '서울근교여행', '아이와함께', '체험학습']",https://cdn.visitkorea.or.kr/img/call?cmd=VIEW&id=90f3ab41-7da7-40ea-bc35-10f2e5a29c0e&thumb,경기도 고양시 덕양구 어울림로 33,37.64905648,126.83536799999999,
158,수원시민회관,경기 수원시,031-244-2161,"['공연장', '데이트코스', '문화시설', '수도권', '수원시민회관', '아이와함께', '연인과함께']",https://cdn.visitkorea.or.kr/img/call?cmd=VIEW&id=57784769-2215-4a64-aff0-7348be3e3cfd&thumb,경기도 수원시 팔달구 팔달산로 28,37.27359693,127.0113034,
159,파주문화원,경기 파주시,031-941-2425,"['문화시설', '복합문화공간', '열린문화공간', '파주문화원', '파주시']",https://cdn.visitkorea.or.kr/img/call?cmd=VIEW&id=37069980-4c7c-4458-8106-ab1461a66e72&thumb,경기도 파주시 와석순환로 415,37.72402922,126.7513065,
160,김포문화원,경기 김포시,031-982-1110,"['경기권', '교육프로그램', '김포문화원', '문화시설']",https://cdn.visitkorea.or.kr/img/call?cmd=VIEW&id=fe0f63b4-adac-4931-8b2a-314f4f0a11af&thumb,경기도 김포시 모담공원로 170-1,37.64510127,126.69468559999999,
161,헌책방 보물섬,경기 파주시,031-955-0077,"['독서여행', '독서회', '문화공간', '문화시설', '복합문화공간', '아이와함께', '열린문화공간']",https://cdn.visitkorea.or.kr/img/call?cmd=VIEW&id=6721ae8e-d1e5-4ecb-a7fe-43e638bddf1c&thumb,경기도 파주시 회동길 145,37.70848115,126.68679329999999,
162,부천아트벙커B39,경기 부천시,070-4238-2433,"['남녀노소', '문화공간', '문화시설', '문화예술공간', '문화예술활동', '복합문화공간']",https://cdn.visitkorea.or.kr/img/call?cmd=VIEW&id=06ef2cba-8fa6-45b1-a0e9-6748ea43ece1&thumb,경기도 부천시 삼작로 53,37.52189975,126.76766090000002,
163,출판도시 활판인쇄박물관,경기 파주시,031-955-7955,"['문화시설', '박물관', '서울근교여행', '수도권', '아이와함께', '이색체험', '주말추천여행지']",https://cdn.visitkorea.or.kr/img/call?cmd=VIEW&id=6acd5c5c-124b-4022-affc-7697d8028db4&thumb,경기도 파주시 회동길 145,37.70848115,126.68679329999999,
164,동두천문화원,경기 동두천시,031-865-2923,"['동두천문화원', '문화시설', '복합문화공간', '아이와 함께', '열린문화공간']",https://cdn.visitkorea.or.kr/img/call?cmd=VIEW&id=890122e1-785c-4dca-949e-cc6c0746e004&thumb,경기도 동두천시 어수로 4,37.90526295,127.04306319999999,
165,지영희국악관,경기 평택시,031-8024-8689,"['기념관', '문화시설', '문화예술', '문화예술공간', '복합문화공간', '수도권', '열린문화공간']",https://cdn.visitkorea.or.kr/img/call?cmd=VIEW&id=61e8058a-b8f8-40bc-9df1-3621c942f927&thumb,경기도 평택시 현덕면 평택호길 147,36.92120927,126.92085829999999,
166,한향림옹기박물관,경기 파주시,070-4161-7271,"['당일치기여행', '문화시설', '박물관', '서울근교여행', '수도권', '아이와함께']",https://cdn.visitkorea.or.kr/img/call?cmd=VIEW&id=d10bbd84-5868-4b99-91cd-2e8da084cc04&thumb,경기도 파주시 탄현면 헤이리마을길 96-43,37.78995433,126.7009185,
167,구삼뮤지엄,경기 파주시,031-948-6677,"['구삼뮤지엄', '당일치기여행', '데이트코스', '문화시설', '박물관', '서울근교여행']",https://cdn.visitkorea.or.kr/img/call?cmd=VIEW&id=045c1d77-c9dd-4b51-838f-79b0b16b231a&thumb,경기도 파주시 탄현면 헤이리마을길 59-58,37.78979276,126.6963307,
168,슬기샘어린이도서관,경기 수원시,031-242-6633,"['경기권', '문화시설', '수원어린이도서관', '슬기샘어린이도서관', '아이와함께']",https://cdn.visitkorea.or.kr/img/call?cmd=VIEW&id=02d3b1e2-8903-4b58-b1ee-e93dc73ae991&thumb,경기도 수원시 장안구 송정로 9,37.29757718,126.9991131,
169,수원문화원,경기 수원시,031-244-2161,"['경기권', '교육프로그램', '문화시설', '수원문화원']",https://cdn.visitkorea.or.kr/img/call?cmd=VIEW&id=2c0a1bde-9dca-49ae-8f10-656b19d8fd1b&thumb,경기도 수원시 팔달구 팔달산로 28,37.27359693,127.0113034,
170,하남문화예술회관,경기 하남시,031-790-7979,"['문화공간', '문화시설', '문화예술', '문화예술공간', '문화예술활동', '복합문화공간']",https://cdn.visitkorea.or.kr/img/call?cmd=VIEW&id=e6f8d7e4-d718-40ca-87aa-219ba970772e&thumb,경기도 하남시 신평로 125,37.54475416,127.2068381,
171,나폴레옹갤러리,경기 성남시,031-606-8525,"['나폴레옹갤러리', '남녀노소', '문화공간', '문화시설', '박물관', '복합문화공간']",https://cdn.visitkorea.or.kr/img/call?cmd=VIEW&id=9bef50aa-e113-490e-804f-126db77ac1ce&thumb,경기도 성남시 분당구 대왕판교로645번길 36,37.40037937,127.1020872,
172,수원야외음악당,경기 수원시,031-238-5740,"['공연장', '데이트코스', '문화시설', '수도권', '수원야외음악당', '아이와함께']",https://cdn.visitkorea.or.kr/img/call?cmd=VIEW&id=9ce50cc4-6c5f-4c9c-bf36-c028cb6e5307&thumb,경기도 수원시 팔달구 동수원로 335,37.25939225,127.0364507,
173,시흥오이도박물관,경기 시흥시,031-310-3052,"['경기권', '문화시설', '아이와함께', '역사체험', '오이도']",https://cdn.visitkorea.or.kr/img/call?cmd=VIEW&id=d92630ee-ed99-4765-bd28-a086685fc386&thumb,경기도 시흥시 오이도로 332,37.33518527,126.6912532,
174,가평문화원,경기 가평군,031-582-2016,"['가평문화원', '문화시설', '복합문화공간', '열린문화공간']",https://cdn.visitkorea.or.kr/img/call?cmd=VIEW&id=21bfd19e-6fc9-401a-ba0a-814f991938ee&thumb,경기도 가평군 가평읍 문화로 131,37.82542273,127.5069577,
175,명지산생태전시관,경기 가평군,031-582-7426,"['겨울방학가볼만한곳', '당일치기여행', '명지산', '명지산생태전시관', '문화시설']",https://cdn.visitkorea.or.kr/img/call?cmd=VIEW&id=02eec73d-b242-4146-bdb4-4d51fe10d3a7&thumb,경기도 가평군 북면 도대리,37.94584493,127.4727019,
176,고양시문예회관,경기 고양시,031-965-2957,"['고양시문예회관', '데이트코스', '문화시설', '서울근교여행', '수도권', '실내여행지']",https://cdn.visitkorea.or.kr/img/call?cmd=VIEW&id=ddd62f95-1bfa-4ccb-9748-8ddd7cb45618&thumb,경기도 고양시 덕양구 고양시청로 10,37.65841333,126.8319601,
177,한얼테마과학·박물관,경기 여주시,031-881-6316,"['경기권', '문화시설', '서울근교여행', '한얼테마과학·박물관']",https://cdn.visitkorea.or.kr/img/call?cmd=VIEW&id=undefined&thumb,경기도 여주시 대신면 대신1로 298,37.398655100000006,127.6092426,
178,화성문화원,경기 화성시,031-353-6330,"['문화강좌', '문화시설', '열린문화공간', '화성문화원']",https://cdn.visitkorea.or.kr/img/call?cmd=VIEW&id=0330e31e-1cdf-4b44-b85f-fb9601d8005b&thumb,경기도 화성시 향남읍 발안로 89,37.13243865,126.92033880000001,
179,선바위미술관,경기,02-507-8588,"['가족여행', '문화시설', '미술관', '사계절', '선바위미술관', '수도권', '예술', '이색체험']",https://cdn.visitkorea.or.kr/img/call?cmd=VIEW&id=4b4d9f4e-790d-4343-89b8-20b1f25ae88c&thumb,경기도 과천시 무네미길 34,37.45177261,126.9993028,
180,동두천꿈나무정보도서관,경기 동두천시,031-860-3281,"['독서여행', '동두천꿈나무정보도서관', '문화공간', '문화시설', '복합문화공간']",https://cdn.visitkorea.or.kr/img/call?cmd=VIEW&id=61cd3804-359a-4147-8e10-03380ecf59cb&thumb,경기도 동두천시 지행로 38,37.89214878,127.0513977,
181,지혜의 숲,경기 파주시,031-955-0050,"['남녀노소', '도서관', '독서여행', '독서회', '문화시설', '미세먼지_피하는_실내여행']",https://cdn.visitkorea.or.kr/img/call?cmd=VIEW&id=b00fb361-e524-4222-ad0d-64bc06c98379&thumb,경기도 파주시 회동길 145,37.70848115,126.68679329999999,
182,롯데갤러리(일산),경기 고양시,031-909-2688,"['당일치기여행', '데이트코스', '롯데갤러리', '문화시설', '서울근교여행', '연인과함께']",https://cdn.visitkorea.or.kr/img/call?cmd=VIEW&id=e20fa116-2714-44bb-9ebb-9bd69d034ec2&thumb,경기도 고양시 일산동구 중앙로 1283,37.66047176,126.7721263,
183,수원 중앙도서관,경기 수원시,031-228-4788,"['경기권', '문화시설', '수원시', '수원중앙도서관']",https://cdn.visitkorea.or.kr/img/call?cmd=VIEW&id=47ed03bd-e3ec-4493-8155-33e79790c140&thumb,경기도 수원시 팔달구 팔달산로 318,37.27358027,127.01213249999999,
184,구리문화원,경기 구리시,031-557-6383,"['구리문화원', '문화시설', '복합문화공간', '아이와 함께', '열린문화공간']",https://cdn.visitkorea.or.kr/img/call?cmd=VIEW&id=6ab64194-4ea9-4264-a37a-7d2689f33340&thumb,경기도 구리시 동구릉로 217-14,37.6184001,127.13847779999999,
185,용인문화원,경기 용인시,031-324-9600,"['문화시설', '문화예술', '용산문화원', '친구와 함께']",https://cdn.visitkorea.or.kr/img/call?cmd=VIEW&id=af798c55-da19-4e75-a220-1fc269ee96cc&thumb,경기도 용인시 처인구 중부대로 1199,37.24086733,127.17796840000001,
186,성남시 야외공연장,경기 성남시,031-711-7762,"['가족여행', '데이트코스', '문화시설', '사계절', '서울근교여행', '성남시야외공연장']",https://cdn.visitkorea.or.kr/img/call?cmd=VIEW&id=ae14b2eb-5d9b-4c7b-843f-4a2ad6eef456&thumb,경기도 성남시 분당구 성남대로 550,37.38030766,127.1211787,
187,문화예술원 마루홀,경기 용인시,031-323-6342,"['가족여행', '데이트코스', '문화공간', '문화시설', '문화예술원마루홀', '문화행사']",https://cdn.visitkorea.or.kr/img/call?cmd=VIEW&id=1fe7fcd4-bbd1-45b8-99a7-2c38f965b00e&thumb,경기도 용인시 처인구 중부대로 1199,37.24086733,127.17796840000001,
188,서호미술관,경기 남양주시,031-592-1864,"['경기도', '남양주시', '문화시설', '미술관', '실내여행지', '친구와함께', '화도읍']",https://cdn.visitkorea.or.kr/img/call?cmd=VIEW&id=05f00505-c774-43ae-ab97-7d41a5ddac7b&thumb,경기도 남양주시 화도읍 북한강로 1344,37.63270861,127.3515098,
189,아주대학교박물관,경기 수원시,031-219-2907,"['교과서속여행', '문화시설', '박물관', '수도권', '실내여행지', '아이와함께', '아주대학교박물관']",https://cdn.visitkorea.or.kr/img/call?cmd=VIEW&id=0d4ba3c0-b195-4fa9-91e9-e3ba02e425a8&thumb,경기도 수원시 영통구 월드컵로 206,37.28305638,127.04366,
190,명지대학교 박물관,경기 용인시,031-330-6074,"['교과서속여행', '명지대학교박물관', '문화시설', '박물관', '수도권', '실내여행지']",https://cdn.visitkorea.or.kr/img/call?cmd=VIEW&id=bae5a6aa-d282-4bc3-a96f-0836b0583ba7&thumb,경기도 용인시 처인구 명지로 116,37.22180726,127.1901837,
191,마가미술관,경기 용인시,031-334-0365,"['가족여행', '기념품판매', '마가미술관', '문화시설', '미술관', '복합문화공간']",https://cdn.visitkorea.or.kr/img/call?cmd=VIEW&id=1e720be8-6c9b-4d68-a71c-d237b2d767fe&thumb,경기도 용인시 처인구 모현면 문형동림로101번길 37,37.33175232,127.19278770000001,
192,서수원도서관,경기 수원시,031-228-4747,"['도서관', '문화시설', '사계절', '서수원도서관', '수도권', '체험학습', '친구와함께']",https://cdn.visitkorea.or.kr/img/call?cmd=VIEW&id=b11abd13-4696-4656-86ba-379d0fdc75de&thumb,경기도 수원시 권선구 탑동로57번길 35,37.27311888,126.9720678,
193,안성시립도서관,경기 안성시,031-676-7941,"['남녀노소', '독서공간', '문화시설', '안성시립도서관', '힐링']",https://cdn.visitkorea.or.kr/img/call?cmd=VIEW&id=ffaf745d-bd8d-43de-95d7-b62079948044&thumb,경기도 안성시 안성맞춤대로 1150,37.01524123,127.26853909999998,
194,경기성남교육도서관,경기 성남시,031-730-3500,"['경기도', '독서', '문화시설', '아이와함게']",https://cdn.visitkorea.or.kr/img/call?cmd=VIEW&id=c054aa0e-c9c6-43c9-9259-1cf890a82a19&thumb,경기도 성남시 수정구 공원로370번길 26,37.44663712,127.15009740000002,
195,분원백자자료관,경기 광주시,031-766-8465,"['가족여행', '교과서속여행', '문화시설', '분원백자자료관', '서울근교여행', '아이와함께']",https://cdn.visitkorea.or.kr/img/call?cmd=VIEW&id=fcd92ee3-f6a8-49ba-a6ef-5fbdc8125dba&thumb,경기도 광주시 남종면 산수로 1642-1,37.49625742,127.30344879999998,
196,수원 선경도서관,경기 수원시,031-228-4728,"['경기권', '문화시설', '수원선경도서관', '수원시', '아이와함께']",https://cdn.visitkorea.or.kr/img/call?cmd=VIEW&id=b45d33b4-157c-48cf-879e-3a3dd590a2ce&thumb,경기도 수원시 팔달구 신풍로23번길 68,37.28386229,127.0104322,
197,양주시문화예술회관,경기 양주시,031-828-9738,"['데이트코스', '문화시설', '수도권', '아이와함께', '양주시문화예술회관', '연인과함께']",https://cdn.visitkorea.or.kr/img/call?cmd=VIEW&id=b9d6a4ab-502d-4fd5-bfa8-b4cb2b4315c4&thumb,경기도 양주시 광적면 부흥로618번길 303,37.81249969,126.97230719999999,
198,부천시립꿈빛도서관,경기 부천시,032-625-4622,"['문화공간', '문화시설', '부천시', '부천시립꿈빛도서관']",https://cdn.visitkorea.or.kr/img/call?cmd=VIEW&id=54222b65-5833-4f11-9d2e-673fce7bc8de&thumb,경기도 부천시 신흥로275번길 19,37.50811617,126.7737125,
199,고양문화원,경기 고양시,031-963-0600,"['고양문화원', '교육프로그램', '문화시설']",https://cdn.visitkorea.or.kr/img/call?cmd=VIEW&id=b494e65e-8587-4475-8a1d-0e0464f9f0f7&thumb,경기도 고양시 일산서구 한류월드로 280,37.66501092,126.7562768,
200,유럽자기박물관,경기 부천시,032-661-0238,"['나들이', '문화시설', '박물관', '서울근교여행', '아이와함께', '유럽자기박물관']",https://cdn.visitkorea.or.kr/img/call?cmd=VIEW&id=45e35853-c7cf-49d3-b91c-155f3858cf5f&thumb,경기도 부천시 소사로 482,37.50256527,126.79902539999999,
201,이천문화원,경기 이천시,031-635-2316,"['문화시설', '문화원', '수도권', '이천문화원']",https://cdn.visitkorea.or.kr/img/call?cmd=VIEW&id=8b395553-0b51-4490-b6f1-939f800e88e9&thumb,경기도 이천시 영창로163번길 19,37.28264392,127.44056210000001,
202,국립여성사전시관,경기 고양시,031-819-2288,"['국립여성사전시관', '문화시설', '박물관', '사계절', '수도권', '실내여행지', '아이와함께']",https://cdn.visitkorea.or.kr/img/call?cmd=VIEW&id=89e192c4-a54f-4884-8feb-74369198c5b3&thumb,경기도 고양시 덕양구 화중로104번길 50,37.63581557,126.8340355,
203,평택서부문화예술회관,경기 평택시,031-8024-8321,"['공연장', '데이트코스', '문화시설', '서울근교여행', '수도권', '아이와함께', '연인과함께']",https://cdn.visitkorea.or.kr/img/call?cmd=VIEW&id=6df90ae2-7ae0-42c3-b6c2-edd141031673&thumb,경기도 평택시 안중읍 서동대로 1531,36.99013660000001,126.92015239999999,
204,두루뫼박물관,경기 파주시,031-958-6101,"['가족과함께', '문화공간', '문화시설', '박물관', '수집품', '아이와함께', '전통&역사']",https://cdn.visitkorea.or.kr/img/call?cmd=VIEW&id=723e2e19-1ebf-44d4-b28d-abc0c5b044c2&thumb,경기도 파주시 법원읍 초리골길 278,37.85680242,126.89604240000001,
205,한국카메라박물관,경기,02-502-4123,"['교과서속여행', '기념품판매', '문화시설', '박물관', '수도권', '아이와함께', '이색체험']",https://cdn.visitkorea.or.kr/img/call?cmd=VIEW&id=656eed08-ca74-44c1-98bd-5db78bc3db00&thumb,경기도 과천시 대공원광장로 8,37.43505342,127.00566699999999,
206,부천시립북부도서관,경기 부천시,032-625-4605,"['독서공간', '문화시설', '부천시립북부도서관', '아이와 함께', '친구와 함께']",https://cdn.visitkorea.or.kr/img/call?cmd=VIEW&id=a9b71b1a-fd2e-4232-926c-e187ba373619&thumb,경기도 부천시 삼작로301번길 5,37.52080153,126.79413559999999,
207,안성문화원,경기 안성시,031-673-2625,"['문화시설', '수도권', '아이와 함께', '안성문화원', '열린문화공간']",https://cdn.visitkorea.or.kr/img/call?cmd=VIEW&id=2cbde79e-6424-4c6e-9123-1e1f1a2fb921&thumb,경기도 안성시 보개면 종합운동장로 203,37.01471054,127.3236038,
208,농경유물전시관,경기 파주시,031-940-4801,"['교과서속여행', '농경유물전시관', '문화시설', '박물관', '사계절', '수도권', '실내여행지']",https://cdn.visitkorea.or.kr/img/call?cmd=VIEW&id=9bf3acca-29b4-4670-a9f8-7505760a21ea&thumb,경기도 파주시 통일로 600,37.7639808,126.7955513,
209,부천시민회관,경기 부천시,032-320-6481,"['데이트코스', '문화시설', '복합문화공간', '부천시민회관', '서울근교여행', '수도권']",https://cdn.visitkorea.or.kr/img/call?cmd=VIEW&id=771dd882-1fce-4149-a549-e9500f5a7dc7&thumb,경기도 부천시 부일로 365,37.48863335,126.7706577,
210,한국민속촌 옹기전시관,경기 용인시,031-274-3335,"['가족여행', '문화시설', '박물관', '서울근교여행', '실내여행지', '아이와함께']",https://cdn.visitkorea.or.kr/img/call?cmd=VIEW&id=2b1c8996-d14d-4446-aa8d-ffe755b35aba&thumb,경기도 용인시 기흥구 민속촌로 90,37.25913189,127.12254309999999,
211,마나스아트센터,경기 양평군,031-774-5121,"['남녀노소', '문화시설', '문화예술', '미술작품', '복합문화공간', '아트센터', '양평가볼만한곳']",https://cdn.visitkorea.or.kr/img/call?cmd=VIEW&id=418cb3ac-887c-4425-8239-ef152cfe9eaa&thumb,경기도 양평군 강상면 강남로 743,37.49371323,127.4609476,
212,남양주문화원,경기 남양주시,031-592-0667,"['경기도', '남양주시', '다산문화제', '무장애', '문화시설', '문화원', '지역문화']",https://cdn.visitkorea.or.kr/img/call?cmd=VIEW&id=0198b835-77a8-4a7d-adf8-3c978bf74f62&thumb,경기도 남양주시 경춘로 883-36,37.6329877,127.1983732,
213,경기대학교박물관,경기 수원시,031-249-9114,"['경기대학교박물관', '교과서속여행', '문화시설', '박물관', '수도권', '실내여행지']",https://cdn.visitkorea.or.kr/img/call?cmd=VIEW&id=30fa0b17-c5b1-444f-808c-10a6e793bc63&thumb,경기도 수원시 영통구 광교산로 154-42,37.29801369,127.03311670000001,
214,이영미술관,경기 용인시,031-213-8223,"['문화시설', '실내데이트', '연인과 함께', '이영미술관', '전시관']",https://cdn.visitkorea.or.kr/img/call?cmd=VIEW&id=7732cb30-3dad-4dca-9d21-bfaf1bbd777c&thumb,경기도 용인시 기흥구 흥덕4로 63,37.27730628,127.0901115,
215,여주문화원,경기 여주시,031-883-3450,"['문화시설', '복합문화공간', '여주문화원', '열린문화공간', '친구와 함께']",https://cdn.visitkorea.or.kr/img/call?cmd=VIEW&id=ed5066d5-dc92-4f01-be75-494c76123357&thumb,경기도 여주시 신륵사길 6-6,37.30018482,127.65235109999999,
216,해움미술관,경기 수원시,031-252-9194,"['문화시설', '문화예술', '문화예술활동', '미술관', '미술작품', '미술품', '복합문화공간']",https://cdn.visitkorea.or.kr/img/call?cmd=VIEW&id=d7113c55-1a80-447a-baf1-1705f4010199&thumb,경기도 수원시 팔달구 매산로 133,37.2722582,127.01499640000002,
217,가일미술관,경기 가평군,031-584-4722,"['가일미술관', '가족여행', '문화시설', '미술관', '서울근교여행', '실내여행지']",https://cdn.visitkorea.or.kr/img/call?cmd=VIEW&id=94f68f04-80c1-4b7d-a362-f6284c03bcfd&thumb,경기도 가평군 청평면 북한강로 1549,37.66041649,127.37943440000001,
218,안양문화원,경기 안양시,031-449-4451,"['교육프로그램', '문화시설', '안양문화원']",https://cdn.visitkorea.or.kr/img/call?cmd=VIEW&id=0bd51887-0a1b-4e03-baa1-44ddd22ac5a4&thumb,경기도 안양시 만안구 현충로 53,37.39042433,126.9258251,
219,의왕문화원,경기 의왕시,031-456-4994,"['문화시설', '복합문화공간', '열린문화공간', '의왕문화원']",https://cdn.visitkorea.or.kr/img/call?cmd=VIEW&id=da1a21f0-a988-4cbe-927c-2630ff4ab493&thumb,경기도 의왕시 백운로 23,37.35216142,126.98229429999999,
220,성남시 중원도서관,경기 성남시,031-752-3913,"['공공시설', '문화시설', '수도권', '중원도서관']",https://cdn.visitkorea.or.kr/img/call?cmd=VIEW&id=bb71a7cf-bc05-403e-9095-983725f0d4da&thumb,경기도 성남시 중원구 원터로17번길 46,37.43022949,127.1401659,
221,중앙대학교박물관,경기 안성시,031-670-3446,"['문화시설', '박물관', '수도권', '실내여행지', '아이와함께', '예술', '전시관', '전통&역사문화체험']",https://cdn.visitkorea.or.kr/img/call?cmd=VIEW&id=880fb62b-9354-4113-8019-41acb3f59dd5&thumb,경기도 안성시 대덕면 서동대로 4726,37.0004292,127.22870870000001,
222,단원미술관,경기 안산시,031-481-0505,"['문화공간', '문화시설', '문화예술공간', '미술관', '복합문화공간', '아이와함께']",https://cdn.visitkorea.or.kr/img/call?cmd=VIEW&id=a8d64eec-4bc1-4cda-852d-642698991acf&thumb,경기도 안산시 상록구 충장로 422,37.31617783,126.85153290000001,
223,성남시 분당도서관,경기 성남시,031-729-4800,"['공공시설', '문화시설', '분당도서관', '수도권']",https://cdn.visitkorea.or.kr/img/call?cmd=VIEW&id=3bd1dfaf-928c-4ca4-b0d4-161579d3adb4&thumb,경기도 성남시 중원구 원터로17번길 46,37.35810416,127.1165804,
224,단국대학교 석주선기념박물관,경기 용인시,031-8005-2389,"['단국대학교석주선기념박물관', '무료관람', '문화시설', '박물관', '수도권', '실내여행지']",https://cdn.visitkorea.or.kr/img/call?cmd=VIEW&id=4c60915f-4f6f-4eea-b8b2-e61f5734f01a&thumb,경기도 용인시 수지구 죽전로 152,37.32119387,127.13253590000002,
225,영집 궁시박물관,경기 파주시,031-944-6800,"['경기도', '국가무형문화재', '문화시설', '영집궁시박물관', '파주시', '활·화살박물관']",https://cdn.visitkorea.or.kr/img/call?cmd=VIEW&id=29db3d26-a53f-4701-875d-b1504604cb88&thumb,경기도 파주시 탄현면 국원말길 168,37.78492907,126.71136659999999,
226,부천교육박물관,경기 부천시,032-661-1282,"['나들이', '문화시설', '박물관', '부천교육박물관', '서울근교여행', '아이와함께']",https://cdn.visitkorea.or.kr/img/call?cmd=VIEW&id=e7fd7117-ae5b-4034-9146-3064508add3a&thumb,경기도 부천시 소사로 482,37.50256527,126.79902539999999,
227,김내현화랑,경기 고양시,031-963-3262,"['경기도', '고양시', '덕양구', '문화시설', '미술', '작품', '판화']",https://cdn.visitkorea.or.kr/img/call?cmd=VIEW&id=c713e702-3ecb-470f-8410-43ea2f8bb679&thumb,경기도 고양시 덕양구 내유길 265,37.72752065,126.8662136,
228,군포시문화예술회관,경기 군포시,031-390-3500,"['문화공간', '문화시설', '문화예술공간', '문화예술활동', '문화예술회관', '복합문화공간']",https://cdn.visitkorea.or.kr/img/call?cmd=VIEW&id=undefined&thumb,경기도 군포시 고산로 599,37.36577234,126.9274827,
229,성남시 중앙도서관,경기 성남시,031-729-4500,"['남녀노소', '독서', '문화공간', '문화시설', '성남시', '중앙도서관']",https://cdn.visitkorea.or.kr/img/call?cmd=VIEW&id=09754357-116c-423f-b23e-8f90335a6423&thumb,경기도 성남시 분당구 판교로 546,37.4039669,127.134723,
230,세계민속악기박물관,경기 파주시,031-946-9838,"['문화시설', '세계문화', '세계민속악기박물관', '안보관광', '이색체험']",https://cdn.visitkorea.or.kr/img/call?cmd=VIEW&id=fb234ca5-e36b-4f66-8c8b-f1919a7b90b6&thumb,경기도 파주시 탄현면 헤이리마을길 63-26,37.78950759,126.6993783,
231,명성황후 기념관,경기 여주시,031-881-9731,"['가족여행', '교과서속여행', '기념관', '명성황후기념관', '문화시설', '아이와함께']",https://cdn.visitkorea.or.kr/img/call?cmd=VIEW&id=2e162f3f-edd9-4345-81f0-90e5556ff970&thumb,경기도 여주시 명성로 71,37.25967518,127.6554281,
232,갤러리 와,경기 양평군,031-771-5454,"['문화시설', '문화예술', '문화예술공간', '문화예술활동', '미술작품', '복합문화공간']",https://cdn.visitkorea.or.kr/img/call?cmd=VIEW&id=4c255719-6c5f-4046-8023-24a216a42d98&thumb,경기도 양평군 강하면 전수샛골2길 3,37.50546301,127.43376869999999,
233,과천문화원,경기,02-504-6513,"['과천', '문화강좌', '문화시설', '친구와함께']",https://cdn.visitkorea.or.kr/img/call?cmd=VIEW&id=d4655c0c-0121-4556-8cee-9188181d5535&thumb,경기도 과천시 문원로 40-1,37.42834358,127.00179440000001,
234,성남시 수정도서관,경기 성남시,031-743-9600,"['독서', '문화시설', '성남시', '아이와함게']",https://cdn.visitkorea.or.kr/img/call?cmd=VIEW&id=c3d8e4f3-6813-4b97-ab73-38539c69afbe&thumb,경기도 성남시 수정구 수정로332번길 32,37.45223879,127.15284950000002,
235,다도박물관,경기 김포시,031-998-1000,"['공연', '문화시설', '문화행사', '복합문화시설', '전시/공연', '조각공원', '차문화']",https://cdn.visitkorea.or.kr/img/call?cmd=VIEW&id=619f7530-41ac-4cc8-b596-25603f167642&thumb,경기도 김포시 월곶면 애기봉로275번길 187-49,37.73752595,126.57443590000001,
236,포천아트밸리 천문과학관,경기 포천시,031538-3488,"['가족과함께', '문화시설', '아이와함께', '천문관', '포천아트밸리', '포천아트밸리천문과학관']",https://cdn.visitkorea.or.kr/img/call?cmd=VIEW&id=2142e029-7fd3-434a-9837-ecfe8d7cedca&thumb,경기도 포천시 신북면 아트밸리로 234,37.92344665,127.23650090000001,
237,양평문화원,경기 양평군,031-771-3866,"['문화강좌', '문화시설', '복합문화공간', '양평문화원', '열린문화공간']",https://cdn.visitkorea.or.kr/img/call?cmd=VIEW&id=e51bcb49-bfd5-4f3b-b9fe-b97a033da10c&thumb,경기도 양평군 양평읍 마유산로 5,37.49748641,127.4860423,
238,탄탄스토리하우스,경기 파주시,031-955-7660,"['남녀노소', '문화공간', '문화시설', '문화예술', '문화예술공간', '복합문화공간']",https://cdn.visitkorea.or.kr/img/call?cmd=VIEW&id=d9c6181d-6613-4581-81c7-ee58146303c1&thumb,경기도 파주시 회동길 130,37.70803622,126.68790179999999,
239,연천문화원,경기 연천군,031-834-2350,"['문화시설', '복합문화공간', '연천문화원', '열린문화공간', '친구와 함께']",https://cdn.visitkorea.or.kr/img/call?cmd=VIEW&id=6657980f-65ed-4023-ae22-a0d5c54d6b82&thumb,경기도 연천군 연천읍 문화로 143,38.10631864,127.07860990000002,
240,행복한 마음(김영사 북아울렛),경기 파주시,031-955-3100,"['김영사북아울렛', '독서여행', '문화시설', '서울근교여행', '수도권', '아이와함께']",https://cdn.visitkorea.or.kr/img/call?cmd=VIEW&id=f4a97023-7047-4e6d-bc73-cc5b433c35ff&thumb,경기도 파주시 문발로 197,37.71208653,126.6863742,
241,경기중앙교육도서관,경기 수원시,031-240-4064,"['경기권', '경기중앙교육도서관', '교육도서관', '문화시설', '아이와함께']",https://cdn.visitkorea.or.kr/img/call?cmd=VIEW&id=0c4a2590-e4c6-4236-9071-2f5ad8a731c2&thumb,경기도 수원시 장안구 조원로 18,37.29854134,127.02236459999999,
242,이경순 소리박물관,경기 안성시,031-670-6538,"['교과서속여행', '문화시설', '박물관', '사계절', '수도권', '실내여행지', '아이와함께']",https://cdn.visitkorea.or.kr/img/call?cmd=VIEW&id=4226a918-fb6a-4936-9b57-a62da8f9a6c2&thumb,경기도 안성시 삼죽면 동아예대길 47,37.06236123,127.3532946,
243,한국학중앙연구원 한국학학술정보관.장서각,경기 성남시,031-709-8111,"['도서관', '문화시설', '문화재자료', '수도권', '아이와함께', '역사공부', '역사를품은곳']",https://cdn.visitkorea.or.kr/img/call?cmd=VIEW&id=87273821-e54d-4c46-894a-74513a0c37d5&thumb,경기도 성남시 분당구 하오개로 323,37.39193525,127.0552655,
244,갤러리 서종,경기 양평군,031-774-5530,"['갤러리', '갤러리서종', '문화공간', '문화시설', '문화예술', '복합문화공간', '복합문화공간']",https://cdn.visitkorea.or.kr/img/call?cmd=VIEW&id=d454385d-fe93-46c9-8083-dcf7b4f2e3ab&thumb,경기도 양평군 서종면 중미산로 47,37.60404511,127.3572608,
245,드림갤러리,경기 성남시,02-720-4988,"['문화공간', '문화시설', '복합문화공간', '소통쉼터', '열린문화공간', '전시', '휴식공간']",https://cdn.visitkorea.or.kr/img/call?cmd=VIEW&id=cbeefd27-1f65-4a07-8f16-6705807bae9d&thumb,경기도 성남시 분당구 서현로439번길 11,37.37482007,127.1456875,
246,코오롱 스페이스K,경기,02-3677-3119,"['기획전시', '문화공간', '문화시설', '문화예술', '복합문화공간', '연인과함께']",https://cdn.visitkorea.or.kr/img/call?cmd=VIEW&id=6a302c2b-c51f-4fad-bacf-950475380b03&thumb,경기도 과천시 코오롱로 11,37.42557529,126.9905146,
247,바른샘어린이도서관,경기 수원시,031-216-9373,"['가족과함께', '경기권', '문화시설', '수원어린이도서관', '아이와함께']",https://cdn.visitkorea.or.kr/img/call?cmd=VIEW&id=a8dc41dd-8355-43b7-bd6e-9944d7c3d95f&thumb,경기도 수원시 영통구 매봉로 10,37.26885515,127.05236869999999,
248,대교 트라움벨트,경기 파주시,031-940-3910,"['교육여행', '교육체험', '문화시설', '문화예술', '미세먼지_피하는_실내여행']",https://cdn.visitkorea.or.kr/img/call?cmd=VIEW&id=7216cc6f-1026-46a8-8659-f8c6bf8143c6&thumb,경기도 파주시 회동길 342,37.71570046,126.6923436,
249,벽봉한국장신구박물관,경기 파주시,031-949-0848,"['가족과함께', '남녀노소', '문화시설', '복합문화공간', '아이와함께', '열린문화공간']",https://cdn.visitkorea.or.kr/img/call?cmd=VIEW&id=85761489-6ef7-46b7-bfd3-a768463765e5&thumb,경기도 파주시 탄현면 헤이리마을길 48-38,37.78763029,126.70006140000001,
250,도자기체험미술관 비즘,경기 양평군,031-771-0469,"['교과서속여행', '기념품판매', '도자기체험', '도자기체험미술관비즘', '문화시설']",https://cdn.visitkorea.or.kr/img/call?cmd=VIEW&id=6c1376d9-c011-4a39-9435-9aa31e2a1e7e&thumb,경기도 양평군 서종면 황순원로 165,37.59547451,127.38332720000001,
251,덕포진교육박물관,경기 김포시,031-989-8580,"['경기도', '덕포진교육박물관', '문화시설', '사립박물관', '파주시']",https://cdn.visitkorea.or.kr/img/call?cmd=VIEW&id=213d834d-f399-4884-b621-f7092619fc5e&thumb,경기도 김포시 대곶면 덕포진로103번길 90,37.65065352,126.5387223,
252,박두진 문학관,경기 안성시,031-678-2466,"['가족과함께', '교육여행', '문학', '문학관', '문학기행', '문화공간', '문화시설']",https://cdn.visitkorea.or.kr/img/call?cmd=VIEW&id=ec464c90-3bd3-49c3-a85d-69c683dd4a0f&thumb,경기도 안성시 보개면 남사당로 198-11,37.03497838,127.3108743,
253,미리내마술극단 은하수홀,경기 수원시,031-241-1238,"['가족과함께', '공연관람', '공연여행', '공연장', '남녀노소', '마술공연', '문화시설']",https://cdn.visitkorea.or.kr/img/call?cmd=VIEW&id=be04e71d-a44b-41d5-8420-50b55cba20ae&thumb,경기도 수원시 팔달구 정조로 767-8,37.27664396,127.01610790000001,
254,두물워크샵,경기 남양주시,010-5297-3336,"['공연', '문화공간', '문화시설', '복합문화공간', '열린문화공간', '음악회', '전시/공연']",https://cdn.visitkorea.or.kr/img/call?cmd=VIEW&id=247f25be-4853-4100-ae06-bbf4ce62482c&thumb,경기도 남양주시 화도읍 북한강로1112번길 19,37.61371444,127.34278379999999,
255,포천문화원,경기 포천시,031-532-5015,"['경기권', '교육프로그램', '문화시설', '포천문화원']",https://cdn.visitkorea.or.kr/img/call?cmd=VIEW&id=undefined&thumb,경기도 포천시 중앙로34번길 8,37.89046376,127.1982721,
256,설미재미술관,경기 가평군,031-585-6276,"['가족과함께', '교육체험', '문화시설', '복합문화공간', '열린문화공간', '예술창작']",https://cdn.visitkorea.or.kr/img/call?cmd=VIEW&id=d2c60739-a5f9-41e8-b5b2-7190ee7bed6d&thumb,경기도 가평군 설악면 유명로 1454-38,37.66088468,127.482238,
257,잔아문학박물관,경기 양평군,031-771-8577,"['문화시설', '복합문화공간', '열린문화공간', '잔아문학박물관']",https://cdn.visitkorea.or.kr/img/call?cmd=VIEW&id=d32f1534-c5b0-4a3e-8448-ed821b5f7d2e&thumb,경기도 양평군 서종면 사랑제길 9-9,37.59678273,127.35477560000001,
258,테라,경기 파주시,031-949-7879,"['도예가', '문화공간', '문화시설', '미술작품', '미술품', '복합문화공간', '연인과함께']",https://cdn.visitkorea.or.kr/img/call?cmd=VIEW&id=c4eb19d3-1dcd-4308-8d8c-d4f8e969af52&thumb,경기도 파주시 탄현면 헤이리마을길 18-33,37.78679106,126.6964097,
259,한향림 현대도자미술관,경기 파주시,070-4161-7275,"['문화시설', '연인과 함께', '전시관', '한향림', '현대도자기미술관']",https://cdn.visitkorea.or.kr/img/call?cmd=VIEW&id=5d49742c-f773-479b-9ff5-a356f7ad82df&thumb,경기도 파주시 탄현면 헤이리마을길 63,37.78911396,126.6984959,
260,앤갤러리,경기 성남시,070-7430-3323,"['문화시설', '문화예술', '문화예술공간', '미술관', '미술작품', '복합문화공간']",https://cdn.visitkorea.or.kr/img/call?cmd=VIEW&id=ec391215-d4c5-4fd9-a65a-350a9a95755e&thumb,경기도 성남시 분당구 새마을로 95,37.38363831,127.14121850000001,
261,여성생활사 박물관,경기 여주시,031-882-8100,"['교과서속여행', '문화시설', '박물관', '사계절', '수도권', '실내여행지', '아이와함께']",https://cdn.visitkorea.or.kr/img/call?cmd=VIEW&id=92b1f8ed-8175-4730-bfb1-a480a102414d&thumb,경기도 여주시 강천면 강천로 324-20,37.24252504,127.70814329999999,
262,아해박물관,경기,02-3418-5501,"['가족과함께', '기획전시', '무더위_피해_실내여행', '문화시설', '박물관', '실내여행지']",https://cdn.visitkorea.or.kr/img/call?cmd=VIEW&id=47efb7ef-6271-4eb0-8227-b8f7e1b9f5bc&thumb,경기도 과천시 추사로 133,37.45762016,127.02997920000001,
263,세종국악당,경기 여주시,031-887-2854,"['데이트코스', '문화시설', '세종국악당', '수도권', '아이와함께', '연인과함께']",https://cdn.visitkorea.or.kr/img/call?cmd=VIEW&id=04dbca03-a81c-4ac4-856c-445f6225abab&thumb,경기도 여주시 영릉로 125,37.29692248,127.62522659999998,
264,성남시수정청소년수련관,경기 성남시,031-729-9200,"['레포츠', '문화시설', '수도권', '수정청소년수련관', '청소년수련관']",https://cdn.visitkorea.or.kr/img/call?cmd=VIEW&id=e2cba128-e263-43bf-8289-5b3fce70d27a&thumb,경기도 성남시 수정구 희망로509번길 20,37.44930166,127.1501845,
265,조병화문학관,경기 안성시,031-674-0307,"['문학기념관', '문화시설', '수도권', '조병화문학관']",https://cdn.visitkorea.or.kr/img/call?cmd=VIEW&id=b97cd6e9-d4bb-421e-ac71-d2fea54516f0&thumb,경기도 안성시 양성면 난실길 14-1,37.11208086,127.2216269,
266,포네티브 스페이스,경기 파주시,031-949-8056,"['기획전시', '문화공간', '문화시설', '문화예술', '문화예술공간', '복합문화공간']",https://cdn.visitkorea.or.kr/img/call?cmd=VIEW&id=a0289ea5-a2e1-49b6-89c0-3f9e48e4e04b&thumb,경기도 파주시 탄현면 헤이리마을길 34,37.78711289,126.6970403,
267,동아방송예술대학교 DIMA아트센터,경기 안성시,031-670-6938,"['남녀노소', '문화시설', '문화예술', '문화예술활동', '미술관', '미술품', '복합문화공간']",https://cdn.visitkorea.or.kr/img/call?cmd=VIEW&id=736f92c1-6af7-4e4e-89f8-4e428eade6d1&thumb,경기도 안성시 삼죽면 동아예대길 47,37.06236123,127.3532946,
268,CICA 미술관,경기 김포시,031-988-6363,"['남녀노소', '문화공간', '문화시설', '문화예술', '문화예술공간', '문화예술활동']",https://cdn.visitkorea.or.kr/img/call?cmd=VIEW&id=b399644b-c755-4ed3-bf3b-9d5aa92df4e7&thumb,경기도 김포시 양촌읍 삼도로 196-30,37.60819722,126.5977739,
269,하남문화원,경기 하남시,031-795-1020,"['문화강좌', '문화시설', '아이와함게', '하남']",https://cdn.visitkorea.or.kr/img/call?cmd=VIEW&id=null&thumb,경기도 하남시 덕풍동로 12,37.54388177,127.20671029999998,
270,용인 농경문화전시관,경기 용인시,031-324-4054,"['농경문화전시관', '문화시설', '아이와함께', '이색체험', '전통&역사체험']",https://cdn.visitkorea.or.kr/img/call?cmd=VIEW&id=627fa77a-d15f-4df3-911e-f6b1bbec128f&thumb,경기도 용인시 처인구 원삼면 농촌파크로 80-1,37.17101661,127.29712090000001,
271,오산문화원,경기 오산시,031-375-7755,"['문화시설', '복합문화공간', '열린문화공간', '오산문화원']",https://cdn.visitkorea.or.kr/img/call?cmd=VIEW&id=null&thumb,경기도 오산시 성호대로 89,37.14914237,127.07140990000002,
272,김포아트홀,경기 김포시,031-996-1603,"['가족과함께', '김포아트홀', '문화시설', '아이와함께', '예술문화']",https://cdn.visitkorea.or.kr/img/call?cmd=VIEW&id=c8608e7b-9b54-4f6c-a16b-524e9622a3fc&thumb,경기도 김포시 돌문로 26,37.61893049,126.7201495,
273,대안미술공간 소나무,경기 안성시,031-673-0904,"['문화공간', '문화시설', '문화예술', '복합문화공간', '열린문화공간', '전시', '현대미술']",https://cdn.visitkorea.or.kr/img/call?cmd=VIEW&id=undefined&thumb,경기도 안성시 미양면 이박골길 75-33,36.98125922,127.24861200000001,
274,현대모터스튜디오 고양,경기 고양시,1899-6611,"['가족과함께', '교육여행', '문화시설', '아이와함께', '열린문화공간', '예술공간']",https://cdn.visitkorea.or.kr/img/call?cmd=VIEW&id=db4d84c7-536f-41dc-a333-2330f66540a7&thumb,경기도 고양시 일산서구 킨텍스로 217-6,37.66620656,126.74768490000001,
275,솔가람 아트홀,경기 파주시,031-950-1958,"['경기권', '공연장', '문화시설', '솔가람아트홀', '클래식공연장']",https://cdn.visitkorea.or.kr/img/call?cmd=VIEW&id=5dddcfd8-a3da-42b3-ae59-7ca34535f1b5&thumb,경기도 파주시 가람로116번길 170,37.73051234,126.7633962,
276,헤이리시네마,경기 파주시,031-942-1031,"['문화시설', '예술문화체험', '파주가볼만한곳', '헤이리시네마']",https://cdn.visitkorea.or.kr/img/call?cmd=VIEW&id=6a41d87a-c84e-4ec8-8552-c8281fb3c7ea&thumb,경기도 파주시 탄현면 헤이리마을길 93-119 커피공장 103 카페 3층,37.7916705,126.6976807,
277,벗이미술관,경기 용인시,031-333-2114,"['가족과함께', '경기권', '문화시설', '벗이미술관', '아이와함께']",https://cdn.visitkorea.or.kr/img/call?cmd=VIEW&id=fce16d3a-31e7-461b-8614-07a731073482&thumb,경기도 용인시 처인구 양지면 학촌로53번길 4,37.24141428,127.30218290000002,
278,외할머니의 부엌,경기 김포시,031-984-1993,"['가족과함께', '문화시설', '아이와함께', '이색체험']",https://cdn.visitkorea.or.kr/img/call?cmd=VIEW&id=7d1f4f33-e391-436e-9090-71368a7d09e1&thumb,경기도 김포시 대곶면 덕포진로103번길 95-7,37.64997572,126.5389774,
279,박명선 갤러리,경기 파주시,010-9968-5878,"['문화시설', '문화예술공간', '박명선갤러리', '예술공간']",https://cdn.visitkorea.or.kr/img/call?cmd=VIEW&id=4e258efa-d9d4-4ab2-81e2-343047274edd&thumb,경기도 파주시 탄현면 장릉로141번길 21,37.76662961,126.7084946,
280,갤러리 MOA,경기 파주시,031-949-3272,"['갤러리MOA', '문화시설', '예술문화체험', '파주가볼만한곳']",https://cdn.visitkorea.or.kr/img/call?cmd=VIEW&id=f5e1e90d-b1d3-4a58-bb66-9d7fdb54a08f&thumb,경기도 파주시 탄현면 헤이리마을길 48-37,37.7876955,126.70022979999999,
281,아쿠아플라넷 일산,경기 고양시,031-960-8500,"['당일치기여행', '데이트코스', '문화시설', '미세먼지_피하는_실내여행', '사계절']",https://cdn.visitkorea.or.kr/img/call?cmd=VIEW&id=e2a8bda8-46b4-4b62-8146-86a9e184b88c&thumb,경기도 고양시 일산서구 한류월드로 282,37.66383701,126.7556101,
282,조명박물관,경기 양주시,070-7780-8911,"['교과서속여행', '문화시설', '박물관', '복합문화공간', '사계절', '상설공연', '수도권']",https://cdn.visitkorea.or.kr/img/call?cmd=VIEW&id=04084d57-5cbe-4850-a018-b0418f05d781&thumb,경기도 양주시 광적면 광적로 235-48,37.83609524,126.9675306,
283,악티바,경기 광주시,031-763-4114,"['VR체험', '관광지', '남녀노소', '문화공간', '미세먼지_피하는_실내여행', '복합레저스포츠']",https://cdn.visitkorea.or.kr/img/call?cmd=VIEW&id=8cde03a3-d2b0-4562-9789-0077164b290f&thumb,경기도 광주시 곤지암읍 경충대로 729,37.35249014,127.3237019,
284,화성식염온천,경기 화성시,031-351-9700,"['가족여행', '관광지', '발안식염온천', '수도권', '실내여행지', '아이와함께', '연인과함께']",https://cdn.visitkorea.or.kr/img/call?cmd=VIEW&id=18293704-c2f3-4c2d-a099-471a2265f4e6&thumb,경기도 화성시 장안면 황골길 56-1,37.09360522,126.8669269,
285,목아박물관,경기 여주시,031-885-9952,"['나들이', '목아박물관', '문화시설', '미세먼지_피하는_실내여행', '박물관', '수도권']",https://cdn.visitkorea.or.kr/img/call?cmd=VIEW&id=012813fe-1ca3-4065-ad10-f4f25d400b13&thumb,경기도 여주시 강천면 이문안길 21,37.28855027,127.6881229,
286,국립과천과학관,경기,02-3677-1500,"['가족과함께', '겨울방학가볼만한곳', '과천가볼만한곳', '국립과천과학관', '남녀노소']",https://cdn.visitkorea.or.kr/img/call?cmd=VIEW&id=d1fce5dd-69bd-4723-8cc3-330f0fe7a0ca&thumb,경기도 과천시 상하벌로 110,37.43963718,127.002295,
287,여주박물관,경기 여주시,031-887-3583,"['교과서속여행', '문화시설', '미세먼지_피하는_실내여행', '박물관', '수도권']",https://cdn.visitkorea.or.kr/img/call?cmd=VIEW&id=a71e90cb-fb0f-491e-8866-b2fe5bd866b8&thumb,경기도 여주시 신륵사길 6-12,37.29965313,127.6533791,
288,백남준아트센터,경기 용인시,031-201-8500,"['문화시설', '문화예술', '미세먼지_피하는_실내여행', '미술관', '백남준아트센터']",https://cdn.visitkorea.or.kr/img/call?cmd=VIEW&id=58055fa4-ed5f-4245-a8e1-6193f3c028e2&thumb,경기도 용인시 기흥구 백남준로 10,37.26914663,127.1104379,
289,모란미술관,경기 남양주시,031-594-8001,"['나들이', '데이트코스', '모란미술관', '문화시설', '미술관', '수도권', '실내여행지']",https://cdn.visitkorea.or.kr/img/call?cmd=VIEW&id=3ca6ffc9-68e9-4ec8-a467-0a0aa1b20483&thumb,경기도 남양주시 화도읍 경춘로2110번길 8,37.6504135,127.3237775,
290,프라움악기박물관,경기 남양주시,031-521-6043,"['남양주가볼만한곳', '데이트코스', '문화공간', '문화시설', '복합문화공간', '사계절']",https://cdn.visitkorea.or.kr/img/call?cmd=VIEW&id=9e5a026d-d0b3-4516-9e59-f228db38d1c7&thumb,경기도 남양주시 와부읍 경강로 756,37.56850845,127.2270492,
291,주렁주렁 (롯데빅마켓 킨텍스점),경기 고양시,1644-2153,"['가족과함께', '고양가볼만한곳', '관광지', '남녀노소', '동물농장', '동물체험']",https://cdn.visitkorea.or.kr/img/call?cmd=VIEW&id=47d4655f-af1f-4dec-b695-7615783e508b&thumb,경기도 고양시 일산서구 주엽로 79,37.66727315,126.7536584,
292,여주세계생활도자관,경기 여주시,031-884-8644,"['가족여행', '도자기박물관', '문화시설', '미세먼지_피하는_실내여행', '반달미술관']",https://cdn.visitkorea.or.kr/img/call?cmd=VIEW&id=fdeae97a-ed9e-4541-854e-9e006c170665&thumb,경기도 여주시 신륵사길 7,37.30014504,127.6545462,
293,김포독립운동기념관,경기 김포시,031-996-6270,"['교과서속여행', '기념관', '김포독립기념관', '무장애', '문화시설', '미세먼지_피하는_실내여행']",https://cdn.visitkorea.or.kr/img/call?cmd=VIEW&id=e80dffb4-830d-4341-bba3-e64eee98a4cb&thumb,경기도 김포시 양촌읍 양곡2로30번길 46,37.65335898,126.629642,
294,안산시세계문화체험관,경기 안산시,031-481-3732,"['가족과함께', '가족체험', '관광지', '미세먼지_피하는_실내여행', '복합문화공간']",https://cdn.visitkorea.or.kr/img/call?cmd=VIEW&id=c348d72a-bde8-4c95-9232-81b2a7088112&thumb,경기도 안산시 단원구 원본로 15,37.33120824,126.7917695,
295,이천시립월전미술관,경기 이천시,031-637-0033,"['나들이', '데이트코스', '문화시설', '미술관', '수도권', '실내여행지', '아이와함께']",https://cdn.visitkorea.or.kr/img/call?cmd=VIEW&id=547ec234-c663-4bcc-93f0-d072d565b5dd&thumb,경기도 이천시 경충대로2709번길 185,37.28016656,127.4240472,
296,스토리 미니어처 뮤지엄,경기 파주시,031-947-0677,"['가족과함께', '관광지', '미세먼지_피하는_실내여행', '복합문화공간', '실내여행지']",https://cdn.visitkorea.or.kr/img/call?cmd=VIEW&id=94bb926f-c4d8-4bf0-8dcb-d59f6494d7f4&thumb,경기도 파주시 탄현면 헤이리마을길 93-75,37.79140653,126.6962488,
297,우석헌자연사박물관,경기 남양주시,031-572-9555,"['교과서속여행', '문화시설', '박물관', '사계절', '수도권', '실내여행지', '아이와함께']",https://cdn.visitkorea.or.kr/img/call?cmd=VIEW&id=8a6d6c1f-dd1c-4381-b545-d830c32e6a14&thumb,경기도 남양주시 진접읍 금강로 1095,37.69803201,127.1608188,
298,국립현대미술관(과천관),경기,02-2188-6000,"['과천관', '국립현대미술관', '나들이', '데이트코스', '문화시설', '미술관', '수도권']",https://cdn.visitkorea.or.kr/img/call?cmd=VIEW&id=3714fee5-3884-4159-8ebf-b69d7e8d713e&thumb,경기도 과천시 광명로 313,37.43100343,127.0199299,
299,광주문화원(경기),경기 광주시,031-764-0686,"['광주문화원', '문화시설', '문화원', '사계절', '서울근교여행', '수도권', '실내여행지']",https://cdn.visitkorea.or.kr/img/call?cmd=VIEW&id=18a265ed-906e-4089-ab69-d61d6a983685&thumb,경기도 광주시 문화로85번길 19-12,37.40997626,127.2493751,
300,중남미문화원,경기 고양시,031-962-9291,"['나들이', '데이트코스', '문화시설', '미술관', '박물관', '수도권', '실내여행지']",https://cdn.visitkorea.or.kr/img/call?cmd=VIEW&id=cd0f4b56-1249-4971-94a6-2ceaac2b7ff9&thumb,경기도 고양시 덕양구 대양로285번길 33-15,37.70358397,126.8953482,
301,지도박물관,경기 수원시,031-210-2667,"['교과서속여행', '문화시설', '박물관', '사계절', '수도권', '실내여행지', '아이와함께']",https://cdn.visitkorea.or.kr/img/call?cmd=VIEW&id=d825f882-afb9-4d2a-a497-dd414779be82&thumb,경기도 수원시 영통구 월드컵로 92,37.27577145,127.0549634,
302,말박물관,경기,02-509-1287,"['나들이', '말박물관', '문화시설', '박물관', '수도권', '실내여행지', '아이와함께']",https://cdn.visitkorea.or.kr/img/call?cmd=VIEW&id=bcdb62df-0c6c-49db-8c8c-007c253c50fa&thumb,경기도 과천시 경마공원대로 107,37.44120036,127.01612659999998,
303,한국등잔박물관,경기 용인시,031-334-0797,"['당일치기여행', '문화시설', '박물관', '수도권', '실내여행지', '아이와함께', '이색체험']",https://cdn.visitkorea.or.kr/img/call?cmd=VIEW&id=219145af-7f2b-4e59-9df6-9d416a39b11f&thumb,경기도 용인시 처인구 모현읍 능곡로56번길 8,37.33658645,127.17788090000002,
304,하남역사박물관,경기 하남시,031-790-7990,"['교과서속여행', '문화시설', '박물관', '사계절', '수도권', '실내여행지', '아이와함께']",https://cdn.visitkorea.or.kr/img/call?cmd=VIEW&id=6987f3a8-6053-4fd9-9c39-739706cbc47f&thumb,경기도 하남시 덕풍동로 30,37.54546042,127.2060842,
305,가평현암농경유물박물관,경기 가평군,031-581-0612,"['가평현암농경유물박물관', '교과서속여행', '문화시설', '박물관', '수도권', '실내여행지']",https://cdn.visitkorea.or.kr/img/call?cmd=VIEW&id=2d20226c-f459-49e1-bccc-aa2891a7a383&thumb,경기도 가평군 북면 석장모루길 13,37.87934605,127.5481207,
306,성남아트센터,경기 성남시,031-783-8000,"['가족여행', '문화시설', '문화행사', '사계절', '상설공연', '성남아트센터', '수도권']",https://cdn.visitkorea.or.kr/img/call?cmd=VIEW&id=c083b65b-d404-404f-b98d-e0fe4cd22f80&thumb,경기도 성남시 분당구 성남대로 808,37.40295657,127.13055990000002,
307,창조자연사박물관,경기 시흥시,031-435-1009,"['교과서속여행', '문화시설', '박물관', '사계절', '수도권', '실내여행지', '아이와함께']",https://cdn.visitkorea.or.kr/img/call?cmd=VIEW&id=9c27cd88-8f9d-4161-93f8-ce3951dc7046&thumb,경기도 시흥시 두문로71번길 4,37.43371524,126.7864731,
308,명필름아트센터,경기 파주시,031-930-6600,"['명필름아트센터', '문화공간', '문화시설', '문화콘텐츠산업', '미술관', '복합문화공간']",https://cdn.visitkorea.or.kr/img/call?cmd=VIEW&id=4923c0a9-e06c-4299-a0fa-66a62852d729&thumb,경기도 파주시 회동길 530-20,37.72349442,126.6933584,
309,가평문화예술회관,경기 가평군,031-8078-8076,"['가평문화예술회관', '공연장', '데이트코스', '문화시설', '문화행사', '상설공연']",https://cdn.visitkorea.or.kr/img/call?cmd=VIEW&id=2b01fbe4-86fc-421b-974b-dd0eb139aaaa&thumb,경기도 가평군 가평읍 문화로 131,37.82542273,127.5069577,
310,평촌아트홀,경기 안양시,031-687-0525,"['가족여행', '공연장', '문화시설', '문화예술', '복합문화공간', '사계절', '수도권']",https://cdn.visitkorea.or.kr/img/call?cmd=VIEW&id=571b2a6c-f023-46ae-93dc-b621141df984&thumb,경기도 안양시 동안구 평촌대로 76,37.37998052,126.9640318,
311,시흥문화원,경기 시흥시,031-317-0827,"['문화시설', '문화원', '사계절', '상설전시', '서울근교여행', '수도권', '시흥문화원']",https://cdn.visitkorea.or.kr/img/call?cmd=VIEW&id=0fd5e574-597b-415b-8e65-3742471b37cc&thumb,경기도 시흥시 연성로13번길 3,37.39044726,126.8047632,
312,아시아출판문화정보센터,경기 파주시,031-955-0050,"['문화시설', '복합문화공간', '수도권', '실내여행지', '아시아출판문화정보센터']",https://cdn.visitkorea.or.kr/img/call?cmd=VIEW&id=f5039f19-bbcc-4cc7-9d5f-3835647b1ca7&thumb,경기도 파주시 회동길 145,37.70848115,126.6867933,
313,일산황토마루한증막,경기 파주시,031-943-0990,"['관광지', '뷰티&스파', '사우나', '수도권', '실내여행지', '연인과함께', '온천&스파']",https://cdn.visitkorea.or.kr/img/call?cmd=VIEW&id=undefined&thumb,경기도 파주시 오도로130번길 37,37.75226235,126.7183682,
314,한국기독교역사박물관,경기 이천시,031-632-1391,"['교과서속여행', '문화시설', '박물관', '사계절', '수도권', '실내여행지', '아이와함께']",https://cdn.visitkorea.or.kr/img/call?cmd=VIEW&id=eda9418d-bfb3-4e91-a9bb-dadda7dc4fe1&thumb,경기도 이천시 대월면 대평로214번길 10-13,37.22281443,127.4992512,
315,안산문화예술의전당,경기 안산시,080-481-4000,"['가족여행', '문화시설', '박물관', '서울근교여행', '실내여행지', '아이와함께']",https://cdn.visitkorea.or.kr/img/call?cmd=VIEW&id=69d9062d-93d5-4423-ae76-b3326ebd96db&thumb,경기도 안산시 단원구 화랑로 312,37.31842711,126.8231073,
316,양평곤충박물관,경기 양평군,031-775-8022,"['가족과함께', '가족체험', '곤충박물관', '곤충체험학습', '미세먼지_피하는_실내여행']",https://cdn.visitkorea.or.kr/img/call?cmd=VIEW&id=9c855f3b-e75e-4a7f-9f43-52d4fc6b994e&thumb,경기도 양평군 옥천면 경강로 1496,37.50920175,127.44918590000002,
317,명지산생태전시관,경기 가평군,031-582-7426,"['겨울방학가볼만한곳', '당일치기여행', '명지산', '명지산생태전시관', '문화시설']",https://cdn.visitkorea.or.kr/img/call?cmd=VIEW&id=02eec73d-b242-4146-bdb4-4d51fe10d3a7&thumb,경기도 가평군 북면 가화로 2089-42,37.93603501,127.4877232,
318,고양시문예회관,경기 고양시,031-965-2957,"['고양시문예회관', '데이트코스', '문화시설', '서울근교여행', '수도권', '실내여행지']",https://cdn.visitkorea.or.kr/img/call?cmd=VIEW&id=ddd62f95-1bfa-4ccb-9748-8ddd7cb45618&thumb,경기도 고양시 덕양구 고양시청로 10,37.65841333,126.8319601,
319,아주대학교박물관,경기 수원시,031-219-2907,"['교과서속여행', '문화시설', '박물관', '수도권', '실내여행지', '아이와함께', '아주대학교박물관']",https://cdn.visitkorea.or.kr/img/call?cmd=VIEW&id=0d4ba3c0-b195-4fa9-91e9-e3ba02e425a8&thumb,경기도 수원시 영통구 월드컵로 206,37.28305638,127.04366,
320,서호미술관,경기 남양주시,031-592-1864,"['경기도', '남양주시', '문화시설', '미술관', '실내여행지', '친구와함께', '화도읍']",https://cdn.visitkorea.or.kr/img/call?cmd=VIEW&id=05f00505-c774-43ae-ab97-7d41a5ddac7b&thumb,경기도 남양주시 화도읍 북한강로 1344,37.63270861,127.3515098,
321,명지대학교 박물관,경기 용인시,031-330-6074,"['교과서속여행', '명지대학교박물관', '문화시설', '박물관', '수도권', '실내여행지']",https://cdn.visitkorea.or.kr/img/call?cmd=VIEW&id=bae5a6aa-d282-4bc3-a96f-0836b0583ba7&thumb,경기도 용인시 처인구 명지로 116,37.22180726,127.1901837,
322,국립여성사전시관,경기 고양시,031-819-2288,"['국립여성사전시관', '문화시설', '박물관', '사계절', '수도권', '실내여행지', '아이와함께']",https://cdn.visitkorea.or.kr/img/call?cmd=VIEW&id=89e192c4-a54f-4884-8feb-74369198c5b3&thumb,경기도 고양시 덕양구 화중로104번길 50,37.63581557,126.8340355,
323,한국민속촌 옹기전시관,경기 용인시,031-274-3335,"['가족여행', '문화시설', '박물관', '서울근교여행', '실내여행지', '아이와함께']",https://cdn.visitkorea.or.kr/img/call?cmd=VIEW&id=2b1c8996-d14d-4446-aa8d-ffe755b35aba&thumb,경기도 용인시 기흥구 민속촌로 90,37.25913189,127.1225431,
324,농경유물전시관,경기 파주시,031-940-4801,"['교과서속여행', '농경유물전시관', '문화시설', '박물관', '사계절', '수도권', '실내여행지']",https://cdn.visitkorea.or.kr/img/call?cmd=VIEW&id=9bf3acca-29b4-4670-a9f8-7505760a21ea&thumb,경기도 파주시 통일로 600,37.7639808,126.7955513,
325,경기대학교박물관,경기 수원시,031-249-9114,"['경기대학교박물관', '교과서속여행', '문화시설', '박물관', '수도권', '실내여행지']",https://cdn.visitkorea.or.kr/img/call?cmd=VIEW&id=30fa0b17-c5b1-444f-808c-10a6e793bc63&thumb,경기도 수원시 영통구 광교산로 154-42,37.29801369,127.0331167,
326,가일미술관,경기 가평군,031-584-4722,"['가일미술관', '가족여행', '문화시설', '미술관', '서울근교여행', '실내여행지']",https://cdn.visitkorea.or.kr/img/call?cmd=VIEW&id=94f68f04-80c1-4b7d-a362-f6284c03bcfd&thumb,경기도 가평군 청평면 북한강로 1549,37.66041649,127.3794344,
327,중앙대학교박물관,경기 안성시,031-670-3446,"['문화시설', '박물관', '수도권', '실내여행지', '아이와함께', '예술', '전시관', '전통&역사문화체험']",https://cdn.visitkorea.or.kr/img/call?cmd=VIEW&id=880fb62b-9354-4113-8019-41acb3f59dd5&thumb,경기도 안성시 대덕면 서동대로 4726,37.0004292,127.2287087,
328,단국대학교 석주선기념박물관,경기 용인시,031-8005-2389,"['단국대학교석주선기념박물관', '무료관람', '문화시설', '박물관', '수도권', '실내여행지']",https://cdn.visitkorea.or.kr/img/call?cmd=VIEW&id=4c60915f-4f6f-4eea-b8b2-e61f5734f01a&thumb,경기도 용인시 수지구 죽전로 152,37.32119387,127.13253590000002,
329,이경순 소리박물관,경기 안성시,031-670-6538,"['교과서속여행', '문화시설', '박물관', '사계절', '수도권', '실내여행지', '아이와함께']",https://cdn.visitkorea.or.kr/img/call?cmd=VIEW&id=4226a918-fb6a-4936-9b57-a62da8f9a6c2&thumb,경기도 안성시 삼죽면 동아예대길 47,37.06236123,127.3532946,
330,여성생활사 박물관,경기 여주시,031-882-8100,"['교과서속여행', '문화시설', '박물관', '사계절', '수도권', '실내여행지', '아이와함께']",https://cdn.visitkorea.or.kr/img/call?cmd=VIEW&id=92b1f8ed-8175-4730-bfb1-a480a102414d&thumb,경기도 여주시 강천면 강천로 324-20,37.24252504,127.7081433,
331,아해박물관,경기,02-3418-5501,"['가족과함께', '기획전시', '무더위_피해_실내여행', '문화시설', '박물관', '실내여행지']",https://cdn.visitkorea.or.kr/img/call?cmd=VIEW&id=47efb7ef-6271-4eb0-8227-b8f7e1b9f5bc&thumb,경기도 과천시 추사로 133,37.45762016,127.0299792,
332,여강길(1코스~5코스),경기 여주시,031-884-9089,"['남녀노소', '레포츠', '산책코스', '언택트관광지_100선', '역사이야기', '자연속으로']",https://cdn.visitkorea.or.kr/img/call?cmd=VIEW&id=2ad7b85f-b5ac-4c00-97c0-d79fd9d85bf0&thumb,경기도 여주시 교동,37.28031078,127.6320575,0.0
333,한탄강 주상절리길(포천),경기 포천시,031-538-2312,"['레포츠', '산책코스', '산책하기좋은곳', '언택트관광지_100선', '자연', '자연속으로']",https://cdn.visitkorea.or.kr/img/call?cmd=VIEW&id=16416f15-0a38-4f34-a4f6-7709542ecd83&thumb,경기도 포천시 영북면,38.08913503,127.2755211,1.0
334,평화누리길 1코스 염하강철책길,경기 김포시,031-956-8306,"['남녀노소', '레포츠', '산책길', '산책로', '산책코스', '산책하기', '산책하기좋은곳']",https://cdn.visitkorea.or.kr/img/call?cmd=VIEW&id=4e45dc9f-9a86-48ff-a1f9-0416e981daeb&thumb,경기도 김포시 대곶면 대명리 517-4,37.64138072,126.539728,2.0
335,자라섬오토캠핑장,경기 가평군,031-8078-8028,"['가족여행', '레포츠', '아이와함께', '연인과함께', '자라섬오토캠핑장', '자라섬오토캠핑장']",https://cdn.visitkorea.or.kr/img/call?cmd=VIEW&id=9249caa5-d38c-48a4-a84a-751f1d7289ee&thumb,경기도 가평군 가평읍 자라섬로 60,37.82089751,127.5210451,3.0
336,광릉숲길,경기 남양주시,031-540-1061,"['경치여행', '국립수목원광릉숲', '남양주광릉', '레포츠', '트레킹', '포천국립수목원']",https://cdn.visitkorea.or.kr/img/call?cmd=VIEW&id=2e90e233-c531-4818-ba76-873e95ac8455&thumb,경기도 남양주시 진접읍 부평리,37.74378465,127.1771783,4.0
337,플라이스테이션,경기 용인시,1855-3946,"['남녀노소', '레포츠', '복합레저스포츠', '스카이다이빙', '아이와함께', '연인과함께']",https://cdn.visitkorea.or.kr/img/call?cmd=VIEW&id=2025cd9e-d2dd-4738-aa81-8924c34cc1bc&thumb,경기도 용인시 처인구 포곡읍 성산로 521,37.28089164,127.19920790000002,5.0
338,웅진플레이도시 실내스키장,경기 부천시,1577-5773,"['레포츠', '서울근교여행', '수도권', '웅진플레이도시실내스키장', '테마파크']",https://cdn.visitkorea.or.kr/img/call?cmd=VIEW&id=03295683-f480-4285-828e-cd99290d0642&thumb,경기도 부천시 조마루로 2,37.49997006,126.7442354,6.0
339,남이섬 짚와이어,경기 가평군,031-582-8091,"['남이섬짚와이어', '레포츠', '서울근교여행', '수도권']",https://cdn.visitkorea.or.kr/img/call?cmd=VIEW&id=0fada9de-1053-43e3-b48e-5f41fa8b0cb9&thumb,경기도 가평군 가평읍 북한강변로 1024,37.80396191,127.5253669,7.0
340,양평레일바이크,경기 양평군,031-775-9911,"['가족여행', '경기권', '레포츠', '서울근교여행', '양평레일바이크', '연인과함께']",https://cdn.visitkorea.or.kr/img/call?cmd=VIEW&id=7fa6bc42-9c01-46d8-9baf-82747022e69c&thumb,경기도 양평군 용문면 용문로 277,37.47971462,127.5865471,8.0
341,경기의왕레일파크,경기 의왕시,031-462-3001,"['가족과함께', '경기의왕레일파크', '레일바이크', '레포츠', '사진찍기좋은곳']",https://cdn.visitkorea.or.kr/img/call?cmd=VIEW&id=f260f2f6-fc85-4356-888c-b547ba944406&thumb,경기도 의왕시 왕송못동로 209,37.31088595,126.9503038,9.0
342,송원글램핑파크,경기 용인시,010-2626-0060,"['가족여행', '낚시', '레포츠', '송원', '캠핑&글램핑']",https://cdn.visitkorea.or.kr/img/call?cmd=VIEW&id=a776c198-52cb-4483-a068-24542c603500&thumb,경기도 용인시 처인구 남사면 전궁로95번길 93,37.10740234,127.1429835,10.0
343,가평사계절썰매장,경기 가평군,031-8078-8048,"['가족과함께', '가평사계절썰매장', '겨울스포츠', '남녀노소', '눈썰매장', '레포츠']",https://cdn.visitkorea.or.kr/img/call?cmd=VIEW&id=a96d0fda-027d-4dea-bcc8-bec2732a563e&thumb,경기도 가평군 상면 깃대봉길 5-20,37.75548501,127.40240159999998,11.0
344,파주 카트랜드,경기 파주시,031-944-9736,"['교통수단', '레이싱', '레포츠', '연인과함께', '카트', '커플데이트', '파주1박2일']",https://cdn.visitkorea.or.kr/img/call?cmd=VIEW&id=6e20102d-c435-4764-a738-2b2e423aa929&thumb,경기도 파주시 탄현면 필승로 398-30,37.77749299,126.684548,12.0
345,지산 포레스트 리조트 스키장,경기 이천시,031-644-1200,"['겨울 스포츠', '레포츠', '리조트', '복합레저스포츠', '수도권', '스키장', '익스트림스포츠']",https://cdn.visitkorea.or.kr/img/call?cmd=VIEW&id=86ce27a3-f3d1-4049-82ee-510709033e6d&thumb,경기도 이천시 마장면 지산로 267,37.21900005,127.3420572,13.0
346,용인자연휴양림 에코어드벤처,경기 용인시,1588-5219,"['레포츠', '서울근교여행', '수도권', '용인자연휴양림에코어드벤처']",https://cdn.visitkorea.or.kr/img/call?cmd=VIEW&id=f72fe919-b9b8-4d5b-a7bf-58e20f07d9e9&thumb,경기도 용인시 처인구 모현읍 초부로 220,37.31487372,127.2678442,14.0
347,용담태교둘레길,경기 용인시,031-324-4054,"['걷기길', '레포츠', '사진찍기좋은곳', '산책로', '산책코스', '산책하기좋은곳']",https://cdn.visitkorea.or.kr/img/call?cmd=VIEW&id=94562c32-b32b-4258-b968-ff0fd551fa50&thumb,경기도 용인시 처인구 원삼면,37.17695241,127.3286748,15.0
348,W홀스랜드,경기 가평군,031-585-4288,"['가족과함께', '레포츠', '승마', '승마레슨', '승마장', '승마체험', '승마캠프', '승마트레킹']",https://cdn.visitkorea.or.kr/img/call?cmd=VIEW&id=069596f2-0a66-4112-9c56-5eedb5741bdd&thumb,경기도 가평군 상면 물골길 391,37.84904549,127.2935606,16.0
349,의왕스카이레일,경기 의왕시,031-8086-7372,['레포츠'],https://cdn.visitkorea.or.kr/img/call?cmd=VIEW&id=4ea106cf-fa2c-4675-9861-0a4983e18af7&thumb,경기도 의왕시 왕송못동로,37.31323565,126.9489864,17.0
350,남한강 자전거길,경기 남양주시,031-590-4338,"['남한강', '레포츠', '자연풍경', '자연환경', '자전거코스', '자전거투어', '힐링&여행']",https://cdn.visitkorea.or.kr/img/call?cmd=VIEW&id=681eac5f-4365-4a4e-9c9e-5f4ede48d1b5&thumb,경기도 남양주시 와부읍 경강로926번길 80,37.5495833,127.2387505,18.0
351,경기도종합사격장,경기 화성시,031-352-6056,"['레포츠', '사격', '사격장', '스포츠센터', '실내레포츠', '연인과함께', '이색체험']",https://cdn.visitkorea.or.kr/img/call?cmd=VIEW&id=7b676aec-aad2-48ad-b744-1f431805c985&thumb,경기도 화성시 양감면 사격장길 142,37.09390565,126.9565356,19.0
352,원마운트 스노우파크,경기 고양시,1566-2232,"['가족과함께', '레포츠', '스케이트장', '아이와함께', '원마운트 스노우파크', '친구와함께']",https://cdn.visitkorea.or.kr/img/call?cmd=VIEW&id=c6bf1919-e09e-481d-8014-98af953719b6&thumb,경기도 고양시 일산서구 한류월드로 300,37.6645541,126.75452659999998,20.0
353,안성시사계절썰매장,경기 안성시,031-675-6868,"['겨울스포츠', '경기권', '레포츠', '복합레저스포츠', '사계절썰매장', '서울근교여행']",https://cdn.visitkorea.or.kr/img/call?cmd=VIEW&id=d86435ce-76f4-402a-92a6-14386aab21ca&thumb,경기도 안성시 보개면 남사당로 198-3,37.03125388,127.3114616,21.0
354,서서울컨트리클럽,경기 파주시,031-943-4103,"['골프장', '레포츠', '서서울컨트리클럽', '클럽하우스', '파주']",https://cdn.visitkorea.or.kr/img/call?cmd=VIEW&id=c177dc0c-f15e-4727-89d9-01ae57c77c2b&thumb,경기도 파주시 광탄면 혜음로 324,37.73132545,126.8964689,22.0
355,고대산캠핑리조트,경기 연천군,,"['가족여행', '경기권', '고대산캠핑리조트', '레포츠', '서울근교여행', '캠핑장']",https://cdn.visitkorea.or.kr/img/call?cmd=VIEW&id=c14a8b19-1c02-405b-bebf-ce990d6ab857&thumb,경기도 연천군 신서면 고대산길 84-12,38.21251732,127.1456447,23.0
356,한탄강관광지 오토캠핑장,경기 연천군,031-833-0030,"['가족과함께', '경기권', '레포츠', '아이와함께', '연인과함께', '캠핑장', '한탄강관광지오토캠핑장']",https://cdn.visitkorea.or.kr/img/call?cmd=VIEW&id=8c62cda4-c179-44f5-8cfa-4ed8b335a2af&thumb,경기도 연천군 전곡읍 선사로 76,38.00887699,127.0588604,24.0
357,광명스피돔,경기 광명시,02-2067-5000,"['가족과함께', '경기권', '경륜장', '광명스피돔', '남녀노소', '레포츠', '복합레저스포츠']",https://cdn.visitkorea.or.kr/img/call?cmd=VIEW&id=7db6f28c-19cd-4d26-aec0-4331b74fbf6c&thumb,경기도 광명시 광명로 721,37.4668955,126.8453132,25.0
358,한국민속촌 눈썰매장,경기 용인시,031-288-0000,"['겨울스포츠', '눈썰매장', '레포츠', '한국민속촌', '한국민속촌 눈썰매장']",https://cdn.visitkorea.or.kr/img/call?cmd=VIEW&id=e223e219-203b-4ba9-9796-62fe2199548e&thumb,경기도 용인시 기흥구 민속촌로 90,37.25913189,127.1225431,26.0
359,양지파인리조트 눈썰매장,경기 용인시,031-329-9443,"['겨울스포츠', '눈썰매장', '레포츠', '복합레저스포츠', '아이가_좋아하는_여행']",https://cdn.visitkorea.or.kr/img/call?cmd=VIEW&id=76237099-70da-40dd-9d3c-d1ed55955437&thumb,경기도 용인시 처인구 양지면 남평로 112,37.2103839,127.2937759,27.0
360,다산길1코스,경기 남양주시,031-590-2416,"['걷기길', '걷기좋은길', '레포츠', '산책로', '산책코스', '산책하기좋은곳', '연인과함께']",https://cdn.visitkorea.or.kr/img/call?cmd=VIEW&id=8009af78-d3f4-40b5-8e7c-71c7ca43bf20&thumb,경기도 남양주시 와부읍 덕소로 56,37.58689758,127.2088195,28.0
361,대부도,경기 안산시,1899-1720,"['가족여행', '갯벌체험', '대부도', '드라이브여행', '레포츠', '바다낚시', '서울근교여행']",https://cdn.visitkorea.or.kr/img/call?cmd=VIEW&id=d781944b-3cfb-4d9b-9fc1-f43351bc3a88&thumb,경기도 안산시 단원구 대부동동,37.24902391,126.6016174,29.0
362,명지산 트레킹,경기 가평군,031-580-2481,"['경기권', '등산객', '등산여행', '레포츠', '명지산트레킹', '산책길', '산책하기']",https://cdn.visitkorea.or.kr/img/call?cmd=VIEW&id=093017dd-149e-4f51-8a22-74cf67a62ffa&thumb,경기도 가평군 북면 도대리 일원,37.94672420000001,127.4879054,30.0
363,라비돌 컨트리클럽(퍼블릭골프장),경기 화성시,031-352-7150,"['경기권', '골프장', '라비돌컨트리클럽', '레포츠']",https://cdn.visitkorea.or.kr/img/call?cmd=VIEW&id=3e765aa6-0c51-4dfd-a8bd-9e5e66e169b0&thumb,경기도 화성시 정남면 세자로 286,37.18708443,126.9841532,31.0
364,평화누리길 10코스 고랑포길,경기 연천군,031-839-2063,"['레포츠', '산책', '산책길', '산책로', '산책코스', '산책하기', '산책하기좋은곳']",https://cdn.visitkorea.or.kr/img/call?cmd=VIEW&id=4fc7e27c-80bb-4259-86c9-27076b4c39dc&thumb,경기도 연천군 장남면 원당리,37.98547211,126.87869750000002,32.0
365,[경기옛길 삼남길 제1길] 한양관문길(남태령표석 ~ 인덕원옛터),경기,070-8269-6937,"['경기옛길', '레포츠', '산책코스', '트래킹', '한양관문길']",https://cdn.visitkorea.or.kr/img/call?cmd=VIEW&id=c164487c-7781-47d1-bf29-1840f4b3b1ef&thumb,경기도 과천시 남태령옛길,37.45278279,126.9928967,33.0
366,[경기옛길 삼남길 제4길] 서호천길(지지대비 ~ 서호공원입구),경기 수원시,070-8269-6937,"['레포츠', '산책코스', '서호천길', '자연환경', '지지대비']",https://cdn.visitkorea.or.kr/img/call?cmd=VIEW&id=c382f92d-e221-49f0-85f1-01e947a0874b&thumb,경기도 수원시 장안구 경수대로,37.29361515,127.015895,34.0
367,의정부실내빙상장,경기 의정부시,031-828-4855,"['레포츠', '수도권', '실내빙상장', '의정부실내빙상장']",https://cdn.visitkorea.or.kr/img/call?cmd=VIEW&id=53560b62-907d-431d-a9aa-69fb812ea8c8&thumb,경기도 의정부시 체육로 136,37.75879471,127.0238361,35.0
368,성은낚시터,경기 안성시,031-655-6507,"['계곡형저수지', '낚시', '레포츠']",https://cdn.visitkorea.or.kr/img/call?cmd=VIEW&id=90dce488-3b72-4af0-95b3-0edf646b2fe6&thumb,경기도 안성시 원곡면 통심길 16-46,37.07048505,127.1678744,36.0
369,가평 자라섬테마파크,경기 가평군,031-581-1771,"['가평', '래프팅', '레포츠', '서울근교', '카누카약체험', '캠핑']",https://cdn.visitkorea.or.kr/img/call?cmd=VIEW&id=f0da2316-57ca-4c0f-af21-798fda785d43&thumb,경기도 가평군 가평읍 자라섬로 60,37.82089751,127.5210451,37.0
370,캠프통 아일랜드,경기 가평군,031-585-6000,"['가족여행', '레포츠', '수상레포츠', '청평호', '캠프통아일랜드', '캠핑&글램핑']",https://cdn.visitkorea.or.kr/img/call?cmd=VIEW&id=db59a8dd-2afc-43a6-b750-b91da979e350&thumb,경기도 가평군 청평면 호반로 976,37.7105574,127.48443229999998,38.0
371,어린이비전센터 사계절썰매장,경기 남양주시,031-560-1560,"['겨울 스포츠', '레포츠', '사계절썰매장', '아이와함께', '어린이비전센터', '어린이비전센터 사계절썰매장']",https://cdn.visitkorea.or.kr/img/call?cmd=VIEW&id=8f0bb445-31a6-4027-941f-bb214e3c1f83&thumb,경기도 남양주시 진접읍 해밀예당1로 96,37.71709051,127.1910488,39.0
372,[서울둘레길 6코스] 안양천코스,경기 안양시,02-779-7902,"['레포츠', '서울둘레길', '수도권', '안양천코스']",https://cdn.visitkorea.or.kr/img/call?cmd=VIEW&id=75328274-0c76-4bdf-8452-c27e13fbefbd&thumb,경기도 안양시 만안구 경수대로 1431,37.43434247,126.90252920000002,40.0
373,SRC재활체육관 광주,경기 광주시,031-799-3891,"['SRC재활체육관', '경기광주', '경기권', '레포츠']",https://cdn.visitkorea.or.kr/img/call?cmd=VIEW&id=5f32f952-549a-4479-83f8-32cad471990b&thumb,경기도 광주시 초월읍 경수길 25,37.41948735,127.287081,41.0
374,엑스라이프(X-LIFE),경기 양평군,- 0507-1355-9901,"['가족과함께', '레포츠', '복합레저스포츠', '스포츠체험', '익스트림스포츠', '친구와함께']",https://cdn.visitkorea.or.kr/img/call?cmd=VIEW&id=530d5c84-eaf7-4166-81e9-a85ed6f9955e&thumb,경기도 양평군 옥천면,37.51806468,127.4560724,42.0
375,서정온천오토캠핑장,경기 연천군,031-835-0312,"['가족여행', '레포츠', '연천군', '오토캠핑장', '온천수', '힐링']",https://cdn.visitkorea.or.kr/img/call?cmd=VIEW&id=2ad99d96-64db-4083-bf47-9dee5d18f793&thumb,경기도 연천군 장남면 장백로330번길 137-28,37.99592044,126.8859611,43.0
376,하노버승마장,경기 안성시,031-672-4746,"['가족과함께', '경기권', '레포츠', '서울근교여행', '승마장', '승마체험', '아이와함께']",https://cdn.visitkorea.or.kr/img/call?cmd=VIEW&id=427199e6-f409-4e47-ae99-69bd915722a2&thumb,경기도 안성시 일죽면 원설로 1042,37.13481803,127.4467941,44.0
377,삼풍수영장(실외),경기 수원시,031-271-3500,"['가족과함께', '레포츠', '수영장', '실외수영장', '아이가_좋아하는_여행', '아이와함께']",https://cdn.visitkorea.or.kr/img/call?cmd=VIEW&id=a231f8bb-0514-49a9-95f6-4a3fcdb331e5&thumb,경기도 수원시 장안구 서부로 2388,37.31739781,126.9854649,45.0
378,미사리 경정공원,경기 하남시,031-790-8114,"['가족여행', '경기권', '레포츠', '미사리경정공원', '아이와함께', '연인과함께']",https://cdn.visitkorea.or.kr/img/call?cmd=VIEW&id=9eca48de-f427-4934-bff2-b92ad4116a9a&thumb,경기도 하남시 미사대로 505 미사경정공원,37.55362591,127.2132296,46.0
379,뉴서울 다이빙 풀,경기 광명시,02-892-4943,"['뉴서울다이빙풀', '레포츠', '서울근교여행', '수도권']",https://cdn.visitkorea.or.kr/img/call?cmd=VIEW&id=875942a9-c0dd-4323-ae27-ecc592db6fea&thumb,경기도 광명시 하안로288번길 15,37.46224731,126.8813411,47.0
380,딱따구리청소년수련원,경기 양주시,031-837-4461,['레포츠'],https://cdn.visitkorea.or.kr/img/call?cmd=VIEW&id=0795c281-5d83-4269-9c9d-198e7017cbea&thumb,경기도 양주시 광적면 현석로 313-44,37.83271237,126.9414906,48.0
381,왕송호수 캠핑장,경기 의왕시,031-8086-7371,['레포츠'],https://cdn.visitkorea.or.kr/img/call?cmd=VIEW&id=c06da601-8ab2-4e06-a094-f261ddf7599f&thumb,경기도 의왕시 왕송못동로 295,37.30582873,126.95278229999998,49.0
382,곤지암리조트 스키장,경기 광주시,1661-8787,"['경기권', '광주곤지암리조트', '레포츠', '스키장']",https://cdn.visitkorea.or.kr/img/call?cmd=VIEW&id=10329432-29bf-4483-9f98-a4f47344da87&thumb,경기도 광주시 도척면 도척윗로 278,37.3375066,127.2963741,50.0
383,스타힐리조트,경기 남양주시,031-594-1211,"['가족과함께', '겨울 스포츠', '레포츠', '복합레저스포츠', '수도권', '스키장', '스타힐리조트']",https://cdn.visitkorea.or.kr/img/call?cmd=VIEW&id=2cc43a24-cb1a-421f-b38e-3f584dc23703&thumb,경기도 남양주시 화도읍 먹갓로 96,37.6634947,127.2694304,51.0
384,양평물소리길,경기 양평군,031-771-9508,['레포츠'],https://cdn.visitkorea.or.kr/img/call?cmd=VIEW&id=0387ef54-ce8e-41a9-ac80-c96f5122c7c7&thumb,경기도 양평군 양서면 목왕로 55-10,37.54575225,127.3288429,52.0
385,미필스키랜드,경기 성남시,031-713-2002,"['레포츠', '스키', '스키 강습소', '초보탈출']",https://cdn.visitkorea.or.kr/img/call?cmd=VIEW&id=fc18dbcc-ff09-4387-9fca-7ccdb8b58723&thumb,경기도 성남시 분당구 구미로 120,37.3397408,127.1221485,53.0
386,베어스타운리조트 스키장,경기 포천시,031-540-5000,"['가족과함께', '겨울스포츠', '레포츠', '복합레저스포츠', '스키장', '연인과함께']",https://cdn.visitkorea.or.kr/img/call?cmd=VIEW&id=8861b3e3-3ce1-4c06-876c-1e969e8a2a78&thumb,경기도 포천시 내촌면 금강로2536번길 27,37.79991851,127.2451998,54.0
387,시흥 그린웨이,경기 시흥시,031-310-2331,"['레포츠', '산책로', '산책코스', '수변산책로', '자전거길', '자전거코스', '커플데이트']",https://cdn.visitkorea.or.kr/img/call?cmd=VIEW&id=8b994274-4b31-4ecc-9b44-72e33e9fc743&thumb,경기도 시흥시 동서로 287,37.38979099,126.7812554,55.0
388,토토큰바위캠핑장,경기 가평군,010-9787-2139,"['가평캠핑장', '레포츠', '캠핑장', '화악산캠핑장']",https://cdn.visitkorea.or.kr/img/call?cmd=VIEW&id=9fd1ac05-d460-476a-86e0-b7d1e2e0497b&thumb,경기도 가평군 북면 화악산로 1246,37.96217692,127.5278801,56.0
389,동수원 뉴코아 PG휘트니스,경기 수원시,031-231-6550,['레포츠'],https://cdn.visitkorea.or.kr/img/call?cmd=VIEW&id=478744dd-e8e4-4ef9-8cc8-34af91cf8888&thumb,경기도 수원시 팔달구 인계로 154,37.26630686,127.034316,57.0
390,평화누리길 4코스 행주나루길,경기 고양시,031-8075-3409,"['남녀노소', '레포츠', '산책길', '산책로', '산책코스', '산책하기', '산책하기좋은곳']",https://cdn.visitkorea.or.kr/img/call?cmd=VIEW&id=3f1425a2-60f3-41ca-9abc-5d5f3a5b8d86&thumb,경기도 고양시 덕양구 행주로15번길 89,37.59610775,126.8287118,58.0
391,스카이어드벤처,경기 하남시,010-2999-5207,['레포츠'],https://cdn.visitkorea.or.kr/img/call?cmd=VIEW&id=a67c196e-95fd-458f-b4ef-62c50550eba0&thumb,경기도 하남시 미사대로 505,37.55362591,127.2132296,59.0
392,가평TOP랜드 번지점프,경기 가평군,031-582-5372,['레포츠'],https://cdn.visitkorea.or.kr/img/call?cmd=VIEW&id=9ef1dbbe-6f02-4a81-a677-fced959fa056&thumb,경기도 가평군 가평읍 북한강변로 1044-15,37.80604214,127.5260286,60.0
393,한숲스포츠센터,경기 군포시,031-395-1900,['레포츠'],https://cdn.visitkorea.or.kr/img/call?cmd=VIEW&id=abe62d31-54b6-45be-a4ee-4d3c5cdc5f27&thumb,경기도 군포시 산본천로 43-6,37.36067457,126.9281743,61.0
394,양평 카누체험,경기 양평군,010-2046-8667,"['레포츠', '카누선수양성', '카누체험', '힐링']",https://cdn.visitkorea.or.kr/img/call?cmd=VIEW&id=fb6a2a78-6b9b-4c00-8526-549133be0b24&thumb,경기도 양평군 개군면 신내길7번길 37,37.4682398,127.53086299999998,62.0
395,[경기옛길 삼남길 제8길] 오나리길(오산고인돌공원 ~ 맑음터공원),경기 오산시,070-8269-6937,"['레포츠', '산책코스', '오나리길', '오나리길', '오산고인돌공원', '자연환경']",https://cdn.visitkorea.or.kr/img/call?cmd=VIEW&id=75e0ed7a-73e3-4586-93d5-0fc73291684f&thumb,경기도 오산시 금암동,37.1728364,127.0459409,63.0
396,김포스포츠센터(실내수영장),경기 김포시,031-983-8821,['레포츠'],https://cdn.visitkorea.or.kr/img/call?cmd=VIEW&id=ac1d4f8c-bdaf-47f1-a9fb-7feddb8451e6&thumb,경기도 김포시 봉화로181번길 31-20,37.62624013,126.7009209,64.0
397,에어로마스터,경기 화성시,031-356-2023,"['경비행기', '교육', '레포츠', '비행', '클럽', '화성시']",https://cdn.visitkorea.or.kr/img/call?cmd=VIEW&id=38b2fdd1-b003-4174-a2db-c5e203e4e4ae&thumb,경기도 화성시 송산면 삼존리 622-13,37.22496268,126.7701984,65.0
398,미리내캠프 눈썰매장,경기 양평군,1566-3131,"['겨울스포츠', '눈썰매장', '레포츠', '미리내캠프 눈썰매장', '복합레저스포츠']",https://cdn.visitkorea.or.kr/img/call?cmd=VIEW&id=a977e8a3-c397-4820-99b1-a50bd842f019&thumb,경기도 양평군 지평면 월산저수지길 21,37.48098811,127.6497617,66.0
399,안성팜랜드 승마센터 (구. 안성목장 승마센터),경기 안성시,031-8053-7979,"['가족과함께', '레포츠', '승마', '승마레슨', '승마장', '승마체험', '승마캠프', '승마트레킹']",https://cdn.visitkorea.or.kr/img/call?cmd=VIEW&id=e1a339a7-0443-49c8-9ee8-0b064cac407a&thumb,경기도 안성시 공도읍 대신두길 28,36.99208881,127.1944227,67.0
400,여주카라반,경기 여주시,02-2002-9847,"['경기권', '레포츠', '여주카라반', '이색체험', '카라반']",https://cdn.visitkorea.or.kr/img/call?cmd=VIEW&id=a3be2010-92fd-482a-bb75-b70b32c2959f&thumb,경기도 여주시 점동면 선사길 321,37.23807757,127.684189,68.0
401,[경기옛길 영남길 제3길] 구성현길,경기 성남시,031-231-8574,"['경기옛길', '구성현길', '레포츠', '산책코스', '트래킹']",https://cdn.visitkorea.or.kr/img/call?cmd=VIEW&id=0cb65260-b453-4248-af27-3d4b0d0be994&thumb,경기도 성남시 분당구 미금로22번길 6,37.33588233,127.1182402,69.0
402,[경기옛길 삼남길 제9길] 진위고을길(맑음터공원 ~ 원균장군묘),경기 오산시,070-8269-6937,"['경기옛길', '레포츠', '맑음터공원', '삼남길', '진위고을길']",https://cdn.visitkorea.or.kr/img/call?cmd=VIEW&id=4db3a559-4994-4667-ad1f-075e6f828643&thumb,경기도 오산시 오산천로 52,37.14500510000001,127.0677543,70.0
403,남부골프연습장,경기 용인시,031-288-2880,"['골프', '남부골프연습장', '레포츠', '수도권']",https://cdn.visitkorea.or.kr/img/call?cmd=VIEW&id=b199faca-83d1-435b-9e6f-2c4f81cb2e57&thumb,경기도 용인시 기흥구 민속촌로 95,37.26146841,127.1150646,71.0
404,성림스포츠센터,경기 구리시,031-553-2255,['레포츠'],https://cdn.visitkorea.or.kr/img/call?cmd=VIEW&id=6514ae5e-9c33-4f57-8ac1-7bcea9ec77a3&thumb,경기도 구리시 동구릉로 65,37.60594278,127.13385759999998,72.0
405,[경기옛길 영남길 제1길] 달래내고개길,경기 성남시,031-231-8574,"['경기옛길', '달래내고개길', '레포츠', '산책로', '트래킹', '판교박물관]']",https://cdn.visitkorea.or.kr/img/call?cmd=VIEW&id=94964757-37af-40c1-b675-c71485c32702&thumb,경기도 성남시 수정구 옛골로,37.42635402,127.0655119,73.0
406,경기도청소년수련원,경기 안산시,032-886-6900,"['레포츠', '숙박', '안산숙소', '청소년수련원']",https://cdn.visitkorea.or.kr/img/call?cmd=VIEW&id=d2eaa3b7-c082-402b-809e-47c2d8a9a3cf&thumb,경기도 안산시 단원구 선감로 255,37.21515797,126.6421073,74.0
407,안산해피승마클럽,경기 안산시,031-418-5400,"['가족과함께', '경기권', '레포츠', '승마체험', '아이와함께', '안산해피승마클럽']",https://cdn.visitkorea.or.kr/img/call?cmd=VIEW&id=488423ce-b0a4-47d9-8494-d0f911f0dd90&thumb,경기도 안산시 상록구 목장길 36-21,37.31277259,126.8816188,75.0
408,평화누리길 9코스 율곡길,경기 파주시,031-940-4361,"['레포츠', '산책길', '산책로', '산책코스', '산책하기', '산책하기좋은곳', '자연속으로']",https://cdn.visitkorea.or.kr/img/call?cmd=VIEW&id=f86108fd-5294-4d09-8d57-dcb22114be4d&thumb,경기도 파주시 파평면,37.92193589,126.8379492,76.0
409,고초골낚시터,경기 용인시,031-321-6636,"['경기권', '고초골낚시터', '낚시터', '레포츠']",https://cdn.visitkorea.or.kr/img/call?cmd=VIEW&id=a536bede-6dc5-4f2a-9f33-ac2d6c97372f&thumb,경기도 용인시 처인구 원삼면 이원로913번길 19-21,37.1572936,127.2831176,77.0
410,호텔미란다수영장(실내.외),경기 이천시,031-639-5000,"['가족과함께', '레포츠', '수도권', '연인과함께', '호텔미란다수영장']",https://cdn.visitkorea.or.kr/img/call?cmd=VIEW&id=ba72533e-de14-42a3-beb7-da4a21bce4b5&thumb,경기도 이천시 중리천로115번길 45,37.27638756,127.4507682,78.0
411,[경기옛길 삼남길 제6길] 화성효행길 (배양교 ~ 세마교),경기 화성시,070-8269-6937,"['걷기길', '경기옛길', '레포츠', '수도권', '화성효행길']",https://cdn.visitkorea.or.kr/img/call?cmd=VIEW&id=3866ddd1-7716-4e43-8103-3564e7e2309c&thumb,경기도 화성시 배양동,37.2217002,126.9938616,79.0
412,렉스필드 컨트리클럽,경기 여주시,031-880-8700 031-880-0300,['레포츠'],https://cdn.visitkorea.or.kr/img/call?cmd=VIEW&id=e44a6025-32f6-48a7-9340-3ba0688ca6c8&thumb,경기도 여주시 산북면 광여로 1115,37.39889207,127.4313951,80.0
413,분당올림픽스포츠센터 아이스링크,경기 성남시,031-708-7485,"['레포츠', '분당올림픽스포츠센터 아이스링크', '스케이트장']",https://cdn.visitkorea.or.kr/img/call?cmd=VIEW&id=d30c98bc-7202-4a18-8f1d-a81017cfe64e&thumb,경기도 성남시 분당구 중앙공원로 35,37.38086956,127.12866409999998,81.0
414,아시아나 컨트리클럽,경기 용인시,031-334-8800,['레포츠'],https://cdn.visitkorea.or.kr/img/call?cmd=VIEW&id=undefined&thumb,경기도 용인시 처인구 양지면 양대로 290,37.2546997,127.2926706,82.0
415,[구리 둘레길 1코스] 역사와 자연이 살아있는 구리 둘레길,경기 구리시,031-550-2241,"['걷기코스', '구리둘레길', '레포츠', '수도권']",https://cdn.visitkorea.or.kr/img/call?cmd=VIEW&id=064ad012-5b57-4db2-8d1c-8f5c117ee24c&thumb,경기도 구리시 장자호수공원,37.5851107,127.1418934,83.0
416,한탄강,경기 연천군,031-833-0030,"['경기권', '레포츠', '민물낚시', '연천낚시터', '한탄강낚시']",https://cdn.visitkorea.or.kr/img/call?cmd=VIEW&id=4310a91a-e762-4f5b-ac16-799c452319da&thumb,경기도 연천군 전곡읍 선사로,38.02667149,127.0720691,84.0
417,[경기옛길 의주길 제4길] 파주고을길,경기 파주시,031-231-8574,"['가족과함께', '경기옛길', '레포츠', '산책코스', '산책하기좋은곳', '역사속으로']",https://cdn.visitkorea.or.kr/img/call?cmd=VIEW&id=29a6319d-368f-416e-8b0a-a624ebb77d51&thumb,경기도 파주시 광탄면,37.77615422,126.8512579,85.0
418,의정부시 청소년수련관,경기 의정부시,031-828-9501,['레포츠'],https://cdn.visitkorea.or.kr/img/call?cmd=VIEW&id=21866d95-51d4-45f2-a5d4-a9e6e9b76a84&thumb,경기도 의정부시 의정로 27,37.73517724,127.0338894,86.0
419,[경기옛길 삼남길 제2길] 인덕원길(인덕원옛터 ~ 백운호수입구),경기 안양시,070-8269-6937,"['경기옛길', '레포츠', '산책코스', '인덕원길', '트래킹']",https://cdn.visitkorea.or.kr/img/call?cmd=VIEW&id=e41cf942-7b52-45be-a826-4ecc1c8a70ce&thumb,경기도 안양시 동안구 인덕원로30번길 14,37.40194941,126.9751006,87.0
420,김포사계절썰매장,경기 김포시,031-981-7300,"['겨울스포츠', '김포사계절썰매장', '눈썰매장', '레포츠', '복합레저스포츠', '사계절썰매장']",https://cdn.visitkorea.or.kr/img/call?cmd=VIEW&id=799ca589-b9ef-4be6-aabb-c075c43dfaf7&thumb,경기도 김포시 월곶면 용강로13번길 38,37.72080378,126.552204,88.0
421,안양실내체육관,경기 안양시,031-389-5228,"['경기권', '레포츠', '스포츠센터', '안양실내체육관']",https://cdn.visitkorea.or.kr/img/call?cmd=VIEW&id=82c4109c-f375-49a6-bf6d-fc61172141bb&thumb,경기도 안양시 동안구 평촌대로 389,37.40629131,126.9487366,89.0
422,[경기옛길 영남길 제4길] 석성산길,경기 용인시,031-231-8574,"['걷기코스', '레포츠', '석성산길', '수도권', '트래킹']",https://cdn.visitkorea.or.kr/img/call?cmd=VIEW&id=055ebc72-a0ad-4493-b6a8-655dba8804d9&thumb,경기도 용인시 기흥구 동백중앙로 239,37.27496587,127.1500328,90.0
423,[경기옛길 삼남길 제7길] 독산성길(세마교 ~ 오산고인돌공원),경기 화성시,070-8269-6937,"['경기옛길', '경기트래킹', '레포츠', '삼남길', '트래킹', '트래킹코스']",https://cdn.visitkorea.or.kr/img/call?cmd=VIEW&id=d9269400-fc68-4d05-8338-fd4457d8d36a&thumb,경기도 화성시 안녕동,37.20310255,126.9942236,91.0
424,코오롱스포렉스(분당점),경기 성남시,031-780-7777,['레포츠'],https://cdn.visitkorea.or.kr/img/call?cmd=VIEW&id=925d4c3a-866e-444a-8f85-05a5350358d9&thumb,경기도 성남시 분당구 탄천로 27,37.39502725,127.1229819,92.0
425,서울랜드 눈썰매장,경기,02-509-6000,"['가족과함께', '겨울레포츠', '겨울방학', '겨울스포츠', '눈썰매장', '레포츠', '복합레저스포츠']",https://cdn.visitkorea.or.kr/img/call?cmd=VIEW&id=91e85d69-a541-4f29-926d-b658ab42d6f6&thumb,경기도 과천시 광명로 181,37.43654743,127.0240449,93.0
426,용인레저스포츠 야외수영장,경기 용인시,031-336-0504,"['레포츠', '민박', '수영장', '야영장', '용인시']",https://cdn.visitkorea.or.kr/img/call?cmd=VIEW&id=e2e996f4-8d5c-4348-afa3-1b41bb379180&thumb,경기도 용인시 처인구 이동읍 이원로 495,37.16762404,127.2401253,94.0
427,평화누리길 2코스 조강철책길,경기 김포시,031-980-2481,"['남녀노소', '레포츠', '산책길', '산책로', '산책코스', '산책하기', '산책하기좋은곳']",https://cdn.visitkorea.or.kr/img/call?cmd=VIEW&id=299f57c9-da19-4f77-a58b-16a7e1746729&thumb,경기도 김포시 월곶면 포내리,37.72216581,126.5347665,95.0
428,쇠꼴마을 눈썰매장,경기 파주시,031-959-0123,"['눈썰매장', '레포츠', '쇠꼴마을 눈썰매장']",https://cdn.visitkorea.or.kr/img/call?cmd=VIEW&id=d1378228-c93f-4a19-876d-03660c57e548&thumb,경기도 파주시 법원읍 술이홀로1333번길 164,37.88229941,126.8698929,96.0
429,양평한화리조트 눈썰매장,경기 양평군,031-772-3811,"['겨울스포츠', '눈썰매장', '레포츠', '복합레저스포츠', '아이와함께', '양평한화리조트']",https://cdn.visitkorea.or.kr/img/call?cmd=VIEW&id=0fba3e26-f97c-48c5-a3bc-93b77ee221f4&thumb,경기도 양평군 옥천면 신촌길 188,37.5669431,127.4569926,97.0
430,[경기옛길 삼남길 제5길] 중복들길(서호공원입구 ~ 배양교),경기 수원시,070-8269-6937,"['경기옛길', '경기트래킹', '레포츠', '삼남길', '트래킹', '트래킹코스']",https://cdn.visitkorea.or.kr/img/call?cmd=VIEW&id=4717e1c8-b0fc-44f6-8f4b-cb86a1cac262&thumb,경기도 수원시 팔달구 수성로,37.2881678,127.0023402,98.0
431,율동공원번지점프,경기 성남시,031-704-6266,"['레포츠', '번지점프', '성남번지점프', '이색체험']",https://cdn.visitkorea.or.kr/img/call?cmd=VIEW&id=8c28ae02-2829-42e2-8fa9-1dd284b45376&thumb,경기도 성남시 분당구 문정로 145,37.38335593,127.150005,99.0
432,베르아델 승마클럽,경기 안산시,032-882-2255,"['가족과함께', '레포츠', '승마', '승마장', '승마체험', '승마캠프', '승마트레킹']",https://cdn.visitkorea.or.kr/img/call?cmd=VIEW&id=4c490adb-21ad-4b59-9417-dfc7a0e01098&thumb,경기도 안산시 단원구 부흥로 376,37.21378124,126.6090332,100.0
433,뒷방울 저수지,경기 시흥시,031-498-0737,"['경기권', '낚시체험', '낚시터', '레포츠']",https://cdn.visitkorea.or.kr/img/call?cmd=VIEW&id=b5e4251b-386e-453e-a766-50658ca09d55&thumb,경기도 시흥시 뒷방울길 147,37.37045536,126.7507241,101.0
434,안양컨트리클럽,경기 군포시,031-460-3301,['레포츠'],https://cdn.visitkorea.or.kr/img/call?cmd=VIEW&id=977dcb5a-a879-4a88-8979-c4ce355f31cb&thumb,경기도 군포시 군포로 364,37.3394048,126.9392884,102.0
435,하니랜드 눈썰매장,경기 파주시,031-945-2250,"['겨울스포츠', '눈썰매장', '레포츠', '복합레저스포츠', '아이와함께', '익스트림스포츠']",https://cdn.visitkorea.or.kr/img/call?cmd=VIEW&id=efc27610-328b-4be3-897c-ea6044aa96a8&thumb,경기도 파주시 조리읍 장곡로 218,37.74984994,126.8335561,103.0
436,남수원컨트리클럽,경기 화성시,031-229-9300,"['가족과함께', '건강여행', '골프', '골프장', '골프클럽', '레포츠', '스포츠']",https://cdn.visitkorea.or.kr/img/call?cmd=VIEW&id=9778b5b7-9903-4b60-aba3-f578c1b6f040&thumb,경기도 화성시 황계남길 21-10,37.21444511,127.0080122,104.0
437,평화누리길 6코스 출판도시길,경기 고양시,031-956-8306,"['도보여행', '도보코스', '레포츠', '산책', '산책길', '산책로', '산책코스', '산책하기']",https://cdn.visitkorea.or.kr/img/call?cmd=VIEW&id=b010b625-b51e-4cfe-980d-bdd73c705d97&thumb,경기도 고양시 일산서구,37.67519827,126.75066909999998,105.0
438,평택시 무봉산청소년수련원,경기 평택시,031-610-4416,"['경기권', '레포츠', '무봉산', '청소년수련원', '평택']",https://cdn.visitkorea.or.kr/img/call?cmd=VIEW&id=999622c7-435b-4c53-a289-3a46f983d09f&thumb,경기도 평택시 진위면 진위로 181-94,37.10584894,127.1012038,106.0
439,평화누리길 7코스 헤이리길,경기 파주시,031-940-4361,"['레포츠', '산책길', '산책로', '산책코스', '산책하기', '산책하기좋은곳', '자연속으로']",https://cdn.visitkorea.or.kr/img/call?cmd=VIEW&id=a3e45f80-a865-4fea-8c3b-d1950540cd8e&thumb,경기도 파주시 탄현면 성동리,37.78446488,126.6781165,107.0
440,양지파인리조트 스키장,경기 용인시,031-338-2001,"['가족과함께', '겨울스포츠', '레포츠', '복합레저스포츠', '스키장', '익스트림스포츠']",https://cdn.visitkorea.or.kr/img/call?cmd=VIEW&id=282b9e6d-01c8-416b-b041-c0c8f7b02e72&thumb,경기도 용인시 처인구 양지면 남평로 112,37.2103839,127.2937759,108.0
441,뉴스프링빌 컨트리클럽,경기 이천시,031-630-7575,"['경기권', '골프장', '뉴스프링빌컨트리클럽', '레포츠']",https://cdn.visitkorea.or.kr/img/call?cmd=VIEW&id=a14532e6-68cd-4d15-9c74-62aa78b2c204&thumb,경기도 이천시 모가면 사실로527번길 158,37.15426859,127.4314051,109.0
442,평택시 실내수영장,경기 평택시,031-8024-3360,"['레포츠', '실내수영장', '평택']",https://cdn.visitkorea.or.kr/img/call?cmd=VIEW&id=f141c956-bd0e-4162-a90b-d7bbcfc21a55&thumb,경기도 평택시 평남로 616,36.98756543,127.106511,110.0
443,평화누리길 8코스 반구정길,경기 파주시,031-940-4361,"['레포츠', '산책길', '산책로', '산책코스', '산책하기', '산책하기좋은곳', '자연속으로']",https://cdn.visitkorea.or.kr/img/call?cmd=VIEW&id=1ef09981-bc58-4351-a95d-33bc9408ada4&thumb,경기도 파주시 문산읍,37.85699359,126.7908612,111.0
444,대부도해맞이승마클럽,경기 안산시,032-886-0008,['레포츠'],https://cdn.visitkorea.or.kr/img/call?cmd=VIEW&id=99ab7c39-ab05-4ef6-bbea-be69d4cf4e7e&thumb,경기도 안산시 단원구 영전로 262-20,37.24889371,126.6095979,112.0
445,[시흥 늠내길 제1코스] 숲길,경기 시흥시,031-310-2413,"['늠내길', '레포츠', '수도권', '숲길', '시흥늠내길제1코스', '트레킹']",https://cdn.visitkorea.or.kr/img/call?cmd=VIEW&id=1931a13c-a8eb-424e-afb8-f0dacf8dfbc8&thumb,경기도 시흥시 시청로,37.38233728,126.8006729,113.0
446,평화누리 캠핑장,경기 파주시,1670-3856,['레포츠'],https://cdn.visitkorea.or.kr/img/call?cmd=VIEW&id=3b5f55c5-c0cb-41d7-b81f-32567dc9cef9&thumb,경기도 파주시 문산읍 임진각로 148-40,37.89204346,126.7447929,114.0
447,소풍캠핑장,경기 가평군,010-5273-6445,"['가족여행', '계곡', '레포츠', '연중무휴', '캠핑장', '힐링']",https://cdn.visitkorea.or.kr/img/call?cmd=VIEW&id=91464d74-7396-4da4-a35b-e33ba5091e69&thumb,경기도 가평군 설악면 가일리 108,37.5949187,127.508512,115.0
448,용담저수지(사암지),경기 용인시,031-322-7860,"['가물치', '낚시', '레포츠', '사암지', '용담저수지', '저수지', '저수지']",https://cdn.visitkorea.or.kr/img/call?cmd=VIEW&id=99ea1a95-0c91-4a98-894c-9d2c37b21ddd&thumb,경기도 용인시 처인구 원삼면 원양로 382-2,37.19178744,127.3064023,116.0
449,여주청소년수련원,경기 여주시,031-886-2200,['레포츠'],https://cdn.visitkorea.or.kr/img/call?cmd=VIEW&id=8e866e4e-c098-4acf-80cf-4dbf7d1c9e47&thumb,경기도 여주시 강천면 부평로 3,37.25758772,127.7538137,117.0
450,덕우저수지,경기 화성시,031-369-6026,"['경기권', '레포츠', '민물낚시', '화성낚시터']",https://cdn.visitkorea.or.kr/img/call?cmd=VIEW&id=f6922a03-bdae-4317-858d-46704cef4682&thumb,경기도 화성시 봉담읍 삼천병마로 709,37.17124007,126.9359644,118.0
451,양평 미래항공스포츠,경기 양평군,031-774-8478,"['남녀노소', '레포츠', '복합레저스포츠', '연인과함께', '이색체험', '자유비행']",https://cdn.visitkorea.or.kr/img/call?cmd=VIEW&id=7555a479-8eb4-4ccf-8c9b-89c0e230185e&thumb,경기도 양평군 옥천면 동막길 49,37.55938707,127.4637122,119.0
452,수원클라이밍센터,경기 수원시,031-8025-2016,"['겨울스포츠', '레포츠', '아이와함께', '암벽', '암벽등반', '암벽체험', '익스트림스포츠']",https://cdn.visitkorea.or.kr/img/call?cmd=VIEW&id=ac49227f-1758-438e-9747-372527538b32&thumb,경기도 수원시 팔달구 월드컵로357번길 23-18,37.28813791,127.0306172,120.0
453,[경기옛길 영남길 제2길] 낙생역길,경기 성남시,031-231-8574,"['경기옛길', '낙생역길', '레포츠', '산책코스', '트래킹']",https://cdn.visitkorea.or.kr/img/call?cmd=VIEW&id=8cf0a3d2-bf29-4336-9634-fa607b480a17&thumb,경기도 성남시 분당구 판교역로,37.39803198,127.1113278,121.0
454,고삼호수(고삼지),경기 안성시,031-672-3481,"['고삼지', '고삼호수', '낚시', '레포츠', '수도권', '자연풍경']",https://cdn.visitkorea.or.kr/img/call?cmd=VIEW&id=8d20ca57-b8b5-4d80-8c9a-666c8f93b92d&thumb,경기도 안성시 고삼면 향림길 50,37.08850669,127.284972,122.0
455,웨이크베이,경기 가평군,1577-4290,['레포츠'],https://cdn.visitkorea.or.kr/img/call?cmd=VIEW&id=bb03f6e0-144c-4290-bbf2-c02b3d144eeb&thumb,경기도 가평군 설악면 유명로 2304-34,37.70594724,127.4491823,123.0
456,솔모로 컨트리클럽,경기 여주시,031-880-7000,['레포츠'],https://cdn.visitkorea.or.kr/img/call?cmd=VIEW&id=36b80112-3d3c-43bc-8b8b-4f938caaded7&thumb,경기도 여주시 가남읍 솔모로그린길 171,37.19201223,127.5883362,124.0
457,[경기옛길 삼남길 제3길] 모락산길(백운호수입구 ~ 지지대비),경기 의왕시,070-8269-6937,"['경기옛길', '레포츠', '모락산길', '산책코스', '트래킹']",https://cdn.visitkorea.or.kr/img/call?cmd=VIEW&id=41d36e5e-8ed4-4358-bf64-61e4300057d1&thumb,경기도 의왕시 학의동,37.37122516,127.0111315,125.0
458,기천지(기천저수지),경기 화성시,031-370-3900,"['경기권', '기천저수지', '낚시터', '레포츠']",https://cdn.visitkorea.or.kr/img/call?cmd=VIEW&id=ba960245-a362-4f48-969c-de742da41aea&thumb,경기도 화성시 봉담읍 상기리,37.20550886,126.9205196,126.0
459,한탄강관광지 세계캠핑체험장,경기 연천군,031-835-7100,"['가족여행', '경기권', '레포츠', '연천한탄강관광지', '이색체험', '캠핑장', '휴식여행']",https://cdn.visitkorea.or.kr/img/call?cmd=VIEW&id=7cb6a1ca-9d8a-4154-b998-242315f06e22&thumb,경기도 연천군 전곡읍 선사로 123,38.00737616,127.062135,127.0
460,발리오스 컨트리클럽,경기 화성시,031-352-5061,['레포츠'],https://cdn.visitkorea.or.kr/img/call?cmd=VIEW&id=dad2e83d-f302-49d4-a2a3-fc3dd02a74ae&thumb,경기도 화성시 팔탄면 3.1만세로 641-28,37.11654859,126.860409,128.0
461,평화누리길 11코스 임진적벽길,경기 연천군,031-839-2063,"['경치좋은곳', '레포츠', '산책길', '산책로', '산책코스', '산책하기', '산책하기좋은곳']",https://cdn.visitkorea.or.kr/img/call?cmd=VIEW&id=9e332733-4b54-4ce6-afcb-d79689621c52&thumb,경기도 연천군 미산면 숭의전로 382-27,38.02371328,126.9730162,129.0
462,김포시청소년수련원,경기 김포시,031-989-6700,"['경기권', '김포', '레포츠', '청소년수련원']",https://cdn.visitkorea.or.kr/img/call?cmd=VIEW&id=187ab248-be38-4eef-b777-489428fe8217&thumb,경기도 김포시 월곶면 용강로13번길 38,37.72080378,126.552204,130.0
463,하니랜드 워터파크,경기 파주시,031-945-2250,['레포츠'],https://cdn.visitkorea.or.kr/img/call?cmd=VIEW&id=071ee935-6827-494b-a5e2-8d4fb7eae15c&thumb,경기도 파주시 조리읍 장곡로 218,37.74984994,126.8335561,131.0
464,수원월드컵경기장,경기 수원시,031-202-2002,"['경기권', '레포츠', '수원월드컵경기장', '월드컵경기장']",https://cdn.visitkorea.or.kr/img/call?cmd=VIEW&id=55ac331b-4160-4428-af92-0c23b7c183d7&thumb,경기도 수원시 팔달구 월드컵로 310,37.2864229,127.0359666,132.0
465,어천저수지,경기 화성시,031-291-3665,"['레포츠', '민물낚시', '화성낚시터', '화성저수지']",https://cdn.visitkorea.or.kr/img/call?cmd=VIEW&id=0a657a25-196e-4e06-8baa-d76d8945e147&thumb,경기도 화성시 매송면 어사로 47,37.25539685,126.9145467,133.0
466,한화리조트 플라자CC 용인,경기 용인시,031-332-1122,"['경기권', '골프장', '레포츠', '한화리조트']",https://cdn.visitkorea.or.kr/img/call?cmd=VIEW&id=6bcbe51e-e730-4a78-92b7-99c111847a34&thumb,경기도 용인시 처인구 남사면 봉무로153번길 79,37.13362839,127.1469823,134.0
467,북동저수지(대부도),경기 안산시,032-882-9033,"['대부도낚시터', '레포츠', '민물낚시']",https://cdn.visitkorea.or.kr/img/call?cmd=VIEW&id=d708d286-8735-4e86-a9d6-d4072c496143&thumb,경기도 안산시 단원구 뻐꾹산길,37.25413843,126.5804732,135.0
468,극동스포랜드(실내수영장),경기 안산시,031-484-0061,"['레포츠', '수영장', '실내수영장', '안산수영장']",https://cdn.visitkorea.or.kr/img/call?cmd=VIEW&id=cd659748-9dc7-4766-9fb0-d9170c94bb51&thumb,경기도 안산시 단원구 초지동로 7,37.30431595,126.8162043,136.0
469,가평베네스트 골프클럽,경기 가평군,031-589-8001,"['가평베네스트골프클럽', '경기권', '골프장', '레포츠']",https://cdn.visitkorea.or.kr/img/call?cmd=VIEW&id=8e3c9410-68af-4255-822e-b43e7c03b7b7&thumb,경기도 가평군 상면 둔덕말길 232,37.7971308,127.30544640000002,137.0
470,[경기옛길 영남길 제5길] 수여선옛길,경기 용인시,031-231-8574,"['경기옛길', '레포츠', '산책코스', '수여선옛길', '트래킹']",https://cdn.visitkorea.or.kr/img/call?cmd=VIEW&id=08f9487b-3be4-4c88-b793-42a5cac0e972&thumb,경기도 용인시 처인구 중부대로,37.24408459,127.3171469,138.0
471,[경기옛길 의주길 제5길] 임진나루길,경기 파주시,031-231-8574,"['가족과함께', '경기옛길', '레포츠', '산책코스', '산책하기좋은곳', '임진나루길']",https://cdn.visitkorea.or.kr/img/call?cmd=VIEW&id=591e76a9-a512-47e8-b7b5-8ac285bdb63b&thumb,경기도 파주시 문산읍,37.85699359,126.7908612,139.0
472,중부눈썰매장,경기 광주시,031-763-2752,"['가족과함께', '겨울스포츠', '눈썰매장', '레포츠', '복합레저스포츠', '아이와함께']",https://cdn.visitkorea.or.kr/img/call?cmd=VIEW&id=2bcc148b-a347-4e26-9ab5-fbfe56e2a04c&thumb,경기도 광주시 곤지암읍 경충대로 451,37.33828164,127.35742890000002,140.0
473,동동카누 (관광두레 주민사업체),경기 양평군,010-3596-7635,"['경험', '관광두레', '관광두레_주민사업체', '남녀노소', '레포츠', '매력&힐링']",https://cdn.visitkorea.or.kr/img/call?cmd=VIEW&id=c7a70e5e-e57f-43ff-bc59-829b99630791&thumb,경기도 양평군 개군면 공세리 389번지,37.46537155,127.5455813,141.0
474,풍차수상레저,경기 남양주시,031-576-8903,"['가족여행', '경기권', '레포츠', '서울근교여행', '이색체험', '풍차수상레저']",https://cdn.visitkorea.or.kr/img/call?cmd=VIEW&id=undefined&thumb,경기도 남양주시 조안면 북한강로 876,37.59464303,127.339314,142.0
475,양지 파인골프클럽,경기 용인시,031-338-2001,['레포츠'],https://cdn.visitkorea.or.kr/img/call?cmd=VIEW&id=f9673d0d-9c28-43cf-ab1b-9ead91202a6f&thumb,경기도 용인시 처인구 양지면 남평로 112,37.2103839,127.2937759,143.0
476,가평 레이크리조트,경기 가평군,010-4110-2446,['레포츠'],https://cdn.visitkorea.or.kr/img/call?cmd=VIEW&id=5307d5f6-d3e0-49ed-945f-3076389e7e05&thumb,경기도 가평군 설악면 유명로 2570,37.72157886,127.4280087,144.0
477,송골매(패러글라이딩 스쿨),경기 용인시,031-321-3005,"['레포츠', '스쿨', '용인시', '패러글라이더', '활공장']",https://cdn.visitkorea.or.kr/img/call?cmd=VIEW&id=13b8ebd7-48f4-4e96-8b7f-5af6176fb169&thumb,경기도 용인시 처인구 모현읍 초부로 210,37.31448953,127.26399209999998,145.0
478,베어스타운리조트 수영장,경기 포천시,031-540-5131,"['가족과함께', '레포츠', '베어스타운리조트', '수영장', '여름피서지', '코코몽']",https://cdn.visitkorea.or.kr/img/call?cmd=VIEW&id=6e7ea15d-4a9d-4f7a-b9b1-8e68d2245cfd&thumb,경기도 포천시 내촌면 금강로2536번길 27,37.79991851,127.2451998,146.0
479,평화누리길 3코스 한강철책길,경기 김포시,031-980-2481,"['남녀노소', '레포츠', '산책길', '산책로', '산책코스', '산책하기', '산책하기좋은곳']",https://cdn.visitkorea.or.kr/img/call?cmd=VIEW&id=12bb7533-fd92-4630-976b-a8ee5c84b55c&thumb,경기도 김포시 하성면 평화공원로 139,37.74325099,126.5940678,147.0
480,"[경기옛길 영남길 제6길] 은이성지, 마애불길",경기 용인시,031-231-8574,"['경기옛길', '레포츠', '산책코스', '은이성지, 마애불길', '트래킹']",https://cdn.visitkorea.or.kr/img/call?cmd=VIEW&id=4d59706f-d00c-4274-af92-190b06699038&thumb,경기도 용인시 처인구 양지면 남곡로 92,37.22685251,127.2785946,148.0
481,송라저수지,경기 화성시,031-295-9949,"['레포츠', '민물낚시', '화성낚시터']",https://cdn.visitkorea.or.kr/img/call?cmd=VIEW&id=3d35874a-b05d-4344-a8e3-f3c6acee3e05&thumb,경기도 화성시 매송면 매송북길 179,37.28432384,126.9017394,149.0
482,GRC 국제 무선모형 자동차 트랙,경기 김포시,010-6229-3567,['레포츠'],https://cdn.visitkorea.or.kr/img/call?cmd=VIEW&id=750c9742-5064-4649-9034-496113c6e67a&thumb,경기도 김포시 통진읍 김포대로 1966,37.68028672,126.6249418,150.0
483,분당 그린피아골프,경기 성남시,031-606-9955,['레포츠'],https://cdn.visitkorea.or.kr/img/call?cmd=VIEW&id=cb288fea-a785-44b8-9aa6-1a075312bf63&thumb,경기도 성남시 분당구 새마을로 255,37.38968887,127.15564270000002,151.0
484,[시흥 늠내길 제2코스] 갯골길,경기 시흥시,031-310-2413,['레포츠'],https://cdn.visitkorea.or.kr/img/call?cmd=VIEW&id=fec7cade-ef39-4007-862e-88f2ecf0bcfa&thumb,경기도 시흥시 장곡동,37.37985686,126.7831156,152.0
485,J퍼블릭,경기 파주시,031-8071-0808,"['골프', '골프리조트', '골프장', '골프클럽', '레저스포츠', '레포츠', '복합레저스포츠']",https://cdn.visitkorea.or.kr/img/call?cmd=VIEW&id=0724f2b1-e284-4e07-aaa0-f1378af22fc6&thumb,경기도 파주시 조리읍 장곡로 100,37.74969715,126.8445921,153.0
486,대성저수지,경기 화성시,031-352-7935,"['레포츠', '붕어', '잉어', '저수지', '화성시']",https://cdn.visitkorea.or.kr/img/call?cmd=VIEW&id=5333012a-c973-400c-addc-4b7afc29580b&thumb,경기도 화성시 팔탄면 녹막말길 133-22,37.17410742,126.8706995,154.0
487,[구리 둘레길 2코스] 구릉산과 갈매마을을 잇는 둘레길,경기 구리시,031-550-2241,['레포츠'],https://cdn.visitkorea.or.kr/img/call?cmd=VIEW&id=8a73a4f5-24a8-4c91-861f-008eb6c4497a&thumb,경기도 구리시 교문동,37.5869736,127.1341715,155.0
488,유네스코평화센터,경기 이천시,031-638-9051,"['레포츠', '유네스코', '유네스코평화센터', '이색체험', '이천']",https://cdn.visitkorea.or.kr/img/call?cmd=VIEW&id=41ac32e6-2499-43ef-92cc-3d1f133c7a5c&thumb,경기도 이천시 호법면 덕평로470번길 167,37.20135278,127.3910156,156.0
489,한강수상레저,경기 가평군,031-585-8554,['레포츠'],https://cdn.visitkorea.or.kr/img/call?cmd=VIEW&id=a6dfd80b-4f46-4df0-91f5-58eaa3a31e48&thumb,경기도 가평군 설악면 유명로 2430,37.71484994,127.4409301,157.0
490,백학저수지,경기 연천군,031-835-5470,"['레포츠', '민물낚시', '연천낚시터', '연천저수지']",https://cdn.visitkorea.or.kr/img/call?cmd=VIEW&id=a41b6f1a-a3c8-4ac8-92f3-59917e5badc3&thumb,경기도 연천군 백학면 저수지길 21,38.032232,126.9250483,158.0
491,[경기옛길 의주길 제1길] 벽제관길,경기 고양시,031-231-8574,"['경기옛길', '레포츠', '벽제관길', '산책코스', '트래킹']",https://cdn.visitkorea.or.kr/img/call?cmd=VIEW&id=7f0af1e4-6995-44e6-bad1-215091cf3980&thumb,경기도 고양시 덕양구 삼송로,37.65415351,126.9015366,159.0
492,[북한산 둘레길] 21 우이령길,경기 양주시,02-998-8365,['레포츠'],https://cdn.visitkorea.or.kr/img/call?cmd=VIEW&id=5e042c04-3084-4cf0-9de9-7ed655c528cf&thumb,경기도 양주시 장흥면 교현리,37.6976213,126.9849827,160.0
493,NFC(축구 국가대표팀 트레이닝 센터),경기 파주시,031-940-3317 031-940-3386,"['가족과함께', '견학프로그램', '교육여행', '교육프로그램', '국가대표', '레포츠']",https://cdn.visitkorea.or.kr/img/call?cmd=VIEW&id=b3fddaf6-7d5d-477b-ac04-bd9e42cc5631&thumb,경기도 파주시 탄현면 필승로 368,37.77560875,126.6852308,161.0
494,리버랜드,경기 가평군,031-585-5526,"['레포츠', '리버랜드', '모터보트', '바나나보트', '수상스키', '청평호']",https://cdn.visitkorea.or.kr/img/call?cmd=VIEW&id=94824a60-a2e5-4103-a9b0-92e2ece3f409&thumb,경기도 가평군 설악면 유명로 2320,37.70822946,127.4489752,162.0
495,동방저수지 (방농장),경기 화성시,031-354-9516,"['레포츠', '민물낚시', '붕어', '잉어', '저수지']",https://cdn.visitkorea.or.kr/img/call?cmd=VIEW&id=f090849d-4aac-44a9-b60d-db3092de2ee6&thumb,경기도 화성시 팔탄면 노하길116번길 195,37.15184631,126.8627232,163.0
496,아난티클럽 서울,경기 가평군,031-589-3000,['레포츠'],https://cdn.visitkorea.or.kr/img/call?cmd=VIEW&id=61c236f2-c683-4147-8d92-42b48e6d450b&thumb,경기도 가평군 설악면 유명로 961-34,37.62011977,127.482404,164.0
497,광명시민체육관 실내경기장,경기 광명시,02-2680-2888,"['경기권', '광명시민체육관', '광명시민체육관실내경기장', '레포츠', '실내경기장']",https://cdn.visitkorea.or.kr/img/call?cmd=VIEW&id=03aba4ba-ad5f-42b5-807c-b1dbdef9b3c0&thumb,경기도 광명시 오리로 703,37.46251993,126.8711626,165.0
498,신촌낚시터,경기 화성시,031-296-5751,"['경기권', '레포츠', '민물낚시', '화성낚시']",https://cdn.visitkorea.or.kr/img/call?cmd=VIEW&id=8eda3fc3-87e1-4126-a54c-1be66f7f0aa9&thumb,경기도 화성시 매송면 매송북길 282,37.28683811,126.9103754,166.0
499,[경기옛길 영남길 제9길] 죽산성지순례길,경기 안성시,031-231-8574,"['경기옛길', '레포츠', '산책코스', '죽산성지순례길', '트래킹']",https://cdn.visitkorea.or.kr/img/call?cmd=VIEW&id=66e2b6c2-7a39-4980-84ec-21397544f852&thumb,경기도 안성시 죽산면 죽산초교길,37.07711817,127.420989,167.0
500,1.2.3 골프클럽,경기 고양시,123 02-359-0123,['레포츠'],https://cdn.visitkorea.or.kr/img/call?cmd=VIEW&id=a543f3eb-f9ed-4823-bd3d-6669b0d60704&thumb,경기도 고양시 덕양구 통일로 43-168,37.64140522,126.9030492,168.0
501,[시흥 늠내길 제3코스] 옛길,경기 시흥시,031-310-2413,['레포츠'],https://cdn.visitkorea.or.kr/img/call?cmd=VIEW&id=51c57577-300a-48d1-8f24-96692b46dcba&thumb,경기도 시흥시 대야동,37.44304607,126.78853829999998,169.0
502,한국패러글라이딩학교,경기 용인시,031-322-2676,"['낙하산', '레포츠', '수도권', '패러글라이더', '한국패러글라이딩학교', '행글라이더']",https://cdn.visitkorea.or.kr/img/call?cmd=VIEW&id=0e04aadb-c63c-4e1c-b223-a41dc11de8b4&thumb,경기도 용인시 처인구 모현면 초부로 197,37.31457182,127.2626031,170.0
503,리베라컨트리클럽,경기 화성시,031-376-6711,['레포츠'],https://cdn.visitkorea.or.kr/img/call?cmd=VIEW&id=a3c1c67d-fee5-499f-8ace-ea9dc2c248d6&thumb,경기도 화성시 중리길 183,37.19029602,127.1128196,171.0
504,덕평수련원,경기 이천시,031-638-9631,"['경기권', '레포츠', '이천', '청소년수련원']",https://cdn.visitkorea.or.kr/img/call?cmd=VIEW&id=2dfc213d-0af9-4b5f-bb72-6bf9e8951393&thumb,경기도 이천시 호법면 장자터로 114-127,37.18374287,127.3915125,172.0
505,[경기옛길 의주길 제3길] 쌍미륵길,경기 파주시,031-231-8574,"['경기옛길', '레포츠', '산책코스', '산책하기좋은곳', '쌍미륵길', '역사속으로']",https://cdn.visitkorea.or.kr/img/call?cmd=VIEW&id=810e545a-bd8f-4666-b633-457f8d67eea9&thumb,경기도 파주시 광탄면,37.77615422,126.8512579,173.0
506,"송전지(이동, 어비리저수지 관광좌대)",경기 용인시,031-336-7312,"['경기권', '레포츠', '민물낚시', '용인낚시터', '용인저수지']",https://cdn.visitkorea.or.kr/img/call?cmd=VIEW&id=296bac57-7767-4fc9-babe-64105258773a&thumb,경기도 용인시 처인구 이동읍 경기동로842번길 15,37.12612012,127.2039098,174.0
507,YWCA 버들캠프장,경기 시흥시,031-312-2808,['레포츠'],https://cdn.visitkorea.or.kr/img/call?cmd=VIEW&id=5cfa2b2a-b21f-4d11-8bc0-b58829e64bca&thumb,경기도 시흥시 하우로 167,37.46865753,126.7820148,175.0
508,금광지,경기 안성시,031-678-3706,"['금광지', '낚시', '레포츠', '수도권', '저수지']",https://cdn.visitkorea.or.kr/img/call?cmd=VIEW&id=3b9b8aeb-c1f9-4e56-84c1-738303f2e8cf&thumb,경기도 안성시 금광면 금광리,36.99212402,127.3280395,176.0
509,[경기옛길 의주길 제2길] 고양관청길,경기 고양시,031-231-8574,"['경기옛길', '고양관청길', '레포츠', '산책코스', '트래킹']",https://cdn.visitkorea.or.kr/img/call?cmd=VIEW&id=5c67d1b2-ae5a-46c7-b893-321121a8d319&thumb,경기도 고양시 덕양구 벽제관로,37.70382951,126.9014365,177.0
510,베어스타운리조트 골프장,경기 포천시,031-540-5130,['레포츠'],https://cdn.visitkorea.or.kr/img/call?cmd=VIEW&id=97efea5c-1ed2-4180-8a98-50142c752596&thumb,경기도 포천시 내촌면 금강로2536번길 27,37.79991851,127.2451998,178.0
511,안양종합운동장(실내.외수영장),경기 안양시,031-389-5234,"['경기권', '레포츠', '수영장', '안양', '종합운동장']",https://cdn.visitkorea.or.kr/img/call?cmd=VIEW&id=b6c56158-7fc0-4ce1-8ee8-0391f2b93ab9&thumb,경기도 안양시 동안구 평촌대로 389,37.40629131,126.9487366,179.0
512,제일컨트리클럽,경기 안산시,031-400-2500,"['경기권', '골프장', '레포츠', '제일컨트리클럽']",https://cdn.visitkorea.or.kr/img/call?cmd=VIEW&id=05f0fce3-422f-4a4e-af46-792e684af50b&thumb,경기도 안산시 상록구 태마당로 28,37.32264302,126.86853,180.0
513,양평칠읍산밸리 ATV체험장,경기 양평군,031-772-4824,"['가족체험', '가족체험', '레포츠', '복합레저스포츠', '숙박', '숙박시설', '여름휴가']",https://cdn.visitkorea.or.kr/img/call?cmd=VIEW&id=412150a0-1c49-413d-bfd2-9cb9d6ad44c1&thumb,경기도 양평군 용문면 화전로266번길 10-5,37.466915500000006,127.60470829999998,181.0
514,수원체육문화센터,경기 수원시,031-273-3030,"['경기권', '교육프로그램', '레포츠', '복합문화센터']",https://cdn.visitkorea.or.kr/img/call?cmd=VIEW&id=5bd39cfc-7a10-4c76-9fc5-ebf556d6ef33&thumb,경기도 수원시 영통구 영통로 383,37.2585695,127.0677972,182.0
515,[구리 둘레길 3코스] 왕숙천과 도심생활공원이 조화로운 둘레길,경기 구리시,031-550-2241,['레포츠'],https://cdn.visitkorea.or.kr/img/call?cmd=VIEW&id=e0cf6931-f7f4-40a1-896f-0ad1f51f7914&thumb,경기도 구리시 인창동 구리역,37.6033064,127.1432928,183.0
516,한터캠프,경기 용인시,031-334-7877,['레포츠'],https://cdn.visitkorea.or.kr/img/call?cmd=VIEW&id=03ce0fde-06aa-439a-bf2d-512a2942f929&thumb,경기도 용인시 처인구 양지면 대대로 140,37.27345800000001,127.2672517,184.0
517,평화누리길 12코스 통일이음길,경기 연천군,031-839-2063,"['레포츠', '산책길', '산책로', '산책코스', '산책하기', '산책하기좋은곳', '자연속으로']",https://cdn.visitkorea.or.kr/img/call?cmd=VIEW&id=3d3e16e8-6d85-4a4f-a009-377dd0276c04&thumb,경기도 연천군 군남면,38.08519693,127.0190811,185.0
518,파라다이스수영장,경기 양주시,031-855-0433,"['레포츠', '아이가_좋아하는_여행', '아이와함께', '야외수영장', '여름방학에가볼만한곳']",https://cdn.visitkorea.or.kr/img/call?cmd=VIEW&id=fcace1e2-8ee8-4417-aa21-77dda339175c&thumb,경기도 양주시 장흥면 권율로 112,37.723753,126.94945520000002,186.0
519,신갈승마클럽,경기 용인시,031-286-6490,"['가족과함께', '레포츠', '승마', '승마레슨', '승마장', '승마체험', '승마캠프', '승마트레킹']",https://cdn.visitkorea.or.kr/img/call?cmd=VIEW&id=1632bf1f-9da2-41ea-80b1-f7c067f3df08&thumb,경기도 용인시 기흥구 지삼로201번길 9,37.24108058,127.13629509999998,187.0
520,성남시근로자종합복지관,경기 성남시,031-749-8688,['레포츠'],https://cdn.visitkorea.or.kr/img/call?cmd=VIEW&id=259ce190-48a9-49ec-b624-9fc704a3428e&thumb,경기도 성남시 중원구 순환로 166,37.43839795,127.179101,188.0
521,[경기옛길 영남길 제8길] 죽주산성길,경기 용인시,031-231-8574,"['경기옛길', '레포츠', '산책코스', '죽주산성길', '트래킹']",https://cdn.visitkorea.or.kr/img/call?cmd=VIEW&id=ae12e1cd-e1a4-41c5-9358-1c23726ba780&thumb,경기도 용인시 처인구 백암면 삼백로,37.14110532,127.3725142,189.0
522,탄천종합운동장,경기 성남시,031-725-7100,"['경기권', '레포츠', '성남', '스포츠센터', '종합운동장']",https://cdn.visitkorea.or.kr/img/call?cmd=VIEW&id=fc1c7021-ac6b-4c16-8c0c-a3ced1107f34&thumb,경기도 성남시 분당구 탄천로 215,37.41179093,127.120513,190.0
523,한성컨트리클럽,경기 용인시,031-284-3831 031-284-11223,['레포츠'],https://cdn.visitkorea.or.kr/img/call?cmd=VIEW&id=85c262e1-e10b-4a5a-ab1d-50d46b27a541&thumb,경기도 용인시 기흥구 구교동로 151,37.30704007,127.1231144,191.0
524,탄천종합운동장 빙상장,경기 성남시,031-725-7140,"['경기권', '레포츠', '스케이트장', '이색체험']",https://cdn.visitkorea.or.kr/img/call?cmd=VIEW&id=f0780174-4f4b-4dcc-be64-c0472bfec6e0&thumb,경기도 성남시 분당구 탄천로 215,37.41179093,127.120513,192.0
525,[북한산 둘레길] 12 충의길,경기 고양시,02-900-8086,['레포츠'],https://cdn.visitkorea.or.kr/img/call?cmd=VIEW&id=559f61d6-8d3a-4881-a4cc-6ca8be3f6563&thumb,경기도 고양시 덕양구 지축동,37.65392736,126.92132240000002,193.0
526,연천승마공원,경기 연천군,031-834-0488,['레포츠'],https://cdn.visitkorea.or.kr/img/call?cmd=VIEW&id=2debee38-7635-4c6a-b424-74dd6deac40a&thumb,경기도 연천군 연천읍 동막로 89,38.08899877,127.0949177,194.0
527,[경기옛길 영남길 제10길] 이천옛길,경기 안성시,031-231-8574,"['농촌길', '레포츠', '산책코스', '이천옛길', '트래킹']",https://cdn.visitkorea.or.kr/img/call?cmd=VIEW&id=f6ca1555-4bac-4d34-a8d8-358fb1ab1125&thumb,경기도 안성시 일죽면 산전길,37.06397288,127.4993815,195.0
528,안양시시설관리공단 빙상장,경기 안양시,031-389-5227,"['경기권', '레포츠', '스케이트장', '안양', '이색체험']",https://cdn.visitkorea.or.kr/img/call?cmd=VIEW&id=b5ee9ef7-a7e3-4058-9abb-2b455b78e8ab&thumb,경기도 안양시 동안구 평촌대로 389,37.40629131,126.9487366,196.0
529,미리내승마클럽,경기 양평군,031-774-0300,"['가족과함께', '레포츠', '승마', '승마레슨', '승마장', '승마체험', '승마캠프', '승마트레킹']",https://cdn.visitkorea.or.kr/img/call?cmd=VIEW&id=439c9906-47b5-453f-ae05-2e0b43259a43&thumb,경기도 양평군 지평면 월산저수지길 21,37.48098811,127.6497617,197.0
530,에덴스포츠타운,경기 가평군,031-581-1300,['레포츠'],https://cdn.visitkorea.or.kr/img/call?cmd=VIEW&id=54f04691-dffb-4d81-b718-1a205836af54&thumb,경기도 가평군 청평면 경춘로 1436,37.77730247,127.46446840000002,198.0
531,송추컨트리클럽,경기 양주시,031-871-9410,['레포츠'],https://cdn.visitkorea.or.kr/img/call?cmd=VIEW&id=undefined&thumb,경기도 양주시 광적면 쇠장이길 435,37.79320703,126.910459,199.0
532,금촌청소년문화의집,경기 파주시,031-947-7942,"['레포츠', '복합문화공간', '수련시설', '열린문화공간', '체험프로그램', '휴식공간']",https://cdn.visitkorea.or.kr/img/call?cmd=VIEW&id=b63b80c4-6a7d-44fa-9bfa-685022e4e7cd&thumb,경기도 파주시 시민회관길 40,37.7585124,126.7800425,200.0
533,로얄새들승마클럽,경기 고양시,031-977-2662,"['가족과함께', '드라마촬영지', '레포츠', '로얄새들승마클럽', '수도권', '승마']",https://cdn.visitkorea.or.kr/img/call?cmd=VIEW&id=5d943da8-9e21-47cd-be54-51a618f6fcfe&thumb,경기도 고양시 일산동구 견달산로 402,37.70000570000001,126.8254469,201.0
534,대성수상레저,경기 가평군,031-584-3119,"['가평', '가평레포츠', '레포츠', '모터보트', '북한산상류', '수상레저', '수상스키']",https://cdn.visitkorea.or.kr/img/call?cmd=VIEW&id=59ae8873-0e8a-4d98-956b-f463fd227a72&thumb,경기도 가평군 청평면 대성강변길 14,37.681431,127.37952140000002,202.0
535,평화누리길 5코스 킨텍스길,경기 고양시,031-8075-3409,"['남녀노소', '도보여행', '도보코스', '레포츠', '산책길', '산책로', '산책코스', '산책하기']",https://cdn.visitkorea.or.kr/img/call?cmd=VIEW&id=e20f3df5-b37b-47e7-9afb-d377642b07b7&thumb,경기도 고양시 일산동구 호수공원,37.6567441,126.7662508,203.0
536,새싹동산 청려수련원,경기 화성시,031-375-57856,['레포츠'],https://cdn.visitkorea.or.kr/img/call?cmd=VIEW&id=939ab84f-c015-4f18-89d3-a0d016f52ae4&thumb,경기도 화성시 동탄면 풀무골로110번길 69,37.20499204,127.1462321,204.0
537,임진강,경기 연천군,031-839-2061,"['경기권', '레포츠', '민물낚시', '연천낚시터', '임진강낚시터']",https://cdn.visitkorea.or.kr/img/call?cmd=VIEW&id=7519ccad-7194-4b7d-a185-502b2915af5c&thumb,경기도 연천군 군남면,38.08519693,127.0190811,205.0
538,새마을운동중앙연수원,경기 성남시,031-780-7800,['레포츠'],https://cdn.visitkorea.or.kr/img/call?cmd=VIEW&id=a8dc2108-71b6-42dd-b4c5-99cbc8118390&thumb,경기도 성남시 분당구 새마을로 257,37.39157101,127.158426,206.0
539,안양종합운동장,경기 안양시,031-389-5220,"['경기권', '레포츠', '안양종합운동장', '종합체육경기장']",https://cdn.visitkorea.or.kr/img/call?cmd=VIEW&id=3a05c5e6-251d-427a-adb6-e1dbdfb6a6d7&thumb,경기도 안양시 동안구 평촌대로 389,37.40629131,126.9487366,207.0
540,코리아 골프장,경기 용인시,031-334-7111,['레포츠'],https://cdn.visitkorea.or.kr/img/call?cmd=VIEW&id=0100b0fc-bf22-428b-9db9-c33a6de188e3&thumb,경기도 용인시 처인구 이동면 기흥단지로 579,37.21940716,127.1548467,208.0
541,프라임리조트레저,경기 포천시,031-531-7988,"['가족과함께', '겨울스포츠', '경치좋은곳', '레포츠', '숙박', '스포츠체험', '자연환경']",https://cdn.visitkorea.or.kr/img/call?cmd=VIEW&id=829770bc-6529-4bb4-b72c-652b46c9e4f8&thumb,경기도 포천시 영북면 산정호수로 921,38.0814936,127.3193983,209.0
542,영안청소년수련원,경기 가평군,031-582-9926,['레포츠'],https://cdn.visitkorea.or.kr/img/call?cmd=VIEW&id=0bd60f7f-cf14-4f4b-95b4-1bf7eda226f3&thumb,경기도 가평군 북면 논남기길403번길 41,37.96390276,127.422935,210.0
543,레이크힐스 용인컨트리클럽,경기 용인시,031-336-8350,['레포츠'],https://cdn.visitkorea.or.kr/img/call?cmd=VIEW&id=6b91f528-e968-4553-a1f5-fca1316a226d&thumb,경기도 용인시 처인구 남사면 경기동로 628,37.12558636,127.1829054,211.0
544,성남시수정청소년수련관,경기 성남시,031-729-9200,"['레포츠', '문화시설', '수도권', '수정청소년수련관', '청소년수련관']",https://cdn.visitkorea.or.kr/img/call?cmd=VIEW&id=e2cba128-e263-43bf-8289-5b3fce70d27a&thumb,경기도 성남시 수정구 희망로509번길 20,37.44930166,127.1501845,212.0
545,[경기옛길 영남길 제7길] 구봉산길,경기 용인시,031-231-8574,"['경기옛길', '구봉산길', '레포츠', '산책코스', '트래킹']",https://cdn.visitkorea.or.kr/img/call?cmd=VIEW&id=cb19e0ad-db82-4ef3-9389-ec0fe69ff1a9&thumb,경기도 용인시 처인구 원삼면 이원로1116번길,37.15626248,127.3077492,213.0
546,[북한산 둘레길] 11 효자길,경기 고양시,02-900-8086,['레포츠'],https://cdn.visitkorea.or.kr/img/call?cmd=VIEW&id=18561c0f-0f6f-4a47-a310-da7709a0a21c&thumb,경기도 고양시 덕양구 효자동,37.66158655,126.9491084,214.0
547,한원컨트리클럽,경기 용인시,031-379-8111,['레포츠'],https://cdn.visitkorea.or.kr/img/call?cmd=VIEW&id=03c397b0-24ff-4062-b75b-ad8f904aad9f&thumb,경기도 용인시 처인구 남사면 전나무골길2번길 94,37.15710373,127.1305614,215.0
548,화이트,경기 남양주시,031-511-2901,"['겨울스포츠', '레포츠', '복합레저스포츠', '스키대여', '스키렌탈', '스키샵', '익스트림스포츠']",https://cdn.visitkorea.or.kr/img/call?cmd=VIEW&id=bcd5cc28-caeb-4fce-9c18-b7f6fd6c1cdd&thumb,경기도 남양주시 화도읍 먹갓로 47-2,37.65860367,127.2740318,216.0
549,퀸승마클럽 (구. 호스랜드 운악승마클럽),경기 화성시,031-294-3744,"['가족과함께', '레포츠', '승마', '승마레슨', '승마장', '승마체험', '승마캠프', '승마캠프']",https://cdn.visitkorea.or.kr/img/call?cmd=VIEW&id=faca7646-4067-45ac-b1b8-3f7f65bc53aa&thumb,경기도 화성시 봉담읍 매봉로 218,37.2310808,126.92563429999998,217.0
550,88컨트리클럽,경기 용인시,031-287-8811,"['88컨트리클럽', '골프', '레포츠', '수도권']",https://cdn.visitkorea.or.kr/img/call?cmd=VIEW&id=b3e71eec-cafe-4036-976c-2d0bce6881cb&thumb,경기도 용인시 기흥구 석성로521번길 169,37.30673267,127.1604623,218.0
551,레이크밸리 승마클럽,경기 포천시,031-543-9358,"['가족과함께', '레포츠', '승마', '승마레슨', '승마장', '승마체험', '승마캠프', '승마트레킹']",https://cdn.visitkorea.or.kr/img/call?cmd=VIEW&id=6d675207-446f-4f76-acae-84925f8d397c&thumb,경기도 포천시 가산면 우금3길 59,37.82065432,127.2177237,219.0
552,골드컨트리클럽,경기 용인시,031-286-8111,['레포츠'],https://cdn.visitkorea.or.kr/img/call?cmd=VIEW&id=3d9a79ec-e9f4-4a38-a05f-01409ec07869&thumb,경기도 용인시 기흥구 기흥단지로 398,37.21740406,127.1386143,220.0
553,유스토리 청소년수련원,경기 가평군,031-582-9788,"['등산로', '레포츠', '산책로', '서울근교여행', '수도권', '아이와함께', '연중무휴']",https://cdn.visitkorea.or.kr/img/call?cmd=VIEW&id=9fb64ec9-15cf-41de-918e-800d95c07877&thumb,경기도 가평군 북면 백둔로 246,37.9025618,127.4797213,221.0
554,[경기옛길 삼남길 제10길] 소사원길(원균장군묘 ~ 안성천교),경기 평택시,070-8269-6937,"['경기옛길', '레포츠', '산책길', '삼남길', '트래킹', '트래킹코스']",https://cdn.visitkorea.or.kr/img/call?cmd=VIEW&id=98df0374-6833-4025-8b78-b3556af72002&thumb,경기도 평택시 도일동,37.053394,127.1082188,222.0
555,모닝스키,경기 이천시,031-637-7310,"['겨울스포츠', '레포츠', '복합레저스포츠', '스키대여', '스키렌탈', '스키샵', '익스트림스포츠']",https://cdn.visitkorea.or.kr/img/call?cmd=VIEW&id=d1ac14e0-a767-487f-9b6a-55967e2e07c5&thumb,경기도 이천시 마장면 지산로 257-7,37.21642459,127.3483649,223.0
556,버드마리나수상레저,경기 가평군,010-5050-5094,['레포츠'],https://cdn.visitkorea.or.kr/img/call?cmd=VIEW&id=fdca726f-2ffe-45d8-8de9-aac8e19a83b5&thumb,경기도 가평군 설악면 유명로 2606,37.72266626,127.42481200000002,224.0
557,서원밸리 컨트리클럽,경기 파주시,031-940-9400,['레포츠'],https://cdn.visitkorea.or.kr/img/call?cmd=VIEW&id=544d3ca3-f88e-4522-97cf-a09f487f5f24&thumb,경기도 파주시 광탄면 서원길 333,37.81574910000001,126.8952472,225.0
558,티클라우드 컨트리클럽,경기 동두천시,031-869-7770,['레포츠'],https://cdn.visitkorea.or.kr/img/call?cmd=VIEW&id=3cbb7ef4-bced-4827-816e-e297e491d863&thumb,경기도 동두천시 평화로 3202,37.96779657,127.0892438,226.0
559,트레보 휘트니스센터,경기 수원시,031-238-1230,"['레포츠', '수도권', '트레보휘트니스센터', '휘트니스센터']",https://cdn.visitkorea.or.kr/img/call?cmd=VIEW&id=38151621-62f7-4a60-bc03-639e99b2c79a&thumb,경기도 수원시 팔달구 효원로 288,37.26085799,127.03303909999998,227.0
560,뉴코리아 컨트리클럽,경기 고양시,02-353-0091,['레포츠'],https://cdn.visitkorea.or.kr/img/call?cmd=VIEW&id=94ad6c87-3f10-43f3-a800-4fc593a7f0f6&thumb,경기도 고양시 덕양구 신원2로 57,37.66491465,126.8767058,228.0
561,썬힐 골프클럽,경기 가평군,031-585-7900,"['경기권', '골프장', '레포츠', '썬힐골프클럽']",https://cdn.visitkorea.or.kr/img/call?cmd=VIEW&id=e91958ee-7c2a-4b0c-9cda-cf184073a73c&thumb,경기도 가평군 조종면 운악청계로 809,37.8797738,127.3510643,229.0
562,아침햇살수련원,경기 포천시,031-533-0573,['레포츠'],https://cdn.visitkorea.or.kr/img/call?cmd=VIEW&id=733c452f-1ded-4954-90d8-c7bf9f9de063&thumb,경기도 포천시 관인면 찬우물길 201-47,38.16171273,127.2745447,230.0
563,양평 MTB 280랠리코스,경기 양평군,031-770-2458,"['레포츠', '복합레저스포츠', '산악바이크', '산악인', '산악자전거', '익스트림스포츠']",https://cdn.visitkorea.or.kr/img/call?cmd=VIEW&id=undefined&thumb,경기도 양평군 단월면,37.53856143,127.6729902,231.0
564,겨울이야기,경기 포천시,031-531-5598,"['겨울스포츠', '레포츠', '복합레저스포츠', '스키대여', '스키렌탈', '스키샵', '익스트림스포츠']",https://cdn.visitkorea.or.kr/img/call?cmd=VIEW&id=14208c08-889a-403f-a7e6-a88d1b038f40&thumb,경기도 포천시 내촌면 금강로 2482,37.79514271,127.2362044,232.0
565,지평낚시터,경기 양평군,031-773-4797,"['낚시체험', '남녀노소', '레포츠', '민물낚시', '자연발생', '자연좋은곳', '자연풍경']",https://cdn.visitkorea.or.kr/img/call?cmd=VIEW&id=8141f6cb-fc28-4054-97f9-039f21c81b9e&thumb,경기도 양평군 지평면 금의길 69,37.46763071,127.652845,233.0
566,바하마수상레포츠,경기 가평군,031-585-7787,['레포츠'],https://cdn.visitkorea.or.kr/img/call?cmd=VIEW&id=4e0f8457-042e-45d0-a149-8871a5dd9440&thumb,경기도 가평군 설악면 유명로 2526,37.71929399,127.4327755,234.0
567,블루원 용인컨트리클럽,경기 용인시,1899-1888,['레포츠'],https://cdn.visitkorea.or.kr/img/call?cmd=VIEW&id=b6fc9e47-7004-4db8-8f17-0cc51195a8a0&thumb,경기도 용인시 처인구 원삼면 보개원삼로1534번길 40,37.13417322,127.3259002,235.0
568,블루헤런 골프클럽,경기 여주시,031-880-0700,['레포츠'],https://cdn.visitkorea.or.kr/img/call?cmd=VIEW&id=4a59865a-6851-4eb7-aded-fe11d9d5cbd4&thumb,경기도 여주시 대신면 고달사로 67,37.38334613,127.6437861,236.0
569,수원컨트리클럽,경기 용인시,031-281-6613,['레포츠'],https://cdn.visitkorea.or.kr/img/call?cmd=VIEW&id=430e2a9d-666d-45fe-8598-68050569ce2c&thumb,경기도 용인시 기흥구 중부대로 495,37.28133463,127.1203325,237.0
570,캠핑어클락,경기 가평군,031-585-3509,['레포츠'],https://cdn.visitkorea.or.kr/img/call?cmd=VIEW&id=e5f0b591-9796-4443-96d6-c14dab69cc45&thumb,경기도 가평군 조종면 연인산로474번길 27,37.84727539,127.3775713,238.0
571,부천시민운동장,경기 부천시,032-665-1071,['레포츠'],https://cdn.visitkorea.or.kr/img/call?cmd=VIEW&id=36eb3387-c1bc-4faf-ae1b-0bb6241a4122&thumb,경기도 부천시 부일로 365,37.48863335,126.7706577,239.0
572,기흥컨트리클럽,경기 화성시,031-376-4001,"['경기권', '골프장', '기흥컨트리클럽', '레포츠']",https://cdn.visitkorea.or.kr/img/call?cmd=VIEW&id=40218db4-7d16-4206-83c0-58919ccb01a3&thumb,경기도 화성시 동탄면 풀무골로106번길 244,37.19136803,127.1466193,240.0
573,미리내캠프,경기 양평군,1566-3131,['레포츠'],https://cdn.visitkorea.or.kr/img/call?cmd=VIEW&id=b2cf8e5e-03fd-4298-8d4c-fd0d355f67b8&thumb,경기도 양평군 지평면 월산저수지길 21,37.48098811,127.6497617,241.0
574,태광 컨트리클럽,경기 용인시,1877-6001,['레포츠'],https://cdn.visitkorea.or.kr/img/call?cmd=VIEW&id=6695301e-2154-4458-9ab5-1eb6c04bae7b&thumb,경기도 용인시 기흥구 흥덕4로 77,37.27857347,127.0890818,242.0
575,남서울컨트리클럽,경기 성남시,031-709-6000,['레포츠'],https://cdn.visitkorea.or.kr/img/call?cmd=VIEW&id=2338ee92-88a8-4759-881f-d7b5c8fc87e7&thumb,경기도 성남시 분당구 안양판교로1201번길 161,37.3838342,127.0882241,243.0
576,푸른솔 골프클럽 포천,경기 포천시,031-850-3001,['레포츠'],https://cdn.visitkorea.or.kr/img/call?cmd=VIEW&id=454f207c-feef-4e82-9a97-fc99e2f5edd7&thumb,경기도 포천시 가산면 금우로 276,37.84036972,127.2352432,244.0
577,한양컨트리클럽,경기 고양시,031-960-6900,['레포츠'],https://cdn.visitkorea.or.kr/img/call?cmd=VIEW&id=ae4e4190-8afb-4e50-9b69-802befd2e07d&thumb,경기도 고양시 덕양구 고양대로1643번길 164,37.65749433,126.86351299999998,245.0
578,양평 MTB 유명산코스,경기 양평군,031-770-2458,"['레포츠', '산악바이크', '산악자전거', '산악자전거', '익스트림스포츠', '자전거길']",https://cdn.visitkorea.or.kr/img/call?cmd=VIEW&id=undefined&thumb,경기도 양평군 옥천면,37.51806468,127.4560724,246.0
579,안성베네스트 골프클럽,경기 안성시,031-670-0777,['레포츠'],https://cdn.visitkorea.or.kr/img/call?cmd=VIEW&id=e5878d2e-4a65-4fb0-ae89-591a8fd5b9f9&thumb,경기도 안성시 금광면 삼흥로 660,37.02705253,127.38394479999998,247.0
580,마이다스밸리 골프클럽,경기 가평군,031-589-9090,"['골프', '레포츠', '마이다스밸리골프클럽', '수도권']",https://cdn.visitkorea.or.kr/img/call?cmd=VIEW&id=21da1c78-c130-4ad0-86a4-3656a477f793&thumb,경기도 가평군 설악면 다락재로 73-111,37.66577635,127.4586969,248.0
581,에어타임,경기 남양주시,031-511-9959,"['겨울스포츠', '레포츠', '복합레저스포츠', '스키대여', '스키렌탈', '스키샵', '익스트림스포츠']",https://cdn.visitkorea.or.kr/img/call?cmd=VIEW&id=1434a935-f0fd-4bc0-995c-4c275a0f6bd1&thumb,경기도 남양주시 화도읍 먹갓로 72,37.66042929,127.2732314,249.0
582,이스트밸리,경기 광주시,031-760-3800,['레포츠'],https://cdn.visitkorea.or.kr/img/call?cmd=VIEW&id=e96abaca-9b4a-4bd3-bf4e-8225320ef4ae&thumb,경기도 광주시 곤지암읍 건업길 195,37.4058006,127.3846605,250.0
583,김포 SEASIDE 컨트리클럽,경기 김포시,031-987-9992,['레포츠'],https://cdn.visitkorea.or.kr/img/call?cmd=VIEW&id=f138de00-1969-44c0-b4e0-727314bb80f2&thumb,경기도 김포시 월곶면 김포대로2801번길 219,37.71009527,126.5341624,251.0
584,스카이밸리 컨트리클럽,경기 여주시,031-880-8800 031-880-0011,['레포츠'],https://cdn.visitkorea.or.kr/img/call?cmd=VIEW&id=undefined&thumb,경기도 여주시 북내면 운촌길 254,37.33340503,127.7265926,252.0
585,양평 MTB 비룡산코스,경기 양평군,031-770-2458,"['레포츠', '복합레저스포츠', '산악바이크', '산악자전거', '익스트림스포츠', '자전거길']",https://cdn.visitkorea.or.kr/img/call?cmd=VIEW&id=undefined&thumb,경기도 양평군 청운면,37.55628069,127.71072279999998,253.0
586,오늘은 눈,경기 이천시,031-637-9692,"['겨울스포츠', '대여점', '레포츠', '복합레저스포츠', '수도권', '스키대여', '스키렌탈']",https://cdn.visitkorea.or.kr/img/call?cmd=VIEW&id=e764b55c-0ade-4493-8936-4f1479064675&thumb,경기도 이천시 마장면 지산로 140,37.21386501,127.3604354,254.0
587,장비좋은집,경기 광주시,031-762-7375,"['겨울스포츠', '레포츠', '복합레저스포츠', '스키대여', '스키렌탈', '스키샵', '익스트림스포츠']",https://cdn.visitkorea.or.kr/img/call?cmd=VIEW&id=7b54004f-1880-40c8-aaee-368cc872ee6d&thumb,경기도 광주시 도척면 독고개길 307,37.33896202,127.3054467,255.0
588,스카이스키,경기 포천시,031-533-1111,"['겨울스포츠', '레포츠', '복합레저스포츠', '스키대여', '스키렌탈', '스키샵', '익스트림스포츠']",https://cdn.visitkorea.or.kr/img/call?cmd=VIEW&id=97a39441-348f-443d-99cc-d8cb8136d15b&thumb,경기도 포천시 내촌면 금강로 2520-12,37.7962776,127.24098899999998,256.0
589,곤지암 컨트리클럽,경기 광주시,031-760-3555,['레포츠'],https://cdn.visitkorea.or.kr/img/call?cmd=VIEW&id=0971d6c5-9c27-4fd9-a4ef-140904d6f9c7&thumb,경기도 광주시 도척면 도척윗로 280,37.33329364,127.2954474,257.0
590,프리스틴밸리 골프클럽,경기 가평군,031-589-2000,['레포츠'],https://cdn.visitkorea.or.kr/img/call?cmd=VIEW&id=c9e52844-817b-4de5-8df4-bd57951c7b5e&thumb,경기도 가평군 설악면 유명로 1243-199,37.66074712,127.4563951,258.0
591,은화삼컨트리클럽,경기 용인시,031-335-8255,['레포츠'],https://cdn.visitkorea.or.kr/img/call?cmd=VIEW&id=edd44568-f8b1-4bad-9f08-c53ed36f9e91&thumb,경기도 용인시 처인구 백옥대로 860-38,37.21536471,127.2189655,259.0
592,테라스스키,경기 이천시,031-638-0322,"['겨울스포츠', '레포츠', '복합레저스포츠', '스키대여', '스키렌탈', '스키샵', '익스트림스포츠']",https://cdn.visitkorea.or.kr/img/call?cmd=VIEW&id=c24a3a8f-057c-4c06-afea-db781107ce4a&thumb,경기도 이천시 마장면 지산로 242,37.21626915,127.3502634,260.0
593,올림픽컨트리클럽,경기 고양시,031-962-0101,['레포츠'],https://cdn.visitkorea.or.kr/img/call?cmd=VIEW&id=b95304c0-1415-43ed-a15c-4643cf88638a&thumb,경기도 고양시 덕양구 혜음로 301,37.72058744,126.8948804,261.0
594,비전힐스 컨트리클럽,경기 남양주시,031-595-3355,['레포츠'],https://cdn.visitkorea.or.kr/img/call?cmd=VIEW&id=undefined&thumb,경기도 남양주시 화도읍 마치로 226-220,37.64803067,127.26961509999998,262.0
595,뉴서울컨트리클럽,경기 광주시,031-762-5672,['레포츠'],https://cdn.visitkorea.or.kr/img/call?cmd=VIEW&id=19c37944-5383-4893-9c20-34cda45fe4c7&thumb,경기도 광주시 삼지곡길 95,37.42522536,127.2095318,263.0
596,한국스카우트연맹 중앙훈련원,경기 고양시,031-967-9163,['레포츠'],https://cdn.visitkorea.or.kr/img/call?cmd=VIEW&id=f450a73e-3ccd-4abe-8c79-5599f60972f3&thumb,경기도 고양시 덕양구 서삼릉길 107-62,37.66677511,126.8564222,264.0
597,화산컨트리클럽,경기 용인시,031-329-7114,['레포츠'],https://cdn.visitkorea.or.kr/img/call?cmd=VIEW&id=bdac6176-b4ae-4b8b-9abb-c52b12572b6a&thumb,경기도 용인시 처인구 이동면 화산로 239,37.14797819,127.23227620000002,265.0
598,한강레포츠,경기 남양주시,031-591-3376,"['겨울스포츠', '레포츠', '복합레저스포츠', '스키대여', '스키렌탈', '스키샵', '익스트림스포츠']",https://cdn.visitkorea.or.kr/img/call?cmd=VIEW&id=36ef0002-eec4-4b5c-9fbb-9e5a6df7c8d9&thumb,경기도 남양주시 화도읍 먹갓로 54,37.65885075,127.27425359999998,266.0
599,중부컨트리클럽,경기 광주시,031-762-6588,"['경기권', '골프장', '레포츠', '중부컨트리클럽']",https://cdn.visitkorea.or.kr/img/call?cmd=VIEW&id=0816f87d-b4dd-4b2f-8841-ce21a8703020&thumb,경기도 광주시 곤지암읍 경충대로 451,37.33828164,127.35742890000002,267.0
600,양평 MTB 중미산코스,경기 양평군,031-770-2458,"['레포츠', '복합레저스포츠', '산악바이크', '산악자전거', '익스트림스포츠', '자전거길']",https://cdn.visitkorea.or.kr/img/call?cmd=VIEW&id=undefined&thumb,경기도 양평군 서종면,37.60657629,127.3487212,268.0
601,양평 MTB 계정금왕산코스,경기 양평군,031-770-2458,"['레포츠', '복합레저스포츠', '산악바이크', '산악자전거', '산악자전거', '익스트림스포츠']",https://cdn.visitkorea.or.kr/img/call?cmd=VIEW&id=undefined&thumb,경기도 양평군 양동면,37.42510596,127.75117759999998,269.0
602,신라컨트리클럽,경기 여주시,031-886-3030,['레포츠'],https://cdn.visitkorea.or.kr/img/call?cmd=VIEW&id=d295c629-7f52-4ce0-8a25-03df9c395433&thumb,경기도 여주시 북내면 신라그린길 84,37.35810073,127.6918961,270.0
603,크리스탈밸리,경기 가평군,031-589-5000,['레포츠'],https://cdn.visitkorea.or.kr/img/call?cmd=VIEW&id=2f9dcd57-455d-40ae-97f6-9ea45cb9affa&thumb,경기도 가평군 상면 대보간선로 602-111,37.79413216,127.3873222,271.0
604,그린힐 컨트리클럽,경기 광주시,031-762-3114,['레포츠'],https://cdn.visitkorea.or.kr/img/call?cmd=VIEW&id=665efbb1-4bb8-4e1f-b1fa-f1485f7821bb&thumb,경기도 광주시 곤지암읍 내선길 176,37.35952611,127.4247088,272.0
605,덕평힐뷰 컨트리클럽,경기 이천시,031-640-8114,"['경기권', '골프장', '덕평힐뷰컨트리클럽', '레포츠']",https://cdn.visitkorea.or.kr/img/call?cmd=VIEW&id=e3ad0e03-79f2-4407-88d1-da2d6d1b5a81&thumb,경기도 이천시 호법면 장자터로 115,37.18824095,127.4033446,273.0
606,포천힐스 컨트리클럽,경기 포천시,031-538-7000,['레포츠'],https://cdn.visitkorea.or.kr/img/call?cmd=VIEW&id=20b2ef74-cdf8-42eb-9013-84bb6e9caa02&thumb,경기도 포천시 군내면 반월산성로375번길 34,37.88641104,127.2307107,274.0
607,지산컨트리클럽,경기 용인시,031-330-1400,['레포츠'],https://cdn.visitkorea.or.kr/img/call?cmd=VIEW&id=649a2686-d660-4193-8c0e-a508cdb73752&thumb,경기도 용인시 처인구 원삼면 죽양대로2000번길 60,37.20987573,127.3358449,275.0
608,양평 MTB 삼각고래산코스,경기 양평군,031-770-2458,"['레포츠', '복합레저스포츠', '산악바이크', '산악자전거', '익스트림스포츠', '자전거여행']",https://cdn.visitkorea.or.kr/img/call?cmd=VIEW&id=undefined&thumb,경기도 양평군 지평면,37.47447552,127.6393098,276.0
609,캐슬파인 골프클럽,경기 여주시,031-880-8680,['레포츠'],https://cdn.visitkorea.or.kr/img/call?cmd=VIEW&id=606e01ed-afc4-48a5-9b52-87c87c6c4957&thumb,경기도 여주시 강천면 부평로 580,37.29824124,127.7434175,277.0
610,캐슬렉스서울,경기 하남시,02-480-5600,['레포츠'],https://cdn.visitkorea.or.kr/img/call?cmd=VIEW&id=undefined&thumb,경기도 하남시 감이로 317,37.49701091,127.1691303,278.0
611,스키아이,경기 남양주시,031-511-3432,"['겨울스포츠', '레포츠', '복합레저스포츠', '스키 강습소', '스키대여', '스키렌탈']",https://cdn.visitkorea.or.kr/img/call?cmd=VIEW&id=8b0d3aad-0521-4892-882d-efa50cd832ff&thumb,경기도 남양주시 화도읍 먹갓로 55,37.65915884,127.27384270000002,279.0
612,파인크리크 컨트리클럽,경기 안성시,031-672-0071,['레포츠'],https://cdn.visitkorea.or.kr/img/call?cmd=VIEW&id=fa4d54de-efc4-41d9-be0f-4ac9c049dbaf&thumb,경기도 안성시 양성면 안성맞춤대로 2417-13,37.10354115,127.2340786,280.0
613,렌타르,경기 양평군,031-775-1096,['레포츠'],https://cdn.visitkorea.or.kr/img/call?cmd=VIEW&id=be14f1cd-9a4a-477b-a510-33598b41d1e1&thumb,경기도 양평군 단월면 단월로 288,37.55994879,127.6688971,281.0
614,블루버드컨트리클럽,경기 광주시,031-799-6000,['레포츠'],https://cdn.visitkorea.or.kr/img/call?cmd=VIEW&id=d85bd4d2-75b2-4bb9-ae5a-5f06d90590aa&thumb,경기도 광주시 곤지암읍 오향길 180,37.38005902,127.3724614,282.0
615,글렌로스 골프클럽,경기 용인시,031-320-9601,"['골프', '골프리조트', '골프장', '골프클럽', '남녀노소', '레저스포츠', '레포츠']",https://cdn.visitkorea.or.kr/img/call?cmd=VIEW&id=undefined&thumb,경기도 용인시 처인구 포곡읍 에버랜드로562번길 69,37.29446649,127.18573899999998,283.0
616,비에이비스타 컨트리클럽,경기 이천시,031-636-3577,"['경기권', '골프장', '레포츠', '비에이비스타컨트리클럽']",https://cdn.visitkorea.or.kr/img/call?cmd=VIEW&id=a6351720-94e6-4538-a57c-2d736615c281&thumb,경기도 이천시 모가면 어농로 272,37.18081936,127.4168358,284.0
617,여주컨트리클럽,경기 여주시,031-883-7000,['레포츠'],https://cdn.visitkorea.or.kr/img/call?cmd=VIEW&id=0c8f636a-dca7-4316-95c7-00e778434a3b&thumb,경기도 여주시 월평로 78,37.27854609,127.602625,285.0
618,아도니스 컨트리클럽,경기 포천시,031-530-9100,['레포츠'],https://cdn.visitkorea.or.kr/img/call?cmd=VIEW&id=7f6ee6c2-87a1-425e-a3b5-e797473d4c88&thumb,경기도 포천시 신북면 포천로 2499,37.97089543,127.1719966,286.0
619,신안 컨트리클럽,경기 안성시,031-673-8853,['레포츠'],https://cdn.visitkorea.or.kr/img/call?cmd=VIEW&id=c66c4fa3-d3fe-4c97-996d-36e8e83e3494&thumb,경기도 안성시 고삼면 개울말길 149,37.09276992,127.2544138,287.0
620,필로스 골프클럽,경기 포천시,031-531-2003,['레포츠'],https://cdn.visitkorea.or.kr/img/call?cmd=VIEW&id=33a8ad6d-7798-4133-8e1d-2f778155231c&thumb,경기도 포천시 일동면 운악청계로 1507,37.9332321,127.3338639,288.0
621,몽베르 컨트리클럽,경기 포천시,031-531-3842,"['경기권', '골프장', '레포츠', '몽베르컨트리클럽']",https://cdn.visitkorea.or.kr/img/call?cmd=VIEW&id=af68401d-3d79-4f90-a01a-49870b89cf6d&thumb,경기도 포천시 영북면 산정호수로 359-12,38.07418316,127.3055608,289.0
622,신원 컨트리클럽,경기 용인시,031-333-1800,['레포츠'],https://cdn.visitkorea.or.kr/img/call?cmd=VIEW&id=64eb55f9-2642-4c0a-a236-0345e6d351e8&thumb,경기도 용인시 처인구 이동면 이원로 225,37.18180913,127.24137720000002,290.0
623,양지월드스키,경기 용인시,031-338-0222,"['겨울스포츠', '레포츠', '복합레저스포츠', '스키대여', '스키렌탈', '스키샵', '익스트림스포츠']",https://cdn.visitkorea.or.kr/img/call?cmd=VIEW&id=ac2d99f0-abec-43ed-84e9-c3426fcf20b4&thumb,경기도 용인시 처인구 양지면 남평로 36,37.23065101,127.288284,291.0
624,스키24,경기 광주시,24 031-762-2410,"['겨울스포츠', '레포츠', '복합레저스포츠', '스키 강습소', '스키대여', '스키렌탈']",https://cdn.visitkorea.or.kr/img/call?cmd=VIEW&id=e28b22ab-4b19-4112-a62a-247bd6b378a7&thumb,경기도 광주시 도척면 도척윗로 226,37.33593916,127.317564,292.0
625,윈체스트 골프클럽,경기 안성시,031-678-9000,['레포츠'],https://cdn.visitkorea.or.kr/img/call?cmd=VIEW&id=e76bf420-05a3-482f-90bd-e3f7aac6bdae&thumb,경기도 안성시 서운면 오촌길 97-31,36.95958794,127.2818606,293.0
626,알프스스키월드,경기 용인시,031-335-0889,"['겨울스포츠', '레포츠', '복합레저스포츠', '스키대여', '스키렌탈', '스키샵', '익스트림스포츠']",https://cdn.visitkorea.or.kr/img/call?cmd=VIEW&id=ed9c95df-b920-47bb-8850-b79c9d7ff9e6&thumb,경기도 용인시 처인구 양지면 남평로 145,37.22784220000001,127.2978121,294.0
627,이포컨트리클럽,경기 여주시,031-880-9000,['레포츠'],https://cdn.visitkorea.or.kr/img/call?cmd=VIEW&id=undefined&thumb,경기도 여주시 금사면 장흥로 416,37.39247777,127.4974576,295.0
628,바나나스키,경기 광주시,031-761-5882,"['겨울스포츠', '레포츠', '복합레저스포츠', '스키대여', '스키렌탈', '스키샵', '익스트림스포츠']",https://cdn.visitkorea.or.kr/img/call?cmd=VIEW&id=fba22a3e-3c5e-4516-a145-a2662c17d55a&thumb,경기도 광주시 도척면 도척윗로 258,37.33450236,127.314297,296.0
629,일동레이크 골프클럽,경기 포천시,031-539-5900,['레포츠'],https://cdn.visitkorea.or.kr/img/call?cmd=VIEW&id=8dbb9ffb-c918-4a7d-9cec-d0fbff1ec322&thumb,경기도 포천시 일동면 화동로 738,37.93172356,127.3120397,297.0
630,용인컨트리클럽,경기 용인시,031-332-3323,['레포츠'],https://cdn.visitkorea.or.kr/img/call?cmd=VIEW&id=undefined&thumb,경기도 용인시 처인구 백암면 황새울로 255,37.11066987,127.3440847,298.0
631,안성컨트리클럽,경기 안성시,031-674-9111,['레포츠'],https://cdn.visitkorea.or.kr/img/call?cmd=VIEW&id=null&thumb,경기도 안성시 죽산면 걸미로 487,37.03859451,127.4131648,299.0
632,준스키,경기 광주시,010-2769-2600,"['겨울스포츠', '레포츠', '복합레저스포츠', '스키대여', '스키렌탈', '스키샵', '스키샵']",https://cdn.visitkorea.or.kr/img/call?cmd=VIEW&id=d048eb34-1328-4b50-a441-328fcff1b864&thumb,경기도 광주시 도척면 도척윗로 230,37.33569664,127.317113,300.0
633,레이크우드 컨트리클럽,경기 양주시,031-820-1500,['레포츠'],https://cdn.visitkorea.or.kr/img/call?cmd=VIEW&id=undefined&thumb,경기도 양주시 만송로 244,37.78475899,127.08712549999998,301.0
634,스키타기 좋은날,경기 이천시,031-638-6789,"['겨울스포츠', '레포츠', '복합레저스포츠', '스키대여', '스키렌탈', '스키샵', '익스트림스포츠']",https://cdn.visitkorea.or.kr/img/call?cmd=VIEW&id=f3ade8ae-f159-4b31-ad3c-08341b3e4743&thumb,경기도 이천시 마장면 지산로 58,37.21882561,127.3665737,302.0
635,남양주컨트리클럽,경기 남양주시,031-529-6060,['레포츠'],https://cdn.visitkorea.or.kr/img/call?cmd=VIEW&id=undefined&thumb,경기도 남양주시 오남읍 진건오남로 516-31,37.67901083,127.2161447,303.0
636,피닉스스키,경기 포천시,031-534-7914,['레포츠'],https://cdn.visitkorea.or.kr/img/call?cmd=VIEW&id=272eb872-6dd5-41d9-b77e-435f4c033f28&thumb,경기도 포천시 내촌면 금강로 2490,37.79539013,127.2368717,304.0
637,자유컨트리클럽,경기 여주시,031-887-7700,['레포츠'],https://cdn.visitkorea.or.kr/img/call?cmd=VIEW&id=undefined&thumb,경기도 여주시 가남읍 자유그린길 69,37.20828207,127.5631889,305.0
638,와우스키,경기 이천시,031-637-1999,['레포츠'],https://cdn.visitkorea.or.kr/img/call?cmd=VIEW&id=ced4bf87-c53e-497b-9daa-1e067ac9d6ac&thumb,경기도 이천시 마장면 지산로 8,37.2224711,127.3694006,306.0
639,스키세상,경기 포천시,031-531-1311,"['겨울스포츠', '레포츠', '복합레저스포츠', '스키대여', '스키렌탈', '스키샵', '익스트림스포츠']",https://cdn.visitkorea.or.kr/img/call?cmd=VIEW&id=f5d8bcd7-1ea3-47f2-86a4-a2d9f8e54426&thumb,경기도 포천시 내촌면 금강로2536번길 22-5,37.79784094,127.2437064,307.0
640,광릉컨트리클럽,경기 남양주시,031-528-7001,['레포츠'],https://cdn.visitkorea.or.kr/img/call?cmd=VIEW&id=undefined&thumb,경기도 남양주시 진접읍 팔야로 280,37.75890723,127.2445837,308.0
641,레이크사이드 컨트리클럽,경기 용인시,031-334-2111,['레포츠'],https://cdn.visitkorea.or.kr/img/call?cmd=VIEW&id=undefined&thumb,경기도 용인시 처인구 모현면 능원로 181,37.32411666,127.1752683,309.0
642,금강컨트리클럽,경기 여주시,031-880-6000,['레포츠'],https://cdn.visitkorea.or.kr/img/call?cmd=VIEW&id=undefined&thumb,경기도 여주시 가남읍 여주남로 541,37.24299698,127.5931464,310.0
643,한마음청소년수련원,경기 양주시,031-840-0018,['레포츠'],https://cdn.visitkorea.or.kr/img/call?cmd=VIEW&id=undefined&thumb,경기도 양주시 버들로 147-142,37.77167891,127.0054832,311.0
644,양주컨트리클럽,경기 남양주시,031-592-6060,['레포츠'],https://cdn.visitkorea.or.kr/img/call?cmd=VIEW&id=undefined&thumb,경기도 남양주시 화도읍 북한강로 1525-52,37.63620386,127.3480216,312.0
645,강남 300 컨트리클럽,경기 광주시,031-719-0300,['레포츠'],https://cdn.visitkorea.or.kr/img/call?cmd=VIEW&id=undefined&thumb,경기도 광주시 새말길 353,37.3869502,127.1823819,313.0
646,용인엑스파크공원,경기 용인시,031-324-4675,"['그래피티', '레포츠', '수도권', '스케이트보드', '용인근린공원', '이색공원']",https://cdn.visitkorea.or.kr/img/call?cmd=VIEW&id=6ab322ec-a676-4469-b011-d7347e7b11f4&thumb,경기 용인시 기흥구 보정동 1180,37.32279718,127.1103185,314.0
647,한탄강벼룻길,경기 포천시,031-538-2472,"['경치여행', '경치좋은곳', '레포츠', '자연관광지', '자연좋은곳', '자연풍경', '자연환경']",https://cdn.visitkorea.or.kr/img/call?cmd=VIEW&id=0c4b182e-0434-45b3-b65b-12975fa82d7b&thumb,경기도 포천시 영북면 운천리,38.08249298,127.2772743,315.0
648,렛츠런파크 서울,경기,1566-3333,"['경마장', '레포츠', '렛츠런파크서울', '이색체험']",https://cdn.visitkorea.or.kr/img/call?cmd=VIEW&id=f6828656-b398-4e4c-8b4d-48815a82f75d&thumb,경기도 과천시 경마공원대로 107,37.44120036,127.01612659999998,316.0
649,아라마리나 해양아카데미,경기 김포시,1688-7841,"['레포츠', '아라마리나해양아카데미', '요트교육', '요트체험', '이색체험']",https://cdn.visitkorea.or.kr/img/call?cmd=VIEW&id=09c5bc50-af0f-469f-976a-254ef69e5a9d&thumb,경기도 김포시 고촌읍 아라육로270번길 73,37.59929521,126.7891571,317.0
650,용인 구갈레스피아,경기 용인시,031-324-4167,['레포츠'],https://cdn.visitkorea.or.kr/img/call?cmd=VIEW&id=fdd0f86f-fe3d-4610-be2d-f08a0daf1713&thumb,경기도 용인시 기흥구 중부대로 640,37.26682449,127.131244,318.0
651,스타필드 하남,경기 하남시,1833-9001 1330,"['나들이코스', '반려견동반여행정보', '쇼핑', '쇼핑테마파크']",https://cdn.visitkorea.or.kr/img/call?cmd=VIEW&id=7c47eee3-6b0d-4454-b64e-e127f071b19b&thumb,경기도 하남시 미사대로 750,37.5434191,127.236611,
652,"양평장 / 양평시장 (3, 8일)",경기 양평군,031-771-2080,"['가족여행', '사계절', '쇼핑', '수도권', '시장맛집', '아이와함께', '양평시장', '양평장']",https://cdn.visitkorea.or.kr/img/call?cmd=VIEW&id=9026f3a5-959d-4848-b108-12f22865a9e2&thumb,경기도 양평군 양평읍 양평장터길 15,37.4909455,127.4927606,
653,평택국제중앙시장,경기 평택시,031-666-4275,"['가족여행', '기차여행', '나들이', '나홀로여행', '데이트코스', '먹거리', '서울근교여행']",https://cdn.visitkorea.or.kr/img/call?cmd=VIEW&id=55dc7816-04a4-47f0-a9a8-145cd766ee99&thumb,경기도 평택시 중앙시장로25번길 11-4,37.08071079999999,127.0527018,
654,"용문천년시장 / 용문전통시장 (5, 10일)",경기 양평군,031-771-6172,"['가족여행', '사계절', '쇼핑', '수도권', '시장맛집', '아이와함께', '용문장', '용문전통시장']",https://cdn.visitkorea.or.kr/img/call?cmd=VIEW&id=0114c315-6b26-484d-ba59-05bbd67ec421&thumb,경기도 양평군 용문면 다문중앙1길 19,37.4849948,127.59108059999998,
655,신세계사이먼 시흥 프리미엄 아울렛,경기 시흥시,1644-4001,"['가족과함께', '복합쇼핑리조트', '쇼핑', '이국적', '체험형']",https://cdn.visitkorea.or.kr/img/call?cmd=VIEW&id=238081c5-d543-430a-b3c3-6f2287185333&thumb,경기 시흥시 서해안로 699,37.40926470000001,126.7555085,
656,"가평5일장 / 잣고을전통시장 (5, 10일)",경기 가평군,031-582-8181,"['가족여행', '가평5일장', '사계절', '쇼핑', '수도권', '시장맛집', '아이와함께', '재래시장']",https://cdn.visitkorea.or.kr/img/call?cmd=VIEW&id=5dd80ca5-3e38-4e61-aed6-7ae1ca99ca1a&thumb,경기도 가평군 가평읍 장터2길 10,37.8296108,127.5151034,
657,광명전통시장,경기 광명시,02-2614-0006,"['가족여행', '광명전통시장', '나들이', '나홀로여행', '데이트코스', '먹거리', '서울근교여행']",https://cdn.visitkorea.or.kr/img/call?cmd=VIEW&id=ca22f82d-1a2e-4d4c-af3a-68d48a4671b0&thumb,경기도 광명시 광이로13번길 17-5,37.4800807,126.85623590000002,
658,"경기 안성장 (2, 7일)",경기 안성시,031-670-2065,"['가족여행', '경기안성장', '사계절', '쇼핑', '수도권', '시장맛집', '아이와함께']",https://cdn.visitkorea.or.kr/img/call?cmd=VIEW&id=c49eee05-7671-4cc0-b16c-f8343c54e39f&thumb,경기도 안성시 시장길 37,37.00659879999999,127.2704023,
659,롯데프리미엄아울렛 이천점,경기 이천시,031-777-2500,"['롯데프리미엄아울렛', '반려견과함께', '반려견동반', '쇼핑', '아울렛', '이천']",https://cdn.visitkorea.or.kr/img/call?cmd=VIEW&id=91b9e30b-7ddf-4a6e-9c54-c7105c116982&thumb,경기도 이천시 호법면 프리미엄아울렛로 177-74,37.2422526,127.4000798,
660,일산 가구거리,경기 고양시,031-913-0640,"['가구', '쇼핑', '유명가구납품업체', '혼수']",https://cdn.visitkorea.or.kr/img/call?cmd=VIEW&id=f9ea3cf3-433b-4bbb-85f3-6821df386dff&thumb,경기도 고양시 일산서구 경의로917번길 26,37.70051470000001,126.75857340000002,
661,수원 프리미엄아울렛,경기 용인시,031-204-2006,"['명품아울렛', '쇼핑', '유럽풍', '유명브랜드', '패션']",https://cdn.visitkorea.or.kr/img/call?cmd=VIEW&id=baba52a2-90d9-4857-81c3-8dbf3ff2a6b5&thumb,경기도 용인시 기흥구 중부대로 64,37.266751,127.076195,
662,오산 중앙시장/오색시장,경기 오산시,031-376-4141,"['가족여행', '나들이', '나홀로여행', '데이트코스', '마을축제', '먹거리', '쇼핑']",https://cdn.visitkorea.or.kr/img/call?cmd=VIEW&id=269c651a-5ab8-4e31-8aeb-79f6e32d5b36&thumb,경기도 오산시 오산로272번길 22,37.1508977,127.0708518,
663,의정부 제일시장,경기 의정부시,031-846-2617,"['공연문화', '쇼핑', '의정부', '의정부가볼만한곳', '전통시장']",https://cdn.visitkorea.or.kr/img/call?cmd=VIEW&id=caa9619e-dae4-46cb-b6f0-864f558fc5ba&thumb,경기도 의정부시 시민로121번길 43-2,37.74017620000001,127.049666,
664,"장호원재래시장(4, 9일)",경기 이천시,031-643-1330,"['가족여행', '사계절', '쇼핑', '수도권', '시장맛집', '아이와함께', '장호원재래시장']",https://cdn.visitkorea.or.kr/img/call?cmd=VIEW&id=b39f1279-6863-4ef0-a907-497e76802afb&thumb,경기도 이천시 장호원읍 서동대로8965번길 36,37.1148336,127.6307445,
665,"일산민속5일장 (3, 8일)",경기 고양시,031-975-3903,"['가족여행', '나들이', '나홀로여행', '먹거리', '서울근교여행', '쇼핑', '수도권']",https://cdn.visitkorea.or.kr/img/call?cmd=VIEW&id=460813f7-15e7-4ff5-a557-43de7aaaa676&thumb,경기도 고양시 일산서구 고양대로685번길 19,37.6850313,126.7720168,
666,안양 중앙시장,경기 안양시,031-449-6047,"['가족여행', '나들이', '나홀로여행', '먹거리', '쇼핑', '수도권', '시장맛집', '아이와함께']",https://cdn.visitkorea.or.kr/img/call?cmd=VIEW&id=237aca27-30a3-463f-a5c9-b6efaa4c210a&thumb,경기도 안양시 만안구 냉천로 196,37.3976235,126.9195788,
667,현대프리미엄아울렛 김포점,경기 김포시,031-812-2233,"['김포', '김포쇼핑', '쇼핑', '아울렛', '프리미엄아울렛', '현대백화점', '현대프리미엄아울렛']",https://cdn.visitkorea.or.kr/img/call?cmd=VIEW&id=daa2d9b1-ba7f-4c90-8606-41755642f068&thumb,경기도 김포시 고촌읍 아라육로152번길 100,37.5991152,126.7859124,
668,수원 남문시장,경기 수원시,031-207-7913,"['명품시장', '쇼핑', '수원쇼핑', '수원시장', '전통시장']",https://cdn.visitkorea.or.kr/img/call?cmd=VIEW&id=449b3fab-d22d-4f4c-8f96-35f65bf9bb57&thumb,경기도 수원시 팔달구 팔달문로 9,37.2777177,127.0184736,
669,"모란장 / 모란민속시장 (4, 9일)",경기 성남시,031-721-9905,"['가족여행', '나홀로여행', '먹거리', '모란민속시장', '모란장', '쇼핑', '수도권']",https://cdn.visitkorea.or.kr/img/call?cmd=VIEW&id=34d5271c-a202-4af9-9525-d418d2de15c0&thumb,경기도 성남시 중원구 둔촌대로 68,37.4322476,127.1269495,
670,신세계사이먼 여주 프리미엄 아울렛,경기 여주시,1644-4001,['쇼핑'],https://cdn.visitkorea.or.kr/img/call?cmd=VIEW&id=4c80dd2f-2cbb-44f6-bc87-9172ad08f9de&thumb,경기도 여주시 명품로 360,37.2413127,127.6125556,
671,동두천 중앙시장,경기 동두천시,031-861-6938,"['가족여행', '나들이', '나홀로여행', '동두천중앙시장', '드라이브여행', '먹거리']",https://cdn.visitkorea.or.kr/img/call?cmd=VIEW&id=539083fc-67f9-4632-a3c4-b9d8391f5f5a&thumb,경기도 동두천시 중앙로285번길 9,37.9064753,127.0536925,
672,"용인장 (5, 10일)",경기 용인시,031-334-0510,"['가족여행', '나들이', '나홀로여행', '먹거리', '쇼핑', '수도권', '시장맛집', '아이와함께']",https://cdn.visitkorea.or.kr/img/call?cmd=VIEW&id=3bd4bc27-3f44-45d4-b8e6-ec6463fbd965&thumb,경기도 용인시 처인구 금령로107번길 13,37.236364,127.2081779,
673,안산 시민시장,경기 안산시,031-411-1040,"['가족여행', '나들이', '나홀로여행', '데이트코스', '마을축제', '먹거리', '쇼핑']",https://cdn.visitkorea.or.kr/img/call?cmd=VIEW&id=28721282-a6b0-4888-a029-6f2da34f9928&thumb,경기도 안산시 단원구 화랑로 149,37.3250378,126.8052733,
674,가평 잣고을 전통시장,경기 가평군,031-580-2114,"['가족여행', '가평잣고을전통시장', '가평재래시장', '나들이', '나홀로여행', '데이트코스']",https://cdn.visitkorea.or.kr/img/call?cmd=VIEW&id=98a01ee9-2498-4660-ac2e-89f133ec1948&thumb,경기도 가평군 가평읍 읍내리 473-15,37.8300775,127.5137962,
675,군포역전시장,경기 군포시,031-451-3542,"['가족여행', '군포역전시장', '사계절', '쇼핑', '수도권', '시장맛집', '아이와함께']",https://cdn.visitkorea.or.kr/img/call?cmd=VIEW&id=85c304f3-c194-44ac-b57c-347c7b2cb459&thumb,경기도 군포시 군포로 548-1,37.354856700000006,126.94698429999998,
676,광명새마을시장,경기 광명시,02-2614-5292,"['가족여행', '나들이', '나홀로여행', '데이트코스', '먹거리', '서울풍물시장', '쇼핑']",https://cdn.visitkorea.or.kr/img/call?cmd=VIEW&id=b1df3810-f9e9-44cf-908b-d6443e6d53df&thumb,경기도 광명시 광명로831번길 34,37.4746797,126.8480618,
677,부천 역곡상상시장,경기 부천시,032-343-8562,"['가족여행', '나들이', '나홀로여행', '데이트코스', '마을축제', '먹거리', '부천역곡상상시장']",https://cdn.visitkorea.or.kr/img/call?cmd=VIEW&id=662105f6-fc77-4489-9216-65ec40867a47&thumb,경기도 부천시 부일로749번길 31,37.48754260000001,126.8119066,
678,수원 농수산물도매시장,경기 수원시,031-288-2721,"['가족여행', '나들이', '나홀로여행', '쇼핑', '수도권', '수원농수산물도매시장']",https://cdn.visitkorea.or.kr/img/call?cmd=VIEW&id=a705f4ad-e6e7-463f-b376-b43545fee97e&thumb,경기도 수원시 권선구 세권로 243,37.2550182,127.0309112,
679,"가평 현리5일장 (4, 9일)",경기 가평군,031-585-1014,"['가족여행', '가평현리오일장', '나들이', '나홀로여행', '데이트코스', '먹거리']",https://cdn.visitkorea.or.kr/img/call?cmd=VIEW&id=1a44ccc7-3eb8-4b25-8a93-db1f42267446&thumb,경기도 가평군 조종면 현창로44번길 14,37.8196129,127.3489605,
680,CGV 스퀘어,경기 성남시,031-728-5800,"['복합쇼핑센터', '분당구', '쇼핑', '영화관']",https://cdn.visitkorea.or.kr/img/call?cmd=VIEW&id=e6c6f981-da0c-400e-9e3c-ab1ccabfa8c5&thumb,경기도 성남시 분당구 탄천상로151번길 20,37.3400065,127.1069645,
681,신세계사이먼 파주 프리미엄 아울렛,경기 파주시,1644-4001,"['쇼핑', '파주', '프리미엄아울렛']",https://cdn.visitkorea.or.kr/img/call?cmd=VIEW&id=599a1046-0a7a-4843-974b-dc7444e435fd&thumb,경기도 파주시 탄현면 필승로 200,37.76961729999999,126.696253,
682,수원 영동시장,경기 수원시,031-251-0171∼2,"['가족여행', '나들이', '나홀로여행', '먹거리', '쇼핑', '수도권', '수원영동시장']",https://cdn.visitkorea.or.kr/img/call?cmd=VIEW&id=d208c710-566f-49ee-adc2-887be3716b19&thumb,경기도 수원시 팔달구 수원천로255번길 6,37.276842,127.0187071,
683,궁평항수산물직판장,경기 화성시,031-355-9692,"['궁평항', '궁평항수산물직판장', '쇼핑', '수산시장', '화성시']",https://cdn.visitkorea.or.kr/img/call?cmd=VIEW&id=fbaf820f-6e3b-4f53-9140-99e67dcae86f&thumb,경기도 화성시 서신면 궁평항로 1049-24,37.1157218,126.6821115,
684,못골종합시장 (못골시장),경기 수원시,031-246-5638,"['가족여행', '못골종합시장', '사계절', '쇼핑', '수도권', '아이와함께', '이색체험']",https://cdn.visitkorea.or.kr/img/call?cmd=VIEW&id=cf605221-4a92-48f9-bbdc-b636e4a40c70&thumb,경기도 수원시 팔달구 수원천로258번길 10-12,37.2759791,127.0208246,
685,라페스타 (Lafesta),경기 고양시,031-920-9600,"['롯데시네마', '보행자몰', '뷰티샵', '쇼핑']",https://cdn.visitkorea.or.kr/img/call?cmd=VIEW&id=35efd719-0b1e-4267-8bbc-f9330ae25208&thumb,경기도 고양시 일산동구 중앙로 1305-56,37.661211,126.7680912,
686,롯데프리미엄아울렛 광명점,경기 광명시,02-6226-2500,['쇼핑'],https://cdn.visitkorea.or.kr/img/call?cmd=VIEW&id=97d73c10-e53d-4147-9794-d6bb17fa47ab&thumb,경기도 광명시 일직로 17,37.4241619,126.8829345,
687,"파주 문산장 (4, 9일)",경기 파주시,031-940-4521,"['가족여행', '사계절', '쇼핑', '수도권', '시장맛집', '아이와함께', '재래시장', '전통시장']",https://cdn.visitkorea.or.kr/img/call?cmd=VIEW&id=09b7717a-d59d-45f6-8f58-d5a576f34565&thumb,경기도 파주시 문산읍 문산1리,37.8608461,126.7781115,
688,롯데 파주 프리미엄아울렛,경기 파주시,031-960-2500,"['롯데프리미엄아울렛', '쇼핑', '아울렛', '파주']",https://cdn.visitkorea.or.kr/img/call?cmd=VIEW&id=820a5bb6-8038-4f5e-8099-145814b2c76c&thumb,경기도 파주시 회동길 390,37.7186336,126.6918139,
689,김포로컬푸드,경기 김포시,031-981-8456,['쇼핑'],https://cdn.visitkorea.or.kr/img/call?cmd=VIEW&id=7d714bde-31ab-43b3-8d1d-c7f2b1b7708c&thumb,경기도 김포시 김포대로 1009-49,37.6307164,126.7008882,
690,부천 역곡남부시장,경기 부천시,032-343-9655,"['가족여행', '남부시장', '부천역곡남부시장', '사계절', '쇼핑', '수도권', '시장맛집']",https://cdn.visitkorea.or.kr/img/call?cmd=VIEW&id=f442b607-4383-4fbf-89e6-b74f9d76ece4&thumb,경기도 부천시 부광로8번길 35,37.48303920000001,126.8110972,
691,박달시장,경기 안양시,031-469-2660,"['가족여행', '나들이', '나홀로여행', '데이트코스', '먹거리', '박달시장', '서울근교여행']",https://cdn.visitkorea.or.kr/img/call?cmd=VIEW&id=2798ce5c-fd0a-49a1-b3ef-3f54634963b6&thumb,경기도 안양시 만안구 박달우회로124번길 41,37.4057284,126.9098536,
692,"설악 5일장 (1, 6일)",경기 가평군,031-580-2114,"['가족여행', '사계절', '설악5일장', '쇼핑', '수도권', '시장맛집', '아이와함께', '재래시장']",https://cdn.visitkorea.or.kr/img/call?cmd=VIEW&id=6775fc3f-7432-4407-b7ff-f21edd0f1c26&thumb,경기도 가평군 설악면 신천중앙로 104,37.67740560000001,127.49210829999998,
693,스타필드 시티 위례,경기 하남시,1833-9001 1330,"['문화', '쇼핑', '스타일몰', '휴식']",https://cdn.visitkorea.or.kr/img/call?cmd=VIEW&id=e5c271d1-91e9-47c0-916c-c229759345b5&thumb,경기도 하남시 위례대로 200,37.47987970000001,127.1484241,
694,"양수장 / 양수리전통시장 (1, 6 일)",경기 양평군,031-775-3110,"['가족여행', '기차여행', '나들이', '나홀로여행', '데이트코스', '먹거리', '서울근교여행']",https://cdn.visitkorea.or.kr/img/call?cmd=VIEW&id=740a19a6-253e-4d3c-b372-a9895cbf8a6c&thumb,경기도 양평군 양서면 양수리 1060,37.5445329,127.3199422,
695,"김포장 (2, 7일)",경기 김포시,031-980-2558,"['가족여행', '김포장', '사계절', '쇼핑', '수도권', '시장맛집', '아이와함께', '재래시장']",https://cdn.visitkorea.or.kr/img/call?cmd=VIEW&id=69c25ec7-8793-4bef-9102-ce12e4f1666d&thumb,경기도 김포시 김포대로 955,37.6338585,126.7008625,
696,대명항수산물직판장,경기 김포시,031-988-6394 031-980-5327 031-987-2983,"['가족여행', '기념품판매', '나들이', '나홀로여행', '대명항수산물직판장', '데이트코스']",https://cdn.visitkorea.or.kr/img/call?cmd=VIEW&id=36976c02-601a-4b3e-8791-89be9dca5cef&thumb,경기도 김포시 대곶면 대명항1로 109,37.6393543,126.5416904,
697,원조가평잣집,경기 가평군,031-582-0138,"['가족여행', '기념품판매', '나들이', '나홀로여행', '드라이브여행', '서울근교여행']",https://cdn.visitkorea.or.kr/img/call?cmd=VIEW&id=fdb1eaed-3fc8-4ed1-b38c-e24ca76ce454&thumb,경기도 가평군 북면 가화로 721-18,37.8746533,127.5233625,
698,"여주장 (5, 10일)",경기 여주시,031-887-2064,"['가족여행', '사계절', '쇼핑', '수도권', '시장맛집', '아이와함께', '여주장', '재래시장']",https://cdn.visitkorea.or.kr/img/call?cmd=VIEW&id=d70433e1-aa04-4b2e-afdd-dcbb7959996e&thumb,경기도 여주시 여흥로11번길 53,37.29819439999999,127.6319819,
699,웨스턴돔 (WesternDom),경기 고양시,031-931-5114,"['복합쇼핑몰', '쇼핑', '수도권', '웨스턴돔']",https://cdn.visitkorea.or.kr/img/call?cmd=VIEW&id=41406817-d303-4ca7-8781-04db30b0f7fa&thumb,경기도 고양시 일산동구 정발산로 24,37.6557011,126.7719572,
700,"마석 5일장(3, 8일)",경기 남양주시,031-594-1179,"['가족여행', '기차여행', '나들이', '나홀로여행', '데이트코스', '마석오일장', '먹거리']",https://cdn.visitkorea.or.kr/img/call?cmd=VIEW&id=16965b51-873d-476a-86a4-3d4f7f49d201&thumb,경기도 남양주시 화도읍 마석로17번길 26,37.6544095,127.3056488,
701,"사강장 / 사강시장 (2,7일)",경기 화성시,031-357-6037,"['가족여행', '기차여행', '나들이', '나홀로여행', '데이트코스', '먹거리', '사강시장']",https://cdn.visitkorea.or.kr/img/call?cmd=VIEW&id=8d9e761d-3d53-4043-a09e-fde8eaf22c2e&thumb,경기도 화성시 송산면 사강로 189,37.2133048,126.7369285,
702,산본시장,경기 군포시,031-399-4248,"['가족여행', '나들이', '나홀로여행', '데이트코스', '먹거리', '산본시장', '서울근교여행']",https://cdn.visitkorea.or.kr/img/call?cmd=VIEW&id=d45078d1-6716-4576-8d37-3a1be402f591&thumb,경기도 군포시 산본천로183번길 6,37.3700769,126.9385118,
703,구리 농수산물도매시장,경기 구리시,031-560-5100,"['가족여행', '구리농수산물도매시장', '나들이', '나홀로여행', '데이트코스', '서울근교여행']",https://cdn.visitkorea.or.kr/img/call?cmd=VIEW&id=5a331ccc-1e4a-445f-ad81-9f83f13894d6&thumb,경기도 구리시 동구릉로136번길 90,37.6132366,127.1448505,
704,"연천장 (2, 7일)",경기 연천군,031-839-2641,"['가족여행', '사계절', '쇼핑', '수도권', '시장맛집', '아이와함께', '연천장', '재래시장']",https://cdn.visitkorea.or.kr/img/call?cmd=VIEW&id=230724e6-f954-45b5-a8ce-c912a5f19349&thumb,경기도 연천군 연천읍 차현로 139,38.103958,127.0769821,
705,아브뉴프랑 (판교점),경기 성남시,031-8016-0101,"['쇼핑', '유럽형테마거리', '테마거리', '판교역']",https://cdn.visitkorea.or.kr/img/call?cmd=VIEW&id=83cf888b-71f9-47ac-b7b4-cc0a87fbf117&thumb,경기도 성남시 분당구 동판교로177번길 25,37.3971784,127.1134305,
706,앙코르면세점,경기 수원시,031-298-8888,"['관광기념품', '면세점', '쇼핑', '화장품']",https://cdn.visitkorea.or.kr/img/call?cmd=VIEW&id=6984fb10-fd82-4b72-817b-20d92bdc137e&thumb,경기도 수원시 팔달구 권광로 132,37.2590979,127.0314113,
707,안양 남부시장,경기 안양시,031-449-7400,"['가족여행', '나들이', '나홀로여행', '데이트코스', '먹거리', '서울근교여행', '쇼핑']",https://cdn.visitkorea.or.kr/img/call?cmd=VIEW&id=ec88be74-bad8-4563-9a33-9099c6357866&thumb,경기도 안양시 만안구 안양로248번길 19-11,37.39595170000001,126.9250848,
708,팬텀 (세이브존 화정점),경기 고양시,031-972-2750,"['고양쇼핑', '골프웨어', '쇼핑', '스포츠웨어']",https://cdn.visitkorea.or.kr/img/call?cmd=VIEW&id=c2fb67f4-a136-4da7-b956-fbc6436f2161&thumb,경기도 고양시 덕양구 화정로 52,37.6343155,126.8313649,
709,"전곡재래시장 (4, 9일)",경기 연천군,031-839-2641,"['가족여행', '사계절', '쇼핑', '수도권', '시장맛집', '아이와함께', '재래시장', '전곡재래시장']",https://cdn.visitkorea.or.kr/img/call?cmd=VIEW&id=856275ea-cec6-48de-9be6-dfe96656b1c3&thumb,경기도 연천군 전곡읍 전곡로172번길 4-19,38.02700520000001,127.0681518,
710,덕이동 로데오거리,경기 고양시,1899-6841,"['쇼핑', '유명브랜드', '패션', '패션브랜드']",https://cdn.visitkorea.or.kr/img/call?cmd=VIEW&id=fb62ddd1-c372-4b46-a555-c233466e4a7d&thumb,경기도 고양시 일산서구 탄중로101번길 13,37.6927466,126.7560305,
711,"청평 5일장 (2, 7일)",경기 가평군,031-580-2631,"['가족여행', '나들이', '나홀로여행', '먹거리', '쇼핑', '수도권', '시장맛집', '아이와함께']",https://cdn.visitkorea.or.kr/img/call?cmd=VIEW&id=1991280b-2128-4207-ae77-7b3e6fece3ea&thumb,경기도 가평군 청평면 시장중앙로 19,37.7346526,127.4158928,
712,교보문고 분당점,경기 성남시,1544-1900,"['교보문고', '분당', '서현역', '쇼핑']",https://cdn.visitkorea.or.kr/img/call?cmd=VIEW&id=92f73097-6602-4f11-9b0b-16ea586a8e3b&thumb,경기도 성남시 분당구 황새울로312번길 26,37.3834287,127.1226573,
713,부천 원종종합시장,경기 부천시,032-681-0985,"['가족여행', '나들이', '나홀로여행', '데이트코스', '먹거리', '부천원종종합시장']",https://cdn.visitkorea.or.kr/img/call?cmd=VIEW&id=019578f9-b448-4075-be08-295af1d709cc&thumb,경기도 부천시 삼작로396번길 11,37.5192862,126.8058605,
714,안성마춤유기공방,경기 안성시,031-675-2590,"['놋쇠', '무형문화재', '쇼핑', '식기류', '안성유기', '통쇠']",https://cdn.visitkorea.or.kr/img/call?cmd=VIEW&id=b44648aa-50b1-4d16-885e-c3037278820a&thumb,경기도 안성시 중앙로 448,37.00592329999999,127.2764863,
715,롯데프리미엄아울렛 기흥점,경기 용인시,031-916-2500,"['반려동물과함께', '브랜드', '서핑숍', '쇼핑', '아이와함께']",https://cdn.visitkorea.or.kr/img/call?cmd=VIEW&id=ed4cf210-9281-4024-8630-b49c37272ea8&thumb,경기도 용인시 기흥구 신고매로 124,37.2255095,127.1220189,
716,연무시장,경기 수원시,031-228-3270,"['가족여행', '나들이', '나홀로여행', '먹거리', '서울근교여행', '쇼핑', '수도권']",https://cdn.visitkorea.or.kr/img/call?cmd=VIEW&id=20f5b7d1-a3e2-4666-9cdd-34482dc256df&thumb,경기도 수원시 장안구 월드컵로428번길 19,37.2944729,127.0259514,
717,안양 농수산물도매시장,경기 안양시,031-8045-2631,"['가족여행', '나들이', '나홀로여행', '데이트코스', '서울근교여행', '쇼핑', '수도권']",https://cdn.visitkorea.or.kr/img/call?cmd=VIEW&id=f49eda52-574a-4661-8c22-e7b27140dbb8&thumb,경기도 안양시 동안구 흥안대로 313,37.3819516,126.9700957,
718,한청도요,경기 이천시,031-632-7117,"['고려청자', '도자기', '쇼핑', '청자']",https://cdn.visitkorea.or.kr/img/call?cmd=VIEW&id=25855d37-af90-4ec1-ba13-3bc3bb877f81&thumb,경기도 이천시 신둔면 경충대로3159번길 12-27,37.3092159,127.4005139,
719,부천 원미종합시장,경기 부천시,032-655-6682,"['가족여행', '나들이', '나홀로여행', '데이트코스', '부천원미종합시장', '서울근교여행']",https://cdn.visitkorea.or.kr/img/call?cmd=VIEW&id=c738d5ba-32df-4786-b2c8-b0fe66bf9930&thumb,경기도 부천시 조종로49번길 21-3,37.49364179999999,126.7901681,
720,핫트랙스 (분당점),경기 성남시,1544-1900,"['기프트아이템', '문구', '분당', '쇼핑']",https://cdn.visitkorea.or.kr/img/call?cmd=VIEW&id=d7576951-e4e0-409f-8fbc-ac9a966cf128&thumb,경기도 성남시 분당구 황새울로312번길 26,37.3834287,127.1226573,
721,"백암장 (1, 6일)",경기 용인시,031-324-2275,"['가족여행', '백암장', '사계절', '쇼핑', '수도권', '시장맛집', '아이와함께', '재래시장']",https://cdn.visitkorea.or.kr/img/call?cmd=VIEW&id=1bc19d5f-aab8-4943-b5b7-65cedc2293bf&thumb,경기도 용인시 처인구 백암면 백암로202번길 18,37.1645795,127.37658190000002,
722,토아트갤러리,경기 이천시,031-634-3496,"['도예', '도예작품', '문화공간', '쇼핑']",https://cdn.visitkorea.or.kr/img/call?cmd=VIEW&id=a2c01b3a-66f7-492e-8d8d-61a9cf5296f9&thumb,경기도 이천시 신둔면 경충대로 3189,37.31063020000001,127.4007892,
723,"금촌장 (1, 6일)",경기 파주시,031-940-4521,"['가족여행', '금촌장', '사계절', '쇼핑', '수도권', '시장맛집', '아이와함께', '재래시장']",https://cdn.visitkorea.or.kr/img/call?cmd=VIEW&id=83368545-e60d-4021-a108-2ff8eb40484b&thumb,경기도 파주시 금정22길 15-15,37.7622313,126.7735675,
724,호메오 (Homeo),경기 파주시,031-946-1727,"['가구', '쇼핑', '카페', '파주', '파주가볼만한곳', '파주카페']",https://cdn.visitkorea.or.kr/img/call?cmd=VIEW&id=10813a8d-6917-4c40-9dd6-87665c75e045&thumb,경기도 파주시 탄현면 헤이리마을길 59,37.7886791,126.6978572,
725,신장시장,경기 하남시,031-794-4626,"['남녀노소', '부모님과함께', '상설시장', '쇼핑', '시장맛집', '시장여행', '시장투어']",https://cdn.visitkorea.or.kr/img/call?cmd=VIEW&id=258aaa11-3193-4b6c-bf32-fa0d9b962c5c&thumb,경기도 하남시 신장1로3번길 42,37.5378624,127.2069721,
726,한국도요,경기 이천시,031-638-7037,"['도요지', '쇼핑', '이천', '청자']",https://cdn.visitkorea.or.kr/img/call?cmd=VIEW&id=8bc0e0f4-092e-4da0-8278-ae0a91938ffa&thumb,경기도 이천시 신둔면 황무로 485,37.3030677,127.4030128,
727,오래된 서점,경기 파주시,031-943-3325,"['쇼핑', '파주서점']",https://cdn.visitkorea.or.kr/img/call?cmd=VIEW&id=e42311b3-a2f2-4431-9502-b5ad935ed86a&thumb,경기도 파주시 상지석길 5-1,37.7330357,126.77592450000002,
