,name,region,tel,keyword,photo,address,lat,lon,Unnamed: 0
0,바람흔적미술관,경남 남해군,010-7542-3034,"['가족여행', '경상권', '기차여행', '문화시설', '미술관', '바람흔적미술관', '실내여행지']",https://cdn.visitkorea.or.kr/img/call?cmd=VIEW&id=5f55a807-bfc2-454e-b3fd-89f138e06803&thumb,경상남도 남해군 삼동면 금암로 519-4,34.76232785,128.0121821,
1,거제어촌민속전시관,경남 거제시,055-639-8282,"['가족여행', '가족체험여행', '거제어촌민속전시관', '경상권', '교과서속여행']",https://cdn.visitkorea.or.kr/img/call?cmd=VIEW&id=aa3cd8ce-ca5f-49f8-a658-b67b3de653d6&thumb,경상남도 거제시 일운면 지세포해안로 41,34.83369365,128.7018853,
2,창원시립진해박물관,경남 창원시,055-548-2053,"['경상권', '경상남도', '문화시설', '미세먼지_피하는_실내여행', '박물관', '아이와함께']",https://cdn.visitkorea.or.kr/img/call?cmd=VIEW&id=63dc054b-de4b-4ab3-8312-152670b383fa&thumb,경상남도 창원시 진해구 중원동로 52,35.14882748,128.66317949999998,
3,거제씨월드,경남 거제시,055-682-0330,"['가족여행', '가족체험', '거제씨월드', '경상권', '기념품판매', '동물원', '문화시설']",https://cdn.visitkorea.or.kr/img/call?cmd=VIEW&id=b73cb929-a970-4f96-b2f0-ddba7bdfab8d&thumb,경상남도 거제시 일운면 지세포해안로 15,34.83588245,128.70146200000002,
4,김해 분청도자박물관,경남 김해시,055-345-6037,"['가족과함께', '김해가볼만한곳', '도자기', '도자기만들기체험', '무더위_피해_실내여행']",https://cdn.visitkorea.or.kr/img/call?cmd=VIEW&id=42f8ed75-651b-44bd-8f63-147aa1dc1d55&thumb,경상남도 김해시 진례면 진례로 275-35,35.25149585,128.7458503,
5,해금강테마박물관,경남 거제시,055-632-0670,"['가족여행', '경상권', '교과서속여행', '문화시설', '박물관', '사계절', '실내여행지']",https://cdn.visitkorea.or.kr/img/call?cmd=VIEW&id=955de8f3-6c11-404e-8a6f-62d5febcb1fc&thumb,경상남도 거제시 남부면 해금강로 120,34.74055707,128.6626444,
6,고성공룡박물관,경남 고성군,055-670-4451,"['경상권', '고성공룡박물관', '공룡박물관', '문화시설', '박물관']",https://cdn.visitkorea.or.kr/img/call?cmd=VIEW&id=c9941730-37c5-4fae-b36d-3519db18adf1&thumb,경상남도 고성군 하이면 자란만로 618,34.90809856,128.1486504,
7,남해 파독전시관,경남 남해군,055-860-3540,"['가족여행', '경상권', '남해군요트학교', '동대문역사문화공원역', '레포츠체험']",https://cdn.visitkorea.or.kr/img/call?cmd=VIEW&id=9e553538-d58b-476b-a8d9-715516840511&thumb,경상남도 남해군 삼동면 독일로 89-7,34.80007232,128.03854850000002,
8,창원의 집,경남 창원시,055-714-7646,"['경상권', '기차여행', '문화시설', '아이와함께', '전통역사문화체험', '창원의집']",https://cdn.visitkorea.or.kr/img/call?cmd=VIEW&id=59e2288d-d71c-44d7-a8e3-70a20f24aacf&thumb,경상남도 창원시 의창구 사림로16번길 59 ,35.24445106,128.68135130000002,
9,국립진주박물관,경남 진주시,055-740-0698,"['경상권', '국립진주박물관', '기차여행', '문화시설', '미세먼지_피하는_실내여행']",https://cdn.visitkorea.or.kr/img/call?cmd=VIEW&id=b71afa0d-f273-4432-b125-7569c9656d4d&thumb,경상남도 진주시 남강로 626-35,35.18901371,128.0768441,
10,창원과학체험관,경남 창원시,055-267-2676,"['가족과함께', '가족여행', '경상권', '교육여행', '교육프로그램', '문화시설', '미세먼지_피하는_실내여행']",https://cdn.visitkorea.or.kr/img/call?cmd=VIEW&id=2e6b9e86-0609-4e09-874b-14533e90b759&thumb,경상남도 창원시 성산구 충혼로72번길 16,35.23025374,128.6617776,
11,거창사과테마파크,경남 거창군,055-940-8781,"['가족여행', '가족체험여행', '거창사과테마파크', '경상권', '농촌체험', '마을축제']",https://cdn.visitkorea.or.kr/img/call?cmd=VIEW&id=7ac40733-e28c-4edb-9a18-6e177d283e3e&thumb,경상남도 거창군 거창읍 거함대로 3372-60,35.67403799,127.9217451,
12,와인갤러리,경남 사천시,055-854-5800,"['문화시설', '사천가볼만한곳', '와인갤러리', '이색체험']",https://cdn.visitkorea.or.kr/img/call?cmd=VIEW&id=c4b8ea9d-ed72-4096-8fb8-c62719573df3&thumb,경상남도 사천시 곤명면 경서대로 3552,35.13894653,127.98817700000001,
13,하동야생차박물관,경남 하동군,055-880-2895,"['가족여행', '가족체험여행', '경상권', '문화시설', '미식여행', '박물관', '이색체험']",https://cdn.visitkorea.or.kr/img/call?cmd=VIEW&id=de70400e-1914-4947-bc58-51821d0c257e&thumb,경상남도 하동군 화개면 쌍계로 571-25,35.22773215,127.64269209999999,
14,박경리 기념관,경남 통영시,055-650-2543,"['경상권', '교과서속여행', '근대문화유산', '기념관', '문학기행', '문학상', '문화시설']",https://cdn.visitkorea.or.kr/img/call?cmd=VIEW&id=89be922d-3cc6-4f9f-8288-e2004af1754d&thumb,경상남도 통영시 산양읍 산양중앙로 173,34.80237093,128.40357959999997,
15,통영 명품진주전시관,경남 통영시,055-646-6092,"['가족과함께', '경상권', '남녀노소', '문화시설', '미세먼지_피하는_실내여행']",https://cdn.visitkorea.or.kr/img/call?cmd=VIEW&id=df3ec6dc-bbf6-409b-bff2-17e2a901ad0a&thumb,경상남도 통영시 용남면 남해안대로 83,34.89041635,128.4669455,
16,우포늪생태관,경남 창녕군,055-530-1551,"['가족여행', '경상권', '문화시설', '생태여행', '생태체험', '아이가_좋아하는_여행']",https://cdn.visitkorea.or.kr/img/call?cmd=VIEW&id=f6fdf606-4276-4a94-9c2d-56683da678fa&thumb,경상남도 창녕군 유어면 우포늪길 220,35.54456088,128.4191195,
17,포로수용소유적박물관,경남 거제시,055-639-0625,"['경상권', '문화시설', '박물관', '아이와함께', '역사공부', '역사관광지', '역사를품은곳']",https://cdn.visitkorea.or.kr/img/call?cmd=VIEW&id=a901968c-80cf-4fef-b75f-229db148c617&thumb,경상남도 거제시 계룡로 61,34.87637998,128.6253705,
18,양산문화예술회관,경남 양산시,055-379-8550,"['가족과함께', '남녀노소', '문화공간', '문화시설', '복합문화공간', '열린문화공간']",https://cdn.visitkorea.or.kr/img/call?cmd=VIEW&id=28645acb-9ab5-4efc-96e0-b5a7477ef5d7&thumb,경상남도 양산시 중앙로 39-1,35.33345033,129.0367575,
19,창원시립마산문신미술관,경남 창원시,055-225-7181,"['경상권', '기차여행', '문화시설', '미술관', '아이와함께', '예술', '전시관', '전통역사문화체험']",https://cdn.visitkorea.or.kr/img/call?cmd=VIEW&id=2284875c-ba05-4d03-8b54-b3a5d3d76c4d&thumb,경상남도 창원시 마산합포구 문신길 147,35.20675249,128.569266,
20,진주청동기문화박물관,경남 진주시,055-749-5172,"['경상권', '문화시설', '문화행사', '박물관', '아이와함께', '역사를품은곳', '역사속']",https://cdn.visitkorea.or.kr/img/call?cmd=VIEW&id=e0d95f21-b0b5-4280-b086-9626ba38aadd&thumb,경상남도 진주시 대평면 호반로 1353,35.22438437,127.9619666,
21,청마문학관,경남 통영시,055-650-2660,"['가족과함께', '경상권', '교과서속여행', '기념관', '남녀노소', '문학관', '문학기행']",https://cdn.visitkorea.or.kr/img/call?cmd=VIEW&id=403c0d85-037a-40a6-bbdb-322b60cf51e0&thumb,경상남도 통영시 망일1길 82,34.84525133,128.4354784,
22,남해국제탈공연예술촌,경남 남해군,055-864-7625,"['경상권', '남해국제탈공연예술촌', '문화시설', '아이와함께', '예술', '전시관']",https://cdn.visitkorea.or.kr/img/call?cmd=VIEW&id=d84110f7-4557-4827-902f-75e6fc50dad3&thumb,경상남도 남해군 이동면 남해대로 2412,34.81772907,127.92715890000001,
23,통영시립도서관,경남 통영시,055-650-2630,"['독서교육', '문화공간', '문화시설', '통영시립도서관']",https://cdn.visitkorea.or.kr/img/call?cmd=VIEW&id=f01766d6-0713-4ba1-b2a6-1f1dff947a5c&thumb,경상남도 통영시 무전3길 29,34.86150714,128.4247095,
24,산청 한의학박물관,경남 산청군,055-970-7216,"['가족여행', '걷기길', '경상권', '남녀노소', '문화시설', '박물관', '산청가볼만한곳']",https://cdn.visitkorea.or.kr/img/call?cmd=VIEW&id=bb183b13-78fa-4184-a843-1172bd3f0a00&thumb,경상남도 산청군 금서면 동의보감로555번길 45-6,35.44106594,127.8293595,
25,통영시립박물관,경남 통영시,055-646-8371,"['경상권', '문화시설', '문화행사', '미세먼지_피하는_실내여행', '박물관', '실내관광지']",https://cdn.visitkorea.or.kr/img/call?cmd=VIEW&id=2fb54ae9-495e-43f4-989b-2e8953caba54&thumb,경상남도 통영시 중앙로 65,34.84075131,128.41679109999998,
26,남해유배문학관,경남 남해군,055-860-8888,"['경상권', '교과서속여행', '남해유배문학관', '문화시설', '미세먼지_피하는_실내여행']",https://cdn.visitkorea.or.kr/img/call?cmd=VIEW&id=8ff22eca-d5c1-4b2a-9910-f5e012c2e23f&thumb,경상남도 남해군 남해읍 남해대로 2745,34.83196011,127.8991855,
27,함안박물관,경남 함안군,055-580-3901,"['경상권', '교과서속여행', '기차여행', '문화시설', '박물관', '아이와함께', '함안박물관']",https://cdn.visitkorea.or.kr/img/call?cmd=VIEW&id=4018751d-0eba-4120-bc79-c137e636c1df&thumb,경상남도 함안군 가야읍 고분길 153-31,35.26936766,128.40268799999998,
28,창녕박물관,경남 창녕군,055-530-1506,"['근대문화유산', '무료관람', '문화시설', '박물관', '아이와함께', '예술', '전시관']",https://cdn.visitkorea.or.kr/img/call?cmd=VIEW&id=a9fbea79-accf-4f50-bdd9-aedd0cf20f7c&thumb,경상남도 창녕군 창녕읍 창밀로 34,35.5454042,128.50544150000002,
29,클레이아크 김해미술관,경남 김해시,055-340-7000,"['가족여행', '경상권', '기념품판매', '문화시설', '미술관', '사계절', '예술', '이색체험']",https://cdn.visitkorea.or.kr/img/call?cmd=VIEW&id=89852cf6-213f-4caf-863e-21eb8c4680af&thumb,경상남도 김해시 진례면 진례로 275-51,35.25086479,128.7447968,
30,통영 옻칠미술관,경남 통영시,055-649-5257,"['가족여행', '경상권', '기념품판매', '문화시설', '미술관', '사계절', '예술', '이색체험']",https://cdn.visitkorea.or.kr/img/call?cmd=VIEW&id=907f447e-f891-435d-b986-f7b9318969d0&thumb,경상남도 통영시 용남면 용남해안로 36,34.85461932,128.4429192,
31,얼음골축음기소리박물관(밀양),경남 밀양시,055-354-8878,"['가족과함께', '문화시설', '밀양가볼만한곳', '소리박물관', '아이와함께', '역사를품은곳']",https://cdn.visitkorea.or.kr/img/call?cmd=VIEW&id=f1cb6656-f9d4-458e-a163-4611cfca3e4d&thumb,경상남도 밀양시 산내면 산내로 926-1,35.59817382,128.9351502,
32,지리산생태과학관,경남 하동군,055-884-3026,"['겨울방학가볼만한곳', '경상권', '문화시설', '아이와함께', '여름방학가볼만한곳']",https://cdn.visitkorea.or.kr/img/call?cmd=VIEW&id=10451b30-2594-452d-a295-0fa43432d48d&thumb,경상남도 하동군 악양면 섬진강대로 3358-30,35.15066116,127.6756445,
33,국립김해박물관,경남 김해시,055-320-6800,"['경상권', '교과서속여행', '국립김해박물관', '문화시설', '박물관', '아이와함께']",https://cdn.visitkorea.or.kr/img/call?cmd=VIEW&id=ab7daf4a-69cc-41a7-ba15-9f907ec8d248&thumb,경상남도 김해시 가야의길 190,35.24353009,128.8725848,
34,창원시립마산박물관,경남 창원시,055-225-7171,"['경상권', '기차여행', '단체관람', '문화시설', '박물관', '아이와함께', '전통&역사문화체험']",https://cdn.visitkorea.or.kr/img/call?cmd=VIEW&id=05419d8c-e13d-4b92-a22e-be37a42f67e0&thumb,경상남도 창원시 마산합포구 문신길 105,35.20567156,128.5689101,
35,매암차문화박물관,경남 하동군,055-883-3500,"['경상권', '다도', '매암차문화박물관', '문화시설', '박물관', '차문화체험']",https://cdn.visitkorea.or.kr/img/call?cmd=VIEW&id=46ae7f08-0323-43c6-b9d8-2d945130b820&thumb,경상남도 하동군 악양면 악양서로 346-1,35.16110665,127.70936409999999,
36,대성동고분박물관,경남 김해시,055-330-6881,"['경상권', '교과서속여행', '대성동고분박물관', '문화시설', '박물관', '아이와함께']",https://cdn.visitkorea.or.kr/img/call?cmd=VIEW&id=ea6f613d-f032-4ac3-9e84-99c63d1042b2&thumb,경상남도 김해시 가야의길 126,35.23606102,128.8730821,
37,거제민속박물관,경남 거제시,055-637-3722,"['가족과 함께', '거제민속박물관', '문화시설', '민속문화', '아이와 함께', '전통문화']",https://cdn.visitkorea.or.kr/img/call?cmd=VIEW&id=4fe1b8d8-8e2d-4493-b470-1f60f53d8363&thumb,경상남도 거제시 연초면 대금산로 339-7,34.95011436,128.677436,
38,전혁림 미술관,경남 통영시,055-645-7349,"['나홀로여행', '당일치기여행', '문화시설', '미술관', '예술', '전혁림미술관']",https://cdn.visitkorea.or.kr/img/call?cmd=VIEW&id=7f3cf7ed-5455-4a8c-b561-9205dd292b68&thumb,경상남도 통영시 봉수1길 10,34.8265161,128.4151249,
39,의령예술촌,경남 의령군,055-572-0104,"['경남권', '기차여행', '문화시설', '박물관', '상설공연', '아이와함께', '예술', '의령예술촌']",https://cdn.visitkorea.or.kr/img/call?cmd=VIEW&id=46951fc5-576a-4041-b731-a3403e5b01b6&thumb,경상남도 의령군 궁류면 벽계로 16-32,35.43503467,128.2240603,
40,합천박물관,경남 합천군,055-930-4882,"['경상권', '교과서속여행', '문화시설', '박물관', '사계절', '실내여행지', '아이와함께']",https://cdn.visitkorea.or.kr/img/call?cmd=VIEW&id=93c26ac7-cc47-4c94-86ee-e96793c5bdef&thumb,경상남도 합천군 쌍책면 황강옥전로 1558,35.58042227,128.2829415,
41,양산시립박물관,경남 양산시,055-392-3313,"['경상권', '교과서속여행', '문화시설', '박물관', '사계절', '아이와함께', '양산시립박물관']",https://cdn.visitkorea.or.kr/img/call?cmd=VIEW&id=7e67bc5a-7f10-4892-8e0e-4dd6f7e9af6f&thumb,경상남도 양산시 북정로 78,35.3584941,129.04903249999998,
42,밀양시립박물관,경남 밀양시,055-359-5589,"['경상권', '기차여행', '문화시설', '밀양시립박물관', '박물관', '아이와함께', '전시관']",https://cdn.visitkorea.or.kr/img/call?cmd=VIEW&id=2da88c6d-cf6c-4c87-91ec-833ca5dc40cf&thumb,경상남도 밀양시 밀양대공원로 100,35.50296509,128.7593643,
43,진해문화원,경남 창원시,055-544-8880,"['문화강좌', '문화시설', '열린문화공간', '진해문화원']",https://cdn.visitkorea.or.kr/img/call?cmd=VIEW&id=68d8bb28-5c2c-4700-a845-76cbcd0efed0&thumb,경상남도 창원시 진해구 편백로 39,35.149542499999995,128.66053390000002,
44,김해문화원,경남 김해시,055-326-2646,"['김해문화원', '문화강좌', '문화시설', '열린문화공간']",https://cdn.visitkorea.or.kr/img/call?cmd=VIEW&id=d80682c8-a063-4cd3-bb94-af0d7327e682&thumb,경상남도 김해시 분성로 225,35.23184079,128.87053490000002,
45,칠천량해전공원전시관,경남 거제시,055-639-8250,"['경상권', '교과서속여행', '기념관', '문화시설', '박물관', '역사공부', '역사관광지']",https://cdn.visitkorea.or.kr/img/call?cmd=VIEW&id=a24c4536-24d3-4997-9128-16e60b72879d&thumb,경상남도 거제시 하청면 칠천로 265-39,34.97766166,128.62824740000002,
46,표충사호국박물관,경남 밀양시,055-352-1150,"['문화시설', '미세먼지_피하는_실내여행', '박물관', '실내관광지', '실내여행지']",https://cdn.visitkorea.or.kr/img/call?cmd=VIEW&id=ad1f0fd8-bba7-4ee3-b8b6-500f00056982&thumb,경상남도 밀양시 단장면 표충로 1338,35.53226072,128.9590442,
47,창원역사민속관,경남 창원시,055-714-7646,"['겨울방학가볼만한곳', '경상권', '문화시설', '문화행사', '설날연휴가볼만한곳']",https://cdn.visitkorea.or.kr/img/call?cmd=VIEW&id=e3fa5ac0-2b14-4d39-9020-e128a3761dbb&thumb,경상남도 창원시 의창구 창이대로397번길 25,35.24508737,128.6808222,
48,산청박물관,경남 산청군,070-8990-2133,"['문화시설', '복합문화공간', '산청가볼만한곳', '산청당일코스', '역사공부', '역사속']",https://cdn.visitkorea.or.kr/img/call?cmd=VIEW&id=11bff473-7b8a-4a76-b634-0cf0982cafb0&thumb,경상남도 산청군 생초면 산수로 1064,35.49232886,127.8317376,
49,지리산 빨치산토벌 전시관,경남 산청군,055-974-0160,"['문화시설', '빨치산토벌', '전시관', '전쟁역사', '지리산', '한국전쟁']",https://cdn.visitkorea.or.kr/img/call?cmd=VIEW&id=40f27347-7634-4c76-90a3-7b5901827de7&thumb,경상남도 산청군 시천면 지리산대로 536,35.29123516,127.7542415,
50,고성문화원(경남),경남 고성군,055-672-3805,"['고성문화원', '문화시설', '복합문화공간', '열린문화공간']",https://cdn.visitkorea.or.kr/img/call?cmd=VIEW&id=a5c7fe6d-bca7-4ed0-ad22-a62b9ede53d3&thumb,경상남도 고성군 고성읍 성내로 54,34.97543943,128.3149137,
51,평사리문학관,경남 하동군,055-882-6669,"['가족여행', '경상권', '문학', '문학관', '문화시설', '소설책', '아이와함께', '연중무휴']",https://cdn.visitkorea.or.kr/img/call?cmd=VIEW&id=4c04757c-53df-4092-9334-00e320ca3435&thumb,경상남도 하동군 악양면 평사리길 76-23,35.15628913,127.6875791,
52,해인사 성보박물관,경남 합천군,055-934-3150,"['경상권', '문화시설', '박물관', '불교', '불교문화', '사찰', '사찰여행', '역사공부']",https://cdn.visitkorea.or.kr/img/call?cmd=VIEW&id=645cc253-ff57-4859-b8a0-7f205b4b683f&thumb,경상남도 합천군 가야면 가야산로 1742-17,35.79357523,128.09456219999998,
53,고성자연사박물관,경남 고성군,055-670-4505,"['경남권', '고성자연사박물관', '교과서속여행', '문화시설', '박물관', '아이와함께']",https://cdn.visitkorea.or.kr/img/call?cmd=VIEW&id=bf104224-9560-40e3-abd3-9220a7436d3e&thumb,경상남도 고성군 회화면 당항만로 1116,35.05322563,128.39202609999998,
54,주남저수지 생태학습관,경남 창원시,055-225-3491,"['가족여행', '걷기길', '경상권', '남녀노소', '문화시설', '생태여행', '생태체험']",https://cdn.visitkorea.or.kr/img/call?cmd=VIEW&id=e25a45f5-deca-4462-a5a7-90c27b75fc83&thumb,경상남도 창원시 의창구 동읍 주남로101번길 26,35.30733001,128.6779304,
55,창원문화원,경남 창원시,055-284-8870,"['문화강좌', '문화시설', '창원문화원', '친구와 함께']",https://cdn.visitkorea.or.kr/img/call?cmd=VIEW&id=be49fa38-b773-4fcc-b0eb-2e1aa8c2f12b&thumb,경상남도 창원시 의창구 용지로239번길 19-22,35.23555591,128.6836618,
56,목면시배유지,경남 산청군,055-973-2445,"['가족여행', '경상권', '목면시배유지', '문익점', '문화시설', '체험학습']",https://cdn.visitkorea.or.kr/img/call?cmd=VIEW&id=9cf0fac9-25f3-4820-bfb1-f8906dbc1578&thumb,경상남도 산청군 단성면 목화로 887,35.29061291,127.95805630000001,
57,이순신 영상관,경남 남해군,055-860-3786,"['가족과함께', '문화시설', '미세먼지_피하는_실내여행', '아이와함께', '역사공부']",https://cdn.visitkorea.or.kr/img/call?cmd=VIEW&id=74bf6bea-8778-48e4-a3eb-f748b757582f&thumb,경상남도 남해군 고현면 남해대로 3829,34.91252187,127.85781010000001,
58,통도사 성보박물관,경남 양산시,055-382-1001,"['경상권', '기차여행', '나들이', '문화시설', '박물관', '아이와함께', '전시관', '전통&역사문화체험']",https://cdn.visitkorea.or.kr/img/call?cmd=VIEW&id=5e4a8e8d-4c4a-413b-9366-b86f8ffe9dc5&thumb,경상남도 양산시 하북면 통도사로 108,35.47540912,129.0563672,
59,진해문화센터,경남 창원시,055-719-7876,"['가족과함께', '기획공연', '남녀노소', '문화공간', '문화시설', '문화예술', '문화예술활동']",https://cdn.visitkorea.or.kr/img/call?cmd=VIEW&id=ff1e3de7-0ec3-4a9f-8dff-717e8650264f&thumb,경상남도 창원시 진해구 진해대로 325,35.16958314,128.6594645,
60,김해민속박물관,경남 김해시,055-328-2646,"['가족여행', '경상권', '교과서속여행', '김해민속박물관', '문화시설', '민속문화재']",https://cdn.visitkorea.or.kr/img/call?cmd=VIEW&id=0a220f3c-e2a1-49e1-9c97-9edc68e67641&thumb,경상남도 김해시 분성로261번길 35,35.235053,128.8757902,
61,함양문화예술회관,경남 함양군,055-960-5544,"['경상권', '문화공간', '문화시설', '복합문화공간', '사계절', '실내여행지', '아이와함께']",https://cdn.visitkorea.or.kr/img/call?cmd=VIEW&id=eefaf268-66fd-4722-8a5c-fba8500cd03e&thumb,경상남도 함양군 함양읍 필봉산길 55,35.52471022,127.72227269999999,
62,산청문화원(문화의집),경남 산청군,055-973-0977,"['문화시설', '복합문화공간', '산청문화원', '열린문화공간', '친구와 함께']",https://cdn.visitkorea.or.kr/img/call?cmd=VIEW&id=8bdc166c-018d-4e74-9298-991454483cd9&thumb,경상남도 산청군 산청읍 산엔청로 56,35.41412667,127.87878799999999,
63,주남저수지 람사르문화관,경남 창원시,055-225-2798,"['가족여행', '경상권', '람사르문화관', '람사르습지', '문화시설', '생태여행', '생태테마']",https://cdn.visitkorea.or.kr/img/call?cmd=VIEW&id=b3b0ffc9-8ea5-468a-b79f-ba538c0e81c8&thumb,경상남도 창원시 의창구 동읍 주남로101번길 26,35.30733001,128.6779304,
64,하동문화예술회관,경남 하동군,055-880-2401,"['경상남도', '남녀노소', '대공연장', '무장애', '문화공간', '문화시설', '문화예술활동']",https://cdn.visitkorea.or.kr/img/call?cmd=VIEW&id=c1f0bf74-bd7e-4bf2-b374-6b93e7e6cdab&thumb,경상남도 하동군 하동읍 섬진강대로 2222,35.07240609,127.7411495,
65,김해문화의전당,경남 김해시,055-320-1234,"['경상권', '공연관람', '공연장', '김해문화의전당', '데이트코스', '문화시설', '문화예술']",https://cdn.visitkorea.or.kr/img/call?cmd=VIEW&id=d56724d3-8bf0-4beb-abf6-88ba2bf043ec&thumb,경상남도 김해시 김해대로 2060,35.24373381,128.8694108,
66,김씨 박물관,경남 창원시,055-552-8608,"['경상권', '김씨박물관', '문화시설', '박물관', '아이와함께', '추억', '추억여행']",https://cdn.visitkorea.or.kr/img/call?cmd=VIEW&id=109de094-3500-4869-8d59-9fdcff2fa852&thumb,경상남도 창원시 진해구 소사로59번나길 4,35.12913212,128.776266,
67,남해문화센터,경남 남해군,055-860-8627,"['가족여행', '나들이', '남해문화체육센터', '문화시설', '사계절', '아이와함께']",https://cdn.visitkorea.or.kr/img/call?cmd=VIEW&id=ee306391-b974-4200-ac0d-df54e703ca5a&thumb,경상남도 남해군 남해읍 선소로 12,34.84488792,127.89976750000001,
68,에너지환경과학공원 에너지전시관,경남 창원시,055-712-0433,"['경상권', '문화시설', '산업관광', '신재생에너지', '아이와함께', '에너지환경과학공원에너지전시관']",https://cdn.visitkorea.or.kr/img/call?cmd=VIEW&id=b10a4bf0-2ac0-46b6-912d-42aae7aa8fac&thumb,경상남도 창원시 진해구 천자로 101,35.14231433,128.6893981,
69,합천문화원,경남 합천군,055-931-2401,"['문화강좌', '문화시설', '열린문화공간', '합천문화원']",https://cdn.visitkorea.or.kr/img/call?cmd=VIEW&id=null&thumb,경상남도 합천군 합천읍 핫들2로 58,35.56652089,128.1682792,
70,진주시립 이성자미술관,경남 진주시,055-749-3663,"['남녀노소', '문화시설', '문화예술공간', '미세먼지_피하는_실내여행', '미술관']",https://cdn.visitkorea.or.kr/img/call?cmd=VIEW&id=3bd6ec31-6d7a-4a2a-9626-7f138b798d94&thumb,경상남도 진주시 에나로128번길 14,35.17580996,128.14274029999999,
71,거창문화센터,경남 거창군,055-940-8460,"['가족과함께', '공연', '문화공간', '문화시설', '문화예술', '문화예술활동', '복합문화공간']",https://cdn.visitkorea.or.kr/img/call?cmd=VIEW&id=a2d61dee-014c-4429-8cdd-e4ba8c7014b3&thumb,경상남도 거창군 거창읍 수남로 2181,35.67430045,127.9103127,
72,고성탈박물관,경남 고성군,055-672-8829,"['경상권', '고성탈박물관', '교과서속여행', '문화시설', '박물관', '실내여행지']",https://cdn.visitkorea.or.kr/img/call?cmd=VIEW&id=22dcc428-98d0-4abd-9ba4-54ac5a984552&thumb,경상남도 고성군 고성읍 율대2길 23,34.97104862,128.3338051,
73,함안문화예술회관,경남 함안군,055-580-3625,"['경상권', '데이트코스', '문화공간', '문화시설', '문화행사', '복합문화공간', '사계절']",https://cdn.visitkorea.or.kr/img/call?cmd=VIEW&id=36b4cfdd-e4a2-4040-a143-c60f76f90443&thumb,경상남도 함안군 가야읍 함안대로 619-1,35.28329871,128.4012309,
74,거제문화예술회관,경남 거제시,055-680-1000,"['가족과함께', '문화공간', '문화시설', '문화예술', '복합문화공간', '연인과함께']",https://cdn.visitkorea.or.kr/img/call?cmd=VIEW&id=02e2c288-fe2d-4398-9e97-9dabff42e773&thumb,경상남도 거제시 장승로 145,34.86717837,128.72335759999999,
75,경남도립미술관,경남 창원시,055-254-4600,"['경남도립미술관', '경상권', '데이트코스', '문화시설', '사계절', '상설공연', '실내여행지']",https://cdn.visitkorea.or.kr/img/call?cmd=VIEW&id=e47b732c-c26c-43c2-9d4a-c3ba90a6f7c5&thumb,경상남도 창원시 의창구 용지로 296,35.23946357,128.6908566,
76,3·15 아트센터,경남 창원시,055-286-0315,"['3.15아트센터', '경상권', '데이트코스', '문화공간', '문화시설', '문화예술활동']",https://cdn.visitkorea.or.kr/img/call?cmd=VIEW&id=31d52479-955e-4783-a7d8-c939d301d142&thumb,경상남도 창원시 마산회원구 삼호로 135,35.22581853,128.5771062,
77,남부산림자원연구소,경남 진주시,055-759-8231,"['경상권', '기차여행', '남부산림자원연구소', '문화시설', '실내여행지', '아이와함께']",https://cdn.visitkorea.or.kr/img/call?cmd=VIEW&id=c50ed778-8482-4328-8024-8d16d4756e04&thumb,경상남도 진주시 진주대로 672,35.16693572,128.1064996,
78,성산아트홀,경남 창원시,055-268-7900,"['경상권', '공연장', '데이트코스', '문화시설', '상설공연', '성산아트홀', '아이와함께']",https://cdn.visitkorea.or.kr/img/call?cmd=VIEW&id=59c62ea6-345b-48d1-a187-2c0ccf577aa9&thumb,경상남도 창원시 의창구 중앙대로 181,35.22938715,128.6831193,
79,엄홍길전시관,경남 고성군,055-673-2296,"['가족과함께', '경상권', '남녀노소', '문화시설', '미세먼지_피하는_실내여행']",https://cdn.visitkorea.or.kr/img/call?cmd=VIEW&id=19f29e3f-fdcb-4f3b-83b5-db416f0df539&thumb,경상남도 고성군 거류면 거류로 335,34.97261395,128.3868626,
80,거창사건역사교육관,경남 거창군,055-940-8510,"['거창군', '경상남도', '무장애', '문화시설', '역사', '희생자']",https://cdn.visitkorea.or.kr/img/call?cmd=VIEW&id=ffbba783-156a-4957-883d-67ae5c72e4da&thumb,경상남도 거창군 신원면 신차로 2924,35.55574562,127.92489029999999,
81,보물섬 마늘나라,경남 남해군,055-860-3986,"['경상권', '기차여행', '문화시설', '박물관', '보물섬마늘나라', '아이와함께', '전통&역사문화체험']",https://cdn.visitkorea.or.kr/img/call?cmd=VIEW&id=9dbb2d0c-528a-4290-965e-214846f4850e&thumb,경상남도 남해군 이동면 남해대로 2443,34.81705961,127.92480249999998,
82,사천문화원,경남 사천시,055-833-3163,"['문화강좌', '문화시설', '복합문화공간', '사천문화원', '열린문화공간']",https://cdn.visitkorea.or.kr/img/call?cmd=VIEW&id=0492d3fe-45c0-4967-97b5-a5b47409173b&thumb,경상남도 사천시 문선4길 21,34.93549148,128.08194070000002,
83,창원시립 마산음악관,경남 창원시,055-225-4062,"['경상권', '남녀노소', '문화시설', '문화예술', '복합문화공간', '열린문화공간']",https://cdn.visitkorea.or.kr/img/call?cmd=VIEW&id=be6f4141-5627-4cc9-85f1-65df1a1848d8&thumb,경상남도 창원시 마산합포구 수산2길 35,35.19757403,128.5719105,
84,통영문화원,경남 통영시,055-646-3310,"['문화시설', '복합문화공간', '열린문화공간', '통영문화원']",https://cdn.visitkorea.or.kr/img/call?cmd=VIEW&id=b90f165d-7b96-4721-b856-80f2ad36b483&thumb,경상남도 통영시 서문로 23,34.84682035,128.42195159999997,
85,대산미술관,경남 창원시,055-291-5237,"['기차여행', '대산미술관', '문화시설', '미술관', '실내여행지', '아이와함께', '예술']",https://cdn.visitkorea.or.kr/img/call?cmd=VIEW&id=cf871de8-b7fe-42fa-aae2-060add9ad149&thumb,경상남도 창원시 의창구 대산면 유등로369번길 14-8,35.34513902,128.7440738,
86,CECO 창원컨벤션센터,경남 창원시,055-212-1000,"['CECO창원컨벤션센터', '가족과함께', '경상권', '문화시설', '복합문화공간']",https://cdn.visitkorea.or.kr/img/call?cmd=VIEW&id=975e9f21-192e-4e22-af86-c27424596051&thumb,경상남도 창원시 의창구 원이대로 362,35.23839932,128.656895,
87,김춘수 유품전시관,경남 통영시,055-650-2670,"['겨울방학가볼만한곳', '경상권', '교과서속여행', '김춘수유품전시관', '문화시설']",https://cdn.visitkorea.or.kr/img/call?cmd=VIEW&id=e1b5b287-3880-483f-b134-2b2d4702c6dc&thumb,경상남도 통영시 해평5길 142-16,34.83336721,128.4161579,
88,거제박물관,경남 거제시,055-687-6790,"['거제박물관', '문화시설', '박물관', '아이와 함께', '체험학습']",https://cdn.visitkorea.or.kr/img/call?cmd=VIEW&id=b50a55cf-d7ea-4dd5-9718-3178c4497ffc&thumb,경상남도 거제시 거제대로 3791,34.89403977,128.68621059999998,
89,미리벌민속박물관,경남 밀양시,055-391-2882,"['경상남도', '문화시설', '미리벌민속박물관', '밀양', '전시관', '전통문화']",https://cdn.visitkorea.or.kr/img/call?cmd=VIEW&id=c188cd65-fde4-4774-afa8-10ce96830ed8&thumb,경상남도 밀양시 초동면 초동중앙로 439,35.41891126,128.6738986,
90,통영시민문화회관,경남 통영시,055-650-4560,"['경북권', '공연장', '데이트코스', '문화시설', '복합문화공간', '실내여행지', '아이와함께']",https://cdn.visitkorea.or.kr/img/call?cmd=VIEW&id=41ec3e07-503e-4fd5-88b2-66b402d7741e&thumb,경상남도 통영시 남망공원길 29,34.84232394,128.4286308,
91,밀양문화원,경남 밀양시,055-354-3009,"['경상남도', '무장애', '문화공간', '문화시설', '밀양시', '박물관', '전시']",https://cdn.visitkorea.or.kr/img/call?cmd=VIEW&id=2fbf5f52-049d-4b72-8124-e90203dee938&thumb,경상남도 밀양시 중앙로 265,35.4867908,128.7548535,
92,함안도서관,경남 함안군,055-583-6920,"['경상권', '도서관', '문화시설', '사계절', '실내여행지', '아이와함께', '체험학습']",https://cdn.visitkorea.or.kr/img/call?cmd=VIEW&id=0d0e9dd5-c167-4042-8e8c-8359ec611bfc&thumb,경상남도 함안군 가야읍 함안대로 495,35.27115565,128.4081957,
93,토지주택박물관,경남 진주시,055-922-5432,"['경남권', '기차여행', '문화시설', '박물관', '아이와함께', '자연좋은곳', '전시관']",https://cdn.visitkorea.or.kr/img/call?cmd=VIEW&id=031abd59-1391-4f8e-be47-5569b6afe521&thumb,경상남도 진주시 충의로 19,35.17824568,128.146167,
94,천적생태과학관,경남 거창군,055-940-3929,"['가족여행', '가족체험여행', '경상권', '교과서속여행', '무더위_피해_실내놀이']",https://cdn.visitkorea.or.kr/img/call?cmd=VIEW&id=1aa6ec07-fb5a-4546-8614-558c8b425929&thumb,경상남도 거창군 거창읍 정장길 171-54,35.673225,127.919525,
95,경상남도문화예술회관,경남 진주시,1544-6711,"['가족여행', '경상권', '경상남도문화예술회관', '단체관람', '문화시설', '연인과함께']",https://cdn.visitkorea.or.kr/img/call?cmd=VIEW&id=2dae2e6f-4e0c-44c5-97df-0d9e14ddc817&thumb,경상남도 진주시 강남로 215,35.18727372,128.091744,
96,고성박물관,경남 고성군,055-670-5822,"['가야', '가족과함께', '고성가볼만한곳', '기획전시', '남녀노소', '대가야국', '무더위_피해_실내여행']",https://cdn.visitkorea.or.kr/img/call?cmd=VIEW&id=0aded3aa-d38f-47fc-b043-de46154e32a9&thumb,경상남도 고성군 고성읍 송학로113번길 50,34.97937268,128.3210119,
97,경상남도과학교육원,경남 진주시,055-760-8150,"['경상권', '경상남도과학교육원', '교과서속여행', '문화시설', '사계절', '아이와함께']",https://cdn.visitkorea.or.kr/img/call?cmd=VIEW&id=c3b7d55c-115a-4e00-95b3-ae4a5ad70426&thumb,경상남도 진주시 진성면 진의로 178-35,35.201496500000005,128.2260027,
98,거창박물관,경남 거창군,055-940-8740,"['거창박물관', '경상권', '기차여행', '문화시설', '박물관', '아이와함께', '전시관']",https://cdn.visitkorea.or.kr/img/call?cmd=VIEW&id=c1815990-1a87-4898-84ed-33a95c636ff6&thumb,경상남도 거창군 거창읍 수남로 2181,35.67430045,127.9103127,
99,박재삼 문학관,경남 사천시,055-832-4953,"['가족과함께', '경상권', '기념관', '남녀노소', '도서관', '문학', '문학관', '문학기행']",https://cdn.visitkorea.or.kr/img/call?cmd=VIEW&id=fa0d3d12-f842-4f39-bcbd-b56f8168269a&thumb,경상남도 사천시 박재삼길 27,34.92592006,128.07434540000003,
100,이병주문학관,경남 하동군,055-882-2354,"['가족과함께', '경상권', '기념관', '문학관', '문학기행', '문화시설', '복합문화공간']",https://cdn.visitkorea.or.kr/img/call?cmd=VIEW&id=d39576b1-a011-4b61-b717-a6e94eea79a7&thumb,경상남도 하동군 북천면 이명골길 14-28,35.09720238,127.89421019999999,
101,거제문화원,경남 거제시,055-681-2603,"['거제문화원', '거제시', '경상남도', '공공단체', '문화시설', '문화원', '문화체육관광부']",https://cdn.visitkorea.or.kr/img/call?cmd=VIEW&id=3ff3cc20-982f-4689-a234-8f3e7316c100&thumb,경상남도 거제시 능포로 7,34.8701972,128.7230926,
102,KBS 창원홀,경남 창원시,055-280-7181,"['kbs창원홀', '가족여행', '경상권', '공연장', '나들이', '데이트코스', '문화시설']",https://cdn.visitkorea.or.kr/img/call?cmd=VIEW&id=683f9a1f-c4e2-4fbb-9efc-2a818ecde619&thumb,경상남도 창원시 의창구 중앙대로 178,35.22916614,128.686041,
103,남해문화원,경남 남해군,055-864-6969,"['남해문화원', '문화강좌', '문화시설', '복합문화공간', '열린문화공간']",https://cdn.visitkorea.or.kr/img/call?cmd=VIEW&id=181562da-51a8-4a54-baac-d7acb2468ae6&thumb,경상남도 남해군 남해읍 선소로 12,34.84488792,127.89976750000001,
104,창원시 늘푸른전당,경남 창원시,055-712-0372,"['경상권', '공연장', '데이트코스', '문화시설', '수영장', '스포츠센터', '아이와함께']",https://cdn.visitkorea.or.kr/img/call?cmd=VIEW&id=d8dc56fa-a67d-4ea8-ad1f-39dabf1afb03&thumb,경상남도 창원시 의창구 두대로 97,35.23006618,128.65454309999998,
105,김해시 수도박물관,경남 김해시,055-330-6710,"['문화시설', '수도박물관', '이색체험']",https://cdn.visitkorea.or.kr/img/call?cmd=VIEW&id=962edec5-848e-49a8-9020-1288c59e4bb7&thumb,경상남도 김해시 한림면 김해대로 1347,35.28477091,128.8226012,
106,사천첨단항공우주과학관,경남 사천시,055-831-3340,"['가족과함께', '문화시설', '사천첨단항공우주과학관', '아이와함께', '이색체험']",https://cdn.visitkorea.or.kr/img/call?cmd=VIEW&id=ecc6fa6f-824a-434a-8938-a6ad92baff32&thumb,경상남도 사천시 사남면 공단1로 108,35.07090584,128.0634576,
107,국립밀양기상과학관,경남 밀양시,055-981-7370,"['국립밀양기상과학관', '기상과학관', '문화시설', '밀양가볼만한곳', '아이와함께']",https://cdn.visitkorea.or.kr/img/call?cmd=VIEW&id=9e2b5eed-558a-45a8-80a4-f8b4e0564442&thumb,경상남도 밀양시 밀양대공원로 84,35.50214408,128.76063349999998,
108,함양문화원,경남 함양군,055-963-2646,"['경상남도', '문화시설', '체험프로그램', '친구와함께', '함양군', '향토문화', '향토예술']",https://cdn.visitkorea.or.kr/img/call?cmd=VIEW&id=b4afab52-e02c-4643-90b6-dacd7478746d&thumb,경상남도 함양군 함양읍 함양여중길 10,35.52335443,127.72728190000001,
109,산청 목조각장전수관,경남 산청군,055-973-7525,"['경상남도', '목아전수관', '목조각장', '문화시설', '박찬수', '복합문화공간', '산청군']",https://cdn.visitkorea.or.kr/img/call?cmd=VIEW&id=70fdc0ca-87d9-4e22-8fe7-dd857ae56e84&thumb,경상남도 산청군 생초면 산수로 1064,35.49232886,127.8317376,
110,김달진 문학관,경남 창원시,055-547-2623,"['경상권', '기념관', '김달진문학관', '무장애', '문화시설', '아이와함께', '전시관']",https://cdn.visitkorea.or.kr/img/call?cmd=VIEW&id=1fe8a1bc-7cc1-4e92-a6a2-be3c208d909c&thumb,경상남도 창원시 진해구 소사로59번길 13,35.12876046,128.7766223,
111,고성오광대전수회관,경남 고성군,055-674-2582,"['경상남도', '경상남도', '고성군', '광대', '무형문화재', '문화시설', '오광대', '탈놀이']",https://cdn.visitkorea.or.kr/img/call?cmd=VIEW&id=9336c778-27d1-4ec0-ba68-4cf31e8f908c&thumb,경상남도 고성군 고성읍 남해안대로 2571,34.97363623,128.33410279999998,
112,하동문화원,경남 하동군,055-884-3929,"['경상남도', '무장애', '문화시설', '문화프로그램', '문화프로그램', '하동군']",https://cdn.visitkorea.or.kr/img/call?cmd=VIEW&id=e25710b9-5df8-47e8-a2de-a93a160ba344&thumb,경상남도 하동군 하동읍 섬진강대로 2222,35.07240609,127.7411495,
113,거창문화원,경남 거창군,055-942-6166,"['거창문화원', '문화강좌', '문화시설', '열린문화공간']",https://cdn.visitkorea.or.kr/img/call?cmd=VIEW&id=undefined&thumb,경상남도 거창군 거창읍 수남로 2193-40,35.67353077,127.90941959999999,
114,마산문화원,경남 창원시,055-293-1186,"['마산문화원', '문화시설', '복합문화공간', '열린문화공간']",https://cdn.visitkorea.or.kr/img/call?cmd=VIEW&id=undefined&thumb,경상남도 창원시 마산합포구 3·15대로 199,35.1959708,128.5667109,
115,함안문화원,경남 함안군,055-583-1023,"['문화시설', '복합문화공간', '아이와 함께', '열린문화공간', '함안문화원']",https://cdn.visitkorea.or.kr/img/call?cmd=VIEW&id=bd625d32-79e9-41eb-82eb-90fe0bd1485d&thumb,경상남도 함안군 가야읍 선왕길 1-1,35.28388598,128.40147,
116,창녕문화원,경남 창녕군,055-533-3777,"['문화강좌', '문화시설', '열린문화공간', '창녕문화원']",https://cdn.visitkorea.or.kr/img/call?cmd=VIEW&id=undefined&thumb,경상남도 창녕군 창녕읍 만옥정길 10,35.54142861,128.5002818,
117,경남대학교 박물관,경남 창원시,055-249-2922,"['경남대학교박물관', '경상권', '무료관람', '문화시설', '박물관', '실내여행지']",https://cdn.visitkorea.or.kr/img/call?cmd=VIEW&id=undefined&thumb,경상남도 창원시 마산합포구 경남대학로 7,35.18432093,128.55509640000002,
118,합천도서관,경남 합천군,055-932-0521,"['교육프로그램', '독서여행', '문화공간', '문화시설', '복합문화공간', '아이와함께']",https://cdn.visitkorea.or.kr/img/call?cmd=VIEW&id=null&thumb,경상남도 합천군 합천읍 동서로 152,35.56408575,128.1685946,
119,이주홍어린이문학관,경남 합천군,055-933-0036,"['경상권', '교육여행', '문학', '문학관', '문화시설', '사계절', '아이와함께', '이주홍어린이문학관']",https://cdn.visitkorea.or.kr/img/call?cmd=VIEW&id=undefined&thumb,경상남도 합천군 용주면 합천호수로 828-7,35.54695726,128.0806352,
120,극단 벅수골 전용소극장,경남 통영시,055-645-6379,"['골목문화공간', '공연', '데이트', '문화시설', '복합문화공간', '소극장', '연극']",https://cdn.visitkorea.or.kr/img/call?cmd=VIEW&id=undefined&thumb,경상남도 통영시 중앙로 152,34.84516269,128.4239435,
121,통영국제음악당,경남 통영시,055-650-0400,"['가족과함께', '남녀노소', '문화공간', '문화시설', '문화예술', '문화예술활동']",https://cdn.visitkorea.or.kr/img/call?cmd=VIEW&id=d1b87c73-b2e0-424d-a34e-3cac06fc3dc1&thumb,경상남도 통영시 큰발개1길 38,34.82599385,128.44003329999998,
122,의령문화원,경남 의령군,055-573-2034,"['문화시설', '복합문화공간', '열린문화공간', '의령문화원']",https://cdn.visitkorea.or.kr/img/call?cmd=VIEW&id=undefined&thumb,경상남도 의령군 의령읍 의병로24길 31-1,35.31773709,128.2649396,
123,진주문화원,경남 진주시,055-746-5001,"['문화강좌', '문화시설', '복합문화공간', '열린문화공간', '진주문화원']",https://cdn.visitkorea.or.kr/img/call?cmd=VIEW&id=null&thumb,경상남도 진주시 진양호로 476,35.19079371,128.0776717,
124,사천 가산오광대전수관,경남 사천시,055-854-6669,"['가산오광대전수관', '가족이색체험', '문화시설', '사천', '이색체험']",https://cdn.visitkorea.or.kr/img/call?cmd=VIEW&id=undefined&thumb,경상남도 사천시 축동면 조창길 187-28,35.08460555,128.04026389999999,
125,한국궁중꽃박물관,경남 양산시,055-362-3661,"['가족과함께', '경남권', '문화시설', '아이와함께', '한국궁중꽃박물관']",https://cdn.visitkorea.or.kr/img/call?cmd=VIEW&id=7f48e0d8-61a6-492f-8d4a-31c5ea499a36&thumb,경상남도 양산시 매곡외산로 232,35.36667027,129.1758003,
126,양산문화원,경남 양산시,055-386-0890,"['문화시설', '복합문화공간', '양산문화원', '열린문화공간']",https://cdn.visitkorea.or.kr/img/call?cmd=VIEW&id=null&thumb,경상남도 양산시 북정로 76,35.35861227,129.0485313,
127,밀양아리랑아트센터,경남 밀양시,055-359-4500,"['공연장', '문화시설', '밀양문화재단', '밀양아리랑아트센터']",https://cdn.visitkorea.or.kr/img/call?cmd=VIEW&id=77c49573-1bd6-4dec-b83b-897f2abc8fb4&thumb,경상남도 밀양시 밀양대공원로 112,35.50442565,128.75851550000002,
128,밀양 한천박물관,경남 밀양시,1577-6526,"['가족과함께', '문화시설', '밀양한천박물관', '아이와함께']",https://cdn.visitkorea.or.kr/img/call?cmd=VIEW&id=95d8ef2a-7ac5-4158-9170-d56e7b602594&thumb,경상남도 밀양시 산내면 봉의로 58-31,35.59115519,128.8798334,
129,통영 가스홍보관,경남 통영시,055-640-6157,"['문화시설', '아이와 함께', '이색체험', '천연가스에너지', '천연가스의세계', '체험학습']",https://cdn.visitkorea.or.kr/img/call?cmd=VIEW&id=f0b9e801-e074-469b-a5e9-2c0948d8321e&thumb,경상남도 통영시 광도면 안정로 770,34.947615,128.420334,
130,삼랑진 양수발전소 홍보관,경남 밀양시,070-4816-2136,"['가족과함께', '문화시설', '아이와함께', '양수발전소홍보관']",https://cdn.visitkorea.or.kr/img/call?cmd=VIEW&id=39709d16-eac0-4ad1-a3bc-db2caef0312c&thumb,경상남도 밀양시 삼랑진읍 행곡로 38,35.41287996,128.8759205,
131,경상남도 수산자원연구소 민물고기전시관,경남 밀양시,055-254-3451,"['경남권', '문화시설', '민물고기전시관', '수산자원연구소', '아이와함께']",https://cdn.visitkorea.or.kr/img/call?cmd=VIEW&id=82151094-10e7-4fec-9768-dc86fbf5b366&thumb,경상남도 밀양시 산외면 산외남로 28-27,35.49739777,128.7974176,
132,마산현대미술관,경남 창원시,055-271-5150,"['가족과함께', '경남권', '마산현대미술관', '문화시설', '아이와함께', '예술체험']",https://cdn.visitkorea.or.kr/img/call?cmd=VIEW&id=d7c1ceb4-6dc7-4768-b918-b951e11610a2&thumb,경상남도 창원시 마산합포구 진전면 팔의사로 361,35.12695825,128.3840188,
133,고성생태학습관,경남 고성군,055-670-4407,"['고성가볼만한곳', '고성생태학습관', '문화시설', '아이와함께', '자연과함께']",https://cdn.visitkorea.or.kr/img/call?cmd=VIEW&id=8d7699df-2663-46d3-bc12-c1c1542b73ae&thumb,경상남도 고성군 고성읍 송학리 134-1,34.98344803,128.3439866,
134,밀양의열기념관,경남 밀양시,055-351-0815,"['문화시설', '밀양의열기념관', '역사체험', '항일민족독립운동']",https://cdn.visitkorea.or.kr/img/call?cmd=VIEW&id=ae8945d6-4c82-4028-8ca9-4b9c4a35d55e&thumb,경상남도 밀양시 노상하1길 25-12,35.49360903,128.7509368,
135,바람흔적미술관,경남 남해군,010-7542-3034,"['가족여행', '경상권', '기차여행', '문화시설', '미술관', '바람흔적미술관', '실내여행지']",https://cdn.visitkorea.or.kr/img/call?cmd=VIEW&id=5f55a807-bfc2-454e-b3fd-89f138e06803&thumb,경상남도 남해군 삼동면 금암로 519-4,34.76232785,128.0121821,
136,해금강테마박물관,경남 거제시,055-632-0670,"['가족여행', '경상권', '교과서속여행', '문화시설', '박물관', '사계절', '실내여행지']",https://cdn.visitkorea.or.kr/img/call?cmd=VIEW&id=955de8f3-6c11-404e-8a6f-62d5febcb1fc&thumb,경상남도 거제시 남부면 해금강로 120,34.74055707,128.6626444,
137,국립진주박물관,경남 진주시,055-740-0698,"['경상권', '국립진주박물관', '기차여행', '문화시설', '미세먼지_피하는_실내여행']",https://cdn.visitkorea.or.kr/img/call?cmd=VIEW&id=b71afa0d-f273-4432-b125-7569c9656d4d&thumb,경상남도 진주시 남강로 626-35,35.18901371,128.0768441,
138,통영시립박물관,경남 통영시,055-646-8371,"['경상권', '문화시설', '문화행사', '미세먼지_피하는_실내여행', '박물관', '실내관광지']",https://cdn.visitkorea.or.kr/img/call?cmd=VIEW&id=2fb54ae9-495e-43f4-989b-2e8953caba54&thumb,경상남도 통영시 중앙로 65,34.84075131,128.41679109999998,
139,합천박물관,경남 합천군,055-930-4882,"['경상권', '교과서속여행', '문화시설', '박물관', '사계절', '실내여행지', '아이와함께']",https://cdn.visitkorea.or.kr/img/call?cmd=VIEW&id=93c26ac7-cc47-4c94-86ee-e96793c5bdef&thumb,경상남도 합천군 쌍책면 황강옥전로 1558,35.58042227,128.2829415,
140,표충사호국박물관,경남 밀양시,055-352-1150,"['문화시설', '미세먼지_피하는_실내여행', '박물관', '실내관광지', '실내여행지']",https://cdn.visitkorea.or.kr/img/call?cmd=VIEW&id=ad1f0fd8-bba7-4ee3-b8b6-500f00056982&thumb,경상남도 밀양시 단장면 표충로 1338,35.53226072,128.9590442,
141,가야컨트리클럽,경남 김해시,055-337-0091,['레포츠'],https://cdn.visitkorea.or.kr/img/call?cmd=VIEW&id=3626f8a6-fb9a-4010-9a61-0a65222292b1&thumb,경상남도 김해시 인제로 502,35.28114514,128.89583829999998,0.0
142,소매물도 트레킹,경남 통영시,055-648-9133,"['레포츠', '소매물도', '소매물도트레킹', '트레킹', '해안길산책', '휴식여행', '힐링&여행']",https://cdn.visitkorea.or.kr/img/call?cmd=VIEW&id=b5276bc6-398d-42e4-a8b3-706801c8d464&thumb,경상남도 통영시 한산면 매죽리,34.73106961,128.5311723,1.0
143,스카이라인 루지,경남 통영시,070-4731-8473,"['19_20한국관광100선', '남녀노소', '레포츠', '연인과함께', '이색체험', '익스트림스포츠']",https://cdn.visitkorea.or.kr/img/call?cmd=VIEW&id=00c34787-4be9-498c-94b5-2460629ff473&thumb,경상남도 통영시 발개로 178,34.82440861,128.4241568,2.0
144,학동흑진주몽돌해변,경남 거제시,055-635-5421,"['경상권', '관광지', '남녀노소', '레포츠', '사진찍기좋은곳', '사진촬영', '아이와함께']",https://cdn.visitkorea.or.kr/img/call?cmd=VIEW&id=a0da2a23-751f-4daa-afa9-26856b3763b8&thumb,경상남도 거제시 동부면 학동6길 18-1,34.77330415,128.6402426,3.0
145,창원컨트리클럽,경남 창원시,055-288-4114,['레포츠'],https://cdn.visitkorea.or.kr/img/call?cmd=VIEW&id=undefined&thumb,경상남도 창원시 의창구 대봉로 137,35.26035492,128.66410420000003,4.0
146,한우산,경남 의령군,055-570-2763,"['경상권', '관광지', '등산', '레포츠', '사계절', '영화촬영지', '자연', '자연속으로']",https://cdn.visitkorea.or.kr/img/call?cmd=VIEW&id=f77fe615-7cb8-4b99-b8b5-481981c35ce7&thumb,경남 의령군 궁류면 벽계리,35.41449712,128.2078875,5.0
147,가야산 소리길,경남 합천군,055-930-8000,"['관광지', '레포츠', '산책길', '산책코스', '산책하기', '산책하기좋은곳', '연인과함께']",https://cdn.visitkorea.or.kr/img/call?cmd=VIEW&id=5e4b4dc2-cb78-4cba-8587-5942f149f6d5&thumb,경상남도 합천군 가야면 가야산로 1783,35.79111138,128.0909064,6.0
148,통영 어드벤처타워,경남 통영시,055-647-0019,['레포츠'],https://cdn.visitkorea.or.kr/img/call?cmd=VIEW&id=3f2066e2-675a-4343-978c-0e1745fffeb2&thumb,경상남도 통영시 발개로 172-12,34.82474074,128.4223768,7.0
149,비토국민여가캠핑장,경남 사천시,070-8988-4000,"['가족과함께', '가족체험', '레포츠', '아이와함께', '자연풍경', '자연환경', '캠핑장']",https://cdn.visitkorea.or.kr/img/call?cmd=VIEW&id=c9d32d65-d8f2-4eea-a0f0-9a8c897e974d&thumb,경상남도 사천시 서포면 용궁로 124,34.96552218,127.982729,8.0
150,학동자동차야영장,경남 거제시,055-635-5421,"['가족과함께', '경상권', '레포츠', '아이와함께', '연인과함께', '친구와함께', '캠핑장']",https://cdn.visitkorea.or.kr/img/call?cmd=VIEW&id=e0724732-72b8-421c-ace1-f549ad8293f0&thumb,경상남도 거제시 동부면 학동리,34.77418343,128.6335822,9.0
151,거제 덕포랜드 씨라인,경남 거제시,055-688-2351,"['가족여행', '거제덕포랜드씨라인', '경상권', '남녀노소', '레포츠', '바다', '복합레저스포츠']",https://cdn.visitkorea.or.kr/img/call?cmd=VIEW&id=01b2d2b3-4c84-4d78-9c4a-565f1890d88c&thumb,경상남도 거제시 덕포5길 35-2,34.91213523,128.7109256,10.0
152,황금빛노을바다낚시터,경남 사천시,010-2004-6992,"['가족과함께', '경치좋은곳', '낚시체험', '남녀노소', '레포츠', '바다경치', '바다낚시']",https://cdn.visitkorea.or.kr/img/call?cmd=VIEW&id=d1eb34bf-8de4-45a1-9450-b855f8dc7a63&thumb,경상남도 사천시 대방동 737-12,34.93115909,128.05249569999998,11.0
153,진주소싸움경기장,경남 진주시,055-749-8597,"['레포츠', '소싸움', '진주관광지', '진주소싸움경기장']",https://cdn.visitkorea.or.kr/img/call?cmd=VIEW&id=c30fd90b-e941-49c7-9fd0-c29f5e6d4ecc&thumb,경상남도 진주시 판문오동길 100,35.17598181,128.0406394,12.0
154,에덴밸리스키장 (에덴밸리리조트),경남 양산시,055-379-8000,"['가족과함께', '겨울스포츠', '레포츠', '복합레저스포츠', '스키장', '익스트림스포츠']",https://cdn.visitkorea.or.kr/img/call?cmd=VIEW&id=7a8ce28f-9cd0-40e8-845a-a5f15a73ff61&thumb,경상남도 양산시 원동면 어실로 1206,35.42905196,128.9844664,13.0
155,주은캠핑장자연휴양림,경남 거창군,010-6766-3330,"['가족여행', '레포츠', '물놀이', '자연휴양림', '캠핑장', '힐링']",https://cdn.visitkorea.or.kr/img/call?cmd=VIEW&id=418b18a2-75d6-4ae6-8c39-fc39e5f12068&thumb,경상남도 거창군 북상면 덕유월성로 1642,35.76472772,127.76433190000002,14.0
156,진주 레일바이크,경남 진주시,055-758-0101,['레포츠'],https://cdn.visitkorea.or.kr/img/call?cmd=VIEW&id=94e47863-0292-455c-a445-c3f06773db4e&thumb,경상남도 진주시 내동면 망경로 13,35.16626913,128.06732390000002,15.0
157,하동 알프스 짚와이어,경남 하동군,055-884-7715,"['레포츠', '스릴', '야외어드벤처', '이색체험', '자연', '짚와이어']",https://cdn.visitkorea.or.kr/img/call?cmd=VIEW&id=899737bf-24c1-4611-8179-7a3a7cdc63e0&thumb,경상남도 하동군 금남면 경충로 493-37,34.98341127,127.8933811,16.0
158,통영마리나리조트 요트,경남 통영시,055-643-8000,"['경상권', '레포츠', '리조트', '요트', '통영마리나리조트']",https://cdn.visitkorea.or.kr/img/call?cmd=VIEW&id=348cc62d-ccd7-443e-b8a2-e98332fe9e77&thumb,경상남도 통영시 큰발개1길 33,34.82728288,128.438618,17.0
159,남해스포츠파크,경남 남해군,055-860-8685,"['경상권', '남해스포츠파크', '레저스포츠', '레포츠', '스포츠센터']",https://cdn.visitkorea.or.kr/img/call?cmd=VIEW&id=a5893ded-7334-472d-8c39-997173bb5838&thumb,경상남도 남해군 서면 스포츠파크길 15,34.80636119,127.8385748,18.0
160,창녕우포승마장,경남 창녕군,055-532-5433,"['가족과함께', '가족여행', '경상권', '레포츠', '승마장', '승마체험', '승마체험']",https://cdn.visitkorea.or.kr/img/call?cmd=VIEW&id=2643f16e-2588-481c-9c36-50f66e4c9121&thumb,경상남도 창녕군 대지면 우포2로 864,35.55773239,128.4566368,19.0
161,김해카라반르몽드,경남 김해시,1800-0947,"['가족여행', '김해시', '레포츠', '카라반', '힐링']",https://cdn.visitkorea.or.kr/img/call?cmd=VIEW&id=3902d8fd-c43a-4c3a-bd36-6f30f8d9bd74&thumb,경상남도 김해시 가야테마길 161,35.25163508,128.8937494,20.0
162,사량도 바다낚시,경남 통영시,055-650-3620,"['등산객', '레포츠', '바다낚시', '사량도', '자연환경']",https://cdn.visitkorea.or.kr/img/call?cmd=VIEW&id=b42d391a-16a0-4760-b782-4773b84fcd46&thumb,경상남도 통영시 사량면,34.84551361,128.2200718,21.0
163,[남해 바래길 1코스] 다랭이지겟길,경남 남해군,055-863-8778,"['남해 바래길', '다랭이지겟길', '레포츠', '산책코스', '아무것도_하지않을_자유_비움여행']",https://cdn.visitkorea.or.kr/img/call?cmd=VIEW&id=3ee06bd4-801d-4f8f-b187-7195c63def02&thumb,경상남도 남해군 남면 평산리,34.76176496,127.8533403,22.0
164,소노벨 거제 마리나베이 요트투어,경남 거제시,055-733-7333,"['경남권', '레포츠', '소노벨거제', '요트체험']",https://cdn.visitkorea.or.kr/img/call?cmd=VIEW&id=e67a50f4-0907-4b68-a544-dafbfe7b16a9&thumb,경상남도 거제시 일운면 거제대로 2660,34.84379126,128.7029426,23.0
165,소리길 오토캠핑장,경남 합천군,010-5572-6662,"['가족과함께', '가족여행', '낚시', '레포츠', '썰매', '아이와함께', '오토캠핑장']",https://cdn.visitkorea.or.kr/img/call?cmd=VIEW&id=8ae01a50-ff30-4c21-a53f-34bdfe5d9172&thumb,경상남도 합천군 가야면 매화산로 670,35.77524811,128.1272761,24.0
166,에덴밸리 루지,경남 양산시,055-379-8159,"['남녀노소', '레포츠', '루지', '복합레저스포츠', '여름방학에가볼만한곳', '여름여행']",https://cdn.visitkorea.or.kr/img/call?cmd=VIEW&id=ac1993a4-3b58-47f8-9cb0-2c99019578fd&thumb,경상남도 양산시 원동면 어실로 1206,35.42905196,128.9844664,25.0
167,갈도 남쪽 홈통,경남 통영시,055-650-0580,"['경남권', '낚시터', '레포츠', '통영갈도']",https://cdn.visitkorea.or.kr/img/call?cmd=VIEW&id=2de8da40-4ad5-4fc1-8b90-2cec7b98455e&thumb,경상남도 통영시 욕지면 갈도길,34.56229868,128.18359080000002,26.0
168,통도환타지아 썰매장,경남 양산시,055-379-7000,"['겨울스포츠', '눈썰매장', '레포츠', '복합레저스포츠', '썰매장', '아이와함께']",https://cdn.visitkorea.or.kr/img/call?cmd=VIEW&id=5fe66439-353a-4c8a-a4d5-a837d28c07c8&thumb,경상남도 양산시 하북면 통도7길 68,35.4999924,129.08312990000002,27.0
169,진해해양레포츠센터,경남 창원시,055-712-0445,"['레포츠', '바나나보트', '요트', '진해해양공원', '해양']",https://cdn.visitkorea.or.kr/img/call?cmd=VIEW&id=9fc2b342-1470-47ca-bc4c-be94c4ba3637&thumb,경상남도 창원시 진해구 천자로 160,35.14129908,128.6883002,28.0
170,남해청소년수련원,경남 남해군,055-867-4510,"['경상권', '남해숙소', '레포츠', '숙박', '청소년수련원']",https://cdn.visitkorea.or.kr/img/call?cmd=VIEW&id=17d8ecd5-3b61-4600-8951-736387e89254&thumb,경상남도 남해군 삼동면 동부대로 1542-35,34.82946726,128.0290996,29.0
171,통영산양스포츠파크,경남 통영시,055-643-6839,"['레포츠', '복합레저스포츠', '이색체험', '통영산양스포츠파크']",https://cdn.visitkorea.or.kr/img/call?cmd=VIEW&id=f83ccce6-db38-4651-9bf6-3753b747d414&thumb,경상남도 통영시 산양읍 산양중앙로 100,34.80031829,128.396332,30.0
172,[남해 바래길 6코스] 말발굽길,경남 남해군,055-863-8778,"['남해 바래길', '레포츠', '말발굽길', '산책코스', '아무것도_하지않을_자유_비움여행']",https://cdn.visitkorea.or.kr/img/call?cmd=VIEW&id=44eb7641-24fd-44dc-9519-1e70c9b958d1&thumb,경상남도 남해군 삼동면 죽방로,34.8162518,127.9711251,31.0
173,거창스포츠파크,경남 거창군,055-945-8700,"['거창스포츠파크', '경상권', '레포츠', '복합레저스포츠']",https://cdn.visitkorea.or.kr/img/call?cmd=VIEW&id=8fb677cd-f777-4283-867d-82316670527f&thumb,경상남도 거창군 거창읍 심소정길 39-36,35.69513581,127.92635049999998,32.0
174,남해군요트학교,경남 남해군,055-867-2977,"['경상권', '남해군요트학교', '레포츠', '요트체험']",https://cdn.visitkorea.or.kr/img/call?cmd=VIEW&id=f7d04bc5-7d8d-4dd4-be33-a54a5979023f&thumb,경상남도 남해군 삼동면 동부대로1030번길 42-26,34.7937446,128.0528142,33.0
175,[지리산 둘레길 코스] 금계~동강,경남 함양군,055-964-8200,['레포츠'],https://cdn.visitkorea.or.kr/img/call?cmd=VIEW&id=4faac45e-2f5c-4daf-badd-2eac73f12932&thumb,경상남도 함양군 마천면 금계길 5,35.40379174,127.6849971,34.0
176,장포리 바다낚시,경남 남해군,1588-3415,"['경남권', '남해군', '남해바다', '남해바다낚시', '레포츠', '바다낚시']",https://cdn.visitkorea.or.kr/img/call?cmd=VIEW&id=a657f48e-1bc2-484f-ac80-eaa05910302b&thumb,경상남도 남해군 창선면 진동리,34.84522826,128.050995,35.0
177,다물민족학교 다물평생교육원,경남 산청군,055-973-1754,['레포츠'],https://cdn.visitkorea.or.kr/img/call?cmd=VIEW&id=undefined&thumb,경상남도 산청군 단성면 호암로619번길 50-29,35.31729122,127.8927291,36.0
178,[남해 바래길 7코스] 고사리밭길,경남 남해군,055-863-8778,"['고사리밭길', '남해 바래길', '레포츠', '산책코스', '아무것도_하지않을_자유_비움여행']",https://cdn.visitkorea.or.kr/img/call?cmd=VIEW&id=72e28237-7a80-4bcc-a4be-495bc92799cc&thumb,경상남도 남해군 창선면 진동리,34.84522826,128.050995,37.0
179,황석산청소년수련원,경남 함양군,055-964-8500,['레포츠'],https://cdn.visitkorea.or.kr/img/call?cmd=VIEW&id=90d17041-b94b-4271-bd9a-0980286b9846&thumb,경상남도 함양군 서하면 육십령로 2991,35.62598037,127.7744165,38.0
180,창원경륜장,경남 창원시,055-239-1111,"['경상권', '레포츠', '이색체험', '창원경륜장']",https://cdn.visitkorea.or.kr/img/call?cmd=VIEW&id=833c8bec-c520-40c4-99f2-8087a17e4832&thumb,경상남도 창원시 의창구 원이대로 470,35.2320562,128.6680114,39.0
181,합천워터월드,경남 합천군,055-931-0124,"['경상권', '레저', '레포츠', '합천워터월드']",https://cdn.visitkorea.or.kr/img/call?cmd=VIEW&id=5cadecc8-3d8e-4d43-b95a-74b4becaadb3&thumb,경상남도 합천군 대병면 회양관광단지길 36-1,35.52536612,128.0183865,40.0
182,남해유스타운,경남 남해군,055-867-4848,"['레포츠', '숙박']",https://cdn.visitkorea.or.kr/img/call?cmd=VIEW&id=defd2bb0-9ca7-4969-a81d-c8bbbf0db688&thumb,경상남도 남해군 삼동면 동부대로 1542-12,34.83007741,128.0319476,41.0
183,거제도,경남 거제시,055-639-4178,"['거제도바다', '거제도바다낚시', '경남권', '레포츠', '바다낚시']",https://cdn.visitkorea.or.kr/img/call?cmd=VIEW&id=15855b70-3826-4cc0-8d64-b474ae9baff1&thumb,경상남도 거제시 거제면 거제도,34.85104371,128.5904279,42.0
184,통영시청소년수련관,경남 통영시,055-646-7925,"['경남권', '교육프로그램', '레포츠', '통영시청소년수련관']",https://cdn.visitkorea.or.kr/img/call?cmd=VIEW&id=7099a6ff-be47-48f5-b1e4-b70f7f171109&thumb,경상남도 통영시 발개로 194,34.82536384,128.4262393,43.0
185,아델스코트 컨트리클럽,경남 합천군,055-930-7777,"['골프리조트', '골프장', '레포츠', '합천가볼만한곳', '휴식공간']",https://cdn.visitkorea.or.kr/img/call?cmd=VIEW&id=0a21b4c8-a4d0-42cc-bb3c-c8302af222e6&thumb,경상남도 합천군 가야면 가조가야로 1916-10,35.69661188,128.0809386,44.0
186,마산해양레포츠센터,경남 창원시,055-712-0454,"['가족여행지', '레포츠', '요트', '체험관광', '해양']",https://cdn.visitkorea.or.kr/img/call?cmd=VIEW&id=fcb239bd-94a3-4d34-bdbb-c6b3606dbdc9&thumb,경상남도 창원시 마산합포구 돝섬1길 187,35.17976054,128.5798689,45.0
187,[하동 박경리 토지길 1코스] 섬진강 평사리공원~화개장터,경남 하동군,055-882-2675,['레포츠'],https://cdn.visitkorea.or.kr/img/call?cmd=VIEW&id=9ea2dda7-4826-4cff-b3d5-2180b1b3ac3b&thumb,경상남도 하동군 악양면,35.16232066,127.708932,46.0
188,삼성산청연수소,경남 산청군,055-970-5000,['레포츠'],https://cdn.visitkorea.or.kr/img/call?cmd=VIEW&id=undefined&thumb,경상남도 산청군 시천면 지리산대로1478번길 68,35.2364083,127.8156585,47.0
189,통영요트학교,경남 통영시,055-641-5051,['레포츠'],https://cdn.visitkorea.or.kr/img/call?cmd=VIEW&id=8ff1116b-abda-4883-92f8-2782c11d1108&thumb,경상남도 통영시 도남로 269-28,34.82821295,128.4349089,48.0
190,통영요트학교,경남 통영시,055-641-5051,['레포츠'],https://cdn.visitkorea.or.kr/img/call?cmd=VIEW&id=8ff1116b-abda-4883-92f8-2782c11d1108&thumb,경상남도 통영시 도남로 269-28,34.82821295,128.4349089,49.0
191,통영요트학교,경남 통영시,055-641-5051,['레포츠'],https://cdn.visitkorea.or.kr/img/call?cmd=VIEW&id=c3083fec-e3f2-4b06-abb1-ec74142f4476&thumb,경상남도 통영시 도남로 269-28,34.82821295,128.4349089,50.0
192,통영요트학교,경남 통영시,055-641-5051,['레포츠'],https://cdn.visitkorea.or.kr/img/call?cmd=VIEW&id=c3083fec-e3f2-4b06-abb1-ec74142f4476&thumb,경상남도 통영시 도남로 269-28,34.82821295,128.4349089,51.0
193,[하동 박경리 토지길 2코스] 십리벚꽃길~국사암,경남 하동군,055-882-2675,['레포츠'],https://cdn.visitkorea.or.kr/img/call?cmd=VIEW&id=ae6c5860-878a-447e-b7c8-28f905d2d0e2&thumb,경상남도 하동군 화개면,35.18838207,127.6254478,52.0
194,함양승마클럽,경남 함양군,055-962-6111,['레포츠'],https://cdn.visitkorea.or.kr/img/call?cmd=VIEW&id=ea6e3472-95c1-4906-acbb-84c4716b6d91&thumb,경상남도 함양군 함양읍 삼휴길 134,35.51534954,127.7085287,53.0
195,당항포 요트앤스쿨,경남 고성군,055-673-5080,"['당항포', '레포츠', '요트체험', '이색체험']",https://cdn.visitkorea.or.kr/img/call?cmd=VIEW&id=0b2aafe1-dca9-4177-98c1-6f1dd855d88a&thumb,경상남도 고성군 회화면 당항만로 1116,35.05322563,128.39202609999998,54.0
196,지리산청소년수련원,경남 산청군,055-974-1100,['레포츠'],https://cdn.visitkorea.or.kr/img/call?cmd=VIEW&id=4eadc696-ddb3-4e42-b242-22cea2ae95be&thumb,경상남도 산청군 단성면 지리산대로2395번길 26-25,35.27186713,127.8970846,55.0
197,통영시공설운동장,경남 통영시,055-650-5157,['레포츠'],https://cdn.visitkorea.or.kr/img/call?cmd=VIEW&id=781d64bf-e5ec-45fb-84f9-c827c2aaebf9&thumb,경상남도 산청군 시천면 지리산대로1478번길 68,35.23748791,127.8164632,56.0
198,[지리산 둘레길 코스] 동강~수철,경남 함양군,055-964-8200,['레포츠'],https://cdn.visitkorea.or.kr/img/call?cmd=VIEW&id=8f755da5-9089-415c-93e0-3e63a119c214&thumb,경상남도 함양군 마천면 금계길 5,35.40379174,127.6849971,57.0
199,산청경호강래프팅,경남 산청군,055-974-2277,"['경호강', '래프팅', '레포츠', '산청군', '서바이벌']",https://cdn.visitkorea.or.kr/img/call?cmd=VIEW&id=fbb42260-02fc-4782-81b3-3aedf0a846d6&thumb,경상남도 산청군 산청읍 꽃봉산로34번길 77,35.41153931,127.8655754,58.0
200,창원 스포츠파크,경남 창원시,055-712-0577,['레포츠'],https://cdn.visitkorea.or.kr/img/call?cmd=VIEW&id=undefined&thumb,경상남도 창원시 성산구 원이대로 450,35.23400713,128.6647354,59.0
201,라온레포츠,경남 합천군,051-582-5399,"['레포츠', '서바이벌', '양궁', '용주면', '체험']",https://cdn.visitkorea.or.kr/img/call?cmd=VIEW&id=84ffc97e-79c8-43c3-a3a3-f3faee9dba94&thumb,경상남도 합천군 용주면 합천호수로 828-5,35.54686969,128.08036040000002,60.0
202,동호방파제,경남 통영시,055-650-0580,"['경남권', '레포츠', '바다낚시', '통영낚시터', '통영바다낚시']",https://cdn.visitkorea.or.kr/img/call?cmd=VIEW&id=be1c661d-4905-4a13-aaf6-1478bb95a5a9&thumb,경상남도 통영시 정량동,34.84794253,128.43576969999998,61.0
203,경상남도환경교육원,경남 산청군,055-254-4011,"['경남권', '경상남도환경교육원', '교육프로그램', '레포츠']",https://cdn.visitkorea.or.kr/img/call?cmd=VIEW&id=undefined&thumb,경상남도 산청군 시천면 지리산대로 1,35.31829615,127.7570957,62.0
204,경호강래프팅,경남 산청군,055-972-2002,"['경호강래프팅', '래프팅', '레포츠']",https://cdn.visitkorea.or.kr/img/call?cmd=VIEW&id=063d5313-ddeb-4c21-b5e8-3d839259d092&thumb,경상남도 산청군 금서면 친환경로 2619-2,35.4185696,127.8721435,63.0
205,하동군청소년수련원,경남 하동군,055-882-7400,"['경상권', '레포츠', '청소년수련원']",https://cdn.visitkorea.or.kr/img/call?cmd=VIEW&id=undefined&thumb,경상남도 하동군 금남면 경충로 493-9,34.98260917,127.894714,64.0
206,농가도,경남 통영시,055-650-0580,"['경남권', '레포츠', '바다낚시', '통영바다', '통영바다낚시', '통영시']",https://cdn.visitkorea.or.kr/img/call?cmd=VIEW&id=undefined&thumb,경상남도 통영시 사량면,34.84551361,128.2200718,65.0
207,당항포 요트체험,경남 고성군,055-670-4532,"['가족과함께', '당항포', '레포츠', '연인과함께', '요트체험', '이색체험', '친구와함께']",https://cdn.visitkorea.or.kr/img/call?cmd=VIEW&id=a109d03a-2577-447a-a407-72b0c91547c4&thumb,경상남도 고성군 회화면 당항만로 1116,35.05322563,128.39202609999998,66.0
208,모아레벤트,경남 합천군,055-931-5419,"['래프팅', '레포츠', '수상레포츠', '합천황강래프팅']",https://cdn.visitkorea.or.kr/img/call?cmd=VIEW&id=df28bbfb-f9a3-4192-96a8-361f519b2101&thumb,경상남도 합천군 용주면 합천호수로 828-5,35.54686969,128.08036040000002,67.0
209,사람과 레저,경남 산청군,055-974-0831,"['래프팅', '레포츠', '사륜오토바이', '산청군', '서바이벌', '스키']",https://cdn.visitkorea.or.kr/img/call?cmd=VIEW&id=2ebb1ee1-a323-4f04-a903-7a9388d501f1&thumb,경상남도 산청군 산청읍 꽃봉산로34번길 77,35.41153931,127.8655754,68.0
210,창원승마클럽,경남 창원시,055-299-5008,"['가족과함께', '레포츠', '승마', '승마레슨', '승마장', '승마체험', '승마캠프', '승마트레킹']",https://cdn.visitkorea.or.kr/img/call?cmd=VIEW&id=undefined&thumb,경상남도 창원시 의창구 북면 구룡로 524-10,35.29896215,128.608908,69.0
211,케이레포츠,경남 산청군,055-974-0800,"['래프팅', '레포츠', '산청군', '서바이벌', '체험']",https://cdn.visitkorea.or.kr/img/call?cmd=VIEW&id=67587eec-fa89-4842-b4ff-f3ef42106039&thumb,경상남도 산청군 산청읍 꽃봉산로34번길 131,35.40886773,127.8716632,70.0
212,연대도일대,경남 통영시,055-650-0580,"['경남권', '레포츠', '바다낚시', '통영바다', '통영바다낚시']",https://cdn.visitkorea.or.kr/img/call?cmd=VIEW&id=9cdc11d7-2801-4390-89a6-2a5baeb937a7&thumb,경상남도 통영시 산양읍 연대길,34.73762257,128.3974811,71.0
213,사람과바다 래프팅,경남 산청군,055-974-2000,"['경호강래프팅', '래프팅', '레포츠', '서바이벌', '스킨스쿠버', '카약']",https://cdn.visitkorea.or.kr/img/call?cmd=VIEW&id=7c772acb-49c2-455d-a868-cd673eb15374&thumb,경상남도 산청군 산청읍 웅석봉로86번길 9-5,35.40980305,127.8721938,72.0
214,늘푸른전당,경남 창원시,055-712-0372,['레포츠'],https://cdn.visitkorea.or.kr/img/call?cmd=VIEW&id=b3eaebd1-dee4-40e6-9e48-7304539b2f5e&thumb,경상남도 창원시 의창구 두대로 97,35.23006618,128.65454309999998,73.0
215,국도,경남 통영시,055-650-3580,"['경남권', '레포츠', '바다낚시', '통영국도', '통영바다', '통영바다낚시', '통영시']",https://cdn.visitkorea.or.kr/img/call?cmd=VIEW&id=undefined&thumb,경상남도 통영시 욕지면 중촌길,34.63495682,128.2598332,74.0
216,가인리 바다낚시,경남 남해군,1588-3415,"['경남권', '낚시터', '레포츠', '바다낚시']",https://cdn.visitkorea.or.kr/img/call?cmd=VIEW&id=undefined&thumb,경상남도 남해군 창선면 흥선로,34.8789153,128.0466021,75.0
217,경상남도청소년수련원,경남 고성군,055-834-6211,['레포츠'],https://cdn.visitkorea.or.kr/img/call?cmd=VIEW&id=undefined&thumb,경상남도 고성군 하이면 자란만로 646,34.90748353,128.1521501,76.0
218,해운청소년수련원,경남 양산시,055-384-0061,['레포츠'],https://cdn.visitkorea.or.kr/img/call?cmd=VIEW&id=undefined&thumb,경상남도 양산시 하북면 삼수온천길 27,35.46283128,129.0762711,77.0
219,산청래프팅,경남 산청군,055-974-0088,"['남녀노소', '레저스포츠', '레포츠', '레포츠여행', '복합레저스포츠', '복합레포츠']",https://cdn.visitkorea.or.kr/img/call?cmd=VIEW&id=undefined&thumb,경상남도 산청군 산청읍 꽃봉산로34번길 77,35.41153931,127.8655754,78.0
220,통도승마랜드,경남 양산시,055-383-9800,"['가족과함께', '레포츠', '승마', '승마레슨', '승마장', '승마체험', '승마캠프', '승마트레킹']",https://cdn.visitkorea.or.kr/img/call?cmd=VIEW&id=undefined&thumb,경상남도 양산시 하북면 충렬로 1475,35.46536777,129.07841059999998,79.0
221,비진도 외항방파제,경남 통영시,055-650-0580,"['경남권', '레포츠', '바다낚시', '비진도', '통영낚시터', '통영바다낚시']",https://cdn.visitkorea.or.kr/img/call?cmd=VIEW&id=eda8eee4-5155-4aaf-890a-896787e49bab&thumb,경상남도 통영시 한산면 비진도길 481,34.7165283,128.4587847,80.0
222,율도리 바다낚시,경남 남해군,1588-3415,"['경남권', '남해군', '남해바다', '남해바다낚시', '레포츠', '바다낚시']",https://cdn.visitkorea.or.kr/img/call?cmd=VIEW&id=undefined&thumb,경상남도 남해군 창선면 서부로,34.89160638,127.9911367,81.0
223,오비도 주변,경남 통영시,055-650-3500,['레포츠'],https://cdn.visitkorea.or.kr/img/call?cmd=VIEW&id=undefined&thumb,경상남도 통영시 산양읍 오비도길,34.82114207,128.35536090000002,82.0
224,소지도,경남 통영시,055-648-9133,"['경남권', '레포츠', '바다낚시', '통영바다', '통영바다낚시', '통영소지도', '통영시']",https://cdn.visitkorea.or.kr/img/call?cmd=VIEW&id=undefined&thumb,경상남도 통영시 한산면 비진도길,34.72449744,128.4587839,83.0
225,합천호,경남 합천군,055-930-3753,"['경남권', '레포츠', '민물낚시', '합천낚시터', '합천저수지']",https://cdn.visitkorea.or.kr/img/call?cmd=VIEW&id=undefined&thumb,경상남도 합천군 대병면 회양관광단지길 79-4,35.52325805,128.0170652,84.0
226,하동 부일수련원,경남 하동군,055-883-7280,"['레포츠', '숙박']",https://cdn.visitkorea.or.kr/img/call?cmd=VIEW&id=6b6b4e2e-ac5d-413d-a3f0-8fc9b1ca5ae7&thumb,경상남도 하동군 북천면 곤북로 943-6,35.09397677,127.8877231,85.0
227,포시즌스키샵,경남 양산시,055-387-5644,"['겨울스포츠', '레포츠', '복합레저스포츠', '스키대여', '스키렌탈', '스키샵', '익스트림스포츠']",https://cdn.visitkorea.or.kr/img/call?cmd=VIEW&id=75ffca11-44db-46f2-b710-b5fcbaf292d3&thumb,경상남도 양산시 원동면 어실로 1535,35.45195309,128.9637908,86.0
228,충무체육관,경남 통영시,055-650-4790,['레포츠'],https://cdn.visitkorea.or.kr/img/call?cmd=VIEW&id=6cb0d372-c1cb-4d83-8f22-31cda0ce9fc4&thumb,경상남도 통영시 북문2길 34,34.8510953,128.4289366,87.0
229,장척호와 번개늪,경남 창녕군,055-530-6901,"['경남권', '레포츠', '바다낚시', '창녕바다', '창녕바다낚시']",https://cdn.visitkorea.or.kr/img/call?cmd=VIEW&id=undefined&thumb,경상남도 창녕군 영산면 장척호수길,35.43165122,128.4885974,88.0
230,구을비도,경남 통영시,055-650-0580,"['경남권', '레포츠', '바다낚시', '통영바다', '통영바다낚시', '통영시']",https://cdn.visitkorea.or.kr/img/call?cmd=VIEW&id=undefined&thumb,경상남도 통영시 한산면 매죽리,34.73106961,128.5311723,89.0
231,좌사리도,경남 통영시,055-642-9494,"['경남권', '레포츠', '바다낚시', '통영바다', '통영바다낚시']",https://cdn.visitkorea.or.kr/img/call?cmd=VIEW&id=undefined&thumb,경상남도 통영시 욕지면 동항리,34.63828118,128.2529169,90.0
232,연화도선착장(바다낚시),경남 통영시,055-650-0580,"['경남권', '레포츠', '바다낚시', '통영바다', '통영바다낚시']",https://cdn.visitkorea.or.kr/img/call?cmd=VIEW&id=undefined&thumb,경상남도 통영시 욕지면 본촌길,34.64884628,128.3511144,91.0
233,온누리청소년수련원,경남 창녕군,055-533-1781,['레포츠'],https://cdn.visitkorea.or.kr/img/call?cmd=VIEW&id=undefined&thumb,경상남도 창녕군 고암면 창밀로 786,35.57062482,128.5480881,92.0
234,청산래프팅,경남 산청군,055-974-1044,"['경호강래프팅', '래프팅', '레포츠']",https://cdn.visitkorea.or.kr/img/call?cmd=VIEW&id=undefined&thumb,경상남도 산청군 산청읍 꽃봉산로34번길 77,35.41153931,127.8655754,93.0
235,갈도,경남 통영시,055-650-0580,"['갈도바다낚시', '경남권', '레포츠', '바다낚시', '통영바다', '통영바다낚시']",https://cdn.visitkorea.or.kr/img/call?cmd=VIEW&id=undefined&thumb,경상남도 통영시 욕지면 갈도길,34.56229868,128.18359080000002,94.0
236,진주컨트리클럽,경남 진주시,055-758-0400,['레포츠'],https://cdn.visitkorea.or.kr/img/call?cmd=VIEW&id=undefined&thumb,경상남도 진주시 진성면 진성로464번길 82,35.17625536,128.2329294,95.0
237,의령군청소년수련관,경남 의령군,055-574-2212,['레포츠'],https://cdn.visitkorea.or.kr/img/call?cmd=VIEW&id=undefined&thumb,경상남도 의령군 부림면 신번로11길 26,35.47026773,128.3218923,96.0
238,동부산컨트리클럽,경남 양산시,055-388-1315,['레포츠'],https://cdn.visitkorea.or.kr/img/call?cmd=VIEW&id=undefined&thumb,경상남도 양산시 매곡외산로 282,35.36370948,129.1832865,97.0
239,에이원컨트리클럽,경남 양산시,055-371-3500,['레포츠'],https://cdn.visitkorea.or.kr/img/call?cmd=VIEW&id=undefined&thumb,경상남도 양산시 덕명로 190,35.37805499,129.1758063,98.0
240,통도컨트리클럽,경남 양산시,055-370-1300,['레포츠'],https://cdn.visitkorea.or.kr/img/call?cmd=VIEW&id=undefined&thumb,경상남도 양산시 하북면 신평남부길 78-130,35.49201756,129.0949803,99.0
241,용원컨트리클럽,경남 창원시,055-552-0080,['레포츠'],https://cdn.visitkorea.or.kr/img/call?cmd=VIEW&id=undefined&thumb,경상남도 창원시 진해구 가주로 133,35.11365202,128.8254886,100.0
242,소혈도,경남 통영시,055-648-9133,"['경남권', '레포츠', '바다낚시', '통영바다', '통영바다낚시', '통영소혈도', '통영시']",https://cdn.visitkorea.or.kr/img/call?cmd=VIEW&id=undefined&thumb,경상남도 통영시 한산면 두억로,34.78186034,128.48088049999998,101.0
243,회남재 숲길,경남 하동군,055-880-2053,"['레포츠', '지리산', '트레킹', '회남재숲길걷기']",https://cdn.visitkorea.or.kr/img/call?cmd=VIEW&id=83c92022-3e68-4976-ba47-0fc638e60c5e&thumb,경상남도 하동군 청암면 삼성궁길 2,35.23870093,127.7054288,102.0
244,통영중앙전통시장,경남 통영시,055-649-5225,"['가족여행', '경상권', '나들이', '나홀로여행', '데이트코스', '먹거리', '쇼핑', '시장맛집']",https://cdn.visitkorea.or.kr/img/call?cmd=VIEW&id=56741a83-4a05-4957-a4a0-d49fb849adec&thumb,경상남도 통영시 중앙시장1길 14-16,34.845291100000004,128.4246463,
245,하동 화개장터,경남 하동군,055-880-6051,"['가족여행', '경상권', '기차여행', '나들이', '나홀로여행', '먹거리', '쇼핑', '시장맛집']",https://cdn.visitkorea.or.kr/img/call?cmd=VIEW&id=a677f2a3-f939-4a14-b224-242b1f4cc06f&thumb,경상남도 하동군 화개면 쌍계로 15,35.18774060000001,127.6243772,
246,마산어시장,경남 창원시,055-221-0671,"['가족여행', '경상권', '기차여행', '나들이', '나홀로여행', '데이트코스', '마산수산시장']",https://cdn.visitkorea.or.kr/img/call?cmd=VIEW&id=765294a1-2aa6-4df3-8ce6-cc56fe0d5d1f&thumb,경상남도 창원시 마산합포구 어시장8길 8,35.2005311,128.5739829,
247,삼천포용궁수산시장,경남 사천시,055-835-2229,"['가족여행', '경상권', '기념품판매', '기차여행', '나들이', '나홀로여행', '데이트코스']",https://cdn.visitkorea.or.kr/img/call?cmd=VIEW&id=ffb04f09-7039-4d0d-8a5e-7698f07036db&thumb,경상남도 사천시 어시장길 64,34.927499,128.07102849999998,
248,진주 중앙유등시장,경남 진주시,055-741-2151,"['가족여행', '경상권', '기차여행', '나들이', '나홀로여행', '데이트코스', '먹거리']",https://cdn.visitkorea.or.kr/img/call?cmd=VIEW&id=e42ae1c3-8aac-4ea3-a26e-f24be348845c&thumb,경상남도 진주시 진양호로547번길 8-1,35.1938894,128.08489609999998,
249,"남해장 (2, 7일)",경남 남해군,055-864-3592,"['가족여행', '경상권', '기차여행', '나들이', '나홀로여행', '남해장', '먹거리', '쇼핑']",https://cdn.visitkorea.or.kr/img/call?cmd=VIEW&id=9cdc8b70-67ba-4362-b2d1-528b1cf0da19&thumb,경상남도 남해군 남해읍 화전로 110,34.8402725,127.8950012,
250,"삼천포 중앙시장 (4, 9일)",경남 사천시,055-834-8676,"['가족여행', '경상권', '기차여행', '나들이', '나홀로여행', '삼천포중앙시장', '쇼핑']",https://cdn.visitkorea.or.kr/img/call?cmd=VIEW&id=2e4ab525-57b7-4063-b3f9-40dfd1582416&thumb,경상남도 사천시 어시장길 64,34.927499,128.07102849999998,
251,인사동 골동품거리,경남 진주시,055-749-2055,"['가족여행', '경상권', '기차여행', '나들이', '나홀로여행', '쇼핑', '아이와함께']",https://cdn.visitkorea.or.kr/img/call?cmd=VIEW&id=3b0d257c-01bb-4549-a5e2-7fb2a2dd256c&thumb,"경남 진주시 남성동, 인사동 일대",35.1900759,128.0763627,
252,"사천읍시장 (5, 10일)",경남 사천시,055-852-3141,"['가족여행', '경상권', '기차여행', '나들이', '나홀로여행', '먹거리', '사천읍시장']",https://cdn.visitkorea.or.kr/img/call?cmd=VIEW&id=9774520b-2c53-4974-9cd3-98131665ecfd&thumb,경상남도 사천시 사천읍 시장1길 16,35.0840494,128.08903490000003,
253,"경화장 (3, 8일)",경남 창원시,055-548-2043,"['가족여행', '경상권', '경화장', '기차여행', '나들이', '나홀로여행', '먹거리', '쇼핑']",https://cdn.visitkorea.or.kr/img/call?cmd=VIEW&id=e9a9e242-433b-4403-af67-0c836bdb2448&thumb,경상남도 창원시 진해구 경화시장로 37,35.1569955,128.6905413,
254,대끼리 상남시장,경남 창원시,055-262-1494,"['가족여행', '경상권', '기차여행', '나들이', '나홀로여행', '대끼리상남시장', '데이트코스']",https://cdn.visitkorea.or.kr/img/call?cmd=VIEW&id=5f4e646b-c916-44d4-ba8e-b31fcb6c981a&thumb,경상남도 창원시 성산구 마디미로 28,35.2222099,128.68340279999998,
255,"경남관광기념품점 (구, 경남관광공예명품관)",경남 창원시,055-212-1340,"['가족여행', '경남관광공예명품관', '경남관광기념품점', '경상권', '기념품판매']",https://cdn.visitkorea.or.kr/img/call?cmd=VIEW&id=4bc67d23-82d9-4cc3-a377-2c7d3d4f37dc&thumb,경상남도 창원시 의창구 원이대로 362,35.2383807,128.6569279,
256,"진주 문산장 (4, 9일)",경남 진주시,055-749-2600∼1,"['가족여행', '경상권', '기차여행', '나들이', '나홀로여행', '먹거리', '쇼핑', '시장맛집']",https://cdn.visitkorea.or.kr/img/call?cmd=VIEW&id=c7e2125a-bbcb-4da9-a26f-bcd49a1a0c9f&thumb,경상남도 진주시 문산읍 소문길 68,35.170413399999994,128.1690703,
257,영하누비 (통영누비),경남 통영시,055-646-2841,"['가족여행', '경상권', '기념품판매', '나들이', '나홀로여행', '쇼핑', '아이와함께']",https://cdn.visitkorea.or.kr/img/call?cmd=VIEW&id=c762350c-6e44-4b68-b3c8-1a4197976218&thumb,경상남도 통영시 남망길 15,34.8435806,128.4270682,
258,롯데프리미엄아울렛 김해점,경남 김해시,055-900-2500,"['경상권', '롯데프리미엄아울렛', '쇼핑', '친구와함께']",https://cdn.visitkorea.or.kr/img/call?cmd=VIEW&id=76ae4d8a-e9e0-4b85-935d-f0429476b9e7&thumb,경상남도 김해시 장유로 469,35.1851191,128.8299232,
259,핫트랙스 (창원점),경남 창원시,055-264-9961,"['기프트', '복합문화쇼핑공간', '쇼핑', '창원쇼핑']",https://cdn.visitkorea.or.kr/img/call?cmd=VIEW&id=5dfc9618-5125-4d9e-ad7b-e349bb9f5da7&thumb,경상남도 창원시 성산구 중앙대로 104,35.2234576,128.6808054,
260,덕계 종합상설시장,경남 양산시,055-387-7414,"['가족여행', '경상권', '덕계종합상설시장', '사계절', '쇼핑', '시장맛집', '아이와함께']",https://cdn.visitkorea.or.kr/img/call?cmd=VIEW&id=d326830c-9ee6-4e77-9fbc-863d13c9ddbc&thumb,경상남도 양산시 덕계2길 7,35.369744,129.1471868,
261,"의령장 (3, 8일)",경남 의령군,055-573-2227,"['가족여행', '경상권', '나들이', '나홀로여행', '먹거리', '쇼핑', '시장맛집', '아이와함께']",https://cdn.visitkorea.or.kr/img/call?cmd=VIEW&id=13994406-ab59-4ae7-805f-7d93b82ef159&thumb,경상남도 의령군 의령읍 의병로 222-1,35.3195679,128.26115009999998,
262,남해 특산물지족판매장,경남 남해군,055-867-2342,"['가족여행', '경상권', '기념품판매', '기차여행', '나들이', '나홀로여행', '남해특산물지족판매장']",https://cdn.visitkorea.or.kr/img/call?cmd=VIEW&id=ca532a02-e90b-4e7b-9571-ec8a6ecba55f&thumb,경상남도 남해군 삼동면 삼이로 47-4,34.8276094,127.9954773,
263,갤러리아 백화점 (진주점),경남 진주시,055-791-1000,"['백화점', '브랜드', '쇼핑', '유명브랜드', '진주백화점']",https://cdn.visitkorea.or.kr/img/call?cmd=VIEW&id=7040ffda-73d9-4a3b-8cd0-63c816de330f&thumb,경상남도 진주시 진주대로 1095,35.1967135,128.0823743,
264,"함양장 / 함양중앙시장 (2, 7일)",경남 함양군,055-963-2454,"['가족여행', '경상권', '기차여행', '나들이', '나홀로여행', '먹거리', '쇼핑', '시장맛집']",https://cdn.visitkorea.or.kr/img/call?cmd=VIEW&id=b01f8676-a750-4b11-842a-b21d5e90f264&thumb,경상남도 함양군 함양읍 중앙시장길 8-9,35.5179794,127.728896,
265,"밀양장 (2, 7일)",경남 밀양시,055-354-2659,"['가족여행', '경상권', '나들이', '나홀로여행', '먹거리', '밀양장', '쇼핑', '시장맛집']",https://cdn.visitkorea.or.kr/img/call?cmd=VIEW&id=abd5290a-09c8-480c-bff0-1d8e5fdb6f5d&thumb,경상남도 밀양시 상설시장1길 11,35.49304779999999,128.7525241,
266,실키안,경남 진주시,055-747-9841,"['쇼핑', '스카프', '실크', '진주기념품', '진주성']",https://cdn.visitkorea.or.kr/img/call?cmd=VIEW&id=7f075a1c-dce6-4b14-b508-0f036e42612d&thumb,경상남도 진주시 문산읍 월아산로996번길 22,35.1601195,128.1725755,
267,다자연 영농조합법인,경남 사천시,055-853-5058,"['가족여행', '경상권', '기념품판매', '기차여행', '나들이', '나홀로여행', '다자연영농조합법인']",https://cdn.visitkorea.or.kr/img/call?cmd=VIEW&id=40d7955d-e6a3-4850-8041-6a22214c23e5&thumb,경상남도 사천시 곤명면 금성들길 55,35.1412945,127.968548,
268,"마천장 (5, 10일)",경남 함양군,055-960-5421,"['가족여행', '경상권', '기차여행', '나들이', '나홀로여행', '마천장', '먹거리', '쇼핑']",https://cdn.visitkorea.or.kr/img/call?cmd=VIEW&id=d1fcd079-110b-45d1-83d3-984e9ca1bee5&thumb,경상남도 함양군 마천면 천왕봉로 1144-2,35.3957208,127.6625569,
269,"서상장 (4, 9일)",경남 함양군,055-960-6595,"['가족여행', '경상권', '기차여행', '나들이', '나홀로여행', '먹거리', '서상장', '쇼핑']",https://cdn.visitkorea.or.kr/img/call?cmd=VIEW&id=a6e0379c-f1c1-48bd-ae3a-58ae79848e6c&thumb,경상남도 함양군 서상면 서상로 266,35.67986170000001,127.6882752,
270,대호누비,경남 통영시,055-645-8328,"['가족여행', '경상권', '기념품판매', '나들이', '나홀로여행', '대호누비', '쇼핑']",https://cdn.visitkorea.or.kr/img/call?cmd=VIEW&id=d8a1a6f0-8cdc-40b6-91c6-fcec4c83f141&thumb,경상남도 통영시 통영해안로 355,34.8448461,128.42610919999998,
271,대동면세점,경남 창원시,055-213-7700,"['면세점', '쇼핑', '인터내셔널호텔', '편의시설']",https://cdn.visitkorea.or.kr/img/call?cmd=VIEW&id=67e61619-0581-413c-8a7c-5920b8fa8216&thumb,경상남도 창원시 성산구 중앙대로 69 호텔인터내셔널 지하 1층,35.2218428,128.6771736,
272,거창유기공방,경남 거창군,055-943-4949,"['쇼핑', '수제품', '전통유기', '전통유기제품']",https://cdn.visitkorea.or.kr/img/call?cmd=VIEW&id=undefined&thumb,경상남도 거창군 남하면 가조가야로 310,35.70058179999999,127.9467078,
273,서호시장 (새터시장),경남 통영시,055-645-3024,"['가족여행', '경상권', '나들이', '나홀로여행', '데이트코스', '먹거리', '새터시장']",https://cdn.visitkorea.or.kr/img/call?cmd=VIEW&id=f39134cd-99b0-4904-90c1-e09ea6b49fd8&thumb,경상남도 통영시 새터길 42-7,34.8412795,128.4194451,
274,하동명품센터,경남 하동군,055-883-1189,"['가족여행', '경상권', '기념품판매', '기차여행', '나들이', '나홀로여행', '쇼핑']",https://cdn.visitkorea.or.kr/img/call?cmd=VIEW&id=ed52753a-0843-40e5-bd92-d8d07d51d847&thumb,경상남도 하동군 하동읍 섬진강대로 2571,35.0855785,127.7273781,
275,"수산장 (3, 8일)",경남 밀양시,055-359-5052,"['가족여행', '경상권', '기차여행', '나들이', '나홀로여행', '먹거리', '쇼핑', '수산장']",https://cdn.visitkorea.or.kr/img/call?cmd=VIEW&id=f7279cec-0a32-49b2-af6e-cfd3d544f83e&thumb,경상남도 밀양시 하남읍 시서길 16,35.3743625,128.7086638,
276,청학동 삼선당식품,경남 하동군,055-883-6088,"['경상권', '기념물판매', '쇼핑', '청학동삼선당식품', '특산물']",https://cdn.visitkorea.or.kr/img/call?cmd=VIEW&id=225d196d-2e91-4305-8e04-72f0534ad14b&thumb,경상남도 하동군 청암면 고래실길 234-18,35.1797972,127.7842834,
277,"무안장 (1, 6일)",경남 밀양시,055-359-5052,"['가족여행', '경상권', '기차여행', '나들이', '나홀로여행', '먹거리', '무안장', '쇼핑']",https://cdn.visitkorea.or.kr/img/call?cmd=VIEW&id=5932fe21-6648-47bc-99ab-b567e10f1550&thumb,경상남도 밀양시 무안면 사명로 510-7,35.47013,128.6522601,
278,삼천포수협회센터,경남 사천시,055-833-4354,"['삼천포항', '쇼핑', '수산물', '해산물']",https://cdn.visitkorea.or.kr/img/call?cmd=VIEW&id=cdec2084-8ef8-475d-82bb-3339cfe2700a&thumb,경상남도 사천시 유람선길 176,34.926823799999994,128.0679347,
279,"삼랑진장 (4, 9일)",경남 밀양시,055-359-5801,"['가족여행', '경상권', '기차여행', '나들이', '나홀로여행', '먹거리', '삼량진장']",https://cdn.visitkorea.or.kr/img/call?cmd=VIEW&id=1bb28974-ec1f-44db-a372-885a63677212&thumb,경상남도 밀양시 삼랑진읍 외송3길 8-1,35.3969035,128.837125,
280,"함양 토종약초시장 (5, 10일)",경남 함양군,055-964-5004,"['가족여행', '경상권', '기념품판매', '기차여행', '나들이', '나홀로여행', '쇼핑']",https://cdn.visitkorea.or.kr/img/call?cmd=VIEW&id=1a82e054-ada9-48f1-928c-e4788fe856a3&thumb,경상남도 함양군 안의면 약초시장길 27,35.6259844,127.8137474,
281,통영전통공예관,경남 통영시,055-645-3266,"['공예품', '나전칠기', '쇼핑', '통영공예', '통영나전칠기']",https://cdn.visitkorea.or.kr/img/call?cmd=VIEW&id=69958651-ba7f-45ed-b880-a2ecd0812ff1&thumb,경상남도 통영시 도남로 281,34.8267403,128.4328846,
282,"산청시장 (1, 6일)",경남 산청군,055-970-6801,"['가족여행', '경상권', '기차여행', '나들이', '나홀로여행', '먹거리', '산청시장']",https://cdn.visitkorea.or.kr/img/call?cmd=VIEW&id=af7fbbb5-2dcf-4bdd-bda7-63e9e62dd20d&thumb,경상남도 산청군 산청읍 꽃봉산로91번길 23,35.41487979999999,127.8764627,
283,향림도예원,경남 고성군,055-835-8888,"['삼천포터미널', '생활도자기', '쇼핑', '예술도자기']",https://cdn.visitkorea.or.kr/img/call?cmd=VIEW&id=undefined&thumb,경상남도 고성군 하이면 와룡1길 22,34.9503301,128.1360964,
284,청심사 청심다원,경남 하동군,055-882-4829,"['경상권', '기념품판매', '쇼핑', '청심사청심다원', '특산물']",https://cdn.visitkorea.or.kr/img/call?cmd=VIEW&id=e39f3618-b296-462e-a48d-a2693e88de75&thumb,경상남도 하동군 악양면 정서길 73-46,35.1646864,127.6996313,
285,한밭제다,경남 하동군,055-883-2288,"['가족여행', '경상권', '기념품판매', '기차여행', '나들이', '나홀로여행', '쇼핑']",https://cdn.visitkorea.or.kr/img/call?cmd=VIEW&id=1f909328-743e-49e3-b461-f8c517eda806&thumb,경상남도 하동군 화개면 검두길 53-1,35.1592045,127.6635145,
286,"거창장 (1, 6일)",경남 거창군,055-944-2581,"['가족여행', '거창장', '경상권', '기차여행', '나들이', '나홀로여행', '먹거리', '쇼핑']",https://cdn.visitkorea.or.kr/img/call?cmd=VIEW&id=fe5e0919-4e93-4b5d-b4d1-211e8b571c22&thumb,경상남도 거창군 거창읍 시장길 54,35.6861545,127.9137062,
287,옥선명차사 (요산당),경남 하동군,055-883-5007,"['기념품판매', '쇼핑', '옥선명차사', '요산당', '특산물']",https://cdn.visitkorea.or.kr/img/call?cmd=VIEW&id=f1a77943-95f7-4f18-b903-a7aa45a0a28a&thumb,경상남도 하동군 화개면 화개로 814,35.2267796,127.63668090000002,
288,금성냉장,경남 통영시,055-643-1551,"['가족여행', '경상권', '금성냉장', '기념품판매', '나들이', '나홀로여행', '쇼핑']",https://cdn.visitkorea.or.kr/img/call?cmd=VIEW&id=c686df78-2940-4a03-a930-c3bd3a5e2d4c&thumb,경상남도 통영시 남망길 106,34.8396714,128.427949,
289,경남 하동군 으뜸상품홍보관,경남 하동군,055-883-5852,"['경상권', '기념품판매', '쇼핑', '특산물', '하동군으뜸상품홍보관']",https://cdn.visitkorea.or.kr/img/call?cmd=VIEW&id=59f0025e-d1ab-4b34-84de-337086cab0c2&thumb,경상남도 하동군 하동읍 군청로 36,35.0653885,127.752491,
290,한려물산 / 멸치원 (통영),경남 통영시,055-645-0046,"['가족여행', '경상권', '기념품판매', '나들이', '나홀로여행', '먹거리', '멸치원']",https://cdn.visitkorea.or.kr/img/call?cmd=VIEW&id=02d41ebd-7d8f-4108-9062-a162fab896a8&thumb,경상남도 통영시 멘데산업길 41,34.8442393,128.4355371,
291,대동백화점,경남 창원시,055-212-8000,['쇼핑'],https://cdn.visitkorea.or.kr/img/call?cmd=VIEW&id=5f1d01e8-fccb-444e-96a8-5fec48c3ef6d&thumb,경상남도 창원시 성산구 동산로 115,35.2189019,128.6895637,
292,팔도건어물 (통영),경남 통영시,055-644-6710,"['가족여행', '경상권', '기념품판매', '나들이', '나홀로여행', '먹거리', '쇼핑', '시장맛집']",https://cdn.visitkorea.or.kr/img/call?cmd=VIEW&id=0f3c9d50-ba6f-40c1-93cb-4ee6c1bc8464&thumb,경상남도 통영시 통영해안로 209-3,34.8407156,128.41907379999998,
293,루디아공예원,경남 사천시,010-2862-0524,"['공방', '도예', '도자기체험', '사천', '쇼핑']",https://cdn.visitkorea.or.kr/img/call?cmd=VIEW&id=d0cf3fd9-2f87-433e-b2d5-77d56e20efa1&thumb,경상남도 사천시 벌리5길 12-12,34.9388454,128.0843599,
294,하동 예전농원,경남 하동군,055-884-7444,"['경상권', '기념품판매', '쇼핑', '특산물', '하동예전농원']",https://cdn.visitkorea.or.kr/img/call?cmd=VIEW&id=bcc5cba8-54f7-406b-90ba-0f695c90694d&thumb,경상남도 하동군 화개면 섬진강대로 3946,35.1819224,127.6307161,
295,명성다원,경남 하동군,055-883-5852,"['가족여행', '경상권', '기념품판매', '기차여행', '나들이', '나홀로여행', '명성다원']",https://cdn.visitkorea.or.kr/img/call?cmd=VIEW&id=f0d5a60f-b6d6-401f-b7a6-e290c0ba2772&thumb,경상남도 하동군 악양면 섬진강대로 3068-4,35.130438700000006,127.6962371,
296,두부자공방,경남 거창군,055-943-7956,"['무형문화재', '방짜유기', '사물악기', '쇼핑']",https://cdn.visitkorea.or.kr/img/call?cmd=VIEW&id=undefined&thumb,경상남도 거창군 거창읍 밤티재로 1273-26,35.669462,127.9301054,
297,신정희도예 (신한균 사기장),경남 양산시,055-382-6616,"['도예', '분청사기', '쇼핑', '양산']",https://cdn.visitkorea.or.kr/img/call?cmd=VIEW&id=4105106e-5a2b-4d67-99f8-1869db4f0d5d&thumb,경상남도 양산시 하북면 평산마을길 114,35.4956584,129.0671132,
298,"고성장 (1, 6일)",경남 고성군,055-674-6931,"['가족여행', '경상권', '고성장', '기차여행', '나들이', '나홀로여행', '먹거리', '쇼핑']",https://cdn.visitkorea.or.kr/img/call?cmd=VIEW&id=12bb095f-7898-4184-90c4-ce8474886960&thumb,경상남도 고성군 고성읍 중앙로25번길 57,34.977242700000005,128.323632,
299,"생초시장 (3, 8일)",경남 산청군,055-972-1713,"['가족여행', '경상권', '기차여행', '나들이', '나홀로여행', '먹거리', '생초시장']",https://cdn.visitkorea.or.kr/img/call?cmd=VIEW&id=113fd868-d87a-4b7c-a423-59a299576460&thumb,경상남도 산청군 생초면 생초로 25-17,35.4924156,127.836062,
300,"안의장 (5, 10일)",경남 함양군,055-962-0259,"['가족여행', '경상권', '기차여행', '나들이', '나홀로여행', '먹거리', '쇼핑', '시장맛집']",https://cdn.visitkorea.or.kr/img/call?cmd=VIEW&id=c69b3ca3-bc42-4059-a104-ea731ad39c60&thumb,경상남도 함양군 안의면 약초시장길 25-10,35.6264583,127.8141525,
301,"궁류장 (1, 6일)",경남 의령군,055-570-2622,"['가족여행', '경상권', '궁류장', '기차여행', '나들이', '나홀로여행', '먹거리', '쇼핑']",https://cdn.visitkorea.or.kr/img/call?cmd=VIEW&id=undefined&thumb,경상남도 의령군 궁류면 궁류로1길 10,35.43781,128.2489432,
302,"송백장 (5, 10일)",경남 밀양시,055-359-5806,"['가족여행', '경상권', '기차여행', '나들이', '나홀로여행', '먹거리', '송백장', '쇼핑']",https://cdn.visitkorea.or.kr/img/call?cmd=VIEW&id=7bc5698f-6718-4023-a252-040530dadb41&thumb,경상남도 밀양시 산내면 산내로 344-1,35.588945,128.9116521,
303,웅석공방,경남 산청군,055-973-4118,"['문화상품', '쇼핑', '예술가구', '전통소목가구']",https://cdn.visitkorea.or.kr/img/call?cmd=VIEW&id=1c5529fe-0367-4ef5-95b5-00f6582ce6b6&thumb,경상남도 산청군 단성면 호암로 1325,35.3625238,127.9116993,
