,name,region,tel,keyword,photo,address,lat,lon,Unnamed: 0
0,포항함 체험관,경북 포항시,054-231-3882,"['가족여행', '경상권', '문화시설', '연중무휴', '포항함체험관']",https://cdn.visitkorea.or.kr/img/call?cmd=VIEW&id=7dc988b7-3643-4d78-bf1a-32839ab6d298&thumb,경상북도 포항시 남구 운하로 205,36.041765999999996,129.372922,
1,구미시립중앙도서관,경북 구미시,054-480-4660,"['구미시립중앙도서관', '독서교육', '문화공간', '문화시설', '아이와 함께']",https://cdn.visitkorea.or.kr/img/call?cmd=VIEW&id=6f3163e9-1fef-41a7-a3f1-3b248024b9d0&thumb,경상북도 구미시 경은로 85,36.11379779999999,128.33522150000002,
2,국립경주박물관,경북 경주시,054-740-7500,"['가족여행', '경상권', '국립경주박물관', '기차여행', '나들이', '문화시설', '박물관']",https://cdn.visitkorea.or.kr/img/call?cmd=VIEW&id=3cd6d072-1a09-49bd-91a4-579032debf3f&thumb,경상북도 경주시 일정로 186,35.82943009,129.22868190000003,
3,테디베어뮤지엄 경주,경북 경주시,054-742-7400,"['경상권', '데이트코스', '문화시설', '박물관', '사계절', '실내여행지', '아이와함께']",https://cdn.visitkorea.or.kr/img/call?cmd=VIEW&id=fd89871d-4d34-467d-85db-f1932876693b&thumb,경상북도 경주시 보문로 280-34,35.85189357,129.2734577,
4,신라역사과학관,경북 경주시,054-745-4998,"['가족여행', '경상권', '경상북도', '경주시', '무더위_피해_실내놀이', '문화시설']",https://cdn.visitkorea.or.kr/img/call?cmd=VIEW&id=12fe60e9-00d3-409c-b685-b430ce758cd4&thumb,경상북도 경주시 하동공예촌길 33,35.80688551,129.311351,
5,칠곡호국평화기념관,경북 칠곡군,054-979-5503,"['경상권', '기념관', '문화시설', '문화행사', '아이와함께', '역사를품은곳', '역사속']",https://cdn.visitkorea.or.kr/img/call?cmd=VIEW&id=fd7b6322-92e5-4076-ae9a-988918322a28&thumb,경상북도 칠곡군 석적읍 강변대로 1580,36.01791818,128.4040338,
6,안동소주·전통음식 박물관,경북 안동시,· 054-858-4541,"['가족과함께', '남녀노소', '문화시설', '미세먼지_피하는_실내여행', '아이와함께']",https://cdn.visitkorea.or.kr/img/call?cmd=VIEW&id=69d2fbb5-01ce-403a-a6a4-3de4e64d96ed&thumb,경상북도 안동시 강남로 71-1,36.54976343,128.70869979999998,
7,효자 정재수 기념관,경북 상주시,054-535-0575,"['경상권', '기념관', '문화시설', '아이와함께', '역사공부', '역사를품은곳', '역사속']",https://cdn.visitkorea.or.kr/img/call?cmd=VIEW&id=43b009a6-30b3-4766-a43f-7bcb6601b794&thumb,경상북도 상주시 화서면 효자로 201,36.41640176,127.922882,
8,포항시립미술관,경북 포항시,054-270-4700,"['경상권', '문화시설', '문화예술', '문화예술공간', '문화예술활동', '문화행사']",https://cdn.visitkorea.or.kr/img/call?cmd=VIEW&id=654f2a31-5e3a-4a97-8b3c-e1da54ef3c4d&thumb,경상북도 포항시 북구 환호공원길 10,36.06627642,129.39107620000001,
9,민물고기생태체험관,경북 울진군,054-783-9413,"['경상권', '교과서속여행', '문화시설', '민물고기생태체험관', '사계절', '실내여행지']",https://cdn.visitkorea.or.kr/img/call?cmd=VIEW&id=c758fc19-19c6-4b37-901f-bfb7d751afb2&thumb,경상북도 울진군 근남면 불영계곡로 3532,36.96655572,129.3809874,
10,독도박물관,경북 울릉도,054-790-6432,"['가족여행', '경상권', '독도박물관', '문화시설', '바다풍경', '박물관', '아이와함께']",https://cdn.visitkorea.or.kr/img/call?cmd=VIEW&id=3b2deed2-666f-4aa5-b8e1-f535ec1f19ff&thumb,경상북도 울릉군 울릉읍 약수터길 90-17,37.48341973,130.9008801,
11,상주 자전거박물관,경북 상주시,054-534-4973,"['경상권', '기차여행', '문화시설', '박물관', '상주자전거박물관', '아이와함께']",https://cdn.visitkorea.or.kr/img/call?cmd=VIEW&id=b3f0e72d-cd8c-46db-8ae2-5fa1b2048036&thumb,경상북도 상주시 용마로 415,36.45322838,128.2550613,
12,경상북도독립운동기념관,경북 안동시,054-820-2600,"['3·1운동_100주년_여행지추천', '경상권', '경상북도독립운동기념관', '교과서속여행']",https://cdn.visitkorea.or.kr/img/call?cmd=VIEW&id=fba00d61-66d4-4324-ae79-33db77701a74&thumb,경상북도 안동시 임하면 독립기념관길 2,36.53319519,128.8582222,
13,영천보현산천문과학관,경북 영천시,054-330-6447,"['가족여행', '경상권', '교과서속여행', '교육프로그램', '무더위_피해_실내놀이']",https://cdn.visitkorea.or.kr/img/call?cmd=VIEW&id=bbed04b4-3e1e-4a99-a99b-d0f0265ae6ec&thumb,경상북도 영천시 화북면 별빛로 681-32,36.14025487,128.9964736,
14,포항문화예술회관,경북 포항시,054-289-7999,"['경상권', '공연장', '데이트코스', '문화시설', '아이와함께', '연인과함께', '음악회']",https://cdn.visitkorea.or.kr/img/call?cmd=VIEW&id=13162b7e-3e73-4906-b8e3-9ab50044ef0a&thumb,경상북도 포항시 남구 희망대로 850,36.00961185,129.3660209,
15,안동민속박물관,경북 안동시,054-821-0649,"['가족여행', '경상권', '기차여행', '문화시설', '박물관', '실내여행지', '아이와함께']",https://cdn.visitkorea.or.kr/img/call?cmd=VIEW&id=cab09f77-349c-4bb6-8be0-7e3afe46857c&thumb,경상북도 안동시 민속촌길 13,36.5760673,128.7644396,
16,소수박물관,경북 영주시,054-639-7691,"['경상권', '교과서속여행', '문화시설', '박물관', '사계절', '소수박물관', '실내여행지']",https://cdn.visitkorea.or.kr/img/call?cmd=VIEW&id=cd94e2de-d87c-4c59-935a-e33071fd4690&thumb,경상북도 영주시 순흥면 소백로 2780,36.92592352,128.582312,
17,군립 청송야송미술관,경북 청송군,054-870-6536,"['가족여행', '경상권', '군립청송야송미술관', '문화시설', '미술관', '사계절', '실내여행지']",https://cdn.visitkorea.or.kr/img/call?cmd=VIEW&id=1d6b675f-7014-49ff-a3dc-3303b35a8c60&thumb,경상북도 청송군 진보면 경동로 5162,36.50585697,129.1192011,
18,혼자수미술관,경북 경주시,054-748-0080,"['가족여행', '경상권', '남녀노소', '문화공간', '문화시설', '문화예술공간', '복합문화공간']",https://cdn.visitkorea.or.kr/img/call?cmd=VIEW&id=b011cce9-6353-4ed5-9d1e-8a69d590c63c&thumb,경상북도 경주시 중앙로 23,35.84192011,129.211461,
19,다부동전적기념관,경북 칠곡군,054-973-6313,"['경상권', '교과서속여행', '다부동전적기념관', '무장애', '문화시설', '박물관']",https://cdn.visitkorea.or.kr/img/call?cmd=VIEW&id=40f38790-01d1-4496-9045-1a0d2c1859f4&thumb,경상북도 칠곡군 가산면 호국로 1486,36.04644191,128.5188744,
20,구미코,경북 구미시,054-477-8000,"['경상권', '구미코', '문화시설', '산업관광', '예술', '이색체험', '전시회', '첨단IT산업']",https://cdn.visitkorea.or.kr/img/call?cmd=VIEW&id=e3a234d2-36de-4983-a53c-1c65fb1abb64&thumb,경상북도 구미시 산동면 첨단기업1로 49,36.14159669,128.44223259999998,
21,청송민속박물관,경북 청송군,054-874-9321,"['경상권', '교과서속여행', '문화시설', '박물관', '사계절', '실내여행지', '아이와함께']",https://cdn.visitkorea.or.kr/img/call?cmd=VIEW&id=b1bdc932-d453-46e1-9d6f-37c5dde95e5b&thumb,경상북도 청송군 청송읍 주왕산로 222,36.38966103,129.0838038,
22,잉카마야박물관,경북 문경시,054-572-3170,"['가족과함께', '문경가볼만한곳', '문경당일치기', '문경여행', '문경여행코스']",https://cdn.visitkorea.or.kr/img/call?cmd=VIEW&id=f745841c-e825-47e7-a451-ee6f7cfe2469&thumb,경상북도 문경시 가은읍 전곡길 13-10,36.6118532,128.0250188,
23,하회세계탈박물관,경북 안동시,054-853-2288,"['교과서속여행', '문화시설', '박물관', '실내여행지', '아이와함께', '이색체험']",https://cdn.visitkorea.or.kr/img/call?cmd=VIEW&id=1f2d6a64-50d8-4a5b-8d8e-50a4f0dd97d8&thumb,경상북도 안동시 풍천면 전서로 206,36.54896283,128.5274904,
24,구미시문화예술회관,경북 구미시,054-480-4560,"['경상권', '공연장', '구미시문화예술회관', '기차여행', '나들이', '데이트코스']",https://cdn.visitkorea.or.kr/img/call?cmd=VIEW&id=ce58794c-d6f1-4efc-b781-8be2b4a8a2d8&thumb,경상북도 구미시 송정대로 89,36.11837776,128.3489815,
25,시안미술관,경북 영천시,054-338-9391,"['가족과함께', '경상권', '남녀노소', '문화공간', '문화시설', '문화예술', '미술관']",https://cdn.visitkorea.or.kr/img/call?cmd=VIEW&id=0d286d1f-b971-4558-90c2-9c38e3766e19&thumb,경상북도 영천시 화산면 가래실로 364,36.03276243,128.8892466,
26,김천 세계도자기박물관,경북 김천시,054-420-6726,"['경상권', '기획전시', '김천세계도자기박물관', '도자기박물관', '도자기체험']",https://cdn.visitkorea.or.kr/img/call?cmd=VIEW&id=00328d88-39c6-4b4a-bb1b-fc97cce95e72&thumb,경상북도 김천시 대항면 직지사길 118,36.11689511,128.0111915,
27,국립등대박물관,경북 포항시,054-284-4857,"['경상권', '국립등대박물관', '기차여행', '문화시설', '박물관', '아이와함께', '이색체험']",https://cdn.visitkorea.or.kr/img/call?cmd=VIEW&id=ac859fdf-4683-48f3-9648-55a95163cccc&thumb,경상북도 포항시 남구 호미곶면 해맞이로150번길 20,36.07783791,129.5682565,
28,삼성현 역사문화관,경북 경산시,053-804-7329,"['가족여행', '경상권', '문화시설', '박물관', '사계절', '삼성현역사문화공원', '역사공부']",https://cdn.visitkorea.or.kr/img/call?cmd=VIEW&id=06cb2dd0-0338-4e47-a063-92481310bb62&thumb,경상북도 경산시 남산면 인흥리,35.802725,128.799732,
29,한국대중음악박물관 (경주),경북 경주시,054-776-5502,"['경상권', '문화시설', '문화행사', '박물관', '복합문화공간', '열린문화공간', '예술']",https://cdn.visitkorea.or.kr/img/call?cmd=VIEW&id=e60e3caa-6c78-4460-a44d-0e94b3753392&thumb,경상북도 경산시 남산면 상대로 883-30,35.84034042,129.2888922,
30,옛길박물관,경북 문경시,054-550-8372,"['가족여행', '경상권', '기차여행', '문화시설', '박물관', '아이와함께', '옛길박물관']",https://cdn.visitkorea.or.kr/img/call?cmd=VIEW&id=bb0311da-b119-4133-97c7-e2e8c6f021c2&thumb,경상북도 경주시 엑스포로 9,36.76313749,128.07641370000002,
31,객주문학관,경북 청송군,054-873-8011,"['가족과함께', '객주문학관', '경상권', '기념관', '기념품판매', '남녀노소', '문학']",https://cdn.visitkorea.or.kr/img/call?cmd=VIEW&id=be87060a-1922-4837-93d9-a9d2964bb186&thumb,경상북도 문경시 문경읍 새재로 944,36.52344004,129.03982539999998,
32,문경문화예술회관,경북 문경시,054-550-8949,"['가족과함께', '공연장', '남녀노소', '무더위_피해_실내여행', '문경문화예술회관']",https://cdn.visitkorea.or.kr/img/call?cmd=VIEW&id=8b9bebe0-e718-4734-87c5-5742fc2fd8cb&thumb,경상북도 청송군 진보면 청송로 6359,36.59003854,128.1977795,
33,전통문화콘텐츠박물관,경북 안동시,054-843-7900,"['가족여행', '겨울방학가볼만한곳', '경상권', '문화시설', '박물관', '사계절', '실내여행지']",https://cdn.visitkorea.or.kr/img/call?cmd=VIEW&id=2f16b756-6b41-4fb8-a2f6-584d6aa0608e&thumb,경상북도 문경시 신흥로 85,36.56623528,128.73398659999998,
34,유교문화박물관,경북 안동시,054-851-0800,"['경상권', '교과서속여행', '기차여행', '문화시설', '박물관', '아이와함께', '유교문화박물관']",https://cdn.visitkorea.or.kr/img/call?cmd=VIEW&id=b8a89d7e-33aa-4817-bb23-d505a54e1af2&thumb,경상북도 안동시 서동문로 203,36.70178816,128.811073,
35,칠곡군 교육문화회관,경북 칠곡군,054-979-5102,"['가족과함께', '남녀노소', '문화공간', '문화시설', '문화예술공간', '문화예술활동']",https://cdn.visitkorea.or.kr/img/call?cmd=VIEW&id=b4b7c3db-ce82-4eef-902e-b4b19c19378a&thumb,경상북도 안동시 도산면 퇴계로 1997,35.99188421,128.41814779999999,
36,대가야박물관,경북 고령군,054-950-7103,"['경상권', '기차여행', '대가야박물관', '문화시설', '박물관', '아이와함께', '예술']",https://cdn.visitkorea.or.kr/img/call?cmd=VIEW&id=d29d0e78-fc9a-419d-912f-865de3ab41bc&thumb,경상북도 칠곡군 왜관읍 관문로1길 32,35.72243113,128.25681029999998,
37,최무선과학관,경북 영천시,054-331-7096,"['가족여행', '걷기좋은길', '경상권', '교육여행', '교육프로그램', '문화시설', '사계절']",https://cdn.visitkorea.or.kr/img/call?cmd=VIEW&id=efd13872-b6b5-4359-9e91-b05e8589fcde&thumb,경상북도 고령군 대가야읍 대가야로 1203,35.90779233,128.8811882,
38,삼국유사교육문화회관,경북 군위군,054-380-7212,"['가족과함께', '경상권', '문화공간', '문화시설', '복합문화공간', '삼국유사교육문화회관']",https://cdn.visitkorea.or.kr/img/call?cmd=VIEW&id=f93b9b1c-05bd-4ddc-b911-e25529f2191e&thumb,경상북도 영천시 금호읍 창산길 100-29,36.237763,128.573722,
39,청도농기구박물관,경북 청도군,054-371-0296,"['농기구박물관', '문화시설', '이색체험', '전통문화', '청도']",https://cdn.visitkorea.or.kr/img/call?cmd=VIEW&id=76d52eff-b637-407e-81af-d9ab4eed12d4&thumb,경상북도 군위군 군위읍 동부리 155,35.64280159,128.6571697,
40,우륵박물관,경북 고령군,054-950-7136,"['겨울방학가볼만한곳', '경상권', '문화시설', '박물관', '아이와함께', '여름방학가볼만한곳']",https://cdn.visitkorea.or.kr/img/call?cmd=VIEW&id=77e4c51b-fd3f-448b-919b-d13a76988fd8&thumb,경상북도 청도군 각남면 각남로 59,35.74233935,128.2637881,
41,경주예술의전당,경북 경주시,1588-4925,"['가족여행', '경상권', '경주예술의전당', '공연장', '나들이', '데이트코스', '문화시설']",https://cdn.visitkorea.or.kr/img/call?cmd=VIEW&id=6e48b3ce-20a1-4e2b-a500-850871a394f5&thumb,경상북도 고령군 대가야읍 가야금길 98,35.86235646,129.20599620000002,
42,안용복기념관,경북 울릉도,054-791-8871,"['경상권', '교과서속여행', '기념관', '독도는우리땅', '무장애', '문화시설', '안용복기념관']",https://cdn.visitkorea.or.kr/img/call?cmd=VIEW&id=20b645e1-e8c4-42bd-8510-4e29d386e0ac&thumb,경상북도 경주시 알천북로 1,37.53547569,130.9065613,
43,의성 조문국박물관,경북 의성군,054-830-6909,"['가족과함께', '문화시설', '아이와함께', '역사체험', '조문국박물관']",https://cdn.visitkorea.or.kr/img/call?cmd=VIEW&id=50b2d90f-6c6b-479f-80ab-07722ff32a6a&thumb,경상북도 의성군 의성읍 군청길 31,36.35290408,128.6972464,
44,영양문화원,경북 영양군,054-682-1378,"['교육프로그램', '문화시설', '영양문화원']",https://cdn.visitkorea.or.kr/img/call?cmd=VIEW&id=3509e260-a29d-44b8-a227-3787e5b068db&thumb,경상북도 영양군 영양읍 군민회관길 7,36.66347205,129.1175295,
45,구미시립민속관,경북 구미시,054-456-7904,"['경상권', '구미시립민속관', '기차여행', '무장애', '문화시설', '박물관', '아이와함께']",https://cdn.visitkorea.or.kr/img/call?cmd=VIEW&id=d7ce3780-5d80-4236-879c-b9c50d7b47bf&thumb,경상북도 구미시 산책길 51,36.12355207,128.3306169,
46,안동문화예술의전당,경북 안동시,054-840-3600,"['가족여행', '경상권', '데이트코스', '문화공간', '문화시설', '문화행사', '복합문화공간']",https://cdn.visitkorea.or.kr/img/call?cmd=VIEW&id=5ff06c11-3096-4489-b64d-a78152cf2f3d&thumb,경상북도 안동시 축제장길 66,36.55940953,128.7250766,
47,영양고추홍보전시관,경북 영양군,054-682-6271,"['경상권', '문화시설', '박물관', '산업관광', '영양고추홍보전시관', '전시관', '체험학습']",https://cdn.visitkorea.or.kr/img/call?cmd=VIEW&id=71c4592b-4ba4-4893-8f80-d4df8b2b33bd&thumb,경상북도 영양군 입암면 영양로 883-6,36.60795057,129.0820981,
48,영남대학교박물관,경북 경산시,053-810-1707,"['경상권', '기차여행', '무료관람', '문화시설', '박물관', '실내여행지', '아이와함께']",https://cdn.visitkorea.or.kr/img/call?cmd=VIEW&id=fb0c34b9-4495-4e3b-aa2f-247528334f07&thumb,경상북도 경산시 대학로 280,35.83049163,128.7521801,
49,우양미술관,경북 경주시,054-745-7075,"['경상권', '기차여행', '문화시설', '미술관', '아이와함께', '예술', '우양미술관']",https://cdn.visitkorea.or.kr/img/call?cmd=VIEW&id=c273c351-23d4-44bd-a35f-6fd12a4bd6cd&thumb,경상북도 경주시 보문로 484-7,35.83991327,129.2859477,
50,김천문화예술회관,경북 김천시,054-420-7820,"['가족과함께', '문화공간', '문화시설', '문화예술공간', '복합문화공간', '열린문화공간']",https://cdn.visitkorea.or.kr/img/call?cmd=VIEW&id=a188f91c-85b6-45dd-b37c-0956f3c42db1&thumb,경상북도 김천시 운동장길 3,36.13824055,128.088634,
51,상주박물관,경북 상주시,054-536-6160,"['가족여행', '경상권', '문화시설', '박물관', '상주박물관', '아이와함께', '체험학습']",https://cdn.visitkorea.or.kr/img/call?cmd=VIEW&id=bab2f2c7-d3e8-4492-bdbf-3be31c170a9b&thumb,경상북도 상주시 사벌국면 경천로 684,36.4591647,128.2403521,
52,국립낙동강생물자원관(상주),경북 상주시,054-530-0700,"['경상권', '교육프로그램', '국립낙동강생물자원관', '문화시설', '아이와함께']",https://cdn.visitkorea.or.kr/img/call?cmd=VIEW&id=f5bb1a13-1054-4093-9b10-7ce6ba78b045&thumb,경상북도 상주시 도남2길 137,36.44559196,128.2554155,
53,안동시청 대동관(안동시민회관),경북 안동시,054-840-3651,"['가족여행', '경상권', '공연장', '나들이', '데이트코스', '문화시설', '아이와함께']",https://cdn.visitkorea.or.kr/img/call?cmd=VIEW&id=49446ca3-b218-4850-981c-abb67f4d811a&thumb,경상북도 안동시 퇴계로 115,36.5681878,128.73026049999999,
54,대구대학교 중앙박물관,경북 경산시,053-850-5624,"['대구대학교중앙박물관', '무료관람', '문화시설', '박물관', '수도권', '실내여행지']",https://cdn.visitkorea.or.kr/img/call?cmd=VIEW&id=4c6846c1-9b30-4154-8d30-2b4292fad6c0&thumb,경상북도 경산시 진량읍 대구대로 201,35.90453897,128.8428133,
55,영덕어촌민속전시관,경북 영덕군,054-730-6790,"['경상권', '교과서속여행', '문화시설', '사계절', '실내여행지', '아이와함께', '영덕어촌민속전시관']",https://cdn.visitkorea.or.kr/img/call?cmd=VIEW&id=c3b98ff0-1241-4652-9d00-a6d268653ed5&thumb,경상북도 영덕군 강구면 해상공원길 96-8,36.35030523,129.38669240000002,
56,울릉한마음회관,경북 울릉도,054-790-6563,"['가족여행', '경상권', '남녀노소', '문화공간', '문화시설', '문화행사', '복합문화공간']",https://cdn.visitkorea.or.kr/img/call?cmd=VIEW&id=ac5e3a7a-140a-40a3-98a3-0afb3ba08d6c&thumb,경상북도 울릉군 울릉읍 울릉순환로 286,37.49062688,130.9049835,
57,칠곡문화원,경북 칠곡군,054-974-0450,"['경상권', '문화시설', '문화활동', '복합문화공간', '열린문화공간', '칠곡문화원']",https://cdn.visitkorea.or.kr/img/call?cmd=VIEW&id=603f6b82-578d-4bc6-abbe-402a0836cee7&thumb,경상북도 칠곡군 왜관읍 2번도로길 23,35.98981697,128.3972628,
58,경산문화원,경북 경산시,053-815-0593,"['경산문화원', '경상권', '기차여행', '문화시설', '아이와함께', '전통&역사문화체험']",https://cdn.visitkorea.or.kr/img/call?cmd=VIEW&id=a9e6d2d9-79ef-4d4e-be71-f5cdadfafbff&thumb,경상북도 경산시 서상길 75,35.81841632,128.7341111,
59,포항문화원,경북 포항시,054-242-4711,"['문화시설', '복합문화공간', '열린문화공간', '포항문화원']",https://cdn.visitkorea.or.kr/img/call?cmd=VIEW&id=f9ed1298-3e27-4cc3-adb9-96bef8c1a4fc&thumb,경상북도 포항시 북구 새천년대로 909,36.05338023,129.360522,
60,구상문학관,경북 칠곡군,054-973-0039,"['가족과함께', '경북여행', '경상권', '교육여행', '구상문학관', '남녀노소', '문학관']",https://cdn.visitkorea.or.kr/img/call?cmd=VIEW&id=cc50dfa8-5560-4730-bde5-385a5022017f&thumb,경상북도 칠곡군 왜관읍 구상길 191,35.98381914,128.3945858,
61,구미문화원,경북 구미시,054-482-5422,"['경상북도', '구미시', '문화보존', '문화생활', '문화시설', '문화원', '지역문화']",https://cdn.visitkorea.or.kr/img/call?cmd=VIEW&id=d85c9e21-8fbf-47bf-ac84-9c30a829d05a&thumb,경상북도 구미시 선산읍 선산중앙로 83-1,36.24299211,128.3001782,
62,경상북도과학교육원,경북 포항시,054-230-5599,"['경상권', '경상북도과학교육원', '기차여행', '데이트코스', '문화시설', '아이와함께']",https://cdn.visitkorea.or.kr/img/call?cmd=VIEW&id=fe2854ec-2802-4786-86b9-59b3086abcf3&thumb,경상북도 포항시 북구 우미길 93,36.04683033,129.3515854,
63,인삼박물관,경북 영주시,054-639-7686,"['가족체험여행', '건강여행', '경상권', '교육여행', '교육프로그램', '문화시설']",https://cdn.visitkorea.or.kr/img/call?cmd=VIEW&id=8bf84707-6e54-4006-81c9-d3078cc2c67e&thumb,경상북도 영주시 풍기읍 죽령로 1378,36.88587394,128.4798554,
64,마애선사유적전시관,경북 안동시,054-850-4615,"['경상권', '교과서속여행', '마애선사유적전시관', '문화시설', '아이와함께', '역사']",https://cdn.visitkorea.or.kr/img/call?cmd=VIEW&id=05dddb34-e696-4c2d-9d14-9cac17b43c58&thumb,경상북도 안동시 풍산읍 풍산단호로 388,36.55239823,128.5908902,
65,영천시민회관,경북 영천시,054-330-6454,"['문화공간', '문화시설', '복합문화공간', '열린문화공간', '전시/공연', '창작공연']",https://cdn.visitkorea.or.kr/img/call?cmd=VIEW&id=5317c7c9-8845-4466-a372-ca11f9652fc4&thumb,경상북도 영천시 시청로 17,35.97216113,128.9375736,
66,안동공예문화전시관,경북 안동시,054-843-5531,"['가족여행', '경상권', '기차여행', '문화시설', '아이와함께', '안동공예문화전시관']",https://cdn.visitkorea.or.kr/img/call?cmd=VIEW&id=4e1b9585-e286-4057-ba22-7a2117690f6b&thumb,경상북도 안동시 석주로 245,36.58043422,128.76128889999998,
67,의성문화체육회관,경북 의성군,054-830-6931,"['가족여행', '경상권', '문화시설', '복합문화공간', '사계절', '실내여행지', '실내체육관']",https://cdn.visitkorea.or.kr/img/call?cmd=VIEW&id=9c255aca-31e3-440d-8e15-c7dd982b55bd&thumb,경상북도 의성군 의성읍 충효로 88,36.35527766,128.7024955,
68,한국국학진흥원,경북 안동시,054-851-0700,"['가족과함께', '국학진흥원', '문화시설', '아이와함께', '역사공부', '역사이야기']",https://cdn.visitkorea.or.kr/img/call?cmd=VIEW&id=b052f241-9a87-43ac-a924-746d31749976&thumb,경상북도 안동시 도산면 퇴계로 1997,36.70178816,128.811073,
69,안동문화원,경북 안동시,054-859-0825,"['경상권', '문화시설', '문화원', '문화행사', '안동문화원']",https://cdn.visitkorea.or.kr/img/call?cmd=VIEW&id=3e55346a-387e-47e1-8cb2-5126dbec47d2&thumb,경상북도 안동시 서동문로 203,36.56623528,128.73398659999998,
70,예천군 문화회관,경북 예천군,054-650-6422,"['경상권', '공연장', '기차여행', '문화시설', '복합문화공간', '아이와함께', '연인과함께']",https://cdn.visitkorea.or.kr/img/call?cmd=VIEW&id=6af7bda6-21f1-4d58-bd0e-f43a712290d8&thumb,경상북도 예천군 예천읍 충효로 209-15,36.65124804,128.4464765,
71,영일민속박물관,경북 포항시,054-270-5811,"['경상권', '문화시설', '민속박물관', '민속자료', '박물관', '영일민속박물관', '전시관']",https://cdn.visitkorea.or.kr/img/call?cmd=VIEW&id=4069c555-c534-4f91-8e26-c3092728cff7&thumb,경상북도 포항시 북구 흥해읍 한동로 51,36.11083002,129.34719809999999,
72,충효테마공원,경북 예천군,054-650-8311,"['문화시설', '아이와함께', '예절', '예절학교', '인성교육', '충효', '충효', '충효']",https://cdn.visitkorea.or.kr/img/call?cmd=VIEW&id=cb06c429-4e5f-4e43-9799-ba1a2106150d&thumb,경상북도 예천군 감천면 복골길 150,36.700157700000005,128.5142311,
73,경북대학교자연사박물관,경북 군위군,054-383-7026,"['경북대학교', '경상북도', '군위군', '문화시설', '아이와 함께', '자연', '자연사박물관']",https://cdn.visitkorea.or.kr/img/call?cmd=VIEW&id=70caa87f-6d2b-4e16-8e47-1b4432e1ae6e&thumb,경상북도 군위군 효령면 경북대로 2228,36.12173194,128.5766028,
74,예주문화예술회관,경북 영덕군,054-730-7771,"['가족여행', '경상권', '문화시설', '문화행사', '복합문화공간', '사계절데이트코스']",https://cdn.visitkorea.or.kr/img/call?cmd=VIEW&id=676ab8ed-22e1-4d3d-9c65-bed1fd03af17&thumb,경상북도 영덕군 영해면 318만세길 36,36.52973493,129.40508459999998,
75,영덕문화원,경북 영덕군,054-734-2456,"['경상북도', '무장애', '문화시설', '문화원', '문화활동', '영덕군', '영덕문화원']",https://cdn.visitkorea.or.kr/img/call?cmd=VIEW&id=c2730d75-0e2f-4708-98f5-f56d86a00d8a&thumb,경상북도 영덕군 영덕읍 강변길 324,36.42003445,129.3620773,
76,성주문화예술회관,경북 성주군,054-933-6912,"['가족여행', '경상권', '기차여행', '나들이', '문화시설', '사계절', '성주문화예술회관']",https://cdn.visitkorea.or.kr/img/call?cmd=VIEW&id=209d3f8e-bd19-450d-88e3-d8b7cc798ffc&thumb,경상북도 성주군 성주읍 성산9길 45,35.91837543,128.3012964,
77,경주문화원 안강교육장,경북 경주시,054-761-2341,"['경상북도', '경주시', '문화시설', '문화행사', '열린문화공간', '지역문화', '취미교실']",https://cdn.visitkorea.or.kr/img/call?cmd=VIEW&id=302c0573-fcbc-49f4-af5e-a5625cac0d7d&thumb,경상북도 경주시 안강읍 안강중앙로 249,35.99193199,129.2275076,
78,국립안동대학교박물관,경북 안동시,054-820-7421,"['경상권', '국립안동대학교박물관', '무료관람', '문화시설', '박물관', '실내여행지']",https://cdn.visitkorea.or.kr/img/call?cmd=VIEW&id=46686d05-006d-40fa-bab2-0973dfcd157b&thumb,경상북도 안동시 경동로 1375,36.5414385,128.797564,
79,영천문화원,경북 영천시,054-334-3030,"['경북권', '교육프로그램', '문화시설', '영천문화원']",https://cdn.visitkorea.or.kr/img/call?cmd=VIEW&id=03f01389-32fc-47f2-8660-0c5173b870f1&thumb,경상북도 영천시 문화원길 6,35.96733349,128.9332748,
80,성주문화원,경북 성주군,054-933-0700,"['문화강좌', '문화시설', '복합문화공간', '성주문화원', '열린문화공간']",https://cdn.visitkorea.or.kr/img/call?cmd=VIEW&id=2b608054-ec6d-429a-898c-e1c54202daec&thumb,경상북도 성주군 성주읍 성주로 3204,35.91846997,128.2840727,
81,한국전통창조박물관,경북 의성군,054-861-9190,"['가족과함께', '문화시설', '아이와함께', '역사공부', '역사문화재', '역사속', '역사탐방']",https://cdn.visitkorea.or.kr/img/call?cmd=VIEW&id=7c955daa-23a3-48d2-9d1b-ed0612317c39&thumb,경상북도 의성군 단북면 중련길 22-8,36.39050712,128.4069168,
82,문경문화원,경북 문경시,054-555-2571,"['경상권', '문경문화원', '문화시설', '문화예술']",https://cdn.visitkorea.or.kr/img/call?cmd=VIEW&id=e767c6ad-9695-47ac-bc28-8c96892f178e&thumb,경상북도 문경시 점촌5길 20,36.59748581,128.1984902,
83,운강 이강년기념관,경북 문경시,054-550-6415,"['문화시설', '역사공부', '역사관광지', '역사를품은곳', '역사문화재', '역사속']",https://cdn.visitkorea.or.kr/img/call?cmd=VIEW&id=ed6fa325-abbb-4863-a8ca-21bc1af96e41&thumb,경상북도 문경시 가은읍 대야로 1683,36.67228175,127.99552820000001,
84,상주문화원,경북 상주시,054-535-2339,"['문화시설', '복합문화공간', '상주문화원', '열린문화공간']",https://cdn.visitkorea.or.kr/img/call?cmd=VIEW&id=4c5b4f18-1edc-489a-84b3-966e4e57de92&thumb,경상북도 상주시 상산로 235,36.41190225,128.1591952,
85,경상북도 산림과학박물관,경북 안동시,054-840-8282,"['경상북도산림과학박물관', '교과서속여행', '기차여행', '문화시설', '박물관']",https://cdn.visitkorea.or.kr/img/call?cmd=VIEW&id=1ab5229d-4d8f-47c5-ad62-3a835b183e5b&thumb,경상북도 안동시 도산면 퇴계로 2189,36.71396814,128.8246777,
86,봉화문화원,경북 봉화군,054-673-2350,"['문화시설', '복합문화공간', '봉화문화원', '열린문화공간']",https://cdn.visitkorea.or.kr/img/call?cmd=VIEW&id=fee6d7d8-d45c-4ae9-b25e-fb9a58207eb1&thumb,경상북도 봉화군 봉화읍 내성로4길 6-13,36.88838797,128.7417912,
87,청도문화원,경북 청도군,054-371-2514,"['경상북도', '문화시설', '문화예술', '문화원', '청도군', '청도문화', '화양읍']",https://cdn.visitkorea.or.kr/img/call?cmd=VIEW&id=643a191d-7518-47c1-b408-6bd690b198b8&thumb,경상북도 청도군 화양읍 청화로 47,35.64888765,128.73277720000002,
88,문경 도자기박물관,경북 문경시,054-550-6416,"['가족과함께', '남녀노소', '문경도자기전시관', '문화시설', '미세먼지_피하는_실내여행']",https://cdn.visitkorea.or.kr/img/call?cmd=VIEW&id=e8ec2c16-9a44-4254-b00f-3663c3c92678&thumb,경상북도 문경시 문경읍 문경대로 2416,36.74062871,128.0845639,
89,동국대학교 경주캠퍼스박물관,경북 경주시,054-770-2462,"['경상권', '동국대학교경주캠퍼스', '동국대학교박물관', '무료관람', '문화시설']",https://cdn.visitkorea.or.kr/img/call?cmd=VIEW&id=ff41935d-8b92-4cff-bd5b-ed1a55b863da&thumb,경상북도 경주시 동대로 123,35.86479385,129.19103090000002,
90,국조전(칠곡),경북 칠곡군,054-979-6453,"['기념비', '기념비', '단군', '문화시설', '아이와함께', '역사', '역사관광지', '역사여행']",https://cdn.visitkorea.or.kr/img/call?cmd=VIEW&id=039da222-a914-4b80-81f2-23b26de176ab&thumb,경상북도 칠곡군 왜관읍 석전로15길 20,36.00510823,128.4151622,
91,예천문화원,경북 예천군,054-654-3833,"['문화시설', '복합문화공간', '열린문화공간', '예천문화원', '친구와 함께']",https://cdn.visitkorea.or.kr/img/call?cmd=VIEW&id=53288b0b-8031-4bd8-a3d6-78b77fbb8582&thumb,경상북도 예천군 예천읍 충효로 209-15,36.65124804,128.4464765,
92,대구가톨릭대학교 역사박물관,경북 경산시,053-850-3283,"['경상권', '기차여행', '대구카톨릭대학교역사박물관', '무료관람', '문화시설']",https://cdn.visitkorea.or.kr/img/call?cmd=VIEW&id=672edb89-a05b-4221-b72f-a8a51509d54f&thumb,경상북도 경산시 하양읍 하양로 13-13,35.90896711,128.807422,
93,영주문화원,경북 영주시,054-631-3300,"['문화시설', '복합문화공간', '열린문화공간', '영주문화원']",https://cdn.visitkorea.or.kr/img/call?cmd=VIEW&id=0c81dbfb-9ce6-478d-b958-c2d3dbc2604e&thumb,경상북도 영주시 가흥로 255,36.81970647,128.6134866,
94,천마아트센터,경북 경산시,053-810-1527,"['문화시설', '문화예술', '아이와 함께', '열린문화공간', '천마아트센터', '친구와 함께']",https://cdn.visitkorea.or.kr/img/call?cmd=VIEW&id=6fd14cf5-30b9-4140-a907-b5471b386dd4&thumb,경상북도 경산시 대학로 280,35.83049163,128.7521801,
95,상주시 문화회관,경북 상주시,054-532-1059,"['경상권', '공연장', '기차여행', '나들이', '데이트코스', '문화시설', '상주시문화회관']",https://cdn.visitkorea.or.kr/img/call?cmd=VIEW&id=1398af97-7906-444e-9cb3-823c3a971e09&thumb,경상북도 상주시 상산로 235,36.41190225,128.1591952,
96,대전 3.1의거 기념관,경북 포항시,31 054-270-2941,"['3.1운동', '기념관', '문화시설', '아이와함께', '역사', '역사공부', '희생정신']",https://cdn.visitkorea.or.kr/img/call?cmd=VIEW&id=613723ed-40c0-4b52-bdad-04188a3d4ffb&thumb,경상북도 포항시 북구 송라면 대전길120번길 22-5,36.25372261,129.3555502,
97,의성문화원,경북 의성군,054-834-5048,"['경상권', '문화시설', '문화원', '의성문화원']",https://cdn.visitkorea.or.kr/img/call?cmd=VIEW&id=f91ebdb2-2032-4aec-a645-5fd170512d14&thumb,경상북도 의성군 의성읍 안평의성로 1122-36,36.35850335,128.68100520000002,
98,울진문화원,경북 울진군,054-783-2270,"['경상북도', '문화시설', '문화원', '울진군', '울진문화원', '향토문화']",https://cdn.visitkorea.or.kr/img/call?cmd=VIEW&id=08a2a0f2-c79f-4205-9645-929b33b25f98&thumb,경상북도 울진군 울진읍 현내항길 92-9,36.99074761,129.4084684,
99,경주문화원,경북 경주시,054-743-7182,"['경주문화원', '문화시설', '아이와 함께', '열린문화공간']",https://cdn.visitkorea.or.kr/img/call?cmd=VIEW&id=null&thumb,경상북도 경주시 중앙로 67-12,35.84650716,129.2108538,
100,청송문화원,경북 청송군,054-873-2527,"['교육프로그램', '문화시설', '청송문화원']",https://cdn.visitkorea.or.kr/img/call?cmd=VIEW&id=undefined&thumb,경상북도 청송군 청송읍 금월로 244-30,36.42993846,129.0589372,
101,김천문화원,경북 김천시,054-434-4336,"['김천문화원', '문화시설', '복합문화공간', '열린문화공간']",https://cdn.visitkorea.or.kr/img/call?cmd=VIEW&id=f6076bbe-7adf-4a7b-a749-2fbc342e5d7c&thumb,경상북도 김천시 김천로 200,36.1187435,128.1221108,
102,향암미술관,경북 울진군,054-787-0001,"['가족과함께', '문화공간', '문화시설', '문화예술', '복합문화공간', '열린문화공간']",https://cdn.visitkorea.or.kr/img/call?cmd=VIEW&id=be603a24-f95c-448c-91e6-aced493f3453&thumb,경상북도 울진군 온정면 백암온천로 1388,36.71812863,129.3545998,
103,군위문화원,경북 군위군,054-383-2003,"['경상북도', '군위군', '군위문화원', '군위음악회', '문화시설', '문화원', '문화학교']",https://cdn.visitkorea.or.kr/img/call?cmd=VIEW&id=26356e46-68dc-40ee-8147-879e8b1edfbf&thumb,경상북도 군위군 군위읍 군청로 98-8,36.2320581,128.5708635,
104,대가야국악당,경북 고령군,054-950-6066,"['경상권', '공연장', '기차여행', '대가야국악당', '문화시설', '아이와함께', '예술']",https://cdn.visitkorea.or.kr/img/call?cmd=VIEW&id=2f71def1-001b-44dc-9782-e3d0a7da42e1&thumb,경상북도 고령군 대가야읍 지산길 7-8,35.72658009,128.2635999,
105,문경문학관,경북 문경시,054-552-1852,"['교육프로그램', '문경문학관', '문화시설', '아이와함께']",https://cdn.visitkorea.or.kr/img/call?cmd=VIEW&id=afd3fb0a-4aad-418b-a5ed-74cf2bf4db71&thumb,경상북도 문경시 산북면 김용리 379-3,36.73152155,128.22479170000003,
106,농경유물관,경북 구미시,054-480-4200,"['가족과함께', '농경유물전시관', '농업', '농업기술센터', '문화시설', '아이와함께']",https://cdn.visitkorea.or.kr/img/call?cmd=VIEW&id=97ef1380-4cd7-45fa-b268-2e73d09339c5&thumb,경상북도 구미시 선산읍 성황2길 11,36.23427813,128.2905065,
107,고령문화원,경북 고령군,054-954-2347,"['고령문화원', '문화강좌', '문화시설', '복합문화공간', '열린문화공간']",https://cdn.visitkorea.or.kr/img/call?cmd=VIEW&id=null&thumb,경상북도 고령군 대가야읍 왕릉로 30,35.72357555,128.2630942,
108,울릉문화원,경북 울릉도,054-791-0245,"['문화시설', '복합문화공간', '열린문화공간', '울릉문화원']",https://cdn.visitkorea.or.kr/img/call?cmd=VIEW&id=undefined&thumb,경상북도 울릉군 울릉읍 약수터길 48,37.48346948,130.9020712,
109,새천년기념관,경북 포항시,054-284-5026,"['경북권', '랜드마크', '문화시설', '새천년기념관', '아이와함께']",https://cdn.visitkorea.or.kr/img/call?cmd=VIEW&id=aa8f9615-fffd-47d6-a92a-186837970b89&thumb,경상북도 포항시 남구 호미곶면 대보리,36.05787296,129.5619256,
110,구룡포과메기문화관,경북 포항시,054-270-2861,"['가족과함께', '과메기문화관', '문화시설', '아이와함께']",https://cdn.visitkorea.or.kr/img/call?cmd=VIEW&id=f02a5450-c43e-4da2-b3c3-7e15b6753f2f&thumb,경상북도 포항시 남구 구룡포읍 구룡포길117번길 28-8,35.9927403,129.5617993,
111,문경에코랄라,경북 문경시,054-572-6854,"['가족휴양', '관광지', '드라마세트장', '미세먼지_피하는_실내여행', '박물관']",https://cdn.visitkorea.or.kr/img/call?cmd=VIEW&id=1ea1898d-ca98-40c5-ad63-7b7a7f3c9198&thumb,경상북도 문경시 가은읍 왕능길 114,36.65526813,128.05918540000002,
112,테디베어뮤지엄 경주,경북 경주시,054-742-7400,"['경상권', '데이트코스', '문화시설', '박물관', '사계절', '실내여행지', '아이와함께']",https://cdn.visitkorea.or.kr/img/call?cmd=VIEW&id=fd89871d-4d34-467d-85db-f1932876693b&thumb,경상북도 경주시 보문로 280-34,35.85189357,129.2734577,
113,안동 온뜨레피움,경북 안동시,054-823-8850,"['경상권', '관광지', '미세먼지_피하는_실내여행', '식물원', '실내여행지', '아이와함께']",https://cdn.visitkorea.or.kr/img/call?cmd=VIEW&id=40aca15a-eeaf-4afc-b682-483b0ff42eaf&thumb,경상북도 안동시 관광단지로 346-95,36.5667892,128.7822558,
114,유교랜드,경북 안동시,054-820-8800,"['경상권', '관광지', '미세먼지_피하는_실내여행', '실내관광지', '실내여행지']",https://cdn.visitkorea.or.kr/img/call?cmd=VIEW&id=420b83ec-065f-4f62-9679-0cd4d171da64&thumb,경상북도 안동시 관광단지로 346-30,36.5695097,128.7786154,
115,민물고기생태체험관,경북 울진군,054-783-9413,"['경상권', '교과서속여행', '문화시설', '민물고기생태체험관', '사계절', '실내여행지']",https://cdn.visitkorea.or.kr/img/call?cmd=VIEW&id=c758fc19-19c6-4b37-901f-bfb7d751afb2&thumb,경상북도 울진군 근남면 불영계곡로 3532,36.96655572,129.3809874,
116,김천부항댐 물 문화관,경북 김천시,054-420-2635,"['가족과함께', '경상권', '관광지', '김천부항댐물문화관', '물문화관', '미세먼지_피하는_실내여행']",https://cdn.visitkorea.or.kr/img/call?cmd=VIEW&id=7570291a-e838-474c-900e-a0bdc6e00804&thumb,경상북도 김천시 지례면 부항로 195,35.9787411,128.01742209999998,
117,경상북도독립운동기념관,경북 안동시,054-820-2600,"['3·1운동_100주년_여행지추천', '경상권', '경상북도독립운동기념관', '교과서속여행']",https://cdn.visitkorea.or.kr/img/call?cmd=VIEW&id=fba00d61-66d4-4324-ae79-33db77701a74&thumb,경상북도 안동시 임하면 독립기념관길 2,36.53319519,128.8582222,
118,사일온천,경북 영천시,054-332-4141,"['가족여행', '경상권', '관광지', '사일온천', '실내여행지', '아이와함께', '연인과함께']",https://cdn.visitkorea.or.kr/img/call?cmd=VIEW&id=d0c37e82-6dea-4924-a821-bcbcf0f82044&thumb,경상북도 영천시 사일로 458-64,35.97342155,128.8705563,
119,안동민속박물관,경북 안동시,054-821-0649,"['가족여행', '경상권', '기차여행', '문화시설', '박물관', '실내여행지', '아이와함께']",https://cdn.visitkorea.or.kr/img/call?cmd=VIEW&id=cab09f77-349c-4bb6-8be0-7e3afe46857c&thumb,경상북도 안동시 민속촌길 13,36.5760673,128.7644396,
120,소수박물관,경북 영주시,054-639-7691,"['경상권', '교과서속여행', '문화시설', '박물관', '사계절', '소수박물관', '실내여행지']",https://cdn.visitkorea.or.kr/img/call?cmd=VIEW&id=cd94e2de-d87c-4c59-935a-e33071fd4690&thumb,경상북도 영주시 순흥면 소백로 2780,36.92592352,128.582312,
121,군립 청송야송미술관,경북 청송군,054-870-6536,"['가족여행', '경상권', '군립청송야송미술관', '문화시설', '미술관', '사계절', '실내여행지']",https://cdn.visitkorea.or.kr/img/call?cmd=VIEW&id=1d6b675f-7014-49ff-a3dc-3303b35a8c60&thumb,경상북도 청송군 진보면 경동로 5162,36.50585697,129.1192011,
122,청송민속박물관,경북 청송군,054-874-9321,"['경상권', '교과서속여행', '문화시설', '박물관', '사계절', '실내여행지', '아이와함께']",https://cdn.visitkorea.or.kr/img/call?cmd=VIEW&id=b1bdc932-d453-46e1-9d6f-37c5dde95e5b&thumb,경상북도 청송군 청송읍 주왕산로 222,36.38966103,129.0838038,
123,하회세계탈박물관,경북 안동시,054-853-2288,"['교과서속여행', '문화시설', '박물관', '실내여행지', '아이와함께', '이색체험']",https://cdn.visitkorea.or.kr/img/call?cmd=VIEW&id=1f2d6a64-50d8-4a5b-8d8e-50a4f0dd97d8&thumb,경상북도 안동시 풍천면 전서로 206,36.54896283,128.5274904,
124,구미시문화예술회관,경북 구미시,054-480-4560,"['경상권', '공연장', '구미시문화예술회관', '기차여행', '나들이', '데이트코스']",https://cdn.visitkorea.or.kr/img/call?cmd=VIEW&id=ce58794c-d6f1-4efc-b781-8be2b4a8a2d8&thumb,경상북도 구미시 송정대로 89,36.11837776,128.3489815,
125,전통문화콘텐츠박물관,경북 안동시,054-843-7900,"['가족여행', '겨울방학가볼만한곳', '경상권', '문화시설', '박물관', '사계절', '실내여행지']",https://cdn.visitkorea.or.kr/img/call?cmd=VIEW&id=2f16b756-6b41-4fb8-a2f6-584d6aa0608e&thumb,경상북도 안동시 서동문로 203,36.56623528,128.73398659999998,
126,경주예술의전당,경북 경주시,1588-4925,"['가족여행', '경상권', '경주예술의전당', '공연장', '나들이', '데이트코스', '문화시설']",https://cdn.visitkorea.or.kr/img/call?cmd=VIEW&id=6e48b3ce-20a1-4e2b-a500-850871a394f5&thumb,경상북도 경주시 알천북로 1,35.86235646,129.20599620000002,
127,영남대학교박물관,경북 경산시,053-810-1707,"['경상권', '기차여행', '무료관람', '문화시설', '박물관', '실내여행지', '아이와함께']",https://cdn.visitkorea.or.kr/img/call?cmd=VIEW&id=fb0c34b9-4495-4e3b-aa2f-247528334f07&thumb,경상북도 경산시 대학로 280,35.83049163,128.7521801,
128,대구대학교 중앙박물관,경북 경산시,053-850-5624,"['대구대학교중앙박물관', '무료관람', '문화시설', '박물관', '수도권', '실내여행지']",https://cdn.visitkorea.or.kr/img/call?cmd=VIEW&id=4c6846c1-9b30-4154-8d30-2b4292fad6c0&thumb,경상북도 경산시 진량읍 대구대로 201,35.90453897,128.8428133,
129,영덕어촌민속전시관,경북 영덕군,054-730-6790,"['경상권', '교과서속여행', '문화시설', '사계절', '실내여행지', '아이와함께', '영덕어촌민속전시관']",https://cdn.visitkorea.or.kr/img/call?cmd=VIEW&id=c3b98ff0-1241-4652-9d00-a6d268653ed5&thumb,경상북도 영덕군 강구면 해상공원길 96-8,36.35030523,129.38669240000002,
130,의성문화체육회관,경북 의성군,054-830-6931,"['가족여행', '경상권', '문화시설', '복합문화공간', '사계절', '실내여행지', '실내체육관']",https://cdn.visitkorea.or.kr/img/call?cmd=VIEW&id=9c255aca-31e3-440d-8e15-c7dd982b55bd&thumb,경상북도 의성군 의성읍 충효로 88,36.35527766,128.7024955,
131,성주문화예술회관,경북 성주군,054-933-6912,"['가족여행', '경상권', '기차여행', '나들이', '문화시설', '사계절', '성주문화예술회관']",https://cdn.visitkorea.or.kr/img/call?cmd=VIEW&id=209d3f8e-bd19-450d-88e3-d8b7cc798ffc&thumb,경상북도 성주군 성주읍 성산9길 45,35.91837543,128.3012964,
132,국립안동대학교박물관,경북 안동시,054-820-7421,"['경상권', '국립안동대학교박물관', '무료관람', '문화시설', '박물관', '실내여행지']",https://cdn.visitkorea.or.kr/img/call?cmd=VIEW&id=46686d05-006d-40fa-bab2-0973dfcd157b&thumb,경상북도 안동시 경동로 1375,36.5414385,128.797564,
133,동국대학교 경주캠퍼스박물관,경북 경주시,054-770-2462,"['경상권', '동국대학교경주캠퍼스', '동국대학교박물관', '무료관람', '문화시설']",https://cdn.visitkorea.or.kr/img/call?cmd=VIEW&id=ff41935d-8b92-4cff-bd5b-ed1a55b863da&thumb,경상북도 경주시 동대로 123,35.86479385,129.19103090000002,
134,대구가톨릭대학교 역사박물관,경북 경산시,053-850-3283,"['경상권', '기차여행', '대구카톨릭대학교역사박물관', '무료관람', '문화시설']",https://cdn.visitkorea.or.kr/img/call?cmd=VIEW&id=672edb89-a05b-4221-b72f-a8a51509d54f&thumb,경상북도 경산시 하양읍 하양로 13-13,35.90896711,128.807422,
135,상주시 문화회관,경북 상주시,054-532-1059,"['경상권', '공연장', '기차여행', '나들이', '데이트코스', '문화시설', '상주시문화회관']",https://cdn.visitkorea.or.kr/img/call?cmd=VIEW&id=1398af97-7906-444e-9cb3-823c3a971e09&thumb,경상북도 상주시 상산로 235,36.41190225,128.1591952,
136,호미반도 해안둘레길,경북 포항시,054-270-3203,"['가족과함께', '경치좋은곳', '남녀노소', '레포츠', '바다경치', '바다내음', '바다산책']",https://cdn.visitkorea.or.kr/img/call?cmd=VIEW&id=c9882fe3-01c3-4a96-8d7e-b07bd41afc52&thumb,경상북도 포항시 남구 동해면,35.98848071,129.4401758,0.0
137,금오산 올레길,경북 구미시,,"['가족과함께', '국내힐링여행', '금오산', '레포츠', '산책로', '산책코스', '산책하기좋은곳']",https://cdn.visitkorea.or.kr/img/call?cmd=VIEW&id=3dc7ec96-36d5-446f-a5ff-920caae89030&thumb,경상북도 구미시 금오산로 336-44,36.11719077,128.3148565,1.0
138,문경 철로자전거(레일바이크),경북 문경시,054-553-8300,"['가족과함께', '경치좋은곳', '남녀노소', '레일바이크', '레포츠', '문경여행', '문경여행코스']",https://cdn.visitkorea.or.kr/img/call?cmd=VIEW&id=2ff0b88a-194b-417c-aa55-eecc8c3a6a68&thumb,경상북도 문경시 불정강변길 187,36.6553867,128.141024,2.0
139,구미시평생교육원,경북 구미시,054-480-4300,"['교육프로그램', '구미교육원', '레포츠']",https://cdn.visitkorea.or.kr/img/call?cmd=VIEW&id=de381de0-10fc-4296-ad67-8006e48a894b&thumb,경상북도 구미시 산호대로 243,36.10555959,128.3839007,3.0
140,문경활공랜드,경북 문경시,054-571-4675,"['가족과함께', '경상권', '레포츠', '문경새재', '문경활공랜드', '석탄박물관', '성주봉']",https://cdn.visitkorea.or.kr/img/call?cmd=VIEW&id=43305fba-4293-4582-b2cc-9010a4546843&thumb,경상북도 문경시 문경읍 활공장길 80,36.73629896,128.1538507,4.0
141,경주월드 눈썰매장,경북 경주시,054-745-7711,"['겨울스포츠', '경주월드 눈썰매장', '눈썰매장', '레포츠', '복합레저스포츠', '아이와함께']",https://cdn.visitkorea.or.kr/img/call?cmd=VIEW&id=8bdad3ce-f476-437d-a76e-8db750399c50&thumb,경상북도 경주시 보문로 544,35.83610009,129.279149,5.0
142,트리독스 반려견 전용 캠핑장,경북 고령군,010-8835-4416,"['가족과함께', '레포츠', '반려견동반', '반려견동반여행지', '산책하기좋은곳']",https://cdn.visitkorea.or.kr/img/call?cmd=VIEW&id=06106d03-8a2c-4d08-a6db-de290a60bfc9&thumb,경상북도 고령군 쌍림면 용당길 42-56,35.65048205,128.2300756,6.0
143,청량산 트레킹,경북 봉화군,054-679-6653,"['레포츠', '산책길', '자연풍경', '트레킹', '휴식여행']",https://cdn.visitkorea.or.kr/img/call?cmd=VIEW&id=a5fd3007-7f8e-47dc-ae34-1953ff20b123&thumb,경상북도 봉화군 명호면 광석길 39,36.78808222,128.89387820000002,7.0
144,상주국제승마장,경북 상주시,054-535-5634,"['가족과함께', '가족여행', '경상권', '레포츠', '상주국제승마장', '승마', '승마레슨']",https://cdn.visitkorea.or.kr/img/call?cmd=VIEW&id=4800f53c-1024-4d89-b8cf-fc951abdec8b&thumb,경상북도 상주시 사벌국면 경천로 683-47,36.45928606,128.23055290000002,8.0
145,화랑교육원,경북 경주시,054-748-1112,"['가족과함께', '남녀노소', '레포츠', '문화교육', '수련시설', '수련원', '수련장']",https://cdn.visitkorea.or.kr/img/call?cmd=VIEW&id=59d986d2-1007-43cf-ac1f-e529e0143797&thumb,경상북도 경주시 새남산길 62,35.80660131,129.2412438,9.0
146,늘푸른체험학교 캠핑장,경북 영천시,054-337-1789,"['가족여행', '농촌체험', '레포츠', '캠핑', '폐교']",https://cdn.visitkorea.or.kr/img/call?cmd=VIEW&id=d4950790-c1d6-48e0-87ad-17db7240be77&thumb,경상북도 영천시 대창면 영지길 100,35.85821183,128.9197937,10.0
147,양포방파제,경북 포항시,054-270-8282,"['낚시터', '레포츠', '포항낚시', '포항바다']",https://cdn.visitkorea.or.kr/img/call?cmd=VIEW&id=b6f361bc-1bf6-4a51-b25c-234a7bc1b9fb&thumb,경상북도 포항시 남구 장기면 양포항길,35.88191688,129.5203153,11.0
148,예천 진호국제양궁장,경북 예천군,054-650-6411,"['경상권', '남녀노소', '레포츠', '아이와함께', '양궁대회', '양궁장', '예천가볼만한곳']",https://cdn.visitkorea.or.kr/img/call?cmd=VIEW&id=1d746235-82df-4fe3-bfd0-8a3548797781&thumb,경상북도 예천군 예천읍 양궁장길 38,36.63462912,128.4683906,12.0
149,소백산 자락길,경북 영주시,054-633-5636,"['걷기길', '경상권', '레포츠', '산책로', '산책코스', '산책하기좋은곳', '소백산자락길']",https://cdn.visitkorea.or.kr/img/call?cmd=VIEW&id=bce27736-60eb-4b9a-9762-82783ba6f195&thumb,경상북도 영주시 선비로 213,36.82317916,128.6169196,13.0
150,후포방파제,경북 울진군,054-789-6862,"['경상권', '낚시', '레포츠', '방파제', '후포방파제']",https://cdn.visitkorea.or.kr/img/call?cmd=VIEW&id=05ca68a8-3268-495d-899d-d74c5685b784&thumb,경상북도 울진군 후포면 울진대게로,36.69657317,129.47237520000002,14.0
151,짚라인 문경,경북 문경시,1588-5219,"['가을경치', '경치좋은곳', '남녀노소', '레저스포츠', '레포츠', '문경가볼만한곳']",https://cdn.visitkorea.or.kr/img/call?cmd=VIEW&id=2bb5c06d-1eb7-4af5-a964-0033c78848fc&thumb,경상북도 문경시 불정길 174,36.62285691,128.1367808,15.0
152,[영덕 블루로드] B코스 푸른대게의 길,경북 영덕군,054-730-6514,['레포츠'],https://cdn.visitkorea.or.kr/img/call?cmd=VIEW&id=40bb5f0f-76c8-417a-bc4b-5b0539a709b2&thumb,경상북도 영덕군 영덕읍,36.40948188,129.3728193,16.0
153,안동 퇴계 오솔길 (녀던길),경북 안동시,054-840-6591,"['가족과함께', '걷기길', '경상권', '레포츠', '아이와함께', '자연', '퇴계오솔길']",https://cdn.visitkorea.or.kr/img/call?cmd=VIEW&id=0cc3b5b4-576c-40a3-9540-9be4aa5b234e&thumb,경상북도 안동시 도산면 도산서원길 154,36.72789366,128.8403536,17.0
154,포항동해승마장,경북 포항시,054-284-4105,"['가족과함께', '레포츠', '승마', '승마레슨', '승마장', '승마체험', '승마캠프', '승마트레킹']",https://cdn.visitkorea.or.kr/img/call?cmd=VIEW&id=cbd82e80-5e79-4cbf-85d8-8ee1f328b936&thumb,경상북도 포항시 남구 동해면 약전로115번길 11,35.9798771,129.44836429999998,18.0
155,치산관광지 캠핑장,경북 영천시,054-330-2765,"['가족여행', '경상권', '레포츠', '치산계곡', '캠핑장']",https://cdn.visitkorea.or.kr/img/call?cmd=VIEW&id=ea44d77f-5c52-4ac6-88d6-89dc21e1b7aa&thumb,경상북도 영천시 신녕면 치산관광길 263,36.04914303,128.7128084,19.0
156,덕구계곡 트레킹,경북 울진군,054-789-6903,"['걷기여행', '걷기여행길', '남녀노소', '레포츠', '산책길', '산책코스', '산책하기']",https://cdn.visitkorea.or.kr/img/call?cmd=VIEW&id=ce635813-75c4-4619-aa99-178f36194fb3&thumb,경상북도 울진군 북면 덕구온천로 905,37.07851478,129.2817235,20.0
157,경주 산내 반딧불이캠핑장,경북 경주시,010-9450-8783,"['가족여행', '경주', '레포츠', '캠핑장', '힐링']",https://cdn.visitkorea.or.kr/img/call?cmd=VIEW&id=ba92a370-1147-4f07-9ab4-2faeff272445&thumb,경상북도 경주시 산내면 대현길 250-13,35.71272409,129.0738914,21.0
158,봉평해수욕장 (바다낚시),경북 울진군,054-789-6862,"['경북권', '레포츠', '바다낚시', '울진낚시', '울진바다', '울진바다낚시']",https://cdn.visitkorea.or.kr/img/call?cmd=VIEW&id=cfdb2c07-a3d5-4884-843d-4b8b931c4dc8&thumb,경상북도 울진군 죽변면 울진북로 1166,37.0429179,129.413005,22.0
159,문경호스랜드 승마클럽,경북 문경시,054-552-9991,"['가족여행', '경상권', '레포츠', '문경호스랜드승마클럽', '승마체험']",https://cdn.visitkorea.or.kr/img/call?cmd=VIEW&id=98affba1-5b78-4b95-a5d6-bedfda77df62&thumb,경상북도 문경시 마성면 진남2길 32-10,36.6535102,128.13302990000003,23.0
160,감포방파제,경북 경주시,054-772-3843,"['감포방파제', '감포항', '경상권', '낚시', '레포츠']",https://cdn.visitkorea.or.kr/img/call?cmd=VIEW&id=46723648-7658-4b37-a413-b8878179d100&thumb,경상북도 경주시 감포읍 감포항구길,35.80844329999999,129.5044179,24.0
161,경천대랜드 눈썰매장,경북 상주시,054-536-3686,"['겨울스포츠', '경천대랜드 눈썰매장', '눈썰매장', '레포츠', '복합레저스포츠']",https://cdn.visitkorea.or.kr/img/call?cmd=VIEW&id=a51ae2c2-7ae1-4247-8fa6-fe8b3d9f86a1&thumb,경상북도 상주시 사벌면 경천로 652-18,36.4554179,128.2437392,25.0
162,[영덕 블루로드] C코스 목은사색의 길,경북 영덕군,054-730-6514,['레포츠'],https://cdn.visitkorea.or.kr/img/call?cmd=VIEW&id=7bf2b739-0851-4cee-914b-c79d773b30c2&thumb,경상북도 영덕군 축산면,36.50894572,129.41425790000002,26.0
163,[영덕 블루로드] A코스 빛과 바람의 길,경북 영덕군,054-730-6514,"['경상권', '레포츠', '블루로드', '트레킹']",https://cdn.visitkorea.or.kr/img/call?cmd=VIEW&id=3ab18093-9c4d-4146-aa10-03d7f950603b&thumb,경상북도 영덕군 강구면,36.36181514,129.3785933,27.0
164,안동호,경북 안동시,054-856-3013,"['가족여행', '경상권', '레포츠', '안동호']",https://cdn.visitkorea.or.kr/img/call?cmd=VIEW&id=585b030f-7aa0-4a46-b6df-63cc3840e85d&thumb,경상북도 안동시 호반로,36.60163537,128.8074344,28.0
165,문경관광사격장,경북 문경시,054-553-0001,['레포츠'],https://cdn.visitkorea.or.kr/img/call?cmd=VIEW&id=38a4926b-f7a2-4bac-a50f-bedbfc724bd6&thumb,경상북도 문경시 사격장길 155,36.64298155,128.1299961,29.0
166,봉화군승마교육장,경북 봉화군,054-673-0377,"['교육장', '레포츠', '승마', '승마레슨', '승마장', '승마체험', '아이와함께']",https://cdn.visitkorea.or.kr/img/call?cmd=VIEW&id=03a026a5-d9e5-4fde-b3ff-7d3efd16a98f&thumb,경상북도 봉화군 봉화읍 유록길 22-1,36.88212703,128.7254673,30.0
167,안동물길카누투어,경북 안동시,010-6237-7734,"['레포츠', '안동여행', '초보자', '카누', '투어']",https://cdn.visitkorea.or.kr/img/call?cmd=VIEW&id=a648a19a-836e-420a-a9a1-9565766b3fc2&thumb,경상북도 안동시 포도1길 30,36.57049654,128.7070389,31.0
168,보현산댐 짚와이어,경북 영천시,054-339-8700,"['레포츠', '영천시']",https://cdn.visitkorea.or.kr/img/call?cmd=VIEW&id=08aeaf67-ca56-4850-b37c-18c72241f710&thumb,경상북도 영천시 화북면 배나무정길 196,36.14392724,128.96450190000002,32.0
169,김천부항댐 산내들오토캠핑장,경북 김천시,054-431-2011,"['김천여행', '레포츠', '오토캠핑장', '캠핑']",https://cdn.visitkorea.or.kr/img/call?cmd=VIEW&id=9aaff961-e06d-45ca-846b-4b84fcb1d086&thumb,경상북도 김천시 지례면 부항댐길 50,35.97796629999999,128.0118639,33.0
170,경주보문실탄사격장,경북 경주시,054-741-4007,"['레포츠', '사격', '사격장', '실내데이트', '실내레포츠', '실내운동', '연인과함께']",https://cdn.visitkorea.or.kr/img/call?cmd=VIEW&id=b032b357-a758-4439-9b08-5f90357357f3&thumb,경상북도 경주시 보문로 424-11,35.84397779,129.2863608,34.0
171,구미시승마장,경북 구미시,054-482-3014,"['가족과함께', '레포츠', '승마', '승마레슨', '승마장', '승마체험', '승마캠프', '승마트레킹']",https://cdn.visitkorea.or.kr/img/call?cmd=VIEW&id=8bb795d4-f7a3-4910-9503-4d45a0cf3d32&thumb,경상북도 구미시 옥성면 선상동로 1174-7,36.32647816,128.2772804,35.0
172,금오랜드 눈썰매장,경북 구미시,054-451-8500,"['겨울스포츠', '금오랜드', '레포츠', '썰매장', '아이와함께']",https://cdn.visitkorea.or.kr/img/call?cmd=VIEW&id=be70a25e-0033-465b-9631-c490bcfccab3&thumb,경상북도 구미시 금오산로 341,36.11321694,128.3162484,36.0
173,금오랜드 실내아이스링크장,경북 구미시,054-451-8505,"['금오랜드', '레포츠', '스케이트장']",https://cdn.visitkorea.or.kr/img/call?cmd=VIEW&id=fb60e2a7-1498-463a-b0ff-411c7b9b2b55&thumb,경상북도 구미시 금오산로 341,36.11321694,128.3162484,37.0
174,의성컬링센터,경북 의성군,054-830-6543,['레포츠'],https://cdn.visitkorea.or.kr/img/call?cmd=VIEW&id=f15147af-1c99-4836-bb27-1fb3f601e84b&thumb,경상북도 의성군 의성읍 충효로 88,36.35527766,128.7024955,38.0
175,신창리 앞바다,경북 포항시,054-270-6661,"['경북권', '레포츠', '바다낚시', '포항바다', '포항바다낚시']",https://cdn.visitkorea.or.kr/img/call?cmd=VIEW&id=dd46ef8e-64e3-429c-8fdf-f92a44d9748a&thumb,경상북도 포항시 남구 장기면 동해안로,35.88279632,129.5168802,39.0
176,경상북도 환경연수원,경북 구미시,054-452-4509,['레포츠'],https://cdn.visitkorea.or.kr/img/call?cmd=VIEW&id=7cff1f79-3630-4b3f-b24e-6a066b879521&thumb,경상북도 구미시 금오산로 336-97,36.11968163,128.3083704,40.0
177,산내들패밀리어드벤처파크 야영장,경북 김천시,054-436-9555,"['가족여행', '놀이공원&테마파크', '레포츠', '산내들패밀리어드벤처파크', '야영장']",https://cdn.visitkorea.or.kr/img/call?cmd=VIEW&id=1b829649-4696-4a4d-9782-15022b812da9&thumb,경상북도 김천시 지례면 부항로 109-38,35.97707147,128.0157507,41.0
178,주왕계곡코스,경북 청송군,054-870-5300,"['걷기여행길', '레포츠', '청송주왕산', '트레킹']",https://cdn.visitkorea.or.kr/img/call?cmd=VIEW&id=faef33c6-64da-458e-b38b-b05b4a0ea8a2&thumb,경상북도 청송군 주왕산면 공원길 219,36.39594315,129.14543390000003,42.0
179,경주보문 청소년수련원,경북 경주시,054-749-5000,['레포츠'],https://cdn.visitkorea.or.kr/img/call?cmd=VIEW&id=2dd8e1ed-c8ea-41ca-9397-9a719b82cd39&thumb,경상북도 경주시 천북남로 176,35.85343631,129.2949884,43.0
180,포항시청소년수련원(구룡포청소년수련원),경북 포항시,054-280-9468,"['경상권', '레포츠', '복합문화시설', '청소년수련원']",https://cdn.visitkorea.or.kr/img/call?cmd=VIEW&id=46bcde4e-2b90-44af-8927-748ff6b54087&thumb,경상북도 포항시 남구 구룡포읍 명월길 51,36.02929442,129.5734945,44.0
181,구룡포방파제,경북 포항시,054-270-6561,"['경북권', '레포츠', '바다낚시', '포항낚시터', '포항바다낚시']",https://cdn.visitkorea.or.kr/img/call?cmd=VIEW&id=c5b3adc9-8b65-4e18-9b48-ca939af0fcc7&thumb,경상북도 포항시 남구 구룡포읍 구룡포리,35.99957404,129.55112309999998,45.0
182,경주 자전거 투어 코스,경북 경주시,054-779-8585,"['레포츠', '스포츠', '자전거길', '자전거여행', '자전거코스', '자전거투어', '힐링&여행']",https://cdn.visitkorea.or.kr/img/call?cmd=VIEW&id=f543fbb6-550d-44d9-930e-cfdfcdeabf92&thumb,경상북도 경주시 국당3길 5,35.82834378,129.2074879,46.0
183,상의자동차야영장,경북 청송군,054-870-5341,"['가족여행', '레포츠', '야영장', '캠핑장', '힐링']",https://cdn.visitkorea.or.kr/img/call?cmd=VIEW&id=94e495a3-9701-4313-a791-c83e8a2e2cf9&thumb,경상북도 청송군 주왕산면 공원길 146,36.39083115,129.1417146,47.0
184,경천호,경북 문경시,054-552-2517,"['경상권', '경천호', '낚시터', '레포츠', '자연풍경', '저수지']",https://cdn.visitkorea.or.kr/img/call?cmd=VIEW&id=e5c8abc3-dc56-4309-83be-f4d75ac8ee0f&thumb,경상북도 문경시 동로면 인곡리,36.70243378,128.3135378,48.0
185,코오롱호텔수영장(실외),경북 경주시,054-746-9001,"['레포츠', '수영장', '실외', '연인과', '호텔']",https://cdn.visitkorea.or.kr/img/call?cmd=VIEW&id=5e833506-5084-4a9d-b18b-61999023e062&thumb,경상북도 경주시 불국로 289-17,35.78783631,129.3217692,49.0
186,하곡지(딱실못),경북 경주시,054-779-8032,"['경상권', '딱실못', '레포츠', '민물낚시', '자연', '자연좋은곳', '하곡지', '호수']",https://cdn.visitkorea.or.kr/img/call?cmd=VIEW&id=05be7bfc-55c9-4af0-a8ea-c366ca1c97e3&thumb,경상북도 경주시 안강읍 호국로,35.99816774,129.19082279999998,50.0
187,추풍령 말사랑 호스타운,경북 김천시,054-437-6855,"['경상권', '레포츠', '승마', '승마레슨', '승마체험', '승마캠프', '승마트레킹', '연중무휴']",https://cdn.visitkorea.or.kr/img/call?cmd=VIEW&id=4f78f345-102e-4ba8-a336-24eab301fff8&thumb,경상북도 김천시 봉산면 상금길 970-51,36.19182197,128.0475092,51.0
188,의성군 청소년센터,경북 의성군,054-830-6950,['레포츠'],https://cdn.visitkorea.or.kr/img/call?cmd=VIEW&id=undefined&thumb,경상북도 의성군 의성읍 충효로 68,36.35481281,128.7048011,52.0
189,유니밸리CC,경북 고령군,054-956-7575,"['고령가볼만한곳', '골프리조트', '골프장', '골프클럽', '레저스포츠', '레포츠']",https://cdn.visitkorea.or.kr/img/call?cmd=VIEW&id=undefined&thumb,경상북도 고령군 대가야읍 일량로 588,35.68153489,128.29389840000002,53.0
190,아지청소년야영장,경북 영주시,054-637-2128,['레포츠'],https://cdn.visitkorea.or.kr/img/call?cmd=VIEW&id=f5c11f8f-fb16-4915-aa0b-bc6bcb903a59&thumb,경상북도 영주시 회헌로 433-1,36.86324275,128.6013989,54.0
191,구미시 낙동강 수상레포츠 체험센터,경북 구미시,054-457-2004,['레포츠'],https://cdn.visitkorea.or.kr/img/call?cmd=VIEW&id=e332c24f-7b4c-44d3-b49e-c7da20568f8b&thumb,경상북도 구미시 수출대로 326-20,36.10996821,128.3992298,55.0
192,오태지,경북 상주시,054-537-8916,"['낚시', '레포츠', '인공저수지', '잉어', '자연환경']",https://cdn.visitkorea.or.kr/img/call?cmd=VIEW&id=75392f31-3057-43fc-a309-587783f81480&thumb,경상북도 상주시 공검면 오태지동길,36.48872391,128.1329905,56.0
193,대진해수욕장(918번 해안도로),경북 영덕군,054-730-6651,"['경상권', '대신해수욕장', '레포츠', '해안도로']",https://cdn.visitkorea.or.kr/img/call?cmd=VIEW&id=9f0b46a1-f406-441b-9d63-5441feb19117&thumb,경상북도 영덕군 영해면 영덕대게로 2840,36.56449216,129.4267296,57.0
194,보문골프클럽,경북 경주시,054-745-1680,['레포츠'],https://cdn.visitkorea.or.kr/img/call?cmd=VIEW&id=5f9787f3-7c70-4dcd-a6cb-0f9982759446&thumb,경상북도 경주시 보문로 182-14,35.85386898,129.2768541,58.0
195,호텔현대(경주) 실.내외 수영장,경북 경주시,054-779-7400,['레포츠'],https://cdn.visitkorea.or.kr/img/call?cmd=VIEW&id=91fd2452-56d4-4485-9896-6a7a55f35c5e&thumb,경상북도 경주시 보문로 338,35.85032021,129.2771896,59.0
196,"용연지(신광지, 호리못)",경북 포항시,054-240-7590,"['경북권', '레포츠', '민물낚시', '신광지', '용연지', '포항낚시터', '포항저수지']",https://cdn.visitkorea.or.kr/img/call?cmd=VIEW&id=def9a3e0-5fc8-4ad2-acdc-b7836d63ae15&thumb,경상북도 포항시 북구 신광면 신흥로 417,36.1241514,129.2952524,60.0
197,경주시청소년수련관,경북 경주시,054-779-6171,"['경상권', '경주시청소년수련관', '레포츠', '청소년수련관']",https://cdn.visitkorea.or.kr/img/call?cmd=VIEW&id=6764a8ec-93fe-40ee-b772-ada2df11c9bb&thumb,경상북도 경주시 알천북로 131,35.85511329,129.2158847,61.0
198,하눌저수지,경북 봉화군,054-674-0588,"['경북권', '레포츠', '민물낚시', '봉화낚시터']",https://cdn.visitkorea.or.kr/img/call?cmd=VIEW&id=73420bf6-59a0-46ac-ad11-3c8dd0ad7fd2&thumb,경상북도 봉화군 상운면 하눌로 372,36.8841968,128.7883498,62.0
199,금오랜드수영장(실외),경북 구미시,054-451-8500,"['금오랜드', '레포츠', '야외수영장', '여름피서지']",https://cdn.visitkorea.or.kr/img/call?cmd=VIEW&id=2e89b6a9-be70-4c4b-8c02-6d0e71efb5e3&thumb,경상북도 구미시 금오산로 341,36.11321694,128.3162484,63.0
200,영덕군 경정2리 차유돔 바위,경북 영덕군,054-730-7635,"['경북권', '레포츠', '바다낚시', '영덕군', '영덕바다', '영덕바다낚시']",https://cdn.visitkorea.or.kr/img/call?cmd=VIEW&id=b3e748d7-24d3-45b0-a5cc-30aa30203e38&thumb,경상북도 영덕군 축산면 경정리,36.48519106,129.4331873,64.0
201,포항앞바다,경북 포항시,054-270-2843,"['레포츠', '바다낚시', '포항낚시', '포항낚시터', '포항바다', '포항바다낚시']",https://cdn.visitkorea.or.kr/img/call?cmd=VIEW&id=a7f204d1-e30d-4050-9759-50a3b4b0d30e&thumb,경상북도 포항시 북구 해안로 44-8,36.05111210000001,129.3800012,65.0
202,[상주 MRF 5코스] 가야길,경북 상주시,,"['MRF코스', '가야길', '걷기길', '경상권', '경치좋은곳', '레포츠', '자연', '자연좋은곳']",https://cdn.visitkorea.or.kr/img/call?cmd=VIEW&id=ed9d4a85-5fbe-40bd-8213-32c39557437e&thumb,경북 상주시 합창읍,36.5701469,128.1794639,66.0
203,블루오션 스킨스쿠버,경북 포항시,054-251-8856,"['레포츠', '스킨스쿠버', '이색체험', '포항', '포항여행지']",https://cdn.visitkorea.or.kr/img/call?cmd=VIEW&id=undefined&thumb,경상북도 포항시 북구 흥해읍 영일만항로 76,36.11254242,129.4269352,67.0
204,코오롱가든골프장,경북 경주시,054-746-7900,"['경상권', '경주', '골프장', '레포츠', '코오롱가든골프장', '풍경좋은곳']",https://cdn.visitkorea.or.kr/img/call?cmd=VIEW&id=c37aba9d-6452-41f3-a6de-63b9bfdaae90&thumb,경상북도 경주시 불국로 289-17,35.78783631,129.3217692,68.0
205,[상주 MRF 4코스] 숨소리길,경북 상주시,,['레포츠'],https://cdn.visitkorea.or.kr/img/call?cmd=VIEW&id=da666715-b085-47dc-9d33-434fb3041234&thumb,경북 상주시 낙동면,36.37495321,128.248162,69.0
206,나리분지 숲길,경북 울릉도,054-790-6311,['레포츠'],https://cdn.visitkorea.or.kr/img/call?cmd=VIEW&id=269a1cd6-a67f-4e1c-897b-8c448b941afa&thumb,경상북도 울릉군 북면 나리,37.51539629,130.8644793,70.0
207,하회래프팅,경북 안동시,054-842-1119,"['경상권', '래프팅', '레포츠', '하회래프팅']",https://cdn.visitkorea.or.kr/img/call?cmd=VIEW&id=524d2bed-3cf9-4225-ba98-f435d38be2fe&thumb,경상북도 안동시 풍천면 전서로 159,36.55184676,128.5306795,71.0
208,선산골프장,경북 구미시,054-473-6200,['레포츠'],https://cdn.visitkorea.or.kr/img/call?cmd=VIEW&id=056b52b8-dbb3-41f2-9a1f-df59863bcd7a&thumb,경상북도 구미시 산동면 강동로 953-73,36.15842438,128.44549650000002,72.0
209,축산방파제,경북 영덕군,054-730-7642,"['경북권', '레포츠', '바다낚시', '영덕낚시터', '영덕바다낚시']",https://cdn.visitkorea.or.kr/img/call?cmd=VIEW&id=0a23e44d-1ca4-4ea8-a060-19fcc116ba3a&thumb,경상북도 영덕군 축산면 축산항길,36.51178763,129.44852279999998,73.0
210,울릉아쿠아캠프리조트,경북 울릉도,054-791-7770,['레포츠'],https://cdn.visitkorea.or.kr/img/call?cmd=VIEW&id=3c3d5893-d74a-4656-87da-2553362100f3&thumb,경상북도 울릉군 울릉읍 울릉순환로 31-3,37.5053321,130.9138404,74.0
211,구미시청소년수련원,경북 구미시,054-474-0912,['레포츠'],https://cdn.visitkorea.or.kr/img/call?cmd=VIEW&id=0936888b-94b3-4eaa-96d9-27d7dbd440ce&thumb,경상북도 구미시 해평면 해평4길 12,36.19757202,128.3702823,75.0
212,[상주 MRF 2코스] 초원길,경북 상주시,,['레포츠'],https://cdn.visitkorea.or.kr/img/call?cmd=VIEW&id=7fb7ea7f-976b-40c8-8559-bd3b913f0692&thumb,경북 상주시 사벌면,36.46635081,128.2085797,76.0
213,가송래프팅,경북 안동시,054-852-2719,"['래프팅', '레포츠', '수상레포츠', '안동래프팅']",https://cdn.visitkorea.or.kr/img/call?cmd=VIEW&id=ece1aa51-47bf-4ab4-a5c8-1fcf105d1772&thumb,경상북도 안동시 도산면 퇴계로 3443,36.77074844,128.889534,77.0
214,[상주 MRF 1코스] 낙동강길,경북 상주시,,['레포츠'],https://cdn.visitkorea.or.kr/img/call?cmd=VIEW&id=5a3c74b4-88f6-48d3-a8a2-5d04ba009aaf&thumb,경북 상주시 사벌면,36.46635081,128.2085797,78.0
215,울릉둘레길 남양~태하 구간,경북 울릉도,054-790-6394,['레포츠'],https://cdn.visitkorea.or.kr/img/call?cmd=VIEW&id=5c5c228d-9231-4b0d-986e-b76faaaa0af5&thumb,경상북도 울릉군 서면 태하리,37.51017546,130.8149655,79.0
216,[상주 MRF 3코스] 아자개성길,경북 상주시,,['레포츠'],https://cdn.visitkorea.or.kr/img/call?cmd=VIEW&id=6567eed9-2006-4832-b4fc-053810e1172d&thumb,경북 상주시 사벌면,36.46635081,128.2085797,80.0
217,동이사람들(안동래프팅),경북 안동시,054-855-7179,"['래프팅', '레포츠', '수상레포츠', '안동래프팅', '안동여행지']",https://cdn.visitkorea.or.kr/img/call?cmd=VIEW&id=4fae72b9-b55c-48ef-89b4-cb0d35877356&thumb,경상북도 안동시 도산면 퇴계로 3443,36.77074844,128.889534,81.0
218,도산래프팅,경북 안동시,054-856-7793,"['도산래프팅', '래프팅', '레포츠', '이색체험']",https://cdn.visitkorea.or.kr/img/call?cmd=VIEW&id=a543b81e-5d52-4e19-9368-f95a966f2284&thumb,경상북도 안동시 도산면 가송길 133,36.76579054,128.8913141,82.0
219,낙동강래프팅,경북 봉화군,054-672-9991,['레포츠'],https://cdn.visitkorea.or.kr/img/call?cmd=VIEW&id=36837c15-b4c6-4c6d-882c-87f32efb730e&thumb,경상북도 봉화군 명호면 청량로 1136-18,36.85709984,128.9031531,83.0
220,경주신라컨트리클럽,경북 경주시,054-740-7114,['레포츠'],https://cdn.visitkorea.or.kr/img/call?cmd=VIEW&id=938d06df-9690-4e25-a54e-513658ecf9f6&thumb,경상북도 경주시 보문로 319,35.85870743,129.2816339,84.0
221,마우나오션 컨트리클럽,경북 경주시,054-740-0678,"['경상권', '골프장', '레포츠', '마우나오션컨트리클럽']",https://cdn.visitkorea.or.kr/img/call?cmd=VIEW&id=e24f8d59-bd65-4136-8d04-7d5e023c8acc&thumb,경상북도 경주시 양남면 동남로 982,35.69092875,129.3754642,85.0
222,[상주 MRF 10코스] 똥고개길,경북 상주시,,['레포츠'],https://cdn.visitkorea.or.kr/img/call?cmd=VIEW&id=f9609987-da6f-44e7-ad20-510782836943&thumb,경상북도 상주시 만산동,36.43444298,128.1499843,86.0
223,비나리래프팅,경북 봉화군,054-672-1983,['레포츠'],https://cdn.visitkorea.or.kr/img/call?cmd=VIEW&id=c2b7bb41-9b29-4ece-9a06-503f950fb271&thumb,경상북도 봉화군 명호면 노루목재길 34,36.85698721,128.898885,87.0
224,강나루래프팅,경북 봉화군,054-674-0567,['레포츠'],https://cdn.visitkorea.or.kr/img/call?cmd=VIEW&id=8c8e18d1-20d8-4e6f-a378-8d9dd8562bd3&thumb,경상북도 봉화군 명호면 명재로 16,36.84442359,128.8899394,88.0
225,문경레저타운,경북 문경시,054-550-5000,"['골프', '골프리조트', '골프장', '골프클럽', '레저스포츠', '레포츠', '복합레저스포츠']",https://cdn.visitkorea.or.kr/img/call?cmd=VIEW&id=undefined&thumb,경상북도 문경시 마성면 문경골프장길 240,36.71546284,128.16187309999998,89.0
226,[상주 MRF 12코스] 자산산성길,경북 상주시,,['레포츠'],https://cdn.visitkorea.or.kr/img/call?cmd=VIEW&id=b7347c3e-9438-467a-83d1-50d0929a0a4b&thumb,경상북도 상주시 만산동,36.43444298,128.1499843,90.0
227,추산 자연경관 탐방 둘레길,경북 울릉도,054-790-6454,"['가족과함께', '경치좋은곳', '남녀노소', '레포츠', '바다경치', '산책길', '산책하기']",https://cdn.visitkorea.or.kr/img/call?cmd=VIEW&id=0951a2d9-7a53-447e-b76a-180fce005b5a&thumb,경상북도 울릉군 북면 나리길 598,37.52084184,130.8683342,91.0
228,경주컨트리클럽,경북 경주시,054-778-8900,['레포츠'],https://cdn.visitkorea.or.kr/img/call?cmd=VIEW&id=de74a505-b5f1-4aeb-b9f7-4e5380d2ad8f&thumb,경상북도 경주시 보문로 182-98,35.86912554,129.2557886,92.0
229,[상주 MRF 6코스] 이전길,경북 상주시,,['레포츠'],https://cdn.visitkorea.or.kr/img/call?cmd=VIEW&id=a8a1ab1c-677b-4475-8e4f-99a6a01101c1&thumb,경북 상주시 공검면,36.51206762,128.1585975,93.0
230,파미힐스 컨트리클럽,경북 칠곡군,054-971-9900,"['경북권', '골프장', '레포츠', '파미힐스컨트리클럽']",https://cdn.visitkorea.or.kr/img/call?cmd=VIEW&id=undefined&thumb,경상북도 칠곡군 왜관읍 봉계로 263,35.99810585,128.446683,94.0
231,세븐밸리 컨트리클럽,경북 칠곡군,054-979-1000,"['경북권', '골프장', '레포츠', '세븐밸리컨트리클럽']",https://cdn.visitkorea.or.kr/img/call?cmd=VIEW&id=undefined&thumb,경상북도 칠곡군 왜관읍 봉계3길 180,36.01526614,128.4651195,95.0
232,[상주 MRF 8코스] 장서방길,경북 상주시,,['레포츠'],https://cdn.visitkorea.or.kr/img/call?cmd=VIEW&id=dbed8e2f-b3f6-41de-8835-9a4b64f5cefd&thumb,경북 상주시 내서면,36.41239538,128.0675962,96.0
233,[상주 MRF 11코스] 천년길,경북 상주시,,['레포츠'],https://cdn.visitkorea.or.kr/img/call?cmd=VIEW&id=aa53f08e-99a3-47e5-b4b5-4caa59f4f439&thumb,경상북도 상주시 만산동,36.43444298,128.1499843,97.0
234,국민청소년수련원,경북 경주시,054-751-4300,['레포츠'],https://cdn.visitkorea.or.kr/img/call?cmd=VIEW&id=undefined&thumb,경상북도 경주시 산내면 문복로 1280-7,35.74242734,129.0625445,98.0
235,[상주 MRF 9코스] 바람소리길,경북 상주시,,['레포츠'],https://cdn.visitkorea.or.kr/img/call?cmd=VIEW&id=3c2b8dd1-8dc8-4c9b-968b-c647f9553b9c&thumb,경북 상주시 내서면,36.41239538,128.0675962,99.0
236,[상주 MRF 13코스] 너추리길,경북 상주시,,['레포츠'],https://cdn.visitkorea.or.kr/img/call?cmd=VIEW&id=42c244c6-28d9-4c38-9baa-d9076c638a38&thumb,경상북도 상주시 만산동,36.43444298,128.1499843,100.0
237,[상주 MRF 7코스] 소곰길,경북 상주시,,['레포츠'],https://cdn.visitkorea.or.kr/img/call?cmd=VIEW&id=d70e7432-1ff8-4249-a4ec-12c3f302ad89&thumb,경북 상주시 공검면,36.51206762,128.1585975,101.0
238,포항전통문화체험관,경북 포항시,054-280-9371,['레포츠'],https://cdn.visitkorea.or.kr/img/call?cmd=VIEW&id=undefined&thumb,경상북도 포항시 북구 기북면 덕동문화길 7,36.16510617,129.18515159999998,102.0
239,대구컨트리클럽,경북 경산시,053-854-0002,['레포츠'],https://cdn.visitkorea.or.kr/img/call?cmd=VIEW&id=undefined&thumb,경상북도 경산시 진량읍 일연로 718-42,35.86535955,128.8156189,103.0
240,천년숲,경북 안동시,054-880-4242,"['가족과함께', '경북권', '레포츠', '안동데이트코스', '트레킹']",https://cdn.visitkorea.or.kr/img/call?cmd=VIEW&id=604652b3-add3-463f-abc7-397c82d518a1&thumb,경상북도 안동시 풍천면 도청대로 455,36.57612055,128.5057227,104.0
241,영천 홀스파크,경북 영천시,054-331-5583,"['가족과함께', '레포츠', '승마체험', '아이와함께']",https://cdn.visitkorea.or.kr/img/call?cmd=VIEW&id=e11ea528-9ac7-4f04-8947-d5fb92ad1753&thumb,경상북도 영천시 삼밭골길 107,35.98931315,128.93964440000002,105.0
242,포항 죽도시장,경북 포항시,054-247-3776,"['2014', '경상권', '나들이', '먹거리', '쇼핑', '쇼핑 부문', '수상내역', '시장맛집']",https://cdn.visitkorea.or.kr/img/call?cmd=VIEW&id=9c702e5f-38b8-4e23-9d22-363b9358da59&thumb,경상북도 포항시 북구 죽도시장13길 13-1,36.0363602,129.3683896,
243,"안동장 / 안동구시장(2, 7일)",경북 안동시,054-858-9002,"['가족여행', '경상권', '나들이', '나홀로여행', '먹거리', '쇼핑', '시장맛집', '아이와함께']",https://cdn.visitkorea.or.kr/img/call?cmd=VIEW&id=65ea5191-319a-49ba-b37a-7f5129072f46&thumb,경상북도 안동시 번영1길 55,36.5657864,128.7279377,
244,경주 중앙시장,경북 경주시,054-743-3696,"['가족여행', '경상권', '경주중앙시장', '나들이', '데이트코스', '먹거리', '쇼핑']",https://cdn.visitkorea.or.kr/img/call?cmd=VIEW&id=58516c06-cb4c-48a9-9f78-1814fe35e14b&thumb,경상북도 경주시 금성로 295,35.84403610000001,129.2063901,
245,"의성전통시장, 의성장 (2, 7일)",경북 의성군,054-830-6233,"['경상권', '나들이', '나홀로여행', '먹거리', '쇼핑', '시장맛집', '아이와함께', '연인과함께']",https://cdn.visitkorea.or.kr/img/call?cmd=VIEW&id=cab1d612-a9e4-49c1-9c11-8e560a8b80e0&thumb,경상북도 의성군 의성읍 전통시장3길 12,36.346201,128.6991178,
246,풍기인삼시장,경북 영주시,054-636-7948,"['가족여행', '경상권', '기차여행', '나들이', '나홀로여행', '쇼핑', '아이와함께']",https://cdn.visitkorea.or.kr/img/call?cmd=VIEW&id=1d6e4f35-16b8-423c-9e9b-9db169d4f0b8&thumb,경상북도 영주시 풍기읍 인삼로 8,36.8730305,128.5234302,
247,"영천장 (2, 7일)",경북 영천시,054-331-1772,"['가족여행', '경상권', '기차여행', '나들이', '나홀로여행', '먹거리', '쇼핑', '시장맛집']",https://cdn.visitkorea.or.kr/img/call?cmd=VIEW&id=eabc250a-0bf0-4b9c-bc6d-856e99ee3159&thumb,경상북도 영천시 시장4길 38,35.9642448,128.937981,
248,청도농산물프라자,경북 청도군,054-371-6561,"['가족여행', '경상권', '기념품판매', '기차여행', '나들이', '나홀로여행', '데이트코스']",https://cdn.visitkorea.or.kr/img/call?cmd=VIEW&id=0b47fde8-3578-4926-9c42-898bc8fb2c1f&thumb,경상북도 청도군 화양읍 이슬미로 51,35.6802866,128.697322,
249,상주곶감유통센터 상주곶감직판장,경북 상주시,054-536-0907,"['가족여행', '경상권', '기념품판매', '기차여행', '나들이', '나홀로여행', '데이트코스']",https://cdn.visitkorea.or.kr/img/call?cmd=VIEW&id=e44814e9-2aae-4cf0-bf58-7386a0055352&thumb,경상북도 상주시 영남제일로 1154,36.4160008,128.2124141,
250,구미 인동시장,경북 구미시,054-472-8329,"['가족여행', '경상권', '구미인동시장', '기차여행', '나들이', '나홀로여행', '먹거리']",https://cdn.visitkorea.or.kr/img/call?cmd=VIEW&id=cd6f4f42-73dc-4e80-92d6-2f012eadc8b2&thumb,경상북도 구미시 인동중앙로5길 16-7,36.1084037,128.4212444,
251,경주 성동시장,경북 경주시,054-772-4226,"['가족여행', '경상권', '경주성동시장', '나들이', '나홀로여행', '데이트코스', '먹거리']",https://cdn.visitkorea.or.kr/img/call?cmd=VIEW&id=591a11ab-f3f9-43f1-853e-e168249ada53&thumb,경상북도 경주시 동문로24번길 12,35.8467396,129.21581709999998,
252,구미 해평시장,경북 구미시,054-480-7302,"['가족여행', '경상권', '구미해평시장', '나들이', '나홀로여행', '먹거리', '쇼핑']",https://cdn.visitkorea.or.kr/img/call?cmd=VIEW&id=4a7ce2db-2297-4abf-b28b-d9f0ed5181e5&thumb,경상북도 구미시 해평면 해평시장2길 19,36.194464,128.39137390000002,
253,문경 전통한지,경북 문경시,054-571-2848,"['경상권', '경상북도무형문화재', '문경전통한지', '쇼핑', '아이와함께', '전통문화체험']",https://cdn.visitkorea.or.kr/img/call?cmd=VIEW&id=9ab70afc-1603-49b1-9ecd-45bf16bc7649&thumb,경상북도 문경시 농암면 속리길 40,36.5680557,127.9809776,
254,김천 평화시장,경북 김천시,054-431-8477,"['가족여행', '경상권', '기차여행', '김천평화시장', '나들이', '나홀로여행', '데이트코스']",https://cdn.visitkorea.or.kr/img/call?cmd=VIEW&id=84a72d82-fefe-4a0f-bd53-6be0cc2cdaa1&thumb,경상북도 김천시 김천로 100,36.1237001,128.1128936,
255,"공성장 (1, 6일)",경북 상주시,054-531-1141,"['가족과함께', '공성장', '사계절', '쇼핑', '아이와함께', '재래시장', '전통시장']",https://cdn.visitkorea.or.kr/img/call?cmd=VIEW&id=4fedd8fa-8b41-41fc-9480-9ddf7f46b6e7&thumb,경북 상주시 공성면 옥산리 177-1,36.2855717,128.0932699,
256,문경중앙시장,경북 문경시,054-553-4545,"['가족여행', '경상권', '기차여행', '나들이', '나홀로여행', '데이트코스', '먹거리']",https://cdn.visitkorea.or.kr/img/call?cmd=VIEW&id=8ccb85e0-d3bb-42ea-b4ff-cdac7e1789e3&thumb,경상북도 문경시 중앙시장길 32-9,36.5945218,128.1981897,
257,안동간고등어안동특약점 / 안동특산물직판장,경북 안동시,054-854-0547,"['가족여행', '경상권', '기념품판매', '기차여행', '나들이', '나홀로여행', '데이트코스']",https://cdn.visitkorea.or.kr/img/call?cmd=VIEW&id=498fe6aa-25e9-4046-b065-23bebf751b88&thumb,경상북도 안동시 경동로 613,36.5548968,128.75513020000002,
258,"풍산장 / 안동풍산시장 (3, 8일)",경북 안동시,054-852-6800,"['가족여행', '경상권', '기차여행', '나들이', '나홀로여행', '데이트코스', '먹거리']",https://cdn.visitkorea.or.kr/img/call?cmd=VIEW&id=4bef0be8-1620-4f9b-ad58-8b3e8ae4ae5c&thumb,경상북도 안동시 풍산읍 장터3길 1,36.5784042,128.5748749,
259,"청송장 (4, 9일) / 청송재래시장",경북 청송군,054-870-6232,"['가족여행', '경상권', '나들이', '나홀로여행', '먹거리', '쇼핑', '시장맛집', '아이와함께']",https://cdn.visitkorea.or.kr/img/call?cmd=VIEW&id=f4dc661e-531d-40bf-8362-bcbfb4d4e433&thumb,경상북도 청송군 청송읍 현충로 106,36.4351163,129.052185,
260,"구룡포장 (3, 8일)",경북 포항시,054-276-2761,"['가족여행', '경상권', '구룡포장', '기차여행', '나들이', '나홀로여행', '먹거리']",https://cdn.visitkorea.or.kr/img/call?cmd=VIEW&id=952f1c2c-417a-4189-9a9e-ad8029558859&thumb,경상북도 포항시 남구 구룡포읍 구룡포길 72-1,35.990309,129.5540203,
261,"평해장 (2, 7일)",경북 울진군,054-785-6231,"['경상권', '쇼핑', '오일장', '전통시장', '평해장']",https://cdn.visitkorea.or.kr/img/call?cmd=VIEW&id=1276385e-7810-4760-9a41-6481bdb238fe&thumb,경상북도 울진군 평해읍 평해로 64-28,36.72648220000001,129.4426717,
262,"약목장 (3, 8일)",경북 칠곡군,054-974-6460,"['가족여행', '경상권', '기차여행', '나들이', '나홀로여행', '먹거리', '쇼핑', '시장맛집']",https://cdn.visitkorea.or.kr/img/call?cmd=VIEW&id=d2012c61-54e3-4358-bfef-7a011f5ed23e&thumb,경상북도 칠곡군 약목면 약목로1길 5-1,36.03237100000001,128.3659044,
263,"상주장 / 상주중앙시장 (2, 7일)",경북 상주시,054-535-7443,"['가족여행', '경상권', '나들이', '나홀로여행', '먹거리', '상주장', '상주중앙시장']",https://cdn.visitkorea.or.kr/img/call?cmd=VIEW&id=fa548d0c-f98e-4e50-b786-553946068a25&thumb,경상북도 상주시 중앙시장길 1-7,36.4134896,128.1613463,
264,청송군농특산물판매장,경북 청송군,054-874-4048,"['가족여행', '경상권', '기념품판매', '기차여행', '나들이', '나홀로여행', '데이트코스']",https://cdn.visitkorea.or.kr/img/call?cmd=VIEW&id=8315eacd-50e7-4611-9fa8-b9c4c9f54490&thumb,경상북도 청송군 주왕산면 주왕산로 448,36.3617275,129.1573351,
265,"영양시장 (4, 9일)",경북 영양군,054-683-1058,"['가족여행', '경상권', '나들이', '나홀로여행', '먹거리', '쇼핑', '시장맛집', '아이와함께']",https://cdn.visitkorea.or.kr/img/call?cmd=VIEW&id=e2f163dd-ec00-4a6c-a72f-4ab36ada3d30&thumb,경상북도 영양군 영양읍 시장5길 15-1,36.6646778,129.1158196,
266,"왜관장 (1, 6일)",경북 칠곡군,054-974-0170,"['가족여행', '경상권', '기차여행', '나들이', '나홀로여행', '먹거리', '쇼핑', '시장맛집']",https://cdn.visitkorea.or.kr/img/call?cmd=VIEW&id=bff76a35-eae8-4152-b97c-0db74169d743&thumb,경상북도 칠곡군 왜관읍 시장1길 5,35.9959643,128.3985442,
267,"영덕장 (4, 9일)",경북 영덕군,054-734-0082,"['가족여행', '경상권', '나들이', '나홀로여행', '먹거리', '쇼핑', '시장맛집', '아이와함께']",https://cdn.visitkorea.or.kr/img/call?cmd=VIEW&id=ad4552a3-6b33-42f2-8bd4-890f167b2c6b&thumb,경상북도 영덕군 영덕읍 남석길 23-48,36.4067152,129.3695328,
268,"억지춘양5일장 (4, 9일)",경북 봉화군,054-679-6272,"['가족여행', '경상권', '나들이', '나홀로여행', '먹거리', '쇼핑', '시장맛집', '아이와함께']",https://cdn.visitkorea.or.kr/img/call?cmd=VIEW&id=bb3c2ee6-1b90-4972-8ed0-8215f6d16cc1&thumb,경상북도 봉화군 춘양면 의양로2길 25-1,36.93629779999999,128.9137931,
269,"영주장 / 신영주번개시장 (5, 10일)",경북 영주시,054-639-6102,"['가족여행', '경상권', '나들이', '나홀로여행', '먹거리', '쇼핑', '시장맛집', '아이와함께']",https://cdn.visitkorea.or.kr/img/call?cmd=VIEW&id=fc3bab18-a6c3-400d-a1b4-4af221a7d4ab&thumb,경상북도 영주시 선비로79번길 1,36.8120989,128.623198,
270,"군위장 (3, 8일)",경북 군위군,054-380-6068,"['가족여행', '경상권', '군위장', '기차여행', '나들이', '나홀로여행', '먹거리', '쇼핑']",https://cdn.visitkorea.or.kr/img/call?cmd=VIEW&id=1b09e6bd-1182-47c1-bcc1-55bb5e061338&thumb,경상북도 군위군 군위읍 중앙5길 12-8,36.238937,128.5667822,
271,포항 북부시장,경북 포항시,054-231-0067,"['가족여행', '경상권', '먹거리', '사계절', '쇼핑', '아이와함께', '이색체험', '전통시장']",https://cdn.visitkorea.or.kr/img/call?cmd=VIEW&id=e52f9abf-efba-41a0-8254-4330e8bc7898&thumb,경상북도 포항시 북구 삼호로47번길 22-3,36.0465525,129.3689089,
272,"금호장 (3, 8일)",경북 영천시,054-334-0326,"['가족여행', '경상권', '금호장', '기차여행', '나들이', '나홀로여행', '먹거리', '쇼핑']",https://cdn.visitkorea.or.kr/img/call?cmd=VIEW&id=051dad77-2dd9-446e-ad0f-9dd07b6dc2ce&thumb,경상북도 영천시 금호읍 금호로 101,35.9369942,128.88570049999998,
273,"선산5일장 (2, 7일)",경북 구미시,054-482-0213,"['가족여행', '경상권', '기차여행', '나들이', '나홀로여행', '먹거리', '선산오일장']",https://cdn.visitkorea.or.kr/img/call?cmd=VIEW&id=dad55445-d470-464b-acc4-492fb1dd8993&thumb,경상북도 구미시 선산읍 단계동길 24,36.2396519,128.3010689,
274,"신령장 (신녕장) (3, 8일)",경북 영천시,054-330-6584,"['가족여행', '경상권', '기차여행', '나들이', '나홀로여행', '먹거리', '쇼핑', '시장맛집']",https://cdn.visitkorea.or.kr/img/call?cmd=VIEW&id=6f485525-c0ba-499a-8bf5-c17db2df9a01&thumb,경상북도 영천시 신녕면 본관시장길 3,36.0405884,128.787785,
275,"안동 중앙신시장 (2, 7일)",경북 안동시,054-842-0040,"['쇼핑', '오일장', '외국인친구에게추천', '전통시장']",https://cdn.visitkorea.or.kr/img/call?cmd=VIEW&id=c15ddc58-5e47-42e9-b1df-e1f29d8af217&thumb,경상북도 안동시 대안로 98-15,36.56499270000001,128.7240347,
276,영주 365시장,경북 영주시,054-639-6103,"['가족과함께', '남녀노소', '맛집탐방', '먹거리여행', '먹거리투어', '부모님과함께']",https://cdn.visitkorea.or.kr/img/call?cmd=VIEW&id=2421817e-c3eb-4e3c-94e2-07ed60ad7f47&thumb,경상북도 영주시 중앙로83번길 40,36.82425429999999,128.6232853,
277,동해 종합시장,경북 포항시,054-272-3489,"['가족여행', '경상권', '나들이', '나홀로여행', '데이트코스', '동해종합시장', '먹거리']",https://cdn.visitkorea.or.kr/img/call?cmd=VIEW&id=942171a3-4009-4d4c-952f-cd31b74be398&thumb,경상북도 포항시 남구 중앙로134번길 27,36.0258055,129.37094409999997,
278,문경시 농특산물 판매장(문경새재장터),경북 문경시,054-571-9600,"['가족여행', '경상권', '기념품판매', '기차여행', '나들이', '나홀로여행', '데이트코스']",https://cdn.visitkorea.or.kr/img/call?cmd=VIEW&id=0c8e575e-d7b5-41b5-91b2-872c15148a24&thumb,경상북도 문경시 문경읍 새재로 906,36.756555,128.0871107,
279,한국 관광명품관 (포항),경북 포항시,054-284-0849,"['가족여행', '경상권', '기념품판매', '기차여행', '나들이', '나홀로여행', '쇼핑']",https://cdn.visitkorea.or.kr/img/call?cmd=VIEW&id=eb4bd49d-025b-4735-bef5-7ed3756ecd30&thumb,경상북도 포항시 남구 호미곶면 해맞이로 136,36.076405,129.5672781,
280,문경 동로시장,경북 문경시,054-550-6393,"['경상권', '문경동로시장', '사계절', '쇼핑', '재래시장', '전통시장', '전통시장투어']",https://cdn.visitkorea.or.kr/img/call?cmd=VIEW&id=11af25db-3aaf-41f4-becb-03a0acc82ad4&thumb,경상북도 문경시 동로면 여우목로 2788-1,36.7736922,128.3146028,
281,"울진장 (2, 7일)",경북 울진군,054-783-2988,"['경상권', '쇼핑', '오일장', '울진장', '전통시장']",https://cdn.visitkorea.or.kr/img/call?cmd=VIEW&id=f92f6346-a93c-447b-ace3-66a5fcf1f757&thumb,경상북도 울진군 울진읍 읍내2길 13-6,36.9915784,129.4020299,
282,보산토기,경북 경주시,054-746-5279,"['공예단지', '불국사', '쇼핑', '체험학습', '토기제품']",https://cdn.visitkorea.or.kr/img/call?cmd=VIEW&id=8fc1d431-87b8-4311-abe5-78753f875ca4&thumb,경상북도 경주시 하동공예촌길 12-5,35.8050231,129.3112686,
283,의성마늘장터 (의성명품마늘영농조합법인),경북 의성군,054-834-2497,"['가족여행', '경상권', '기차여행', '나들이', '나홀로여행', '데이트코스', '먹거리']",https://cdn.visitkorea.or.kr/img/call?cmd=VIEW&id=ccefc768-9cd7-4fc7-9ed5-ab85f5be98e1&thumb,경상북도 의성군 의성읍 구봉길 215-10,36.3448697,128.6968255,
284,영남요,경북 문경시,054-571-0901,"['가마', '도자기', '도자기명장', '분청사기', '분청사기명장', '쇼핑']",https://cdn.visitkorea.or.kr/img/call?cmd=VIEW&id=468687df-3e3a-4d66-9176-f5cbb03b0e2e&thumb,경상북도 문경시 문경읍 새재로 579,36.756555,128.0871107,
285,"청도장 (4, 9일)",경북 청도군,054-370-6701,"['가족여행', '경상권', '기차여행', '나들이', '나홀로여행', '먹거리', '쇼핑', '시장맛집']",https://cdn.visitkorea.or.kr/img/call?cmd=VIEW&id=ca3eb3ff-8d18-4680-bdd8-5418cdba5fc2&thumb,경상북도 청도군 청도읍 청도시장1길 21,35.6441204,128.74561440000002,
286,"경산장 (5, 10일)",경북 경산시,053-810-5125,"['가족여행', '경산장', '경상권', '기차여행', '나들이', '나홀로여행', '먹거리', '쇼핑']",https://cdn.visitkorea.or.kr/img/call?cmd=VIEW&id=7b4400e3-09d3-4b21-8819-22aa10b2542a&thumb,경상북도 경산시 중앙로16길 20-1,35.82141679999999,128.7358479,
287,"장기장 (4, 9일)",경북 포항시,054-280-0606,"['가족여행', '경상권', '기차여행', '나들이', '나홀로여행', '먹거리', '쇼핑', '시장맛집']",https://cdn.visitkorea.or.kr/img/call?cmd=VIEW&id=a8d46baf-4a0f-41b7-94f5-51adeb51ba19&thumb,경상북도 포항시 남구 장기면 임중리 368-1,35.89075379999999,129.49050069999998,
288,영천목탁공예사,경북 영천시,010-3540-9757,"['공예품', '목탁', '쇼핑', '전통목공예품']",https://cdn.visitkorea.or.kr/img/call?cmd=VIEW&id=5188fd1f-dae8-4bf7-aec0-a69770b717ef&thumb,경상북도 영천시 언하동 167-1,35.9876407,128.9694321,
289,안동 용상시장,경북 안동시,054-821-3218,"['가족여행', '경상권', '기차여행', '나들이', '나홀로여행', '데이트코스', '먹거리']",https://cdn.visitkorea.or.kr/img/call?cmd=VIEW&id=1c49a1a1-a130-4c9f-8fa1-02d810c2ae37&thumb,경상북도 안동시 경동로 874,36.5548968,128.75513020000002,
290,"화서시장/화령장 (3, 8일)",경북 상주시,054-537-7402,"['가족과함께', '사계절', '쇼핑', '아이와함께', '재래시장', '전통시장', '전통시장투어']",https://cdn.visitkorea.or.kr/img/call?cmd=VIEW&id=d8145c5c-2d9a-4373-bfe2-4d7e83cb7f68&thumb,경상북도 상주시 화서면 화령남1길 10,36.4447716,127.9530057,
291,"하양꿈바우시장/하양장 (4, 9일)",경북 경산시,053-856-0202,"['가족여행', '경상권', '기차여행', '나들이', '나홀로여행', '먹거리', '쇼핑', '시장맛집']",https://cdn.visitkorea.or.kr/img/call?cmd=VIEW&id=7bbd6564-3a99-4b59-93b2-30829189cdfe&thumb,경상북도 경산시 하양읍 대학로 1543,35.9153899,128.8199014,
292,신라요,경북 경주시,054-746-1115,"['경주', '쇼핑', '토기작업장', '토기전시장', '토기제품']",https://cdn.visitkorea.or.kr/img/call?cmd=VIEW&id=a9fbb44a-5834-40ff-8b15-b2b6841b1f4e&thumb,경상북도 경주시 하동공예촌길 45,35.8060713,129.3116774,
293,"압량장 (2, 7일)",경북 경산시,053-817-2119,"['가족여행', '경상권', '기차여행', '나들이', '나홀로여행', '먹거리', '쇼핑', '시장맛집']",https://cdn.visitkorea.or.kr/img/call?cmd=VIEW&id=24fd8e7f-87a1-4c8d-a26e-7e0356ea1ffa&thumb,경상북도 경산시 압량면 압량시장길 1,35.8439691,128.7603832,
294,"장천장 (5, 10일)",경북 구미시,054-480-2622,"['가족여행', '경상권', '기차여행', '나들이', '나홀로여행', '먹거리', '쇼핑', '시장맛집']",https://cdn.visitkorea.or.kr/img/call?cmd=VIEW&id=c4a6109b-e75e-4ed6-b08e-f7a45ad4aad8&thumb,경상북도 구미시 장천면 상장5길 4,36.1256817,128.4934125,
295,"영해만세시장 / 영해관광시장 (5, 10일)",경북 영덕군,054-733-9251,"['가족여행', '경상권', '기차여행', '나들이', '나홀로여행', '먹거리', '쇼핑', '시장맛집']",https://cdn.visitkorea.or.kr/img/call?cmd=VIEW&id=48839cf8-a19a-400a-81cc-e8437e110cb0&thumb,경상북도 영덕군 영해면 예주시장6길 15,36.5402927,129.4074696,
296,"동명장 (4, 9일)",경북 칠곡군,054-979-6522,"['가족여행', '경상권', '기차여행', '나들이', '나홀로여행', '동명장', '먹거리', '쇼핑']",https://cdn.visitkorea.or.kr/img/call?cmd=VIEW&id=28e1230a-8b6f-497b-a791-50c4a1e89c27&thumb,경상북도 칠곡군 동명면 금암4길 2,35.9834469,128.5533002,
297,"강구장 (3, 8일)",경북 영덕군,054-730-6233,"['가족여행', '강구장', '경상권', '기차여행', '나들이', '나홀로여행', '먹거리', '쇼핑']",https://cdn.visitkorea.or.kr/img/call?cmd=VIEW&id=71bfb908-1fd0-4a75-a2f9-931a4534ada1&thumb,경상북도 영덕군 강구면 강구시장1길 8-1,36.3583563,129.37923490000003,
298,"봉화시장 (2, 7일)",경북 봉화군,054-679-4996,"['가족여행', '경상권', '나들이', '나홀로여행', '먹거리', '봉화시장', '쇼핑', '시장맛집']",https://cdn.visitkorea.or.kr/img/call?cmd=VIEW&id=8beb25b1-12a7-4f1e-b10b-91e012e2c1aa&thumb,경상북도 봉화군 봉화읍 신시장1길 4,36.88990020000001,128.7357412,
299,"풍기장 (3, 8일)",경북 영주시,054-639-6601,"['가족여행', '경상권', '기차여행', '나들이', '나홀로여행', '먹거리', '쇼핑', '시장맛집']",https://cdn.visitkorea.or.kr/img/call?cmd=VIEW&id=566b67cd-11b5-4a8a-9352-3b8666307c96&thumb,경상북도 영주시 풍기읍 기주로 102,36.8704784,128.5248664,
300,"농암시장 (5, 10일)",경북 문경시,054-550-6235,"['가족여행', '경상권', '문경농암시장', '사계절', '쇼핑', '시장맛집', '아이와함께']",https://cdn.visitkorea.or.kr/img/call?cmd=VIEW&id=78d601b5-cb24-4d8b-b878-c385f42c805e&thumb,경상북도 문경시 농암면 농암2길 12,36.6012591,128.0054054,
301,"도산장 / 온혜장 (5, 10일)",경북 안동시,054-856-1301,"['가족여행', '경상권', '기차여행', '나들이', '나홀로여행', '도산장', '먹거리', '쇼핑']",https://cdn.visitkorea.or.kr/img/call?cmd=VIEW&id=2c0eb7bd-5567-4c68-a327-8a41a6022342&thumb,경상북도 안동시 도산면 온혜리 566-1,36.7476735,128.8324532,
302,"함창장 (1, 6일)",경북 상주시,054-537-6092,"['가족과함께', '사계절', '쇼핑', '아이와함께', '재래시장', '전통시장', '전통시장투어']",https://cdn.visitkorea.or.kr/img/call?cmd=VIEW&id=d05cc75f-6dcd-4668-8f25-3fd7c61e6d79&thumb,경상북도 상주시 함창읍 함창시장1길 45-14,36.567404,128.1794077,
303,"흥해장 (2, 7일)",경북 포항시,054-261-4877,"['가족여행', '경상권', '쇼핑', '이색체험', '전통시장', '체험학습', '친환경여행']",https://cdn.visitkorea.or.kr/img/call?cmd=VIEW&id=67dfd0aa-07eb-4c93-8d1f-296bdc5319c9&thumb,경상북도 포항시 북구 흥해읍 한동로 61-13,36.11062379999999,129.3483346,
304,봉화 태백산특산물직판장,경북 봉화군,054-673-8378,"['가족여행', '경상권', '기념품판매', '기차여행', '나들이', '나홀로여행', '먹거리']",https://cdn.visitkorea.or.kr/img/call?cmd=VIEW&id=9a71eea4-2fea-4d42-a217-d11302037d2b&thumb,경상북도 봉화군 봉성면 농업인길 47,36.9018857,128.7723596,
305,"기계장 (1, 6일)",경북 포항시,054-243-2010,"['가족여행', '경상권', '기계장', '기차여행', '나들이', '나홀로여행', '먹거리', '쇼핑']",https://cdn.visitkorea.or.kr/img/call?cmd=VIEW&id=278658a7-b551-4d93-9e00-26cfc21da3be&thumb,경상북도 포항시 북구 기계면 기계로 575,36.0888922,129.1607152,
306,늘푸른농산물판매,경북 청도군,054-371-7402,"['가족여행', '경상권', '기념품판매', '기차여행', '나들이', '나홀로여행', '데이트코스']",https://cdn.visitkorea.or.kr/img/call?cmd=VIEW&id=b35357ff-4d9c-4614-b4aa-3884db931d05&thumb,경상북도 청도군 화양읍 연지로 224-33,35.67660739999999,128.6955998,
307,"풍각장 (1, 6일)",경북 청도군,054-373-5158,"['가족여행', '경상권', '기차여행', '나들이', '나홀로여행', '먹거리', '쇼핑', '시장맛집']",https://cdn.visitkorea.or.kr/img/call?cmd=VIEW&id=344cec12-b01b-4edb-93fb-551ce42b59d3&thumb,경상북도 청도군 풍각면 송서5길 10-1,35.6406954,128.6192635,
308,"예천장 (2, 7일)",경북 예천군,054-654-7336,"['가족여행', '경상권', '나들이', '나홀로여행', '먹거리', '쇼핑', '시장맛집', '아이와함께']",https://cdn.visitkorea.or.kr/img/call?cmd=VIEW&id=d20a2f42-5d82-4e0c-b2ed-d39f82048eae&thumb,경상북도 예천군 예천읍 시장로 53,36.6545523,128.4502979,
309,"신흥장(3, 8일)",경북 문경시,054-553-3208,"['가족여행', '경상권', '기차여행', '나들이', '나홀로여행', '데이트코스', '먹거리']",https://cdn.visitkorea.or.kr/img/call?cmd=VIEW&id=7144e5a8-0420-4519-a90e-045e518d9398&thumb,경상북도 문경시 신흥시장길 19,36.60126079999999,128.2042449,
310,갤러리 가람,경북 경주시,054-772-0130,"['다기', '도자기', '민속공예촌', '쇼핑']",https://cdn.visitkorea.or.kr/img/call?cmd=VIEW&id=6f49e8d1-3ca4-4032-acbe-f1228e6fe406&thumb,경상북도 경주시 하동공예촌길 78,35.8047844,129.31075570000002,
311,"신광장 (5, 10일)",경북 포항시,054-243-0301,"['가족여행', '경상권', '기차여행', '나들이', '나홀로여행', '먹거리', '쇼핑', '시장맛집']",https://cdn.visitkorea.or.kr/img/call?cmd=VIEW&id=53f99b19-df12-4153-933e-c2b553179915&thumb,경상북도 포항시 북구 신광면,36.13007279999999,129.263012,
312,하회동탈방,경북 안동시,054-853-2938,"['경상권', '쇼핑', '하회동탈박물관', '하회동탈방', '하회탈']",https://cdn.visitkorea.or.kr/img/call?cmd=VIEW&id=994b836b-8368-43f4-8eae-65802c1651fd&thumb,경상북도 안동시 풍천면 전서로 206,36.5489318,128.5276949,
313,국악기 유림,경북 칠곡군,054-972-2237,"['공예품', '국악기', '민속공예품', '쇼핑']",https://cdn.visitkorea.or.kr/img/call?cmd=VIEW&id=80730f4d-4ebe-4e61-afbe-608404b4abd6&thumb,경상북도 칠곡군 지천면 금호로1길 2-25,35.9576565,128.4455587,
314,"길안장 / 천지장 (5, 10일)",경북 안동시,054-822-2005,"['가족여행', '경상권', '기차여행', '길안장', '나들이', '나홀로여행', '먹거리', '쇼핑']",https://cdn.visitkorea.or.kr/img/call?cmd=VIEW&id=2c2f72dd-4b58-450f-aa80-605e1df964d0&thumb,경상북도 안동시 길안면 천지리 778-1,36.4577687,128.8925783,
315,신라토기,경북 영천시,054-336-0867,"['경상권', '쇼핑', '신라토기', '전통공예']",https://cdn.visitkorea.or.kr/img/call?cmd=VIEW&id=7e4b457b-bf81-42d1-94d1-5a0c3f40e9d4&thumb,경상북도 영천시 북안면 유상길 237-5,35.9190112,128.9749772,
316,토함산도예,경북 경주시,054-746-4641,"['가족여행', '감성충전', '경주여행', '도자기', '쇼핑', '우리아이체험학습']",https://cdn.visitkorea.or.kr/img/call?cmd=VIEW&id=b16960a6-68cd-435c-bb04-5de38c2d1ffc&thumb,경상북도 영천시 북안면 유상길 237-5,35.9190112,128.9749772,
317,"청하장 (1, 6일)",경북 포항시,054-232-4002,"['가족여행', '경상권', '기차여행', '나들이', '나홀로여행', '먹거리', '쇼핑', '시장맛집']",https://cdn.visitkorea.or.kr/img/call?cmd=VIEW&id=8640f583-20d7-4445-8e25-96620e228d17&thumb,경상북도 포항시 북구 청하면 청하로200번길 4,36.1969393,129.3398209,
318,"동곡장 (1, 6일)",경북 청도군,054-370-2235,"['가족여행', '경상권', '기차여행', '나들이', '나홀로여행', '동곡장', '먹거리', '쇼핑']",https://cdn.visitkorea.or.kr/img/call?cmd=VIEW&id=b608b5f1-ab74-47a1-a13e-8726df777099&thumb,경상북도 청도군 금천면 금천로 41-2,35.692225,128.8909101,
319,"자인장 (3, 8일)",경북 경산시,053-810-5125,"['가족여행', '경상권', '기차여행', '나들이', '나홀로여행', '먹거리', '쇼핑', '시장맛집']",https://cdn.visitkorea.or.kr/img/call?cmd=VIEW&id=3e7de808-c506-4e94-92de-89568bb2ee27&thumb,경상북도 경산시 자인면 자인시장1길 12,35.8168932,128.82338629999998,
320,후생시장,경북 영주시,,"['쇼핑', '영주시', '전통시장']",https://cdn.visitkorea.or.kr/img/call?cmd=VIEW&id=ea4345a9-0402-4ef6-8463-a875224723c6&thumb,경상북도 영주시 영주동 337-20,36.8259686,128.6229013,
