,name,region,tel,keyword,photo,address,lat,lon,Unnamed: 0
0,수창청춘맨숀,대구 중구,053-252-2566,"['문화시설', '문화예술창작공간', '복합문화공간', '복합문화시설', '실내데이트']",https://cdn.visitkorea.or.kr/img/call?cmd=VIEW&id=fff8ceae-c086-4b86-97ac-6ed04c927dfe&thumb,대구광역시 중구 달성로22길 27,35.87532215,128.58321740000002,
1,국립대구박물관,대구 수성구,053-768-6051,"['국립대구박물관', '데이트코스', '무료관람', '문화시설', '미세먼지_피하는_실내여행']",https://cdn.visitkorea.or.kr/img/call?cmd=VIEW&id=2a57aaa4-d3b8-4829-9ec9-2fb0353dc5b1&thumb,대구광역시 수성구 청호로 321,35.84557453,128.6383419,
2,대구예술발전소,대구 중구,053-430-1225,"['경상권', '기념품판매', '대구예술발전소', '문화시설', '문화행사', '예술', '음악회']",https://cdn.visitkorea.or.kr/img/call?cmd=VIEW&id=e887c324-5a2e-4899-aa0c-2ade809b7d53&thumb,대구광역시 중구 달성로22길 31-12,35.87543672,128.5844989,
3,대구교육대학교 교육박물관,대구 남구,053-620-1471,"['경상권', '대구교육대학교교육박물관', '문화시설', '박물관']",https://cdn.visitkorea.or.kr/img/call?cmd=VIEW&id=5bab020b-9db4-49e4-8318-ce11802050af&thumb,대구광역시 남구 중앙대로 219,35.85143158,128.5877392,
4,근대문화체험관 계산예가,대구 중구,053-661-3323,"['가족과함께', '문화공간', '문화시설', '아이와함께', '역사공부', '역사속', '역사속으로']",https://cdn.visitkorea.or.kr/img/call?cmd=VIEW&id=aaf88cfb-d307-44c8-ad92-f5aaf55c709f&thumb,대구광역시 중구 서성로 6-1,35.86720726,128.5878652,
5,대구미술관,대구 수성구,053-803-7900,"['경상권', '대구미술관', '데이트코스', '문화공간', '문화시설', '복합문화공간']",https://cdn.visitkorea.or.kr/img/call?cmd=VIEW&id=8422e8c5-28d1-4387-852c-d69508d1bf24&thumb,대구광역시 수성구 미술관로 40,35.82702862,128.6743408,
6,국립대구과학관,대구 달성군,053-670-6114,"['경상권', '교과서속여행', '교육여행', '교육프로그램', '국립대구과학관', '무더위_피해_실내놀이']",https://cdn.visitkorea.or.kr/img/call?cmd=VIEW&id=a8003bb2-fdaa-481d-98df-4a51f93ce076&thumb,대구광역시 달성군 유가면 테크노대로6길 20,35.68662166,128.4652247,
7,계명아트센터,대구 달서구,053-580-6600,"['경상권', '계명아트센터', '데이트코스', '문화공간', '문화시설', '문화행사', '복합문화공간']",https://cdn.visitkorea.or.kr/img/call?cmd=VIEW&id=3cd1ae3b-1a89-41fa-b780-4e9bef2810f2&thumb,대구광역시 달서구 달구벌대로 1095,35.85355435,128.4814938,
8,대구근대역사관,대구 중구,053-606-6430,"['경상권', '교과서속여행', '근대문화유산', '기념관', '나홀로여행', '대구근대역사관']",https://cdn.visitkorea.or.kr/img/call?cmd=VIEW&id=6d9bdfb0-66cc-4127-b2ed-412e4f45322f&thumb,대구광역시 중구 경상감영길 67,35.87179779,128.5911599,
9,대구서구문화회관,대구 서구,053-663-3081,"['경상권', '대구서구문화회관', '문화시설', '상설공연', '예술', '전시회', '체험학습']",https://cdn.visitkorea.or.kr/img/call?cmd=VIEW&id=aa5770a0-63f5-496f-9727-53b3065ca295&thumb,대구광역시 서구 당산로 403,35.87278996,128.5455378,
10,대구 아쿠아리움,대구 동구,053-247-8899,"['경상권', '대구가볼만한곳', '문화시설', '미세먼지_피하는_실내여행', '아이가_좋아하는_여행']",https://cdn.visitkorea.or.kr/img/call?cmd=VIEW&id=87d96143-f0ca-4091-9e7e-d65ae2f81cea&thumb,대구광역시 동구 동부로 149,35.87794067,128.62919,
11,웃는얼굴아트센터,대구 달서구,053-584-8715,"['경상권', '데이트코스', '문화공간', '문화시설', '문화행사', '복합문화공간', '사계절']",https://cdn.visitkorea.or.kr/img/call?cmd=VIEW&id=75028163-92aa-4379-8c81-f02208959b21&thumb,대구광역시 달서구 문화회관길 160,35.84342236,128.5228263,
12,계명대학교 행소박물관,대구 달서구,053-580-6992,"['계명대학교행소박물관', '무료관람', '문화시설', '박물관', '수도권', '실내여행지']",https://cdn.visitkorea.or.kr/img/call?cmd=VIEW&id=4abc27a3-441e-43f8-872b-218a2fc3c2c2&thumb,대구광역시 달서구 달구벌대로 1095,35.85355435,128.4814938,
13,행복북구문화재단 어울아트센터,대구 북구,053-320-5120,"['가족과함께', '경상권', '문화공간', '문화시설', '문화예술', '문화예술공간', '복합문화공간']",https://cdn.visitkorea.or.kr/img/call?cmd=VIEW&id=9f238ff7-a7d7-4ce7-8f59-eb6d04882af5&thumb,대구광역시 북구 구암로 47,35.93586735,128.5451287,
14,향촌문화관,대구 중구,053-661-2331,"['경상권', '문화시설', '미세먼지_피하는_실내여행', '설날연휴가볼만한곳', '실내관광지']",https://cdn.visitkorea.or.kr/img/call?cmd=VIEW&id=2b34176f-174b-4955-8d40-96ff19e39413&thumb,대구광역시 중구 중앙대로 449,35.8734081,128.5941862,
15,향토역사관,대구 중구,053-606-6421,"['경상권', '교과서속여행', '기념관', '문화시설', '박물관', '사계절', '실내여행지']",https://cdn.visitkorea.or.kr/img/call?cmd=VIEW&id=a8734580-3678-438a-8ad1-ebc529894827&thumb,대구광역시 중구 달성공원로 35,35.87339859,128.57591829999998,
16,국립대구기상과학관,대구 동구,053-953-0365,"['경상권', '교육여행', '국립대구기상과학관', '대구가볼만한곳', '문화시설', '미세먼지_피하는_실내여행']",https://cdn.visitkorea.or.kr/img/call?cmd=VIEW&id=b2947c1e-7695-44a4-b5f9-43369bad0e8c&thumb,대구광역시 동구 효동로2길 10,35.87910949,128.6508435,
17,대구광역시립남부도서관,대구 남구,053-231-2300,"['남부도서관', '대구광역시립남부도서관', '대구권', '문화시설', '아이와함께']",https://cdn.visitkorea.or.kr/img/call?cmd=VIEW&id=6f5ddff5-6c37-470f-a71d-6cca1c875c0e&thumb,대구광역시 남구 앞산순환로 512,35.83205667,128.5807514,
18,대구 코오롱 야외음악당,대구 달서구,053-606-6450,"['공연장', '대구', '무장애', '문화시설', '야외공연장', '음악당']",https://cdn.visitkorea.or.kr/img/call?cmd=VIEW&id=79ec803a-fa02-4ff2-9346-479c290c0107&thumb,대구광역시 달서구 야외음악당로 180,35.85114987,128.5561992,
19,대구교육박물관,대구 북구,053-231-1790,"['가족과함께', '교육여행', '교육프로그램', '대구가볼만한곳', '문화시설', '미세먼지_피하는_실내여행']",https://cdn.visitkorea.or.kr/img/call?cmd=VIEW&id=f0b881f6-8f5d-453b-afcf-ef5e42ea5086&thumb,대구광역시 북구 대동로1길 40,35.8973687,128.6118383,
20,대백프라자갤러리,대구 중구,053-420-8015,"['가족여행', '기차여행', '대백프라자갤러리', '문화시설', '미술관', '실내여행지']",https://cdn.visitkorea.or.kr/img/call?cmd=VIEW&id=2868aa31-8b4f-49da-846e-a575dc0d9222&thumb,대구광역시 중구 명덕로 333,35.85571704,128.60636159999999,
21,에코한방웰빙체험관,대구 중구,053-661-2043,"['가족과함께', '건강여행', '문화시설', '체험프로그램', '한방약초', '한방의료']",https://cdn.visitkorea.or.kr/img/call?cmd=VIEW&id=5bcf5950-d6f6-4752-a451-62faf15312dd&thumb,대구광역시 중구 남성로 24,35.86902235,128.5880558,
22,대구문화예술회관,대구 달서구,053-606-6114,"['기차여행', '대구문화예술회관', '문화시설', '아이와함께', '여행', '연인과함께']",https://cdn.visitkorea.or.kr/img/call?cmd=VIEW&id=fbb856d1-bd65-4821-9ac1-96e01f45cc89&thumb,대구광역시 달서구 공원순환로 201,35.84476741,128.5581018,
23,대구 서구문화원,대구 서구,053-663-3081,"['대구', '문화시설', '복합문화공간', '서구문화원', '열린문화공간']",https://cdn.visitkorea.or.kr/img/call?cmd=VIEW&id=fa0ebf03-b3a1-47ef-a298-a2dd7b0c50d6&thumb,대구광역시 서구 당산로 403,35.87278996,128.5455378,
24,대구 달서문화원,대구 달서구,053-554-4800,"['달서문화원', '대구', '문화시설', '복합문화공간', '열린문화공간']",https://cdn.visitkorea.or.kr/img/call?cmd=VIEW&id=4be59fe6-4ec0-4ad9-b1dc-c48e4359e226&thumb,대구광역시 달서구 문화회관길 160,35.84342236,128.5228263,
25,"아양아트센터(구, 동구문화체육회관)",대구 동구,053-951-3300,"['경상권', '남녀노소', '데이트코스', '문화공간', '문화시설', '문화행사', '복합문화공간']",https://cdn.visitkorea.or.kr/img/call?cmd=VIEW&id=d5500935-07f8-47d8-ad5a-f00b66621441&thumb,대구광역시 동구 효동로2길 24,35.87956368,128.65193670000002,
26,봉산문화회관,대구 중구,053-661-3500,"['경상권', '데이트코스', '문화공간', '문화시설', '문화행사', '복합문화공간', '봉산문화회관']",https://cdn.visitkorea.or.kr/img/call?cmd=VIEW&id=7e8f9488-aff1-4529-bdcf-766c61cdb516&thumb,대구광역시 중구 봉산문화길 77,35.86339725,128.59656470000002,
27,낙동강승전기념관,대구 남구,053-621-9880,"['기차여행', '낙동강승전기념관', '대구 남구', '대구광역시', '문화시설', '아이와함께']",https://cdn.visitkorea.or.kr/img/call?cmd=VIEW&id=7cbb4eb9-5a6d-46ce-ae55-c87b0bf3877a&thumb,대구광역시 남구 앞산순환로 574-110,35.82717061,128.5887885,
28,대구 남구문화원,대구 남구,053-652-4450,"['남구문화원', '대구', '문화시설', '복합문화공간', '열린문화공간']",https://cdn.visitkorea.or.kr/img/call?cmd=VIEW&id=186ce4db-bf44-400f-935d-05bf26f33afb&thumb,대구광역시 남구 앞산순환로 478,35.83129333,128.57697040000002,
29,대구광역시어린이회관,대구 수성구,053-803-7930,"['대구광역시어린이회관', '대구권', '문화시설', '아이와함께', '어린이회관']",https://cdn.visitkorea.or.kr/img/call?cmd=VIEW&id=1127798d-cd6a-448f-8a67-82b490cc3d50&thumb,대구광역시 수성구 동대구로 176,35.84663547,128.6277931,
30,수성아트피아,대구 수성구,053-668-1800,"['경상권', '문화시설', '상설공연', '수성아트피아', '예술']",https://cdn.visitkorea.or.kr/img/call?cmd=VIEW&id=cd34c55e-293a-4cb2-8d87-b5d07eef314e&thumb,대구광역시 수성구 무학로 180,35.82928322,128.6282735,
31,대구오페라하우스,대구 북구,053-666-6000,"['대구오페라하우스', '도심여행', '문화시설', '실내여행지', '연인과함께', '음악회']",https://cdn.visitkorea.or.kr/img/call?cmd=VIEW&id=3989e948-b7b0-4d3d-a682-cd94db1df0a0&thumb,대구광역시 북구 호암로 15,35.88346535,128.5922331,
32,패션주얼리전문타운,대구 중구,053-661-2351,"['기획전시', '남녀노소', '문화시설', '상설전시', '연인과함께', '이색전시', '이색체험']",https://cdn.visitkorea.or.kr/img/call?cmd=VIEW&id=be9d8a0d-d1d8-4fac-93f1-216557095f45&thumb,대구광역시 중구 경상감영길 176,35.87177744,128.5966863,
33,가창창작스튜디오&스페이스 가창,대구 달성군,053-430-1266,"['가창창작스튜디오&스페이스가창', '기차여행', '기획전시', '단체관람', '문화시설']",https://cdn.visitkorea.or.kr/img/call?cmd=VIEW&id=051249c1-3917-49f3-9436-d48463238bd8&thumb,대구광역시 달성군 가창면 가창로57길 46,35.73770881,128.6583175,
34,수성구립 고산도서관,대구 수성구,053-668-1900,"['경상권', '독서여행', '문화시설', '수성구립고산도서관', '실내여행지', '아이와함께']",https://cdn.visitkorea.or.kr/img/call?cmd=VIEW&id=2c1aa1c2-4e8b-4327-a60f-999905677391&thumb,대구광역시 수성구 달구벌대로650길 6,35.83790532,128.7106325,
35,수성구립 용학도서관,대구 수성구,053-668-1700,"['독서여행', '문화공간', '문화시설', '복합문화공간', '실내여행지', '아이와함께']",https://cdn.visitkorea.or.kr/img/call?cmd=VIEW&id=03fa11f7-a40a-44dd-a7b5-382ea7470f9c&thumb,대구광역시 수성구 지범로41길 36,35.821208899999995,128.64613070000001,
36,엑스코(EXCO),대구 북구,053-601-5000,"['exco', '경상권', '대구광역시', '문화시설', '북구', '엑스코', '전시관']",https://cdn.visitkorea.or.kr/img/call?cmd=VIEW&id=f853cbf6-19bf-4974-b1d1-de9d6a183a7e&thumb,대구광역시 북구 엑스코로 10,35.90706959,128.61307390000002,
37,박물관 수,대구 수성구,053-744-5500,"['경상권', '교육체험', '남녀노소', '문화시설', '민화', '박물관', '박물관수', '복합문화공간']",https://cdn.visitkorea.or.kr/img/call?cmd=VIEW&id=0ffa00d9-294d-484f-8fb7-83bce68a5bfc&thumb,대구광역시 수성구 국채보상로186길 79,35.86482862,128.6341486,
38,달성 한일우호관,대구 달성군,053-659-4490,"['경상권', '교과서속여행', '달성한일우호관', '문화시설', '박물관', '사계절', '아이와함께']",https://cdn.visitkorea.or.kr/img/call?cmd=VIEW&id=6e732473-2d38-444f-8284-4daaad55d2c4&thumb,대구광역시 달성군 가창면 우록길 206,35.72334111,128.6471646,
39,대구북구청소년회관 아트홀,대구 북구,053-383-1300,"['경상권', '대구북구청소년회관아트홀', '문화시설', '상설공연']",https://cdn.visitkorea.or.kr/img/call?cmd=VIEW&id=17d0b930-cd04-4d4d-b7f0-94d037a9f56b&thumb,대구광역시 북구 검단로 71-17,35.90578013,128.61605120000002,
40,대구콘서트하우스 (구.대구시민회관),대구 중구,053-250-1400,"['가족여행', '공연장', '기차여행', '나들이', '대구시민회관', '대구콘서트하우스']",https://cdn.visitkorea.or.kr/img/call?cmd=VIEW&id=8e916593-20c8-44d1-a86d-6d1f356b74a3&thumb,대구광역시 중구 태평로 141,35.876059000000005,128.5936972,
41,대구 북구문화원,대구 북구,053-326-2553,"['경상권', '대구북구문화원', '무장애', '문화시설', '문화원', '지역문화']",https://cdn.visitkorea.or.kr/img/call?cmd=VIEW&id=5cbc1a15-96b1-4a53-bca0-0c27a2327c05&thumb,대구광역시 북구 구암로 47,35.93586735,128.5451287,
42,수성구립 범어도서관,대구 수성구,053-668-1600,"['독서여행', '문화공간', '문화시설', '복합문화공간', '실내관광지', '아이와함께']",https://cdn.visitkorea.or.kr/img/call?cmd=VIEW&id=213aaedc-0959-4c32-b5c4-635a686757e2&thumb,대구광역시 수성구 달구벌대로 2451,35.85937462,128.6306765,
43,팔공문화원,대구 동구,053-984-8774,"['대구 동구', '대구광역시', '문화복지향상', '문화시설', '문화원', '전통문화', '전통문화']",https://cdn.visitkorea.or.kr/img/call?cmd=VIEW&id=717809d3-f0d8-460b-bbae-06405f30aa8b&thumb,대구광역시 동구 팔공로197길 25,35.95594001,128.68918190000002,
44,선사시대로 거리박물관,대구 달서구,053-667-2191,"['거리박물관', '문화시설', '선사시대로', '선사유물', '이색전시']",https://cdn.visitkorea.or.kr/img/call?cmd=VIEW&id=d105dc01-e864-4490-8acd-6a98945abaca&thumb,대구광역시 달서구 진천동 470-38,35.810140999999994,128.522085,
45,서구어린이도서관,대구 서구,053-663-3701,"['경상권', '도서관', '문화시설', '서구어린이도서관', '아이와함께', '주말추천여행지']",https://cdn.visitkorea.or.kr/img/call?cmd=VIEW&id=c845422d-c595-4c17-b417-a284287e4356&thumb,대구광역시 서구 문화로 123,35.87427925,128.5463811,
46,대구광역시립중앙도서관,대구 중구,053-231-2000,"['가족과함께', '대구광역시립중앙도서관', '대구권', '문화시설', '아이와함께']",https://cdn.visitkorea.or.kr/img/call?cmd=VIEW&id=727586d4-73ca-4972-ae1a-4d80b4102b35&thumb,대구광역시 중구 공평로10길 25,35.86844035,128.6017133,
47,대구 중구문화원,대구 중구,053-255-5123,"['경상권', '대구중구문화원', '문화', '문화시설', '문화원', '사계절', '실내여행지']",https://cdn.visitkorea.or.kr/img/call?cmd=VIEW&id=9c9c3df3-48c1-42ca-ae84-86160f0351f8&thumb,대구광역시 중구 봉산문화길 77,35.86339725,128.59656470000002,
48,관덕정 순교기념관,대구 중구,053-254-0151,"['가족과함께', '관덕정순교기념관', '문화시설', '아이와함께']",https://cdn.visitkorea.or.kr/img/call?cmd=VIEW&id=dc4d83c3-c592-4491-bdde-4766cbf1edcb&thumb,대구광역시 중구 관덕정길 11,35.86516311,128.5911199,
49,자연염색박물관,대구 동구,053-981-4330,"['겨울방학가볼만한곳', '경상권', '문화시설', '박물관', '아이와함께', '여름방학가볼만한곳']",https://cdn.visitkorea.or.kr/img/call?cmd=VIEW&id=f0c72a18-ebee-40fa-b4b5-fbb37c28337d&thumb,대구광역시 동구 파계로112길 17,35.97933851,128.63647350000002,
50,경북대학교박물관,대구 북구,053-950-6536,"['경북대학교박물관', '경상권', '문화시설', '박물관', '아이와함께', '예술', '전시회']",https://cdn.visitkorea.or.kr/img/call?cmd=VIEW&id=c3644099-9526-490c-9877-3885d98507a3&thumb,대구광역시 북구 대학로 80,35.88909749,128.6143223,
51,패션디자인개발지원센터,대구 북구,053-721-7400,"['경상권', '문화공간', '문화시설', '문화콘텐츠산업', '복합문화공간', '사계절']",https://cdn.visitkorea.or.kr/img/call?cmd=VIEW&id=c315a772-0cd9-48a7-806b-de2791fa8766&thumb,대구광역시 북구 유통단지로14길 17,35.90617968,128.6117418,
52,동원화랑,대구 중구,053-423-1300,"['기차여행', '나들이', '데이트코스', '동원화랑', '문화시설', '미술관', '실내여행지']",https://cdn.visitkorea.or.kr/img/call?cmd=VIEW&id=46963259-4611-4a0e-8492-71963901dc6d&thumb,대구광역시 중구 봉산문화길 42,35.86200474,128.5981419,
53,맥향화랑,대구 중구,053-421-2005,"['공연', '문화공간', '문화시설', '문화예술', '미술품', '복합문화공간', '전시', '전시/공연']",https://cdn.visitkorea.or.kr/img/call?cmd=VIEW&id=3e26e796-bb2e-40d3-96c6-aa588a01f683&thumb,대구광역시 중구 동덕로 74,35.86145989,128.603849,
54,작은 중앙가족박물관(한방개인박물관),대구 중구,070-8977-6606,"['가족여행', '문화시설', '아이와 함께', '역사와전통', '이색체험', '작은중앙가족박물관']",https://cdn.visitkorea.or.kr/img/call?cmd=VIEW&id=8ae780d2-fa33-4a1c-9f97-45a15c75960b&thumb,대구광역시 중구 중앙대로77길 50-5,35.86865711,128.5909303,
55,신미화랑,대구 중구,053-424-1442,"['문화공간', '문화시설', '미술작품', '복합문화공간', '예술거리', '예술품', '전시']",https://cdn.visitkorea.or.kr/img/call?cmd=VIEW&id=528294cc-1468-47ce-b65c-91a5b39aa7af&thumb,대구 중구 봉산문화길 34,35.861653999999994,128.5980819,
56,중앙갤러리,대구 중구,053-425-0808,"['문화시설', '미술관', '아이와 함께', '중앙갤러리', '친구와 함께']",https://cdn.visitkorea.or.kr/img/call?cmd=VIEW&id=a3869c49-8aa3-43c8-a05e-9d8dd812c796&thumb,대구 중구 봉산문화길 34,35.861653999999994,128.5980819,
57,갤러리소헌,대구 중구,053-426-0621,"['문화공간', '문화시설', '문화예술', '복합문화공간', '열린문화공간', '전시', '현대미술']",https://cdn.visitkorea.or.kr/img/call?cmd=VIEW&id=84f317f6-b39e-4ae6-930a-2b866bba696b&thumb,대구광역시 중구 봉산문화길 34,35.861653999999994,128.5980819,
58,예송갤러리,대구 중구,053-426-1515,"['문화시설', '문화예술', '예송갤러리', '예술공간', '전시관']",https://cdn.visitkorea.or.kr/img/call?cmd=VIEW&id=86ee4cdd-e161-4974-9f6f-dd1726d56173&thumb,대구광역시 중구 봉산문화길 56,35.86259382,128.5975792,
59,고모역복합문화공간,대구 수성구,053-791-3334,"['고모역', '고모역복합문화공간', '대구', '문화시설', '복합문화공간']",https://cdn.visitkorea.or.kr/img/call?cmd=VIEW&id=4a0d9a79-a997-4d8f-8ccb-93c29f82726a&thumb,대구광역시 수성구 고모로 208,35.85823431,128.6786155,
60,반야월역사작은도서관,대구 동구,053-662-4110,"['문화시설', '반야월역', '반야월역사작은도서관']",https://cdn.visitkorea.or.kr/img/call?cmd=VIEW&id=8e58a386-8664-4e38-8750-15cf626bfc50&thumb,대구광역시 동구 신서로 50,35.87250383,128.7249556,
61,이월드 83타워,대구 달서구,053-620-0001,"['가족여행', '경상권', '관광지', '데이트코스', '도심여행', '미세먼지_피하는_실내여행']",https://cdn.visitkorea.or.kr/img/call?cmd=VIEW&id=415873ec-7fb7-495f-879f-cdb2dc3121b9&thumb,대구광역시 달서구 두류공원로 200,35.85485542,128.564821,
62,국립대구박물관,대구 수성구,053-768-6051,"['국립대구박물관', '데이트코스', '무료관람', '문화시설', '미세먼지_피하는_실내여행']",https://cdn.visitkorea.or.kr/img/call?cmd=VIEW&id=2a57aaa4-d3b8-4829-9ec9-2fb0353dc5b1&thumb,대구광역시 수성구 청호로 321,35.84557453,128.6383419,
63,계명대학교 행소박물관,대구 달서구,053-580-6992,"['계명대학교행소박물관', '무료관람', '문화시설', '박물관', '수도권', '실내여행지']",https://cdn.visitkorea.or.kr/img/call?cmd=VIEW&id=4abc27a3-441e-43f8-872b-218a2fc3c2c2&thumb,대구광역시 달서구 달구벌대로 1095,35.85355435,128.4814938,
64,향촌문화관,대구 중구,053-661-2331,"['경상권', '문화시설', '미세먼지_피하는_실내여행', '설날연휴가볼만한곳', '실내관광지']",https://cdn.visitkorea.or.kr/img/call?cmd=VIEW&id=2b34176f-174b-4955-8d40-96ff19e39413&thumb,대구광역시 중구 중앙대로 449,35.8734081,128.5941862,
65,향토역사관,대구 중구,053-606-6421,"['경상권', '교과서속여행', '기념관', '문화시설', '박물관', '사계절', '실내여행지']",https://cdn.visitkorea.or.kr/img/call?cmd=VIEW&id=a8734580-3678-438a-8ad1-ebc529894827&thumb,대구광역시 중구 달성공원로 35,35.87339859,128.57591829999998,
66,대백프라자갤러리,대구 중구,053-420-8015,"['가족여행', '기차여행', '대백프라자갤러리', '문화시설', '미술관', '실내여행지']",https://cdn.visitkorea.or.kr/img/call?cmd=VIEW&id=2868aa31-8b4f-49da-846e-a575dc0d9222&thumb,대구광역시 중구 명덕로 333,35.85571704,128.6063616,
67,대구오페라하우스,대구 북구,053-666-6000,"['대구오페라하우스', '도심여행', '문화시설', '실내여행지', '연인과함께', '음악회']",https://cdn.visitkorea.or.kr/img/call?cmd=VIEW&id=3989e948-b7b0-4d3d-a682-cd94db1df0a0&thumb,대구광역시 북구 호암로 15,35.88346535,128.5922331,
68,수성구립 고산도서관,대구 수성구,053-668-1900,"['경상권', '독서여행', '문화시설', '수성구립고산도서관', '실내여행지', '아이와함께']",https://cdn.visitkorea.or.kr/img/call?cmd=VIEW&id=2c1aa1c2-4e8b-4327-a60f-999905677391&thumb,대구광역시 수성구 달구벌대로650길 6,35.83790532,128.7106325,
69,수성구립 용학도서관,대구 수성구,053-668-1700,"['독서여행', '문화공간', '문화시설', '복합문화공간', '실내여행지', '아이와함께']",https://cdn.visitkorea.or.kr/img/call?cmd=VIEW&id=03fa11f7-a40a-44dd-a7b5-382ea7470f9c&thumb,대구광역시 수성구 지범로41길 36,35.82120889999999,128.6461307,
70,대구콘서트하우스 (구.대구시민회관),대구 중구,053-250-1400,"['가족여행', '공연장', '기차여행', '나들이', '대구시민회관', '대구콘서트하우스']",https://cdn.visitkorea.or.kr/img/call?cmd=VIEW&id=8e916593-20c8-44d1-a86d-6d1f356b74a3&thumb,대구광역시 중구 태평로 141,35.87605900000001,128.5936972,
71,대구 중구문화원,대구 중구,053-255-5123,"['경상권', '대구중구문화원', '문화', '문화시설', '문화원', '사계절', '실내여행지']",https://cdn.visitkorea.or.kr/img/call?cmd=VIEW&id=9c9c3df3-48c1-42ca-ae84-86160f0351f8&thumb,대구광역시 중구 봉산문화길 77,35.86339725,128.59656470000002,
72,동원화랑,대구 중구,053-423-1300,"['기차여행', '나들이', '데이트코스', '동원화랑', '문화시설', '미술관', '실내여행지']",https://cdn.visitkorea.or.kr/img/call?cmd=VIEW&id=46963259-4611-4a0e-8492-71963901dc6d&thumb,대구광역시 중구 봉산문화길 42,35.86200474,128.5981419,
73,대구사격장,대구 북구,053-312-0000,"['대구북구', '레포츠', '사격장', '실내레포츠', '실내스크린사격', '친구와함께']",https://cdn.visitkorea.or.kr/img/call?cmd=VIEW&id=a52dd52c-3af1-4964-b511-d6cce142f010&thumb,대구광역시 북구 문주길 170,35.91129570000001,128.5243312,0.0
74,별빛캠프 캠핑장,대구 달서구,053-667-3191,"['가족과함께', '남녀노소', '레포츠', '아이와함께', '오토캠핑장', '자연환경', '캠핑장']",https://cdn.visitkorea.or.kr/img/call?cmd=VIEW&id=3d330c1e-dc66-4b7c-8e1c-51f178fd3543&thumb,대구광역시 달서구 앞산순환로 248,35.8211005,128.5574352,1.0
75,[대구올레 팔공산 4코스] 평광동 왕건길,대구 수성구,053-985-8030,['레포츠'],https://cdn.visitkorea.or.kr/img/call?cmd=VIEW&id=a51954a6-19d3-430a-9379-0f6fb5e7c5d9&thumb,대구광역시 수성구 신천동로86안길 14-6,35.8619027,128.61234620000002,2.0
76,이월드 눈썰매장,대구 달서구,053-620-0001,"['겨울스포츠', '경상권', '눈썰매장', '레포츠', '복합레저스포츠', '아이와함께']",https://cdn.visitkorea.or.kr/img/call?cmd=VIEW&id=a3b99204-1821-41a9-bc56-00897ae68fa7&thumb,대구광역시 달서구 두류공원로 200,35.8540248,128.5634167,3.0
77,이월드 83타워 아이스링크,대구 달서구,83 053-620-0001,"['겨울스포츠', '레포츠', '스케이트장', '아이스링크', '아이와함께', '연인과함께']",https://cdn.visitkorea.or.kr/img/call?cmd=VIEW&id=9c8cd00b-794d-4905-bf63-57fa2c67a418&thumb,대구광역시 달서구 두류공원로 200,35.8540248,128.5634167,4.0
78,[대구올레 팔공산 1코스] 북지장사 가는 길,대구 수성구,053-985-8030,['레포츠'],https://cdn.visitkorea.or.kr/img/call?cmd=VIEW&id=41f3d5a2-0cc2-46aa-b09d-8a76220e4d96&thumb,대구광역시 동구 도장길 10,35.9639625,128.6990934,5.0
79,[대구올레 팔공산 3코스] 부인사 도보길,대구 수성구,053-985-8030,['레포츠'],https://cdn.visitkorea.or.kr/img/call?cmd=VIEW&id=7afcda8e-8e85-455f-accf-6f170f1959aa&thumb,대구광역시 수성구 신천동로86안길 14-6,35.8619027,128.61234620000002,6.0
80,대구실내빙상장,대구 북구,053-357-6021,"['경상권', '대구실내빙상장', '레포츠', '실내빙상장']",https://cdn.visitkorea.or.kr/img/call?cmd=VIEW&id=e981feb5-f730-459a-ab8a-43b7dafd7ab2&thumb,대구광역시 북구 고성로 191,35.8822438,128.5873807,7.0
81,[대구올레 팔공산 6코스] 단산지 가는 길,대구 수성구,053-985-8030,['레포츠'],https://cdn.visitkorea.or.kr/img/call?cmd=VIEW&id=9c23c517-84c4-4e98-a0c0-821be8495a9c&thumb,대구광역시 수성구 신천동로86안길 14-6,35.8619027,128.61234620000002,8.0
82,달서구청소년수련관,대구 달서구,053-639-7101,"['경상권', '달서구청소년수련관', '레포츠', '청소년수련관']",https://cdn.visitkorea.or.kr/img/call?cmd=VIEW&id=b4cba9db-963a-41ca-bb5a-e83ab1503890&thumb,대구광역시 달서구 상화로 420,35.80719879999999,128.55944879999998,9.0
83,[대구올레 팔공산 5코스] 구암마을 가는 길,대구 수성구,053-985-8030,['레포츠'],https://cdn.visitkorea.or.kr/img/call?cmd=VIEW&id=d0bde173-5f91-4569-861f-ecb95cd4a7ca&thumb,대구광역시 수성구 신천동로86안길 14-6,35.8619027,128.61234620000002,10.0
84,대구스타디움,대구 수성구,053-602-2033,"['경상권', '대구스타디움', '레포츠', '스포츠체험', '실내경기장']",https://cdn.visitkorea.or.kr/img/call?cmd=VIEW&id=907fb7d3-a35a-4b3a-88dd-d37ef221edaf&thumb,대구광역시 수성구 유니버시아드로 180,35.8298301,128.690203,11.0
85,[대구올레 팔공산 8코스] 수태지 계곡길,대구 동구,053-985-8030,"['걷기길', '레포츠', '산책길', '산책로', '산책코스', '산책하기좋은곳', '친구와함께']",https://cdn.visitkorea.or.kr/img/call?cmd=VIEW&id=7a195d54-d989-45ed-9438-24550cbf2fed&thumb,대구광역시 동구 동화사1길 1,35.9929105,128.7039968,12.0
86,에코어드벤쳐,대구 달성군,053-767-6300,"['가족여행', '대구시', '레포츠', '에코어드벤처', '자연환경']",https://cdn.visitkorea.or.kr/img/call?cmd=VIEW&id=fb9b4830-7cc2-48b3-bf28-067bedb05d37&thumb,대구 달성군 가창면 가창로 1003,35.7929375,128.6264375,13.0
87,[대구올레 팔공산 2코스] 한실골 가는 길,대구 수성구,053-985-8030,['레포츠'],https://cdn.visitkorea.or.kr/img/call?cmd=VIEW&id=157583b8-193e-40fe-9589-e0c0f1bb5f2b&thumb,대구광역시 수성구 신천동로86안길 10,35.8619989,128.6122086,14.0
88,DGB 대구은행파크,대구 북구,053-222-3600,['레포츠'],https://cdn.visitkorea.or.kr/img/call?cmd=VIEW&id=0bce0470-12f3-40e4-9580-f300f136d0ed&thumb,대구 북구 고성로 191,35.8822438,128.5873807,15.0
89,앞산자락길,대구 남구,053-803-7467,"['고산골메타쉐콰이어길', '대구남구', '레포츠', '산책코스']",https://cdn.visitkorea.or.kr/img/call?cmd=VIEW&id=e13d44cd-6d41-45d5-987a-9e0874207f52&thumb,대구광역시 남구 용두2길 43,35.83000410000001,128.6034426,16.0
90,학생문화센터 수영장,대구 달서구,053-231-1288,"['대구수영장', '레포츠', '문화센터', '수영장']",https://cdn.visitkorea.or.kr/img/call?cmd=VIEW&id=74826c56-8ac1-4d4d-92e2-3b92dfb111ce&thumb,대구광역시 달서구 용산로 181,35.8530407,128.52949850000002,17.0
91,대구시민운동장,대구 북구,053-606-8200,"['대구북구', '대구시민운동장', '레포츠', '축구경기장']",https://cdn.visitkorea.or.kr/img/call?cmd=VIEW&id=9b007f3d-2b8e-4472-989a-5eb54cd2a37b&thumb,대구광역시 북구 고성로35길 12-1,35.8816223,128.5850924,18.0
92,대구광역시청소년수련원,대구 달서구,053-656-6655,['레포츠'],https://cdn.visitkorea.or.kr/img/call?cmd=VIEW&id=37c5e893-1af3-4593-aa55-76377c032f58&thumb,대구광역시 달서구 앞산순환로 180,35.8204704,128.55330690000002,19.0
93,대덕승마장,대구 달서구,053-656-0467,['레포츠'],https://cdn.visitkorea.or.kr/img/call?cmd=VIEW&id=a719d501-e4f7-4a5f-88df-12ac478d62de&thumb,대구광역시 달서구 앞산순환로 206,35.8216975,128.5544088,20.0
94,웃는얼굴아트센터 수영장,대구 달서구,053-582-1900,"['대구수영장', '레포츠', '수영장', '실내수영장']",https://cdn.visitkorea.or.kr/img/call?cmd=VIEW&id=ae7be348-fabf-4502-a4a3-951d0f5d70d8&thumb,대구광역시 달서구 문화회관길 160,35.8433779,128.52284440000003,21.0
95,[대구올레 팔공산 7코스] 폭포골 가는 길,대구 동구,053-985-8030,['레포츠'],https://cdn.visitkorea.or.kr/img/call?cmd=VIEW&id=48eacb2c-4dba-4d3d-9073-c60e75fed26c&thumb,대구광역시 동구 팔공산로237길 147,35.9873344,128.7097684,22.0
96,두류수영장(실내),대구 달서구,053-623-2156,['레포츠'],https://cdn.visitkorea.or.kr/img/call?cmd=VIEW&id=f135d60e-fa71-4565-943e-ec8796cf0c4f&thumb,대구광역시 달서구 공원순환로 237,35.8466284,128.5621046,23.0
97,대구수성구청소년수련관,대구 수성구,053-761-9400,['레포츠'],https://cdn.visitkorea.or.kr/img/call?cmd=VIEW&id=d27b18e7-e99e-4cbf-9b1c-4275cb0f30ad&thumb,대구광역시 수성구 청수로45길 100,35.84484310000001,128.6319043,24.0
98,수성구민운동장,대구 수성구,053-666-3182,['레포츠'],https://cdn.visitkorea.or.kr/img/call?cmd=VIEW&id=6aa0aec4-ffa9-4e26-8314-c8e173226c23&thumb,대구 수성구 범어동 633-1,35.84993520000001,128.6297427,25.0
99,FM테마,대구 중구,053-421-5581,"['레포츠', '여행레저', '종합레저']",https://cdn.visitkorea.or.kr/img/call?cmd=VIEW&id=undefined&thumb,대구광역시 중구 동덕로 55,35.8670408,128.6069034,26.0
100,팔공컨트리클럽,대구 동구,053-982-8080,['레포츠'],https://cdn.visitkorea.or.kr/img/call?cmd=VIEW&id=6e85da54-746d-4c31-8540-5851677b4205&thumb,대구광역시 동구 팔공산로237길 186,35.9901907,128.7210916,27.0
101,대구 서문시장 & 서문시장 야시장,대구 중구,053-256-6341,"['가족여행', '경상권', '기차여행', '나들이', '나홀로여행', '대구서문시장', '먹거리']",https://cdn.visitkorea.or.kr/img/call?cmd=VIEW&id=f77259df-8bf1-4250-b49f-fa2175012858&thumb,대구광역시 중구 큰장로26길 45,35.86890721,128.58077179999998,
102,대구 평화시장,대구 동구,053-956-8413,"['가족여행', '나들이', '닭똥집골목', '대구평화시장', '데이트코스', '먹거리', '쇼핑']",https://cdn.visitkorea.or.kr/img/call?cmd=VIEW&id=e5030e24-ea34-437c-b2e5-7caafec8e485&thumb,대구광역시 동구 아양로9길 10,35.88300569,128.6192564,
103,대구 칠성시장,대구 북구,053-423-3480,"['가족여행', '나들이', '대구칠성시장', '데이트코스', '먹거리', '쇼핑', '시장맛집']",https://cdn.visitkorea.or.kr/img/call?cmd=VIEW&id=8d717338-1ecb-4be0-93d0-ad5ee7f73db3&thumb,대구광역시 북구 칠성시장로 28,35.87697957,128.604501,
104,관문시장,대구 남구,053-627-2610,"['가족여행', '경상권', '관문시장', '기차여행', '나들이', '나홀로여행', '데이트코스']",https://cdn.visitkorea.or.kr/img/call?cmd=VIEW&id=00201d40-943a-4b04-b589-0938a716cdb5&thumb,대구광역시 남구 대명서7길 24-3,35.83561144,128.5579765,
105,대구 봉덕시장,대구 남구,053-471-2849,"['가족여행', '경상권', '기차여행', '나들이', '나홀로여행', '대구봉덕시장', '데이트코스']",https://cdn.visitkorea.or.kr/img/call?cmd=VIEW&id=c2787551-b61e-488e-87ef-cf30b3243daa&thumb,대구광역시 남구 봉덕로 115,35.84513894,128.6033943,
106,"현풍장 (5, 10일)",대구 달성군,053-668-2645,"['가족여행', '경상권', '기차여행', '나들이', '나홀로여행', '먹거리', '쇼핑', '시장맛집']",https://cdn.visitkorea.or.kr/img/call?cmd=VIEW&id=24835e48-ba26-4bdb-916e-6c10dcd5fef7&thumb,대구광역시 달성군 현풍면 비슬로130길 53-1,35.69434279999999,128.4423992,
107,퀸스로드,대구 서구,053-552-4800,"['복합문화공간', '쇼핑', '유럽풍', '유명브랜드', '패션아울렛']",https://cdn.visitkorea.or.kr/img/call?cmd=VIEW&id=4e9fe353-2636-411a-8227-de9cc26df122&thumb,대구광역시 서구 평리로35길 18-17,35.86170003,128.5451114,
108,대구 안지랑시장,대구 남구,053-652-6569,"['가족여행', '나들이', '데이트코스', '먹거리', '쇼핑', '시장맛집', '아이와함께']",https://cdn.visitkorea.or.kr/img/call?cmd=VIEW&id=8f5ce47d-09cf-4a6f-a32c-9a195490e64c&thumb,대구광역시 남구 대명로36길 19,35.83808854,128.5760507,
109,그랜드면세점(대구시내점),대구 수성구,053-251-2000,"['대구', '대구가볼만한곳', '면세점', '쇼핑']",https://cdn.visitkorea.or.kr/img/call?cmd=VIEW&id=436bee7e-8b8f-48d1-b965-3fa343a2eaa9&thumb,대구광역시 수성구 동대구로 305,35.85767615,128.6249847,
110,대구국제공항 면세점,대구 동구,1800-1160,"['공항', '대구', '면세점', '쇼핑']",https://cdn.visitkorea.or.kr/img/call?cmd=VIEW&id=f36b4dc3-d803-49e2-a2e3-5bf948a82fcc&thumb,대구광역시 동구 공항로 221,35.89910868,128.6392615,
111,대구종합유통단지관리공단,대구 북구,053-381-3690,"['대구산업', '대구쇼핑', '쇼핑', '테마상가']",https://cdn.visitkorea.or.kr/img/call?cmd=VIEW&id=af7123cd-4696-42f6-9a1d-30e141adf895&thumb,대구광역시 북구 유통단지로13길 9,35.90821539,128.60912539999998,
112,대구 한약재 도매시장,대구 중구,053-257-0545,"['가족여행', '경상권', '나들이', '나홀로여행', '대구한약재도매시장', '먹거리']",https://cdn.visitkorea.or.kr/img/call?cmd=VIEW&id=35337bb0-057a-4e24-b8e3-a0b29dbc6d9c&thumb,대구광역시 중구 남성로 51-1,35.86728197,128.5923712,
113,"불로장 / 불로전통시장 (5, 10일)",대구 동구,053-982-8588,"['가족여행', '경상권', '기차여행', '나들이', '나홀로여행', '먹거리', '불로장', '불로전통시장']",https://cdn.visitkorea.or.kr/img/call?cmd=VIEW&id=bd1c4a8d-e4de-447e-a529-641f02d05f15&thumb,대구광역시 동구 팔공로26길 9-1,35.91040108,128.6419422,
114,핫트랙스 (대구점),대구 중구,053-425-9961,"['기프트아이템', '대구쇼핑', '문구', '복합문화쇼핑공간', '쇼핑']",https://cdn.visitkorea.or.kr/img/call?cmd=VIEW&id=4484d370-adf8-4f6f-a1d8-fd1e6af27b87&thumb,대구광역시 중구 국채보상로 586,35.87059419,128.594818,
115,원대가구 명물거리,대구 서구,053-663-3004,"['가구', '명물거리', '사무용가구', '쇼핑', '유명브랜드']",https://cdn.visitkorea.or.kr/img/call?cmd=VIEW&id=271bdbb7-408d-4d6b-a134-96df45208ef4&thumb,대구광역시 서구 원대동3가,35.88464737,128.576298,
116,동아아울렛 (본점),대구 중구,1577-0111,"['대구아울렛', '쇼핑', '아울렛', '유명브랜드']",https://cdn.visitkorea.or.kr/img/call?cmd=VIEW&id=5d3be21b-65f9-416e-a7be-4356c711cf79&thumb,대구광역시 중구 경상감영길 171,35.87261511,128.5968916,
117,천미사 (상감입사장),대구 수성구,053-768-0021,"['공예품', '무형문화재', '생활용품', '쇼핑']",https://cdn.visitkorea.or.kr/img/call?cmd=VIEW&id=82305f19-e75e-43c7-a424-b7a6329347cc&thumb,대구광역시 수성구 들안로 108,35.83953635,128.6171369,
118,대림목공예,대구 동구,053-982-3455,"['경상권', '대림목공예', '목공예', '쇼핑']",https://cdn.visitkorea.or.kr/img/call?cmd=VIEW&id=abc36915-5db7-4150-b5cd-a1c89455f5f4&thumb,대구광역시 동구 공항로33길 21,35.90292460000001,128.6331256,
119,방천시장,대구 중구,,"['대구', '쇼핑', '시장', '재래시장']",https://cdn.visitkorea.or.kr/img/call?cmd=VIEW&id=fb37536f-7fcc-4de6-a4a2-bcf8dc57081b&thumb,대구광역시 중구 달구벌대로446길,35.86166702,128.6058217,
