,name,region,tel,keyword,photo,address,lat,lon,Unnamed: 0
0,장기려기념 더 나눔센터,부산 동구,051-468-1248,"['가족과함께', '문화공간', '문화시설', '미세먼지_피하는_실내여행', '실내데이트']",https://cdn.visitkorea.or.kr/img/call?cmd=VIEW&id=e15752a1-b681-4d35-920c-fd6ee1fa4871&thumb,부산광역시 동구 영초윗길 48,35.11853779,129.0326545,
1,국립부산과학관,부산 기장군,051-750-2300,"['가족체험여행', '경상권', '국립부산과학관', '무더위_피해_실내놀이', '문화시설']",https://cdn.visitkorea.or.kr/img/call?cmd=VIEW&id=90ab1001-ee2d-4bdc-87b7-ec6e4d1ea76e&thumb,부산광역시 기장군 기장읍 동부산관광6로 59,35.20459705,129.2127019,
2,SEA LIFE 부산아쿠아리움,부산 해운대구,051-740-1700,"['가족과함께', '경상권', '남녀노소', '도심여행', '문화시설', '문화행사', '미세먼지_피하는_실내여행']",https://cdn.visitkorea.or.kr/img/call?cmd=VIEW&id=bd0e0acb-4f95-4b4a-a3a8-4564ed721377&thumb,부산광역시 해운대구 해운대해변로 266,35.15919963,129.1610154,
3,누리마루 APEC하우스,부산 해운대구,051-743-1974,"['가족과함께', '경상권', '경치좋은곳', '교육여행', '남녀노소', '누리마루APEC하우스']",https://cdn.visitkorea.or.kr/img/call?cmd=VIEW&id=2a434fdb-22a0-40a3-ba25-d709a0bcfc9b&thumb,부산광역시 해운대구 동백로 116,35.15234205,129.15136189999998,
4,부산세관박물관,부산 중구,051-620-6092,"['경상권', '기차여행', '문화시설', '박물관', '부산세관박물관', '아이와함께', '이색체험']",https://cdn.visitkorea.or.kr/img/call?cmd=VIEW&id=64b709a8-200e-4788-8d01-e7bb56ec78c0&thumb,부산광역시 중구 충장대로 20,35.1046453,129.0378806,
5,국립해양박물관,부산 영도구,051-309-1900,"['경상권', '교과서속여행', '국립해양박물관', '단체관광', '문화시설', '사계절']",https://cdn.visitkorea.or.kr/img/call?cmd=VIEW&id=879e8178-1b02-4578-beda-a0a9993baf99&thumb,부산광역시 영도구 해양로301번길 45,35.07856342,129.0802449,
6,부산근대역사관,부산 중구,051-253-3845,"['경상권', '교과서속여행', '문화시설', '박물관', '부산근대역사관', '아이와함께']",https://cdn.visitkorea.or.kr/img/call?cmd=VIEW&id=ef217477-7c42-4ac7-b507-a219b3d8f38e&thumb,부산광역시 중구 대청로 104,35.10267057,129.0311595,
7,부산 트릭아이뮤지엄,부산 중구,051-557-1577,"['가족여행', '경상권', '데이트코스', '문화시설', '부산가볼만한곳', '사계절', '사진찍기']",https://cdn.visitkorea.or.kr/img/call?cmd=VIEW&id=89babaf6-46c6-4105-8d5e-2774436d2723&thumb,부산광역시 중구 대청로126번길 12,35.10169228,129.033592,
8,부산 반여도서관,부산 해운대구,051-783-4010,"['독서여행', '문화시설', '반여도서관', '부산', '아이와 함께', '친구와 함께']",https://cdn.visitkorea.or.kr/img/call?cmd=VIEW&id=94e39f90-a0cf-437c-8522-402e289473ea&thumb,부산광역시 해운대구 재반로282번길 38,35.20202568,129.13381040000002,
9,동의대학교 중앙도서관,부산 부산진구,051-890-1160,"['경상권', '도서관', '동의대학교중앙도서관', '문화시설']",https://cdn.visitkorea.or.kr/img/call?cmd=VIEW&id=222e5f3d-76e5-451a-ab41-cbfa3190caff&thumb,부산광역시 부산진구 엄광로 176,35.14432081,129.0363092,
10,부산현대미술관,부산 사하구,051-220-7400,"['문화시설', '문화예술', '문화예술공간', '미세먼지_피하는_실내여행', '복합문화공간']",https://cdn.visitkorea.or.kr/img/call?cmd=VIEW&id=b1cef700-f2b8-42e2-85a6-99b291dc7960&thumb,부산광역시 사하구 낙동남로 1191,35.10933193,128.9426936,
11,정관박물관,부산 기장군,051-720-6900,"['기장군', '문화시설', '문화유적', '미세먼지_피하는_실내여행', '부산광역시']",https://cdn.visitkorea.or.kr/img/call?cmd=VIEW&id=bad9ad60-80fa-4141-8a36-15badb06160d&thumb,부산광역시 기장군 정관읍 정관중앙로 122,35.32680782,129.1848654,
12,부산 스마트시티 전시관,부산 해운대구,051-749-9491,"['가족과함께', '경상권', '남녀노소', '문화시설', '미세먼지_피하는_실내여행']",https://cdn.visitkorea.or.kr/img/call?cmd=VIEW&id=c49e4469-cef5-4155-a8dc-6255668feaa0&thumb,부산광역시 해운대구 센텀동로 41,35.17285196,129.1307191,
13,부산해양자연사박물관,부산 동래구,051-553-4944,"['경상권', '교과서속여행', '문화시설', '박물관', '부산해양자연사박물관', '아이와함께']",https://cdn.visitkorea.or.kr/img/call?cmd=VIEW&id=3b7a2b13-762a-43b4-89d8-a8c66c8965fc&thumb,부산광역시 동래구 우장춘로 175,35.22196011,129.0756476,
14,이바구공작소,부산 동구,051-468-0289,"['감성사진', '남녀노소', '문화시설', '복합문화공간', '사진여행', '사진찍기', '사진찍기좋은곳']",https://cdn.visitkorea.or.kr/img/call?cmd=VIEW&id=4073e5ca-0e61-4433-a4b9-51a61a47a813&thumb,부산광역시 동구 망양로486번길 14-13,35.11709939,129.03382209999998,
15,벡스코(BEXCO),부산 해운대구,051-740-7300,"['가족여행', '경상권', '기차여행', '문화시설', '벡스코', '복합문화공간', '아이와함께']",https://cdn.visitkorea.or.kr/img/call?cmd=VIEW&id=4a247eae-dff3-4b9e-999c-a604896f7122&thumb,부산광역시 해운대구 APEC로 55,35.16906372,129.1360183,
16,부산시립미술관,부산 해운대구,051-744-2602,"['데이트코스', '문화시설', '미술관', '부산시립미술관', '실내여행지', '아이와함께']",https://cdn.visitkorea.or.kr/img/call?cmd=VIEW&id=3e362471-c362-403e-b167-cba24c28fda9&thumb,부산광역시 해운대구 APEC로 58,35.16668716,129.1370273,
17,부산금정도서관,부산 금정구,051-519-5601,"['금정구', '도서관', '독서', '무장애', '문화시설', '부산']",https://cdn.visitkorea.or.kr/img/call?cmd=VIEW&id=654ee71a-dc8c-4ba8-a8a2-5a571213e86e&thumb,부산광역시 금정구 금정도서관로 33,35.27261321,129.09618170000002,
18,부산어촌민속관,부산 북구,051-363-3333,"['겨울방학가볼만한곳', '경상권', '문화시설', '부산어촌민속관', '아이와함께']",https://cdn.visitkorea.or.kr/img/call?cmd=VIEW&id=56abf3be-1a23-40cc-8ca1-33b037d157dd&thumb,부산광역시 북구 학사로 128,35.23375269,129.00845379999998,
19,부산박물관,부산 남구,051-610-7118,"['교과서속여행', '기차여행', '문화시설', '박물관', '부산박물관', '아이와함께']",https://cdn.visitkorea.or.kr/img/call?cmd=VIEW&id=4aca0962-c8b1-4b87-85a3-f6a3241371e7&thumb,부산광역시 남구 유엔평화로 63,35.1295556,129.0929417,
20,부산광역시 영도도서관,부산 영도구,051-419-4821,"['경상권', '도서관', '문화시설', '영도도서관']",https://cdn.visitkorea.or.kr/img/call?cmd=VIEW&id=7b96885a-a53d-4a37-a852-5c3a78eccc40&thumb,부산광역시 영도구 함지로79번길 6,35.07526538,129.06685900000002,
21,유엔평화기념관,부산 남구,051-901-1400,"['기념관', '남구', '대구광역시', '무더위_피해_실내여행', '무장애', '문화시설']",https://cdn.visitkorea.or.kr/img/call?cmd=VIEW&id=d275ef20-8536-41f3-a99b-32b6823a9f1e&thumb,부산광역시 남구 홍곡로320번길 106,35.12475247,129.0932569,
22,수산과학관(부산),부산 기장군,051-720-3061,"['기차여행', '문화시설', '수산과학관', '실내여행지', '아이와함께', '이색체험']",https://cdn.visitkorea.or.kr/img/call?cmd=VIEW&id=93e979c4-ae2a-4529-acae-a0b075016aae&thumb,부산광역시 기장군 기장읍 기장해안로 216,35.19109529,129.2222841,
23,해운대문화회관,부산 해운대구,051-749-7651,"['가족과함께', '문화공간', '문화시설', '문화예술', '문화예술활동', '복합문화공간']",https://cdn.visitkorea.or.kr/img/call?cmd=VIEW&id=a162cbc6-17a5-4cf8-a485-13a77cea5745&thumb,부산광역시 해운대구 양운로 97,35.17117133,129.17396599999998,
24,부산자유회관(부산통일관),부산 부산진구,051-808-7960,"['경상권', '교과서속여행', '문화시설', '부산자유회관', '부산통일관', '실내여행지']",https://cdn.visitkorea.or.kr/img/call?cmd=VIEW&id=e354aa1e-2a73-4af6-ac32-306e025edecf&thumb,부산광역시 부산진구 초읍천로 113-10,35.18232366,129.04561840000002,
25,동래문화회관,부산 동래구,051-550-6611,"['공연장', '동래구', '무장애', '문화공간', '문화시설', '복합문화공간', '부산', '야외공연장']",https://cdn.visitkorea.or.kr/img/call?cmd=VIEW&id=4e7b8425-e824-4883-99c7-a74d12603566&thumb,부산광역시 동래구 문화로 80,35.21195069,129.090546,
26,조선통신사역사관,부산 동구,051-631-0858,"['가족여행', '경상권', '문화시설', '문화행사', '사계절', '아이와함께', '역사공부']",https://cdn.visitkorea.or.kr/img/call?cmd=VIEW&id=c8c69723-03d9-40c2-be2f-11efe738ec6c&thumb,부산광역시 동구 자성로 99,35.13574252,129.0604498,
27,을숙도문화회관,부산 사하구,051-220-5811,"['공연장', '무장애', '문화공간', '문화시설', '문화예술', '문화예술공간', '복합문화공간']",https://cdn.visitkorea.or.kr/img/call?cmd=VIEW&id=825edd89-9861-4f23-8fa8-1fa8ccab4236&thumb,부산광역시 사하구 낙동남로1233번길 25,35.11003324,128.9449571,
28,부산광역시립 중앙도서관,부산 중구,051-250-0300,"['문화시설', '부산광역시립중앙도서관', '부산중구', '아이와함께']",https://cdn.visitkorea.or.kr/img/call?cmd=VIEW&id=180b6cef-7cc8-42e6-a55e-0592010d4f52&thumb,부산광역시 중구 망양로193번길 146,35.11002407,129.0270689,
29,부산문화회관,부산 남구,051-607-6000,"['가족여행', '공연장', '기차여행', '나들이', '데이트코스', '문화시설', '부산문화회관']",https://cdn.visitkorea.or.kr/img/call?cmd=VIEW&id=0989e650-4e80-40fe-a880-285102f998e7&thumb,부산광역시 남구 유엔평화로76번길 1,35.12718493,129.0934781,
30,부산 강서문화원,부산 강서구,051-972-6369,"['교육', '문화강좌', '문화시설', '부산강서문화원', '열린문화공간']",https://cdn.visitkorea.or.kr/img/call?cmd=VIEW&id=b434c596-1e17-420d-b217-08d6609a76c0&thumb,부산광역시 강서구 낙동북로 477,35.21220294,128.9805851,
31,한국기독교선교박물관,부산 동래구,051-555-3096,"['기획전시', '문화시설', '복합문화공간', '부산가볼만한곳', '상설전시', '열린문화공간']",https://cdn.visitkorea.or.kr/img/call?cmd=VIEW&id=7d2d1909-2dd9-419f-8a2d-2645820a7c4b&thumb,부산광역시 동래구 충렬대로202번가길 13,35.20171706,129.0824374,
32,부산 금정문화회관,부산 금정구,051-519-5651,"['가족과함께', '문화공간', '문화시설', '문화예술', '복합문화공간', '아이와함께']",https://cdn.visitkorea.or.kr/img/call?cmd=VIEW&id=309f151b-4b1e-4769-9be0-73fa8a24389d&thumb,부산광역시 금정구 체육공원로 7,35.24591915,129.0944742,
33,백산기념관,부산 중구,051-600-4067,"['독립운동', '문화시설', '백산기념관', '백산안희제선생', '역사']",https://cdn.visitkorea.or.kr/img/call?cmd=VIEW&id=7caa1c8e-02d1-4703-8d8d-2ec26df20ad0&thumb,부산광역시 중구 백산길 11 백산기념관,35.10195934,129.0345669,
34,부산여자대학 차박물관,부산 부산진구,051-850-3112,"['가족여행', '경상권', '문화시설', '박물관', '부산여자대학교', '부산여자대학교차박물관']",https://cdn.visitkorea.or.kr/img/call?cmd=VIEW&id=86a1c0a4-b2d7-4e8a-b132-31e39fb1e3f9&thumb,부산광역시 부산진구 진남로 506,35.16923652,129.07205520000002,
35,복천박물관(부산),부산 동래구,051-554-4263,"['기차여행', '무료관람', '문화시설', '박물관', '복천박물관', '아이와함께', '자연좋은곳']",https://cdn.visitkorea.or.kr/img/call?cmd=VIEW&id=f2a5d3f4-abfe-4da4-94ab-93905c646127&thumb,부산광역시 동래구 복천로 63,35.20877819,129.0911721,
36,동삼동패총전시관,부산 영도구,051-403-1193,"['경상권', '교과서속여행', '동삼동패총전시관', '문화시설', '사계절', '실내여행지']",https://cdn.visitkorea.or.kr/img/call?cmd=VIEW&id=90f60335-0c1b-4640-ae38-a80c5a070daa&thumb,부산광역시 영도구 태종로 729,35.07121581,129.07966770000002,
37,임시수도기념관,부산 서구,051-244-6345,"['기념관', '무장애', '문화시설', '부산 서구', '부산광역시', '임시수도', '전시실']",https://cdn.visitkorea.or.kr/img/call?cmd=VIEW&id=14c87f88-0467-47c4-9181-992de4fe5fd0&thumb,부산광역시 서구 임시수도기념로 45,35.10375,129.0175964,
38,주한독일문화원 부산 분원,부산 중구,051-441-4115,"['문화시설', '부산', '주한독일문화원']",https://cdn.visitkorea.or.kr/img/call?cmd=VIEW&id=07c32e21-4194-405a-9a72-d62a723bd8b0&thumb,부산광역시 금정구 금강로279번길 91,35.23588301,129.08348279999998,
39,부산 동구도서관,부산 동구,051-440-6411,"['가족과함께', '문화시설', '부산동구도서관', '아이와함께']",https://cdn.visitkorea.or.kr/img/call?cmd=VIEW&id=8b7072af-28ad-4509-a0b9-5694dce3dac7&thumb,부산광역시 동구 성북로36번길 54,35.1380655,129.0524312,
40,북구문화빙상센터 공연장,부산 북구,051-309-4082,"['경상권', '공연/행사', '데이트코스', '문화공간', '문화공연', '문화시설', '문화행사']",https://cdn.visitkorea.or.kr/img/call?cmd=VIEW&id=77987950-e703-4cf5-b503-5e110224c868&thumb,부산광역시 북구 금곡대로46번길 50,35.21343923,129.0057519,
41,부산시민회관,부산 동구,051-630-5200,"['가족여행', '공연장', '기차여행', '나들이', '데이트코스', '문화시설', '부산시민회관']",https://cdn.visitkorea.or.kr/img/call?cmd=VIEW&id=8ae26735-a936-4fe8-8837-c15edd943971&thumb,부산광역시 동구 자성로133번길 16,35.13884638,129.065224,
42,우장춘기념관,부산 동래구,051-550-4478,"['가족여행', '경상권', '기념관', '문화시설', '사계절', '아이와함께', '우장춘기념관']",https://cdn.visitkorea.or.kr/img/call?cmd=VIEW&id=b989e7b2-9160-40b8-84aa-ee5ac83dba88&thumb,부산광역시 금정구 서부로76번길 5,35.21350807,129.07201640000002,
43,국립일제강제동원역사관,부산 남구,051-629-8600,"['가족과함께', '문화시설', '아이와함께', '역사공부', '역사관광지', '역사를품은곳']",https://cdn.visitkorea.or.kr/img/call?cmd=VIEW&id=98cdf7a5-8b3f-456f-915d-9e9b4186116c&thumb,부산광역시 동래구 우장춘로62번길 7,35.12450497,129.0920701,
44,부산광역시립 서동도서관,부산 금정구,051-522-0456,"['금정구', '문화시설', '부산시립도서관', '서동도서관']",https://cdn.visitkorea.or.kr/img/call?cmd=VIEW&id=87c99ac2-374b-421e-aade-04b6723f3e99&thumb,부산광역시 남구 홍곡로320번길 100,35.21987633,129.0994183,
45,동아대학교 석당박물관(부산),부산 서구,051-200-8493,"['기차여행', '동아대학교석당박물관', '문화시설', '박물관', '아이와함께', '전통&역사문화체험']",https://cdn.visitkorea.or.kr/img/call?cmd=VIEW&id=e38ee282-ecc0-456f-bdd8-7ca3ef987d23&thumb,부산광역시 서구 구덕로 225,35.10374099,129.0194146,
46,부산 해운대도서관,부산 해운대구,051-709-0900,"['독서', '문화시설', '복합문화공간', '부산', '해운대도서관']",https://cdn.visitkorea.or.kr/img/call?cmd=VIEW&id=628a91e2-83fc-46ef-a31a-58ee0231dae1&thumb,부산광역시 해운대구 양운로 183,35.17794562,129.16890700000002,
47,구덕 민속예술관,부산 서구,051-240-4082,"['가족과 함께', '교육여행', '구덕민속박물관', '문화시설', '민속문화', '아이와 함께']",https://cdn.visitkorea.or.kr/img/call?cmd=VIEW&id=248937e1-e3d1-4902-af98-576dc7502dc8&thumb,부산광역시 서구 대신공원로 34-91,35.12393563,129.01848329999999,
48,부산광역시립 명장도서관,부산 동래구,051-527-0582,"['경상권', '도서관', '명장도서관', '문화시설', '부산광역시립명장도서관']",https://cdn.visitkorea.or.kr/img/call?cmd=VIEW&id=f87b7b89-b97c-40a2-8454-6d860fdc1a86&thumb,부산광역시 동래구 명안로46번길 35,35.20085604,129.10654209999998,
49,부산대학교 박물관,부산 금정구,051-510-1838,"['가족여행', '경상권', '교과서속여행', '문화시설', '박물관', '부산대학교박물관']",https://cdn.visitkorea.or.kr/img/call?cmd=VIEW&id=06b7e47f-b456-45fb-977c-e83c7f31708e&thumb,부산광역시 금정구 부산대학로63번길 2,35.232242799999995,129.08382450000002,
50,영도문화예술회관,부산 영도구,051-419-5561,"['가족과함께', '공연&전시', '문화공간', '문화시설', '문화예술', '문화예술공간']",https://cdn.visitkorea.or.kr/img/call?cmd=VIEW&id=a2ba72eb-427e-4de1-87ff-a24df5b20f3b&thumb,부산광역시 영도구 함지로79번길 6,35.07526538,129.06685900000002,
51,부산점자도서관,부산 사상구,051-302-9010,"['경상권', '도서관', '문화시설', '부산점자도서관', '사계절', '체험학습', '친구와함께']",https://cdn.visitkorea.or.kr/img/call?cmd=VIEW&id=b1c63b0d-38bb-49d2-bf4c-3f33ad915022&thumb,부산광역시 사상구 덕상로72번길 9,35.17812993,128.98979440000002,
52,금수동,부산 기장군,051-727-5679,"['가족과함께', '가족체험', '가족체험여행', '문화시설', '연인과함께', '체험', '체험관광']",https://cdn.visitkorea.or.kr/img/call?cmd=VIEW&id=1c278af5-1f73-48d2-bd54-213e9dcb6f27&thumb,부산광역시 기장군 장안읍 장안로 49-10,35.344672100000004,129.2529848,
53,금정문화원,부산 금정구,051-581-9071,"['교육프로그램', '금정문화원', '문화시설', '부산금정구']",https://cdn.visitkorea.or.kr/img/call?cmd=VIEW&id=fee2293b-c8a4-42f1-ac3c-ae2aa98d5a82&thumb,부산광역시 금정구 중앙대로1826번길 10-4,35.24729036,129.0931868,
54,요산문학관,부산 금정구,051-515-1655,"['교육프로그램', '금정구', '문화시설', '요산문학관']",https://cdn.visitkorea.or.kr/img/call?cmd=VIEW&id=9857b391-ce11-42ec-854d-2ac80973edbc&thumb,부산광역시 금정구 팔송로 60-6,35.27236541,129.0857156,
55,부산광역시립 시민도서관,부산 부산진구,051-810-8200,"['문화시설', '부산광역시립도서관', '부산진구', '시민도서관']",https://cdn.visitkorea.or.kr/img/call?cmd=VIEW&id=6c2711a4-4e5f-4c31-8fa1-fde7b7fc6423&thumb,부산광역시 부산진구 월드컵대로 462,35.18280623,129.0501417,
56,기장문화원,부산 기장군,051-724-2224,"['교육프로그램', '기장문화원', '문화시설', '부산기장군']",https://cdn.visitkorea.or.kr/img/call?cmd=VIEW&id=bbcd6bc4-9875-4ca8-a052-3a4825a6c37d&thumb,부산광역시 기장군 기장읍 청강로74번길 35-6,35.23524584,129.221698,
57,킴스아트필드미술관,부산 금정구,051-517-6800,"['경상권', '남녀노소', '문화공간', '문화시설', '미술관', '복합문화공간', '열린문화공간']",https://cdn.visitkorea.or.kr/img/call?cmd=VIEW&id=7f797ff4-c33b-4abd-9967-62f660610038&thumb,부산광역시 금정구 죽전1길 29,35.25241439,129.0542017,
58,한광미술관,부산 중구,051-469-0095,"['경상권', '기차여행', '무료관람', '문화시설', '미술관', '아이와함께', '예술', '전시관']",https://cdn.visitkorea.or.kr/img/call?cmd=VIEW&id=41080e7c-d662-486b-9625-f2ee5eb3f896&thumb,부산광역시 중구 중앙대로 130,35.10898719,129.0374232,
59,40계단 문화관,부산 중구,051-600-4044,"['40계단문화관', '경상권', '교과서속여행', '기차여행', '문화시설', '아이와함께']",https://cdn.visitkorea.or.kr/img/call?cmd=VIEW&id=f47a4afd-104e-4231-8b2c-8e70e5c2e9e8&thumb,부산광역시 중구 동광길 49,35.10500721,129.03448020000002,
60,국립부산국악원,부산 부산진구,051-811-0114,"['경상권', '국립부산국악원', '데이트코스', '문화시설', '문화행사', '사계절', '상설공연']",https://cdn.visitkorea.or.kr/img/call?cmd=VIEW&id=4b806ebb-9c55-47e8-9ee1-07f25ca07951&thumb,부산광역시 부산진구 국악로 2,35.17145978,129.0541302,
61,동래문화원,부산 동래구,051-555-1441,"['경상권', '동래문화원', '문화시설', '문화원', '아이와함께', '역사문화체험', '전통문화체험']",https://cdn.visitkorea.or.kr/img/call?cmd=VIEW&id=64f1ca2c-cf86-4a18-950e-db284124c37f&thumb,부산광역시 동래구 문화로 80,35.21195069,129.090546,
62,사상문화원,부산 사상구,051-316-9111,"['문화시설', '복합문화공간', '사상구', '사상문화원', '열린문화공간']",https://cdn.visitkorea.or.kr/img/call?cmd=VIEW&id=f095e129-c3b8-4bb2-bb40-6e05ae665abe&thumb,부산광역시 사상구 가야대로196번길 51,35.14744572,128.9948744,
63,경성대학교 문화홍보처 박물관,부산 남구,051-663-5381,"['경성대학교문화홍보처박물관', '무료관람', '문화시설', '박물관', '실내여행지']",https://cdn.visitkorea.or.kr/img/call?cmd=VIEW&id=de913c06-7b22-4864-a2f5-ce3f7fb56bd1&thumb,부산광역시 남구 수영로 309,35.13843836,129.100099,
64,부산 기장도서관,부산 기장군,051-709-5351,"['기장도서관', '문화시설', '부산기장군', '아이와함께']",https://cdn.visitkorea.or.kr/img/call?cmd=VIEW&id=1a96325f-ca2e-48d5-ad51-e0a1db57fec0&thumb,부산광역시 기장군 기장읍 차성동로126번길 13-5,35.24968318,129.2173047,
65,부산광역시립 사하도서관,부산 사하구,051-203-0571,"['독서', '문화시설', '부산광역시립', '사하도서관', '열린문화공간']",https://cdn.visitkorea.or.kr/img/call?cmd=VIEW&id=35ad3f33-d6e2-47d1-adbb-ff5268e8490a&thumb,부산광역시 사하구 승학로 247,35.10332955,128.99106880000002,
66,부산광역시립 부전도서관,부산 부산진구,051-802-5901,"['문화시설', '부산광역시립도서관', '부산진구', '부전도서관']",https://cdn.visitkorea.or.kr/img/call?cmd=VIEW&id=f8c04c1e-ba4c-448d-bc14-d3759249a5fd&thumb,부산광역시 부산진구 동천로 79,35.15585349,129.06219879999998,
67,수영민속예술관,부산 수영구,051-752-2947,"['문화시설', '문화유적', '문화재', '부산', '수영구', '수영사적공원', '예술관']",https://cdn.visitkorea.or.kr/img/call?cmd=VIEW&id=4fda0ead-0282-4915-a764-f1bf57e6042e&thumb,부산광역시 수영구 수영성로 43,35.17121171,129.1139531,
68,고신대학교복음병원 의학도서관,부산 서구,051-990-6720,"['고신대학교', '문화시설', '복음병원', '의학도서관']",https://cdn.visitkorea.or.kr/img/call?cmd=VIEW&id=1d681f91-4eb5-46d4-a355-dc82dec5b44c&thumb,부산광역시 서구 감천로 262,35.08107807,129.0145128,
69,부산광역시립 연산도서관,부산 연제구,051-792-5402,"['문화시설', '부산광역시립도서관', '아이와함께', '연산도서관']",https://cdn.visitkorea.or.kr/img/call?cmd=VIEW&id=1e039688-181a-4013-842d-c9159e31dec8&thumb,부산광역시 연제구 고분로191번길 16,35.18580771,129.1043222,
70,부산과학기술대학교 민속자료실,부산 북구,051-330-7076,"['가족여행', '경상권', '교과서속여행', '문화시설', '박물관', '부산과학기술대학교민속자료실']",https://cdn.visitkorea.or.kr/img/call?cmd=VIEW&id=e0b091ac-9a7a-4ea7-bec5-5a36d06ff4f5&thumb,부산광역시 북구 시랑로132번길 88,35.19419451,129.0053031,
71,동아대학교 석당홀,부산 서구,051-240-2114,"['대학교', '동아대학교', '문화시설', '세미나', '음악공연', '콘서트', '학술회']",https://cdn.visitkorea.or.kr/img/call?cmd=VIEW&id=9ef88ba7-f38b-4953-8606-678fa88e7cff&thumb,부산광역시 서구 망양로111번길 65,35.1201981,129.0200404,
72,경성대학교 조류관,부산 남구,051-663-4042,"['가족여행', '경상권', '경성대학교조류관', '교과서속여행', '문화시설', '박물관']",https://cdn.visitkorea.or.kr/img/call?cmd=VIEW&id=27d4776c-78ad-4eba-b845-77b52940485f&thumb,부산광역시 남구 수영로 309,35.13843836,129.100099,
73,연제문화원,부산 연제구,051-759-3113,"['교육프로그램', '문화시설', '부산연제구', '연제문화원']",https://cdn.visitkorea.or.kr/img/call?cmd=VIEW&id=undefined&thumb,부산광역시 연제구 거제대로 180,35.18428551,129.071201,
74,뮤지엄 다:,부산 해운대구,051-731-3302,"['가족과함께', '디지털샤워', '문화시설', '미디엄아트샤워', '부산', '연인과함께']",https://cdn.visitkorea.or.kr/img/call?cmd=VIEW&id=36617f58-21f0-40b5-8e54-9a7fd67a7aba&thumb,부산광역시 해운대구 센텀서로 20,35.17132120000001,129.12898140000001,
75,주한인도문화원 부산,부산 남구,051-508-4254,"['문화공간', '문화교실', '문화시설', '문화예술교육', '문화원', '문화행사', '열린문화공간']",https://cdn.visitkorea.or.kr/img/call?cmd=VIEW&id=c0765d9f-b43a-4a06-a1de-72302e206465&thumb,부산광역시 남구 유엔로157번길 10,35.1306644,129.0935096,
76,해양환경공단 해양환경교육원(부산),부산 영도구,051-400-7700,"['가족과함께', '경상권', '교과서속여행', '교육여행', '교육프로그램', '문화시설']",https://cdn.visitkorea.or.kr/img/call?cmd=VIEW&id=6e62256d-d169-4867-b2fe-2c45f4358964&thumb,부산광역시 영도구 해양로301번길 23,35.08026664,129.077927,
77,추리문학관,부산 해운대구,051-743-0480,"['문학공간', '문화시설', '부산', '전문도서관', '추리문학', '추리문학관']",https://cdn.visitkorea.or.kr/img/call?cmd=VIEW&id=9d3c4eda-3e99-4f16-a5be-ef0a32f1d0a4&thumb,부산광역시 해운대구 달맞이길117번나길 111,35.16167969,129.1833091,
78,갤러리예가,부산 남구,051-624-0933,"['갤러리', '문화공간', '문화시설', '문화예술', '복합문화공간', '열린문화공간']",https://cdn.visitkorea.or.kr/img/call?cmd=VIEW&id=undefined&thumb,부산광역시 부산진구 범양로79번길 8,35.17153918,129.0628447,
79,오륜대 한국순교자박물관,부산 금정구,051-583-2923,"['문화시설', '박물관', '순교자', '아이와함께', '아이와함께', '역사', '종교', '천주교회']",https://cdn.visitkorea.or.kr/img/call?cmd=VIEW&id=408b2449-ab9c-43c6-8e40-d135ac6223ea&thumb,부산광역시 금정구 오륜대로 106-1,35.24570172,129.1009016,
80,정인갤러리,부산 중구,051-248-9090,"['고미술품', '문화시설', '미술품', '예술', '전시관', '정인갤러리', '창작활동']",https://cdn.visitkorea.or.kr/img/call?cmd=VIEW&id=a8ada755-d1e3-4ad1-8834-00e845280580&thumb,부산광역시 중구 중앙대로 21,35.09951017,129.03614199999998,
81,갤러리 미고,부산 해운대구,051-731-3444,"['갤러리미고', '문화시설', '문화예술', '미술', '실내여행지', '전시관']",https://cdn.visitkorea.or.kr/img/call?cmd=VIEW&id=9ffa8d96-17db-4901-9089-8ee6970f2a59&thumb,부산광역시 해운대구 해운대해변로298번길 24,35.16020159,129.1665793,
82,범어사 성보박물관,부산 금정구,051-508-6139,"['문화시설', '불교', '불교문화', '사찰', '사찰여행', '역사를품은곳', '역사속', '역사속으로']",https://cdn.visitkorea.or.kr/img/call?cmd=VIEW&id=09089ca2-2a23-4f15-aca9-c878616bb229&thumb,부산광역시 금정구 범어사로 250,35.28304264,129.0676208,
83,부산 가톨릭센터,부산 중구,051-462-1870,"['가톨릭', '공연장', '문화시설', '부산', '종교', '중구', '천주교']",https://cdn.visitkorea.or.kr/img/call?cmd=VIEW&id=87eeb746-6442-47cf-b25c-55d9681860c3&thumb,부산광역시 중구 중구로 71,35.10435395,129.02857269999998,
84,조현화랑,부산 해운대구,051-747-8853,"['갤러리', '문화시설', '문화예술', '문화예술공간', '미술관', '미술인', '현대미술']",https://cdn.visitkorea.or.kr/img/call?cmd=VIEW&id=04954d92-e0d4-430d-adfc-2d809407ae7c&thumb,부산광역시 해운대구 달맞이길65번길 171,35.15684661,129.1795725,
85,부산공간화랑,부산 해운대구,051-803-4101,"['갤러리', '문화공간', '문화시설', '미술인', '복합문화공간', '열린문화공간', '전시']",https://cdn.visitkorea.or.kr/img/call?cmd=VIEW&id=762ca731-96d3-466c-9932-1349a349cb76&thumb,부산광역시 해운대구 마린시티1로 167,35.15756055,129.1504908,
86,장기려기념 더 나눔센터,부산 동구,051-468-1248,"['가족과함께', '문화공간', '문화시설', '미세먼지_피하는_실내여행', '실내데이트']",https://cdn.visitkorea.or.kr/img/call?cmd=VIEW&id=e15752a1-b681-4d35-920c-fd6ee1fa4871&thumb,부산광역시 동구 영초윗길 48,35.11853779,129.0326545,
87,SEA LIFE 부산아쿠아리움,부산 해운대구,051-740-1700,"['가족과함께', '경상권', '남녀노소', '도심여행', '문화시설', '문화행사', '미세먼지_피하는_실내여행']",https://cdn.visitkorea.or.kr/img/call?cmd=VIEW&id=bd0e0acb-4f95-4b4a-a3a8-4564ed721377&thumb,부산광역시 해운대구 해운대해변로 266,35.15919963,129.1610154,
88,신세계 센텀시티,부산 해운대구,1588-1234,"['가족여행', '경상권', '관광지', '남녀노소', '부산가볼만한곳', '신세계센텀시티']",https://cdn.visitkorea.or.kr/img/call?cmd=VIEW&id=b4e33095-3a70-4353-8af8-5b45c87e7027&thumb,부산광역시 해운대구 센텀남대로 35,35.16881784,129.1295233,
89,스파랜드 센텀시티,부산 해운대구,1668-2850,"['가족과함께', '경상권', '관광지', '뷰티&스파', '스파랜드센텀시티', '실내여행지']",https://cdn.visitkorea.or.kr/img/call?cmd=VIEW&id=bd1d19be-25d4-46bf-a0c3-b8a9fec29242&thumb,부산광역시 해운대구 센텀남대로 35,35.16881784,129.1295233,
90,용두산공원 부산타워 세양,부산 중구,051-257-9393,"['가족과함께', '경상권', '기념품판매', '데이트코스', '사계절', '쇼핑', '실내여행지']",https://cdn.visitkorea.or.kr/img/call?cmd=VIEW&id=b3d5690b-a582-4cc3-a969-5927e0aeb3c4&thumb,부산광역시 중구 용두산길 37-55,35.10092943,129.0324428,
91,부산시립미술관,부산 해운대구,051-744-2602,"['데이트코스', '문화시설', '미술관', '부산시립미술관', '실내여행지', '아이와함께']",https://cdn.visitkorea.or.kr/img/call?cmd=VIEW&id=3e362471-c362-403e-b167-cba24c28fda9&thumb,부산광역시 해운대구 APEC로 58,35.16668716,129.1370273,
92,수산과학관(부산),부산 기장군,051-720-3061,"['기차여행', '문화시설', '수산과학관', '실내여행지', '아이와함께', '이색체험']",https://cdn.visitkorea.or.kr/img/call?cmd=VIEW&id=93e979c4-ae2a-4529-acae-a0b075016aae&thumb,부산광역시 기장군 기장읍 기장해안로 216,35.19109529,129.2222841,
93,부산자유회관(부산통일관),부산 부산진구,051-808-7960,"['경상권', '교과서속여행', '문화시설', '부산자유회관', '부산통일관', '실내여행지']",https://cdn.visitkorea.or.kr/img/call?cmd=VIEW&id=e354aa1e-2a73-4af6-ac32-306e025edecf&thumb,부산광역시 부산진구 초읍천로 113-10,35.18232366,129.04561840000002,
94,부산문화회관,부산 남구,051-607-6000,"['가족여행', '공연장', '기차여행', '나들이', '데이트코스', '문화시설', '부산문화회관']",https://cdn.visitkorea.or.kr/img/call?cmd=VIEW&id=0989e650-4e80-40fe-a880-285102f998e7&thumb,부산광역시 남구 유엔평화로76번길 1,35.12718493,129.0934781,
95,부산여자대학 차박물관,부산 부산진구,051-850-3112,"['가족여행', '경상권', '문화시설', '박물관', '부산여자대학교', '부산여자대학교차박물관']",https://cdn.visitkorea.or.kr/img/call?cmd=VIEW&id=86a1c0a4-b2d7-4e8a-b132-31e39fb1e3f9&thumb,부산광역시 부산진구 진남로 506,35.16923652,129.07205520000002,
96,동삼동패총전시관,부산 영도구,051-403-1193,"['경상권', '교과서속여행', '동삼동패총전시관', '문화시설', '사계절', '실내여행지']",https://cdn.visitkorea.or.kr/img/call?cmd=VIEW&id=90f60335-0c1b-4640-ae38-a80c5a070daa&thumb,부산광역시 영도구 태종로 729,35.07121581,129.07966770000002,
97,부산시민회관,부산 동구,051-630-5200,"['가족여행', '공연장', '기차여행', '나들이', '데이트코스', '문화시설', '부산시민회관']",https://cdn.visitkorea.or.kr/img/call?cmd=VIEW&id=8ae26735-a936-4fe8-8837-c15edd943971&thumb,부산광역시 동구 자성로133번길 16,35.13884638,129.065224,
98,경성대학교 문화홍보처 박물관,부산 남구,051-663-5381,"['경성대학교문화홍보처박물관', '무료관람', '문화시설', '박물관', '실내여행지']",https://cdn.visitkorea.or.kr/img/call?cmd=VIEW&id=de913c06-7b22-4864-a2f5-ce3f7fb56bd1&thumb,부산광역시 남구 수영로 309,35.13843836,129.100099,
99,갤러리 미고,부산 해운대구,051-731-3444,"['갤러리미고', '문화시설', '문화예술', '미술', '실내여행지', '전시관']",https://cdn.visitkorea.or.kr/img/call?cmd=VIEW&id=9ffa8d96-17db-4901-9089-8ee6970f2a59&thumb,부산광역시 해운대구 해운대해변로298번길 24,35.16020159,129.1665793,
100,송도 구름산책로(스카이워크),부산 서구,051-253-8253,"['가족과함께', '남녀노소', '레포츠', '바다경치', '사진찍기좋은곳', '산책하기좋은곳']",https://cdn.visitkorea.or.kr/img/call?cmd=VIEW&id=259ce776-3b48-4441-b807-a4ccdc9d77c9&thumb,부산광역시 서구 암남동 129-4,35.0754813,129.0230912,0.0
101,문탠로드,부산 해운대구,051-502-7399,"['가족여행', '레포츠', '문탠로드', '산책코스', '야간관광100선', '해운대']",https://cdn.visitkorea.or.kr/img/call?cmd=VIEW&id=dfb3af7c-8689-4bdf-b00c-2967bcef335f&thumb,부산광역시 해운대구 달맞이길 120,35.1574096,129.1755364,1.0
102,구덕야영장,부산 서구,051-246-4685,"['가족과함께', '구덕야영장', '국내힐링여행', '레포츠', '아이와함께', '야영장']",https://cdn.visitkorea.or.kr/img/call?cmd=VIEW&id=7d7e6f27-69d9-491b-94b5-5268be3ad0cb&thumb,부산광역시 서구 꽃마을로156번길 109,35.12533870000001,129.010719,2.0
103,수영만 요트경기장,부산 해운대구,051-741-6440,"['가족여행', '경상권', '레포츠', '수영만요트경기장', '요트체험']",https://cdn.visitkorea.or.kr/img/call?cmd=VIEW&id=ce35c7e9-6cb4-4521-b25b-5fd73008194c&thumb,부산광역시 해운대구 해운대해변로 84,35.160915,129.1405557,3.0
104,다대포일대,부산 사하구,051-220-4161,"['낚시', '낚시인', '다대포', '레포츠', '유적지']",https://cdn.visitkorea.or.kr/img/call?cmd=VIEW&id=35cdf8ca-e088-44a7-80f0-be65738be724&thumb,부산광역시 사하구 몰운대1길 14,35.0457857,128.968704,4.0
105,부산광역시 금련산청소년수련원,부산 수영구,051-625-0709,"['레포츠', '부산광역시금련산청소년수련원', '부산수영구', '청소년수련원']",https://cdn.visitkorea.or.kr/img/call?cmd=VIEW&id=881c9d9d-eca5-46c3-876e-ca102b71bcfe&thumb,부산광역시 수영구 황령산로 156,35.1546204,129.10241770000002,5.0
106,센텀시티 아이스링크 (신세계백화점),부산 해운대구,051-745-1400,"['레포츠', '스케이트장', '신세계백화점센텀시티점', '이색체험']",https://cdn.visitkorea.or.kr/img/call?cmd=VIEW&id=e82ed33a-abc5-4056-83a5-a0210195defd&thumb,부산광역시 해운대구 센텀남대로 35,35.1687032,129.1297466,6.0
107,[부산 갈맷길 2코스] 2구간 민락교~오륙도,부산 해운대구,051-505-2224,"['레포츠', '부산갈맷길', '트래킹', '해운대구']",https://cdn.visitkorea.or.kr/img/call?cmd=VIEW&id=75dd5298-b6c7-42b9-8bf8-ffedb1e58940&thumb,부산광역시 해운대구 우동,35.1727865,129.1466518,7.0
108,영도관광사격장,부산 영도구,051-405-9130,"['데이트코스', '레포츠', '부산영도구', '사격장', '실내레포츠']",https://cdn.visitkorea.or.kr/img/call?cmd=VIEW&id=e4c45842-bd29-4b18-a90c-341b5bf8484b&thumb,부산광역시 영도구 절영로 319,35.0739797,129.0541222,8.0
109,부산 아시아드주경기장,부산 연제구,051-500-2123,"['레포츠', '부산연제구', '실내경기장', '아시아드주경기장']",https://cdn.visitkorea.or.kr/img/call?cmd=VIEW&id=d26f0ee7-73c9-4221-87ed-f419de317963&thumb,부산광역시 연제구 월드컵대로 344,35.1896429,129.0569842,9.0
110,파라다이스 카지노 부산,부산 해운대구,051-749-3550,"['레포츠', '부산', '이색체험', '파라다이스카지노', '해운대구']",https://cdn.visitkorea.or.kr/img/call?cmd=VIEW&id=d506a843-fb7a-424f-af07-ff0686f67948&thumb,부산광역시 해운대구 해운대해변로 296,35.1601338,129.1646875,10.0
111,씨프랜드,부산 사상구,051-326-8400,"['레포츠', '부산', '부산레포츠', '부산여행', '스킨스쿠버', '스킨스쿠버교육']",https://cdn.visitkorea.or.kr/img/call?cmd=VIEW&id=642ee4a0-a8ea-4f4b-89a7-dbb314af7e80&thumb,부산광역시 사상구 가야대로 229-6,35.1505334,128.9979023,11.0
112,파라다이스호텔 헬스클럽,부산 해운대구,051-749-2354,['레포츠'],https://cdn.visitkorea.or.kr/img/call?cmd=VIEW&id=8693fd25-1ac9-4ee0-91b6-6ce8283e0630&thumb,부산광역시 해운대구 해운대해변로 296,35.1601338,129.1646875,12.0
113,양정청소년수련관,부산 부산진구,051-868-0750,"['교육프로그램', '레포츠', '부산진구', '청소년수련원']",https://cdn.visitkorea.or.kr/img/call?cmd=VIEW&id=1eb2e526-a2f8-4212-8ac8-86eec7031de8&thumb,부산광역시 부산진구 동평로405번길 85,35.1772787,129.0717449,13.0
114,세븐럭카지노(부산롯데점),부산 부산진구,051-665-6000,"['경상권', '레포츠', '세븐럭카지노', '연중무휴', '카지노']",https://cdn.visitkorea.or.kr/img/call?cmd=VIEW&id=ae39b271-df3e-466f-abd1-cb69ccee4063&thumb,부산광역시 부산진구 가야대로 772,35.1568526,129.0566466,14.0
115,부산종합운동장,부산 연제구,051-504-8001,"['레포츠', '부산연제구', '스포츠센터', '종합운동장']",https://cdn.visitkorea.or.kr/img/call?cmd=VIEW&id=db43706b-17b8-4155-bf68-57f5b5893b35&thumb,부산광역시 연제구 월드컵대로 344,35.1896429,129.0569842,15.0
116,부산사회체육센터,부산 해운대구,051-744-1181 0600 2000,"['레포츠', '복합문화시설', '부산사회체육센터', '부산해운대구', '체육센터']",https://cdn.visitkorea.or.kr/img/call?cmd=VIEW&id=44612653-7179-4ab1-a951-3f78cb25bbb7&thumb,부산광역시 해운대구 APEC로 68,35.167179299999994,129.137518,16.0
117,용호동일대 바다낚시,부산 남구,051-253-8253,"['레포츠', '바다낚시', '부산낚시', '부산낚시터', '부산바다', '부산바다낚시']",https://cdn.visitkorea.or.kr/img/call?cmd=VIEW&id=44012521-9edc-4ed0-bfeb-09534f513e31&thumb,부산광역시 남구 분포로 101,35.1295917,129.11584,17.0
118,태종대일대,부산 영도구,051-405-2004,"['레포츠', '바다낚시', '배낚시', '태종대유원지', '태종대일대']",https://cdn.visitkorea.or.kr/img/call?cmd=VIEW&id=9fea1b2f-ad15-4e60-8e55-979fcb931e32&thumb,부산광역시 영도구 전망로 24,35.0597259,129.0798403,18.0
119,부산광역시학생교육원,부산 금정구,051-580-3200,"['교육원', '교육프로그램', '레포츠', '부산금정구', '청소년수련원']",https://cdn.visitkorea.or.kr/img/call?cmd=VIEW&id=aa6a0430-3d72-4bb9-b7b0-f7c965765aa7&thumb,부산광역시 금정구 북문로 178,35.25916779999999,129.04423290000003,19.0
120,스포원파크 경륜장,부산 금정구,1577-0880,"['가족과함께', '겨울스포츠', '레포츠', '복합레저스포츠', '수상스포츠', '스포츠']",https://cdn.visitkorea.or.kr/img/call?cmd=VIEW&id=70c1e344-c411-4e3c-a0b6-7aa554e481b9&thumb,부산광역시 금정구 체육공원로399번길 324,35.2913418,129.1053512,20.0
121,송정해수욕장(낚시터),부산 해운대구,051-749-5800,"['레포츠', '바다낚시', '부산낚시터', '부산바다', '부산바다낚시', '해운대']",https://cdn.visitkorea.or.kr/img/call?cmd=VIEW&id=7d1b0277-56cc-4897-a609-be98b006bd64&thumb,부산광역시 해운대구 송정해변로 58,35.1796001,129.20002730000002,21.0
122,다대 실내수영장,부산 사하구,051-262-4125,"['레포츠', '부산광역시', '사하구', '실내수영장']",https://cdn.visitkorea.or.kr/img/call?cmd=VIEW&id=aca07131-c5f6-4820-ba9c-9186561da1b4&thumb,부산광역시 사하구 다대로 734,35.0499677,128.96141029999998,22.0
123,해양스포츠교실,부산 영도구,051-405-4111,"['레포츠', '부산여행', '스킨스쿠버', '스킨스쿠버교육', '실내']",https://cdn.visitkorea.or.kr/img/call?cmd=VIEW&id=cda326b7-4fe1-48f6-b09d-d76bbbcaa76a&thumb,부산광역시 영도구 감지해변길 102,35.0611065,129.077245,23.0
124,아시아드 컨트리클럽,부산 기장군,051-720-6000,['레포츠'],https://cdn.visitkorea.or.kr/img/call?cmd=VIEW&id=0eb931c6-44a5-436a-b776-fb98848f4cac&thumb,부산광역시 기장군 일광면 차양길 26,35.2877195,129.23879820000002,24.0
125,해운대일대(낚시터),부산 해운대구,051-749-5700,"['레포츠', '부산낚시', '해운대낚시']",https://cdn.visitkorea.or.kr/img/call?cmd=VIEW&id=40b59811-9bd2-4940-8830-9512489b3a0c&thumb,부산광역시 해운대구 해운대해변로 264,35.1591167,129.1603013,25.0
126,함지골청소년수련관,부산 영도구,051-405-5223,['레포츠'],https://cdn.visitkorea.or.kr/img/call?cmd=VIEW&id=d0a85a41-b91b-460c-93b6-a4b926ffd5a6&thumb,부산광역시 영도구 절영로 321,35.0739797,129.0541222,26.0
127,부산컨트리클럽,부산 금정구,051-509-0701,['레포츠'],https://cdn.visitkorea.or.kr/img/call?cmd=VIEW&id=undefined&thumb,부산광역시 금정구 중앙대로2327번길 112,35.2968959,129.0945543,27.0
128,회동수원지 둘레길,부산 금정구,051-519-4081,"['걷기좋은길', '레포츠', '자연과함께', '트레킹코스', '회동수원지']",https://cdn.visitkorea.or.kr/img/call?cmd=VIEW&id=b8e889f5-7796-430d-a572-2ac77e56acb0&thumb,부산광역시 금정구 개좌로 147,35.2251511,129.1167009,28.0
129,부산 자갈치시장,부산 중구,051-245-2594,"['19_20한국관광100선', '가족여행', '경상권', '나들이', '나홀로여행', '먹거리']",https://cdn.visitkorea.or.kr/img/call?cmd=VIEW&id=936f2e57-f75c-41c8-acc0-d29dd494e73d&thumb,부산광역시 중구 자갈치해안로 52,35.09661378,129.0305837,
130,부평시장(깡통시장),부산 중구,051-243-1128,"['가족여행', '경상권', '기차여행', '깡통시장', '나들이', '나홀로여행', '데이트코스']",https://cdn.visitkorea.or.kr/img/call?cmd=VIEW&id=56c73bb4-439a-48d1-ae5f-6ca1045b1c05&thumb,부산광역시 중구 부평1길 48,35.1015592,129.0260206,
131,국제시장,부산 중구,051-245-7389,"['가족여행', '경상권', '국제시장', '나들이', '나홀로여행', '데이트코스', '먹거리']",https://cdn.visitkorea.or.kr/img/call?cmd=VIEW&id=fd57883e-65d1-4411-b10a-e5e65689e620&thumb,부산광역시 중구 신창로4가 일원,35.1015524,129.0282977,
132,자갈치시장 활어부,부산 중구,051-245-2594,"['가족여행', '경상권', '먹거리', '바다풍경', '사계절', '쇼핑', '시장맛집', '아이와함께']",https://cdn.visitkorea.or.kr/img/call?cmd=VIEW&id=872fe087-8241-417c-9547-519530035cce&thumb,부산광역시 중구 자갈치해안로 52,35.09661378,129.0305837,
133,롯데프리미엄아울렛 동부산점,부산 기장군,051-901-2500,['쇼핑'],https://cdn.visitkorea.or.kr/img/call?cmd=VIEW&id=5a477196-bea3-4ed0-9752-ba64699ba941&thumb,부산광역시 기장군 기장읍 기장해안로 147,35.1922145,129.21278049999998,
134,부산 기장시장,부산 기장군,051-721-3963,"['가족여행', '경상권', '부선기장시장', '사계절', '쇼핑', '아이와함께', '이색체험']",https://cdn.visitkorea.or.kr/img/call?cmd=VIEW&id=4c01ac8c-ea7d-4753-bb84-40a35215dcef&thumb,부산광역시 기장군 기장읍 읍내로104번길 16,35.24369679,129.2148685,
135,부산 해운대시장,부산 해운대구,051-746-3001,"['가족여행', '나들이', '데이트코스', '먹거리', '바다풍경', '부산해운대전통시장']",https://cdn.visitkorea.or.kr/img/call?cmd=VIEW&id=9c07c0e0-368d-4eec-852d-bf4c2742c9f6&thumb,부산광역시 해운대구 구남로41번길 22-1,35.16140387,129.1623153,
136,미술의거리,부산 중구,051-244-7691,"['부산문화예술', '부산중구', '쇼핑', '전시회']",https://cdn.visitkorea.or.kr/img/call?cmd=VIEW&id=814656fa-c930-410d-9853-fe6b413c1c2d&thumb,부산광역시 중구 중구로 31,35.1005816,129.0278472,
137,남항시장,부산 영도구,051-414-9500,"['가족여행', '경상권', '기차여행', '나들이', '나홀로여행', '남항시장', '데이트코스']",https://cdn.visitkorea.or.kr/img/call?cmd=VIEW&id=3d0c16f5-b782-4bc1-86ce-f8333975173e&thumb,부산광역시 영도구 절영로49번길 73-5,35.08890761,129.0422626,
138,환공어묵 부산역점,부산 동구,02-2232-5765,"['가족여행', '경상권', '기념품판매', '기차여행', '나들이', '나홀로여행', '데이트코스']",https://cdn.visitkorea.or.kr/img/call?cmd=VIEW&id=9bf367c3-1098-404c-ab84-28d8c9bda5c3&thumb,부산광역시 동구 중앙대로 206,35.11760513,129.0450602,
139,신세계사이먼 부산 프리미엄 아울렛,부산 기장군,1644-4001,"['경상권', '쇼핑', '신세계사이먼부산프리미엄아울렛', '연인과함께', '친구와함께']",https://cdn.visitkorea.or.kr/img/call?cmd=VIEW&id=86a5163c-e304-4062-9d88-24b193727eb9&thumb,부산광역시 기장군 장안읍 정관로 1133,35.32381098,129.2349662,
140,부산 중앙시장,부산 부산진구,051-631-8490,"['경상권', '부산중앙시장', '쇼핑', '재래시장', '전통시장']",https://cdn.visitkorea.or.kr/img/call?cmd=VIEW&id=ef31f455-fc79-43b1-a7fe-6af87c39fe6f&thumb,부산광역시 부산진구 중앙번영로20번길 34-3,35.1433915,129.0610915,
141,용두산공원 부산타워 세양,부산 중구,051-257-9393,"['가족과함께', '경상권', '기념품판매', '데이트코스', '사계절', '쇼핑', '실내여행지']",https://cdn.visitkorea.or.kr/img/call?cmd=VIEW&id=b3d5690b-a582-4cc3-a969-5927e0aeb3c4&thumb,부산광역시 중구 용두산길 37-55,35.10092943,129.0324428,
142,"송정시장 (5, 10일)",부산 기장군,051-508-5072,"['가족여행', '경상권', '사계절', '송정시장', '쇼핑', '아이와함께', '이색체험', '전통시장']",https://cdn.visitkorea.or.kr/img/call?cmd=VIEW&id=58159163-86e6-4fd2-9a2a-39cfdaca9d77&thumb,부산광역시 기장군 철마면 두송길 7-31,35.30473201,129.1116483,
143,구포 축산물도매시장,부산 북구,051-301-3517,"['경상권', '구포축산물도매시장', '도매시장', '쇼핑', '특산물']",https://cdn.visitkorea.or.kr/img/call?cmd=VIEW&id=7cf44150-4d89-481f-8c38-22e15342cec2&thumb,부산광역시 북구 사상로583번길 20,35.19638644,128.98949059999998,
144,부산 진시장,부산 동구,051-646-7041,"['가족여행', '경상권', '나들이', '나홀로여행', '먹거리', '부산진시장', '쇼핑', '시장맛집']",https://cdn.visitkorea.or.kr/img/call?cmd=VIEW&id=1ee0626e-736c-48c3-8258-bdf3c73e5346&thumb,부산광역시 동구 진시장로 24,35.13642339,129.0588362,
145,부산 엄궁농산물도매시장,부산 사상구,051-310-8282,"['가족여행', '경상권', '기차여행', '나홀로여행', '부산엄궁농산물도매시장', '쇼핑']",https://cdn.visitkorea.or.kr/img/call?cmd=VIEW&id=dabbfc61-efc0-4f2c-8171-20caca82ab9a&thumb,부산광역시 사상구 농산물시장로9번길 11,35.12867885,128.9642837,
146,해운대 로데오거리,부산 해운대구,1 051-743-2234,"['경상권', '쇼핑', '연인과함께', '친구와함께', '해운대로데오거리']",https://cdn.visitkorea.or.kr/img/call?cmd=VIEW&id=3c6dcebb-eaf7-495a-ace4-9cd47089825a&thumb,부산광역시 해운대구 좌동순환로 473,35.16366622,129.1694173,
147,부산 르네시떼,부산 사상구,051-319-5000,"['도소매상가', '부산쇼핑', '쇼핑', '의류', '패션']",https://cdn.visitkorea.or.kr/img/call?cmd=VIEW&id=00e85e25-4052-4838-9e13-c529b0223537&thumb,부산광역시 사상구 광장로 7,35.16433608,128.97771609999998,
148,영도봉래시장 / 봉래시장,부산 영도구,051-413-3111,"['가족여행', '경상권', '기차여행', '나들이', '나홀로여행', '데이트코스', '먹거리']",https://cdn.visitkorea.or.kr/img/call?cmd=VIEW&id=57e909e3-b4ac-482a-b515-e0358bf618d0&thumb,부산광역시 영도구 태종로113번길 39,35.09271476,129.043933,
149,부산 자유도매시장,부산 동구,051-632-8785,"['가족여행', '경상권', '기차여행', '나홀로여행', '부산자유도매시장', '쇼핑', '아이와함께']",https://cdn.visitkorea.or.kr/img/call?cmd=VIEW&id=dd3a6e27-6ca0-4751-bfed-cd7fcc15ccee&thumb,부산광역시 동구 조방로 48,35.14097365,129.0610402,
150,이니스프리 부산대점[한국관광 품질인증/Korea Quality],부산 금정구,051-582-7273,"['부산추천쇼핑', '쇼핑', '이니스프리부산대', '한국관광품질인증', '한국관광품질인증업소']",https://cdn.visitkorea.or.kr/img/call?cmd=VIEW&id=e094e02d-b58d-414a-8701-88a5ecc3853e&thumb,부산광역시 금정구 금정로68번길 28,35.23034385,129.0878889,
151,구서 오시게시장,부산 금정구,051-518-6893,"['가족여행', '경상권', '구서오시게시장', '사계절', '쇼핑', '시장맛집', '아이와함께']",https://cdn.visitkorea.or.kr/img/call?cmd=VIEW&id=90b31096-5027-442a-9cc6-0dab77c5b4d5&thumb,부산광역시 금정구 구서로 12,35.24735756,129.0897741,
152,동래시장,부산 동래구,051-552-1651,"['가족여행', '경상권', '기차여행', '나들이', '나홀로여행', '데이트코스', '동래시장']",https://cdn.visitkorea.or.kr/img/call?cmd=VIEW&id=1a093fec-2e16-4c35-ab4f-9d88195d307d&thumb,부산광역시 동래구 동래시장길 14,35.20380872,129.0859386,
153,부산 국제수산물도매시장,부산 서구,051-220-8831,"['가족여행', '경상권', '기차여행', '나들이', '나홀로여행', '데이트코스', '바다풍경']",https://cdn.visitkorea.or.kr/img/call?cmd=VIEW&id=8aca6384-9544-4f29-8031-f351e99b9bf4&thumb,부산광역시 서구 원양로 35 국제수산물도매시장,35.05883793,129.01017620000002,
154,남포동건어물도매시장,부산 중구,051-254-3311,"['가족여행', '나들이', '나홀로여행', '남포동건어물시장', '데이트코스', '먹거리']",https://cdn.visitkorea.or.kr/img/call?cmd=VIEW&id=b45cf048-cdaa-4074-9071-463ca98cd8f8&thumb,부산광역시 중구 용미길8번길 4-1,35.09732614,129.0345237,
155,홈플러스 관광기념품점(부산 해운대점),부산 해운대구,051-746-9061,"['가족여행', '경상권', '기념품판매', '기차여행', '나들이', '나홀로여행', '데이트코스']",https://cdn.visitkorea.or.kr/img/call?cmd=VIEW&id=f640ada6-9198-4094-985f-7356d9fc9070&thumb,부산광역시 해운대구 해운대해변로 140,35.15839552,129.14649509999998,
156,해바라기식품,부산 중구,051-245-4521,"['가족과함께', '쇼핑', '아이와함께', '특산품', '해바라기식품']",https://cdn.visitkorea.or.kr/img/call?cmd=VIEW&id=71f7041a-e320-4940-8bda-a1e55a263f3a&thumb,부산광역시 중구 광복로35번길 13,35.10059828,129.0287406,
157,롯데백화점 (부산 광복점),부산 중구,051-678-2500,"['롯데백화점', '롯데시네마', '백화점', '쇼핑']",https://cdn.visitkorea.or.kr/img/call?cmd=VIEW&id=e21e4b9f-acab-4ec3-aacb-94796fa4c634&thumb,부산광역시 중구 중앙대로 2,35.09830526,129.0367023,
158,애플아울렛,부산 사상구,051-559-1500,"['관광', '부산쇼핑', '브랜드', '쇼핑', '아울렛']",https://cdn.visitkorea.or.kr/img/call?cmd=VIEW&id=b7eb1c51-d610-4cb6-83bd-e8ca5f4091b1&thumb,부산광역시 사상구 사상로 201,35.16314616,128.9809858,
159,남천 해변시장,부산 수영구,051-624-9646,"['가족여행', '경상권', '남천해변시장', '사계절', '쇼핑', '시장맛집', '아이와함께']",https://cdn.visitkorea.or.kr/img/call?cmd=VIEW&id=26b32398-bce3-448d-bb17-d17eb0078ffe&thumb,부산광역시 수영구 광안해변로15번길 77,35.13915613,129.1090408,
160,분더샵 (신세계백화점 센텀시티점),부산 해운대구,051-745-2442,"['센텀시티', '쇼핑', '신세계백화점', '패션', '편집매장']",https://cdn.visitkorea.or.kr/img/call?cmd=VIEW&id=2d6c2919-a29f-4735-a4e0-aaea87f912d0&thumb,부산광역시 해운대구 센텀남대로 35,35.16881784,129.1295233,
161,부산 부전시장,부산 부산진구,051-818-9454,"['가족여행', '경상권', '나들이', '나홀로여행', '데이트코스', '먹거리', '부산부전시장']",https://cdn.visitkorea.or.kr/img/call?cmd=VIEW&id=fdc4625c-8ad7-45ab-9ae5-abc3f9ab5ec0&thumb,부산광역시 부산진구 중앙대로755번길 21,35.16034559,129.0595513,
162,국제시장 젊음의거리,부산 중구,051-245-7389,"['가족여행', '경상권', '국제시장젊음의거리', '사계절', '쇼핑', '시장맛집', '아이와함께']",https://cdn.visitkorea.or.kr/img/call?cmd=VIEW&id=e0c1aac7-7f2a-44c3-a49f-251ff11af78c&thumb,부산광역시 중구 국제시장2길 25,35.10154027,129.0283106,
163,"구포장 / 구포시장 (3, 8일)",부산 북구,051-333-9032,"['가족여행', '경상권', '구포시장', '구포장', '사계절', '쇼핑', '시장맛집', '아이와함께']",https://cdn.visitkorea.or.kr/img/call?cmd=VIEW&id=4344d148-061c-45e1-bcd2-725eaeaa2e0c&thumb,부산광역시 북구 구포시장1길 17,35.20900262,129.00437549999998,
164,(주)한국다원호간보 부산지사 [한국관광 품질인증/Korea Quality],부산 중구,051-466-5168,"['부산추천쇼핑', '쇼핑', '청운플러스', '한국관광품질인증', '한국관광품질인증업소']",https://cdn.visitkorea.or.kr/img/call?cmd=VIEW&id=01341eea-95d0-4f92-b1fd-7ba3b8b6fdb2&thumb,부산광역시 중구 대청로155번길 6,35.10351802,129.0372218,
165,부산 평화도매시장,부산 부산진구,051-646-6561,"['가족여행', '경상권', '부산평화도매시장', '사계절', '쇼핑', '이색체험', '체험학습']",https://cdn.visitkorea.or.kr/img/call?cmd=VIEW&id=2dd070e9-a1d1-4229-8694-d4537a1809b3&thumb,부산광역시 부산진구 자유평화로 7,35.14169728,129.0606748,
166,아이하시 (수제젓가락공예),부산 중구,010-2620-7373,"['국제시장', '목제가공', '쇼핑', '수제젓가락']",https://cdn.visitkorea.or.kr/img/call?cmd=VIEW&id=3eb7ce1d-c284-4e87-89d7-de16d9c90e70&thumb,부산광역시 중구 국제시장2길 33,35.10238037,129.0283039,
167,신세계면세점 (부산점),부산 해운대구,1661-8778,"['경상권', '면세점', '쇼핑', '신세계면세점']",https://cdn.visitkorea.or.kr/img/call?cmd=VIEW&id=351c25ef-0a7c-4ff5-8dc0-85daadb41348&thumb,부산광역시 해운대구 센텀4로 15,35.16986142,129.1282901,
168,민락어민활어직판장,부산 수영구,051-753-0200,"['매운탕', '쇼핑', '회센터', '회요리']",https://cdn.visitkorea.or.kr/img/call?cmd=VIEW&id=4e1de9bd-d24e-4011-9913-70038a44e323&thumb,부산광역시 수영구 광안해변로312번길 60,35.15421579,129.12786359999998,
169,부산공동어시장,부산 서구,051-254-8961,"['가족여행', '경상권', '기차여행', '나들이', '나홀로여행', '데이트코스', '부산공동어시장']",https://cdn.visitkorea.or.kr/img/call?cmd=VIEW&id=8623617d-413a-42a2-8150-a749cacd24c8&thumb,부산광역시 서구 충무대로 202,35.08990197,129.02636909999998,
170,서면 지하도상가,부산 부산진구,051-713-8261,"['서면역', '쇼핑', '신발', '지하상가']",https://cdn.visitkorea.or.kr/img/call?cmd=VIEW&id=b5ca5c67-15b3-4189-837c-a0f481d6393c&thumb,부산광역시 부산진구 중앙대로 737,35.16023309,129.0611055,
171,Y'Z PARK (와이즈파크),부산 중구,051-260-5000,"['복합쇼핑몰', '부산맛집', '부산호텔', '쇼핑', '피트니스센터']",https://cdn.visitkorea.or.kr/img/call?cmd=VIEW&id=ad6114b1-a2ce-4f14-9d0f-467564797a07&thumb,부산광역시 중구 광복로39번길 6,35.09972042,129.0295871,
172,은송타미나,부산 중구,051-246-0786,"['광복동시장', '쇼핑', '외국인이많이찾는', '외국인친구에게추천', '인테리어소품']",https://cdn.visitkorea.or.kr/img/call?cmd=VIEW&id=f40b1bbb-ae6c-4a1c-93ea-7ecd75f8815c&thumb,부산광역시 중구 광복로39번길 26,35.10149432,129.0293919,
173,삼성디지털프라자 (롯데백화점센텀시티점),부산 해운대구,051-730-3320,"['가전제품', '부산가볼만한곳', '부산쇼핑', '쇼핑', '전자제품']",https://cdn.visitkorea.or.kr/img/call?cmd=VIEW&id=66a1b4bc-6915-4135-862f-f8eca6822643&thumb,부산광역시 해운대구 센텀남대로 59,35.16985335,129.13106969999998,
174,탠디(롯데백화점 센텀시티점),부산 해운대구,051-730-3231,"['20대', '30대', '쇼핑', '신발', '제화브랜드']",https://cdn.visitkorea.or.kr/img/call?cmd=VIEW&id=fe59fde0-1d38-4389-8c6f-09760292cedd&thumb,부산광역시 해운대구 센텀남대로 59,35.16985335,129.13106969999998,
175,좌천동 가구거리,부산 동구,051-638-3007,"['가구점', '경상권', '쇼핑', '좌천동가구거리']",https://cdn.visitkorea.or.kr/img/call?cmd=VIEW&id=319a5b07-7074-4ef2-912f-cbaaaadbeb54&thumb,부산광역시 동구 중앙대로,35.11738769,129.0405156,
176,카카오프렌즈 부산 플래그십 스토어,부산 중구,051-256-0815,"['라이프스타일', '쇼핑', '카카오프렌즈', '플래그십스토어']",https://cdn.visitkorea.or.kr/img/call?cmd=VIEW&id=2f3e3c91-fdb3-44a4-b973-dc73942196ff&thumb,부산광역시 중구 광복로 62,35.09903638,129.0315906,
177,헤라 (롯데백화점 센텀시티점),부산 해운대구,051-730-3143,"['경상권', '쇼핑', '헤라', '화장품']",https://cdn.visitkorea.or.kr/img/call?cmd=VIEW&id=6e0af77c-0808-4fa6-9c14-77798872ad6e&thumb,부산광역시 해운대구 센텀남대로 59,35.16985335,129.13106969999998,
178,거제시장,부산 연제구,051-852-6133,"['가족여행', '거제시장', '경상권', '기차여행', '나들이', '나홀로여행', '데이트코스']",https://cdn.visitkorea.or.kr/img/call?cmd=VIEW&id=e138e451-32e1-4059-88b3-3bfbe0ec211e&thumb,부산광역시 연제구 거제시장로14번길 28,35.18193157,129.0727929,
179,남포동 지하도상가,부산 중구,051-713-8200,"['부산지하상가', '쇼핑', '외국인이많이찾는', '지하상가']",https://cdn.visitkorea.or.kr/img/call?cmd=VIEW&id=18203111-50bd-4fd3-a307-b72401a545c7&thumb,부산광역시 중구 구덕로 지하 44,35.09800097,129.0306204,
180,다해정,부산 중구,051-242-7211,"['가족과함께', '문화공간', '쇼핑', '전통문화']",https://cdn.visitkorea.or.kr/img/call?cmd=VIEW&id=ee3078b1-674d-4431-ac06-383d8bd6d14d&thumb,부산광역시 중구 남포길 39-2,35.09823256,129.0332494,
181,한국민속식품 (부산),부산 강서구,051-971-4133,"['가족여행', '경상권', '기념품판매', '나홀로여행', '쇼핑', '아이와함께', '연인과함께']",https://cdn.visitkorea.or.kr/img/call?cmd=VIEW&id=71493d0b-5081-4ef3-abcd-722dcd80333d&thumb,부산광역시 강서구 공항로811번길 71-1,35.18071217,128.9539541,
182,국제시장 조명의 거리,부산 중구,,"['경상권', '국제시장조명의거리', '사계절', '쇼핑', '아이와함께', '체험학습']",https://cdn.visitkorea.or.kr/img/call?cmd=VIEW&id=1004b69b-160e-47c4-8444-8096961f511d&thumb,부산광역시 중구 국제시장2길 5,35.09970656,129.0283158,
183,금강제화 부산서면점,부산 부산진구,051-806-9194,"['경상권', '금강제화', '쇼핑', '친구와함께']",https://cdn.visitkorea.or.kr/img/call?cmd=VIEW&id=dc13c177-53e4-4835-88c6-7b71a23894a8&thumb,부산광역시 부산진구 중앙대로 691,35.15460646,129.0588089,
184,핫트랙스 (부산점),부산 부산진구,051-819-9961,"['기프트아이템', '문구', '복합문화쇼핑공간', '쇼핑']",https://cdn.visitkorea.or.kr/img/call?cmd=VIEW&id=a500d70e-5b6a-47f2-ad26-4f6e933c7678&thumb,부산광역시 부산진구 중앙대로 658,35.15153117,129.0595552,
185,오휘 (롯데백화점센텀시티점),부산 해운대구,051-730-3141,"['롯데백화점', '부산', '부산여행', '쇼핑', '화장품']",https://cdn.visitkorea.or.kr/img/call?cmd=VIEW&id=05f37f79-6b97-4831-b6a0-d1b7e4659b97&thumb,부산광역시 해운대구 센텀남대로 59,35.16985335,129.13106969999998,
186,롯데백화점 (부산본점),부산 부산진구,051-810-2500,"['롯데백화점', '백화점', '복합생활문화공간', '쇼핑']",https://cdn.visitkorea.or.kr/img/call?cmd=VIEW&id=fef571df-e487-4697-b759-e0580c95941b&thumb,부산광역시 부산진구 가야대로 772,35.15678998,129.0564162,
187,프리스비 (Frisbee) 서면점,부산 부산진구,051-808-0947,"['부산', '쇼핑', '스마트스토어', '애플전문매장']",https://cdn.visitkorea.or.kr/img/call?cmd=VIEW&id=f7cd8aa8-ebd3-49da-9131-99b6c72d2fa3&thumb,부산광역시 부산진구 중앙대로691번길 14,35.15456955,129.0583081,
188,피터젠슨 (신세계백화점 센텀시티점),부산 해운대구,051-745-2705,"['라이프스타일', '쇼핑', '유명디자이너', '캐릭터숍']",https://cdn.visitkorea.or.kr/img/call?cmd=VIEW&id=3819be37-23b0-419b-8319-796f1f4c9b84&thumb,부산광역시 해운대구 센텀남대로 35,35.16881784,129.1295233,
189,설화수 (롯데백화점 센텀시티점),부산 해운대구,051-730-3183,"['브랜드', '쇼핑', '한방화장품', '화장품']",https://cdn.visitkorea.or.kr/img/call?cmd=VIEW&id=7f62a9fb-2db7-47bc-8c12-32afafb3e093&thumb,부산광역시 해운대구 센텀남대로 59,35.16985335,129.13106969999998,
190,금강제화 부산본점,부산 중구,051-241-4383,"['쇼핑', '액세서리', '전문멀티샵', '패션브랜드']",https://cdn.visitkorea.or.kr/img/call?cmd=VIEW&id=6e37b04d-60b2-42d9-9e61-4330d7b02a65&thumb,부산광역시 중구 광복로 59,35.09938243,129.03163909999998,
191,갤럭시 (롯데백화점 센텀시티점),부산 해운대구,051-730-3623,"['남성정장', '롯데백화점', '브랜드', '쇼핑', '이태리스타일']",https://cdn.visitkorea.or.kr/img/call?cmd=VIEW&id=ed652f53-6931-4512-9bc2-dc993cacd039&thumb,부산광역시 해운대구 센텀남대로 59,35.16985335,129.13106969999998,
192,쥬디스태화,부산 부산진구,051-804-9700,['쇼핑'],https://cdn.visitkorea.or.kr/img/call?cmd=VIEW&id=43d6e7b1-05a1-4bb2-a384-1c92754b4bec&thumb,부산광역시 부산진구 중앙대로 694,35.15472735,129.05962240000002,
193,정관장 (롯데백화점 센텀시티점),부산 해운대구,051-730-3039,"['건강식품', '건강식품브랜드', '쇼핑', '정관장']",https://cdn.visitkorea.or.kr/img/call?cmd=VIEW&id=40fe248d-8b09-448a-8601-a8b0002827a3&thumb,부산광역시 해운대구 센텀남대로 59,35.16985335,129.13106969999998,
194,빈폴 (롯데백화점 센텀시티점),부산 해운대구,051-730-3646,"['가방', '디자인', '모자', '센텀시티', '셔츠', '쇼핑']",https://cdn.visitkorea.or.kr/img/call?cmd=VIEW&id=9fb73647-66bd-4ae3-a450-29420a095cd9&thumb,부산광역시 해운대구 센텀남대로 59,35.16985335,129.13106969999998,
195,부평동한복거리,부산 중구,051-254-5504,"['국제시장', '쇼핑', '완구점거리', '한복', '한복거리']",https://cdn.visitkorea.or.kr/img/call?cmd=VIEW&id=d6fdb6be-757c-471e-bf7f-8f3ace13f5a9&thumb,부산광역시 중구 부평2길 44,35.10144518,129.02657150000002,
196,광복로 아리랑 거리,부산 중구,051-600-4082,"['가족여행', '경상권', '광복로아리랑거리', '먹거리', '사계절', '쇼핑', '아이와함께']",https://cdn.visitkorea.or.kr/img/call?cmd=VIEW&id=d74652b6-b5a8-4143-b479-6fce67e235d3&thumb,부산 중구 신창동1~4가,35.10261444,129.0285223,
197,신동아 수산물시장,부산 중구,051-246-7500,"['경상권', '쇼핑', '수산시장', '신동아수산물시장']",https://cdn.visitkorea.or.kr/img/call?cmd=VIEW&id=9d28f9c6-fabc-4eab-aa7f-de38805a2e0e&thumb,부산광역시 중구 자갈치로 42,35.09672134,129.0286701,
198,연일시장,부산 연제구,051-853-7023,"['가족여행', '경상권', '기차여행', '나들이', '나홀로여행', '데이트코스', '먹거리']",https://cdn.visitkorea.or.kr/img/call?cmd=VIEW&id=e0b2cd61-d5c4-4893-92f8-4c67e61ec55b&thumb,부산광역시 연제구 고분로 24,35.18557217,129.0848775,
199,타임 (롯데백화점 센텀시티점),부산 해운대구,051-730-3453,"['롯제백화점', '브랜드', '쇼핑', '여성복']",https://cdn.visitkorea.or.kr/img/call?cmd=VIEW&id=256ad858-8077-4755-bc81-06b07fcec98a&thumb,부산광역시 해운대구 센텀남대로 59,35.16985335,129.13106969999998,
200,광복로 만물의거리,부산 중구,051-245-3156,"['가족여행', '경상권', '광복로만물의거리', '먹거리', '사계절', '쇼핑', '아이와함께']",https://cdn.visitkorea.or.kr/img/call?cmd=VIEW&id=d2f31450-1020-4c49-8000-dae2decbbb21&thumb,부산광역시 중구 국제시장2길 20-1,35.10111964,129.0285721,
201,피숀 (신세계백화점 센텀시티점),부산 해운대구,051-745-2392,"['생활용품', '쇼핑', '유러피안라이프스타일', '인테리어전문점']",https://cdn.visitkorea.or.kr/img/call?cmd=VIEW&id=cb178253-7068-4568-9a46-d10545ba056a&thumb,부산광역시 해운대구 센텀남대로 35,35.16881784,129.1295233,
202,레스모아 (LesMore) 부산광복동점,부산 중구,,"['경상권', '레스모아', '브랜드슈즈', '쇼핑', '신발']",https://cdn.visitkorea.or.kr/img/call?cmd=VIEW&id=7f3e430c-f438-44e1-8006-860e326663c7&thumb,부산광역시 중구 광복로 57,35.09940867,129.031472,
203,송원칠공방,부산 부산진구,051-802-7427,"['공방', '나전칠기', '부산', '쇼핑']",https://cdn.visitkorea.or.kr/img/call?cmd=VIEW&id=1a9a44df-55be-4d5b-893c-f8603ae3b484&thumb,부산광역시 부산진구 성지곡로 43,35.18614991,129.0483092,
204,후 (신세계백화점 센텀시티점),부산 해운대구,051-745-1259,"['경상권', '쇼핑', '신세계백화점센텀시티점', '후']",https://cdn.visitkorea.or.kr/img/call?cmd=VIEW&id=c5a6c1de-db5c-4ff5-9512-1a3bb61b7ee4&thumb,부산광역시 해운대구 센텀남대로 35,35.16881784,129.1295233,
205,버커루 (롯데백화점 센텀시티점),부산 해운대구,051-730-3552,"['10대', '20대', '데님진', '브랜드', '쇼핑', '패션리더']",https://cdn.visitkorea.or.kr/img/call?cmd=VIEW&id=442748cf-971b-4856-b444-075598f271f7&thumb,부산광역시 해운대구 센텀남대로 59,35.16985335,129.13106969999998,
206,동보프라자,부산 부산진구,051-803-0009,"['복합문화공간', '부산', '부산쇼핑', '쇼핑']",https://cdn.visitkorea.or.kr/img/call?cmd=VIEW&id=d589944c-8de7-4044-970f-76ea39886d33&thumb,부산광역시 부산진구 중앙대로 704,35.15549362,129.05958470000002,
207,광복 지하도상가,부산 중구,051-713-8200,"['쇼핑', '신발', '악세서리', '의류', '지하상가']",https://cdn.visitkorea.or.kr/img/call?cmd=VIEW&id=f8e760fc-151c-406b-ab8a-985136089384&thumb,부산광역시 중구 중앙대로29번길 8,35.10022159,129.035652,
208,광주요,부산 해운대구,051-745-2319,['쇼핑'],https://cdn.visitkorea.or.kr/img/call?cmd=VIEW&id=a95ee168-9fab-46af-88b3-b09499728001&thumb,부산광역시 해운대구 센텀남대로 35,35.16881784,129.1295233,
209,트렉스타 (롯데백화점 센텀시티점),부산 해운대구,051-730-3551,"['등산화', '브랜드', '쇼핑', '아웃도어']",https://cdn.visitkorea.or.kr/img/call?cmd=VIEW&id=5b851163-c945-41e6-8ff8-8cc78c3f100e&thumb,부산광역시 해운대구 센텀남대로 35,35.16881784,129.1295233,
210,블루핏 (신세계백화점 센텀시티점),부산 해운대구,051-745-2445,['쇼핑'],https://cdn.visitkorea.or.kr/img/call?cmd=VIEW&id=d8ed9362-e888-4c7a-b2af-bef7518233a5&thumb,부산광역시 해운대구 센텀남대로 35,35.16881784,129.1295233,
211,LG베스트샵(롯데백화점 센텀시티),부산 해운대구,051-730-3326,['쇼핑'],https://cdn.visitkorea.or.kr/img/call?cmd=VIEW&id=55e1657e-d605-4a6f-af8c-62335e17e909&thumb,부산광역시 해운대구 센텀남대로 59,35.16985335,129.13106969999998,
212,이상봉 (롯데백화점 센텀시티점),부산 해운대구,051-730-3412,"['디자이너', '롯데백화점', '쇼핑', '여성복']",https://cdn.visitkorea.or.kr/img/call?cmd=VIEW&id=19293c4c-e506-4b0f-99a7-2dd0ddb3878c&thumb,부산광역시 해운대구 센텀남대로 59,35.16985335,129.13106969999998,
213,오랜지바다,부산 수영구,051-758-5308,"['관광기념품', '부산', '부산가볼만한곳', '부산기념품', '선물샵', '쇼핑']",https://cdn.visitkorea.or.kr/img/call?cmd=VIEW&id=ad2157b0-38e0-41eb-9273-4d66fdd773ba&thumb,부산광역시 수영구 광안해변로 245-1,35.15493588,129.1207388,
214,유한회사스노우에이치[한국관광 품질인증/Korea Quality],부산 동구,051-946-8008,"['부산추천쇼핑', '쇼핑', '유한회사스노우에이치', '한국관광품질인증', '한국관광품질인증업소']",https://cdn.visitkorea.or.kr/img/call?cmd=VIEW&id=8513cd8b-0d3a-4696-8b15-4e7968f9ff01&thumb,부산광역시 동구 조방로 32,35.13970028,129.0620473,
