,name,region,tel,keyword,photo,address,lat,lon,Unnamed: 0
0,광나루안전체험관,서울 광진구,02-2049-4061,"['광나루안전체험관', '문화시설', '사계절', '수도권', '아이와함께', '이색체험']",https://cdn.visitkorea.or.kr/img/call?cmd=VIEW&id=a869ce50-7316-483b-8d22-acc9caa0a573&thumb,서울특별시 광진구 능동로 238,37.55131484,127.07717439999999,
1,국립중앙박물관,서울 용산구,02-2077-9000,"['국립중앙박물관', '나들이', '문화시설', '미세먼지_피하는_실내여행', '박물관']",https://cdn.visitkorea.or.kr/img/call?cmd=VIEW&id=57a6e3a1-454e-4cc7-b20d-de99307f2add&thumb,서울특별시 용산구 서빙고로 137,37.52470224,126.9777402,
2,청와대사랑채,서울 종로구,02-723-0300,"['가족여행', '교과서속여행', '기념관', '도심여행', '문화시설', '사계절', '실내여행지']",https://cdn.visitkorea.or.kr/img/call?cmd=VIEW&id=f54e0f20-49e3-4fb8-88e6-cc372ca3c15a&thumb,서울특별시 종로구 효자로13길 45,37.58254488,126.97305929999999,
3,돈의문박물관마을,서울 종로구,02-739-6994,"['감성사진', '남녀노소', '문화시설', '부모님과함께', '사진찍기좋은곳', '사진촬영']",https://cdn.visitkorea.or.kr/img/call?cmd=VIEW&id=91cf6a7a-0234-4bc8-88d0-df3ba853ba22&thumb,서울특별시 종로구 송월길 14-3,37.56882521,126.9685249,
4,서대문형무소역사관,서울 서대문구,02-360-8590,"['3·1운동_100주년_여행지추천', '가족과함께', '교과서속여행', '문화시설']",https://cdn.visitkorea.or.kr/img/call?cmd=VIEW&id=8bdffb08-c43a-4cf3-8f9c-91aff64edb0a&thumb,서울특별시 서대문구 통일로 251,37.57460851,126.9556118,
5,래미안 갤러리,서울 송파구,1588-3588,"['건축여행', '데이트코스', '래미안갤러리', '문화공간', '문화시설', '복합문화공간']",https://cdn.visitkorea.or.kr/img/call?cmd=VIEW&id=578818df-1539-4230-9077-e612d913974f&thumb,서울특별시 송파구 충민로 17,37.47925202,127.1201389,
6,평화문화진지,서울 도봉구,02-3494-1970,"['문화시설', '문화창작공간', '서울관광지', '언택트관광지_100선', '옛대전차방호시설']",https://cdn.visitkorea.or.kr/img/call?cmd=VIEW&id=357bf8af-2db0-43db-8a34-8552a8082698&thumb,서울특별시 도봉구 마들로 932,37.69078014,127.0468126,
7,서울 트릭아이뮤지엄,서울 마포구,02-3144-6300,"['도심여행', '문화시설', '미술관', '사진찍기', '사진찍기좋은곳', '서울트릭아이미술관']",https://cdn.visitkorea.or.kr/img/call?cmd=VIEW&id=6d47f35c-3f78-4cb9-9e8b-46369490f58d&thumb,서울특별시 마포구 홍익로3길 20,37.55351606,126.92171540000001,
8,한국종합무역센터(코엑스),서울 강남구,02-6000-0114,"['가족여행', '데이트코스', '도심여행', '먹거리', '문화시설', '복합문화공간', '수도권']",https://cdn.visitkorea.or.kr/img/call?cmd=VIEW&id=7110ed98-f6ce-435e-9334-6f1fb9f69a3d&thumb,서울특별시 강남구 영동대로 513,37.51182391,127.05915900000001,
9,국립어린이과학관,서울 종로구,02-3668-3350,"['과학관', '국립어린이과학관', '나들이', '문화시설', '수도권', '실내여행지', '아이와함께']",https://cdn.visitkorea.or.kr/img/call?cmd=VIEW&id=637b33da-9f20-457f-8cfa-be60aa1acf93&thumb,서울특별시 종로구 창경궁로 215,37.58203191,126.9970157,
10,케이스타일허브(K-Style Hub),서울 중구,02-729-9457,"['VR체험', '가족여행', '관광안내', '먹거리', '문화시설', '문화콘텐츠산업', '수도권']",https://cdn.visitkorea.or.kr/img/call?cmd=VIEW&id=03add89a-5232-493b-b24b-a1a8e8eccb73&thumb,서울특별시 중구 청계천로 40,37.56852858,126.9816273,
11,전쟁기념관,서울 용산구,02-709-3144,"['가족여행', '교과서속여행', '도심여행', '문화시설', '미세먼지_피하는_실내여행']",https://cdn.visitkorea.or.kr/img/call?cmd=VIEW&id=c591d23a-9726-40bc-a86b-6c61ab11850a&thumb,서울특별시 용산구 이태원로 29,37.53731405,126.97846609999999,
12,롯데월드 아쿠아리움,서울 송파구,1661-2000,"['가족과함께', '롯데월드', '롯데월드아쿠아리움', '문화시설', '미세먼지_피하는_실내여행']",https://cdn.visitkorea.or.kr/img/call?cmd=VIEW&id=02909a0d-b8d9-48f1-b485-a2383e3d195a&thumb,서울특별시 송파구 올림픽로 300 롯데월드 몰 B1,37.51375196,127.1044469,
13,예술의전당 한가람미술관,서울 서초구,02-580-1300,"['나들이', '데이트코스', '문화시설', '미술관', '수도권', '아이와함께', '연인과함께']",https://cdn.visitkorea.or.kr/img/call?cmd=VIEW&id=f8fa220b-3b61-473d-a1a8-4de15f8fb51e&thumb,서울특별시 서초구 남부순환로 2406,37.4802402,127.0142152,
14,청원산방,서울 종로구,02-715-3342,"['가족과함께', '공연/전시', '공예체험', '공예품', '문화공간', '문화시설', '아이와함께']",https://cdn.visitkorea.or.kr/img/call?cmd=VIEW&id=cc908b0a-293d-4597-84b9-57fcba12f57b&thumb,서울특별시 종로구 북촌로6길 27,37.58042983,126.9863571,
15,서울특별시교육청 과학전시관,서울 관악구,02-881-3000,"['교과서속여행', '문화시설', '사계절', '서울특별시과학전시관', '수도권', '실내여행지']",https://cdn.visitkorea.or.kr/img/call?cmd=VIEW&id=fea28144-d4f5-47f4-addf-301f33ee6e42&thumb,서울특별시 관악구 낙성대로 101,37.46881648,126.95941090000002,
16,서울시립 북서울미술관,서울 노원구,02-2124-5248,"['교육여행', '교육프로그램', '데이트코스', '문화공간', '문화시설', '복합문화공간']",https://cdn.visitkorea.or.kr/img/call?cmd=VIEW&id=2a46a436-051a-4db4-b4d8-ebe55571acc6&thumb,서울특별시 노원구 동일로 1238,37.64066045,127.0668656,
17,별마당도서관,서울 강남구,02-6002-5300,"['가족과함께', '도서관', '도심여행', '문화시설', '별마당도서관', '삼성역', '서점']",https://cdn.visitkorea.or.kr/img/call?cmd=VIEW&id=25ab46bc-a95e-4f28-a0e4-a27c499e5b39&thumb,서울특별시 강남구 영동대로 513,37.51182391,127.05915900000001,
18,서대문자연사박물관,서울 서대문구,02-330-8899,"['가족여행', '단체관람', '문화시설', '박물관', '서대문자연사박물관', '아이와함께']",https://cdn.visitkorea.or.kr/img/call?cmd=VIEW&id=4cd5f493-771c-40ff-a921-55292888011c&thumb,서울특별시 서대문구 연희로32길 51,37.57675199,126.9378582,
19,유관순기념관(서울),서울 중구,02-752-3353,"['3·1운동_100주년_여행지추천', '가족과함께', '기념관', '문화시설', '서울시']",https://cdn.visitkorea.or.kr/img/call?cmd=VIEW&id=e8e2f712-9ae1-4756-bdae-a8b997d5a966&thumb,서울특별시 중구 통일로4길 30-1,37.56444503,126.97030490000002,
20,국립고궁박물관,서울 종로구,02-3701-7500,"['교과서속여행', '국립고궁박물관', '나들이', '문화시설', '박물관', '실내여행지']",https://cdn.visitkorea.or.kr/img/call?cmd=VIEW&id=ffaeb4c4-3f5a-4416-900d-35313ae20898&thumb,서울특별시 종로구 효자로 12,37.57659162,126.97497479999998,
21,서울시립미술관(서소문본관),서울 중구,02-2124-8800,"['데이트코스', '문화시설', '미세먼지_피하는_실내여행', '미술관', '서소문본관']",https://cdn.visitkorea.or.kr/img/call?cmd=VIEW&id=818dc8c9-ab3d-4ed6-9c92-0e2edfef917f&thumb,서울특별시 중구 덕수궁길 61,37.56410607,126.9736993,
22,윤스칼라,서울 마포구,02-3141-9027,"['남녀노소', '드라마', '문화시설', '상설전시', '수도권', '연인과함께', '윤스칼라']",https://cdn.visitkorea.or.kr/img/call?cmd=VIEW&id=cee19b5f-4955-4896-a194-09c30444685e&thumb,서울특별시 마포구 와우산로14길 12,37.55019009,126.9237415,
23,긱 라이브하우스,서울 마포구,02-3141-5292,"['긱라이브하우스', '라이브클럽', '문화시설', '서울여행']",https://cdn.visitkorea.or.kr/img/call?cmd=VIEW&id=5954446a-9751-46f8-bf0c-f1e5dce85d7d&thumb,서울특별시 마포구 신촌로10길 7,37.55637961,126.93204329999999,
24,간송미술관(서울 보화각),서울 중구,070-7774-2524,"['가족과함께', '문화공간', '문화시설', '문화예술', '문화예술공간', '복합문화공간']",https://cdn.visitkorea.or.kr/img/call?cmd=VIEW&id=6d697e64-b899-41c0-85d1-2415567cc49a&thumb,서울특별시 중구 을지로 281,37.56801422,127.0109091,
25,환기미술관,서울 종로구,02-391-7701,"['문화공간', '문화시설', '문화예술', '복합문화공간', '열린문화공간', '예술품']",https://cdn.visitkorea.or.kr/img/call?cmd=VIEW&id=fb8087e2-0c1e-434d-85d6-60f71f02ffaf&thumb,서울특별시 종로구 자하문로40길 63,37.59408777,126.96611370000001,
26,대한민국역사박물관,서울 종로구,02-3703-9200,"['교과서속여행', '대한민국역사박물관', '문화시설', '미세먼지_피하는_실내여행']",https://cdn.visitkorea.or.kr/img/call?cmd=VIEW&id=5f3b3582-54e3-4d6b-a736-7e1c4cf04b72&thumb,서울특별시 종로구 세종대로 198,37.57371361,126.97833940000001,
27,송파문화원,서울 송파구,02-414-0354,"['문화시설', '복합문화공간', '송파문화원', '열린문화공간']",https://cdn.visitkorea.or.kr/img/call?cmd=VIEW&id=50b5cb35-ee07-42f6-8b17-225b4d7af430&thumb,서울특별시 송파구 올림픽로 44,37.51068239,127.07593680000001,
28,안중근의사기념관,서울 중구,02-3789-1016,"['3·1운동_100주년_여행지추천', '기념관', '단체관람', '무료관람', '문화시설']",https://cdn.visitkorea.or.kr/img/call?cmd=VIEW&id=1a144149-707e-4ab3-a604-ab5cca2a4a35&thumb,서울특별시 중구 소월로 91,37.55346849,126.9804043,
29,코엑스 아쿠아리움,서울 강남구,02-700-7200,"['데이트코스', '문화시설', '미세먼지_피하는_실내여행', '실내관광지', '실내여행지']",https://cdn.visitkorea.or.kr/img/call?cmd=VIEW&id=5b9c7034-2bdb-4243-897f-d5cc29ac1046&thumb,서울특별시 강남구 영동대로 513,37.51182391,127.05915900000001,
30,대안공간 루프,서울 마포구,02-3141-1377,"['공연', '공연/전시', '대안공간루프', '문화시설', '문화예술공간', '복합문화공간']",https://cdn.visitkorea.or.kr/img/call?cmd=VIEW&id=76324e3f-b90e-40b2-897a-0a48c0766530&thumb,서울특별시 마포구 와우산로29나길 20,37.55447909,126.92786159999999,
31,전쟁과여성인권박물관,서울 마포구,02-392-5252,"['문화시설', '박물관', '수도권', '아이와함께', '아픈과거', '역사속', '역사속으로']",https://cdn.visitkorea.or.kr/img/call?cmd=VIEW&id=3e083203-da23-4b3b-9ca0-cc513e4459e2&thumb,서울특별시 마포구 월드컵북로11길 20,37.56009763,126.9148871,
32,소마미술관,서울 송파구,02-425-1077,"['가족여행', '문화시설', '미술관', '사계절', '소마미술관', '수도권', '예술', '이색체험']",https://cdn.visitkorea.or.kr/img/call?cmd=VIEW&id=ae21527e-c9f1-4e41-9663-d4a512a32a58&thumb,서울특별시 송파구 올림픽로 424,37.52033970000001,127.1155179,
33,서울천년타임캡슐광장,서울 중구,02-2264-4412,"['문화시설', '산책길', '산책하기', '산책하기좋은곳', '서울근교여행', '서울새천년타임캡슐']",https://cdn.visitkorea.or.kr/img/call?cmd=VIEW&id=ec085c84-9069-471e-9035-62cdd7488a9f&thumb,서울특별시 중구 퇴계로34길 28,37.55954623,126.99468020000002,
34,백범김구기념관,서울 용산구,02-799-3400,"['3·1운동_100주년_여행지추천', '기념관', '나들이', '도심여행', '드라이브여행']",https://cdn.visitkorea.or.kr/img/call?cmd=VIEW&id=331de187-6437-4ccf-86d0-3b5777ba3782&thumb,서울특별시 용산구 임정로 26,37.54427794,126.959253,
35,서울역사박물관,서울 종로구,02-724-0274,"['가족여행', '교과서속여행', '단체관람', '도심여행', '문화시설', '박물관', '서울역사박물관']",https://cdn.visitkorea.or.kr/img/call?cmd=VIEW&id=9848fa1f-1970-477b-871a-006c40289411&thumb,서울특별시 종로구 새문안로 55,37.57049685,126.97107520000002,
36,박물관은 살아있다(인사동점),서울 종로구,1544-8506,"['데이트코스', '도심여행', '문화시설', '박물관은살아있다', '사계절', '사진찍기']",https://cdn.visitkorea.or.kr/img/call?cmd=VIEW&id=01bd9d02-aa9d-4558-a2ab-f7972b0da5e4&thumb,서울특별시 종로구 인사동길 12,37.57189615,126.98723059999999,
37,용산공예관,서울 용산구,02-2199-6180,"['가족과함께', '공예', '공예체험', '공예품', '남녀노소', '문화시설', '문화유산']",https://cdn.visitkorea.or.kr/img/call?cmd=VIEW&id=f6cefe50-58ec-467f-b60c-4791d64966f9&thumb,서울특별시 용산구 이태원로 274,37.53902726,127.00207549999999,
38,피규어뮤지엄W,서울 강남구,02-512-8865,"['가족과함께', '남녀노소', '문화시설', '아이가_좋아하는_여행', '아이와함께']",https://cdn.visitkorea.or.kr/img/call?cmd=VIEW&id=7917bc53-e00d-4962-9c51-3ebe5d01c94f&thumb,서울특별시 강남구 선릉로158길 3,37.525799799999994,127.04038659999999,
39,서울 아이스뮤지엄,서울 마포구,023-3144-6300,"['가족과함께', '남녀노소', '문화시설', '사진찍기좋은곳', '사진촬영명소', '아이와함께']",https://cdn.visitkorea.or.kr/img/call?cmd=VIEW&id=d5c74cc7-6926-46bd-9545-f0dc1701c008&thumb,서울특별시 마포구 홍익로3길 20,37.55351606,126.92171540000001,
40,한양도성박물관,서울 종로구,02-724-0243,"['기념관', '문화시설', '박물관', '수도권', '아이와함께', '여름방학가볼만한곳']",https://cdn.visitkorea.or.kr/img/call?cmd=VIEW&id=05c1307d-ec6c-43cd-ac1b-0aa192321bb0&thumb,서울특별시 종로구 율곡로 283,37.57285718,127.0085128,
41,팔레 드 서울,서울 종로구,02-730-7707,"['나홀로여행', '데이트코스', '문화공간', '문화시설', '복합문화공간', '사계절']",https://cdn.visitkorea.or.kr/img/call?cmd=VIEW&id=ea5e0203-3119-4189-8cab-19fe178b2b30&thumb,서울특별시 종로구 자하문로10길 30,37.57921322,126.97322350000002,
42,삼성미술관 리움,서울 용산구,02-2014-6901,"['가족여행', '단체관람', '당일치기여행', '문화시설', '미세먼지_피하는_실내여행']",https://cdn.visitkorea.or.kr/img/call?cmd=VIEW&id=0b446a77-ad23-4c38-b81b-0e09787f06ec&thumb,서울특별시 용산구 이태원로55길 60-16,37.53846127,126.99929409999999,
43,북촌문화센터,서울 종로구,02-2133-1371,"['가족여행', '문화시설', '북촌문화센터', '서울여행']",https://cdn.visitkorea.or.kr/img/call?cmd=VIEW&id=2b3d162c-4e20-4eee-af92-d0eaf92b3e35&thumb,서울특별시 종로구 계동길 37,37.57908833,126.9862761,
44,국립한글박물관,서울 용산구,02-2124-6200,"['가족체험여행', '교과서속여행', '국립한글박물관', '문화시설', '문화행사', '미세먼지_피하는_실내여행']",https://cdn.visitkorea.or.kr/img/call?cmd=VIEW&id=2a8500c0-dd83-48a8-9313-8a95025f5a4b&thumb,서울특별시 용산구 서빙고로 139,37.521068799999995,126.9804863,
45,국립현대미술관(서울관),서울 종로구,02-3701-9500,"['국립현대미술관서울관', '기념품판매', '문화공간', '문화시설', '문화예술활동']",https://cdn.visitkorea.or.kr/img/call?cmd=VIEW&id=ccfc003b-b922-448e-bb90-e50ae08a16a4&thumb,서울특별시 종로구 삼청로 30,37.57862803,126.980088,
46,동덕아트갤러리,서울 종로구,02-732-6458,"['동덕아트갤러리', '문화시설', '문화예술공간', '실내데이트', '전시관']",https://cdn.visitkorea.or.kr/img/call?cmd=VIEW&id=de513f11-8112-42d1-b6de-24b6139c0af6&thumb,서울특별시 종로구 우정국로 68,37.57493292,126.9833159,
47,둘리뮤지엄,서울 도봉구,02-990-2200,"['둘리뮤지엄', '문화시설', '문화콘텐츠산업', '박물관', '복합문화공간', '수도권']",https://cdn.visitkorea.or.kr/img/call?cmd=VIEW&id=e490cb68-00dd-4520-b4d6-8d50c866137c&thumb,서울특별시 도봉구 시루봉로1길 6,37.65242986,127.0276385,
48,샤롯데씨어터,서울 송파구,1644-0078,"['가족여행', '데이트코스', '도심여행', '문화시설', '사계절', '상설공연', '샤롯데씨어터']",https://cdn.visitkorea.or.kr/img/call?cmd=VIEW&id=aa59cf61-8692-4ab3-91ba-0135e1511955&thumb,서울특별시 송파구 올림픽로 240,37.51130961,127.09814180000001,
49,서울메트로미술관,서울 종로구,02-6110-5241,"['걷기여행', '데이트코스', '무료관람', '문화시설', '미술관', '서울메트로미술관']",https://cdn.visitkorea.or.kr/img/call?cmd=VIEW&id=b0ad2ac2-0732-4c73-b626-08d88b64f44f&thumb,서울특별시 종로구 사직로 지하 130,37.57586129999999,126.97306270000001,
50,서울상상나라,서울 광진구,02-6450-9500,"['문화시설', '사계절', '서울상상나라', '아이와함께', '여름방학가볼만한곳', '이색체험']",https://cdn.visitkorea.or.kr/img/call?cmd=VIEW&id=60e01629-3941-4295-ab96-3a2c304cf5dc&thumb,서울특별시 광진구 능동로 216,37.5520117,127.07877240000002,
51,국립현대미술관(덕수궁관),서울 중구,02-2022-0600,"['국립현대미술관', '덕수궁관', '데이트코스', '문화시설', '미술관', '수도권', '실내여행지']",https://cdn.visitkorea.or.kr/img/call?cmd=VIEW&id=67e61f50-eae9-4b84-b3e4-afc056320983&thumb,서울특별시 중구 세종대로 99,37.56616815,126.9739838,
52,브이센터 (브이센터 더라이브뮤지엄),서울 강동구,070-4278-8470,"['가족과함께', '기념품판매', '문화시설', '문화콘텐츠산업', '브이센터', '수도권']",https://cdn.visitkorea.or.kr/img/call?cmd=VIEW&id=68a088c7-b285-44ff-8fd8-e6f60c42c64b&thumb,서울특별시 강동구 아리수로61길 103,37.56539313,127.1477152,
53,국기원(세계태권도본부),서울 강남구,02-567-1058,"['공연/전시', '남녀노소', '문화시설', '전시공연', '전통&역사', '전통무예', '전통문화공연']",https://cdn.visitkorea.or.kr/img/call?cmd=VIEW&id=5b5157d0-bc08-40cf-b68f-0f1cc235f1bc&thumb,서울특별시 강남구 테헤란로7길 32,37.50251536,127.0303909,
54,서울특별시교육청 정독도서관,서울 종로구,02-2011-5799,"['나홀로여행', '도서관', '도심여행', '문화시설', '정독도서관', '친구와함께']",https://cdn.visitkorea.or.kr/img/call?cmd=VIEW&id=56606225-9d93-4561-8ee4-470f7c74be10&thumb,서울특별시 종로구 북촌로5길 48,37.58126545,126.98387009999999,
55,롯데월드 민속박물관,서울 송파구,02-411-4762,"['나들이', '놀이동산&테마파크', '데이트코스', '롯데월드', '롯데월드민속박물관']",https://cdn.visitkorea.or.kr/img/call?cmd=VIEW&id=1759c004-e323-4347-aa96-6418a8be8a8f&thumb,서울특별시 송파구 올림픽로 240,37.51130961,127.09814180000001,
56,서울특별시교육청 영등포평생학습관,서울 영등포구,02-6712-7500,"['문화시설', '서울특별시교육청영등포평생학습관', '수도권', '영등포평생학습관']",https://cdn.visitkorea.or.kr/img/call?cmd=VIEW&id=0ee09fa9-6ba2-4650-ae56-263307c0cd5a&thumb,서울특별시 영등포구 버드나루로15길 10,37.52599159,126.90726219999999,
57,한성백제박물관,서울 송파구,02-2152-5800,"['가족여행', '교과서속여행', '당일치기여행', '문화시설', '박물관', '사계절', '아이와함께']",https://cdn.visitkorea.or.kr/img/call?cmd=VIEW&id=d0589469-533d-48e4-bd93-9b8f707dd9b3&thumb,서울특별시 송파구 위례성대로 71,37.51542872,127.1208007,
58,종이나라박물관,서울 중구,02-2279-7901,"['나들이', '단체관람', '도심여행', '문화시설', '박물관', '실내여행지', '아이와함께']",https://cdn.visitkorea.or.kr/img/call?cmd=VIEW&id=49776ce1-16c7-4b6a-88d0-10b8a68b85d9&thumb,서울특별시 중구 장충단로 166,37.55964972,127.00615390000002,
59,서울남산국악당,서울 중구,02-2261-0500,"['문화시설', '복합문화공간', '상설공연', '서울남산국악당', '열린문화공간', '예술']",https://cdn.visitkorea.or.kr/img/call?cmd=VIEW&id=03f49a65-c96a-4f0a-823a-90da6c4f9c62&thumb,서울특별시 중구 퇴계로34길 28,37.55954623,126.99468020000002,
60,중랑구립정보도서관,서울 중랑구,02-490-9113,"['데이트코스', '도서관', '문화시설', '수도권', '실내여행지', '아이와함께', '연인과함께']",https://cdn.visitkorea.or.kr/img/call?cmd=VIEW&id=44d433f6-2243-418f-a119-17ee795dd05b&thumb,서울특별시 중랑구 신내로15길 197,37.61517057,127.0869064,
61,서울대학교 박물관,서울 관악구,02-880-5333,"['무료관람', '문화시설', '박물관', '서울대학교박물관', '수도권', '실내여행지']",https://cdn.visitkorea.or.kr/img/call?cmd=VIEW&id=5f3d3acb-ff45-4bfb-aed5-503f7e872c74&thumb,서울특별시 관악구 관악로 1,37.46803806,126.9592943,
62,중랑문화원,서울 중랑구,02-492-0066,"['문화시설', '문화행사', '복합문화공간', '아이와함께', '연인과함께', '예술', '중랑문화원']",https://cdn.visitkorea.or.kr/img/call?cmd=VIEW&id=c20209c4-a471-4aed-b0a3-f472ad25a4de&thumb,서울특별시 중랑구 면목로 238,37.57395395,127.0851055,
63,청계천박물관,서울 성동구,02-2286-3410,"['걷기여행', '도심여행', '문화시설', '박물관', '실내여행지', '아이와함께', '청계천박물관']",https://cdn.visitkorea.or.kr/img/call?cmd=VIEW&id=8afad903-fc55-4fb6-b009-a699911f2d77&thumb,서울특별시 성동구 청계천로 530,37.57126617,127.0350432,
64,예술의전당,서울 서초구,02-580-1300,"['가족여행', '공연장', '나들이', '데이트코스', '문화시설', '수도권', '실내여행지']",https://cdn.visitkorea.or.kr/img/call?cmd=VIEW&id=0679981f-c544-4856-8099-010f6b429edd&thumb,서울특별시 서초구 남부순환로 2406,37.4802402,127.0142152,
65,근현대사기념관,서울 강북구,02-903-7580,"['교과서속여행', '근현대사기념관', '기념관', '도심여행', '문화시설', '아이와함께']",https://cdn.visitkorea.or.kr/img/call?cmd=VIEW&id=dec9a84a-38fc-48bc-b417-21ece76d7798&thumb,서울특별시 강북구 4.19로 114,37.64344107,127.00283059999998,
66,서울 홍대 러브뮤지엄,서울 마포구,02-3144-7740,"['남녀노소', '데이트장소추천', '문화공간', '문화시설', '복합문화공간', '사진찍기']",https://cdn.visitkorea.or.kr/img/call?cmd=VIEW&id=fe9e3f23-0fcb-4df1-b602-be5e2175e458&thumb,서울특별시 마포구 홍익로3길 20,37.55351606,126.92171540000001,
67,세라믹 팔레스 홀,서울 강남구,02-3411-4668,"['가족여행', '도심여행', '문화시설', '세라믹팔레스홀', '실내여행지', '음악회']",https://cdn.visitkorea.or.kr/img/call?cmd=VIEW&id=cbf48196-0092-4949-bc8e-adc27a0d648d&thumb,서울특별시 강남구 일원로 90,37.48578186,127.0820718,
68,매헌 윤봉길의사 기념관,서울 서초구,02-578-3388,"['교과서속여행', '기념관', '매헌윤봉길의사기념관', '문화시설', '미세먼지_피하는_실내여행']",https://cdn.visitkorea.or.kr/img/call?cmd=VIEW&id=1fd170ba-7745-412e-9819-9430dde6003a&thumb,서울특별시 서초구 매헌로 99,37.4730498,127.0369771,
69,세종이야기,서울 종로구,02-399-1000,"['교과서속여행', '도심여행', '문화시설', '미세먼지_피하는_실내여행', '세종대왕']",https://cdn.visitkorea.or.kr/img/call?cmd=VIEW&id=2df4d1d9-904d-4615-a23d-e1894c18f2fc&thumb,서울특별시 종로구 세종대로 지하 175,37.57218604,126.9768172,
70,서울국가무형문화재전수회관,서울 강남구,02-566-6300,"['강남구', '문화시설', '서울국가무형문화재전수회관', '전통체험']",https://cdn.visitkorea.or.kr/img/call?cmd=VIEW&id=3062ce9d-99d3-4da3-b3fc-5974ba870511&thumb,서울특별시 강남구 봉은사로 406,37.51009307,127.0446248,
71,우리금융아트홀,서울 송파구,02-2180-3514,"['데이트코스', '문화공간', '문화시설', '문화행사', '복합문화공간', '사계절', '상설공연']",https://cdn.visitkorea.or.kr/img/call?cmd=VIEW&id=b7b55e8e-7348-44ab-96e7-a4024ada9525&thumb,서울특별시 송파구 올림픽로 424,37.52033970000001,127.1155179,
72,북촌생활사박물관,서울 종로구,02-736-3957,"['근현대사', '문화시설', '생활용품', '역사공부', '역사관광지', '역사를품은곳']",https://cdn.visitkorea.or.kr/img/call?cmd=VIEW&id=067c2bcb-96d5-48de-8d99-1dc2625467c1&thumb,서울특별시 종로구 북촌로5나길 90,37.58449548,126.98299679999998,
73,북촌박물관,서울 종로구,02-766-8402,"['가족과함께', '고미술품', '공예품', '문화시설', '박물관', '북촌', '서울시', '아이와함께']",https://cdn.visitkorea.or.kr/img/call?cmd=VIEW&id=7c14a49d-71a0-4ef6-877d-db24f81a8f60&thumb,서울특별시 종로구 북촌로 39,37.58043233,126.98476699999999,
74,이스탄불문화원,서울 강남구,02-3452-8182,"['문화시설', '문화적교류', '이스탄불문화원', '터키']",https://cdn.visitkorea.or.kr/img/call?cmd=VIEW&id=1ceb891b-05fc-4fc3-ae33-815789754f45&thumb,서울특별시 강남구 테헤란로26길 12,37.49944699,127.0358565,
75,우리옛돌박물관,서울 성북구,02-986-1001,"['가족과함께', '문화시설', '박물관', '수도권', '아이와함께', '야외전시', '역사속으로']",https://cdn.visitkorea.or.kr/img/call?cmd=VIEW&id=2df1d273-54ec-4a98-837f-85c29b6d354e&thumb,서울특별시 성북구 대사관로13길 66,37.60089696,126.99013390000002,
76,풋볼 팬타지움,서울 마포구,02-305-2002,"['VR체험', '문화시설', '박물관', '복합레저스포츠', '실내놀이터', '아이와함께']",https://cdn.visitkorea.or.kr/img/call?cmd=VIEW&id=e585693e-ab67-4643-a454-aac9a6e906a2&thumb,서울특별시 마포구 월드컵로 240,37.56994257,126.89903329999999,
77,KT&G 상상마당(홍대),서울 마포구,02-330-6227,"['KT&G상상마당', '나홀로여행', '도심여행', '문화시설', '문화예술', '복합문화공간']",https://cdn.visitkorea.or.kr/img/call?cmd=VIEW&id=50f9bbeb-b703-4e69-8301-5b5df870e543&thumb,서울특별시 마포구 어울마당로 65,37.550957700000005,126.92106299999999,
78,상상톡톡 미술관,서울 강북구,02-2289-5401,"['겨울방학가볼만한곳', '도심여행', '문화시설', '미술관', '북서울꿈의숲', '상상톡톡미술관']",https://cdn.visitkorea.or.kr/img/call?cmd=VIEW&id=bbc00935-74c8-4288-9285-8ca8d72acb6e&thumb,서울특별시 강북구 월계로 173,37.62025446,127.0443247,
79,부엉이박물관,서울 종로구,02-3210-2902,"['가족과 함께', '문화시설', '부엉이박물관', '이색체험']",https://cdn.visitkorea.or.kr/img/call?cmd=VIEW&id=9f962f2f-7d07-4a9a-bb21-b159c54cfc8c&thumb,서울특별시 종로구 북촌로 143-10,37.58708592,126.9829327,
80,구로아트밸리 예술극장,서울 구로구,02-2029-1700,"['구로아트밸리', '구로아트밸리예술극장', '문화시설', '문화예술공간', '미세먼지_피하는_실내여행']",https://cdn.visitkorea.or.kr/img/call?cmd=VIEW&id=02e78f65-3f81-48ea-8171-fa7b8405317e&thumb,서울특별시 구로구 가마산로25길 9-24,37.4965583,126.888975,
81,국가정보원 안보전시관,서울 서초구,02-3461-6613,"['국가정보원', '문화시설', '안보전시관']",https://cdn.visitkorea.or.kr/img/call?cmd=VIEW&id=undefined&thumb,서울특별시 서초구 헌인릉길 34,37.46436079,127.08234879999999,
82,국립공원 산악박물관,서울 도봉구,02-901-0700,"['국립공원', '문화시설', '산악박물관', '아이와 함께', '힐링']",https://cdn.visitkorea.or.kr/img/call?cmd=VIEW&id=2cba5808-fc7b-4132-b861-7ea817487115&thumb,서울특별시 도봉구 도봉산길 86,37.68732834,127.034761,
83,세종대왕기념관,서울 동대문구,02-969-8851,"['기념관', '문화시설', '세종대왕기념관', '수도권', '실내여행지', '아이와함께']",https://cdn.visitkorea.or.kr/img/call?cmd=VIEW&id=c2aaf0d7-06c7-428d-8de1-a12a237dbe49&thumb,서울특별시 동대문구 회기로 56,37.59099289,127.0427032,
84,명동예술극장,서울 중구,1644-2003,"['명동예술극장', '문화공간', '문화시설', '문화예술', '문화예술공간', '복합문화공간']",https://cdn.visitkorea.or.kr/img/call?cmd=VIEW&id=2f7d238b-59c2-4dcb-aefe-d5f447778e72&thumb,서울특별시 중구 명동길 35,37.56404145,126.984202,
85,도산안창호기념관,서울 강남구,02-541-1800,"['교과서속여행', '도산안창호기념관', '문화시설', '박물관', '수도권', '실내여행지']",https://cdn.visitkorea.or.kr/img/call?cmd=VIEW&id=564d78a9-8d12-4451-8b7c-627457964a62&thumb,서울특별시 강남구 도산대로45길 20,37.52395086,127.03560320000001,
86,아트리움,서울 영등포구,02-2638-2000,"['도심여행', '문화시설', '문화행사', '사계절', '상설공연', '실내여행지', '아트리움']",https://cdn.visitkorea.or.kr/img/call?cmd=VIEW&id=0c864c6d-0692-4180-95d3-7a33f77ee402&thumb,서울특별시 영등포구 영중로 15,37.51723326,126.90371599999999,
87,평강성서유물박물관,서울 구로구,02-2686-9496,"['가족과함께', '가족체험', '문화시설', '박물관', '아이와함께', '역사', '이집트역사']",https://cdn.visitkorea.or.kr/img/call?cmd=VIEW&id=7ea6ce87-e9bf-426a-9e62-133c288f15ee&thumb,서울특별시 구로구 오류로8라길 44,37.49195522,126.84406129999999,
88,국회 방문자센터 헌정기념관,서울 영등포구,02-788-3664,"['교과서속여행', '국회방문자센터', '기념관', '문화시설', '수도권', '아이와함께']",https://cdn.visitkorea.or.kr/img/call?cmd=VIEW&id=c111ae0e-ddcc-4d1c-a132-cdc08ce26eed&thumb,서울특별시 영등포구 의사당대로 1,37.53291197,126.9164039,
89,분재박물관,서울 서초구,02-577-0001,"['문화시설', '미세먼지_피하는_실내여행', '분재', '소나무', '숲속', '식물박물관']",https://cdn.visitkorea.or.kr/img/call?cmd=VIEW&id=1e011ccb-7dd6-4486-960a-a839de29a346&thumb,서울특별시 서초구 신흥안길 40-10,37.45313676,127.07580320000001,
90,몽촌역사관,서울 송파구,02-2152-5900,"['도심여행', '몽촌역사관', '무료관람', '문화시설', '박물관', '수도권', '아이와함께']",https://cdn.visitkorea.or.kr/img/call?cmd=VIEW&id=6f504635-c32b-43d1-af8c-8ffcde2d254a&thumb,서울특별시 송파구 올림픽로 424,37.52033970000001,127.1155179,
91,겸재정선미술관,서울 강서구,02-2659-2206,"['겨울방학가볼만한곳', '겸재정선미술관', '당일치기여행', '문화시설', '문화예술']",https://cdn.visitkorea.or.kr/img/call?cmd=VIEW&id=e61ab4f1-073e-461e-a4f7-c195c4fa18f8&thumb,서울특별시 강서구 양천로47길 36,37.57222297,126.838412,
92,63아트,서울 영등포구,02-780-6382,"['63아트', '경치좋은곳', '문화공간', '문화시설', '문화예술', '미술관', '미술작품']",https://cdn.visitkorea.or.kr/img/call?cmd=VIEW&id=785193ad-5c15-492e-acf1-8079270c27e3&thumb,서울특별시 영등포구 63로 50,37.51966416,126.93990929999998,
93,광화문아트홀,서울 종로구,02-732-9392,"['가족과함께', '공연장', '기획공연', '문화공간', '문화시설', '문화예술', '복합문화공간']",https://cdn.visitkorea.or.kr/img/call?cmd=VIEW&id=01e6694a-20ce-4988-b8f3-19761bc8594a&thumb,서울특별시 종로구 인왕산로1길 21,37.57420982,126.964661,
94,어반아트,서울 강남구,02-511-2931,"['갤러리', '문화시설', '미술관', '수도권', '어반아트']",https://cdn.visitkorea.or.kr/img/call?cmd=VIEW&id=a9459a4d-3384-44ad-bace-5e552b7e6505&thumb,서울특별시 용산구 소월로44길 7,37.54243545,126.9927807,
95,국립중앙박물관 어린이박물관,서울 용산구,02-2077-9000,"['겨울방학가볼만한곳', '국립중앙박물관', '국립중앙박물관어린이박물관', '도심여행']",https://cdn.visitkorea.or.kr/img/call?cmd=VIEW&id=ef3ed53c-4cb5-4aff-99c8-4be3e90fc006&thumb,서울특별시 용산구 서빙고로 137,37.52470224,126.9777402,
96,용산문화원,서울 용산구,02-703-0052,"['문화사업', '문화시설', '수도권', '용산문화원']",https://cdn.visitkorea.or.kr/img/call?cmd=VIEW&id=8cd3b8e2-77f8-4e1f-b613-c3d8a3291831&thumb,서울특별시 용산구 효창원로8길 28,37.53342496,126.95186000000001,
97,한국의집,서울 중구,02-2266-9101,"['가족여행', '공연장', '나들이', '데이트코스', '문화시설', '아이와함께', '연인과함께']",https://cdn.visitkorea.or.kr/img/call?cmd=VIEW&id=1e9a6286-3be5-49e1-829f-45b6c4f65a18&thumb,서울특별시 중구 퇴계로36길 10,37.5602235,126.9944983,
98,헬로우뮤지움,서울 성동구,02-3217-4222,"['교육여행', '교육체험', '문화공간', '문화시설', '복합문화공간', '아이와함께']",https://cdn.visitkorea.or.kr/img/call?cmd=VIEW&id=0931dc79-7d22-44c6-bbcf-ff2aaca9d23d&thumb,서울특별시 성동구 성수일로12길 20,37.54817447,127.05325049999999,
99,손기정기념관,서울 중구,02-364-1936,"['교과서속여행', '근대문화유산', '기념관', '문화시설', '사계절', '손기정기념관']",https://cdn.visitkorea.or.kr/img/call?cmd=VIEW&id=6c62322d-e9e3-4463-920d-1c5ba293aac1&thumb,서울특별시 중구 손기정로 101,37.5554795,126.96481570000002,
100,롯데월드 가든스테이지,서울 송파구,1661-2000,"['공연장', '나들이', '놀이공원&테마파크', '데이트코스', '롯데월드가든스테이지']",https://cdn.visitkorea.or.kr/img/call?cmd=VIEW&id=2437ea6e-9c30-4fc3-9d6b-f9f22d465ae2&thumb,서울특별시 송파구 올림픽로 240,37.51130961,127.09814180000001,
101,은평문화예술회관,서울 은평구,02-351-3736,"['공연장', '데이트코스', '문화생활', '문화시설', '상설공연', '아이와함께', '연인과함께']",https://cdn.visitkorea.or.kr/img/call?cmd=VIEW&id=3f921561-a259-4080-be38-32156b506cec&thumb,서울특별시 은평구 녹번로 16,37.60369969,126.92790169999999,
102,명동난타극장,서울 중구,02-739-8288,"['가족여행', '공연장', '기획공연', '남녀노소', '명동난타극장', '문화시설', '문화예술']",https://cdn.visitkorea.or.kr/img/call?cmd=VIEW&id=9d78fea6-3867-4e88-ba1f-ef914c94fa1c&thumb,서울특별시 중구 명동길 26,37.56345745,126.9837648,
103,홍대 비보이 전용극장,서울 마포구,02-323-5233,"['공연관람', '문화공간', '문화공연', '문화시설', '복합문화공간', '상설공연', '연인과함께']",https://cdn.visitkorea.or.kr/img/call?cmd=VIEW&id=2fc7b443-8936-4b89-a407-d983c8c28516&thumb,서울특별시 마포구 와우산로 121,37.55350885,126.92675700000001,
104,육군사관학교 육군박물관.기념관,서울 노원구,02-2197-6125,"['문화시설', '아이와 함께', '육군기념관', '육군박물관', '육군사관학교']",https://cdn.visitkorea.or.kr/img/call?cmd=VIEW&id=6798af83-072b-4c34-a3f2-54baedec7fc9&thumb,서울특별시 노원구 화랑로 574,37.628228,127.101991,
105,고려대학교박물관,서울 성북구,02-3290-1514,"['고려대학교박물관', '무료관람', '문화시설', '박물관', '수도권', '실내여행지']",https://cdn.visitkorea.or.kr/img/call?cmd=VIEW&id=2ef5b6c3-2a28-4788-812f-10e176ddbed4&thumb,서울특별시 성북구 안암로 145,37.58870342,127.0316983,
106,서울특별시교육청 과학전시관 (남산분관),서울 중구,02-311-1276,"['교과서속여행', '문화시설', '사계절', '서울특별시과학전시관남산분관', '수도권']",https://cdn.visitkorea.or.kr/img/call?cmd=VIEW&id=c8fa9d57-2592-4f7b-84a1-aa84d08f1168&thumb,서울특별시 중구 소파로 46,37.554549200000004,126.98128329999999,
107,서울 중구문화원,서울 중구,02-775-3001,"['문화시설', '문화원', '문화행사', '서울중구문화원', '수도권']",https://cdn.visitkorea.or.kr/img/call?cmd=VIEW&id=ba0a4b2b-4b8e-4b6a-a975-00c073ebe34a&thumb,서울특별시 중구 청계천로 86,37.56752138,126.9865268,
108,마포아트센터,서울 마포구,02-3274-8600,"['가족체험여행', '마포아트센터', '문화시설', '상설공연', '실내여행지', '아이와함께']",https://cdn.visitkorea.or.kr/img/call?cmd=VIEW&id=2a096492-aef2-4367-a34a-eebd6e0585da&thumb,서울특별시 마포구 대흥로20길 28,37.54990609,126.94553379999999,
109,서울도서관,서울 중구,02-2133-0300,"['데이트코스', '도서관', '문화시설', '사계절', '서울도서관', '수도권', '아이와함께']",https://cdn.visitkorea.or.kr/img/call?cmd=VIEW&id=ae6f2fd3-a29d-4aef-a3ea-9fd22da79370&thumb,서울특별시 중구 세종대로 110,37.56631742,126.97782920000002,
110,코엑스아티움,서울 강남구,02-6000-0114,"['도심여행', '문화시설', '문화행사', '복합문화공간', '상설공연', '코엑스아티움']",https://cdn.visitkorea.or.kr/img/call?cmd=VIEW&id=54f1c323-4240-40bb-8b7e-2a5fec34b76f&thumb,서울특별시 강남구 영동대로 513,37.51182391,127.05915900000001,
111,서울무역전시컨벤션센터(SETEC),서울 강남구,02-2187-4600,"['setec', '남녀노소', '문화공간', '문화시설', '복합문화공간', '서울무역전시컨벤션센터']",https://cdn.visitkorea.or.kr/img/call?cmd=VIEW&id=a9d2f021-0593-4514-80b5-9d6a52d4073a&thumb,서울특별시 강남구 남부순환로 3104,37.49671719,127.07171899999999,
112,자하미술관,서울 종로구,02-395-3222,"['나홀로여행', '도심여행', '문화시설', '미술관', '예술', '자하미술관', '주말추천여행지']",https://cdn.visitkorea.or.kr/img/call?cmd=VIEW&id=276623c1-ff24-4f0a-9ad7-e576f89d4a29&thumb,서울특별시 종로구 창의문로5가길 46,37.58937711,126.96030619999999,
113,우표박물관 (구.우표문화누리),서울 중구,02-6450-5600,"['가족과함께', '겨울방학가볼만한곳', '남녀노소', '문화시설', '미세먼지_피하는_실내여행']",https://cdn.visitkorea.or.kr/img/call?cmd=VIEW&id=80331ffa-f4b0-4c06-ad89-9af0b514dff8&thumb,서울특별시 중구 소공로 70,37.56159874,126.9821691,
114,호림박물관,서울 관악구,02-858-2500,"['나들이', '문화시설', '박물관', '수도권', '실내여행지', '아이와함께', '전시관']",https://cdn.visitkorea.or.kr/img/call?cmd=VIEW&id=6a175227-7791-46f3-81ab-a4b70fcee4ca&thumb,서울특별시 관악구 남부순환로152길 53,37.4808823,126.91823640000001,
115,강북문화원,서울 강북구,02-999-8810,"['강북문화원', '문화시설', '복합문화공간', '열린문화공간', '친구와 함께']",https://cdn.visitkorea.or.kr/img/call?cmd=VIEW&id=cefd51ae-1880-4ea8-aa63-817fe938b01b&thumb,서울특별시 강북구 삼각산로 85,37.64098979,127.0138781,
116,밀알미술관,서울 강남구,02-3412-0061,"['남녀노소', '데이트코스', '도심여행', '무더위_피해_실내여행', '문화시설', '미술관']",https://cdn.visitkorea.or.kr/img/call?cmd=VIEW&id=69c960d8-013f-4012-a15e-375d3030861d&thumb,서울특별시 강남구 일원로 90,37.48578186,127.0820718,
117,박을복자수박물관,서울 강북구,02-990-7000,"['교과서속여행', '문화시설', '박물관', '박을복자수박물관', '수도권', '실내여행지']",https://cdn.visitkorea.or.kr/img/call?cmd=VIEW&id=ee2a65d3-2ef2-4319-af6c-203cb8bdb483&thumb,서울특별시 강북구 삼양로149가길 53,37.65381553,127.00848859999999,
118,서울특별시교육청 고척도서관,서울 구로구,02-2615-0524,"['고척도서관', '독서교육', '문화시설', '서울특별시교육청', '열린문화공간']",https://cdn.visitkorea.or.kr/img/call?cmd=VIEW&id=e3731246-d097-488a-a511-5b5f2191b16e&thumb,서울특별시 구로구 고척로45길 31,37.5053474,126.85305220000001,
119,서울놀이마당,서울 송파구,02-412-3410,"['가족여행', '공연장', '나들이', '데이트코스', '문화시설', '서울놀이마당', '수도권']",https://cdn.visitkorea.or.kr/img/call?cmd=VIEW&id=358fb46c-d2a7-4684-b92f-804973aca716&thumb,서울특별시 송파구 삼학사로 136,37.50906273,127.0978678,
120,허준박물관,서울 강서구,02-3661-8686,"['교과서속여행', '도심여행', '문화시설', '박물관', '아이와함께', '전통&역사문화체험']",https://cdn.visitkorea.or.kr/img/call?cmd=VIEW&id=90a346f9-bc50-4ae0-8b70-bcd9e1557ed6&thumb,서울특별시 강서구 허준로 87,37.56787245,126.8510312,
121,아름다운 차박물관,서울 종로구,02-735-6678,"['갤러리', '도자기', '문화시설', '문화예술공간', '열린문화공간', '전통차', '차문화']",https://cdn.visitkorea.or.kr/img/call?cmd=VIEW&id=383f7d2d-65b7-4b59-a8fe-3346e9980365&thumb,서울특별시 종로구 인사동길 19-11,37.5723711,126.98588170000001,
122,금천문화원,서울 금천구,02-896-8552,"['금천문화원', '문화시설', '복합문화공간', '열린문화공간']",https://cdn.visitkorea.or.kr/img/call?cmd=VIEW&id=d4bf2b55-2331-45fe-b8c6-e6b4c8baf895&thumb,서울특별시 금천구 시흥대로38길 61,37.44639673,126.9044447,
123,다보성 갤러리,서울 종로구,02-730-0310,"['다보성갤러리', '문화시설', '문화전시', '문화체험']",https://cdn.visitkorea.or.kr/img/call?cmd=VIEW&id=bd4398ab-05e1-4488-af99-60b23b674ee1&thumb,서울특별시 종로구 삼일대로 457,37.57528783,126.98616750000001,
124,국립국악박물관,서울 서초구,02-580-3130,"['국립국악박물관', '문화시설', '박물관', '수도권', '아이와함께', '이색체험', '전시관']",https://cdn.visitkorea.or.kr/img/call?cmd=VIEW&id=00d6ae71-11c1-49e6-b304-d006b630f0cd&thumb,서울특별시 서초구 남부순환로 2364,37.47771881,127.00981850000001,
125,우석뮤지엄,서울 서대문구,02-364-8900,"['기획전시', '문화시설', '문화예술', '문화예술활동', '예술공간', '예술창작', '예술프로그램']",https://cdn.visitkorea.or.kr/img/call?cmd=VIEW&id=d5ab9c5e-ea9d-4a13-82f3-f96425fe7319&thumb,서울특별시 서대문구 신촌로 129,37.55656393,126.9403281,
126,서울약령시 한의약박물관,서울 동대문구,02-969-9241,"['가족과함께', '건강여행', '남녀노소', '문화시설', '한방약', '한방약초', '한방의료']",https://cdn.visitkorea.or.kr/img/call?cmd=VIEW&id=77c3189f-169b-4265-ab7a-98e5972ea946&thumb,서울특별시 동대문구 약령중앙로 26,37.58060041,127.0375866,
127,서울교육박물관,서울 종로구,02-2011-5782,"['교과서속여행', '도심여행', '문화시설', '박물관', '서울교육박물관', '수도권']",https://cdn.visitkorea.or.kr/img/call?cmd=VIEW&id=f3fa28a3-5b63-4bb2-af6d-f4a0d66f2653&thumb,서울특별시 종로구 북촌로5길 48,37.58126545,126.98387009999999,
128,대림미술관,서울 종로구,02-720-0667,"['나들이', '나홀로여행', '대림미술관', '문화시설', '미술관', '연인과함께', '예술']",https://cdn.visitkorea.or.kr/img/call?cmd=VIEW&id=8ed28342-ea1e-45bd-ac05-e66185513e4f&thumb,서울특별시 종로구 자하문로4길 21,37.57750388,126.97336370000001,
129,유니버설아트센터,서울 광진구,070-7124-1740,"['가족여행', '공연장', '나들이', '데이트코스', '문화시설', '수도권', '실내여행지']",https://cdn.visitkorea.or.kr/img/call?cmd=VIEW&id=fd8ae02e-5133-4438-a69d-71f3b0632e21&thumb,서울특별시 광진구 천호대로 664,37.55097979999999,127.08709520000001,
130,한전아트센터 공연장,서울 서초구,02-2105-8133,"['가족여행', '단체관람', '문화시설', '아이와함께', '연인과함께', '예술', '음악회']",https://cdn.visitkorea.or.kr/img/call?cmd=VIEW&id=7c8cac49-c350-416d-a44c-d57ec3115e18&thumb,서울특별시 서초구 효령로72길 60,37.48560466,127.02807879999999,
131,서울에너지드림센터,서울 마포구,02-3151-0562,"['가족체험여행', '교육여행', '교육프로그램', '단체관광', '문화시설', '미세먼지_피하는_실내여행']",https://cdn.visitkorea.or.kr/img/call?cmd=VIEW&id=9ca0f232-2b88-4050-b351-4df3f1bb270a&thumb,서울특별시 마포구 증산로 14,37.56311306,126.89146470000001,
132,서울대학교 규장각,서울 관악구,02-880-6030,"['문화시설', '서울대학교규장각', '수도권', '실내여행지', '아이와함께', '예술']",https://cdn.visitkorea.or.kr/img/call?cmd=VIEW&id=08b4d2fc-54ec-40a7-861d-102a24dfad6e&thumb,서울특별시 관악구 관악로 1,37.46803806,126.9592943,
133,초전섬유ㆍ퀼트박물관,서울 중구,ㆍ 02-753-4074,"['문화시설', '전시관', '전통섬유', '전통예술', '초전섬유·퀼트박물관']",https://cdn.visitkorea.or.kr/img/call?cmd=VIEW&id=119fba4d-ff31-4493-bf9e-34bc8c6023fc&thumb,서울특별시 중구 퇴계로16길 29,37.55954207,126.98437990000001,
134,아트홀 봄,서울 동작구,02-810-5000,"['공연', '문화공간', '문화시설', '복합문화공간', '사계절', '수도권', '아트홀봄']",https://cdn.visitkorea.or.kr/img/call?cmd=VIEW&id=7f837964-0783-47f7-b377-d420022e9160&thumb,서울특별시 동작구 여의대방로54길 18,37.51160872,126.9272264,
135,더페이지갤러리,서울 성동구,02-3447-0049,"['남녀노소', '문화공간', '문화시설', '문화예술공간', '문화예술창작공간', '미술']",https://cdn.visitkorea.or.kr/img/call?cmd=VIEW&id=8b404376-a335-4be5-809a-d3bc9b844683&thumb,서울특별시 성동구 서울숲2길 32-14,37.54567733,127.04291470000001,
136,서울올림픽기념관,서울 송파구,02-410-1354,"['가족여행', '나들이', '데이트코스', '도심여행', '문화시설', '서울올림픽기념관']",https://cdn.visitkorea.or.kr/img/call?cmd=VIEW&id=58abf770-33ea-4d91-93a8-6e9d3be36c07&thumb,서울특별시 송파구 올림픽로 424,37.52033970000001,127.1155179,
137,서울강서문화원,서울 강서구,02-2607-4233,"['강서구', '무장애', '문화보존', '문화시설', '문화원', '문화행사', '서울시']",https://cdn.visitkorea.or.kr/img/call?cmd=VIEW&id=ac13d352-fed9-413c-9f1d-cd5cf2d226ee&thumb,서울특별시 강서구 화곡로 215,37.5446931,126.843755,
138,마포문화원,서울 마포구,02-312-1100,"['마포문화원', '문화시설', '복합문화공간', '열린문화공간', '친구와 함께']",https://cdn.visitkorea.or.kr/img/call?cmd=VIEW&id=ea789239-dda7-486a-9945-b7c4d93305a6&thumb,서울특별시 마포구 백범로 227,37.54223042,126.9554912,
139,CTS아트홀,서울 동작구,02-6333-2503,"['CTS아트홀', '가족여행', '도심여행', '문화시설', '상설공연', '아이와함께', '예술']",https://cdn.visitkorea.or.kr/img/call?cmd=VIEW&id=d38a96cb-b865-4de0-aaea-1c9d96f282ec&thumb,서울특별시 동작구 노량진로 100 ,37.51296927,126.9370032,
140,SJ쿤스트할레 [문화공간],서울 강남구,010-2014-9722,"['SJ쿤스트할레', '도심여행', '문화시설', '복합문화공간', '예술', '전시관']",https://cdn.visitkorea.or.kr/img/call?cmd=VIEW&id=d2491477-ba5e-49c2-bff4-7d921422bbc5&thumb,서울특별시 강남구 언주로148길 5,37.52050861,127.03491729999999,
141,홍대난타전용관,서울 마포구,02-739-8288,"['가족여행', '도심여행', '문화시설', '문화행사', '사계절', '수도권', '실내여행지']",https://cdn.visitkorea.or.kr/img/call?cmd=VIEW&id=ee83009a-7550-49f7-93c0-9ff32cbe16aa&thumb,서울특별시 마포구 양화로16길 29,37.55319621,126.9211754,
142,종로문화원,서울 종로구,02-2148-4087-8,"['문화시설', '문화원', '수도권', '종로문화원']",https://cdn.visitkorea.or.kr/img/call?cmd=VIEW&id=f9679184-ac3d-4f3f-a405-2b44e0384e01&thumb,서울특별시 종로구 율곡로 5,37.57609781,126.98037269999999,
143,동작문화원,서울 동작구,02-822-8500,"['공연장', '교과서속여행', '동작문화원', '문화시설', '수도권', '아이와함께', '연인과함께']",https://cdn.visitkorea.or.kr/img/call?cmd=VIEW&id=8f2561e3-063f-4072-84eb-ec23d2d61770&thumb,서울특별시 동작구 장승배기로10길 42,37.50444553,126.94108840000001,
144,한양대학교박물관,서울 성동구,02-2220-1394,"['교과서속여행', '문화시설', '박물관', '수도권', '아이와함께', '전시관', '체험학습']",https://cdn.visitkorea.or.kr/img/call?cmd=VIEW&id=6d5c0525-b2ac-437c-b592-36f271b91ab1&thumb,서울특별시 성동구 왕십리로 222,37.55450355,127.0466112,
145,떡박물관,서울 종로구,02-741-5447,"['나들이', '도심여행', '떡박물관', '문화시설', '박물관', '아이와함께', '연인과함께']",https://cdn.visitkorea.or.kr/img/call?cmd=VIEW&id=2a4af095-25c7-4c3e-afe9-742274a6461d&thumb,서울특별시 종로구 돈화문로 71,37.57489958,126.9906381,
146,노원문화예술회관,서울 노원구,02-951-3355,"['노원구', '무장애', '문화공간', '문화시설', '문화예술', '문화예술공간', '복합문화공간']",https://cdn.visitkorea.or.kr/img/call?cmd=VIEW&id=d5cd8ca9-fc78-4989-b343-e791037f99cd&thumb,서울특별시 노원구 중계로 181,37.65023685,127.08026709999999,
147,블루스퀘어,서울 용산구,1544-1591,"['데이트코스', '문화시설', '문화행사', '블루스퀘어', '사계절', '상설공연', '수도권']",https://cdn.visitkorea.or.kr/img/call?cmd=VIEW&id=34881a3e-d56a-4c37-a51e-b5babd726c91&thumb,서울특별시 용산구 이태원로 294,37.54086944,127.00248529999999,
148,씽크씽크미술관,서울 강남구,02-562-9611,"['겨울방학가볼만한곳', '당일치기여행', '문화시설', '문화예술', '미술관', '씽크씽크미술관']",https://cdn.visitkorea.or.kr/img/call?cmd=VIEW&id=e51feaf1-d305-4313-b3b1-85c07854927b&thumb,서울특별시 강남구 봉은사로68길 19,37.51085628,127.05072340000002,
149,명보아트홀,서울 중구,02-2274-2121,"['도심여행', '명보아트홀', '문화시설', '복합문화공간', '상설공연', '예술']",https://cdn.visitkorea.or.kr/img/call?cmd=VIEW&id=c91b009a-b64a-4ffa-b653-f8cb13af8939&thumb,서울특별시 중구 마른내로 47,37.56470562,126.9932142,
150,갤러리 라메르,서울 종로구,02-730-5454,"['갤러리라메르', '나홀로여행', '데이트코스', '도심여행', '문화시설', '미술관']",https://cdn.visitkorea.or.kr/img/call?cmd=VIEW&id=41ee9bfc-3c58-475a-8746-2f928904b881&thumb,서울특별시 종로구 인사동5길 26,37.57258198,126.98486809999999,
151,성균관대학교 박물관,서울 종로구,02-760-1216,"['무료관람', '문화시설', '박물관', '성균관대학교박물관', '수도권', '실내여행지']",https://cdn.visitkorea.or.kr/img/call?cmd=VIEW&id=4a5d1529-c7c0-4270-89ca-2b8970d09c35&thumb,서울특별시 종로구 성균관로 25-2,37.58722841,126.99311509999998,
152,주한 프랑스문화원,서울 중구,02-317-8500,"['교과서속여행', '도서관', '문화시설', '문화행사', '사계절', '수도권', '실내여행지']",https://cdn.visitkorea.or.kr/img/call?cmd=VIEW&id=dfc1c6e6-caa0-4f2b-8606-64c1fb7cdc4d&thumb,서울특별시 중구 칠패로 42,37.55947437,126.9735598,
153,탄허기념박물관,서울 강남구,02-445-8486,"['가족과함께', '교육여행', '교육프로그램', '남녀노소', '문화시설', '불교', '불교문화']",https://cdn.visitkorea.or.kr/img/call?cmd=VIEW&id=05658476-d8ab-4be6-9a9b-dc87b0cb9f96&thumb,서울특별시 강남구 밤고개로14길 13-51,37.47898371,127.102953,
154,동대문문화원,서울 동대문구,02-2241-9300,"['교육프로그램', '동대문문화원', '문화시설']",https://cdn.visitkorea.or.kr/img/call?cmd=VIEW&id=44da0a48-bac1-4530-ab37-1fe23e262ab5&thumb,서울특별시 동대문구 답십리로 210-9,37.57179637,127.06376399999999,
155,금천예술공장,서울 금천구,02-807-4120,"['공연', '금천예술공장', '도시재생', '문화시설', '문화콘텐츠산업', '복합문화공간']",https://cdn.visitkorea.or.kr/img/call?cmd=VIEW&id=230d3654-a5ad-4747-b339-75308615b89b&thumb,서울특별시 금천구 범안로15길 57,37.46882476,126.89192820000001,
156,목인박물관 목석원,서울 종로구,02-722-5066,"['문화공간', '문화시설', '문화예술', '문화예술공간', '문화예술활동', '복합문화공간']",https://cdn.visitkorea.or.kr/img/call?cmd=VIEW&id=30097fdc-faff-4538-9982-f05253327b96&thumb,서울특별시 종로구 창의문로5길 46-1,37.58902191,126.9632892,
157,국립중앙도서관,서울 서초구,02-535-4142,"['국립중앙도서관', '데이트코스', '도서관', '문화시설', '수도권', '아이와함께']",https://cdn.visitkorea.or.kr/img/call?cmd=VIEW&id=8d7cd826-e4ea-49dd-99df-362a6c03ed79&thumb,서울특별시 서초구 반포대로 201,37.4974226,127.00322790000001,
158,국립국악원,서울 서초구,02-580-3300,"['가족여행', '공연장', '국립국악원', '데이트코스', '문화시설', '수도권', '실내여행지']",https://cdn.visitkorea.or.kr/img/call?cmd=VIEW&id=3c581549-173f-4789-9a4f-263612429750&thumb,서울특별시 서초구 남부순환로 2364,37.47771881,127.00981850000001,
159,서초구립반포도서관,서울 서초구,02-520-8700,"['도서관', '독서여행', '문화시설', '문화행사', '서초구립반포도서관', '수도권']",https://cdn.visitkorea.or.kr/img/call?cmd=VIEW&id=a2653106-f421-4adf-bd2b-c145e83b6d9d&thumb,서울특별시 서초구 고무래로 34,37.50248707,127.0125134,
160,aT센터(에이티센터),서울 서초구,02-6300-1114,"['at센터', '남녀노소', '문화공간', '문화시설', '복합문화공간', '에이티센터', '열린문화공간']",https://cdn.visitkorea.or.kr/img/call?cmd=VIEW&id=7bebe4c4-4dde-441b-9cde-e7e6935b17d6&thumb,서울특별시 서초구 강남대로 27,37.46827871,127.0391364,
161,광진문화원,서울 광진구,02-447-0244,"['광진문화원', '문화시설', '복합문화공간', '열린문화공간']",https://cdn.visitkorea.or.kr/img/call?cmd=VIEW&id=e3b83656-d8f9-4afb-9aec-f674edfc8ff8&thumb,서울특별시 광진구 광나루로56길 67,37.53651264,127.0964783,
162,은평문화원,서울 은평구,02-383-9300,"['문화시설', '복합문화공간', '열린문화공간', '은평문화원', '친구와 함께']",https://cdn.visitkorea.or.kr/img/call?cmd=VIEW&id=6bf61796-b469-49eb-96c2-dbd4145aa409&thumb,서울특별시 은평구 녹번로 16,37.60369969,126.92790169999999,
163,정동극장,서울 중구,02-751-1500,"['가족여행', '데이트코스', '도심여행', '문화시설', '아이와함께', '연인과함께']",https://cdn.visitkorea.or.kr/img/call?cmd=VIEW&id=c6aab83b-f75d-47d7-920a-fc92e5c43554&thumb,서울특별시 중구 정동길 43,37.56593364,126.97284440000001,
164,지식재산전문도서관,서울 강남구,02-2189-2681,"['강남구', '나홀로여행', '남녀노소', '도서관', '독서여행', '문화시설', '서울도심여행']",https://cdn.visitkorea.or.kr/img/call?cmd=VIEW&id=0f11049e-0742-4684-a567-ff9120cb41e3&thumb,서울특별시 강남구 테헤란로 131,37.50008187,127.03293799999999,
165,영등포문화원,서울 영등포구,02-846-0155,"['문화시설', '문화학교', '문화행사', '수도권', '영등포문화원']",https://cdn.visitkorea.or.kr/img/call?cmd=VIEW&id=5b77b996-fda6-44a1-b976-c6245d0cd1bc&thumb,서울특별시 영등포구 신길로 275,37.51612662,126.91212639999999,
166,이리자 한복전시관,서울 종로구,02-734-9477,"['교과서속으로', '문화시설', '수도권', '실내여행지', '아이와함께', '예술', '이리자한복전시관']",https://cdn.visitkorea.or.kr/img/call?cmd=VIEW&id=f476f31e-951d-4229-a878-f6794b822704&thumb,서울특별시 종로구 삼청로 20,37.57761565,126.97997,
167,심산기념문화센터,서울 서초구,02-3477-2461,"['도심여행', '문화시설', '문화행사', '사계절', '심산기념문화센터', '아이와함께']",https://cdn.visitkorea.or.kr/img/call?cmd=VIEW&id=218abf7f-7e0e-406f-b482-4462cd5690c3&thumb,서울특별시 서초구 사평대로 55,37.49885315,126.99051570000002,
168,화정박물관,서울 종로구,02-2075-0114,"['가족과함께', '근대문화유산', '문화시설', '문화예술공간', '복합문화', '역사문화재']",https://cdn.visitkorea.or.kr/img/call?cmd=VIEW&id=099be27f-ece5-41ae-add4-741c388830ab&thumb,서울특별시 종로구 평창8길 3,37.60454485,126.96608190000002,
169,신촌문화발전소,서울 서대문구,02-330-4393,"['가족과함께', '공연장', '문화시설', '문화예술활동', '복합문화', '복합문화공간']",https://cdn.visitkorea.or.kr/img/call?cmd=VIEW&id=937f0828-90ce-4f0c-be11-d71da62f470a&thumb,서울특별시 서대문구 연세로2나길 57,37.55796298,126.9397551,
170,갤러리 M,서울 종로구,02-737-0073,"['남녀노소', '문화공간', '문화시설', '문화예술', '문화예술공간', '미술작품', '복합문화공간']",https://cdn.visitkorea.or.kr/img/call?cmd=VIEW&id=68cf2a2e-0379-442c-baef-76c22b241527&thumb,서울특별시 종로구 인사동4길 12,37.57313121,126.986951,
171,강동아트센터,서울 강동구,02-440-0500,"['공연전시', '데이트', '문화시설', '아이와함게', '예술', '휴식']",https://cdn.visitkorea.or.kr/img/call?cmd=VIEW&id=a8d16805-2479-48af-aa0b-770515d898de&thumb,서울특별시 강동구 동남로 870,37.55122046,127.1573425,
172,코리아나 화장박물관,서울 강남구,02-547-9177,"['교육프로그램', '남녀노소', '문화시설', '박물관', '수도권', '연인과함께', '이색전시']",https://cdn.visitkorea.or.kr/img/call?cmd=VIEW&id=db9525b7-cbf2-430e-82ca-b832cffb1485&thumb,서울특별시 강남구 언주로 827,37.52407043,127.0328115,
173,세종문화회관,서울 종로구,02-399-1114,"['가족여행', '공연장', '나들이', '데이트코스', '문화시설', '세종문화회관', '수도권']",https://cdn.visitkorea.or.kr/img/call?cmd=VIEW&id=79b4a343-eb32-44ea-a19b-ce31024a5b7b&thumb,서울특별시 종로구 세종대로 175,37.57218604,126.9768172,
174,백암아트홀,서울 강남구,02-559-1333,"['공연관람', '기획공연', '나홀로여행', '남녀노소', '도심여행', '문화공간', '문화시설']",https://cdn.visitkorea.or.kr/img/call?cmd=VIEW&id=0e06be1c-3792-498e-b43c-b4065cf0d2bc&thumb,서울특별시 강남구 테헤란로113길 7,37.51067112,127.06587920000001,
175,도봉문화원,서울 도봉구,02-905-4026,"['문화시설', '문화예술교육', '문화탐방', '수도권', '아이와함께']",https://cdn.visitkorea.or.kr/img/call?cmd=VIEW&id=c857f3f2-6e44-4980-acf7-e1a2b8c09af0&thumb,서울특별시 도봉구 도봉로 552,37.65416727,127.03868490000002,
176,한미사진미술관,서울 송파구,02-418-1315,"['당일치기여행', '데이트코스', '도심여행', '문화공간', '문화시설', '미술관', '미술작품']",https://cdn.visitkorea.or.kr/img/call?cmd=VIEW&id=c750e9d8-b5bd-4fd2-9860-78b6af3618aa&thumb,서울특별시 송파구 위례성대로 14,37.51659259,127.11395619999999,
177,금천구립금나래도서관,서울 금천구,02-2627-2991,"['금천구립금나래도서관', '도서관', '문화시설', '사계절', '실내여행지', '아이와함께']",https://cdn.visitkorea.or.kr/img/call?cmd=VIEW&id=d5a13d25-bbdc-4e43-a131-46065cedc30a&thumb,서울특별시 금천구 시흥대로73길 70,37.45706565,126.8960369,
178,서울특별시교육청 동작도서관,서울 동작구,02-823-6417,"['도서관', '문화시설', '서울특별시', '아이와 함께', '친구와 함께']",https://cdn.visitkorea.or.kr/img/call?cmd=VIEW&id=ff5eed7c-74be-46fa-b961-d403ffea6167&thumb,서울특별시 동작구 장승배기로 94,37.50596845,126.94010290000001,
179,김대중도서관,서울 마포구,02-2123-6890,"['교과서속여행', '김대중도서관', '도서관', '도심여행', '독서여행', '문화시설']",https://cdn.visitkorea.or.kr/img/call?cmd=VIEW&id=270de2a5-fe1d-4de0-92ae-bd03749c8f83&thumb,서울특별시 마포구 신촌로4길 5-26,37.55698238,126.92958999999999,
180,양천문화원,서울 양천구,02-2651-5300,"['문화강좌', '문화시설', '복합문화공간', '양천문화원', '열린문화공간']",https://cdn.visitkorea.or.kr/img/call?cmd=VIEW&id=a27e3230-d7e8-4aab-9ce6-99d30ee57b0b&thumb,서울특별시 양천구 목동서로 367,37.51652093,126.86334,
181,서울시립대학교박물관,서울 동대문구,02-6490-6586,"['무료관람', '문화시설', '박물관', '서울시립대학교박물관', '수도권', '실내여행지']",https://cdn.visitkorea.or.kr/img/call?cmd=VIEW&id=3f7d83bc-f515-4d3f-bbec-4d8eb0521380&thumb,서울특별시 동대문구 서울시립대로 163,37.50596845,126.94010290000001,
182,한벽원미술관,서울 종로구,02-732-3777,"['문화공간', '문화시설', '문화예술', '미술관', '복합문화공간', '소장품', '열린문화공간']",https://cdn.visitkorea.or.kr/img/call?cmd=VIEW&id=1ddf718d-7561-4ef6-88b5-b202e6c7b6e6&thumb,서울특별시 종로구 삼청로 83,37.58288312,126.98156350000001,
183,문화일보홀,서울 중구,02-3701-5832,"['데이트코스', '문화시설', '문화일보홀', '뮤지컬', '상설공연', '아이와함께', '연인과함께']",https://cdn.visitkorea.or.kr/img/call?cmd=VIEW&id=361f888c-1b6a-4bf8-9823-67cb254ea4b7&thumb,서울특별시 중구 새문안로 22,37.56712921,126.96864479999999,
184,주한이탈리아문화원,서울 용산구,02-796-0634,"['교과서속여행', '도서관', '문화시설', '문화행사', '사계절', '수도권', '실내여행지']",https://cdn.visitkorea.or.kr/img/call?cmd=VIEW&id=9010f575-0d3d-4661-bd68-cfce03a1a073&thumb,서울특별시 용산구 한남대로 98,37.53716704,127.00551659999999,
185,한국문화의집,서울 강남구,02-3011-1788,"['문화시설', '아이와함께', '전통&역사문화체험', '체험학습', '친구와함께', '한국문화의집']",https://cdn.visitkorea.or.kr/img/call?cmd=VIEW&id=9de9d365-53a1-4728-ab9b-d8da90f78761&thumb,서울특별시 강남구 테헤란로92길 12-9,37.50682781,127.0604655,
186,호림아트센터(호림박물관 신사분관),서울 강남구,02-541-3523,"['나홀로여행', '남녀노소', '문화공간', '문화시설', '문화예술', '문화예술공간']",https://cdn.visitkorea.or.kr/img/call?cmd=VIEW&id=0a7a35a6-f95f-4818-bc98-8f24a0babde6&thumb,서울특별시 강남구 도산대로 317,37.52269761,127.0363446,
187,흰물결아트센터,서울 서초구,02-536-8644,"['공연장', '남녀노소', '문화공간', '문화시설', '복합문화공간', '연인과함께', '열린문화공간']",https://cdn.visitkorea.or.kr/img/call?cmd=VIEW&id=7ced8b54-ac4d-44f1-9d1f-61547710c9ab&thumb,서울특별시 서초구 반포대로 150,37.49343312,127.00728229999999,
188,충무아트센터,서울 중구,02-2230-6600,"['문화시설', '수도권', '아이와함께', '연인과함께', '예술', '음악회', '전시관', '충무아트센터']",https://cdn.visitkorea.or.kr/img/call?cmd=VIEW&id=339c3d77-5ef6-41c3-8da6-40dd09923694&thumb,서울특별시 중구 퇴계로 387,37.56594097,127.0147909,
189,서울특별시교육청 도봉도서관,서울 도봉구,02-6714-7400,"['교육청', '도봉', '도서관', '무장애', '문화시설', '서울시']",https://cdn.visitkorea.or.kr/img/call?cmd=VIEW&id=339addec-ab54-4cfb-b959-ff8c306039b7&thumb,서울특별시 도봉구 삼양로 556,37.65254746,127.0127722,
190,숭실대학교 한국기독교박물관,서울 동작구,02-820-0752,"['문화시설', '박물관', '수도권', '숭실대학교', '숭실대학교한국기독교박물관']",https://cdn.visitkorea.or.kr/img/call?cmd=VIEW&id=855e4694-5832-4d64-a3ca-ae9ef4970db1&thumb,서울특별시 동작구 상도로 369,37.49642897,126.95515790000002,
191,서울특별시교육청 동대문도서관,서울 동대문구,02-2170-1000,"['도서관', '독서', '동대문', '문화시설', '아이와 함께', '친구와 함께']",https://cdn.visitkorea.or.kr/img/call?cmd=VIEW&id=e9da2c83-155e-41ca-a383-a3e121075a79&thumb,서울특별시 동대문구 천호대로4길 22,37.57385655,127.02418519999999,
192,아르코미술관,서울 종로구,02-760-4850,"['가족여행', '나들이', '데이트코스', '도심여행', '문화시설', '미술관', '아르코미술관']",https://cdn.visitkorea.or.kr/img/call?cmd=VIEW&id=a7b8d0f8-f421-40e4-ae1b-e5037c0749f0&thumb,서울특별시 종로구 동숭길 3,37.58050229,127.0032562,
193,송파여성문화회관,서울 송파구,02-2203-3330,"['무장애', '문화공간', '문화시설', '복합문화공간', '서울시', '송파구', '여성문화']",https://cdn.visitkorea.or.kr/img/call?cmd=VIEW&id=7666be68-b09f-4e51-8b35-7494759dd12d&thumb,서울특별시 송파구 백제고분로42길 5,37.50592943,127.1097315,
194,서울특별시교육청 노원평생학습관,서울 노원구,02-979-1741,"['노원평생학습관', '문화시설', '복합문화공간', '서울특별시교육청', '아이와 함께']",https://cdn.visitkorea.or.kr/img/call?cmd=VIEW&id=7213c153-cf40-45da-8923-49c6007a0b48&thumb,서울특별시 노원구 동일로204길 13,37.63951386,127.0678213,
195,(주) 교보문고,서울 종로구,1544-1900,"['교보문고', '도서관', '도심여행', '문화시설', '문화행사', '사계절', '수도권', '아이와함께']",https://cdn.visitkorea.or.kr/img/call?cmd=VIEW&id=ccfb4934-da00-4bda-b03c-bc21e1389f54&thumb,서울특별시 종로구 종로 1,37.57305391,127.01659040000001,
196,주한영국문화원,서울 중구,02-3702-0601,"['다문화', '문화시설', '문화행사', '수도권', '주한영국문화원', '체험학습']",https://cdn.visitkorea.or.kr/img/call?cmd=VIEW&id=03b16e53-1578-4b8c-aebc-0c02ae1c946e&thumb,서울특별시 중구 서소문로11길 19,37.56378783,126.97208909999998,
197,관악문화원,서울 관악구,02-885-5975,"['관악문화원', '문화강좌', '문화시설', '복합문화공간', '열린문화공간']",https://cdn.visitkorea.or.kr/img/call?cmd=VIEW&id=c31a78b0-cf33-4172-9c88-fed235de5038&thumb,서울특별시 관악구 신림로3길 35,37.46759765,126.9448709,
198,가나아트센터,서울 종로구,02-720-1020,"['가나아트갤러리', '가나아트센터', '데이트코스', '드라이브여행', '문화시설']",https://cdn.visitkorea.or.kr/img/call?cmd=VIEW&id=17957449-38f3-4267-9bee-c896ff35adda&thumb,서울특별시 종로구 평창30길 28,37.61218939,126.975179,
199,아라리오뮤지엄 인 스페이스,서울 종로구,02-736-5700,"['문화공간', '문화시설', '문화예술', '문화예술공간', '미술품', '복합문화공간']",https://cdn.visitkorea.or.kr/img/call?cmd=VIEW&id=b9a7dc12-0a8a-494d-a1db-44721ad84c0e&thumb,서울특별시 종로구 율곡로 83,37.57776013,126.9884152,
200,갤러리 피치,서울 강남구,02-547-9569,"['갤러리피치', '문화공간', '문화시설', '예술공간']",https://cdn.visitkorea.or.kr/img/call?cmd=VIEW&id=e353ef6b-199b-42f6-b2c6-2ed3e4689dda&thumb,서울특별시 강남구 도산대로87길 25,37.5263755,127.05015379999999,
201,서울돈화문국악당,서울 종로구,02-3210-7001,"['공연장', '국악공연', '남녀노소', '문화공간', '문화시설', '복합문화공간', '열린문화공간']",https://cdn.visitkorea.or.kr/img/call?cmd=VIEW&id=1e4b8635-5470-4372-9c6c-9cd718b7acc0&thumb,서울특별시 종로구 율곡로 102,37.57727785,126.99067079999999,
202,암사동 선사주거지 원시생활전시관,서울 강동구,02-3425-6520,"['교과서속여행', '나들이', '문화시설', '박물관', '아이와함께', '암사동선사주거지원시전시관']",https://cdn.visitkorea.or.kr/img/call?cmd=VIEW&id=4acd0155-3d07-461b-9ea6-11123ea8c6bd&thumb,서울특별시 강동구 올림픽로 875,37.55985237,127.1308334,
203,중랑구립면목정보도서관,서울 중랑구,02-432-4123,"['도서관', '문화시설', '아이와함께', '중랑구립면목정보도서관']",https://cdn.visitkorea.or.kr/img/call?cmd=VIEW&id=53fb8ec7-b6d3-4f8d-bb14-b37dbd5e52bf&thumb,서울특별시 중랑구 면목로 397,37.58735561,127.08755520000001,
204,재활용창작품상설전시관,서울 양천구,02-2698-3829,"['문화시설', '수도권', '재활용', '재활용관광지', '재활용창작품상설전시관', '재활용품']",https://cdn.visitkorea.or.kr/img/call?cmd=VIEW&id=1e91dd77-20ec-429a-9a0a-427afe26a4be&thumb,서울특별시 양천구 화곡로4길 26,37.53707416,126.82818200000001,
205,금나래아트홀,서울 금천구,02-2627-2981,"['가족과함께', '금나래아트홀', '도심여행', '문화시설', '아이와함께', '예술']",https://cdn.visitkorea.or.kr/img/call?cmd=VIEW&id=be8c99c1-d468-4560-88a7-b960191c9feb&thumb,서울특별시 금천구 시흥대로73길 70,37.45706565,126.8960369,
206,가톨릭대학교 성신교정도서관,서울 종로구,02-740-9720,"['독서', '문화시설', '성신교정도서관', '자료제공']",https://cdn.visitkorea.or.kr/img/call?cmd=VIEW&id=bde667d6-b2e8-481e-aa8d-7a0a085435f2&thumb,서울특별시 종로구 창경궁로 296-12,37.58490098,127.0047707,
207,응암정보도서관,서울 은평구,02-308-2320,"['도서관', '독서', '문화시설', '문화행사', '수도권', '아이와함께', '여름방학가볼만한곳']",https://cdn.visitkorea.or.kr/img/call?cmd=VIEW&id=d4d1c5c9-ae8d-4bfd-9867-708364521e36&thumb,서울특별시 은평구 가좌로7길 15,37.58596602,126.91968090000002,
208,aA 디자인 뮤지엄,서울 마포구,02-3143-7312,"['aA디자인뮤지엄', '가구전시', '문화시설', '문화예술공간', '쇼룸', '전시관']",https://cdn.visitkorea.or.kr/img/call?cmd=VIEW&id=e5101475-162b-4054-bbca-b9278f663093&thumb,서울특별시 마포구 와우산로17길 19-18,37.54956412,126.9213297,
209,가회민화박물관,서울 종로구,02-741-0466,"['가족여행', '문화시설', '박물관', '서울시', '아이와함께', '전통문화', '종로구']",https://cdn.visitkorea.or.kr/img/call?cmd=VIEW&id=1f5bd969-e21c-46dc-91c0-b9c3106ac45e&thumb,서울특별시 종로구 북촌로 52,37.58150935,126.9852292,
210,금천구립가산도서관,서울 금천구,02-865-6817,"['도서관', '독서여행', '문화시설', '친구와 함께', '힐링']",https://cdn.visitkorea.or.kr/img/call?cmd=VIEW&id=f9fdf826-c1fd-41f3-b9d1-e3053b4b4fd6&thumb,서울특별시 금천구 가산로5길 43,37.47349155,126.89212979999999,
211,장난감나라 오류점,서울 구로구,02-2611-3202,"['놀이시설', '대여점', '문화시설', '실내놀이터', '아이와함께', '어린이날가볼만하곳']",https://cdn.visitkorea.or.kr/img/call?cmd=VIEW&id=fa71c5aa-02ee-4631-bad5-cf230f1fed88&thumb,서울특별시 구로구 경인로20가길 38,37.49535812,126.8460358,
212,한전아트센터 갤러리,서울 서초구,02-2105-8190,"['데이트코스', '문화시설', '미술관', '수도권', '아이와함께', '예술', '전시관', '체험학습']",https://cdn.visitkorea.or.kr/img/call?cmd=VIEW&id=2374cff9-ef41-4823-981e-b367666287f8&thumb,서울특별시 서초구 효령로72길 60,37.48560466,127.02807879999999,
213,덕성여자대학교박물관,서울 도봉구,02-901-8131,"['교과서속여행', '덕성여자대학교박물관', '문화시설', '박물관', '수도권', '실내여행지']",https://cdn.visitkorea.or.kr/img/call?cmd=VIEW&id=fbd6a881-595e-4180-9d37-37d49205bea7&thumb,서울특별시 도봉구 삼양로144길 33,37.64950908,127.0163952,
214,서울특별시교육청 종로도서관,서울 종로구,02-721-0711,"['문화시설', '서울특별시교육청', '종로구', '종로도서관']",https://cdn.visitkorea.or.kr/img/call?cmd=VIEW&id=ed504ba4-84c8-469c-be0e-da4a26961168&thumb,서울특별시 종로구 사직로9길 15-14,37.57644967,126.9664668,
215,나루아트센터,서울 광진구,02-2049-4700,"['가족여행', '나루아트센터', '문화시설', '문화행사', '복합문화공간', '사계절데이트코스']",https://cdn.visitkorea.or.kr/img/call?cmd=VIEW&id=c060fbd2-c1a1-4518-84ec-b17692571e2b&thumb,서울특별시 광진구 능동로 76,37.53757063,127.070576,
216,서울대학교 치의학박물관,서울 종로구,02-740-8799,"['교과서속여행', '문화시설', '박물관', '서울대학교치의학박물관', '수도권', '실내여행지']",https://cdn.visitkorea.or.kr/img/call?cmd=VIEW&id=96521ccf-4a9c-4a18-a618-d71034024545&thumb,서울특별시 종로구 대학로 101,37.58045239,126.99719640000002,
217,짚풀생활사박물관,서울 종로구,02-743-8787,"['가족과함께', '공예품', '문화시설', '박물관', '아이와함께', '전통공예', '짚공예']",https://cdn.visitkorea.or.kr/img/call?cmd=VIEW&id=0c83da3f-948d-450e-8ac6-33b70091f117&thumb,서울특별시 종로구 성균관로4길 45,37.58490585,126.9998429,
218,통인가게(통인화랑),서울 종로구,02-733-4867,"['문화시설', '통인가게', '통인화랑']",https://cdn.visitkorea.or.kr/img/call?cmd=VIEW&id=1ddbdb75-1da6-4dd6-a3a0-1ef504066349&thumb,서울특별시 종로구 인사동길 32,37.57358312,126.98592140000001,
219,서울특별시교육청 개포도서관,서울 강남구,02-3460-8200,"['개포도서관', '도서관', '문화시설', '서울특별시교육청개포도서관', '수도권']",https://cdn.visitkorea.or.kr/img/call?cmd=VIEW&id=4b447e80-01a5-4ccf-93ad-1efb61b6bb29&thumb,서울특별시 강남구 선릉로4길 30,37.48307945,127.06386699999999,
220,꿈의숲 아트센터,서울 강북구,02-2289-5401,"['가족여행', '공연장', '꿈의숲아트센터', '나들이', '데이트코스', '도심여행', '문화시설']",https://cdn.visitkorea.or.kr/img/call?cmd=VIEW&id=2bf4467a-90f3-4949-b3c5-d279c8df268a&thumb,서울특별시 강북구 월계로 173,37.62025446,127.0443247,
221,서울특별시교육청 고덕평생학습관,서울 강동구,02-6902-2600,"['고덕평생학습관', '도서관', '문화시설', '사계절', '수도권', '아이와함께', '체험학습']",https://cdn.visitkorea.or.kr/img/call?cmd=VIEW&id=a21fe5b4-236c-4003-ba15-6d8f553cb8b9&thumb,서울특별시 강동구 고덕로 295,37.55612041,127.1580394,
222,양천문화회관,서울 양천구,02-2646-5870,"['가족여행', '문화시설', '상설공연', '서울도심여행', '아이와함께', '양천문화회관']",https://cdn.visitkorea.or.kr/img/call?cmd=VIEW&id=a4790b6d-42de-4ddb-9aee-1caf3b7d5e92&thumb,서울특별시 양천구 목동서로 367,37.51652093,126.86334,
223,조선일보미술관,서울 중구,02-724-6322,"['나들이', '데이트코스', '드라이브여행', '문화시설', '미술관', '수도권', '실내여행지']",https://cdn.visitkorea.or.kr/img/call?cmd=VIEW&id=5c7a0ef1-a729-4a33-b24a-a809e3c28efc&thumb,서울특별시 중구 세종대로21길 61,37.56912031,126.97588619999999,
224,본화랑,서울 종로구,02-732-2366,"['문화공간', '문화시설', '문화예술', '문화예술공간', '미술인', '미술작품', '복합문화공간']",https://cdn.visitkorea.or.kr/img/call?cmd=VIEW&id=undefined&thumb,서울특별시 강남구 논현로142길 26,37.51759648,127.03137920000002,
225,세종대학교박물관,서울 광진구,02-3408-3876,"['문화시설', '세종대학교박물관', '전시관', '체험학습']",https://cdn.visitkorea.or.kr/img/call?cmd=VIEW&id=9fd82cc8-cece-4955-b063-67366d20c1f3&thumb,서울특별시 광진구 능동로 209,37.55160814,127.07318319999999,
226,성동문화원,서울 성동구,02-2286-6234,"['문화시설', '복합문화공간', '성동문화원', '열린문화공간']",https://cdn.visitkorea.or.kr/img/call?cmd=VIEW&id=8ca9e4ad-afc5-422d-a06d-efe2425ff146&thumb,서울특별시 성동구 왕십리로 281,37.55931111,127.0360074,
227,전기박물관,서울 서초구,02-2105-8190,"['교과서속여행', '문화시설', '박물관', '수도권', '아이와함께', '전기박물관', '전시관']",https://cdn.visitkorea.or.kr/img/call?cmd=VIEW&id=b5193bb5-98b1-49a5-acc0-8cc940695a9b&thumb,서울특별시 서초구 효령로72길 60,37.48560466,127.02807879999999,
228,강동문화원,서울 강동구,02-488-0386,"['강동문화원', '문화강좌', '문화시설', '복합문화공간', '열린문화공간']",https://cdn.visitkorea.or.kr/img/call?cmd=VIEW&id=e36a4827-7caf-49a9-bce1-c4d68ee19a1e&thumb,서울특별시 강동구 상암로 168,37.54573141,127.14122250000001,
229,국제갤러리,서울 종로구,02-735-8449,"['국제갤러리', '나들이', '데이트코스', '문화시설', '미술관', '수도권', '실내여행지']",https://cdn.visitkorea.or.kr/img/call?cmd=VIEW&id=7f63ff6f-8a1b-4f39-bcb7-45e6e534d781&thumb,서울특별시 종로구 삼청로 54,37.58072067,126.98057390000001,
230,서울아트센터 공평갤러리,서울 종로구,070-4214-0070,"['공평갤러리', '도심여행', '문화시설', '문화예술', '미술관', '복합문화공간', '서울아트센터']",https://cdn.visitkorea.or.kr/img/call?cmd=VIEW&id=7aae7875-2286-4adb-a05b-da75ea6982ca&thumb,서울특별시 종로구 인사동길 24,37.57294555,126.9865084,
231,포니정홀,서울 강남구,02-2008-8813,"['공연', '남녀노소', '문화공간', '문화시설', '문화예술', '복합문화공간', '수도권']",https://cdn.visitkorea.or.kr/img/call?cmd=VIEW&id=d7699349-f6de-4d3a-9f90-4de3a098e343&thumb,서울특별시 강남구 영동대로 520,37.51364005,127.06113710000001,
232,금호아트홀,서울 종로구,02-6303-1977,"['가족여행', '금호아트홀', '데이트코스', '문화시설', '아이와함께', '연인과함께']",https://cdn.visitkorea.or.kr/img/call?cmd=VIEW&id=976e8a7c-84af-4ec7-abd7-aaee59ade9fb&thumb,서울특별시 종로구 새문안로 76,37.56979754,126.9731774,
233,MoA 서울대학교미술관,서울 관악구,02-880-9504,"['가족여행', '문화시설', '미술관', '서울대학교미술관', '수도권', '실내여행지']",https://cdn.visitkorea.or.kr/img/call?cmd=VIEW&id=a328adac-3a28-4063-bb03-c437e6cd2db4&thumb,서울특별시 관악구 관악로 1,37.46803806,126.9592943,
234,조수정 한지그림 갤러리,서울 강남구,02-501-1505,"['데이트코스', '문화시설', '미술관', '사계절', '수도권', '아이와함께', '연인과함께']",https://cdn.visitkorea.or.kr/img/call?cmd=VIEW&id=c67e7731-41e3-4b8c-8a55-1be6dfdd2f95&thumb,서울특별시 강남구 테헤란로92길 14,37.50703334,127.06114450000001,
235,노원문화원,서울 노원구,02-938-1244,"['노원문화원', '문화시설', '복합문화공간', '열린문화공간']",https://cdn.visitkorea.or.kr/img/call?cmd=VIEW&id=2ecb1e87-bf1b-4090-a781-1a6c23375298&thumb,서울특별시 노원구 동일로197길 24,37.62879899,127.0698009,
236,갤러리 스클로,서울 중구,02-2236-1583,"['문화공간', '문화시설', '문화예술', '복합문화공간', '소장품', '소장품', '열린문화공간']",https://cdn.visitkorea.or.kr/img/call?cmd=VIEW&id=048a1954-8f5a-40b4-8d88-d66cbcc7cf92&thumb,서울특별시 중구 다산로16길 29,37.55625776,127.01345159999998,
237,동림매듭박물관,서울 종로구,02-3673-2778,"['가족체험', '공예', '문화시설', '박물관', '수공예', '아이와함께', '연인과함께']",https://cdn.visitkorea.or.kr/img/call?cmd=VIEW&id=1ea65358-30af-4a91-9de8-cb8f94cdfaef&thumb,서울특별시 종로구 북촌로12길 10,37.58178357,126.98561299999999,
238,건국대학교 상허기념도서관,서울 광진구,02-450-3363,"['건국대학교', '독서공간', '문화시설', '상허기념도서관']",https://cdn.visitkorea.or.kr/img/call?cmd=VIEW&id=88d31ebe-e16e-4c73-a45d-21f25eaa803a&thumb,서울특별시 광진구 능동로 120,37.53918267,127.0747119,
239,세계골프역사박물관,서울 강남구,02-2192-3005,"['나홀로여행', '문화시설', '뮤지엄&미술관', '사계절', '세계골프역사박물관']",https://cdn.visitkorea.or.kr/img/call?cmd=VIEW&id=05980701-ff82-4b9f-be3a-0bf9ee341d60&thumb,서울특별시 강남구 테헤란로 528,37.50809527,127.06200000000001,
240,이스라엘문화원,서울 서초구,02-525-7301,"['교과서속여행', '문화시설', '문화행사', '사계절', '수도권', '실내여행지', '아이와함께']",https://cdn.visitkorea.or.kr/img/call?cmd=VIEW&id=0e14b3c2-b6c1-44ab-a775-dd2a1f213b70&thumb,서울특별시 서초구 서초대로74길 23,37.49561193,127.027091,
241,갤러리 S.P,서울 강남구,02-546-3560,"['도자기', '문화공간', '문화시설', '복합문화공간', '열린문화공간', '조각', '조각품']",https://cdn.visitkorea.or.kr/img/call?cmd=VIEW&id=58308639-edd4-427b-9c0c-ac94158b557c&thumb,서울특별시 용산구 회나무로44가길 30,37.53830697,126.99429140000001,
242,라트어린이극장,서울 강남구,02-560-0999,"['나들이', '도심여행', '라트어린이극장', '문화시설', '아이와함께', '어린이날가볼만한곳']",https://cdn.visitkorea.or.kr/img/call?cmd=VIEW&id=d936471e-9bfb-42a6-b61e-133ee40bb2fa&thumb,서울특별시 강남구 논현로 164,37.48428837,127.04231499999999,
243,주한중국문화원,서울 종로구,02-733-8307,"['문화시설', '복합문화공간', '열린문화공간', '주한중국문화원']",https://cdn.visitkorea.or.kr/img/call?cmd=VIEW&id=2cbc7017-9276-487b-8647-4316adcdf094&thumb,서울특별시 종로구 사직로8길 23-1,37.57460392,126.97134799999999,
244,동국대학교 박물관,서울 중구,02-2260-3722,"['교과서속여행', '동국대학교박물관', '문화시설', '박물관', '수도권', '실내여행지']",https://cdn.visitkorea.or.kr/img/call?cmd=VIEW&id=db62147a-7598-4535-ade4-4878dcf1626b&thumb,서울특별시 중구 필동로1길 30,37.55893664,126.9987376,
245,마리아칼라스홀,서울 강남구,02-558-4588,"['데이트코스', '도심여행', '마리아칼라스홀', '문화공간', '문화시설', '복합문화공간']",https://cdn.visitkorea.or.kr/img/call?cmd=VIEW&id=f798e52e-9ac5-4bdc-8f9d-5c78f62588fa&thumb,서울특별시 강남구 영동대로 315,37.50249514,127.0660341,
246,예림당아트홀,서울 강남구,02-6413-3689,"['나홀로여행', '도심여행', '문화시설', '상설공연', '예림당아트홀', '예술', '친구와함께']",https://cdn.visitkorea.or.kr/img/call?cmd=VIEW&id=8ab464ed-616a-4a08-b702-7cb64d91742e&thumb,서울특별시 강남구 언주로 337,37.49792419,127.04435659999999,
247,충무공 이야기,서울 종로구,02-399-1114,"['겨울방학가볼만한곳', '교과서속여행', '기념관', '도심여행', '문화시설', '아이와함께']",https://cdn.visitkorea.or.kr/img/call?cmd=VIEW&id=0400490e-9ff3-4dfd-8e70-d1c5d77a19a5&thumb,서울특별시 종로구 세종대로 지하 175,37.57218604,126.9768172,
248,주한독일문화원,서울 용산구,02-2021-2800,"['교과서속여행', '문화시설', '문화행사', '사계절', '수도권', '실내여행지', '아이와함께']",https://cdn.visitkorea.or.kr/img/call?cmd=VIEW&id=5c3d2950-8344-46f8-b7b2-f9e8dcf838a9&thumb,서울특별시 용산구 소월로 132,37.55071315,126.9827115,
249,몽골 울란바타르 문화진흥원,서울 광진구,02-446-4199,"['몽골', '문화공간', '문화시설', '문화진흥원', '울란바타르']",https://cdn.visitkorea.or.kr/img/call?cmd=VIEW&id=285c103f-b6f7-4ec2-a838-26ca801330c0&thumb,서울특별시 광진구 광장로 1,37.54554942,127.0982047,
250,포스코미술관,서울 강남구,02-3457-1665,"['데이트코스', '문화시설', '미술관', '수도권', '아이와함께', '연인과함께', '예술']",https://cdn.visitkorea.or.kr/img/call?cmd=VIEW&id=52f30321-c12f-4a05-8735-6c2c8ddc7a21&thumb,서울특별시 강남구 테헤란로 440,37.50581497,127.05613100000001,
251,갤러리 서림,서울 강남구,02-515-3377,"['갤러리서림', '문화시설', '문화예술공간', '전시관']",https://cdn.visitkorea.or.kr/img/call?cmd=VIEW&id=4aa51d16-fd15-431d-a48f-793532182eb9&thumb,서울특별시 강남구 학동로 523 ,37.52011672,127.05607040000001,
252,남산예술센터,서울 중구,02-758-2150,"['남산예술센터', '문화시설', '복합문화공간', '아이와함께', '주말추천여행지']",https://cdn.visitkorea.or.kr/img/call?cmd=VIEW&id=83a68598-86ad-4100-9d20-ca920a37dd16&thumb,서울특별시 중구 소파로 138,37.55913006,126.9883894,
253,서울특별시교육청 송파도서관,서울 송파구,02-404-7914,"['도서관', '독서여행', '문화시설', '송파구', '힐링']",https://cdn.visitkorea.or.kr/img/call?cmd=VIEW&id=93f405b0-9748-49d9-b518-0b66fa640c2b&thumb,서울특별시 송파구 동남로 263,37.49999535,127.1348515,
254,경희대학교 중앙박물관,서울 동대문구,02-961-0141,"['경희대학교박물관', '무료관람', '문화시설', '박물관', '수도권', '실내여행지']",https://cdn.visitkorea.or.kr/img/call?cmd=VIEW&id=324ecce6-dd3f-4960-9087-685689fedb22&thumb,서울특별시 동대문구 경희대로 26,37.59394914,127.054891,
255,백악미술관,서울 종로구,02-734-4205,['문화시설'],https://cdn.visitkorea.or.kr/img/call?cmd=VIEW&id=b8cb31a1-2705-4846-ab4f-4b429d95bc65&thumb,서울특별시 종로구 인사동9길 16,37.57363884,126.98413889999999,
256,갤러리위,서울 강남구,02-517-3266,"['남녀노소', '문화공간', '문화시설', '문화예술', '문화예술공간', '문화예술활동']",https://cdn.visitkorea.or.kr/img/call?cmd=VIEW&id=00ae897b-9c20-4997-b46b-70f614af07fb&thumb,서울특별시 강남구 도산대로56길 15-1,37.52217094,127.04062479999999,
257,일본공보문화원,서울 종로구,02-765-3011,"['남녀노소', '문화강좌', '문화공간', '문화교실', '문화시설', '문화예술', '문화예술공간']",https://cdn.visitkorea.or.kr/img/call?cmd=VIEW&id=b12da161-318e-4ad5-80d1-f796f72fddd6&thumb,서울특별시 종로구 율곡로 64,37.5768624,126.98690659999998,
258,스페이스 111,서울 종로구,02-708-5001,"['나홀로여행', '도심여행', '문화공간', '문화공연', '문화시설', '문화예술', '복합문화공간']",https://cdn.visitkorea.or.kr/img/call?cmd=VIEW&id=7f18ad92-5994-4074-b7a0-ec5267996f95&thumb,서울특별시 종로구 종로33길 15,37.57181233,127.0010001,
259,관세박물관,서울 강남구,02-510-1082,"['관세박물관', '문화시설', '박물관', '수도권', '아이와함께', '이색체험', '전시관']",https://cdn.visitkorea.or.kr/img/call?cmd=VIEW&id=e7d912ee-41e7-43b1-a70b-373cbd776037&thumb,서울특별시 강남구 언주로 721,37.51830058,127.0337788,
260,갤러리조은,서울 용산구,02-790-5889,"['갤러리', '문화공간', '문화시설', '문화예술', '문화예술공간', '문화예술활동']",https://cdn.visitkorea.or.kr/img/call?cmd=VIEW&id=50408afb-c33d-4af6-9d19-f28608e02f9b&thumb,서울특별시 용산구 유엔빌리지길 28,37.533458,127.00942240000002,
261,갤러리 스케이프,서울 종로구,02-747-4675,"['문화공간', '문화시설', '문화예술', '미술품', '복합문화공간', '열린문화공간']",https://cdn.visitkorea.or.kr/img/call?cmd=VIEW&id=50c83e37-10a1-4944-8a70-d15be260929a&thumb,서울특별시 용산구 독서당로 122-1,37.53684643,127.01285520000002,
262,예화랑,서울 강남구,02-542-5543,"['문화시설', '문화예술공간', '연인과 함께', '예화랑', '친구와 함께']",https://cdn.visitkorea.or.kr/img/call?cmd=VIEW&id=668eb84c-6366-4e2b-a580-f0cbcc631d5f&thumb,서울특별시 강남구 압구정로12길 18,37.523061,127.022159,
263,축구전시관,서울 종로구,02-2002-0707,"['문화시설', '박물관', '사계절', '수도권', '실내여행지', '아이와함께', '전시관']",https://cdn.visitkorea.or.kr/img/call?cmd=VIEW&id=10e40cd9-60b2-4298-b978-e1eecbae755b&thumb,서울특별시 종로구 경희궁길 46,37.57349432,126.9691037,
264,더케이아트홀,서울 서초구,02-526-9680,"['가족여행', '더케이아트홀', '문화시설', '문화행사', '사계절', '상설공연', '수도권']",https://cdn.visitkorea.or.kr/img/call?cmd=VIEW&id=ef1a6aaa-ae34-45e3-97fe-9168bc9e6d03&thumb,서울특별시 서초구 바우뫼로12길 70,37.4682875,127.03306470000001,
265,LG아트센터,서울 강남구,02-2005-0114,"['LG아트센터', '데이트코스', '문화시설', '복합문화공간', '상설공연', '아이와함께']",https://cdn.visitkorea.or.kr/img/call?cmd=VIEW&id=9bea9a05-8a6a-4fd0-a02d-f87fa7f1d293&thumb,서울특별시 강남구 논현로 508,37.50199493,127.0373364,
266,배재학당역사박물관,서울 중구,02-319-5578,"['교육여행', '문화시설', '배재학당역사박물관', '아이와 함께', '역사교육', '체험학습']",https://cdn.visitkorea.or.kr/img/call?cmd=VIEW&id=db79d23f-4167-45ab-a3d3-adbe68455773&thumb,서울특별시 중구 서소문로11길 19,37.56378783,126.97208909999998,
267,한국자수박물관,서울 강남구,02-515-5114,"['나들이', '문화시설', '박물관', '수도권', '아이와함께', '예술', '전시관', '전통&역사문화체험']",https://cdn.visitkorea.or.kr/img/call?cmd=VIEW&id=93915506-92fe-4235-bd4b-32c0d091b9dc&thumb,서울특별시 강남구 논현로132길 34,37.51539768,127.0333236,
268,암사어린이극장,서울 강동구,02-481-8808,"['나들이', '문화시설', '아이와 함께', '암사어린이극장', '어린이극장']",https://cdn.visitkorea.or.kr/img/call?cmd=VIEW&id=4643591d-55f8-4f0d-b8a5-48f767e5f248&thumb,서울특별시 강동구 올림픽로 930,37.56345434,127.13335749999999,
269,양화진홀 전시관,서울 마포구,02-332-9174,"['가족여행', '교과서속여행', '근대문화유산', '문화시설', '사계절', '수도권', '양화진홀전시관']",https://cdn.visitkorea.or.kr/img/call?cmd=VIEW&id=9000c6c0-fd41-4be2-9c50-4199b5d6e2a4&thumb,서울특별시 마포구 양화진길 46,37.54652279999999,126.91176909999999,
270,위니아트(건국대학교 새천년관 대공연장),서울 광진구,02-455-1896,"['건국대학교대공연장', '공연장', '데이트코스', '문화생활', '문화시설', '상설공연']",https://cdn.visitkorea.or.kr/img/call?cmd=VIEW&id=c9496b8a-60ee-4363-acd2-df9f6fc75b36&thumb,서울특별시 광진구 능동로 120,37.53918267,127.0747119,
271,춘원당한의약박물관,서울 종로구,02-3672-2005,"['가족여행', '건강여행', '도심여행', '문화시설', '박물관', '약초생활건강', '이색체험']",https://cdn.visitkorea.or.kr/img/call?cmd=VIEW&id=0f533f40-3fe8-42b8-a35e-0080f2d6b97d&thumb,서울특별시 종로구 돈화문로9길 27,37.57150054,126.99024209999999,
272,성북문화원,서울 성북구,02-765-1611,"['무장애', '문화시설', '문화원', '서울시', '성북구', '전통문화', '지역문화']",https://cdn.visitkorea.or.kr/img/call?cmd=VIEW&id=4535fb64-9b5b-4fd9-a52f-c7304b8e94df&thumb,서울특별시 성북구 성북로4길 13-8,37.58971314,127.00574979999999,
273,서울특별시교육청 남산도서관,서울 용산구,02-754-7338,"['나들이', '남산도서관', '데이트코스', '도심여행', '문화시설', '아이와함께', '연인과함께']",https://cdn.visitkorea.or.kr/img/call?cmd=VIEW&id=906120eb-2821-4284-9a16-e177f3dae2bf&thumb,서울특별시 용산구 소월로 109,37.55255642,126.9821581,
274,제이플아트,서울 서초구,,"['문화시설', '작품', '전시', '전시품', '창작품', '판화', '포스터']",https://cdn.visitkorea.or.kr/img/call?cmd=VIEW&id=8463113d-5e8b-440c-ad9b-5953d1aca4ab&thumb,서울특별시 서초구 서초대로53길 13,37.49534643,127.01476629999999,
275,경희대학교 자연사박물관,서울 동대문구,02-961-0142,"['경희대학교자연사박물관', '교과서속여행', '문화시설', '박물관', '수도권', '실내여행지']",https://cdn.visitkorea.or.kr/img/call?cmd=VIEW&id=d464ccfa-1675-40c5-8a6c-432af8d05102&thumb,서울특별시 동대문구 경희대로 26,37.59394914,127.054891,
276,대학로예술극장,서울 종로구,02-3668-0007,"['가족여행', '대학로예술극장', '데이트코스', '문화시설', '사계절', '상설공연']",https://cdn.visitkorea.or.kr/img/call?cmd=VIEW&id=cff50b56-5203-4913-b706-80b15de18136&thumb,서울특별시 종로구 대학로10길 17,37.58209615,127.00317849999999,
277,백해영갤러리,서울 용산구,02-796-9347,"['갤러리', '근대문화예술', '문화시설', '문화예술', '문화예술', '문화예술공간']",https://cdn.visitkorea.or.kr/img/call?cmd=VIEW&id=e981da3c-b738-4958-b7f7-3b07df88a4df&thumb,서울특별시 용산구 이태원로27길 77,37.53651185,126.99487579999999,
278,모차르트 콘서트홀,서울 서초구,02-3472-8222,"['가족여행', '단체관람', '도심여행', '모차르트콘서트홀', '문화시설', '연인과함께']",https://cdn.visitkorea.or.kr/img/call?cmd=VIEW&id=a20be372-36c3-4d78-9d45-8f88dbfe722b&thumb,서울특별시 서초구 명달로 104,37.48641666,127.0045249,
279,몽인아트스페이스,서울 중구,02-736-1447,"['문화공간', '문화시설', '문화예술', '문화예술창작공간', '복합문화공간', '예술']",https://cdn.visitkorea.or.kr/img/call?cmd=VIEW&id=5c70e89f-e8cd-45a7-a541-4dc212e461c9&thumb,서울특별시 중구 동호로15길 80,37.55416811,127.0080405,
280,한국잡지정보관,서울 영등포구,02-360-0041,"['나홀로여행', '문화시설', '박물관', '수도권', '아이와함께', '이색체험', '전시관']",https://cdn.visitkorea.or.kr/img/call?cmd=VIEW&id=d19570bd-fa97-44db-a999-98f8a0132da9&thumb,서울특별시 영등포구 여의대방로67길 11,37.51976516,126.9302412,
281,갤러리3안,서울 종로구,02-720-2722,"['갤러리3안', '나홀로여행', '도심여행', '문화시설', '문화예술공간', '문화예술활동']",https://cdn.visitkorea.or.kr/img/call?cmd=VIEW&id=5c0d386d-8cd5-4897-a6d0-4ce96c06f706&thumb,서울특별시 종로구 북촌로 137-7,37.58695655,126.98299879999999,
282,식민지역사박물관,서울 용산구,02-2139-0427,"['가족과함께', '문화시설', '식민지역사박물관', '아이와함께', '역사문화 탐방']",https://cdn.visitkorea.or.kr/img/call?cmd=VIEW&id=78e43a9b-6595-4bb6-ac43-3eeb0bcb922a&thumb,서울특별시 용산구 청파로47다길 27,37.54578472,126.96683629999998,
283,서울특별시교육청 강남도서관,서울 강남구,02-3448-4741,"['강남구', '독서교육', '문화시설', '아이와 함께', '정보제공']",https://cdn.visitkorea.or.kr/img/call?cmd=VIEW&id=00513bfd-b4c0-4d2c-aeeb-090cb2e9c561&thumb,서울특별시 강남구 선릉로116길 45,37.51368434,127.0468388,
284,송아트갤러리,서울 서초구,02-3482-7096,"['도심여행', '문화시설', '문화예술', '문화예술활동', '미술관', '복합문화공간']",https://cdn.visitkorea.or.kr/img/call?cmd=VIEW&id=ce936b6c-d3eb-44b4-b7f4-e572493f0675&thumb,서울특별시 서초구 서초중앙로 188,37.49735041,127.01353799999998,
285,금천구립독산도서관,서울 금천구,02-863-9544,"['금천구', '독서교육', '문화시설', '아이와 함께']",https://cdn.visitkorea.or.kr/img/call?cmd=VIEW&id=ca865e28-3dfe-4235-8d71-ce6087341632&thumb,서울특별시 금천구 독산로54길 114,37.46758019,126.90810590000001,
286,학고재,서울 종로구,02-720-1524,"['문화시설', '수도권', '전시', '학고재']",https://cdn.visitkorea.or.kr/img/call?cmd=VIEW&id=4277fdf4-2bd9-42e9-9ae0-ca565f917691&thumb,서울특별시 종로구 삼청로 50,37.58046546,126.98031680000001,
287,아라리오 갤러리(서울),서울 종로구,02-541-5701,"['문화시설', '문화예술체험공간', '아라리오갤러리', '예술체험']",https://cdn.visitkorea.or.kr/img/call?cmd=VIEW&id=b3e251ab-7841-43ea-83cf-dce61d7ed83c&thumb,서울특별시 종로구 북촌로5길 84,37.58010634,126.9804074,
288,영산아트홀,서울 영등포구,02-6181-5260,"['공연장', '데이트코스', '문화시설', '상설공연', '수도권', '아이와함께', '연인과함께']",https://cdn.visitkorea.or.kr/img/call?cmd=VIEW&id=e192df3a-6205-4893-83df-c071e3f7afdb&thumb,서울특별시 영등포구 여의공원로 101,37.52927196,126.92489270000002,
289,서울특별시교육청 양천도서관,서울 양천구,02-2062-3900,"['도서관', '문화시설', '서울특별시교육청양천도서관', '수도권']",https://cdn.visitkorea.or.kr/img/call?cmd=VIEW&id=bf37f75c-a61e-4ce2-bfce-425dd040e48c&thumb,서울특별시 양천구 목동서로 113,37.533560200000004,126.8762308,
290,구로문화원,서울 구로구,02-851-0837,"['문화강좌', '문화시설', '아이와 함께', '열린문화공간']",https://cdn.visitkorea.or.kr/img/call?cmd=VIEW&id=null&thumb,서울특별시 구로구 경인로20가길 38,37.49535812,126.8460358,
291,갤러리 나우,서울 종로구,02-725-2930,"['갤러리나우', '문화시설', '문화예술공간', '전시관']",https://cdn.visitkorea.or.kr/img/call?cmd=VIEW&id=486316d2-8861-47e1-b14e-221cf1fd6aab&thumb,서울특별시 종로구 인사동길 39,37.57379834,126.98495009999999,
292,신월음악도서관,서울 양천구,02-2065-1260,"['독서여행', '문화시설', '문화프로그램', '복합문화공간', '복합문화시설', '아이와함께']",https://cdn.visitkorea.or.kr/img/call?cmd=VIEW&id=8cc0f4f5-900b-4dc7-a5f9-83d0c5d7591e&thumb,서울특별시 양천구 오목로5길 34,37.52469581,126.84008109999999,
293,서울특별시교육청 강동도서관,서울 강동구,02-2225-9800,"['도서관', '독서', '문화시설', '수도권', '아이와함게', '친구와함께']",https://cdn.visitkorea.or.kr/img/call?cmd=VIEW&id=a6ae7f1b-c346-4921-9d7d-8005694cbdef&thumb,서울특별시 강동구 양재대로116길 57,37.53808297,127.1435009,
294,경인미술관,서울 종로구,02-733-4448,"['경인미술관', '데이트코스', '문화시설', '미술관', '수도권', '아이와함께', '연인과함께']",https://cdn.visitkorea.or.kr/img/call?cmd=VIEW&id=08dde849-ba21-474a-99bd-32ba325a4878&thumb,서울특별시 종로구 인사동10길 11-4,37.57459086,126.9857235,
295,유금와당박물관,서울 종로구,02-394-3451,"['교육', '기와지붕', '남녀노소', '문화시설', '박물관', '복합문화공간', '수도권']",https://cdn.visitkorea.or.kr/img/call?cmd=VIEW&id=a1d07b6c-7153-4bee-9ab7-417b967e2e01&thumb,서울특별시 종로구 창의문로11가길 4,37.59372003,126.9626578,
296,아트 스페이스 풀,서울 종로구,02-396-4805,"['문화시설', '미술관', '아트스페이스풀', '전시관', '친구와 함께']",https://cdn.visitkorea.or.kr/img/call?cmd=VIEW&id=82121b74-049a-4933-9c63-b89bc759ed95&thumb,서울특별시 종로구 세검정로9길 91-5,37.60641934,126.95919950000001,
297,서울특별시교육청 구로도서관,서울 구로구,02-6958-2800,"['구로도서관', '독서공간', '문화시설', '친구와 함께']",https://cdn.visitkorea.or.kr/img/call?cmd=VIEW&id=dbf356a9-3fcf-43ec-bab1-e5e0eb961c56&thumb,서울특별시 구로구 공원로 15,37.49865724,126.89154369999999,
298,서울특별시교육청 서대문도서관,서울 서대문구,02-6948-2115,"['도서관', '문화시설', '서대문구', '아이와 함께', '자료제공']",https://cdn.visitkorea.or.kr/img/call?cmd=VIEW&id=f19eb274-676d-40b3-a127-659fc139969f&thumb,서울특별시 서대문구 모래내로 412,37.58331862,126.940858,
299,강남문화원,서울 강남구,02-3454-1517,"['강남문화원', '문화시설', '복합문화공간', '열린문화공간']",https://cdn.visitkorea.or.kr/img/call?cmd=VIEW&id=5186f4cc-9643-4cc1-954e-f993fcc4bb33&thumb,서울특별시 강남구 테헤란로8길 36,37.49649918,127.03202879999999,
300,한국천주교순교자박물관,서울 마포구,02-3142-4434,"['나홀로여행', '문화시설', '박물관', '수도권', '실내여행지', '이색체험', '전시관']",https://cdn.visitkorea.or.kr/img/call?cmd=VIEW&id=eb5d5a20-a3ee-4c03-8b64-d4679c60484d&thumb,서울특별시 마포구 토정로 6,37.54413544,126.9117936,
301,신문박물관,서울 종로구,02-2020-1880,"['가족여행', '교과서속여행', '도심여행', '문화시설', '박물관', '신문박물관', '아이와함께']",https://cdn.visitkorea.or.kr/img/call?cmd=VIEW&id=1dedfa09-8f4e-4bd8-97ec-37dce1eb1e05&thumb,서울특별시 종로구 세종대로 152,37.56986776,126.9776571,
302,김리아 갤러리,서울 강남구,02-517-7713,"['남녀노소', '문화공간', '문화시설', '문화예술', '문화예술공간', '미술작품', '복합문화공간']",https://cdn.visitkorea.or.kr/img/call?cmd=VIEW&id=e293806e-126d-4faa-a3a0-558adc0eaa0b&thumb,서울특별시 강남구 선릉로148길 48-1,37.52279102,127.04362590000001,
303,삼성출판박물관,서울 종로구,02-394-6544,"['문화시설', '삼성출판박물관', '이색전시장', '인쇄역사']",https://cdn.visitkorea.or.kr/img/call?cmd=VIEW&id=305ec362-0815-42ce-bf5e-e26e8ce13c61&thumb,서울특별시 종로구 비봉길 2-2,37.60869773,126.9570761,
304,갤러리 구루지,서울 구로구,02-2029-1744,"['기획전시', '문화공간', '문화시설', '문화예술공간', '복합문화공간', '열린문화공간']",https://cdn.visitkorea.or.kr/img/call?cmd=VIEW&id=fe912686-4e59-4689-8f9f-053638bad6bd&thumb,서울특별시 구로구 가마산로25길 21,37.49710269,126.8895491,
305,숙명여자대학교 박물관,서울 용산구,02-710-9134,"['문화시설', '박물관', '수도권', '숙명여자대학교박물관', '실내여행지', '아이와함께']",https://cdn.visitkorea.or.kr/img/call?cmd=VIEW&id=79bee747-1a58-4362-a06e-e4b39043386a&thumb,서울특별시 용산구 청파로47길 100,37.54547408,126.96507439999999,
306,롤링홀,서울 마포구,02-325-6071,"['공연', '문화공간', '문화시설', '복합문화공간', '열린문화공간', '예술인', '홍대데이트']",https://cdn.visitkorea.or.kr/img/call?cmd=VIEW&id=6068b0ac-deb0-41cb-9ab0-5ec995266bea&thumb,서울특별시 마포구 어울마당로 35,37.54849752,126.920121,
307,쉼박물관,서울 종로구,02-396-9277,"['기획전시', '문화공간', '문화시설', '박물관', '복합문화공간', '상설전시', '소장품']",https://cdn.visitkorea.or.kr/img/call?cmd=VIEW&id=6cd67fbb-a2a1-4a0c-8f56-53ad933bac11&thumb,서울특별시 종로구 세검정로 209-17,37.59950369,126.955678,
308,갤러리 현대,서울 종로구,02-2287-3500,"['갤러리현대', '나들이', '데이트코스', '문화시설', '미술관', '수도권', '실내여행지']",https://cdn.visitkorea.or.kr/img/call?cmd=VIEW&id=8429ed51-0084-4370-afcf-f621aebcde98&thumb,서울특별시 종로구 삼청로 14,37.57730568,126.9798233,
309,두산아트센터,서울 종로구,02-708-5001,"['가족여행', '공연장', '나들이', '데이트코스', '두산아트센터', '문화시설', '수도권']",https://cdn.visitkorea.or.kr/img/call?cmd=VIEW&id=35adf6b6-cf40-4dad-aa57-1450da7634a0&thumb,서울특별시 종로구 종로33길 15,37.57181233,127.0010001,
310,이화웰컴센터,서울 서대문구,02-3277-3277,"['문화시설', '복합문화공간', '사계절', '수도권', '여름방학가볼만한곳', '열린문화공간']",https://cdn.visitkorea.or.kr/img/call?cmd=VIEW&id=d2d0e7ce-99e4-4a50-80a2-b0ee679463f5&thumb,서울특별시 서대문구 이화여대길 52,37.56446452,126.95028880000001,
311,동덕여자대학교 박물관,서울 성북구,02-940-4231,"['교과서속여행', '동덕여자대학교박물관', '문화시설', '박물관', '사계절', '수도권']",https://cdn.visitkorea.or.kr/img/call?cmd=VIEW&id=318ef288-da12-4a75-b33b-e6b04ce7a511&thumb,서울특별시 성북구 화랑로13길 60,37.60681483,127.0411763,
312,명인박물관,서울 종로구,02-766-0272,"['고미술품', '문화시설', '미술품', '박물관', '전시', '전통공예', '전통예술', '탈박물관']",https://cdn.visitkorea.or.kr/img/call?cmd=VIEW&id=4cf1a73a-59d2-4041-aa36-a9690d804b85&thumb,서울특별시 종로구 북촌로6길 1 ,37.58016659,126.9851863,
313,보나장신구박물관,서울 종로구,02-732-6621,"['가족과함께', '공예품', '관광지', '머리장식', '문화공간', '문화시설', '박물관']",https://cdn.visitkorea.or.kr/img/call?cmd=VIEW&id=f5032ac6-58e2-4750-9fab-94226e92e8ba&thumb,서울특별시 종로구 인사동9길 9,37.57357736,126.9845524,
314,세화미술관,서울 종로구,02-2002-7787,"['문화시설', '문화예술', '세화미술관', '실내데이트', '친구와 함께']",https://cdn.visitkorea.or.kr/img/call?cmd=VIEW&id=c5476573-b866-4dbf-98ff-8b41aaa3d263&thumb,서울특별시 종로구 새문안로 68,37.56964251,126.9721395,
315,서울대학교병원 의학박물관,서울 종로구,02-2072-2636,"['문화시설', '서울대학교병원의학박물관', '의학박물관', '종로구']",https://cdn.visitkorea.or.kr/img/call?cmd=VIEW&id=a8e6b0bb-a862-4ff0-9f52-a6468bd99270&thumb,서울특별시 종로구 대학로 101,37.58045239,126.99719640000002,
316,유즈패밀리,서울 종로구,02-3673-0323,"['가족과함께', '근대한옥', '문화시설', '문화체험', '수도권', '아이와함께', '유즈패밀리']",https://cdn.visitkorea.or.kr/img/call?cmd=VIEW&id=71c6b171-94d0-4c15-9f63-38a073923eb8&thumb,서울특별시 종로구 율곡로10길 19,37.576746,126.991249,
317,경기여고 경운박물관(서울),서울 강남구,02-3463-1336,"['문화시설', '복합문화공간', '산청세계전통의약엑스포', '아이와함께', '역사공부']",https://cdn.visitkorea.or.kr/img/call?cmd=VIEW&id=f93cb0e7-1204-4498-b91e-a432f71b7b31&thumb,서울특별시 강남구 삼성로 29,37.48691516,127.065453,
318,모던화랑,서울 종로구,02-732-6261,"['고미술품', '문화시설', '문화예술', '문화예술공간', '미술품', '예술공간', '전시']",https://cdn.visitkorea.or.kr/img/call?cmd=VIEW&id=d1a9f9ea-72a1-45d2-8853-bc4cd1d6096a&thumb,서울특별시 종로구 인사동10길 4,37.5739848,126.98535659999999,
319,스타일 큐브 잔다리,서울 마포구,02-323-4155,"['갤러리', '마포구', '문화시설', '문화예술', '복합문화공간', '서울시', '친구와함께']",https://cdn.visitkorea.or.kr/img/call?cmd=VIEW&id=f75dc761-fc3c-4b52-96d5-9f6629922460&thumb,서울특별시 마포구 양화로16길 14-16,37.55276847,126.92004540000002,
320,성신여자대학교박물관,서울 성북구,02-920-7325,"['무료관람', '문화시설', '박물관', '성신여자대학교박물관', '수도권', '실내여행지']",https://cdn.visitkorea.or.kr/img/call?cmd=VIEW&id=39dad9f9-8319-46d9-aede-5ebf5bb76389&thumb,서울특별시 성북구 보문로34다길 2,37.59165248,127.0221456,
321,갤러리조선,서울 종로구,02-723-7133,"['갤러리', '공연/전시', '문화시설', '미술가', '복합문화공간', '열린문화공간', '종합예술']",https://cdn.visitkorea.or.kr/img/call?cmd=VIEW&id=463ca26b-a13c-4621-b413-533ed37533b1&thumb,서울특별시 종로구 북촌로5길 64,37.57994461,126.9814727,
322,노화랑,서울 종로구,02-732-3558,"['문화공간', '문화시설', '문화예술', '복합문화공간', '열린문화공간', '예술품']",https://cdn.visitkorea.or.kr/img/call?cmd=VIEW&id=889863a5-e929-41f7-b9b4-151e88c3539a&thumb,서울특별시 종로구 인사동길 54,37.57486032,126.98408570000001,
323,마로니에극장,서울 종로구,02-764-0686,"['마로니에극장', '문화시설', '소극장', '수도권', '연극']",https://cdn.visitkorea.or.kr/img/call?cmd=VIEW&id=56113c09-351d-4017-acef-4c4780b8597f&thumb,서울특별시 종로구 동숭길 50,37.58057676,127.004586,
324,갤러리도올,서울 종로구,02-739-1405,"['갤러리도올', '문화시설', '문화예술체험공간', '예술체험', '종로구']",https://cdn.visitkorea.or.kr/img/call?cmd=VIEW&id=08d74807-75e1-4d3d-9e10-4c2340d899b0&thumb,서울특별시 종로구 삼청로 87,37.58323227,126.981677,
325,창덕궁 소극장,서울 종로구,02-742-7278,"['데이트', '문화공간', '문화시설', '복합문화공간', '소극장', '연극', '연극단', '열린문화공간']",https://cdn.visitkorea.or.kr/img/call?cmd=VIEW&id=97e589f8-d508-427c-b67a-7e45177f5af3&thumb,서울특별시 종로구 돈화문로 88-1,37.57639559,126.99060520000002,
326,갤러리 아트링크,서울 종로구,02-738-0738,"['데이트', '문화공간', '문화시설', '문화예술', '복합문화공간', '열린문화공간']",https://cdn.visitkorea.or.kr/img/call?cmd=VIEW&id=b83d0aa3-0691-46d9-b965-9cd9f1fc5a95&thumb,서울특별시 종로구 율곡로3길 66-17,37.57883604,126.9827678,
327,일민미술관,서울 종로구,02-2020-2050,"['데이트코스', '문화시설', '미술관', '수도권', '아이와함께', '연인과함께', '예술']",https://cdn.visitkorea.or.kr/img/call?cmd=VIEW&id=b661a522-a732-46b1-ba7e-816f421892b9&thumb,서울특별시 종로구 세종대로 152,37.56986776,126.9776571,
328,서울특별시교육청 어린이도서관,서울 종로구,02-731-2300,"['가족과함께', '문화시설', '서울특별시교육청어린이도서관', '아이와함께']",https://cdn.visitkorea.or.kr/img/call?cmd=VIEW&id=41750fef-c7a1-430a-a7ad-3abb0be1624a&thumb,서울특별시 종로구 사직로9길 7,37.57628582,126.9682319,
329,한국예절문화원,서울 마포구,02-391-1988,"['문화시설', '복합문화공간', '아이와 함께', '열린문화공간', '체험학습', '한국예절문화원']",https://cdn.visitkorea.or.kr/img/call?cmd=VIEW&id=9107a248-50d5-4e12-b6d0-f2f2568f2b23&thumb,서울특별시 마포구 성미산로 107,37.56203372,126.9188957,
330,이화여대 자연사박물관,서울 서대문구,02-3277-4700,"['교과서속여행', '문화시설', '박물관', '수도권', '아이와함께', '이화여대자연사박물관']",https://cdn.visitkorea.or.kr/img/call?cmd=VIEW&id=cdca2fd9-01b2-4ce8-9213-92ffefc2ebe1&thumb,서울특별시 서대문구 이화여대길 52,37.56446452,126.95028880000001,
331,갤러리 시몬,서울 종로구,02-549-3031,"['갤러리시몬', '데이트코스', '문화시설', '미술관', '수도권', '실내여행지', '연인과함께']",https://cdn.visitkorea.or.kr/img/call?cmd=VIEW&id=185b1a0b-f9da-4bb0-ab0b-d1ed3b64bc90&thumb,서울특별시 종로구 자하문로6길 20,37.57805383,126.97325149999999,
332,샘터화랑,서울 서초구,02-514-5122,"['남녀노소', '문화공간', '문화시설', '문화예술', '문화예술공간', '미술작품', '복합문화공간']",https://cdn.visitkorea.or.kr/img/call?cmd=VIEW&id=df445264-7e99-4c64-a418-c1d4a50f2b4d&thumb,서울특별시 서초구 고무래로8길 4,37.50266163,127.01030700000001,
333,공평도시유적전시관,서울 종로구,02-724-0135,"['VR체험', '무더위_피해_실내여행', '문화시설', '미세먼지_피하는_실내여행']",https://cdn.visitkorea.or.kr/img/call?cmd=VIEW&id=7941d63b-975c-4523-a3d4-6cdb761fd8b1&thumb,서울특별시 종로구 우정국로 26,37.57149666,126.983659,
334,외교사료관,서울 서초구,02-3497-8716,"['교과서속여행', '문화시설', '수도권', '아이와함께', '외교사료관', '이색체험']",https://cdn.visitkorea.or.kr/img/call?cmd=VIEW&id=33dc73e2-9617-45f5-851a-bbd3280523f8&thumb,서울특별시 서초구 남부순환로 2558,37.48359736,127.02969170000001,
335,동산방화랑,서울 종로구,02-733-5877,"['나들이', '데이트코스', '동산방화랑', '문화시설', '미술관', '수도권', '실내여행지']",https://cdn.visitkorea.or.kr/img/call?cmd=VIEW&id=1f8c9940-e22f-44a2-b336-45f6a8fd954f&thumb,서울특별시 종로구 인사동9길 35,37.57292776,126.98337759999998,
336,사비나미술관,서울 종로구,02-736-4371,"['기획전시', '단체관람', '도심여행', '문화시설', '미술관', '사비나미술관', '아이와함께']",https://cdn.visitkorea.or.kr/img/call?cmd=VIEW&id=a23d8e4f-7484-41ac-a804-3eb59b62a674&thumb,서울특별시 종로구 율곡로 49-4,37.57651506,126.98457450000001,
337,갤러리JJ,서울 강남구,02-322-3979,"['문화시설', '문화예술', '문화예술공간', '문화예술활동', '복합문화공간', '연인과함께']",https://cdn.visitkorea.or.kr/img/call?cmd=VIEW&id=9fb30a41-9a13-4d73-b472-3d509da6448c&thumb,서울특별시 강남구 논현로 745,37.51830903,127.02838670000001,
338,이한열박물관,서울 마포구,02-325-7216,"['6월항쟁', '문화시설', '민주주의', '민주화', '역사', '이한열박물관', '이한열열사']",https://cdn.visitkorea.or.kr/img/call?cmd=VIEW&id=af283a34-d21f-4cee-9d6c-692f54df8a05&thumb,서울특별시 마포구 신촌로12나길 26,37.55504357,126.93386540000002,
339,이화여자대학교박물관,서울 서대문구,02-3277-3152,"['무료관람', '문화시설', '박물관', '사계절', '수도권', '실내여행지', '아이와함께']",https://cdn.visitkorea.or.kr/img/call?cmd=VIEW&id=d64a0da8-89be-4ee0-a1ca-93e790f69d27&thumb,서울특별시 서대문구 이화여대길 52,37.56446452,126.95028880000001,
340,건국대학교박물관,서울 광진구,02-450-3880,"['건국대학교박물관', '문화시설', '박물관', '역사', '전통']",https://cdn.visitkorea.or.kr/img/call?cmd=VIEW&id=75ee5241-5c9a-47af-9899-928486b8f048&thumb,서울특별시 광진구 능동로 120,37.53918267,127.0747119,
341,가람화랑,서울 종로구,02-732-6170,"['근대미술', '문화공간', '문화시설', '복합문화공간', '열린문화공간', '예술품']",https://cdn.visitkorea.or.kr/img/call?cmd=VIEW&id=b2ba45f7-d254-4393-955b-dbfaba9427ec&thumb,서울특별시 종로구 인사동10길 11,37.57428279,126.9856136,
342,서울특별시교육청 용산도서관,서울 용산구,02-6902-7777,"['도서관', '독서교육', '문화시설', '아이와 함께', '용산']",https://cdn.visitkorea.or.kr/img/call?cmd=VIEW&id=a0a6279e-86a7-488d-aa0d-625cd84859b2&thumb,서울특별시 용산구 두텁바위로 160,37.5520064,126.9801413,
343,금호미술관,서울 종로구,02-720-5114,"['금호미술관', '데이트코스', '문화시설', '미술관', '수도권', '아이와함께', '연인과함께']",https://cdn.visitkorea.or.kr/img/call?cmd=VIEW&id=21df29d6-b22a-43ca-bcd0-4aea3761e77f&thumb,서울특별시 종로구 삼청로 18,37.57746671,126.97991280000001,
344,성곡미술관,서울 종로구,02-737-7650,"['도심여행', '문화시설', '미술관', '사계절', '성곡미술관', '실내여행지', '연인과함께']",https://cdn.visitkorea.or.kr/img/call?cmd=VIEW&id=426fe805-13ad-4423-b0a8-fe846cfa4589&thumb,서울특별시 종로구 경희궁길 42,37.57351051,126.96970359999999,
345,극단 대학로극장,서울 종로구,02-766-0773,"['극장', '대학로', '대학로극장', '데이트', '문화공간', '문화시설', '복합문화공간']",https://cdn.visitkorea.or.kr/img/call?cmd=VIEW&id=65a9ebf0-f7f6-4ed1-b1f2-9ab7e5f2c806&thumb,서울특별시 종로구 대학로 60,37.57655541,127.002575,
346,갤러리 룩스,서울 종로구,02-720-8488,"['문화공간', '문화시설', '문화예술', '미술품', '복합문화공간', '열린문화공간']",https://cdn.visitkorea.or.kr/img/call?cmd=VIEW&id=e313080c-ee04-4a02-a8ee-dd831338e161&thumb,서울특별시 종로구 필운대로7길 12,37.58159654,126.9678575,
347,국립극장,서울 중구,02-2280-4114,"['공연장', '국립극장', '데이트코스', '문화시설', '상설공연', '아이와함께', '연인과함께']",https://cdn.visitkorea.or.kr/img/call?cmd=VIEW&id=24cda684-5183-4387-86b7-9b8d12f8b7b8&thumb,서울특별시 중구 장충단로 59,37.55199491,126.9992673,
348,서강대박물관,서울 마포구,02-705-8215,"['교육시설', '문화시설', '서강대박물관']",https://cdn.visitkorea.or.kr/img/call?cmd=VIEW&id=11c802fb-1b1d-4d53-bfd4-fe3656b6f20d&thumb,서울특별시 마포구 백범로 35,37.55146931,126.943025,
349,김종영미술관,서울 종로구,02-3217-6484,"['문화공간', '문화시설', '문화예술', '미술관', '복합문화공간', '열린문화공간']",https://cdn.visitkorea.or.kr/img/call?cmd=VIEW&id=d97d368c-a50d-443e-ad98-37b5167aa4b9&thumb,서울특별시 종로구 평창32길 30,37.61303501,126.9776095,
350,갤러리정,서울 종로구,02-733-1911,"['갤러리정', '문화공간', '문화시설', '문화예술', '문화예술공간', '미술작품', '복합문화공간']",https://cdn.visitkorea.or.kr/img/call?cmd=VIEW&id=d0b44f8b-78cf-4681-94a3-fbb6fd0133ff&thumb,서울특별시 종로구 경희궁2길 12,37.57285682,126.97142190000001,
351,숙명여자대학교 정영양자수박물관(서울),서울 용산구,02-710-9134,"['문화시설', '박물관', '수도권', '숙명여자대학교', '역사속으로', '역사이야기']",https://cdn.visitkorea.or.kr/img/call?cmd=VIEW&id=b061b540-4c29-4378-8d6f-8d9dffefb195&thumb,서울특별시 용산구 청파로47길 100,37.54547408,126.96507439999999,
352,갤러리 인데코,서울 강남구,02-511-0032,"['갤러리인데코', '문화공간', '문화시설', '예술공간']",https://cdn.visitkorea.or.kr/img/call?cmd=VIEW&id=10e99c53-6415-4bc0-ac48-9f40ebadeefd&thumb,서울특별시 강남구 압구정로36길 8,37.52795118,127.03132099999999,
353,아트파크,서울 종로구,02-733-8500,"['갤러리', '공연/전시', '문화시설', '미술관', '복합문화공간', '열린문화공간', '전시기획']",https://cdn.visitkorea.or.kr/img/call?cmd=VIEW&id=bc6c1162-242f-43dc-b94a-04c3b2f13502&thumb,서울특별시 종로구 삼청로 129,37.58693875,126.98149529999999,
354,상명대학교 박물관,서울 종로구,02-781-7920,"['교과서속여행', '문화시설', '박물관', '상명대학교박물관', '수도권', '실내여행지']",https://cdn.visitkorea.or.kr/img/call?cmd=VIEW&id=7edcfc31-d25a-4fd8-a599-ff6555089062&thumb,서울특별시 종로구 평창문화로 151,37.61058458,126.97576240000001,
355,세계장신구박물관,서울 종로구,02-730-1610,"['문화시설', '세계장신구박물관', '아이와 함께', '이색체험', '체험학습']",https://cdn.visitkorea.or.kr/img/call?cmd=VIEW&id=f8415144-841c-40d1-b435-32f65827bb44&thumb,서울특별시 종로구 북촌로5나길 2,37.58097720000001,126.98180590000001,
356,두산갤러리,서울 종로구,02-708-5050,"['기획전시', '나홀로여행', '두산갤러리', '문화공간', '문화시설', '문화예술', '미술관']",https://cdn.visitkorea.or.kr/img/call?cmd=VIEW&id=5887d2f2-d7e3-4d64-9567-62c8f1993e04&thumb,서울특별시 종로구 종로33길 15,37.57181233,127.0010001,
357,김달진미술자료박물관,서울 종로구,02-730-6216,"['남녀노소', '문화시설', '문화예술', '문화예술공간', '문화예술활동', '미술품']",https://cdn.visitkorea.or.kr/img/call?cmd=VIEW&id=d71f98cb-b779-42bb-ad2f-5520e3d397b8&thumb,서울특별시 종로구 홍지문1길 4,37.60004663,126.9566597,
358,갤러리 미즈,서울 종로구,02-722-8005,"['갤러리미즈', '문화시설', '미술관', '실내데이트', '전시관']",https://cdn.visitkorea.or.kr/img/call?cmd=VIEW&id=d5d628c4-d23c-4629-9e9e-11e5a371b236&thumb,서울특별시 종로구 삼일대로 461,37.57559548,126.98582900000001,
359,영동 예맥화랑,서울 강남구,02-549-8952,"['도심여행', '문화시설', '사계절', '실내여행지', '예맥화랑', '예술', '전시회']",https://cdn.visitkorea.or.kr/img/call?cmd=VIEW&id=800b0fb9-b51e-4d70-9522-4ce3ba9fc1c9&thumb,서울특별시 강남구 강남대로 546,37.51086226,127.0218892,
360,대학로 두레홀 4관,서울 종로구,02-741-5978,"['대학로', '두레홀4관', '문화시설', '소극장']",https://cdn.visitkorea.or.kr/img/call?cmd=VIEW&id=738378a1-5571-4cfa-94d1-5da6ced63218&thumb,서울특별시 종로구 대학로12길 15 ,37.58273469,127.002845,
361,갤러리 한,서울 종로구,02-737-6825,"['갤러리한', '문화시설', '문화예술공간', '전시관', '친구와 함께']",https://cdn.visitkorea.or.kr/img/call?cmd=VIEW&id=831b8230-b42d-47d0-ac16-8a52139c03f4&thumb,서울특별시 종로구 인사동10길 23-4,37.57464192,126.986251,
362,갤러리 빔,서울 종로구,02-723-8574,"['갤러리', '문화공간', '문화시설', '미술관', '복합문화공간', '열린문화공간', '현대미술']",https://cdn.visitkorea.or.kr/img/call?cmd=VIEW&id=540b0eea-c2b2-48dc-986f-b5a457474700&thumb,서울특별시 종로구 삼청로 76-1,37.58222301,126.98184140000001,
363,아르코예술극장,서울 종로구,02-3668-0007,"['공연장', '데이트코스', '문화시설', '상설공연', '아르코예술극장', '아이와함께']",https://cdn.visitkorea.or.kr/img/call?cmd=VIEW&id=720f9490-67bb-44f2-914e-4ff5ea671737&thumb,서울특별시 종로구 대학로10길 17,37.58209615,127.00317849999999,
364,유 아트 스페이스,서울 강남구,02-544-8585,"['문화공간', '문화시설', '미술품', '상설전시', '열린문화공간', '전시작품', '현대미술']",https://cdn.visitkorea.or.kr/img/call?cmd=VIEW&id=5455175d-6039-4bb1-96a7-33eaf0ac6f4d&thumb,서울특별시 강남구 압구정로71길 10,37.52738663,127.04585859999999,
365,강동청소년회관,서울 강동구,02-3426-6211,"['강동청소년회관', '레포츠', '문화시설', '수도권']",https://cdn.visitkorea.or.kr/img/call?cmd=VIEW&id=73cc277a-3a4c-471b-9352-06f9a3acccbb&thumb,서울특별시 강동구 양재대로138길 41,37.54975737,127.1462327,
366,갤러리미,서울 강남구,02-542-3004,"['갤러리미', '나들이', '데이트코스', '문화시설', '미술관', '수도권', '실내여행지']",https://cdn.visitkorea.or.kr/img/call?cmd=VIEW&id=04101348-686a-4884-b6b4-2d79fdfbaa6b&thumb,서울특별시 강남구 압구정로 461,37.52525477,127.0472324,
367,조형갤러리,서울 종로구,02-736-4804,"['갤러리', '문화공간', '문화시설', '문화예술공간', '복합문화공간', '열린문화공간']",https://cdn.visitkorea.or.kr/img/call?cmd=VIEW&id=cd85f66e-c344-4c69-99a4-7b8774a431b7&thumb,서울특별시 종로구 인사동5길 29,37.57198777,126.9848419,
368,소극장 산울림,서울 마포구,02-334-5915,"['공연', '데이트', '문화시설', '문화예술', '소극장', '연극', '연극단', '연인과함께']",https://cdn.visitkorea.or.kr/img/call?cmd=VIEW&id=0d32d96d-371e-4381-b2d6-fa1b0ef8e763&thumb,서울특별시 마포구 와우산로 157,37.5550833,126.9301095,
369,갤러리 우림,서울 종로구,02-733-3788,"['문화공간', '문화시설', '문화예술', '복합문화공간', '열린문화공간', '예술품']",https://cdn.visitkorea.or.kr/img/call?cmd=VIEW&id=43898afb-5646-4e55-a612-cd99d350b635&thumb,서울특별시 종로구 인사동10길 18,37.57422751,126.98591090000002,
370,키미아트,서울 종로구,02-394-6411,"['가족과함께', '데이트', '문화공간', '문화시설', '미술인', '복합문화공간', '연인과함께']",https://cdn.visitkorea.or.kr/img/call?cmd=VIEW&id=c1d651ca-bcdb-4c8f-a727-a1bb58b3d7b1&thumb,서울특별시 종로구 평창30길 47,37.61300757,126.9742928,
371,박영덕화랑,서울 강남구,02-544-8481,"['문화시설', '박영덕화랑', '수도권', '전시']",https://cdn.visitkorea.or.kr/img/call?cmd=VIEW&id=1f649af6-527c-4184-b004-366ebf37acc7&thumb,서울특별시 강남구 압구정로72길 12,37.52572349,127.04488870000002,
372,아프리카미술관,서울 종로구,02-730-2430,"['남녀노소', '문화시설', '문화예술', '미세먼지_피하는_실내여행', '복합문화공간']",https://cdn.visitkorea.or.kr/img/call?cmd=VIEW&id=81c2b7cd-8627-48ec-b439-6947981ff0d3&thumb,서울특별시 종로구 삼청로 24-1,37.57802064,126.97994990000001,
373,포스트극장,서울 마포구,02-337-5961,"['극장', '무용단', '문화공간', '문화시설', '복합문화공간', '열린문화공간', '현대무용']",https://cdn.visitkorea.or.kr/img/call?cmd=VIEW&id=db9451bc-a2bb-4261-a853-a6610b77470c&thumb,서울특별시 마포구 와우산로 148,37.55413897,126.9296727,
374,갤러리 마노,서울 강남구,02-741-6030,"['갤러리마노', '문화시설', '전시관', '친구와 함께']",https://cdn.visitkorea.or.kr/img/call?cmd=VIEW&id=ba843f7f-8505-4139-b439-8f1f468c6863&thumb,서울특별시 강남구 압구정로46길 71,37.5240995,127.03658940000001,
375,하나아트갤러리,서울 종로구,02-736-7877,"['갤러리', '문화공간', '문화시설', '문화예술', '복합문화공간', '열린문화공간']",https://cdn.visitkorea.or.kr/img/call?cmd=VIEW&id=7d8d7b56-1bd6-4928-8eb6-173b8c0b34f9&thumb,서울특별시 종로구 인사동10길 2,37.57391587,126.98529540000001,
376,토탈미술관,서울 종로구,02-379-7037,"['데이트코스', '문화시설', '미술관', '수도권', '아이와함께', '연인과함께', '예술']",https://cdn.visitkorea.or.kr/img/call?cmd=VIEW&id=a62c63d2-4afe-4c44-bcba-02b984126a19&thumb,서울특별시 종로구 평창32길 8,37.61212183,126.9756748,
377,청작화랑,서울 강남구,02-549-3112,"['문화시설', '실내여행지', '예술', '전시관', '창작화랑']",https://cdn.visitkorea.or.kr/img/call?cmd=VIEW&id=2e547054-80eb-47aa-a9d0-1c607f0d3048&thumb,서울특별시 강남구 압구정로 134,37.52435015,127.0235131,
378,세종호텔 세종갤러리,서울 중구,02-3705-9021,"['문화시설', '문화예술공간', '세종갤러리', '세종호텔']",https://cdn.visitkorea.or.kr/img/call?cmd=VIEW&id=096c00b1-3263-44f8-a778-9f1c6070509d&thumb,서울특별시 중구 퇴계로 145,37.5614445,126.9879483,
379,갤러리 엠,서울 강남구,02-544-8145,"['문화시설', '문화예술', '미술관', '복합문화공간', '열린문화공간', '예술품', '전시']",https://cdn.visitkorea.or.kr/img/call?cmd=VIEW&id=e17e3edd-5cb2-461c-92a3-2f64680bcad1&thumb,서울특별시 강남구 압구정로71길 14,37.52751645,127.0459008,
380,김현주 갤러리,서울 종로구,02-732-4666,"['문화공간', '문화시설', '미술관', '미술인', '복합문화공간', '열린문화공간', '예술인']",https://cdn.visitkorea.or.kr/img/call?cmd=VIEW&id=3da378a2-59e3-4deb-ae08-772442355612&thumb,서울특별시 종로구 삼청로7길 19-9,37.58349841,126.98097859999999,
381,창희보석예술관,서울 강남구,02-545-4540,"['강남구', '문화시설', '보석박물관', '서울시', '창희보석예술관']",https://cdn.visitkorea.or.kr/img/call?cmd=VIEW&id=a1d6ad09-9bd8-482d-899e-8ad5d562cdeb&thumb,서울특별시 강남구 압구정로 210,37.52774624,127.03013689999999,
382,양천구 갈산도서관,서울 양천구,02-2649-2732,"['남녀노소', '독서여행', '문화시설', '복합문화공간', '아이와함께', '열린문화공간']",https://cdn.visitkorea.or.kr/img/call?cmd=VIEW&id=e48015da-4dac-497b-88e0-267f70e75930&thumb,서울특별시 양천구 목동남로4길 48-6,37.50886171,126.8673116,
383,한원미술관,서울 서초구,02-588-5642,"['문화공간', '문화시설', '문화예술', '미술품', '복합문화공간', '열린문화공간']",https://cdn.visitkorea.or.kr/img/call?cmd=VIEW&id=54cf9980-5f6d-4cee-9063-8ec2f74a7bb4&thumb,서울특별시 서초구 남부순환로 2423,37.48178113,127.01543570000001,
384,연우소극장,서울 종로구,02-744-7090,"['관람', '문화시설', '연극', '연우소극장', '창작극']",https://cdn.visitkorea.or.kr/img/call?cmd=VIEW&id=33becb31-79a0-4768-97c0-63457b36c916&thumb,서울특별시 종로구 창경궁로35길 21,37.58698605,127.00176429999999,
385,청화랑,서울 강남구,02-543-1663,"['문화공간', '문화시설', '문화예술', '미술인', '미술품', '열린문화공간', '전시']",https://cdn.visitkorea.or.kr/img/call?cmd=VIEW&id=027e444b-c604-47ee-879b-8c532e79c819&thumb,서울특별시 강남구 삼성로147길 4,37.52273774,127.047651,
386,사루비아다방,서울 종로구,02-733-0440,"['공연', '문화공간', '문화시설', '문화예술', '복합문화공간', '열린문화공간', '전시']",https://cdn.visitkorea.or.kr/img/call?cmd=VIEW&id=994d7db1-4f54-41ad-8ba2-36ed7d2c4017&thumb,서울특별시 종로구 자하문로16길 4,37.58144762,126.9714267,
387,학전블루 소극장,서울 종로구,02-763-8233,"['기획공연', '남녀노소', '문화시설', '소극장', '연인과함께', '이색체험', '종로가볼만한곳']",https://cdn.visitkorea.or.kr/img/call?cmd=VIEW&id=49392115-9126-40fa-9c01-f400d5acc885&thumb,서울특별시 종로구 대학로12길 46,37.58205712,127.00371640000002,
388,신한갤러리(광화문),서울 중구,02-722-8493,"['광화문', '문화시설', '신한갤러리', '전시관']",https://cdn.visitkorea.or.kr/img/call?cmd=VIEW&id=c7ba03bf-dad1-409e-b671-3996569768fd&thumb,서울특별시 중구 세종대로 135-5,37.56859523,126.9764331,
389,다도화랑,서울 강남구,02-542-0755,"['문화공간', '문화시설', '문화예술', '미술품', '열린문화공간', '예술품', '전시']",https://cdn.visitkorea.or.kr/img/call?cmd=VIEW&id=aedf87d2-578b-40a7-b18f-ae426aec10c6&thumb,서울특별시 강남구 논현로159길 24,37.522990899999996,127.02608559999999,
390,상원미술관,서울 종로구,02-396-3185,"['도심여행', '문화시설', '사계절', '상원미술관', '실내여행지', '아이와함께', '연인과함께']",https://cdn.visitkorea.or.kr/img/call?cmd=VIEW&id=dac810a5-dc84-4ffc-893e-2e41e51ebb7f&thumb,서울특별시 종로구 평창31길 27,37.61162836,126.9765689,
391,모인화랑,서울 종로구,02-739-9292,"['모인화랑', '문화시설', '실내여행지', '예술', '전시관']",https://cdn.visitkorea.or.kr/img/call?cmd=VIEW&id=367a0368-7e8e-4e93-a9db-04267b2f5db1&thumb,서울특별시 종로구 인사동10길 13,37.57434335,126.9857216,
392,알파갤러리,서울 중구,02-784-1420,"['고미술품', '문화공간', '문화시설', '문화예술', '미술품', '복합문화공간', '열린문화공간']",https://cdn.visitkorea.or.kr/img/call?cmd=VIEW&id=b1cce000-4ae1-40be-8ade-5c8965c98356&thumb,서울특별시 중구 남대문로 6-2,37.56035978,126.9765107,
393,하나로갤러리,서울 종로구,02-720-4646 02-720-4551,"['문화시설', '문화예술공간', '전시관', '하나로갤러리']",https://cdn.visitkorea.or.kr/img/call?cmd=VIEW&id=deb097dd-4657-42cb-838d-21bfd1cb5df6&thumb,서울특별시 종로구 인사동5길 25,37.57209731,126.98539240000001,
394,나화랑,서울 종로구,02-732-8846,"['문화공간', '문화시설', '문화예술', '미술품', '복합문화공간', '열린문화공간']",https://cdn.visitkorea.or.kr/img/call?cmd=VIEW&id=e6523c75-2bd3-4daf-b3a6-010cc4307033&thumb,서울특별시 종로구 삼일대로 461,37.57559548,126.98582900000001,
395,진화랑,서울 종로구,02-738-7570,"['문화공간', '문화시설', '복합문화공간', '열린문화공간', '예술품', '전시', '휴식공간']",https://cdn.visitkorea.or.kr/img/call?cmd=VIEW&id=ecd6cd31-cb57-4194-a8d9-b101e53ee85a&thumb,서울특별시 종로구 효자로 25,37.57833017,126.97369450000001,
396,갤러리 원,서울 강남구,02-514-3439,"['갤러리', '문화공간', '문화시설', '복합문화공간', '열린문화공간', '전시', '전시작품']",https://cdn.visitkorea.or.kr/img/call?cmd=VIEW&id=08981276-5779-47d2-beab-f6a7ac1bf235&thumb,서울특별시 강남구 압구정로71길 14,37.52751645,127.0459008,
397,아트센터 K,서울 종로구,02-741-9935,"['공연', '문화공간', '문화시설', '문화예술', '복합문화공간', '연극', '연극단', '연인과함께']",https://cdn.visitkorea.or.kr/img/call?cmd=VIEW&id=a036d5e3-5c28-4fa5-9ac0-7c3fd2b67e6c&thumb,서울특별시 종로구 동숭길 101,37.58246148,127.00402,
398,표갤러리,서울 용산구,02-543-7337,"['문화공간', '문화시설', '예술공간', '표갤러리']",https://cdn.visitkorea.or.kr/img/call?cmd=VIEW&id=59ab52d0-9d76-4ee2-9abd-e19189ad26c8&thumb,서울특별시 용산구 소월로 314,37.54138622,126.99619569999999,
399,갤러리에이엠,서울 종로구,02-516-4488,"['갤러리', '근대미술', '근대미술관', '문화공간', '문화시설', '문화예술', '복합문화공간']",https://cdn.visitkorea.or.kr/img/call?cmd=VIEW&id=f9123ec0-5142-48e6-bc23-ebc2eb226fc6&thumb,서울특별시 종로구 팔판길 23,37.58288268,126.98103290000002,
400,선화랑,서울 종로구,02-734-0458,"['문화공간', '문화시설', '문화예술', '복합문화공간', '열린문화공간', '예술공간']",https://cdn.visitkorea.or.kr/img/call?cmd=VIEW&id=23d69a8b-7d29-4f05-a3c4-76f9d9e18b8e&thumb,서울특별시 종로구 인사동5길 8,37.57292267,126.9857219,
401,백송갤러리,서울 종로구,02-730-5824,"['고미술품', '문화공간', '문화시설', '복합문화공간', '열린문화공간', '예술품']",https://cdn.visitkorea.or.kr/img/call?cmd=VIEW&id=c0bdcb0b-a80f-46e2-9553-d03954764e48&thumb,서울특별시 종로구 인사동길 31-8,37.573304,126.9852976,
402,UM갤러리,서울 강남구,02-515-3970,"['UM갤러리', '문화시설', '미술', '실내데이트', '연인과 함께', '예술', '전시관']",https://cdn.visitkorea.or.kr/img/call?cmd=VIEW&id=9916496b-6f83-4ad1-ab4a-0d43baaeabae&thumb,서울특별시 강남구 압구정로12길 25,37.522446,127.022896,
403,갤러리 아트사이드,서울 종로구,02-725-1020,"['갤러리아트사이드', '문화시설', '문화예술공간', '전시관', '친구와 함께']",https://cdn.visitkorea.or.kr/img/call?cmd=VIEW&id=625d70d5-fd33-4dfb-8180-e00b38858e17&thumb,서울특별시 종로구 자하문로6길 15,37.57826837,126.972946,
404,1m아트홀,서울 종로구,1 02-766-7623,"['문화공간', '문화시설', '문화예술', '복합문화공간', '아이와함께', '열린문화공간']",https://cdn.visitkorea.or.kr/img/call?cmd=VIEW&id=87afd8c5-f88a-424e-8b64-a276b094b7b3&thumb,서울특별시 종로구 대학로12길 31,37.58274873,127.0036077,
405,소극장 혜화당,서울 종로구,02-742-1505,"['문화공간', '문화시설', '문화예술', '복합문화공간', '소극장', '연극', '연극단']",https://cdn.visitkorea.or.kr/img/call?cmd=VIEW&id=undefined&thumb,서울특별시 종로구 대학로12길 63,37.58122414,127.00402120000001,
406,이목화랑,서울 종로구,02-514-8888,"['문화시설', '문화예술', '미술품', '복합문화공간', '열린문화공간', '전시', '전시작품']",https://cdn.visitkorea.or.kr/img/call?cmd=VIEW&id=5dbcf20e-9dfc-4ef1-a1fe-8ca819456da8&thumb,서울특별시 종로구 북촌로 94,37.58518552,126.9854368,
407,박여숙화랑,서울 강남구,02-549-7575,"['문화공간', '문화시설', '문화예술공간', '미술관', '미술인', '복합문화공간', '열린문화공간']",https://cdn.visitkorea.or.kr/img/call?cmd=VIEW&id=dae4e03b-0a1d-429f-8d56-a8b6e8d1acaf&thumb,서울특별시 강남구 압구정로 461,37.52525477,127.0472324,
408,카이스 갤러리,서울 강남구,02-511-0668,"['가족여행', '기획전시', '나들이', '데이트코스', '도심여행', '문화시설', '미술관']",https://cdn.visitkorea.or.kr/img/call?cmd=VIEW&id=undefined&thumb,서울특별시 강남구 언주로174길 13,37.52846470000001,127.0350237,
409,갤러리 뤼미에르,서울 종로구,02-517-2134,"['문화공간', '문화시설', '문화예술', '복합문화공간', '열린문화공간', '전시']",https://cdn.visitkorea.or.kr/img/call?cmd=VIEW&id=undefined&thumb,서울특별시 종로구 경희궁1길 18,37.57177712,126.9705379,
410,양천구 영어특성화도서관,서울 양천구,02-2654-8493,"['교육프로그램', '문화시설', '아이와함께', '양천구', '영어특성화도서관']",https://cdn.visitkorea.or.kr/img/call?cmd=VIEW&id=fd9797f8-0277-4c08-9d13-b0e915a217c3&thumb,서울특별시 양천구 목동동로 81,37.51597606,126.86385449999999,
411,인사미술공간,서울 종로구,02-760-4722,"['문화시설', '문화예술공간', '인사미술공간', '친구와 함께']",https://cdn.visitkorea.or.kr/img/call?cmd=VIEW&id=0526e2b0-52e7-41bf-8f2c-1fdb2e723a0a&thumb,서울특별시 종로구 창덕궁길 89,37.58152925,126.9892301,
412,양천구 역사홍보관,서울 양천구,02-2084-5479,"['과거', '남녀노소', '문화시설', '아이와가볼만한곳', '아이와함께', '양천구', '역사공부']",https://cdn.visitkorea.or.kr/img/call?cmd=VIEW&id=ae922bf9-417a-4e2d-ac9b-efca31fceb86&thumb,서울특별시 양천구 목동동로 81,37.51597606,126.86385449999999,
413,선농단역사문화관(서울),서울 동대문구,02-3295-5562,"['문화시설', '서울', '선농단역사문화관', '아이와 함께', '전통&역사문화체험']",https://cdn.visitkorea.or.kr/img/call?cmd=VIEW&id=undefined&thumb,서울특별시 동대문구 무학로44길 38,37.58118377,127.03188850000001,
414,컬러풀뮤지엄(COLORPOOL MUSEUM),서울 종로구,02-6954-2872,"['문화시설', '아이와함께', '이색전시', '컬러풀뮤지엄']",https://cdn.visitkorea.or.kr/img/call?cmd=VIEW&id=760696c0-893b-4148-ac9f-65ec463c01f9&thumb,서울특별시 종로구 인사동길 49 안녕인사동 6F,37.57446687,126.9835522,
415,국립중앙박물관,서울 용산구,02-2077-9000,"['국립중앙박물관', '나들이', '문화시설', '미세먼지_피하는_실내여행', '박물관']",https://cdn.visitkorea.or.kr/img/call?cmd=VIEW&id=57a6e3a1-454e-4cc7-b20d-de99307f2add&thumb,서울특별시 용산구 서빙고로 137,37.52470224,126.9777402,
416,롯데월드타워 서울스카이,서울 송파구,1661-2000,"['가족여행', '경치좋은곳', '관광지', '롯데월드타워서울스카이', '사계절', '서울데이트장소']",https://cdn.visitkorea.or.kr/img/call?cmd=VIEW&id=6a6ede08-657e-42b8-a18a-6dcb74d225cf&thumb,서울특별시 송파구 올림픽로 300,37.51375196,127.1044469,
417,청와대사랑채,서울 종로구,02-723-0300,"['가족여행', '교과서속여행', '기념관', '도심여행', '문화시설', '사계절', '실내여행지']",https://cdn.visitkorea.or.kr/img/call?cmd=VIEW&id=f54e0f20-49e3-4fb8-88e6-cc372ca3c15a&thumb,서울특별시 종로구 효자로13길 45,37.58254488,126.9730593,
418,서대문형무소역사관,서울 서대문구,02-360-8590,"['3·1운동_100주년_여행지추천', '가족과함께', '교과서속여행', '문화시설']",https://cdn.visitkorea.or.kr/img/call?cmd=VIEW&id=8bdffb08-c43a-4cf3-8f9c-91aff64edb0a&thumb,서울특별시 서대문구 통일로 251,37.57460851,126.9556118,
419,챔피언1250,서울 용산구,02-2012-1401,"['관광지', '놀이공간', '미세먼지_피하는_실내여행', '복합레저스포츠', '수도권']",https://cdn.visitkorea.or.kr/img/call?cmd=VIEW&id=924e4245-e627-4794-bbb7-4e06c24c9d64&thumb,서울특별시 용산구 한강대로21나길 17,37.5288539,126.9640447,
420,서울 트릭아이뮤지엄,서울 마포구,02-3144-6300,"['도심여행', '문화시설', '미술관', '사진찍기', '사진찍기좋은곳', '서울트릭아이미술관']",https://cdn.visitkorea.or.kr/img/call?cmd=VIEW&id=6d47f35c-3f78-4cb9-9e8b-46369490f58d&thumb,서울특별시 마포구 홍익로3길 20,37.55351606,126.9217154,
421,롯데월드타워&롯데월드몰,서울 송파구,02-3213-5000,"['관광지', '데이트코스', '도심여행', '롯데월드타워&롯데월드몰', '문화행사']",https://cdn.visitkorea.or.kr/img/call?cmd=VIEW&id=7f9a94d3-a7aa-4d8b-97b7-c153704bfdb3&thumb,서울특별시 송파구 올림픽로 300,37.51375196,127.1044469,
422,한국종합무역센터(코엑스),서울 강남구,02-6000-0114,"['가족여행', '데이트코스', '도심여행', '먹거리', '문화시설', '복합문화공간', '수도권']",https://cdn.visitkorea.or.kr/img/call?cmd=VIEW&id=7110ed98-f6ce-435e-9334-6f1fb9f69a3d&thumb,서울특별시 강남구 영동대로 513,37.51182391,127.059159,
423,국립어린이과학관,서울 종로구,02-3668-3350,"['과학관', '국립어린이과학관', '나들이', '문화시설', '수도권', '실내여행지', '아이와함께']",https://cdn.visitkorea.or.kr/img/call?cmd=VIEW&id=637b33da-9f20-457f-8cfa-be60aa1acf93&thumb,서울특별시 종로구 창경궁로 215,37.58203191,126.9970157,
424,전쟁기념관,서울 용산구,02-709-3144,"['가족여행', '교과서속여행', '도심여행', '문화시설', '미세먼지_피하는_실내여행']",https://cdn.visitkorea.or.kr/img/call?cmd=VIEW&id=c591d23a-9726-40bc-a86b-6c61ab11850a&thumb,서울특별시 용산구 이태원로 29,37.53731405,126.9784661,
425,롯데월드 아쿠아리움,서울 송파구,1661-2000,"['가족과함께', '롯데월드', '롯데월드아쿠아리움', '문화시설', '미세먼지_피하는_실내여행']",https://cdn.visitkorea.or.kr/img/call?cmd=VIEW&id=02909a0d-b8d9-48f1-b485-a2383e3d195a&thumb,서울특별시 송파구 올림픽로 300 롯데월드 몰 B1,37.51375196,127.1044469,
426,아쿠아플라넷 63,서울 영등포구,02-780-6382,"['가족여행', '관광지', '데이트코스', '도심여행', '미세먼지_피하는_실내여행']",https://cdn.visitkorea.or.kr/img/call?cmd=VIEW&id=d3a0e455-a86a-45ce-8fee-3f70464f49e9&thumb,서울특별시 영등포구 63로 50,37.51966416,126.93990929999998,
427,서울특별시교육청 과학전시관,서울 관악구,02-881-3000,"['교과서속여행', '문화시설', '사계절', '서울특별시과학전시관', '수도권', '실내여행지']",https://cdn.visitkorea.or.kr/img/call?cmd=VIEW&id=fea28144-d4f5-47f4-addf-301f33ee6e42&thumb,서울특별시 관악구 낙성대로 101,37.46881648,126.95941090000002,
428,다이나믹 메이즈 (서울 인사동점),서울 종로구,1544-8506,"['관광지', '다이나믹메이즈', '도심여행', '레포츠체험', '복합문화공간', '수도권']",https://cdn.visitkorea.or.kr/img/call?cmd=VIEW&id=da345959-cff7-4f10-ad36-2d164b0de6f2&thumb,서울특별시 종로구 인사동길 12,37.57189615,126.9872306,
429,국립고궁박물관,서울 종로구,02-3701-7500,"['교과서속여행', '국립고궁박물관', '나들이', '문화시설', '박물관', '실내여행지']",https://cdn.visitkorea.or.kr/img/call?cmd=VIEW&id=ffaeb4c4-3f5a-4416-900d-35313ae20898&thumb,서울특별시 종로구 효자로 12,37.57659162,126.97497479999998,
430,VR스테이션,서울 강남구,1877-8870,"['VR체험', '가상현실', '관광지', '미세먼지_피하는_실내여행', '서울데이트', '실내관광지']",https://cdn.visitkorea.or.kr/img/call?cmd=VIEW&id=ad07b87a-6ecd-4e4f-85ea-6e39098ce9f2&thumb,서울특별시 강남구 강남대로 364,37.49554987,127.0292939,
431,대한민국역사박물관,서울 종로구,02-3703-9200,"['교과서속여행', '대한민국역사박물관', '문화시설', '미세먼지_피하는_실내여행']",https://cdn.visitkorea.or.kr/img/call?cmd=VIEW&id=5f3b3582-54e3-4d6b-a736-7e1c4cf04b72&thumb,서울특별시 종로구 세종대로 198,37.57371361,126.9783394,
432,안중근의사기념관,서울 중구,02-3789-1016,"['3·1운동_100주년_여행지추천', '기념관', '단체관람', '무료관람', '문화시설']",https://cdn.visitkorea.or.kr/img/call?cmd=VIEW&id=1a144149-707e-4ab3-a604-ab5cca2a4a35&thumb,서울특별시 중구 소월로 91,37.55346849,126.9804043,
433,코엑스 아쿠아리움,서울 강남구,02-700-7200,"['데이트코스', '문화시설', '미세먼지_피하는_실내여행', '실내관광지', '실내여행지']",https://cdn.visitkorea.or.kr/img/call?cmd=VIEW&id=5b9c7034-2bdb-4243-897f-d5cc29ac1046&thumb,서울특별시 강남구 영동대로 513,37.51182391,127.059159,
434,백범김구기념관,서울 용산구,02-799-3400,"['3·1운동_100주년_여행지추천', '기념관', '나들이', '도심여행', '드라이브여행']",https://cdn.visitkorea.or.kr/img/call?cmd=VIEW&id=331de187-6437-4ccf-86d0-3b5777ba3782&thumb,서울특별시 용산구 임정로 26,37.54427794,126.959253,
435,박물관은 살아있다(인사동점),서울 종로구,1544-8506,"['데이트코스', '도심여행', '문화시설', '박물관은살아있다', '사계절', '사진찍기']",https://cdn.visitkorea.or.kr/img/call?cmd=VIEW&id=01bd9d02-aa9d-4558-a2ab-f7972b0da5e4&thumb,서울특별시 종로구 인사동길 12,37.57189615,126.9872306,
436,키자니아 서울,서울 송파구,1544-5110,"['', '미세먼지_피하는_실내여행', '관광지', '도심여행', '실내여행지', '아이가_열광하는_여행']",https://cdn.visitkorea.or.kr/img/call?cmd=VIEW&id=ef08e8a4-5aaa-47d1-86f4-ac21cdb39c2d&thumb,서울특별시 송파구 올림픽로 240,37.51130961,127.0981418,
437,보라매안전체험관,서울 동작구,02-2027-4100,"['가족여행', '관광지', '교육여행', '미세먼지_피하는_실내여행', '박물관', '보라매안전체험관']",https://cdn.visitkorea.or.kr/img/call?cmd=VIEW&id=c66abbed-ebb4-4bf0-8c9d-7a4e5d102dcc&thumb,서울특별시 동작구 여의대방로20길 33,37.49538106,126.9189142,
438,삼성미술관 리움,서울 용산구,02-2014-6901,"['가족여행', '단체관람', '당일치기여행', '문화시설', '미세먼지_피하는_실내여행']",https://cdn.visitkorea.or.kr/img/call?cmd=VIEW&id=0b446a77-ad23-4c38-b81b-0e09787f06ec&thumb,서울특별시 용산구 이태원로55길 60-16,37.53846127,126.9992941,
439,국립현대미술관(덕수궁관),서울 중구,02-2022-0600,"['국립현대미술관', '덕수궁관', '데이트코스', '문화시설', '미술관', '수도권', '실내여행지']",https://cdn.visitkorea.or.kr/img/call?cmd=VIEW&id=67e61f50-eae9-4b84-b3e4-afc056320983&thumb,서울특별시 중구 세종대로 99,37.56616815,126.9739838,
440,브이센터 (브이센터 더라이브뮤지엄),서울 강동구,070-4278-8470,"['가족과함께', '기념품판매', '문화시설', '문화콘텐츠산업', '브이센터', '수도권']",https://cdn.visitkorea.or.kr/img/call?cmd=VIEW&id=68a088c7-b285-44ff-8fd8-e6f60c42c64b&thumb,서울특별시 강동구 아리수로61길 103,37.56539313,127.1477152,
441,실로암사우나찜질방,서울 중구,02-364-3944,"['관광지', '도심여행', '목욕탕', '사우나', '실내여행지', '실로암사우나찜질방']",https://cdn.visitkorea.or.kr/img/call?cmd=VIEW&id=2219344f-89ce-4e14-aa2a-540d41dd7788&thumb,서울특별시 중구 중림로 49,37.55774361,126.968629,
442,종이나라박물관,서울 중구,02-2279-7901,"['나들이', '단체관람', '도심여행', '문화시설', '박물관', '실내여행지', '아이와함께']",https://cdn.visitkorea.or.kr/img/call?cmd=VIEW&id=49776ce1-16c7-4b6a-88d0-10b8a68b85d9&thumb,서울특별시 중구 장충단로 166,37.55964972,127.00615390000002,
443,중랑구립정보도서관,서울 중랑구,02-490-9113,"['데이트코스', '도서관', '문화시설', '수도권', '실내여행지', '아이와함께', '연인과함께']",https://cdn.visitkorea.or.kr/img/call?cmd=VIEW&id=44d433f6-2243-418f-a119-17ee795dd05b&thumb,서울특별시 중랑구 신내로15길 197,37.61517057,127.0869064,
444,서울대학교 박물관,서울 관악구,02-880-5333,"['무료관람', '문화시설', '박물관', '서울대학교박물관', '수도권', '실내여행지']",https://cdn.visitkorea.or.kr/img/call?cmd=VIEW&id=5f3d3acb-ff45-4bfb-aed5-503f7e872c74&thumb,서울특별시 관악구 관악로 1,37.46803806,126.9592943,
445,청계천박물관,서울 성동구,02-2286-3410,"['걷기여행', '도심여행', '문화시설', '박물관', '실내여행지', '아이와함께', '청계천박물관']",https://cdn.visitkorea.or.kr/img/call?cmd=VIEW&id=8afad903-fc55-4fb6-b009-a699911f2d77&thumb,서울특별시 성동구 청계천로 530,37.57126617,127.0350432,
446,예술의전당,서울 서초구,02-580-1300,"['가족여행', '공연장', '나들이', '데이트코스', '문화시설', '수도권', '실내여행지']",https://cdn.visitkorea.or.kr/img/call?cmd=VIEW&id=0679981f-c544-4856-8099-010f6b429edd&thumb,서울특별시 서초구 남부순환로 2406,37.4802402,127.0142152,
447,세라믹 팔레스 홀,서울 강남구,02-3411-4668,"['가족여행', '도심여행', '문화시설', '세라믹팔레스홀', '실내여행지', '음악회']",https://cdn.visitkorea.or.kr/img/call?cmd=VIEW&id=cbf48196-0092-4949-bc8e-adc27a0d648d&thumb,서울특별시 강남구 일원로 90,37.48578186,127.0820718,
448,매헌 윤봉길의사 기념관,서울 서초구,02-578-3388,"['교과서속여행', '기념관', '매헌윤봉길의사기념관', '문화시설', '미세먼지_피하는_실내여행']",https://cdn.visitkorea.or.kr/img/call?cmd=VIEW&id=1fd170ba-7745-412e-9819-9430dde6003a&thumb,서울특별시 서초구 매헌로 99,37.4730498,127.0369771,
449,세종대왕기념관,서울 동대문구,02-969-8851,"['기념관', '문화시설', '세종대왕기념관', '수도권', '실내여행지', '아이와함께']",https://cdn.visitkorea.or.kr/img/call?cmd=VIEW&id=c2aaf0d7-06c7-428d-8de1-a12a237dbe49&thumb,서울특별시 동대문구 회기로 56,37.59099289,127.0427032,
450,도산안창호기념관,서울 강남구,02-541-1800,"['교과서속여행', '도산안창호기념관', '문화시설', '박물관', '수도권', '실내여행지']",https://cdn.visitkorea.or.kr/img/call?cmd=VIEW&id=564d78a9-8d12-4451-8b7c-627457964a62&thumb,서울특별시 강남구 도산대로45길 20,37.52395086,127.0356032,
451,아트리움,서울 영등포구,02-2638-2000,"['도심여행', '문화시설', '문화행사', '사계절', '상설공연', '실내여행지', '아트리움']",https://cdn.visitkorea.or.kr/img/call?cmd=VIEW&id=0c864c6d-0692-4180-95d3-7a33f77ee402&thumb,서울특별시 영등포구 영중로 15,37.51723326,126.903716,
452,자생식물학습장,서울 종로구,02-762-4868,"['가족여행', '고궁', '관광지', '교과서속여행', '꽃여행', '사계절', '수도권', '실내여행지']",https://cdn.visitkorea.or.kr/img/call?cmd=VIEW&id=13290218-10dc-49e8-924e-9754df14bdd8&thumb,서울특별시 종로구 창경궁로 185,37.57762395,126.9938414,
453,63아트,서울 영등포구,02-780-6382,"['63아트', '경치좋은곳', '문화공간', '문화시설', '문화예술', '미술관', '미술작품']",https://cdn.visitkorea.or.kr/img/call?cmd=VIEW&id=785193ad-5c15-492e-acf1-8079270c27e3&thumb,서울특별시 영등포구 63로 50,37.51966416,126.93990929999998,
454,광진교 8번가,서울 강동구,02-476-0722,"['관광지', '광진교8번가', '데이트코스', '사계절', '상설공연', '실내여행지', '연인과함께']",https://cdn.visitkorea.or.kr/img/call?cmd=VIEW&id=27032990-52d2-440d-8027-4e456b03d241&thumb,서울특별시 강동구 구천면로 77,37.54448808,127.11418909999998,
455,롯데월드 가든스테이지,서울 송파구,1661-2000,"['공연장', '나들이', '놀이공원&테마파크', '데이트코스', '롯데월드가든스테이지']",https://cdn.visitkorea.or.kr/img/call?cmd=VIEW&id=2437ea6e-9c30-4fc3-9d6b-f9f22d465ae2&thumb,서울특별시 송파구 올림픽로 240,37.51130961,127.0981418,
456,고려대학교박물관,서울 성북구,02-3290-1514,"['고려대학교박물관', '무료관람', '문화시설', '박물관', '수도권', '실내여행지']",https://cdn.visitkorea.or.kr/img/call?cmd=VIEW&id=2ef5b6c3-2a28-4788-812f-10e176ddbed4&thumb,서울특별시 성북구 안암로 145,37.58870342,127.0316983,
457,서울특별시교육청 과학전시관 (남산분관),서울 중구,02-311-1276,"['교과서속여행', '문화시설', '사계절', '서울특별시과학전시관남산분관', '수도권']",https://cdn.visitkorea.or.kr/img/call?cmd=VIEW&id=c8fa9d57-2592-4f7b-84a1-aa84d08f1168&thumb,서울특별시 중구 소파로 46,37.5545492,126.9812833,
458,마포아트센터,서울 마포구,02-3274-8600,"['가족체험여행', '마포아트센터', '문화시설', '상설공연', '실내여행지', '아이와함께']",https://cdn.visitkorea.or.kr/img/call?cmd=VIEW&id=2a096492-aef2-4367-a34a-eebd6e0585da&thumb,서울특별시 마포구 대흥로20길 28,37.54990609,126.9455338,
459,우표박물관 (구.우표문화누리),서울 중구,02-6450-5600,"['가족과함께', '겨울방학가볼만한곳', '남녀노소', '문화시설', '미세먼지_피하는_실내여행']",https://cdn.visitkorea.or.kr/img/call?cmd=VIEW&id=80331ffa-f4b0-4c06-ad89-9af0b514dff8&thumb,서울특별시 중구 소공로 70,37.56159874,126.9821691,
460,호림박물관,서울 관악구,02-858-2500,"['나들이', '문화시설', '박물관', '수도권', '실내여행지', '아이와함께', '전시관']",https://cdn.visitkorea.or.kr/img/call?cmd=VIEW&id=6a175227-7791-46f3-81ab-a4b70fcee4ca&thumb,서울특별시 관악구 남부순환로152길 53,37.4808823,126.9182364,
461,밀알미술관,서울 강남구,02-3412-0061,"['남녀노소', '데이트코스', '도심여행', '무더위_피해_실내여행', '문화시설', '미술관']",https://cdn.visitkorea.or.kr/img/call?cmd=VIEW&id=69c960d8-013f-4012-a15e-375d3030861d&thumb,서울특별시 강남구 일원로 90,37.48578186,127.0820718,
462,박을복자수박물관,서울 강북구,02-990-7000,"['교과서속여행', '문화시설', '박물관', '박을복자수박물관', '수도권', '실내여행지']",https://cdn.visitkorea.or.kr/img/call?cmd=VIEW&id=ee2a65d3-2ef2-4319-af6c-203cb8bdb483&thumb,서울특별시 강북구 삼양로149가길 53,37.65381553,127.0084886,
463,유니버설아트센터,서울 광진구,070-7124-1740,"['가족여행', '공연장', '나들이', '데이트코스', '문화시설', '수도권', '실내여행지']",https://cdn.visitkorea.or.kr/img/call?cmd=VIEW&id=fd8ae02e-5133-4438-a69d-71f3b0632e21&thumb,서울특별시 광진구 천호대로 664,37.55097979999999,127.0870952,
464,서울대학교 규장각,서울 관악구,02-880-6030,"['문화시설', '서울대학교규장각', '수도권', '실내여행지', '아이와함께', '예술']",https://cdn.visitkorea.or.kr/img/call?cmd=VIEW&id=08b4d2fc-54ec-40a7-861d-102a24dfad6e&thumb,서울특별시 관악구 관악로 1,37.46803806,126.9592943,
465,VRZONE 용산 아이파크몰점,서울 용산구,02-2039-7521,"['VR체험', '관광지', '데이트장소추천', '실내데이트', '실내여행지', '아이가_좋아하는_여행']",https://cdn.visitkorea.or.kr/img/call?cmd=VIEW&id=da7d9891-42ac-4259-ae23-cddcd869a21d&thumb,서울특별시 용산구 한강대로23길 55,37.5297718,126.9647415,
466,홍대난타전용관,서울 마포구,02-739-8288,"['가족여행', '도심여행', '문화시설', '문화행사', '사계절', '수도권', '실내여행지']",https://cdn.visitkorea.or.kr/img/call?cmd=VIEW&id=ee83009a-7550-49f7-93c0-9ff32cbe16aa&thumb,서울특별시 마포구 양화로16길 29,37.55319621,126.9211754,
467,VRZONE CINEMA(브이알존 시네마),서울 강남구,02-545-3394,"['관광지', '데이트장소추천', '브이알존', '서울데이트', '실내관광지', '실내놀이터']",https://cdn.visitkorea.or.kr/img/call?cmd=VIEW&id=5a8a8cec-db93-44dd-8fde-a0b967cf1584&thumb,서울특별시 강남구 도산대로11길 18,37.51863417,127.0227009,
468,성균관대학교 박물관,서울 종로구,02-760-1216,"['무료관람', '문화시설', '박물관', '성균관대학교박물관', '수도권', '실내여행지']",https://cdn.visitkorea.or.kr/img/call?cmd=VIEW&id=4a5d1529-c7c0-4270-89ca-2b8970d09c35&thumb,서울특별시 종로구 성균관로 25-2,37.58722841,126.99311509999998,
469,갤러리 라메르,서울 종로구,02-730-5454,"['갤러리라메르', '나홀로여행', '데이트코스', '도심여행', '문화시설', '미술관']",https://cdn.visitkorea.or.kr/img/call?cmd=VIEW&id=41ee9bfc-3c58-475a-8746-2f928904b881&thumb,서울특별시 종로구 인사동5길 26,37.57258198,126.9848681,
470,주한 프랑스문화원,서울 중구,02-317-8500,"['교과서속여행', '도서관', '문화시설', '문화행사', '사계절', '수도권', '실내여행지']",https://cdn.visitkorea.or.kr/img/call?cmd=VIEW&id=dfc1c6e6-caa0-4f2b-8606-64c1fb7cdc4d&thumb,서울특별시 중구 칠패로 42,37.55947437,126.9735598,
471,국립국악원,서울 서초구,02-580-3300,"['가족여행', '공연장', '국립국악원', '데이트코스', '문화시설', '수도권', '실내여행지']",https://cdn.visitkorea.or.kr/img/call?cmd=VIEW&id=3c581549-173f-4789-9a4f-263612429750&thumb,서울특별시 서초구 남부순환로 2364,37.47771881,127.0098185,
472,이리자 한복전시관,서울 종로구,02-734-9477,"['교과서속으로', '문화시설', '수도권', '실내여행지', '아이와함께', '예술', '이리자한복전시관']",https://cdn.visitkorea.or.kr/img/call?cmd=VIEW&id=f476f31e-951d-4229-a878-f6794b822704&thumb,서울특별시 종로구 삼청로 20,37.57761565,126.97997,
473,브이알존 큐브 강남점,서울 서초구,02-591-0770,"['VR체험', '관광지', '남녀노소', '실내데이트', '실내레포츠', '실내여행지', '아이가_좋아하는_여행']",https://cdn.visitkorea.or.kr/img/call?cmd=VIEW&id=2f017751-0d4d-46c4-8f97-d5efe89324a1&thumb,서울특별시 서초구 서초대로77길 25,37.49993836,127.0255892,
474,세종문화회관,서울 종로구,02-399-1114,"['가족여행', '공연장', '나들이', '데이트코스', '문화시설', '세종문화회관', '수도권']",https://cdn.visitkorea.or.kr/img/call?cmd=VIEW&id=79b4a343-eb32-44ea-a19b-ce31024a5b7b&thumb,서울특별시 종로구 세종대로 175,37.57218604,126.9768172,
475,금천구립금나래도서관,서울 금천구,02-2627-2991,"['금천구립금나래도서관', '도서관', '문화시설', '사계절', '실내여행지', '아이와함께']",https://cdn.visitkorea.or.kr/img/call?cmd=VIEW&id=d5a13d25-bbdc-4e43-a131-46065cedc30a&thumb,서울특별시 금천구 시흥대로73길 70,37.45706565,126.8960369,
476,김대중도서관,서울 마포구,02-2123-6890,"['교과서속여행', '김대중도서관', '도서관', '도심여행', '독서여행', '문화시설']",https://cdn.visitkorea.or.kr/img/call?cmd=VIEW&id=270de2a5-fe1d-4de0-92ae-bd03749c8f83&thumb,서울특별시 마포구 신촌로4길 5-26,37.55698238,126.92959,
477,서울시립대학교박물관,서울 동대문구,02-6490-6586,"['무료관람', '문화시설', '박물관', '서울시립대학교박물관', '수도권', '실내여행지']",https://cdn.visitkorea.or.kr/img/call?cmd=VIEW&id=3f7d83bc-f515-4d3f-bbec-4d8eb0521380&thumb,서울특별시 동대문구 서울시립대로 163,37.58257758,127.0599881,
478,주한이탈리아문화원,서울 용산구,02-796-0634,"['교과서속여행', '도서관', '문화시설', '문화행사', '사계절', '수도권', '실내여행지']",https://cdn.visitkorea.or.kr/img/call?cmd=VIEW&id=9010f575-0d3d-4661-bd68-cfce03a1a073&thumb,서울특별시 용산구 한남대로 98,37.53716704,127.0055166,
479,가나아트센터,서울 종로구,02-720-1020,"['가나아트갤러리', '가나아트센터', '데이트코스', '드라이브여행', '문화시설']",https://cdn.visitkorea.or.kr/img/call?cmd=VIEW&id=17957449-38f3-4267-9bee-c896ff35adda&thumb,서울특별시 종로구 평창30길 28,37.61218939,126.975179,
480,덕성여자대학교박물관,서울 도봉구,02-901-8131,"['교과서속여행', '덕성여자대학교박물관', '문화시설', '박물관', '수도권', '실내여행지']",https://cdn.visitkorea.or.kr/img/call?cmd=VIEW&id=fbd6a881-595e-4180-9d37-37d49205bea7&thumb,서울특별시 도봉구 삼양로144길 33,37.64950908,127.0163952,
481,서울대학교 치의학박물관,서울 종로구,02-740-8799,"['교과서속여행', '문화시설', '박물관', '서울대학교치의학박물관', '수도권', '실내여행지']",https://cdn.visitkorea.or.kr/img/call?cmd=VIEW&id=96521ccf-4a9c-4a18-a618-d71034024545&thumb,서울특별시 종로구 대학로 101,37.58045239,126.99719640000002,
482,조선일보미술관,서울 중구,02-724-6322,"['나들이', '데이트코스', '드라이브여행', '문화시설', '미술관', '수도권', '실내여행지']",https://cdn.visitkorea.or.kr/img/call?cmd=VIEW&id=5c7a0ef1-a729-4a33-b24a-a809e3c28efc&thumb,서울특별시 중구 세종대로21길 61,37.56912031,126.9758862,
483,국제갤러리,서울 종로구,02-735-8449,"['국제갤러리', '나들이', '데이트코스', '문화시설', '미술관', '수도권', '실내여행지']",https://cdn.visitkorea.or.kr/img/call?cmd=VIEW&id=7f63ff6f-8a1b-4f39-bcb7-45e6e534d781&thumb,서울특별시 종로구 삼청로 54,37.58072067,126.9805739,
484,시간을 담다,서울 중구,010-8895-3368,"['관광지', '그림그리기체험', '데이트장소추천', '문화공간', '미세먼지_피하는_실내여행']",https://cdn.visitkorea.or.kr/img/call?cmd=VIEW&id=1da759d6-b0b4-4606-8d9d-2e77540a780d&thumb,서울특별시 중구 삼일대로8길 20-1,37.56267222,126.9901235,
485,MoA 서울대학교미술관,서울 관악구,02-880-9504,"['가족여행', '문화시설', '미술관', '서울대학교미술관', '수도권', '실내여행지']",https://cdn.visitkorea.or.kr/img/call?cmd=VIEW&id=a328adac-3a28-4063-bb03-c437e6cd2db4&thumb,서울특별시 관악구 관악로 1,37.46803806,126.9592943,
486,세계골프역사박물관,서울 강남구,02-2192-3005,"['나홀로여행', '문화시설', '뮤지엄&미술관', '사계절', '세계골프역사박물관']",https://cdn.visitkorea.or.kr/img/call?cmd=VIEW&id=05980701-ff82-4b9f-be3a-0bf9ee341d60&thumb,서울특별시 강남구 테헤란로 528,37.50809527,127.062,
487,이스라엘문화원,서울 서초구,02-525-7301,"['교과서속여행', '문화시설', '문화행사', '사계절', '수도권', '실내여행지', '아이와함께']",https://cdn.visitkorea.or.kr/img/call?cmd=VIEW&id=0e14b3c2-b6c1-44ab-a775-dd2a1f213b70&thumb,서울특별시 서초구 서초대로74길 23,37.49561193,127.027091,
488,동국대학교 박물관,서울 중구,02-2260-3722,"['교과서속여행', '동국대학교박물관', '문화시설', '박물관', '수도권', '실내여행지']",https://cdn.visitkorea.or.kr/img/call?cmd=VIEW&id=db62147a-7598-4535-ade4-4878dcf1626b&thumb,서울특별시 중구 필동로1길 30,37.55893664,126.9987376,
489,주한독일문화원,서울 용산구,02-2021-2800,"['교과서속여행', '문화시설', '문화행사', '사계절', '수도권', '실내여행지', '아이와함께']",https://cdn.visitkorea.or.kr/img/call?cmd=VIEW&id=5c3d2950-8344-46f8-b7b2-f9e8dcf838a9&thumb,서울특별시 용산구 소월로 132,37.55071315,126.9827115,
490,경희대학교 중앙박물관,서울 동대문구,02-961-0141,"['경희대학교박물관', '무료관람', '문화시설', '박물관', '수도권', '실내여행지']",https://cdn.visitkorea.or.kr/img/call?cmd=VIEW&id=324ecce6-dd3f-4960-9087-685689fedb22&thumb,서울특별시 동대문구 경희대로 26,37.59394914,127.054891,
491,축구전시관,서울 종로구,02-2002-0707,"['문화시설', '박물관', '사계절', '수도권', '실내여행지', '아이와함께', '전시관']",https://cdn.visitkorea.or.kr/img/call?cmd=VIEW&id=10e40cd9-60b2-4298-b978-e1eecbae755b&thumb,서울특별시 종로구 경희궁길 46,37.57349432,126.9691037,
492,경희대학교 자연사박물관,서울 동대문구,02-961-0142,"['경희대학교자연사박물관', '교과서속여행', '문화시설', '박물관', '수도권', '실내여행지']",https://cdn.visitkorea.or.kr/img/call?cmd=VIEW&id=d464ccfa-1675-40c5-8a6c-432af8d05102&thumb,서울특별시 동대문구 경희대로 26,37.59394914,127.054891,
493,한국천주교순교자박물관,서울 마포구,02-3142-4434,"['나홀로여행', '문화시설', '박물관', '수도권', '실내여행지', '이색체험', '전시관']",https://cdn.visitkorea.or.kr/img/call?cmd=VIEW&id=eb5d5a20-a3ee-4c03-8b64-d4679c60484d&thumb,서울특별시 마포구 토정로 6,37.54413544,126.9117936,
494,숙명여자대학교 박물관,서울 용산구,02-710-9134,"['문화시설', '박물관', '수도권', '숙명여자대학교박물관', '실내여행지', '아이와함께']",https://cdn.visitkorea.or.kr/img/call?cmd=VIEW&id=79bee747-1a58-4362-a06e-e4b39043386a&thumb,서울특별시 용산구 청파로47길 100,37.54547408,126.9650744,
495,두산아트센터,서울 종로구,02-708-5001,"['가족여행', '공연장', '나들이', '데이트코스', '두산아트센터', '문화시설', '수도권']",https://cdn.visitkorea.or.kr/img/call?cmd=VIEW&id=35adf6b6-cf40-4dad-aa57-1450da7634a0&thumb,서울특별시 종로구 종로33길 15,37.57181233,127.0010001,
496,갤러리 현대,서울 종로구,02-2287-3500,"['갤러리현대', '나들이', '데이트코스', '문화시설', '미술관', '수도권', '실내여행지']",https://cdn.visitkorea.or.kr/img/call?cmd=VIEW&id=8429ed51-0084-4370-afcf-f621aebcde98&thumb,서울특별시 종로구 삼청로 14,37.57730568,126.9798233,
497,동덕여자대학교 박물관,서울 성북구,02-940-4231,"['교과서속여행', '동덕여자대학교박물관', '문화시설', '박물관', '사계절', '수도권']",https://cdn.visitkorea.or.kr/img/call?cmd=VIEW&id=318ef288-da12-4a75-b33b-e6b04ce7a511&thumb,서울특별시 성북구 화랑로13길 60,37.60681483,127.0411763,
498,성신여자대학교박물관,서울 성북구,02-920-7325,"['무료관람', '문화시설', '박물관', '성신여자대학교박물관', '수도권', '실내여행지']",https://cdn.visitkorea.or.kr/img/call?cmd=VIEW&id=39dad9f9-8319-46d9-aede-5ebf5bb76389&thumb,서울특별시 성북구 보문로34다길 2,37.59165248,127.0221456,
499,갤러리 시몬,서울 종로구,02-549-3031,"['갤러리시몬', '데이트코스', '문화시설', '미술관', '수도권', '실내여행지', '연인과함께']",https://cdn.visitkorea.or.kr/img/call?cmd=VIEW&id=185b1a0b-f9da-4bb0-ab0b-d1ed3b64bc90&thumb,서울특별시 종로구 자하문로6길 20,37.57805383,126.9732515,
500,동산방화랑,서울 종로구,02-733-5877,"['나들이', '데이트코스', '동산방화랑', '문화시설', '미술관', '수도권', '실내여행지']",https://cdn.visitkorea.or.kr/img/call?cmd=VIEW&id=1f8c9940-e22f-44a2-b336-45f6a8fd954f&thumb,서울특별시 종로구 인사동9길 35,37.57292776,126.98337759999998,
501,이화여자대학교박물관,서울 서대문구,02-3277-3152,"['무료관람', '문화시설', '박물관', '사계절', '수도권', '실내여행지', '아이와함께']",https://cdn.visitkorea.or.kr/img/call?cmd=VIEW&id=d64a0da8-89be-4ee0-a1ca-93e790f69d27&thumb,서울특별시 서대문구 이화여대길 52,37.56446452,126.9502888,
502,성곡미술관,서울 종로구,02-737-7650,"['도심여행', '문화시설', '미술관', '사계절', '성곡미술관', '실내여행지', '연인과함께']",https://cdn.visitkorea.or.kr/img/call?cmd=VIEW&id=426fe805-13ad-4423-b0a8-fe846cfa4589&thumb,서울특별시 종로구 경희궁길 42,37.57351051,126.9697036,
503,상명대학교 박물관,서울 종로구,02-781-7920,"['교과서속여행', '문화시설', '박물관', '상명대학교박물관', '수도권', '실내여행지']",https://cdn.visitkorea.or.kr/img/call?cmd=VIEW&id=7edcfc31-d25a-4fd8-a599-ff6555089062&thumb,서울특별시 종로구 평창문화로 151,37.61058458,126.9757624,
504,영동 예맥화랑,서울 강남구,02-549-8952,"['도심여행', '문화시설', '사계절', '실내여행지', '예맥화랑', '예술', '전시회']",https://cdn.visitkorea.or.kr/img/call?cmd=VIEW&id=800b0fb9-b51e-4d70-9522-4ce3ba9fc1c9&thumb,서울특별시 강남구 강남대로 546,37.51086226,127.0218892,
505,갤러리미,서울 강남구,02-542-3004,"['갤러리미', '나들이', '데이트코스', '문화시설', '미술관', '수도권', '실내여행지']",https://cdn.visitkorea.or.kr/img/call?cmd=VIEW&id=04101348-686a-4884-b6b4-2d79fdfbaa6b&thumb,서울특별시 강남구 압구정로 461,37.52525477,127.0472324,
506,청작화랑,서울 강남구,02-549-3112,"['문화시설', '실내여행지', '예술', '전시관', '창작화랑']",https://cdn.visitkorea.or.kr/img/call?cmd=VIEW&id=2e547054-80eb-47aa-a9d0-1c607f0d3048&thumb,서울특별시 강남구 압구정로 134,37.52435015,127.0235131,
507,상원미술관,서울 종로구,02-396-3185,"['도심여행', '문화시설', '사계절', '상원미술관', '실내여행지', '아이와함께', '연인과함께']",https://cdn.visitkorea.or.kr/img/call?cmd=VIEW&id=dac810a5-dc84-4ffc-893e-2e41e51ebb7f&thumb,서울특별시 종로구 평창31길 27,37.61162836,126.9765689,
508,모인화랑,서울 종로구,02-739-9292,"['모인화랑', '문화시설', '실내여행지', '예술', '전시관']",https://cdn.visitkorea.or.kr/img/call?cmd=VIEW&id=367a0368-7e8e-4e93-a9db-04267b2f5db1&thumb,서울특별시 종로구 인사동10길 13,37.57434335,126.9857216,
509,[북악하늘길 스카이웨이] 하늘한마당~하늘마루,서울 성북구,02-2241-3664,"['레포츠', '북악하늘길', '성북구', '트레킹']",https://cdn.visitkorea.or.kr/img/call?cmd=VIEW&id=1e96d25d-9f95-47ef-a7a5-bcea364473ba&thumb,서울특별시 성북구 북악산로,37.5976213,127.0189716,0.0
510,경의선숲길(연트럴파크),서울 마포구,02-3153-9550,"['데이트명소', '도심산책', '레포츠', '마포구', '산책코스', '주말여행']",https://cdn.visitkorea.or.kr/img/call?cmd=VIEW&id=7be50642-eb72-4d91-ae5d-69d3edd5e66e&thumb,서울특별시 마포구 동교로51길 133,37.5664463,126.9197259,1.0
511,서울 한양도성(스탬프투어),서울 종로구,1,"['걷기길', '레포츠', '서울한양도성', '성곽길', '수도권', '연인과함께']",https://cdn.visitkorea.or.kr/img/call?cmd=VIEW&id=0415d7c7-596f-4f4f-8bab-a4f43e7d7bcf&thumb,서울특별시 종로구 창의문로 42,37.5906062,126.9709242,2.0
512,올림픽공원 경기장,서울 송파구,02-410-1114,"['가족과함께', '데이트코스', '레포츠', '송파구', '올림픽공원']",https://cdn.visitkorea.or.kr/img/call?cmd=VIEW&id=24bcd8c3-b537-4504-82f2-d7e79d94f5d5&thumb,서울특별시 송파구 올림픽로 424,37.5217853,127.1165203,3.0
513,여의도 둘레길(여의도 자전거도로),서울 영등포구,02-3780-0772,"['레포츠', '산책코스', '수변산책로', '여의도', '자전거코스']",https://cdn.visitkorea.or.kr/img/call?cmd=VIEW&id=09c62fbe-047a-4c91-a18f-08c5e5fe71dc&thumb,서울특별시 영등포구 여의동로 330,37.5263086,126.9335824,4.0
514,서울종합운동장(잠실종합운동장),서울 송파구,02-2240-8800,"['관광명소', '남녀노소', '레포츠', '서울올림픽', '서울종합운동장', '실내경기장']",https://cdn.visitkorea.or.kr/img/call?cmd=VIEW&id=68ccacb2-c57b-43dc-b783-aac1ea981c2a&thumb,서울특별시 송파구 올림픽로 25,37.5140929,127.0749534,5.0
515,한강시민공원 뚝섬수영장(실외),서울 광진구,02-452-5955,"['가족과함께', '남녀노소', '뚝섬', '레포츠', '물놀이장', '수영장', '아이가_좋아하는_여행']",https://cdn.visitkorea.or.kr/img/call?cmd=VIEW&id=486757b7-6166-41db-b365-5c90152bf3ce&thumb,서울특별시 광진구 강변북로 139,37.5293797,127.0739795,6.0
516,[북한산 둘레길] 7 옛성길,서울 종로구,02-900-8086,['레포츠'],https://cdn.visitkorea.or.kr/img/call?cmd=VIEW&id=4a297059-8edc-45fa-8b8b-ef3c1e730fbf&thumb,서울특별시 종로구 구기동,37.6180692,126.9581885,7.0
517,코오롱스포렉스(서초점),서울 서초구,02-580-8300,"['레포츠', '복합스포츠', '생활건강', '스포츠센터', '정신건강', '회원제스포츠센터']",https://cdn.visitkorea.or.kr/img/call?cmd=VIEW&id=fa48263e-8013-4e0e-a6d6-3f5befd7cc22&thumb,서울특별시 서초구 서초대로70길 32,37.493189,127.023303,8.0
518,서대문문화체육회관 실내수영장,서울 서대문구,02-360-8684,['레포츠'],https://cdn.visitkorea.or.kr/img/call?cmd=VIEW&id=aa8230ff-9f1c-4cc3-84c2-5a0aa5c40ab1&thumb,서울특별시 서대문구 백련사길 39,37.5806516,126.9312702,9.0
519,양천구 둘레길(하천형),서울 양천구,02-2620-3590,"['둘레길', '레포츠', '산책하기좋은곳', '서울산책', '아이와함께', '양천구', '휴식하기좋은곳']",https://cdn.visitkorea.or.kr/img/call?cmd=VIEW&id=ab605d9b-9561-4363-8a08-a0426d8e84b0&thumb,서울특별시 양천구 안양천로 711,37.5283271,126.8800082,10.0
520,YMCA 송파 수영장(실내),서울 송파구,02-424-7511,['레포츠'],https://cdn.visitkorea.or.kr/img/call?cmd=VIEW&id=cdfb988d-9e55-491d-9dc8-51843aa8a752&thumb,서울특별시 송파구 올림픽로 211,37.5125309,127.0944272,11.0
521,강동그린웨이 가족캠핑장,서울 강동구,02-478-4079,"['가족여행', '강동구', '레포츠', '자연환경', '주말여행', '캠핑장', '힐링여행']",https://cdn.visitkorea.or.kr/img/call?cmd=VIEW&id=96e6dd8f-42ea-49be-95ed-845e89ea9e4d&thumb,서울특별시 강동구 천호대로206길 87,37.5358284,127.1540755,12.0
522,신림체육센터,서울 관악구,02-869-1888,['레포츠'],https://cdn.visitkorea.or.kr/img/call?cmd=VIEW&id=8452df34-ca6e-442e-9a4e-14f1ccfda353&thumb,서울특별시 관악구 난곡로58길 13,37.4801485,126.9161948,13.0
523,롯데월드 아이스링크(실내),서울 송파구,1661-2000,"['겨울스포츠', '레포츠', '롯데월드', '스케이트장', '실내데이트', '연인과함께']",https://cdn.visitkorea.or.kr/img/call?cmd=VIEW&id=fa1a2d5f-f38f-4c4c-a239-e79197dafeb6&thumb,서울특별시 송파구 올림픽로 240,37.5112348,127.0980274,14.0
524,서울마리나 요트&클럽,서울 영등포구,02-3780-8400,"['가족과함께', '남녀노소', '레포츠', '연인과함께', '요트체험', '이색체험', '친구와함께']",https://cdn.visitkorea.or.kr/img/call?cmd=VIEW&id=bf8fa946-d905-4680-a936-86feefc39414&thumb,서울특별시 영등포구 여의서로 160,37.5350498,126.91325659999998,15.0
525,[서울둘레길 1코스] 수락·불암산코스,서울 도봉구,02-779-7902,"['레포츠', '서울둘레길', '수도권', '수락불암산코스']",https://cdn.visitkorea.or.kr/img/call?cmd=VIEW&id=fdd3ae67-993b-4f2e-98c1-2681f77c5e4b&thumb,서울특별시 도봉구 도봉로 964-40,37.68908029999999,127.046509,16.0
526,[서울둘레길 8코스] 북한산코스,서울 은평구,02-779-7902,['레포츠'],https://cdn.visitkorea.or.kr/img/call?cmd=VIEW&id=626bd9c7-0802-456b-869e-72b242ae0e93&thumb,서울특별시 은평구 진관동 533,37.636747,126.9188346,17.0
527,세븐럭카지노(강남코엑스점),서울 강남구,02-3466-6000,"['강남구', '레포츠', '세븐럭카지노', '이색체험']",https://cdn.visitkorea.or.kr/img/call?cmd=VIEW&id=d553c249-73a9-4295-88a3-8218222f5377&thumb,서울특별시 강남구 테헤란로87길 58,37.5101935,127.0585824,18.0
528,[북악하늘길 1산책로] 북악팔각정~말바위쉼터,서울 종로구,02-2241-3663,['레포츠'],https://cdn.visitkorea.or.kr/img/call?cmd=VIEW&id=d5b43ea1-c522-4de3-8170-4f84acbc91e0&thumb,서울특별시 종로구 북악산로 267,37.6019354,126.98053590000002,19.0
529,장충체육관,서울 중구,02-2128-2800,"['가족과함께', '남녀노소', '레포츠', '복합문화공간', '스포츠센터', '실내경기장']",https://cdn.visitkorea.or.kr/img/call?cmd=VIEW&id=b50b2486-bf0b-454a-b55e-01a36507e348&thumb,서울특별시 중구 동호로 241,37.5581465,127.0065932,20.0
530,뚝섬한강공원,서울 광진구,02-3780-0521,"['가족과함께', '데이트코스', '뚝섬한강공원', '레포츠', '연인과함께']",https://cdn.visitkorea.or.kr/img/call?cmd=VIEW&id=05f7f5c1-56fb-494c-8bf9-12d93e0afd0b&thumb,서울특별시 광진구 강변북로 139,37.5293797,127.0739795,21.0
531,서울광장 스케이트장,서울 중구,02-2133-2691,"['겨울스포츠', '레포츠', '복합레저스포츠', '생활스포츠', '서울광장', '서울광장스케이트장']",https://cdn.visitkorea.or.kr/img/call?cmd=VIEW&id=059ce520-dc52-4b20-8113-1a73f213eebb&thumb,서울특별시 중구 세종대로 110,37.5663797,126.9777154,22.0
532,고덕사회체육센터(실내수영장),서울 강동구,02-440-5300,"['건강', '고덕사회체육센터', '레포츠', '수도권', '운동']",https://cdn.visitkorea.or.kr/img/call?cmd=VIEW&id=7e541850-6afe-446b-a4f0-770991536160&thumb,서울특별시 강동구 구천면로93길 12,37.5508311,127.1690836,23.0
533,태릉국제스케이트장(실내),서울 노원구,02-970-0501,"['겨울스포츠', '레포츠', '복합레저스포츠', '스케이트', '스케이트장', '실내운동']",https://cdn.visitkorea.or.kr/img/call?cmd=VIEW&id=1ec974b8-0ec0-448b-a301-ef187e461ab5&thumb,서울특별시 노원구 화랑로 727,37.6335672,127.0967967,24.0
534,올림픽공원 스케이트장,서울 송파구,02-2180-3692,"['가족과함께', '레포츠', '스케이트장', '연인과함께', '올림픽공원', '이색체험']",https://cdn.visitkorea.or.kr/img/call?cmd=VIEW&id=0d8190c0-f478-4f82-bef3-4709faa74e1d&thumb,서울특별시 송파구 올림픽로 448,37.5217853,127.1165203,25.0
535,리버시티,서울 강남구,02-3442-3313,"['레저스포츠', '레포츠', '수상스포츠', '여름피서지', '익스트림스포츠', '친구와함께']",https://cdn.visitkorea.or.kr/img/call?cmd=VIEW&id=6b3e2705-420c-420d-a781-b413887bcb91&thumb,서울특별시 강남구 압구정동 379-1,37.529372,127.02021,26.0
536,한강시민공원 여의도수영장(실외),서울 영등포구,02-785-0478,"['가족과함께', '남녀노소', '레포츠', '아이와함께', '여름피서지', '여의도', '친구와함께']",https://cdn.visitkorea.or.kr/img/call?cmd=VIEW&id=77556711-657d-4622-92b6-40922bf86866&thumb,서울특별시 영등포구 여의동로 330,37.5263086,126.9335824,27.0
537,[서울둘레길 2코스] 용마·아차산코스,서울 노원구,02-779-7902,['레포츠'],https://cdn.visitkorea.or.kr/img/call?cmd=VIEW&id=1a7ebc96-29f7-4e7b-925a-a9aeb2d73d09&thumb,서울특별시 노원구 화랑로 지하 510,37.6245739,127.0830557,28.0
538,용산초등학교 실내수영장,서울 용산구,02-792-7330,"['레포츠', '서울', '서울수영장', '수영장', '실내수영장', '초등학교']",https://cdn.visitkorea.or.kr/img/call?cmd=VIEW&id=dd5cc100-fbcb-4455-b5b0-88d6d6cc923d&thumb,서울특별시 용산구 한강대로57길 33,37.5352899,126.9720729,29.0
539,[서울둘레길 4코스] 대모·우면산코스,서울 강남구,02-779-7902,['레포츠'],https://cdn.visitkorea.or.kr/img/call?cmd=VIEW&id=d9b979fe-7f35-4e19-864f-7fc411e72e2d&thumb,서울특별시 강남구 광평로 지하 270,37.4873027,127.1018755,30.0
540,[북악하늘길 형제봉오름길] 하늘마루~형제봉,서울 성북구,02-2241-3664,"['레포츠', '북악하늘길', '성북구', '트레킹']",https://cdn.visitkorea.or.kr/img/call?cmd=VIEW&id=a88c6a32-d7e1-4ad6-b13c-23121e8506a2&thumb,서울특별시 성북구 동소문로24길 14-8,37.5928019,127.01819,31.0
541,한강공원 뚝섬 눈썰매장,서울 광진구,02-453-3028,['레포츠'],https://cdn.visitkorea.or.kr/img/call?cmd=VIEW&id=5e692129-cfe2-4284-b238-28ef7a6fb1d9&thumb,서울특별시 광진구 강변북로 139,37.5293797,127.0739795,32.0
542,명동사격장,서울 중구,02-777-6604,"['레포츠', '복합레저스포츠', '사격', '사격장', '스포츠체험', '실내데이트', '연인과함께']",https://cdn.visitkorea.or.kr/img/call?cmd=VIEW&id=19cf0d8e-1dff-4ffd-a8e6-9c24a50ca7f4&thumb,서울특별시 중구 명동8가길 27,37.5618939,126.9864389,33.0
543,[북한산 둘레길] 8 구름정원길,서울 은평구,02-900-8086,"['걷기코스', '구름정원길', '레포츠', '북한산둘레길']",https://cdn.visitkorea.or.kr/img/call?cmd=VIEW&id=d075b355-3939-4ac6-960f-f42ed268aed5&thumb,서울특별시 은평구 불광동,37.61830870000001,126.9390451,34.0
544,송강카누학교 서울분교,서울 광진구,033-461-1659,"['레포츠', '연인과함께', '이색체험', '체험프로그램', '친구와함께', '카누체험']",https://cdn.visitkorea.or.kr/img/call?cmd=VIEW&id=ae46cc2f-2969-4092-924b-a5789cb6a0ea&thumb,서울특별시 광진구 강변북로 139,37.5293797,127.0739795,35.0
545,[서울둘레길 5코스] 관악산코스,서울 관악구,02-779-7902,['레포츠'],https://cdn.visitkorea.or.kr/img/call?cmd=VIEW&id=7b889b0a-9888-479c-9f46-55f1c510df18&thumb,서울특별시 관악구 과천대로 941,37.4746293,126.9812716,36.0
546,코오롱등산학교 실내빙장,서울 강북구,02-3677-8519,"['레포츠', '복합등산레저문화센터', '수도권', '코오롱등산학교실내빙장']",https://cdn.visitkorea.or.kr/img/call?cmd=VIEW&id=0a3eaa34-179e-43e1-bc5b-dd84ff8bb81b&thumb,서울특별시 강북구 삼양로173길 52,37.6623859,127.0096883,37.0
547,한강시민공원 광나루수영장(실외),서울 강동구,02-470-9561,"['가족과함께', '레포츠', '아이와함께', '여름피서지', '친구와함께', '한강시민공원']",https://cdn.visitkorea.or.kr/img/call?cmd=VIEW&id=052ba79b-0b13-400b-97c3-0709ad30d4fd&thumb,서울특별시 강동구 올림픽로89길 39,37.5476907,127.1241692,38.0
548,"목동운동장(목동아이스링크,사격장)",서울 양천구,02-2240-8800,"['남녀노소', '레포츠', '사격장', '스케이트장', '실내운동', '실내체육관']",https://cdn.visitkorea.or.kr/img/call?cmd=VIEW&id=661f7b97-da5c-4338-b49c-f8e5286fa511&thumb,서울특별시 양천구 안양천로 939,37.5305809,126.8810483,39.0
549,서울월드컵경기장,서울 마포구,02-2128-2000,"['레포츠', '마포구', '실내경기장', '월드컵경기장']",https://cdn.visitkorea.or.kr/img/call?cmd=VIEW&id=0559efe5-7e36-42e6-ac54-27a32be46e1f&thumb,서울특별시 마포구 월드컵로 240,37.5677584,126.8981147,40.0
550,태릉골프장,서울 노원구,02-970-7333,['레포츠'],https://cdn.visitkorea.or.kr/img/call?cmd=VIEW&id=97bc1e69-02f1-4972-9f61-46578d1b703d&thumb,서울특별시 노원구 화랑로 574,37.6280159,127.10198,41.0
551,[북한산 둘레길] 6 평창마을길,서울 종로구,02-900-8086,"['경치좋은곳', '도심여행', '둘레길', '레포츠', '북한산둘레길', '산책로', '역사문화체험']",https://cdn.visitkorea.or.kr/img/call?cmd=VIEW&id=c56f8d46-b37f-45e2-98c9-73c6d45e66f9&thumb,서울특별시 종로구 평창동,37.60533510000001,126.9668582,42.0
552,[서울둘레길 7코스] 봉산·앵봉산코스,서울 강서구,02-779-7902,['레포츠'],https://cdn.visitkorea.or.kr/img/call?cmd=VIEW&id=a7aeed38-a5b4-4b5e-be23-804cd2120eea&thumb,서울특별시 강서구 양천로 497,37.5612647,126.8558686,43.0
553,산호수중,서울 동대문구,02-478-2663,"['다이빙교육', '레포츠', '스킨스쿠버', '스킨스쿠버교육', '아이스다이빙']",https://cdn.visitkorea.or.kr/img/call?cmd=VIEW&id=21f5fd7f-19fb-4d7d-8753-a34165c4ce0a&thumb,서울특별시 동대문구 난계로30길 28-7,37.5737603,127.0247083,44.0
554,scg스포츠아카데미,서울 은평구,02-1522-9562,"['scg스포츠아카데미', '도심여행', '레포츠', '사계절', '연인과함께', '주말추천여행지']",https://cdn.visitkorea.or.kr/img/call?cmd=VIEW&id=2338f488-f909-4a11-9ecf-8148ae77d1a4&thumb,서울특별시 은평구 통일로 1050,37.6375145,126.91779040000002,45.0
555,[북악하늘길 2산책로] 하늘교~성북천발원지,서울 성북구,02-2241-3663,"['레포츠', '산책길', '산책로', '산책코스', '산책하기좋은곳', '서울산책', '힐링산책']",https://cdn.visitkorea.or.kr/img/call?cmd=VIEW&id=73323649-39a9-43a0-baa0-b4370d0fd213&thumb,서울특별시 성북구 성북동,37.5909485,127.003439,46.0
556,망원한강공원,서울 마포구,02-337-6663,"['레포츠', '마포구', '망원한강공원', '수상스키', '수영장', '윈드서핑']",https://cdn.visitkorea.or.kr/img/call?cmd=VIEW&id=99296b62-aefd-42d3-8288-9247529a478d&thumb,서울특별시 마포구 마포나루길 467,37.55249570000001,126.8994475,47.0
557,광운대학교 아이스링크,서울 노원구,02-940-5491,"['레포츠', '스케이트장']",https://cdn.visitkorea.or.kr/img/call?cmd=VIEW&id=c28cbd4a-ab90-4247-a71a-76907838d44b&thumb,서울특별시 노원구 광운로 20,37.6194277,127.05982,48.0
558,서울여성플라자,서울 동작구,02-810-5075,"['교육프로그램', '동작구', '레포츠', '여성복합문화공간']",https://cdn.visitkorea.or.kr/img/call?cmd=VIEW&id=3acb0283-4ea4-4a1e-994e-0eba557739b5&thumb,서울특별시 동작구 여의대방로54길 18,37.5115519,126.9271787,49.0
559,문래청소년수련관 수영장(실내),서울 영등포구,02-2167-0100,"['레포츠', '수영장', '영등포구', '청소년수련관']",https://cdn.visitkorea.or.kr/img/call?cmd=VIEW&id=05631638-0670-477a-b7e3-238149eaff75&thumb,서울특별시 영등포구 문래로 110,37.5188211,126.8940158,50.0
560,태평백화점 스포츠센터,서울 동작구,02-595-8000,"['교육프로그램', '동작구', '레포츠', '스포츠센터', '태평백화점']",https://cdn.visitkorea.or.kr/img/call?cmd=VIEW&id=0a335c05-5582-4bea-b7ca-b18dc610839f&thumb,서울특별시 동작구 동작대로 115,37.4866967,126.9814391,51.0
561,클라이밍클럽 더탑,서울 송파구,02-423-8848,"['레포츠', '수도권', '클라이밍', '클라이밍클럽더탑']",https://cdn.visitkorea.or.kr/img/call?cmd=VIEW&id=4c5d8168-ca1b-400b-80dd-df574604ffcb&thumb,서울특별시 송파구 오금로18길 5,37.5101612,127.1108049,52.0
562,창동문화체육센터,서울 도봉구,02-901-5000,"['교육프로그램', '도봉구', '레포츠', '문화체육시설']",https://cdn.visitkorea.or.kr/img/call?cmd=VIEW&id=f1fee79d-3f57-4189-9e61-47823d221d01&thumb,서울특별시 도봉구 노해로69길 132,37.6582713,127.0506149,53.0
563,역삼청소년수련관(실내수영장),서울 강남구,02-550-3632,"['레포츠', '서울', '수도권', '수련관', '수영장', '실내수영장']",https://cdn.visitkorea.or.kr/img/call?cmd=VIEW&id=8da7c76b-02a4-437e-acf4-895e3486ff4a&thumb,서울특별시 강남구 논현로64길 7,37.49392520000001,127.0408998,54.0
564,관악산 자락길,서울 관악구,02-879-6522,"['관악구', '관악산', '레포츠', '무장애숲길', '산책코스']",https://cdn.visitkorea.or.kr/img/call?cmd=VIEW&id=6f41cd8c-f7e4-4b5e-91e4-e9110d61df35&thumb,서울특별시 관악구 신림로 23,37.4686593,126.9344062,55.0
565,파라다이스 카지노 워커힐,서울 광진구,1899-0700,"['광진구', '레포츠', '이색체험', '파라다이스카지노']",https://cdn.visitkorea.or.kr/img/call?cmd=VIEW&id=02ce504d-ea76-4f56-b1b3-8d9cee8aa024&thumb,서울특별시 광진구 워커힐로 177,37.5557741,127.1109118,56.0
566,[북한산 둘레길] 9 마실길,서울 은평구,02-900-8086,"['등산', '등산객', '레포츠', '산림욕', '산책로', '산책코스', '산책하기좋은곳', '자연환경']",https://cdn.visitkorea.or.kr/img/call?cmd=VIEW&id=3d7476d5-3693-4e30-8c4c-7596d8277ff4&thumb,서울특별시 은평구 진관동,37.6413466,126.9421897,57.0
567,세븐럭카지노(강북힐튼점),서울 중구,02-2021-6000,"['레포츠', '서울중구', '세븐럭카지노', '이색체험']",https://cdn.visitkorea.or.kr/img/call?cmd=VIEW&id=fae6e240-da20-4f8b-a4f6-57fa148ea486&thumb,서울특별시 중구 소월로 50,37.5554538,126.9754336,58.0
568,그랜드하얏트 서울 아이스링크,서울 용산구,02-799-8113,"['겨울스포츠', '레포츠', '복합레저스포츠', '스케이트', '스케이트장', '스케이트장']",https://cdn.visitkorea.or.kr/img/call?cmd=VIEW&id=9532bb86-fae1-4194-8466-d53e31cd0b5f&thumb,서울특별시 용산구 소월로 322,37.5390222,126.9958631,59.0
569,[북한산 둘레길] 1 소나무숲길,서울 강북구,02-900-8086,['레포츠'],https://cdn.visitkorea.or.kr/img/call?cmd=VIEW&id=ccac754c-6a55-400b-b013-208caf4f14e0&thumb,서울특별시 강북구 삼양로173길 12,37.6630883,127.01158429999998,60.0
570,한강시민공원 잠원수영장(실외),서울 서초구,02-536-8263,"['레포츠', '아이와함께', '여름피서지', '잠원수영장', '친구와함께', '한강시민공원']",https://cdn.visitkorea.or.kr/img/call?cmd=VIEW&id=ec57b796-28a5-4090-abf1-b91b5396bbb7&thumb,서울특별시 서초구 잠원로 221-124,37.5206865,127.0122724,61.0
571,DMC(디지털미디어시티) 자전거코스,서울 마포구,02-309-7067,"['DMC자전거코스', '디지털미디어시티자전거코스', '레포츠', '수도권', '자전거코스']",https://cdn.visitkorea.or.kr/img/call?cmd=VIEW&id=db15e760-e10e-4f14-993e-5d14448fc92a&thumb,서울특별시 마포구 월드컵북로 366,37.5777446,126.8921565,62.0
572,서울특별시립 보라매청소년수련관,서울 동작구,02-834-72314,"['교육프로그램', '동작구', '레포츠', '보라매청소년수련관', '청소년수련원']",https://cdn.visitkorea.or.kr/img/call?cmd=VIEW&id=1e315188-89ea-42ab-aaf3-a9abb85aa670&thumb,서울특별시 동작구 여의대방로20길 33,37.4932342,126.9197115,63.0
573,KBS스포츠월드,서울 강서구,02-2600-8808,['레포츠'],https://cdn.visitkorea.or.kr/img/call?cmd=VIEW&id=1cd38da5-2fd1-4d68-8532-f35d2e80b5c0&thumb,서울특별시 강서구 공항대로 376,37.55678020000001,126.8476094,64.0
574,종로구시설관리공단 종로구민회관(실내),서울 종로구,02-3672-2530,"['구민회관', '레포츠', '복합문화센터', '실내운동', '종로구']",https://cdn.visitkorea.or.kr/img/call?cmd=VIEW&id=d3045ed6-3e68-4745-95b6-04b418fc4bde&thumb,서울특별시 종로구 지봉로5길 7-5,37.5734636,127.0143719,65.0
575,한강시민공원 잠실수영장(실외),서울 송파구,02-421-2564,"['가족과함께', '레포츠', '아이와함께', '여름피서지', '친구와함께', '한강시민공원']",https://cdn.visitkorea.or.kr/img/call?cmd=VIEW&id=d15ae6e0-5b7a-4391-9437-0a68cfff4d6d&thumb,서울특별시 송파구 한가람로 65,37.5175896,127.0867236,66.0
576,고려대학교 아이스링크,서울 성북구,02-3290-4243,"['고려대학교아이스링크', '레포츠', '실내스케이트장']",https://cdn.visitkorea.or.kr/img/call?cmd=VIEW&id=84d1050c-d2da-4f8d-ae18-e32a3961a68b&thumb,서울특별시 성북구 안암로 145,37.59001170000001,127.0318586,67.0
577,반트(실내수영장),서울 강남구,02-3498-0000,"['레포츠', '서울', '수영장', '실내수영장']",https://cdn.visitkorea.or.kr/img/call?cmd=VIEW&id=336122d1-6707-4e7b-b7fb-076b5315a7f2&thumb,서울특별시 강남구 언주로30길 26,37.4873934,127.0527274,68.0
578,서울특별시립수서청소년수련관,서울 강남구,02-2226-3611,"['강남구', '레포츠', '수서청소년수련관', '청소년수련원']",https://cdn.visitkorea.or.kr/img/call?cmd=VIEW&id=2d09f84a-ea97-4ae2-9617-aa1fd0acb106&thumb,서울특별시 강남구 광평로 144,37.4835336,127.0887371,69.0
579,강남청소년수련관,서울 강남구,02-544-9725,"['강남구', '강남청소년수련관', '레포츠', '청소년수련원']",https://cdn.visitkorea.or.kr/img/call?cmd=VIEW&id=20d58d75-982b-4e54-abd9-33f446b24ceb&thumb,서울특별시 강남구 영동대로131길 26,37.5203984,127.0541271,70.0
580,올림픽유스호스텔,서울 송파구,02-410-2555,"['레포츠', '송파구', '올림픽유스호스텔', '청소년수련원']",https://cdn.visitkorea.or.kr/img/call?cmd=VIEW&id=833b9401-25bf-4170-9c2e-90170a49ced2&thumb,서울특별시 송파구 올림픽로 448,37.5217853,127.1165203,71.0
581,명품 구로 올레길,서울 구로구,02-860-3094,"['가족과함께', '걷기길', '걷기좋은곳', '레포츠', '산책코스', '산책하기좋은곳']",https://cdn.visitkorea.or.kr/img/call?cmd=VIEW&id=ff8e7d56-533a-4e9a-8717-8e87d71141cc&thumb,서울특별시 구로구 중앙로17길 10,37.5094119,126.8575122,72.0
582,[서울둘레길 3코스] 고덕·일자산코스,서울 광진구,02-779-7902,['레포츠'],https://cdn.visitkorea.or.kr/img/call?cmd=VIEW&id=b5a22123-75dc-4370-be1c-93ae450d1046&thumb,서울특별시 광진구 천호대로 813-2,37.54553,127.1041134,73.0
583,문래청소년수련관,서울 영등포구,02-2167-0100,"['레포츠', '복합문화시설', '영등포구', '청소년수련원']",https://cdn.visitkorea.or.kr/img/call?cmd=VIEW&id=843a06db-81f8-42d3-b332-bba8f437d5c7&thumb,서울특별시 영등포구 문래로 110,37.5188211,126.8940158,74.0
584,서울청소년수련관,서울 중구,02-2267-2914,"['교육프로그램', '레포츠', '서울중구', '청소년수련원']",https://cdn.visitkorea.or.kr/img/call?cmd=VIEW&id=978ee87e-50fc-47c7-8c35-5cdbeb729842&thumb,서울특별시 중구 을지로11길 23,37.56742979999999,126.990542,75.0
585,그랜드 워커힐 리버파크(야외수영장),서울 광진구,02-450-4607,"['레포츠', '수영장', '실외', '연인과함께', '워커힐']",https://cdn.visitkorea.or.kr/img/call?cmd=VIEW&id=cf724006-9558-4ef0-8a14-f38ecb9115f9&thumb,서울특별시 광진구 워커힐로 177,37.5557741,127.1109118,76.0
586,서초YMCA 수영장(실내),서울 서초구,02-591-6060,"['레포츠', '서초YMCA수영장', '서초구', '실내수영장']",https://cdn.visitkorea.or.kr/img/call?cmd=VIEW&id=68b6a998-c648-4afa-bf0e-67d5c82275db&thumb,서울특별시 서초구 사평대로 55,37.5068585,127.0215598,77.0
587,정립회관 수영센터(실내),서울 광진구,02-446-1238,"['광진구', '레포츠', '수영장', '스포츠센터']",https://cdn.visitkorea.or.kr/img/call?cmd=VIEW&id=956e203c-894c-4623-a6ec-9e6b6b37c564&thumb,서울특별시 광진구 워커힐로 93,37.5513581,127.0973857,78.0
588,금호스포츠센터,서울 노원구,02-933-1805,"['금호스포츠센터', '레포츠', '수도권', '스포츠']",https://cdn.visitkorea.or.kr/img/call?cmd=VIEW&id=62c69f80-c4e8-4731-9e1f-4023a9b1b16e&thumb,서울특별시 노원구 상계로5길 32,37.6570687,127.0628192,79.0
589,북한산 자락길,서울 성북구,02-2241-3663,"['레포츠', '산림욕', '산책코스', '아이와함께', '트레킹']",https://cdn.visitkorea.or.kr/img/call?cmd=VIEW&id=9dfe550e-eacd-40ce-8db8-4b86a475fcb1&thumb,서울특별시 성북구 솔샘로25가길 8,37.6196747,127.0052212,80.0
590,스킨/스쿠버 다이빙,서울 송파구,02-420-4293,['레포츠'],https://cdn.visitkorea.or.kr/img/call?cmd=VIEW&id=2b525444-cbfc-4dc0-a721-ddbc8fc1d066&thumb,서울특별시 송파구 올림픽로 424,37.5217853,127.1165203,81.0
591,목동청소년수련관,서울 양천구,02-2642-1318,"['교육프로그램', '레포츠', '양천구', '청소년수련원']",https://cdn.visitkorea.or.kr/img/call?cmd=VIEW&id=84e986a5-5067-40ff-883b-7d407d22ca25&thumb,서울특별시 양천구 목동서로 143,37.5306952,126.8754462,82.0
592,서울 YMCA 체육교육부,서울 종로구,02-735-4612,"['YMCA', '레포츠', '종로구', '체육센터']",https://cdn.visitkorea.or.kr/img/call?cmd=VIEW&id=9e9a46b6-2935-424a-b861-b57ac2738524&thumb,서울특별시 종로구 종로 69,37.5706042,126.9852919,83.0
593,어린이회관 눈썰매장,서울 광진구,02-444-6377,"['겨울스포츠', '눈썰매장', '레포츠', '복합레저스포츠', '아이와함께', '어린이회관 눈썰매장']",https://cdn.visitkorea.or.kr/img/call?cmd=VIEW&id=64cc3f56-c6be-4f59-9555-72b6fcb20ece&thumb,서울특별시 광진구 광나루로 441,37.54650039999999,127.0788059,84.0
594,대신샹제리제 휘트니스클럽(실내수영장),서울 강남구,02-554-8844,"['레포츠', '서울', '수영장', '실내수영장', '휘트니스클럽']",https://cdn.visitkorea.or.kr/img/call?cmd=VIEW&id=fb31f454-c865-4b7c-9457-48a90ef9b0a8&thumb,서울특별시 강남구 테헤란로 406,37.5043857,127.0499612,85.0
595,역사문화관광스탬프투어,서울 강북구,02-901-6213,['레포츠'],https://cdn.visitkorea.or.kr/img/call?cmd=VIEW&id=99c5208f-7756-4c9e-ae33-4623144d8eb4&thumb,서울특별시 강북구 4.19로 114(출발지점),37.6396099,127.0256575,86.0
596,목동아이스링크(실내),서울 양천구,02-2649-8454,"['가족과함께', '겨울스포츠', '레포츠', '복합레저스포츠', '스케이트', '스케이트장']",https://cdn.visitkorea.or.kr/img/call?cmd=VIEW&id=2bca11c0-a244-4e8e-ac6a-2103bc1929d5&thumb,서울특별시 양천구 안양천로 939,37.5305809,126.8810483,87.0
597,와우라스포짐 광장점,서울 광진구,02-456-5141,['레포츠'],https://cdn.visitkorea.or.kr/img/call?cmd=VIEW&id=8f31e103-ce22-4234-b9ae-d4d9fcb9ead5&thumb,서울특별시 광진구 아차산로70길 62,37.5406764,127.098826,88.0
598,양천구 둘레길(산림형),서울 양천구,02-2620-3590,"['남녀노소', '둘레길', '레포츠', '산책하기좋은곳', '서울산책', '양천구', '힐링산책']",https://cdn.visitkorea.or.kr/img/call?cmd=VIEW&id=8d33e0c9-4606-4c7c-99a2-2f320d6f306d&thumb,서울특별시 양천구 중앙로17길 21,37.509617,126.8554358,89.0
599,[북한산 둘레길] 2 순례길,서울 강북구,02-900-8086,['레포츠'],https://cdn.visitkorea.or.kr/img/call?cmd=VIEW&id=3d263984-30a5-4bb8-ac70-8f464e2a232a&thumb,서울특별시 강북구 우이동,37.6479697,127.01188059999998,90.0
600,가디언 클럽바다,서울 강동구,02-474-4712,"['레포츠', '렌탈점', '수상레포츠']",https://cdn.visitkorea.or.kr/img/call?cmd=VIEW&id=undefined&thumb,서울특별시 강동구 성내동 449번지,37.523327,127.1317035,91.0
601,관악청소년회관,서울 관악구,02-876-0636,['레포츠'],https://cdn.visitkorea.or.kr/img/call?cmd=VIEW&id=2930a875-1d7f-4091-930b-028ae62bfd63&thumb,서울특별시 관악구 신림로23길 17,37.4701424,126.93522079999998,92.0
602,올림픽기념국민생활관,서울 종로구,02-745-6701,"['레포츠', '문화체육시설', '올림픽기념국민생활관', '종로구']",https://cdn.visitkorea.or.kr/img/call?cmd=VIEW&id=8f9d0582-27c2-42ac-b3ea-9ab91d0b5179&thumb,서울특별시 종로구 성균관로 91,37.590434,126.9987747,93.0
603,[북악하늘길 3산책로] 북카페~숲속다리,서울 성북구,02-2241-3683,"['걷기길', '레포츠', '부모님과함께', '산책로', '산책코스', '산책하기좋은곳', '자연환경']",https://cdn.visitkorea.or.kr/img/call?cmd=VIEW&id=e3983566-290b-4250-9510-bab40778e073&thumb,서울특별시 성북구 성북동,37.5909485,127.003439,94.0
604,[북한산 둘레길] 4 솔샘길,서울 성북구,02-900-8086,['레포츠'],https://cdn.visitkorea.or.kr/img/call?cmd=VIEW&id=ccdf89b4-0240-4a54-8a92-c75de8888b26&thumb,서울특별시 성북구 솔샘로25길 121-50,37.6209249,127.0068708,95.0
605,관악구민운동장,서울 관악구,02-2081-2600,['레포츠'],https://cdn.visitkorea.or.kr/img/call?cmd=VIEW&id=dde5d605-6e76-495b-946d-c97cc2fcf3d8&thumb,서울특별시 관악구 낙성대로 40,37.47532020000001,126.9569753,96.0
606,사당청소년문화의집,서울 동작구,02-595-0231,['레포츠'],https://cdn.visitkorea.or.kr/img/call?cmd=VIEW&id=e694d54b-cd4e-400c-a4ae-a76a6824c861&thumb,서울특별시 동작구 사당로23길 57-7,37.4862768,126.9739412,97.0
607,난지한강공원 MTB코스장,서울 마포구,02-3780-0611,"['낚시', '낚시터', '난지한강공원', '레포츠', '한강']",https://cdn.visitkorea.or.kr/img/call?cmd=VIEW&id=2252d803-9b8b-4db9-a844-9a48fecf5da8&thumb,서울특별시 마포구 한강난지로 162,37.5661708,126.8763463,98.0
608,구로안양천튜빙눈썰매장,서울 구로구,02-948-1937,"['가족과함께', '가족체험', '겨울방학', '겨울방학가볼만곳', '겨울방학여행', '겨울스포츠']",https://cdn.visitkorea.or.kr/img/call?cmd=VIEW&id=f7e65560-9651-4109-a88a-bc3e47854425&thumb,서울특별시 구로구 구로중앙로42길 41,37.5085559,126.8760103,99.0
609,목동사격장,서울 양천구,02-2646-9993,"['데이트', '레포츠', '사격', '사격장', '실내레포츠', '실내운동', '연인과함께', '커플데이트']",https://cdn.visitkorea.or.kr/img/call?cmd=VIEW&id=3eda66ff-829b-4155-ad85-8825794262a4&thumb,서울특별시 양천구 안양천로 939,37.5305809,126.8810483,100.0
610,해밀톤호텔 수영장(실외),서울 용산구,02-3786-6000,"['레포츠', '서울호텔', '수영장', '야외수영장', '호텔', '호텔수영장']",https://cdn.visitkorea.or.kr/img/call?cmd=VIEW&id=80a76762-0bbf-4f13-8d71-206ff16a7f2d&thumb,서울특별시 용산구 이태원로 179,37.53473020000001,126.9941284,101.0
611,[북한산 둘레길] 3 흰구름길,서울 강북구,02-900-8086,['레포츠'],https://cdn.visitkorea.or.kr/img/call?cmd=VIEW&id=7601a1c7-6913-4b0b-a347-a1b5f7f45bd4&thumb,서울특별시 강북구 수유동,37.6387326,127.00891029999998,102.0
612,양천구 둘레길(도심형),서울 양천구,02-2620-3590,"['도심공원', '도심여행', '둘레길', '레포츠', '산책코스', '양천구', '휴식공간', '휴식하기좋은곳']",https://cdn.visitkorea.or.kr/img/call?cmd=VIEW&id=a8c38532-c2f7-406b-a614-7adb42feaf50&thumb,서울특별시 양천구 목동중앙로 143,37.5411913,126.8755307,103.0
613,강동청소년회관,서울 강동구,02-3426-6211,"['강동청소년회관', '레포츠', '문화시설', '수도권']",https://cdn.visitkorea.or.kr/img/call?cmd=VIEW&id=73cc277a-3a4c-471b-9352-06f9a3acccbb&thumb,서울특별시 강동구 양재대로138길 41,37.5496994,127.1462174,104.0
614,그랜드워커힐 피트니스센터,서울 광진구,02-450-4607,"['광진구', '그랜드워커힐', '그랜드워커힐피트니스센터', '레포츠', '피트니스센터']",https://cdn.visitkorea.or.kr/img/call?cmd=VIEW&id=9e447c96-f674-4d66-8cde-96803835ba02&thumb,서울특별시 광진구 워커힐로 177,37.5557741,127.1109118,105.0
615,안양천 물놀이장,서울 구로구,02-860-2546,['레포츠'],https://cdn.visitkorea.or.kr/img/call?cmd=VIEW&id=40a32712-bcb4-4ef4-8d61-bf5a980c6bb7&thumb,서울 양천구 신정동 871-23,37.5060638,126.8726285,106.0
616,[북한산 둘레길] 10 내시묘역길,서울 은평구,02-900-8086,['레포츠'],https://cdn.visitkorea.or.kr/img/call?cmd=VIEW&id=cd08fec7-3adb-4a36-ac2e-a392e7f9141c&thumb,서울특별시 은평구 진관동,37.6413466,126.9421897,107.0
617,강서청소년회관,서울 강서구,02-3664-2456,['레포츠'],https://cdn.visitkorea.or.kr/img/call?cmd=VIEW&id=4bc65934-bae4-45dd-8ef8-f70d552003cf&thumb,서울특별시 강서구 공항대로42길 23-19,37.5562039,126.8440543,108.0
618,[북한산 둘레길] 5 명상길,서울 성북구,02-900-8086,['레포츠'],https://cdn.visitkorea.or.kr/img/call?cmd=VIEW&id=7bf15ae1-9cfd-4091-b77b-f819e9e7bb4b&thumb,서울특별시 성북구 정릉4동,37.6133078,127.006965,109.0
619,날개클럽,서울 마포구,02-927-0206,"['레포츠', '마포구', '이색체험', '항공스포츠']",https://cdn.visitkorea.or.kr/img/call?cmd=VIEW&id=null&thumb,서울특별시 서대문구 세검정로4길 24,37.5940951,126.9494563,110.0
620,롯데호텔 실내수영장,서울 중구,02-317-7305,['레포츠'],https://cdn.visitkorea.or.kr/img/call?cmd=VIEW&id=5625c87c-90da-4818-8087-bcf8d10993e4&thumb,서울특별시 중구 을지로 30,37.5649903,126.981369,111.0
621,호텔롯데 휘트니스클럽,서울 중구,02-317-7305,"['레포츠', '롯데호텔', '서울중구', '헬스클럽']",https://cdn.visitkorea.or.kr/img/call?cmd=VIEW&id=f41ec49c-8fb8-48ef-8706-58c3779f7c62&thumb,서울특별시 중구 을지로 30,37.5649903,126.981369,112.0
622,골든블루마리나,서울 서초구,02-599-0900,"['골든블루마리나', '레포츠', '세빛섬', '요트체험']",https://cdn.visitkorea.or.kr/img/call?cmd=VIEW&id=0067bf81-b981-41fd-8c47-3ec068022154&thumb,서울특별시 서초구 올림픽대로 2085-14,37.5113719,126.9946884,113.0
623,스타필드 코엑스몰,서울 강남구,02-6002-5300,"['19_20한국관광100선', '강남', '서울', '쇼핑', '수도권', '수도권', '스타필드코엑스몰']",https://cdn.visitkorea.or.kr/img/call?cmd=VIEW&id=58e64298-dced-4a8c-8b36-03d8a212f972&thumb,서울특별시 강남구 영동대로 513,37.51182391,127.059159,
624,대림중앙시장,서울 영등포구,02-833-8113,"['가족여행', '나들이', '나홀로여행', '대림중앙시장', '데이트코스', '먹거리', '서울근교여행']",https://cdn.visitkorea.or.kr/img/call?cmd=VIEW&id=dbd056b8-c526-46c3-9d28-ed6826461ac4&thumb,서울특별시 영등포구 디지털로37나길 21,37.49160806,126.8999422,
625,동대문 종합시장·동대문 쇼핑타운,서울 종로구,02-2262-0114,"['동대문', '동대문쇼핑타운', '동대문종합시장', '쇼핑']",https://cdn.visitkorea.or.kr/img/call?cmd=VIEW&id=eefb87e6-ae4b-4ec5-8cec-5db810db7f46&thumb,서울특별시 종로구 종로 266,37.57070649,127.0073287,
626,남대문시장,서울 중구,1330,"['가족여행', '나들이', '나홀로여행', '남대문시장', '데이트코스', '도심여행', '먹거리']",https://cdn.visitkorea.or.kr/img/call?cmd=VIEW&id=37a0def9-8dc8-4595-b68d-20458d902dcc&thumb,서울특별시 중구 남대문시장4길 21,37.55918636,126.9776537,
627,광장시장,서울 종로구,02-2267-0291 02-2272-0967,"['가족여행', '광장시장', '나들이', '나홀로여행', '데이트코스', '도심여행', '먹거리']",https://cdn.visitkorea.or.kr/img/call?cmd=VIEW&id=f577a5c8-9351-46b2-b109-c26dbe54a551&thumb,서울특별시 종로구 창경궁로 88,37.57011251,126.9997072,
628,서울풍물시장,서울 동대문구,02-2232-3367,"['가족여행', '나들이', '나홀로여행', '데이트코스', '서울풍물시장', '쇼핑', '수도권']",https://cdn.visitkorea.or.kr/img/call?cmd=VIEW&id=9c455fd8-352d-4b99-8ab3-33e4045a870c&thumb,서울특별시 동대문구 천호대로4길 21,37.57271319,127.0255029,
629,서울책보고,서울 송파구,02-6951-4979,"['송파쇼핑', '쇼핑', '헌책', '헌책방']",https://cdn.visitkorea.or.kr/img/call?cmd=VIEW&id=8b7204b2-946b-4c73-969d-9e07da2ab173&thumb,서울특별시 송파구 오금로 1,37.5217861,127.1032265,
630,동진시장,서울 마포구,02-325-9559,"['가족여행', '나들이', '나홀로여행', '데이트코스', '동진시장', '먹거리', '서울근교여행']",https://cdn.visitkorea.or.kr/img/call?cmd=VIEW&id=9823d9cb-0cae-4f24-beb8-acf1297adc51&thumb,서울특별시 마포구 성미산로 198,37.56237655,126.9267634,
631,경동시장,서울 동대문구,02-967-8721,"['가족여행', '나들이', '나홀로여행', '데이트코스', '먹거리', '서울경동시장', '쇼핑']",https://cdn.visitkorea.or.kr/img/call?cmd=VIEW&id=78f85e3c-949d-438f-be84-070ab7c13365&thumb,서울특별시 동대문구 왕산로 147,37.57878423,127.0396587,
632,동대문종합시장 악세사리상가,서울 종로구,02-2262-0114,"['동대문종합시장', '동대문종합시장악세사리상가', '쇼핑', '수도권']",https://cdn.visitkorea.or.kr/img/call?cmd=VIEW&id=37ab6689-02ad-4803-8cfd-e795c003e53f&thumb,서울특별시 종로구 종로 266,37.57070649,127.0073287,
633,서울 평화시장,서울 중구,02-2265-3531,"['가족여행', '나들이', '나홀로여행', '데이트코스', '도심여행', '먹거리', '서울평화시장']",https://cdn.visitkorea.or.kr/img/call?cmd=VIEW&id=992bad93-c18f-4284-87cf-ff49a847c629&thumb,서울특별시 중구 청계천로 274,37.56942586,127.0080476,
634,동대문종합시장 한복상가,서울 종로구,02-2262-0114,['쇼핑'],https://cdn.visitkorea.or.kr/img/call?cmd=VIEW&id=e23e80bf-6e9a-4abf-88c5-cac4ef121ac8&thumb,서울특별시 종로구 종로 266,37.57070649,127.0073287,
635,통인시장,서울 종로구,02-722-0911,"['가족여행', '나들이', '나홀로여행', '데이트코스', '도시락카페', '먹거리', '서울근교여행']",https://cdn.visitkorea.or.kr/img/call?cmd=VIEW&id=c1b3e320-0a2f-464f-b3fb-c37887872461&thumb,서울특별시 종로구 자하문로15길 18,37.580767,126.9699476,
636,IFC몰,서울 영등포구,02-6137-5000,"['IFC몰', '복합쇼핑몰', '쇼핑', '수도권', '연중무휴', '영등포']",https://cdn.visitkorea.or.kr/img/call?cmd=VIEW&id=f90be4f3-47cb-4b33-b8b5-18c935e80831&thumb,서울특별시 영등포구 국제금융로 10,37.52517752,126.9248767,
637,숭례문(남대문) 수입상가,서울 중구,02-753-2805,"['남대문', '쇼핑', '수입잡화', '음향기기', '카메라']",https://cdn.visitkorea.or.kr/img/call?cmd=VIEW&id=5a16102d-1ff8-493f-95f1-61c188af0ef2&thumb,서울특별시 중구 소월로 3,37.55937231,126.97620259999998,
638,한국다원호간보 [한국관광 품질인증/Korea Quality],서울 마포구,02-325-3893,"['서울추천쇼핑', '쇼핑', '수도권', '연중무휴', '한국관광품질인증', '한국관광품질인증업소']",https://cdn.visitkorea.or.kr/img/call?cmd=VIEW&id=61e90f7f-ae10-440e-8223-8d873898562c&thumb,서울특별시 마포구 방울내로 83,37.56117831,126.9042147,
639,서울 약령시장,서울 동대문구,02-969-4793,"['가족여행', '나들이', '나홀로여행', '데이트코스', '도심여행', '먹거리', '서울약령시장']",https://cdn.visitkorea.or.kr/img/call?cmd=VIEW&id=3dd617ce-d1ac-460d-ae0b-1c6eaf504822&thumb,서울특별시 동대문구 약령중앙로 10,37.57910781,127.0370603,
640,망원시장,서울 마포구,02-335-3591,"['가족여행', '나들이', '나홀로여행', '데이트코스', '망원시장', '먹거리', '쇼핑']",https://cdn.visitkorea.or.kr/img/call?cmd=VIEW&id=51c060b1-4c51-4c11-a46b-a02569359828&thumb,서울특별시 마포구 포은로8길 14,37.55624,126.905628,
641,가든파이브 (Garden5),서울 송파구,02-2157-0100,"['문화복합단지', '문화쇼핑', '문화특구', '쇼핑']",https://cdn.visitkorea.or.kr/img/call?cmd=VIEW&id=87e9fc3b-af6c-458c-a75d-a4dc113175e5&thumb,서울특별시 송파구 충민로 66,37.47761484,127.1249618,
642,아크앤북 (ARC N BOOK),서울 중구,070-8822-4728,"['라이프스타일샵', '서점', '쇼핑', '중구쇼핑', '책']",https://cdn.visitkorea.or.kr/img/call?cmd=VIEW&id=b7168cdd-cc53-49be-b92f-7db23d896580&thumb,서울특별시 중구 을지로 29,37.56648845,126.981025,
643,가락시장(가락농수산물 도매시장),서울 송파구,02-3435-1000,"['가락농수산물도매시장', '가락시장', '가족여행', '나들이', '나홀로여행', '데이트코스']",https://cdn.visitkorea.or.kr/img/call?cmd=VIEW&id=f0bf3247-0a19-4119-9aae-0e1b2ed91eb9&thumb,서울특별시 송파구 양재대로 932,37.49453769,127.1087136,
644,화창토산주식회사(한국고려인삼) [한국관광 품질인증/Korea Quality],서울 서대문구,02-337-3981,"['서울추천쇼핑', '쇼핑', '한국고려인삼', '한국관광품질인증', '한국관광품질인증업소']",https://cdn.visitkorea.or.kr/img/call?cmd=VIEW&id=06080f94-ac47-4219-b387-1363ea437dc3&thumb,서울특별시 서대문구 연희로 212,37.57597262,126.9358226,
645,종로3가 귀금속 전문상가,서울 종로구,,"['귀금속', '귀금속전문상가', '세공업소', '쇼핑', '주얼리']",https://cdn.visitkorea.or.kr/img/call?cmd=VIEW&id=6bf9f342-1685-42a6-bd87-4f0decd9b70d&thumb,서울특별시 종로구 종로3가,37.57038842,126.9923298,
646,구로 중앙유통단지,서울 구로구,02-2625-2631,"['도소매', '산업용품', '쇼핑', '저렴한가격']",https://cdn.visitkorea.or.kr/img/call?cmd=VIEW&id=a680c95d-9aef-4a84-b631-2f46f684c525&thumb,서울특별시 구로구 경인로53길 15,37.5020321,126.8761173,
647,고투몰(강남터미널 지하도상가),서울 서초구,02-535-8182,"['고속버스터미널', '서울', '쇼핑']",https://cdn.visitkorea.or.kr/img/call?cmd=VIEW&id=a370e18e-bcf4-45ae-8304-a9b766bd83c9&thumb,서울특별시 서초구 신반포로 지하 200,37.50622031,127.0050517,
648,노량진수산물도매시장,서울 동작구,02-2254-8000,"['가족여행', '나들이', '나홀로여행', '노량진수산물도매시장', '도심여행', '먹거리']",https://cdn.visitkorea.or.kr/img/call?cmd=VIEW&id=59909ecf-ff66-46cb-a253-aa0213ed3fcd&thumb,서울특별시 동작구 노들로 674,37.51482369,126.937976,
649,롯데쇼핑 롯데아울렛 서울역점[한국관광 품질인증/Korea Quality],서울 용산구,02-6965-2500,"['롯데아울렛서울역점', '서울추천쇼핑', '쇼핑', '우수쇼핑', '한국관광품질인증']",https://cdn.visitkorea.or.kr/img/call?cmd=VIEW&id=a062a58b-da56-4dd1-b102-4e0636c3a84d&thumb,서울특별시 용산구 한강대로 405,37.55472785,126.9695263,
650,이태원시장,서울 용산구,02-794-5682,"['가족여행', '사계절', '쇼핑', '수도권', '시장맛집', '아이와함께', '이태원시장']",https://cdn.visitkorea.or.kr/img/call?cmd=VIEW&id=d3eee490-9623-416c-96af-f72f3a3d2195&thumb,서울특별시 용산구 이태원로14길 6,37.53381836,126.99004840000002,
651,고양이책방 슈뢰딩거,서울 종로구,070-5123-2801,"['마로니에공원', '문구', '쇼핑', '책방']",https://cdn.visitkorea.or.kr/img/call?cmd=VIEW&id=4f8925ac-656b-48dc-8102-b3614034093f&thumb,서울특별시 종로구 낙산길 19,37.58054788,127.0055969,
652,커먼그라운드,서울 광진구,02-467-2747,"['디자이너샵', '쇼핑', '주말마켓', '컨데이너쇼핑몰', '편집샵', '푸드트럭']",https://cdn.visitkorea.or.kr/img/call?cmd=VIEW&id=ffc25e6e-a06c-493c-84f9-5c7089e701a2&thumb,서울특별시 광진구 아차산로 200,37.54105663,127.0656692,
653,스토리지북앤필름,서울 용산구,070-5103-9975,"['남녀노소', '독립출판물전문서점', '독서여행', '동네책방', '소설책', '쇼핑', '스토리지북앤필름']",https://cdn.visitkorea.or.kr/img/call?cmd=VIEW&id=38fc8ba0-b4da-4f53-bc67-8de9a40b6ada&thumb,서울특별시 용산구 신흥로 115-1,37.54474562,126.9831368,
654,롯데마트 (서울양평점),서울 영등포구,02-450-2500,"['롯데마트', '쇼핑', '어반포레스트', '영등포구', '하이마트']",https://cdn.visitkorea.or.kr/img/call?cmd=VIEW&id=01c08205-167b-4273-b47b-955110c25b05&thumb,서울특별시 영등포구 선유로 138,37.52606589,126.891572,
655,광장시장 한복매장,서울 종로구,02-2267-0291,"['광장시장', '광장시장한복매장', '쇼핑', '수도권', '연중무휴', '한복매장']",https://cdn.visitkorea.or.kr/img/call?cmd=VIEW&id=051e0e70-d6fc-4c50-8251-8ab224446eda&thumb,서울특별시 종로구 창경궁로 88,37.57011251,126.9997072,
656,서울 중부시장,서울 중구,02-2267-5617,"['가족여행', '나들이', '나홀로여행', '데이트코스', '도심여행', '먹거리', '서울중부시장']",https://cdn.visitkorea.or.kr/img/call?cmd=VIEW&id=9a2f2ab6-534e-4026-8e9c-be56734c666b&thumb,서울특별시 중구 을지로36길 35,37.56506341,127.0019051,
657,퇴계로 오토바이상가,서울 중구,,"['도매상가', '쇼핑', '액세서리', '오토바이']",https://cdn.visitkorea.or.kr/img/call?cmd=VIEW&id=41d76e0d-d3fb-4943-9d2c-e2f41342a7ad&thumb,서울특별시 중구 충무로4가,37.56226515,126.9943272,
658,남대문 안경상가,서울 중구,02-753-2805,"['남대문시장', '쇼핑', '안경', '안경도소매점']",https://cdn.visitkorea.or.kr/img/call?cmd=VIEW&id=8d6f79c4-0011-459d-bb7e-be0b7f0e688f&thumb,서울특별시 중구 남대문시장4길,37.55900185,126.97725590000002,
659,언더스탠드에비뉴,서울 성동구,02-725-5526,"['복합문화공간', '쇼핑', '일자리창출플랫폼', '창업플랫폼', '편집숍', '프리마켓']",https://cdn.visitkorea.or.kr/img/call?cmd=VIEW&id=77da1325-8d76-45d5-a9f8-c426a165fca6&thumb,서울특별시 성동구 왕십리로 63,37.5436228,127.0435859,
660,방산 종합시장,서울 중구,02-2268-6691,"['가족여행', '나홀로여행', '데이트코스', '먹거리', '방산종합시장', '쇼핑', '수도권']",https://cdn.visitkorea.or.kr/img/call?cmd=VIEW&id=9bb17f5a-b436-4e2c-bd6a-b21c3b34da26&thumb,서울특별시 중구 동호로37길 20,37.56872417,127.0008056,
661,인사동 고미술거리,서울 종로구,02-732-2235,"['서울여행', '쇼핑', '수도권', '인사동고미술거리']",https://cdn.visitkorea.or.kr/img/call?cmd=VIEW&id=72cf4dee-3338-4674-92cf-4e72d912a95e&thumb,서울특별시 종로구 인사동길 29,37.57324866,126.9858159,
662,홍대앞 희망시장,서울 마포구,070-4411-4865,"['문화예술', '쇼핑', '수공예', '수도권', '홍대앞희망시장']",https://cdn.visitkorea.or.kr/img/call?cmd=VIEW&id=53d73c6f-7c1b-4f3e-9615-401647d8d85f&thumb,서울특별시 마포구 와우산로21길 19-3,37.5521827,126.922984,
663,롯데백화점(본점),서울 중구,02-772-3007,"['롯데백화점', '롯데백화점본점', '복합쇼핑몰', '서울추천쇼핑', '쇼핑', '수도권']",https://cdn.visitkorea.or.kr/img/call?cmd=VIEW&id=363ee957-98d1-4c57-b75b-33c4b43fe233&thumb,서울특별시 중구 남대문로 81,37.5647299,126.9817304,
664,더 비 (The B),서울 강남구,02-542-5934,"['독특한디자인', '쇼핑', '인사동', '한옥인테리어']",https://cdn.visitkorea.or.kr/img/call?cmd=VIEW&id=c6631649-7f72-4c3e-8c1c-17574c4e69cd&thumb,서울특별시 종로구 인사동길 44,37.57426477,126.98487659999998,
665,청하고려인삼 [한국관광 품질인증/Korea Quality],서울 종로구,02-395-1688,"['서울추천쇼핑', '쇼핑', '청하고려인삼', '한국관광품질인증', '한국관광품질인증업소']",https://cdn.visitkorea.or.kr/img/call?cmd=VIEW&id=4ba4e89a-5a2e-45e7-b9e6-63175fb3b38b&thumb,서울특별시 종로구 자하문로 280,37.5986494,126.9616826,
666,홍대 프리마켓,서울 마포구,02-325-8553,"['가족여행', '나들이', '나홀로여행', '데이트코스', '먹거리', '쇼핑', '수도권', '시장맛집']",https://cdn.visitkorea.or.kr/img/call?cmd=VIEW&id=ae426296-9356-4275-96b0-e046cdc322eb&thumb,서울특별시 마포구 와우산로21길 19-3,37.5521827,126.922984,
667,세운전자상가(세운전자플라자),서울 종로구,02-2271-2344,"['가전제품', '쇼핑', '전자부품', '컴퓨터']",https://cdn.visitkorea.or.kr/img/call?cmd=VIEW&id=32f61e53-96c2-48b1-9977-b7d473b5e45c&thumb,서울특별시 종로구 청계천로 159,37.56928143,126.9952397,
668,황학동 벼룩시장 (도깨비시장 / 만물시장),서울 중구,,"['나들이', '나홀로여행', '데이트코스', '도깨비시장', '만물시장', '벼룩시장', '쇼핑']",https://cdn.visitkorea.or.kr/img/call?cmd=VIEW&id=79c7dfb4-0d89-4deb-8d42-378bd78b1bbc&thumb,서울특별시 중구 마장로5길 11-7,37.56918219,127.01814240000002,
669,카포 풋볼 스토어 [한국관광 품질인증/Korea Quality],서울 중구,02-2237-8777,"['서울추천쇼핑', '쇼핑', '카포상사', '한국관광품질인증', '한국관광품질인증업소']",https://cdn.visitkorea.or.kr/img/call?cmd=VIEW&id=4031ef5d-2708-4e78-b117-ec99aaa5e41c&thumb,서울특별시 중구 을지로 282,37.56536156,127.0092314,
670,국제자수원 3호점,서울 종로구,02-723-0830,"['가족여행', '국제자수원', '기념품판매', '나들이', '나홀로여행', '데이트코스']",https://cdn.visitkorea.or.kr/img/call?cmd=VIEW&id=d5463da8-9f6a-4768-bd5d-793b7466c05c&thumb,서울특별시 종로구 인사동길 41,37.57395229,126.9847624,
671,서울 광희시장,서울 중구,02-2232-2882,"['가족여행', '나들이', '나홀로여행', '데이트코스', '도심여행', '먹거리', '서울광희시장']",https://cdn.visitkorea.or.kr/img/call?cmd=VIEW&id=9d355fec-3c2e-437f-b323-1ba8a71d1a15&thumb,서울특별시 중구 마장로1길 21,37.56867293,127.0119155,
672,아트코리아[한국관광 품질인증/Korea Quality],서울 종로구,02-394-5551,"['서울추천쇼핑', '쇼핑', '아트코리아', '한국관광품질인증', '한국관광품질인증업소']",https://cdn.visitkorea.or.kr/img/call?cmd=VIEW&id=5a780e4a-1505-4e80-89af-bc37ca914260&thumb,서울특별시 종로구 자하문로 231,37.59470282,126.9632026,
673,남대문인삼시장,서울 중구,02-752-1012,"['가족여행', '나들이', '나홀로여행', '남대문인삼시장', '데이트코스', '도심여행']",https://cdn.visitkorea.or.kr/img/call?cmd=VIEW&id=2aa34ae8-f26f-43de-a5f5-351e09127c45&thumb,서울특별시 중구 남대문시장길 25-8,37.56047962,126.9774805,
674,세인트제임스 서울[한국관광 품질인증/Korea Quality],서울 강남구,02-543-4628,"['서울추천쇼핑', '세인트제임스서울', '쇼핑', '한국관광품질인증', '한국관광품질인증업소']",https://cdn.visitkorea.or.kr/img/call?cmd=VIEW&id=af6fadb6-be9c-4587-b9c7-43e0d79667c6&thumb,서울특별시 강남구 논현로175길 94,37.52319687,127.0216431,
675,마리오아울렛,서울 금천구,02-2109-7000,"['마리오아울렛', '쇼핑', '수도권', '연인과함께', '친구와함께']",https://cdn.visitkorea.or.kr/img/call?cmd=VIEW&id=1967dc20-da81-4724-9083-f945bfc4d9d4&thumb,서울특별시 금천구 디지털로9길 23,37.47872057,126.8864768,
676,고속터미널 꽃도매상가,서울 서초구,02-535-2118,"['꽃', '꽃도매상가', '쇼핑', '원예전문점']",https://cdn.visitkorea.or.kr/img/call?cmd=VIEW&id=39a8baa8-befa-4d71-beb0-cb6212377f4f&thumb,서울특별시 서초구 신반포로 194,37.50643574,127.0068344,
677,낙원 악기상가,서울 종로구,1599-1968,"['낙원악기상가', '쇼핑', '수도권', '아이와함께', '악기상가', '이색체험', '친구와함께']",https://cdn.visitkorea.or.kr/img/call?cmd=VIEW&id=9a23c247-6cf5-4419-b511-23543a9a0de7&thumb,서울특별시 종로구 삼일대로 428,37.57276352,126.9879025,
678,타임스퀘어,서울 영등포구,02-2638-2000,"['랜드마크', '문화공간', '복합쇼핑몰', '생태공원', '쇼핑']",https://cdn.visitkorea.or.kr/img/call?cmd=VIEW&id=a9b06652-cf39-4aeb-b953-9a6ef82ea060&thumb,서울특별시 영등포구 영중로 15,37.51723326,126.903716,
679,다비치안경 (명동점),서울 중구,02-752-1074,"['브랜드', '쇼핑', '안경', '안경점', '외국인친구에게추천', '체인점']",https://cdn.visitkorea.or.kr/img/call?cmd=VIEW&id=cd1dbd28-1d29-489e-89ef-5d8609ce860a&thumb,서울특별시 중구 소공로 62,37.56084641,126.9821882,
680,W몰(W-MALL),서울 금천구,02-2081-0114,"['금천구', '복합공간', '복합쇼핑몰', '서울쇼핑', '쇼핑', '유명브랜드']",https://cdn.visitkorea.or.kr/img/call?cmd=VIEW&id=cdd0e556-6f06-4b1f-b8ac-cb0a7eb7f954&thumb,서울특별시 금천구 디지털로 188,37.47732723,126.88767620000002,
681,문정동로데오거리,서울 송파구,02-400-1633,"['단체쇼핑', '문화의거리', '쇼핑', '외국인이많이찾는', '축제']",https://cdn.visitkorea.or.kr/img/call?cmd=VIEW&id=e1627cfd-5384-429b-bec7-64b4fdeef2a4&thumb,서울특별시 송파구 동남로4길 10,37.48912076,127.1238969,
682,금강제화 영등포본점,서울 영등포구,02-2678-1052,"['멀티샵', '쇼핑', '신발', '정장화', '핸드백']",https://cdn.visitkorea.or.kr/img/call?cmd=VIEW&id=2b260804-5f31-4226-a280-36b9cd5394fd&thumb,서울특별시 영등포구 영중로 18,37.51798562,126.9062154,
683,쉭앤칙 (Chic And Chick),서울 강남구,02-2633-0120,"['미용제품', '쇼핑', '자연원료', '천연원로']",https://cdn.visitkorea.or.kr/img/call?cmd=VIEW&id=de10352e-120a-47a6-842c-db339c5e2302&thumb,서울특별시 강남구 강남대로162길 41-19,37.52193903,127.0208327,
684,양재 양곡도매시장,서울 서초구,02-3435-0598,"['가족여행', '나홀로여행', '먹거리', '서울근교여행', '쇼핑', '수도권', '아이와함께']",https://cdn.visitkorea.or.kr/img/call?cmd=VIEW&id=fe91c07e-cb6d-4fb1-b362-2aa69152fb80&thumb,서울특별시 서초구 양재대로12길 36,37.45868509,127.0366377,
685,핫트랙스 (광화문점),서울 종로구,02-732-9961,"['기프트아이템', '문구', '복합문화쇼핑공간', '쇼핑']",https://cdn.visitkorea.or.kr/img/call?cmd=VIEW&id=46cc6171-8501-4950-a31e-2583ce28b75d&thumb,서울특별시 종로구 종로 1,37.57305391,127.0165904,
686,밀리오레 (동대문점),서울 중구,02-3393-0293,['쇼핑'],https://cdn.visitkorea.or.kr/img/call?cmd=VIEW&id=5c226d3f-af3d-4ce4-b077-48be4785764b&thumb,서울특별시 중구 장충단로 263,37.56811569,127.0084727,
687,에뛰드하우스 명동충무로점 [한국관광 품질인증/Korea Quality],서울 중구,02-777-1704,"['서울추천쇼핑', '쇼핑', '에뛰드하우스명동충무로', '우수쇼핑', '한국관광품질인증']",https://cdn.visitkorea.or.kr/img/call?cmd=VIEW&id=5a4bcf16-9c6e-4093-85f3-b7dd756cdb5c&thumb,서울특별시 중구 명동8나길 24-1,37.56145496,126.9835901,
688,을지로 철제가구거리,서울 중구,02-120,"['가구', '가구점', '쇼핑', '철제가구']",https://cdn.visitkorea.or.kr/img/call?cmd=VIEW&id=d2c6421a-c785-4450-8f57-7a9f0dc93433&thumb,서울특별시 중구 을지로4가,37.56649276,126.9987549,
689,서울 중앙시장,서울 중구,02-2232-9559,"['쇼핑', '예술가', '전통시장', '중앙시장']",https://cdn.visitkorea.or.kr/img/call?cmd=VIEW&id=f0eb1f5b-c08b-4204-8952-d83d6682de2f&thumb,서울특별시 중구 퇴계로85길 22,37.56679285,127.0197886,
690,스토리 (Stori),서울 강서구,02-735-7101,"['가방', '디자이너샵', '쇼핑', '수공예']",https://cdn.visitkorea.or.kr/img/call?cmd=VIEW&id=02d2b5ae-6c33-498e-a4c2-671e4d419988&thumb,서울특별시 강서구 허준로 217,37.56096438,126.8628898,
691,청계5가 가방도매상가 / 청오가방상가,서울 종로구,02-2148-1114,"['가방도매상가', '가방상가', '쇼핑', '종로구']",https://cdn.visitkorea.or.kr/img/call?cmd=VIEW&id=4bfab61e-a936-4351-ba8f-fe643da1d46d&thumb,서울특별시 종로구 청계천로 229,37.5701341,127.003025,
692,삼익패션타운,서울 중구,1566-4578,"['관광특구', '남대문시장', '쇼핑', '아동복', '패션']",https://cdn.visitkorea.or.kr/img/call?cmd=VIEW&id=c0f900a4-ca5a-48a3-acc2-43a23c51526c&thumb,서울특별시 중구 남대문시장8길 7,37.56043529,126.9789566,
693,저집 [한국관광 품질인증/Korea Quality],서울 종로구,02-3417-0119,"['서울추천쇼핑', '쇼핑', '저집', '한국관광품질인증', '한국관광품질인증업소']",https://cdn.visitkorea.or.kr/img/call?cmd=VIEW&id=c5c52044-fd13-44a8-ac06-6142620e1bea&thumb,서울특별시 종로구 창의문로 142-1,37.59291459,126.9648801,
694,한국인삼공사 정관장 명동본점 [한국관광 품질인증/Korea Quality],서울 중구,02-318-2304,"['서울추천쇼핑', '쇼핑', '정관장명동본점', '한국관광품질인증', '한국관광품질인증업소']",https://cdn.visitkorea.or.kr/img/call?cmd=VIEW&id=d1e257e5-f3ac-495a-a782-de8a7f8a3fd6&thumb,서울특별시 중구 남대문로 52-1,37.56209204,126.9816465,
695,라바타운,서울 종로구,070-4609-6492,"['larva', '도심여행', '라바', '서울가볼만한곳', '서울여행', '쇼핑', '수도권', '아이와함께']",https://cdn.visitkorea.or.kr/img/call?cmd=VIEW&id=5e95c236-9353-45ec-94dd-2ae94aebe993&thumb,서울특별시 종로구 경희궁1길 1,37.5707143,126.9716086,
696,파르나스몰,서울 강남구,02-559-7089,"['강남', '그랜드인터콘티넨탈호텔', '백화점', '쇼핑', '쇼핑몰']",https://cdn.visitkorea.or.kr/img/call?cmd=VIEW&id=8e95c4f4-0d04-48c4-89c4-6dc5677f280b&thumb,서울특별시 강남구 테헤란로 521,37.50919169,127.06080690000002,
697,이바돔 (아이파크몰점),서울 용산구,02-2012-3315,"['생활인테리어', '서울용산구', '쇼핑', '전통칠기']",https://cdn.visitkorea.or.kr/img/call?cmd=VIEW&id=1b237d38-f65b-4c68-8294-4d18315bd2e0&thumb,서울특별시 용산구 한강대로23길 55,37.5297718,126.9647415,
698,삼성모바일스토어 코엑스점,서울 강남구,02-3454-1905,"['강남', '복합서비스매장', '삼성전자', '쇼핑']",https://cdn.visitkorea.or.kr/img/call?cmd=VIEW&id=360d091d-2459-411c-a15b-3a75a76d0f02&thumb,서울특별시 강남구 영동대로 513,37.51182391,127.059159,
699,엔터식스 왕십리역점,서울 성동구,02-2200-6000,"['성동구쇼핑', '쇼핑', '유럽풍', '테마파크형쇼핑몰']",https://cdn.visitkorea.or.kr/img/call?cmd=VIEW&id=028326e2-2b52-4731-b397-9ad32060a522&thumb,서울특별시 성동구 왕십리광장로 17,37.56144175,127.0383942,
700,중곡동 가구거리,서울 광진구,010-5508-0089,"['쇼핑', '수도권', '중곡동가구거리', '특화거리']",https://cdn.visitkorea.or.kr/img/call?cmd=VIEW&id=6203b9b5-477f-41d5-a8dd-0f7a22aa4ce6&thumb,서울특별시 광진구 천호대로,37.55388920000001,127.0857152,
701,종로6가 대학천 책방거리,서울 종로구,02-2265-0972,"['쇼핑', '아동용전집', '종로', '책방거리']",https://cdn.visitkorea.or.kr/img/call?cmd=VIEW&id=b0141eef-4f1e-4b60-aca7-64a53a038ed1&thumb,서울특별시 종로구 종로 258,37.5706569,127.0064795,
702,돌실나이 (인사점),서울 종로구,02-737-2232,"['돌실나이', '생활한복', '쇼핑', '수도권']",https://cdn.visitkorea.or.kr/img/call?cmd=VIEW&id=dbbc1bd8-32ee-4db5-9cc3-04bff209cef1&thumb,서울특별시 종로구 인사동길 35,37.57360458,126.9853614,
703,세브도르 (Cep D'or),서울 강남구,02-552-3131,"['강남', '민속주', '쇼핑', '와인', '위스키', '주류']",https://cdn.visitkorea.or.kr/img/call?cmd=VIEW&id=7e804d42-9359-4f76-b959-5878413bc058&thumb,서울특별시 강남구 언주로 431,37.50194212,127.0427054,
704,디타워 (replace 광화문),서울 종로구,02-2251-8111,['쇼핑'],https://cdn.visitkorea.or.kr/img/call?cmd=VIEW&id=e83bdfa0-74df-4351-9a7a-204eddad5bd8&thumb,서울특별시 종로구 종로3길 17,37.57099586,126.9789145,
705,강남고속터미널 혼수상가,서울 서초구,02-537-4511,"['강남고속터미널혼수상가', '쇼핑', '수도권', '혼수']",https://cdn.visitkorea.or.kr/img/call?cmd=VIEW&id=eb423df8-82b4-4c9f-9f44-327df93232ec&thumb,서울특별시 서초구 신반포로 194,37.50643574,127.0068344,
706,해찬송학김,서울 마포구,02-333-8386,"['가족여행', '기념품판매', '사계절', '쇼핑', '수도권', '아이와함께', '특산물', '해찬송학김']",https://cdn.visitkorea.or.kr/img/call?cmd=VIEW&id=f0a30242-6fd4-4ef6-b2e0-114125411d9b&thumb,서울특별시 마포구 월드컵로3길 76,37.54948959,126.9086605,
707,영풍문고 종로점,서울 종로구,1522-2776,"['문화공간', '삼성모바일샵', '서점', '쇼핑']",https://cdn.visitkorea.or.kr/img/call?cmd=VIEW&id=0830baf2-f231-4967-9172-26dfff8d0dc5&thumb,서울특별시 종로구 청계천로 41,37.56966797,126.9821793,
708,공방시와저,서울 강동구,02-471-7444,"['공예품', '쇼핑', '수저', '식문화공방', '식사예절교육', '체험공방']",https://cdn.visitkorea.or.kr/img/call?cmd=VIEW&id=6618f5e4-fbdd-4bb5-8789-486077912d4a&thumb,서울특별시 강동구 성안로 101,37.53257231,127.1328423,
709,청계 조명기구상가,서울 중구,,"['쇼핑', '전구도매상', '조명', '조명기구']",https://cdn.visitkorea.or.kr/img/call?cmd=VIEW&id=f52f5574-b22f-4a65-a47e-63d36bacd814&thumb,서울특별시 중구 을지로 157,37.5671459,126.9954512,
710,한복더하기,서울 종로구,02-735-5430,"['가격정찰제', '경복궁', '쇼핑', '추억', '추억여행', '한복대여점']",https://cdn.visitkorea.or.kr/img/call?cmd=VIEW&id=bda12f92-7b66-4e5d-aabb-1b7d4942edcd&thumb,서울특별시 종로구 자하문로 7,37.5767148,126.9722068,
711,후아유 (WHO.A.U) 명동점,서울 중구,02-2268-1849,"['명동', '명동쇼핑', '브랜드', '쇼핑', '캐주얼의류']",https://cdn.visitkorea.or.kr/img/call?cmd=VIEW&id=fc623451-0210-487a-9de1-65c7f117fd86&thumb,서울특별시 중구 명동8나길 5,37.56132735,126.9846722,
712,이태원 쇼핑거리,서울 용산구,02-797-7319,"['쇼핑', '이태원', '이태원관광특구', '이태원시장']",https://cdn.visitkorea.or.kr/img/call?cmd=VIEW&id=fe2d8bf4-10ef-49fb-89b2-d10a4c33254c&thumb,서울특별시 용산구 이태원동,37.54190953,126.9901829,
713,남대문 메사 (MESA),서울 중구,02-2128-7800,['쇼핑'],https://cdn.visitkorea.or.kr/img/call?cmd=VIEW&id=94e22e5d-bcd5-4a22-b24f-2f8923cba386&thumb,서울특별시 중구 남대문시장10길 2,37.56037360000001,126.9796012,
714,고속터미널 의류도매상가,서울 서초구,02-535-2212,"['강남고속버스터미널', '쇼핑', '옷도매상가', '혼수용품']",https://cdn.visitkorea.or.kr/img/call?cmd=VIEW&id=c4e94510-80b1-4dc6-89c2-1571d51e9310&thumb,서울특별시 서초구 신반포로 194,37.50643574,127.0068344,
715,가나안경원 (명동2호점),서울 중구,02-753-6372,"['가나안경원', '쇼핑', '수도권', '안경점', '연중무휴']",https://cdn.visitkorea.or.kr/img/call?cmd=VIEW&id=c386a10b-6dab-458d-b3fb-b5e9d43c5b30&thumb,서울특별시 중구 명동8가길 33,37.56191245,126.9869034,
716,누죤패션몰,서울 중구,02-6366-3114,"['동대문', '쇼핑', '외국인이많이찾는', '외국인친구에게추천', '의류', '패션']",https://cdn.visitkorea.or.kr/img/call?cmd=VIEW&id=b12969c8-a8f3-4281-9d33-c14e90c5e998&thumb,서울특별시 중구 을지로45길 62,37.56694777,127.01300829999998,
717,궁가는여우,서울 종로구,02-722-2318,"['쇼핑', '한복', '한복대여점', '한복체험점']",https://cdn.visitkorea.or.kr/img/call?cmd=VIEW&id=ccb511b8-4692-47ab-a80d-19a4af28ea86&thumb,서울특별시 종로구 사직로 119,37.57628144,126.9718979,
718,메세나폴리스 몰,서울 마포구,02-6357-0108,"['대형마트', '쇼핑', '스트리트몰', '패션', '합정역']",https://cdn.visitkorea.or.kr/img/call?cmd=VIEW&id=08604c09-1237-48d8-9e3e-9cfe817fb954&thumb,서울특별시 마포구 양화로 45,37.5489656,126.9134767,
719,세인트제임스 삼청점(SAINT JAMES BOUTIQUE SAMCHEONG)[한국관광 품질인증/Korea Quality],서울 종로구,02-737-4628,"['서울추천쇼핑', '세인트제임스삼청', '쇼핑', '한국관광품질인증', '한국관광품질인증업소']",https://cdn.visitkorea.or.kr/img/call?cmd=VIEW&id=96668ebc-0375-492f-83b7-391a42353eef&thumb,서울특별시 종로구 삼청로 78,37.5823187,126.9818759,
720,현대 아이파크몰,서울 용산구,02-2012-0101,"['백화점', '복합쇼핑몰', '쇼핑', '아이파크백화점', '전시장']",https://cdn.visitkorea.or.kr/img/call?cmd=VIEW&id=e0f11978-5497-42b7-a7b5-5297547ec9a5&thumb,서울특별시 용산구 한강대로23길 55,37.5297718,126.9647415,
721,박영숙요 (아틀리에서울),서울 종로구,02-730-7837,"['갤러리', '도자기', '생활식기', '쇼핑', '한국도자기']",https://cdn.visitkorea.or.kr/img/call?cmd=VIEW&id=e19d21cd-f900-4fc9-a013-f9e66b6e725b&thumb,서울특별시 종로구 인사동길 30,37.57335915,126.98608459999998,
722,이서윤한복,서울 종로구,02-735-4250,"['생활소품', '쇼핑', '장신구', '한복브랜드']",https://cdn.visitkorea.or.kr/img/call?cmd=VIEW&id=ac0f1e09-f5ac-4b0f-97f9-9c7ee655d383&thumb,서울특별시 종로구 효자로 7,37.57661925,126.9740042,
723,남대문 본동의류상가,서울 중구,02-753-2805,"['본동의류상가', '쇼핑', '수도권', '연중무휴', '전통재래시장']",https://cdn.visitkorea.or.kr/img/call?cmd=VIEW&id=23a6ddb1-e833-4647-bdbb-669bb142d00f&thumb,서울특별시 마포구 양화로 45,37.54912268,126.9135446,
724,플랫폼 플레이스(한남점) [한국관광 품질인증/Korea Quality],서울 용산구,02-797-4628,"['서울추천쇼핑', '쇼핑', '플랫폼플레이스한남', '한국관광품질인증', '한국관광품질인증업소']",https://cdn.visitkorea.or.kr/img/call?cmd=VIEW&id=78229d0a-c8d5-4dfa-aef7-a36647043711&thumb,서울특별시 용산구 이태원로 268,37.53833629,127.001832,
725,바리엔유 (구 바가지머리),서울 강남구,02-515-8514,"['디자인상품', '쇼핑', '신사동가로수길', '온라인쇼핑몰', '팬시']",https://cdn.visitkorea.or.kr/img/call?cmd=VIEW&id=6bb117a3-02c3-4299-8642-3f8bbedf82a6&thumb,서울특별시 강남구 도산대로11길 38,37.51992057,127.0225104,
726,신라면세점(서울점),서울 중구,1688-1110,"['면세쇼핑', '면세점', '브랜드', '쇼핑', '신라호텔']",https://cdn.visitkorea.or.kr/img/call?cmd=VIEW&id=9ff792bc-11e7-4f83-8d40-e538dc676d5a&thumb,서울특별시 중구 동호로 249,37.55750551,127.0079529,
727,아트박스 (영등포점),서울 영등포구,02-2678-4827,"['디자인상품', '문구', '사무용품', '쇼핑', '캐릭터상품']",https://cdn.visitkorea.or.kr/img/call?cmd=VIEW&id=aecd38a2-4d48-4330-92c8-ad6846e8f600&thumb,서울특별시 영등포구 영중로 15,37.51723326,126.903716,
728,마장 축산물시장,서울 성동구,02-2281-4446,"['가족여행', '마장축산물시장', '사계절', '쇼핑', '수도권', '시장맛집', '아이와함께']",https://cdn.visitkorea.or.kr/img/call?cmd=VIEW&id=e6997d7a-794a-4651-9fd6-4f6381b36821&thumb,서울특별시 성동구 마장로31길 40,37.56979398,127.0384065,
729,프리스비 (Frisbee) 건대점,서울 광진구,02-2218-3195,['쇼핑'],https://cdn.visitkorea.or.kr/img/call?cmd=VIEW&id=1287bb9f-b892-4c1a-9ae0-3db9fedcf38f&thumb,서울특별시 광진구 능동로 92,37.53899977,127.0712144,
730,금강제화 (종로지점),서울 종로구,02-733-2744,"['금강제화', '쇼핑', '수도권']",https://cdn.visitkorea.or.kr/img/call?cmd=VIEW&id=7f92d22c-04db-4d0a-ad03-1427ba095f9b&thumb,서울특별시 종로구 종로 89,37.57085683,127.01529340000002,
731,남대문 문구상가,서울 중구,02-753-2805,"['쇼핑', '외국인이많이찾는', '외국인친구에게추천', '카메라', '포장용품']",https://cdn.visitkorea.or.kr/img/call?cmd=VIEW&id=fa245003-bc55-4a96-baa0-03fea0f24aa3&thumb,서울특별시 중구 남대문로 6-2,37.56035978,126.9765107,
732,브릿지안경[한국관광 품질인증/Korea Quality],서울 강남구,02-543-6846,"['브릿지안경', '서울추천쇼핑', '쇼핑', '수도권', '안경점', '한국관광품질인증']",https://cdn.visitkorea.or.kr/img/call?cmd=VIEW&id=53288d86-21d9-454c-a755-496071d28b3c&thumb,서울특별시 강남구 압구정로 132,37.52426885,127.02323,
733,테크노마트 강변점,서울 광진구,02-3424-0114,"['강변테크노마트', '복합쇼핑몰', '쇼핑', '수도권']",https://cdn.visitkorea.or.kr/img/call?cmd=VIEW&id=d1ad0ff3-7d40-4afb-81b1-1c0cc0ef6aab&thumb,서울특별시 광진구 광나루로56길 85,37.53572518,127.0956922,
734,AK플라자백화점 (구로점),서울 구로구,02-818-1000,"['AK플라자', '구로백화점', '백화점', '쇼핑']",https://cdn.visitkorea.or.kr/img/call?cmd=VIEW&id=198e5b36-4746-4ae1-aced-a18e62f5bf83&thumb,서울특별시 구로구 구로중앙로 152,37.50116014,126.882773,
735,플랫폼 플레이스(명동점)[한국관광 품질인증/Korea Quality],서울 중구,02-3789-7230,"['서울추천쇼핑', '쇼핑', '플랫폼플레이스명동', '한국관광품질인증', '한국관광품질인증업소']",https://cdn.visitkorea.or.kr/img/call?cmd=VIEW&id=fdc03d91-4764-425e-a483-d91b8d27cf8e&thumb,서울특별시 중구 명동8길 37-6,37.56192514,126.9852339,
736,YMC 서울[한국관광 품질인증/Korea Quality],서울 용산구,02-790-4628,"['YMC서울', '서울추천쇼핑', '쇼핑', '수도권', '한국관광품질인증', '한국관광품질인증']",https://cdn.visitkorea.or.kr/img/call?cmd=VIEW&id=6273ba3f-33db-4ab7-927b-e93a9f89a4da&thumb,서울특별시 용산구 이태원로 255-1,37.53769794,127.000774,
737,통인가게,서울 종로구,02-733-4867,"['가족여행', '나들이', '나홀로여행', '데이트코스', '쇼핑', '수도권', '아이와함께']",https://cdn.visitkorea.or.kr/img/call?cmd=VIEW&id=ebce61d8-5f6d-4295-bb6b-7a2a5ab51f6b&thumb,서울특별시 종로구 인사동길 32,37.57358312,126.9859214,
738,금강제화 명동본점,서울 중구,02-753-9411,"['쇼핑', '정장화', '제화', '패션브랜드']",https://cdn.visitkorea.or.kr/img/call?cmd=VIEW&id=49cebc16-04b5-4da1-910d-1d06be3235f0&thumb,서울특별시 중구 명동8길 7,37.5634329,126.9847803,
739,POOM아트박스 (신촌점),서울 서대문구,02-313-1001,"['디자인', '디자인상품', '디자인숍', '쇼핑']",https://cdn.visitkorea.or.kr/img/call?cmd=VIEW&id=e3addfce-0c8f-4173-ad35-2af876f31d42&thumb,서울특별시 서대문구 명물길 23,37.55819382,126.937854,
740,에뛰드하우스 (명동1호점),서울 중구,02-753-3771,"['명동쇼핑', '쇼핑', '프랜차이즈', '화장품']",https://cdn.visitkorea.or.kr/img/call?cmd=VIEW&id=8c77cf7b-9ca6-4372-afe8-36372ef4cc18&thumb,서울특별시 중구 명동8길 35-1,37.56213649,126.98502279999998,
741,콰니 (KWANI),서울 종로구,070-4229-1700,"['가방', '쇼핑', '외국인이많이찾는', '의류', '플래그십스토어']",https://cdn.visitkorea.or.kr/img/call?cmd=VIEW&id=cec6799f-c4c0-4db8-bc31-02562cff1f2c&thumb,서울특별시 종로구 사직로8길 1-3,37.5756417,126.969248,
742,광화문 세종클럽,서울 종로구,02-722-0001,"['단체석', '복합공간', '쇼핑', '외식', '종로', '종로가볼만한곳']",https://cdn.visitkorea.or.kr/img/call?cmd=VIEW&id=2aacac91-4287-4793-b1fd-0595c85dde70&thumb,서울특별시 종로구 새문안로5가길 7,37.57277120000001,126.9740382,
743,한국공예관,서울 종로구,02-720-3301,"['가족여행', '기념품판매', '나들이', '나홀로여행', '데이트코스', '쇼핑', '수도권']",https://cdn.visitkorea.or.kr/img/call?cmd=VIEW&id=c48d04af-a5d0-4077-a17d-8b8782bccea4&thumb,서울특별시 종로구 인사동길 33,37.57348207,126.9855088,
744,질경이(삼청점) [한국관광 품질인증/Korea Quality],서울 종로구,02-744-5606,"['서울추천쇼핑', '쇼핑', '쇼핑', '질경이', '한국관광품질인증', '한국관광품질인증업소']",https://cdn.visitkorea.or.kr/img/call?cmd=VIEW&id=8263fc90-7b36-4b08-b414-91882da2ac86&thumb,서울특별시 종로구 삼청로 88,37.58321214,126.9819737,
745,라이너노트,서울 마포구,02-337-9966,"['뮤지션', '소규모공연', '쇼핑', '연남동', '음반']",https://cdn.visitkorea.or.kr/img/call?cmd=VIEW&id=e0a2b9b1-453c-4185-90ea-b0ad701fef8f&thumb,서울특별시 마포구 성미산로29길 4,37.56440389,126.9229533,
746,영풍문고 스타필드코엑스몰점,서울 강남구,02-6002-2718,['쇼핑'],https://cdn.visitkorea.or.kr/img/call?cmd=VIEW&id=06641880-dc12-4d55-8ce9-d05104b6868f&thumb,서울특별시 강남구 영동대로 513,37.51182391,127.059159,
747,하모니마트(명동점) [한국관광 품질인증/Korea Quality],서울 중구,02-776-5696,"['서울추천쇼핑', '쇼핑', '하모니마트명동', '한국관광품질인증', '한국관광품질인증업소']",https://cdn.visitkorea.or.kr/img/call?cmd=VIEW&id=256feaac-e49c-4c91-91d8-c8f29b55f30d&thumb,서울특별시 중구 명동8길 21-7,37.56291578,126.9851679,
748,추억을굽는가게 (신촌점),서울 서대문구,02-333-5880,"['선물세트', '쇼핑', '전통과자', '전통과자점', '쿠키']",https://cdn.visitkorea.or.kr/img/call?cmd=VIEW&id=1c33ffa5-977f-4715-ade8-107c808f7d87&thumb,서울특별시 서대문구 신촌로11길 7,37.55708389,126.9327694,
749,카카오프렌즈 브랜드스토어,서울 강남구,02-6002-1880,"['브랜드스토어', '쇼핑', '카카오', '카카오톡', '캐릭터상품']",https://cdn.visitkorea.or.kr/img/call?cmd=VIEW&id=7e39cbad-eb88-41e2-bb0d-5b0f38fef739&thumb,서울특별시 강남구 영동대로 513,37.51182391,127.059159,
750,핫트랙스 (잠실점),서울 송파구,02-417-9961,"['기프트아이템', '문구', '복합문화쇼핑공간', '쇼핑']",https://cdn.visitkorea.or.kr/img/call?cmd=VIEW&id=93c26848-48eb-4f4e-9384-92e193e29cca&thumb,서울특별시 송파구 올림픽로 269,37.51442735,127.1006114,
751,장안 악세사리상가,서울 중구,02-753-5600,"['쇼핑', '아이디어상품', '악세서리', '전문상가']",https://cdn.visitkorea.or.kr/img/call?cmd=VIEW&id=743e6a88-090a-4496-97e5-0529f90ed6e1&thumb,서울특별시 중구 남대문시장4길 42-2,37.55825879,126.9767565,
752,북바이북,서울 종로구,02-725-0416,"['서점', '쇼핑', '이색샵', '팝업스토어']",https://cdn.visitkorea.or.kr/img/call?cmd=VIEW&id=87b144d4-0736-4d77-81ac-39f3bcf64e67&thumb,서울특별시 종로구 새문안로5길 19,37.57202956,126.9742933,
753,노스비치 (North Beach),서울 용산구,02-793-6098,"['노스비치', '쇼핑', '수도권', '연중무휴']",https://cdn.visitkorea.or.kr/img/call?cmd=VIEW&id=5750349a-088f-4609-8a58-4b3f77a3576c&thumb,서울특별시 용산구 이태원로 171,37.53465858,126.9931196,
754,세란안경[한국관광 품질인증/Korea Quality],서울 중구,02-777-6789,"['서울추천쇼핑', '세란안경', '쇼핑', '한국관광품질인증', '한국관광품질인증업소']",https://cdn.visitkorea.or.kr/img/call?cmd=VIEW&id=059cefe9-c3da-43ee-bd9c-0261a4c8f81d&thumb,서울특별시 중구 을지로 30,37.56534589,126.98100759999998,
755,양재 하이브랜드,서울 서초구,02-2155-0001,"['강남쇼핑몰', '복합쇼핑몰', '쇼핑', '프리미엄복합쇼핑몰']",https://cdn.visitkorea.or.kr/img/call?cmd=VIEW&id=c8ab26a9-3b7f-4060-9a71-95f151376fc1&thumb,서울특별시 서초구 매헌로 16,37.46246735,127.0369479,
756,유어마인드,서울 서대문구,070-8821-8990,"['다락방', '독립출판물', '서점', '쇼핑']",https://cdn.visitkorea.or.kr/img/call?cmd=VIEW&id=e0cec104-9923-472a-ac1b-d220851867f2&thumb,서울특별시 서대문구 연희로11라길 10-6 2층 우측,37.56839735,126.9303035,
757,제이디엑스 (JDX),서울 송파구,02-406-1002,"['30대', '40대', '골프웨어', '브랜드', '쇼핑']",https://cdn.visitkorea.or.kr/img/call?cmd=VIEW&id=b1996c99-06f7-4fea-98a8-ad5452e5b20d&thumb,서울특별시 송파구 동남로 96,37.48908768,127.1222657,
758,현대백화점 (압구정본점),서울 강남구,02-547-2233,"['쇼핑', '압구정', '압구정쇼핑', '현대백화점']",https://cdn.visitkorea.or.kr/img/call?cmd=VIEW&id=fb376af1-1919-456a-879b-657c00cc0322&thumb,서울특별시 강남구 압구정로 165,37.52736612,127.0274685,
759,지센(ZISHEN) 롯데마트송파점,서울 송파구,02-400-5886,"['30대', '40대', '브랜드', '쇼핑', '스타일', '여성브랜드']",https://cdn.visitkorea.or.kr/img/call?cmd=VIEW&id=32308452-ef6a-4499-8b30-f174a02efe86&thumb,서울특별시 송파구 중대로 80,37.49176204,127.1178428,
760,인현시장,서울 중구,02-2275-3478,"['가족여행', '나들이', '나홀로여행', '데이트코스', '먹거리', '쇼핑', '수도권', '시장맛집']",https://cdn.visitkorea.or.kr/img/call?cmd=VIEW&id=82b87969-a003-42c0-add9-79e8a75013d5&thumb,서울특별시 중구 인현동2가 192-1,37.56397691,126.995323,
761,아이닥안경,서울 중구,02-754-0110,"['렌즈', '쇼핑', '안경', '안경원', '안경점', '주문제작']",https://cdn.visitkorea.or.kr/img/call?cmd=VIEW&id=9e80ee6a-cbdc-4472-8418-0d657ac15f59&thumb,서울특별시 중구 명동3길 6,37.56389523,126.9836413,
762,K2 (문정점),서울 송파구,02-403-9670,"['등산복', '멀티아웃도어', '쇼핑', '아웃도어']",https://cdn.visitkorea.or.kr/img/call?cmd=VIEW&id=95185076-a9dc-40cf-a363-e5e372ba2a51&thumb,서울특별시 송파구 중대로10길 42,37.49069567,127.1238547,
763,인사아트프라자,서울 종로구,02-722-9969,"['가족여행', '기념품판매', '나들이', '나홀로여행', '데이트코스', '먹거리', '쇼핑']",https://cdn.visitkorea.or.kr/img/call?cmd=VIEW&id=0e7a9379-5a68-4f3b-b082-382f4936fcea&thumb,서울특별시 종로구 인사동길 34-1,37.57385797,126.9856095,
764,남대문 중앙상가,서울 중구,02-753-2805,"['민속공에품', '쇼핑', '액세서리', '여성용품', '여성의류', '외국인이많이찾는']",https://cdn.visitkorea.or.kr/img/call?cmd=VIEW&id=eec0fe03-1aff-4dfb-ab7e-cd16ee89f546&thumb,서울특별시 중구 남대문시장4길 21,37.55918636,126.9776537,
765,카카오프렌즈 홍대 플래그십 스토어,서울 마포구,02-6010-0104,"['라이프스타일', '쇼핑', '카카오프렌즈', '플래그십스토어']",https://cdn.visitkorea.or.kr/img/call?cmd=VIEW&id=bbd5ff36-8810-431b-aae3-d85ee56c2b80&thumb,서울특별시 마포구 양화로 162,37.55642986,126.9238714,
766,테테 아 테테 (tete a tete),서울 마포구,02-6409-7421,"['마포쇼핑', '브랜드편집숍', '쇼핑', '인디디자이너', '편집숍']",https://cdn.visitkorea.or.kr/img/call?cmd=VIEW&id=7a4d40c3-d9c6-455a-8920-2035a823fb8d&thumb,서울특별시 마포구 와우산로29길 51,37.55570415,126.9272262,
767,눈스퀘어,서울 중구,02-3783-5005,['쇼핑'],https://cdn.visitkorea.or.kr/img/call?cmd=VIEW&id=e02d2ef0-bb23-46f1-ae2f-2acd41379b79&thumb,서울특별시 중구 명동길 14,37.56341165,126.9828877,
768,롯데면세점 (본점),서울 중구,1688-3000,"['롯데백화점', '면세점', '명품브랜드', '쇼핑']",https://cdn.visitkorea.or.kr/img/call?cmd=VIEW&id=a794c6ef-b91f-454d-87d8-88e73ce87ce5&thumb,서울특별시 중구 을지로 30,37.56534589,126.98100759999998,
769,갤러리아백화점 명품관,서울 강남구,02-3449-4114,"['강남쇼핑', '백화점', '쇼핑', '펴션']",https://cdn.visitkorea.or.kr/img/call?cmd=VIEW&id=db181e92-e0c3-48a5-a47d-5350225be78b&thumb,서울특별시 강남구 압구정로 343,37.52847544,127.0400527,
770,프리스비(Frisbee) 홍대점,서울 마포구,02-323-1765,"['쇼핑', '애플전문매장', '액세서리', '프리스비']",https://cdn.visitkorea.or.kr/img/call?cmd=VIEW&id=262d2057-231e-40b6-b720-b940a656922a&thumb,서울특별시 마포구 홍익로 11,37.55350394,126.9232862,
771,고궁마실,서울 종로구,02-763-9937,"['쇼핑', '창경궁', '한복대여점', '한복체험']",https://cdn.visitkorea.or.kr/img/call?cmd=VIEW&id=8bc6c8b3-3c23-4387-8ebc-7f3c838735cd&thumb,서울특별시 종로구 창경궁로 229,37.58252865,126.9979039,
772,아리따움 (이대직영점),서울 서대문구,02-313-0552,"['뷰티', '쇼핑', '수도권', '아리따움', '연중무휴', '화장품']",https://cdn.visitkorea.or.kr/img/call?cmd=VIEW&id=f56fdc04-94c1-4ce5-a47f-b45a9eb4bc62&thumb,서울특별시 서대문구 이화여대길 45,37.55894211,126.9455548,
773,충무공사,서울 종로구,02-737-9700,['쇼핑'],https://cdn.visitkorea.or.kr/img/call?cmd=VIEW&id=02fb550d-0338-42d6-b72e-4539b4443a93&thumb,서울특별시 종로구 인사동길 12,37.57189615,126.9872306,
774,프로젝트루 (Project Rue),서울 강남구,02-545-2747,"['쇼핑', '수도권', '편집샵', '프로젝트루']",https://cdn.visitkorea.or.kr/img/call?cmd=VIEW&id=4160bdc1-4a7d-4018-9809-06ffdf3b54a4&thumb,서울특별시 강남구 선릉로153길 32,37.52484123,127.0368066,
775,헬로우 에이피엠 (Hello apm),서울 중구,02-6388-1114,"['멀티쇼핑몰', '쇼핑', '외국인이많이찾는', '외국인친구에게추천', '패션몰']",https://cdn.visitkorea.or.kr/img/call?cmd=VIEW&id=5cb6ebcd-1544-439d-8f10-b88059c3a079&thumb,서울특별시 중구 장충단로 253,37.5674871,127.00807890000002,
776,금강제화 (강남본점),서울 강남구,02-541-8081,['쇼핑'],https://cdn.visitkorea.or.kr/img/call?cmd=VIEW&id=bdc432fb-7f07-401a-9822-4d9029592a53&thumb,서울특별시 강남구 강남대로 500,37.50690234,127.0238017,
777,대도종합상가,서울 중구,02-752-2689,"['남대문시장', '생활잡화', '서울남대문시장', '쇼핑', '수입용품', '주방용품']",https://cdn.visitkorea.or.kr/img/call?cmd=VIEW&id=83d481ce-4526-4eea-a8b5-bc8738e53fc6&thumb,서울특별시 중구 남대문시장4길 9,37.55966786,126.9776736,
778,센트럴시티,서울 서초구,02-6282-0114,"['도심형테마파크', '명품쇼핑몰', '복합생활문화공간', '쇼핑']",https://cdn.visitkorea.or.kr/img/call?cmd=VIEW&id=c5df6a1f-dcee-4403-942b-97d75c4900b8&thumb,서울특별시 서초구 신반포로 176,37.50393518,127.002413,
779,테이크어스트릿 (Take a street),서울 마포구,02-337-2090,"['쇼핑', '액세서리', '잡화', '코디서비스']",https://cdn.visitkorea.or.kr/img/call?cmd=VIEW&id=d0115770-41d5-411d-8588-d4640712c957&thumb,서울특별시 마포구 양화로 45,37.54912268,126.9135446,
780,뱅앤올룹슨 (Bang & Olufsen),서울 강남구,02-518-1380,"['TV전문매장', '쇼핑', '수작업', '음향기기']",https://cdn.visitkorea.or.kr/img/call?cmd=VIEW&id=85887695-c009-416e-bdaa-7c2bac643f9e&thumb,서울특별시 강남구 언주로 865,37.52776478,127.033224,
781,H&M (명동1호점),서울 중구,02-3783-4881,"['디자이너', '복합쇼핑몰', '쇼핑', '패션브랜드']",https://cdn.visitkorea.or.kr/img/call?cmd=VIEW&id=76f70f33-2266-46f4-97c7-b1b440e96cc0&thumb,서울특별시 중구 명동길 14,37.56341165,126.9828877,
782,동양국악기,서울 강남구,02-523-7600,"['쇼핑', '악기전문상가', '악기점', '전통국악기']",https://cdn.visitkorea.or.kr/img/call?cmd=VIEW&id=c2286cab-8260-4595-aa9a-c724b0d30259&thumb,서울특별시 서초구 효령로 237,37.48419308,127.00999070000002,
783,"주식회사 청운에스피(CHEONGUN S.P Co.,Ltd.) [한국관광 품질인증/Korea Quality]",서울 서대문구,02-373-8898,"['서울추천쇼핑', '쇼핑', '주식회사청운에스피', '한국관광품질인증', '한국관광품질인증업소']",https://cdn.visitkorea.or.kr/img/call?cmd=VIEW&id=b3c66f89-05eb-4fc0-9667-e4498cef22b4&thumb,서울특별시 서대문구 모래내로 235,37.57519201,126.9248488,
784,논현 가구거리,서울 강남구,,"['가구', '강남구', '나전칠기', '논현', '쇼핑', '인테리어']",https://cdn.visitkorea.or.kr/img/call?cmd=VIEW&id=b30b8d8f-e46b-4a20-9841-5ecd728450bc&thumb,서울특별시 강남구 학동로 106,37.51122407,127.0225493,
785,두산타워 (doota),서울 중구,02-3398-3114,"['쇼핑', '외국인친구에게추천', '중구쇼핑', '패션']",https://cdn.visitkorea.or.kr/img/call?cmd=VIEW&id=6a399b13-2746-4909-8c83-111374c87987&thumb,서울특별시 중구 장충단로 275,37.56888494,127.0087751,
786,해밀톤 쇼핑센터,서울 용산구,02-794-0171,"['쇼핑', '이태원', '이태원쇼핑', '종합쇼핑센터']",https://cdn.visitkorea.or.kr/img/call?cmd=VIEW&id=e78f5c13-9ca4-4f80-9877-2f3778fb1239&thumb,서울특별시 용산구 이태원로 179,37.5348144,126.9937352,
787,승진완구,서울 종로구,02-747-1900,"['쇼핑', '완구매장', '유아완구', '장난감']",https://cdn.visitkorea.or.kr/img/call?cmd=VIEW&id=987918f8-f7ac-4448-8128-cb6525293d2f&thumb,서울특별시 종로구 종로52길 30,37.57134017,127.0141842,
788,라온트래블스토리지,서울 마포구,070-8884-1251,"['쇼핑', '외국인친구에게추천', '짐보관소', '홍대입구역']",https://cdn.visitkorea.or.kr/img/call?cmd=VIEW&id=3c5beacb-f70b-4b25-b4e2-ad232fd90b8b&thumb,서울특별시 마포구 양화로 지하 188,37.55741083,126.9269615,
789,해밀톤셔츠,서울 용산구,02-796-5693,"['맞춤드레스', '셔츠전문점', '쇼핑', '외국인이많이찾는', '외국인친구에게추천']",https://cdn.visitkorea.or.kr/img/call?cmd=VIEW&id=a814c386-df8d-4494-bf33-25ffe91381fb&thumb,서울특별시 용산구 이태원로 153,37.53459888,126.9909896,
790,서촌나들이,서울 종로구,02-737-4857,"['경복궁', '쇼핑', '전통한복', '한복전문점']",https://cdn.visitkorea.or.kr/img/call?cmd=VIEW&id=2a5e5e6d-3417-4a5b-8101-f0d3d57c8398&thumb,서울특별시 종로구 자하문로 13,37.57723121,126.9720331,
791,동양 국악기제작소,서울 서초구,02-523-7600,"['국악기', '쇼핑', '악기장인', '통가죽북']",https://cdn.visitkorea.or.kr/img/call?cmd=VIEW&id=2a35d7d1-0983-4623-b64b-a088d40ea22e&thumb,서울특별시 서초구 효령로 237,37.48419308,127.00999070000002,
792,롯데백화점 (에비뉴엘),서울 중구,02-771-2500,"['롯데백화점', '명품매장', '명품백화점', '쇼핑']",https://cdn.visitkorea.or.kr/img/call?cmd=VIEW&id=325ba658-ec6c-4b55-bbf0-6bd63a6e9002&thumb,서울특별시 중구 남대문로 73,37.56420461,126.9816381,
793,한국관광명품점(인사동),서울 종로구,02-756-3361,"['가족여행', '기념품판매', '나들이', '나홀로여행', '도심여행', '쇼핑', '수도권']",https://cdn.visitkorea.or.kr/img/call?cmd=VIEW&id=a239b3cd-3ea1-4ec2-a438-a4c79bdcebdc&thumb,서울특별시 종로구 인사동5길 14,37.57275999,126.9853564,
794,뮈샤,서울 강남구,1588-9391,"['디자이너', '명품', '쇼핑', '주얼리', '코디']",https://cdn.visitkorea.or.kr/img/call?cmd=VIEW&id=60605fa5-02aa-4f13-96cf-1ac6472eafff&thumb,서울특별시 강남구 선릉로162길 43,37.52635962,127.0440977,
795,동화면세점,서울 종로구,02-399-3000,"['면세점', '민예품', '쇼핑', '특산품']",https://cdn.visitkorea.or.kr/img/call?cmd=VIEW&id=30da1afe-19de-433a-adf0-cfc713eee2ec&thumb,서울특별시 종로구 세종대로 149,37.56957113,126.9761402,
796,롯데몰 김포공항,서울 강서구,02-6116-4000,"['라이프스타일', '백화점', '복합쇼핑몰', '쇼핑']",https://cdn.visitkorea.or.kr/img/call?cmd=VIEW&id=b38dbc49-af45-40ac-bea8-6ce7d6fba48d&thumb,서울특별시 강서구 하늘길 77,37.56214413,126.8015703,
797,에이랜드 (ÅLAND),서울 중구,1566-7477,"['디자이너', '리빙용품', '멀티숍', '빈티지', '쇼핑', '중고']",https://cdn.visitkorea.or.kr/img/call?cmd=VIEW&id=feeae9b1-d7dc-4908-ad9a-7b17a0ed7cf2&thumb,서울특별시 중구 명동6길 30,37.5620836,126.9843046,
798,현대백화점 (무역센터점),서울 강남구,02-552-2233,"['강남쇼핑', '백화점', '쇼핑', '현대백화점']",https://cdn.visitkorea.or.kr/img/call?cmd=VIEW&id=bf4dff59-4e82-43c4-ab36-f9859640b51a&thumb,서울특별시 강남구 테헤란로 517,37.50861513,127.05976509999998,
799,이새,서울 종로구,02-6713-5592,"['쇼핑', '자연주의', '중장년층', '천연소재', '친환경염색의류']",https://cdn.visitkorea.or.kr/img/call?cmd=VIEW&id=53927389-ee6e-4582-867c-22b7723640c2&thumb,서울특별시 종로구 인사동길 30-1,37.57341662,126.9859354,
800,우석공예사,서울 종로구,02-2279-0041,"['기념품', '쇼핑', '수도권', '우석공예사']",https://cdn.visitkorea.or.kr/img/call?cmd=VIEW&id=69d7f302-9702-4059-aa2c-0a2cae75d724&thumb,서울특별시 종로구 창경궁로 88,37.57011251,126.9997072,
801,신라아이파크면세점,서울 용산구,1688-8800,"['면세점', '서울', '쇼핑', '용산']",https://cdn.visitkorea.or.kr/img/call?cmd=VIEW&id=53be3504-3962-4b77-a3e4-1a75329c684b&thumb,서울특별시 용산구 한강대로23길 55,37.5297718,126.9647415,
802,남대문 액세사리상가,서울 중구,02-778-8932,"['남대문시장', '쇼핑', '액세서리', '전문악세서리상가']",https://cdn.visitkorea.or.kr/img/call?cmd=VIEW&id=95b7bfb5-b266-4afd-a793-210cfde6c6bb&thumb,서울특별시 중구 남대문시장4길 21,37.55918636,126.9776537,
803,견지동 불교용품거리,서울 종로구,,"['도소매', '불교서적', '불교용품', '쇼핑']",https://cdn.visitkorea.or.kr/img/call?cmd=VIEW&id=31b4d40a-2333-494e-8715-be77482b081e&thumb,서울특별시 종로구 우정국로 55,37.57389314,126.9818817,
804,남구로시장,서울 구로구,02-855-8509,"['가족과함께', '남녀노소', '먹거리', '먹거리여행', '먹거리투어', '문화공간', '복합문화공간']",https://cdn.visitkorea.or.kr/img/call?cmd=VIEW&id=72320ecf-1d54-4810-934f-7118c91ebd2d&thumb,서울특별시 구로구 구로동로26길 54,37.48988027,126.8865602,
805,한샘가죽공방,서울 마포구,02-334-8427,"['가죽공예', '생활소품', '쇼핑', '체험프로그램']",https://cdn.visitkorea.or.kr/img/call?cmd=VIEW&id=97ed4870-b319-43aa-a05f-edb9aace0c06&thumb,서울특별시 마포구 어울마당로 113,37.55497476,126.9229139,
806,KT&G 상상마당 디자인스퀘어,서울 마포구,02-330-6200,"['기념품', '문화활동', '복합문화공간', '쇼핑', '외국인친구에게추천', '홍대']",https://cdn.visitkorea.or.kr/img/call?cmd=VIEW&id=2c99e6dc-4089-4222-998b-b2b35ba28e22&thumb,서울특별시 마포구 어울마당로 65,37.55095770000001,126.921063,
807,TRAVELIGHT (트래블라이트),서울 중구,02-318-5662,"['관광쇼핑', '남대문시장', '서울남대문시장', '쇼핑', '외국인이많이찾는', '외국인친구에게추천']",https://cdn.visitkorea.or.kr/img/call?cmd=VIEW&id=0f359fe2-86a4-49fe-8017-7948e9108770&thumb,서울특별시 중구 남대문로 34,37.56103265,126.9794501,
808,신세계백화점 (본점),서울 중구,1588-1234,['쇼핑'],https://cdn.visitkorea.or.kr/img/call?cmd=VIEW&id=68158d3d-495a-4689-9b57-a19407cf71f1&thumb,서울특별시 중구 소공로 63,37.56091902,126.980979,
809,빈폴 (타임스퀘어점),서울 영등포구,02-2638-2025,"['쇼핑', '액세서리', '타임스퀘어', '트렌드', '패션']",https://cdn.visitkorea.or.kr/img/call?cmd=VIEW&id=5da074ec-d4cd-4d29-aafe-fd177f698b44&thumb,서울특별시 영등포구 영중로 15,37.51723326,126.903716,
810,정관장 (이대점),서울 서대문구,02-312-3304,"['쇼핑', '신촌쇼핑', '한국인삼공사', '홍삼']",https://cdn.visitkorea.or.kr/img/call?cmd=VIEW&id=432c6d61-fa37-403e-af0d-f1dcf9729caf&thumb,서울특별시 서대문구 신촌로 173,37.55697184,126.9452194,
811,꼼데가르송 (Comme des Garcons),서울 용산구,02-749-1153,"['복합문화공간', '쇼핑', '패션의류', '플래그쉽스토어']",https://cdn.visitkorea.or.kr/img/call?cmd=VIEW&id=f6a326fc-9f20-4911-a8c3-40703fca7c13&thumb,서울특별시 용산구 이태원로 261,37.53811312,127.0012463,
812,에덴도자기,서울 용산구,02-793-0828,"['도자기', '도자기구매', '쇼핑', '전통자기']",https://cdn.visitkorea.or.kr/img/call?cmd=VIEW&id=5d9335ad-27dc-4449-931c-dfb2b6cc0f54&thumb,서울특별시 용산구 이태원로 159-1,37.53452811,126.9916754,
813,모즈아울렛,서울 송파구,02-407-5151,"['브랜드', '쇼핑', '아울렛', '액세서리', '여성쇼핑']",https://cdn.visitkorea.or.kr/img/call?cmd=VIEW&id=3e8e72a3-a82a-4f80-af50-ec34e07cc754&thumb,서울특별시 송파구 동남로 108,37.48961947,127.1233743,
814,나이프갤러리,서울 종로구,02-735-4431,"['쇼핑', '인사동', '인사동쇼핑', '전통칼', '칼판매']",https://cdn.visitkorea.or.kr/img/call?cmd=VIEW&id=c76d4a43-a042-466d-b56d-659ed21162f2&thumb,서울특별시 종로구 인사동9길 7,37.57367857,126.9847345,
815,구로시장,서울 구로구,02868-1452,"['복고풍', '쇼핑', '시장', '전통시장']",https://cdn.visitkorea.or.kr/img/call?cmd=VIEW&id=e19d1032-7a72-47ed-b139-f4dca7f8a7dd&thumb,서울특별시 구로구 구로동로22길 22,37.48941325,126.8856016,
816,한순례한복침구,서울 강남구,02-3443-6375,"['쇼핑', '실크', '한복', '한복맞춤전문점', '한복매장']",https://cdn.visitkorea.or.kr/img/call?cmd=VIEW&id=ae1a9365-e8e3-46b7-aa85-7da399235529&thumb,서울특별시 강남구 압구정로 164,37.52653338,127.0276492,
817,한지추억,서울 종로구,02-735-2059,"['공예전문점', '쇼핑', '인사동', '한지공예']",https://cdn.visitkorea.or.kr/img/call?cmd=VIEW&id=3d199419-8b12-41f9-b6d8-1eace60b741e&thumb,서울특별시 종로구 인사동7길 6,37.57317063,126.9857842,
818,한국의집 사랑 카페앤아트샵,서울 중구,02-2270-1190,"['무장애', '쇼핑', '전통문화', '전통문화체험', '한식', '혼례']",https://cdn.visitkorea.or.kr/img/call?cmd=VIEW&id=46cd42cf-783b-40b1-8a74-856470a258fb&thumb,서울특별시 중구 퇴계로36길 10,37.5602235,126.9944983,
819,힐튼양복점,서울 용산구,02-790-0066,"['맞춤양복', '쇼핑', '수제맞춤셔츠', '외국인이많이찾는', '외국인친구에게추천']",https://cdn.visitkorea.or.kr/img/call?cmd=VIEW&id=5515b490-8eb6-4f39-985a-d6579cac3cce&thumb,서울특별시 용산구 이태원로 195,37.53481746,126.9956582,
820,스파오 (명동점),서울 중구,02-319-3850,"['쇼핑', '잡화', '중구쇼핑', '캐주얼']",https://cdn.visitkorea.or.kr/img/call?cmd=VIEW&id=8576c131-8c19-4f1b-8e0a-453672baa9ca&thumb,서울특별시 중구 명동8나길 15,37.56126339,126.9841159,
821,올가홀푸드 방이점,서울 송파구,02-418-6255,"['생활용품', '쇼핑', '유기농', '친환경식품']",https://cdn.visitkorea.or.kr/img/call?cmd=VIEW&id=e62e9e0f-a393-4371-86f4-1fd99fbe56d2&thumb,서울특별시 송파구 양재대로71길 4,37.51040995,127.1263152,
822,굿모닝시티,서울 중구,02-2118-8700,"['동대문', '동대문역', '멀티콤플렉스쇼핑몰', '쇼핑', '패션', '패션트렌드']",https://cdn.visitkorea.or.kr/img/call?cmd=VIEW&id=13c4352f-f026-45f4-a440-bb296b15834e&thumb,서울특별시 중구 장충단로 247,37.56680212,127.0073582,
823,폴라존(polazone),서울 마포구,02-2285-5640,"['쇼핑', '악세서리', '카메라', '폴라로이드']",https://cdn.visitkorea.or.kr/img/call?cmd=VIEW&id=f081feff-5f21-4733-a231-f4e962308300&thumb,서울특별시 마포구 어울마당로 39,37.54875812,126.9203034,
824,롯데월드 쇼핑몰,서울 송파구,02-411-2111,"['롯데마트', '롯데월드', '백화점', '쇼핑']",https://cdn.visitkorea.or.kr/img/call?cmd=VIEW&id=3cce57a9-cae9-4633-8abb-96150f93b3a1&thumb,서울특별시 송파구 올림픽로 240,37.51130961,127.0981418,
825,아리랑명품관,서울 종로구,02-739-5700,"['가족여행', '기념품판매', '나들이', '나홀로여행', '데이트코스', '쇼핑', '수도권']",https://cdn.visitkorea.or.kr/img/call?cmd=VIEW&id=73de7eff-06f0-4c63-9051-14ee323c450c&thumb,서울특별시 종로구 인사동길 17-1,37.57239468,126.98643429999998,
826,쟈뎅 드 슈에뜨 (Jardin de chouette),서울 강남구,02-3444-4007,"['쇼핑', '여성용재킷', '올빼미', '패션']",https://cdn.visitkorea.or.kr/img/call?cmd=VIEW&id=9871adbf-3c5d-4e8a-bd02-fedd93d583e0&thumb,서울특별시 강남구 선릉로146길 27,37.52195908,127.0419889,
827,네이처리퍼블릭 (명동월드점),서울 중구,02-753-0123,"['메이크업', '뷰티', '쇼핑', '자연주의', '화장품']",https://cdn.visitkorea.or.kr/img/call?cmd=VIEW&id=7a301642-a63f-41bf-b907-6aad7bf752b9&thumb,서울특별시 중구 명동8길 52,37.56138631,126.984941,
828,한얼공예,서울 강남구,02-6002-6772,"['도자기전통인형', '쇼핑', '외국인이많이찾는', '전통수공예', '코엑스']",https://cdn.visitkorea.or.kr/img/call?cmd=VIEW&id=40349679-714d-4e71-81ec-d9335ab9b46d&thumb,서울특별시 강남구 봉은사로 524,37.5129437,127.0571142,
829,올리브영 (타임스퀘어신세계점),서울 영등포구,02-2677-5290,"['건강용품', '드러그스토어', '쇼핑', '식품잡화']",https://cdn.visitkorea.or.kr/img/call?cmd=VIEW&id=493aedd2-f450-4862-9ab8-3fa4fd700a6a&thumb,서울특별시 영등포구 영중로 15,37.51723326,126.903716,
830,경일한지백화점,서울 종로구,02-735-8489,"['문방사우', '서예용품', '쇼핑', '인사동', '한지공예품']",https://cdn.visitkorea.or.kr/img/call?cmd=VIEW&id=4f6b6ad9-dd64-41eb-973d-2014c3085619&thumb,서울특별시 종로구 인사동4길 17,37.57383619,126.9865432,
831,필립플레인,서울 강남구,02-544-9132,"['가구', '라이프스타일브랜드', '쇼핑', '패션']",https://cdn.visitkorea.or.kr/img/call?cmd=VIEW&id=3ed906a8-e6e1-4a54-a615-0fadb13dc95f&thumb,서울특별시 강남구 선릉로162길 41,37.52640331,127.0438908,
832,지아衣갤러리,서울 종로구,02-762-1241,"['디자인상품', '맞춤서비스', '뷰띠끄샵', '삼청동', '쇼핑', '유명디자이너']",https://cdn.visitkorea.or.kr/img/call?cmd=VIEW&id=f464a65b-58b8-4178-a210-55fecef5e8e9&thumb,서울특별시 종로구 자하문로 76,37.58274427,126.9707992,
833,용산전자랜드,서울 용산구,02-707-4700,['쇼핑'],https://cdn.visitkorea.or.kr/img/call?cmd=VIEW&id=58c611aa-ace0-428f-8155-2220996b7fef&thumb,서울특별시 용산구 청파로 74,37.53278886,126.9595585,
834,롯데피트인,서울 중구,02-6262-4000,"['디자이너', '디지털전문관', '롯데하이마트', '쇼핑']",https://cdn.visitkorea.or.kr/img/call?cmd=VIEW&id=a4bdb6bd-b7fd-4691-a892-563d52758e84&thumb,서울특별시 중구 을지로 264,37.56574346,127.0070643,
835,지오 송지오(ZIO SONGZIO) 문정점,서울 송파구,02-403-9910,"['디자이너', '비지니스캐주얼', '쇼핑', '의류브랜드']",https://cdn.visitkorea.or.kr/img/call?cmd=VIEW&id=93bc0002-aa0c-4f5f-a825-e1b2b4b67c5f&thumb,서울특별시 송파구 동남로4길 22,37.48822815,127.1245648,
836,카플리 코엑스몰점,서울 강남구,02-6002-3877,"['강남', '삼성동', '쇼핑', '코엑스몰', '편집매장']",https://cdn.visitkorea.or.kr/img/call?cmd=VIEW&id=b486c186-fb1f-4526-802e-598acd8a2cce&thumb,서울특별시 강남구 봉은사로 524,37.5129437,127.0571142,
837,아리따움 (명동중앙직영점),서울 중구,02-318-2784,"['명동쇼핑', '쇼핑', '외국인이많이찾는', '화장품']",https://cdn.visitkorea.or.kr/img/call?cmd=VIEW&id=6c49b277-0671-459a-813e-0d183d2447eb&thumb,서울특별시 중구 명동8길 34-1,37.5621824,126.9846997,
838,떡카페 질시루,서울 종로구,02-741-0258,"['떡카페질시루', '서울카페', '쇼핑', '수도권']",https://cdn.visitkorea.or.kr/img/call?cmd=VIEW&id=5abbd241-6132-4860-a10f-c61f99801f87&thumb,서울특별시 종로구 돈화문로 71,37.57489958,126.9906381,
839,투쿨포스쿨 (명동점),서울 중구,02-318-5617,"['메이크업', '바디케어제품', '쇼핑', '체험형']",https://cdn.visitkorea.or.kr/img/call?cmd=VIEW&id=6b47ed7d-1908-44e0-95f6-843dc2412163&thumb,서울특별시 중구 명동8길 18-1,37.56288462,126.9845855,
840,스킨푸드 (신촌점),서울 서대문구,02-313-4191,"['쇼핑', '신촌쇼핑', '한방화장품', '화장품']",https://cdn.visitkorea.or.kr/img/call?cmd=VIEW&id=6d5ddf86-9ac2-4f0f-a00b-c6c88dbdd2bb&thumb,서울특별시 서대문구 연세로 6,37.55606441,126.9370282,
841,남대문 종합상가,서울 중구,02-753-2805,"['남대문', '쇼핑', '카메라', '특산물']",https://cdn.visitkorea.or.kr/img/call?cmd=VIEW&id=0f5fa928-47d2-4fce-8e05-f4e2effe91ee&thumb,서울특별시 중구 남대문시장4길 21,37.55918636,126.9776537,
842,퀸프라자,서울 중구,02-753-2805,"['명품점', '쇼핑', '액세서리', '의류']",https://cdn.visitkorea.or.kr/img/call?cmd=VIEW&id=c373542c-8b60-4c2a-a79d-38923c32f364&thumb,서울특별시 중구 남대문시장6길 29,37.55902995,126.9781498,
843,도로시쥬얼리,서울 마포구,02-3144-2533,"['갤러리숍', '디자인숍', '쇼핑', '액세서리', '주얼리']",https://cdn.visitkorea.or.kr/img/call?cmd=VIEW&id=08d16b01-d31f-41c6-84b0-c0b1a4ac1edd&thumb,서울특별시 마포구 양화로 175,37.55775446,126.9243653,
844,레스모아 (LesMore) 명동점,서울 중구,02-755-7681,"['멀티샵', '쇼핑', '슈즈', '외국인이많이찾는']",https://cdn.visitkorea.or.kr/img/call?cmd=VIEW&id=16a6e19e-89ef-4d85-83ab-e25b63c5e853&thumb,서울특별시 중구 명동길 17,37.56384841,126.983223,
845,때때롯살롱,서울 종로구,02-704-1369,"['때때롯살롱', '생활한복', '서울가볼만한곳', '서울핫플', '쇼핑', '익선동', '한복']",https://cdn.visitkorea.or.kr/img/call?cmd=VIEW&id=7e66f5e7-f55d-4b7e-a970-1bea6904e616&thumb,서울특별시 종로구 수표로28길 21-12,37.57340395,126.9898425,
846,목3동시장(목동깨비시장),서울 양천구,02-2644-3238,"['목동', '목동깨비시장', '쇼핑', '재래시장']",https://cdn.visitkorea.or.kr/img/call?cmd=VIEW&id=528a43c9-f524-494e-ade0-22b9ae0e8f26&thumb,서울특별시 양천구 목동중앙북로 29,37.54826456,126.8668326,
847,KCDF 갤러리숍,서울 종로구,02-733-9041,"['갤러리숍', '공예', '공예품', '디자인', '디자인상품', '쇼핑']",https://cdn.visitkorea.or.kr/img/call?cmd=VIEW&id=fb55f0ef-8ace-4c88-8ce7-8563b11ae395&thumb,서울특별시 종로구 인사동11길 8,37.57400798,126.9841285,
848,코오롱스포츠 (문정직영점),서울 송파구,02-402-1594,"['서울쇼핑', '쇼핑', '아웃도어', '아웃도어매장', '캠핑', '캠핑매장']",https://cdn.visitkorea.or.kr/img/call?cmd=VIEW&id=feaf1390-a44c-4374-82e0-4f8ca46e55ee&thumb,서울특별시 송파구 동남로 128,37.49069908,127.1253261,
849,오르시아,서울 강남구,02-542-6344,"['브랜드', '쇼핑', '쥬얼리', '쥬얼리전시장']",https://cdn.visitkorea.or.kr/img/call?cmd=VIEW&id=ac524baf-3ee3-4c71-bca9-abac33b37fb7&thumb,서울특별시 강남구 선릉로131길 12,37.5179045,127.0398545,
850,밀리오레 (신촌점),서울 서대문구,02-6373-11,"['문화의거리', '쇼핑', '외국인친구에게추천', '패션']",https://cdn.visitkorea.or.kr/img/call?cmd=VIEW&id=bee4a2e2-a72d-47a1-bc05-eb62b821fa59&thumb,서울특별시 서대문구 신촌역로 30,37.55982413,126.942387,
851,조이쥬얼리,서울 용산구,02-796-3548,"['디자인', '쇼핑', '악세서리', '자수정', '쥬얼리']",https://cdn.visitkorea.or.kr/img/call?cmd=VIEW&id=01c670e6-742d-4c66-ad3a-4ca296326ccf&thumb,서울특별시 용산구 이태원로 152-1,37.53411611,126.9907945,
852,조이리치 (JOYRICH),서울 강남구,070-8242-7757,"['브랜드', '쇼핑', '압구정쇼핑', '플래그쉽스토어']",https://cdn.visitkorea.or.kr/img/call?cmd=VIEW&id=4bd25c6e-6cce-4062-9700-2f7c0763c7ac&thumb,서울특별시 강남구 압구정로8길 21,37.5224308,127.02228970000002,
853,세라 (이대점),서울 서대문구,02-365-3646,"['디자인제품', '로드숍', '쇼핑', '여성화', '트랜드']",https://cdn.visitkorea.or.kr/img/call?cmd=VIEW&id=a33f55ba-40c0-45eb-84bd-93db8f8cd396&thumb,서울특별시 서대문구 이화여대길 29,37.55828784,126.945625,
854,은나무,서울 종로구,02-730-2867,"['쇼핑', '수제품', '악세서리', '전통문양']",https://cdn.visitkorea.or.kr/img/call?cmd=VIEW&id=8a643aad-60cc-42ed-967a-4180ab16bdd7&thumb,서울특별시 종로구 율곡로3길 72,37.57880163,126.9822167,
855,카카오프렌즈 강남 플래그십 스토어,서울 서초구,02-6494-1100,"['라이프스타일', '쇼핑', '카카오프렌즈', '플래그십']",https://cdn.visitkorea.or.kr/img/call?cmd=VIEW&id=89800228-4e7b-48b3-b10a-a6db0b3cf998&thumb,서울특별시 서초구 강남대로 429,37.50079437,127.0257729,
856,토니모리 (이대점),서울 서대문구,02-365-8557,"['쇼핑', '이대앞', '이대앞보세골목', '저렴한가격', '화장품']",https://cdn.visitkorea.or.kr/img/call?cmd=VIEW&id=5c0bd70f-881c-4bd2-a0b0-3b05f3b8bc82&thumb,서울특별시 서대문구 이화여대길 24,37.55789967,126.9459678,
857,행복한백화점,서울 양천구,02-6678-9000,['쇼핑'],https://cdn.visitkorea.or.kr/img/call?cmd=VIEW&id=f8f00e8a-d5b0-4771-9f3f-ae27775087a0&thumb,서울특별시 양천구 목동동로 309,37.52914353,126.8760086,
858,모이라이 (moirai),서울 서대문구,02-363-7524,"['관광객', '레이스의상', '쇼핑', '외국인이많이찾는', '코디서비스']",https://cdn.visitkorea.or.kr/img/call?cmd=VIEW&id=915de3be-5b17-448e-9cf1-6e4f83a999d5&thumb,서울특별시 서대문구 이화여대길 52-33,37.55945779,126.9448493,
859,이니스프리 (이대점),서울 서대문구,02-313-8161,"['쇼핑', '이니스프리', '친환경상품', '화장품']",https://cdn.visitkorea.or.kr/img/call?cmd=VIEW&id=f31d42a8-4763-4027-9f62-6d53b93c6793&thumb,서울특별시 서대문구 이화여대길 78,37.55927303,126.9441652,
860,맥스타일 (maxtyle),서울 중구,02-2218-6789,['쇼핑'],https://cdn.visitkorea.or.kr/img/call?cmd=VIEW&id=4f1f95d0-1c3d-4f60-858b-b2709993c5b1&thumb,서울특별시 중구 마장로 3,37.56879848,127.010544,
861,수퍼노말(SUPERNORMAL),서울 강남구,02-511-0991,"['복합공간', '브랜드', '쇼핑', '패션']",https://cdn.visitkorea.or.kr/img/call?cmd=VIEW&id=143ff89d-d797-4bad-8a7f-e4e00faba867&thumb,서울특별시 강남구 선릉로162길 39,37.52643031,127.0437121,
862,미보 주얼리,서울 종로구,02-2273-7622,"['귀금속매장', '보석', '쇼핑', '예물']",https://cdn.visitkorea.or.kr/img/call?cmd=VIEW&id=a956a5ac-fe4a-404b-90dc-e0ce062834fc&thumb,서울특별시 종로구 종로 183,37.57144147,126.9986604,
863,Heynature(헤이네이처) 이대점,서울 서대문구,02-2632-5179,"['쇼핑', '신촌', '이대', '화장품']",https://cdn.visitkorea.or.kr/img/call?cmd=VIEW&id=b5b1491e-d97d-4516-b876-aac1d150135b&thumb,서울특별시 서대문구 이화여대7길 35,37.55860697,126.94369609999998,
864,록시땅 (Loccitane),서울 강남구,02-511-2427,"['브랜드', '쇼핑', '에센셜오일', '천연']",https://cdn.visitkorea.or.kr/img/call?cmd=VIEW&id=eb314a2a-a1e6-4e7c-bd37-f000456d742b&thumb,서울특별시 강남구 압구정로 162,37.5263097,127.027466,
865,청자 수입상가,서울 중구,,"['생활잡화', '쇼핑', '액세서리', '의류잡화']",https://cdn.visitkorea.or.kr/img/call?cmd=VIEW&id=256eb77c-24dd-4e9f-94e3-a7f564512a29&thumb,서울특별시 중구 남대문시장4길 29,37.55882474,126.977384,
866,클루 (코엑스점),서울 강남구,02-6002-3330,"['쇼핑', '액세서리', '주얼리', '준보석류']",https://cdn.visitkorea.or.kr/img/call?cmd=VIEW&id=4d677535-057a-46b1-9379-cf186be741b9&thumb,서울특별시 강남구 봉은사로 524,37.5129437,127.0571142,
867,풍월당,서울 강남구,02-512-2222,"['복합문화공간', '쇼핑', '음악', '클래식음악']",https://cdn.visitkorea.or.kr/img/call?cmd=VIEW&id=c1f55894-489a-47bb-a8af-29d10d73766b&thumb,서울특별시 강남구 도산대로53길 39,37.52582841,127.03892179999998,
868,자라 (영플라자점),서울 중구,02-2118-5270,['쇼핑'],https://cdn.visitkorea.or.kr/img/call?cmd=VIEW&id=771236fd-4226-4e8c-978e-75dedfaf48f6&thumb,서울특별시 중구 남대문로 67,37.56348677,126.9815302,
869,디아프바인,서울 강남구,02-544-2793,"['디자이너', '부자재', '쇼핑', '원단']",https://cdn.visitkorea.or.kr/img/call?cmd=VIEW&id=030f813f-b9ef-481e-8fb8-ea7485aefaac&thumb,서울특별시 강남구 언주로172길 15,37.52783954,127.0351687,
870,부르뎅 아동복 (Burdeng),서울 중구,02-755-5737,"['쇼핑', '아동용품', '유아용품', '잡화매장']",https://cdn.visitkorea.or.kr/img/call?cmd=VIEW&id=911f4ba2-ea8c-4aa0-96d6-a0e6e585335a&thumb,서울특별시 중구 남대문시장8길 14,37.55991821,126.9784327,
871,까르띠에 메종,서울 강남구,02-3440-5500,"['까르띠에', '까르띠에메종', '쇼핑', '수도권', '주얼리']",https://cdn.visitkorea.or.kr/img/call?cmd=VIEW&id=32bfbd3f-2b99-4e3a-94fa-88dd91a83131&thumb,서울특별시 강남구 압구정로 435,37.52704316,127.0449445,
872,더반하우스,서울 중구,02-3789-7933,"['빈티지', '쇼핑', '업사이클링', '인테리어소품']",https://cdn.visitkorea.or.kr/img/call?cmd=VIEW&id=46d82635-b2f3-4d08-8021-76df69f35fdd&thumb,서울 중구 을지로 12 시청광장지하도상가 615호,37.56562849,126.9786312,
873,스위트스팟,서울 중구,02-755-4875,"['뉴트로편집숍', '레트로감성', '복고풍', '쇼핑']",https://cdn.visitkorea.or.kr/img/call?cmd=VIEW&id=c04ae2b4-7e3a-4a14-a23a-81666e1f7cc8&thumb,서울 중구 을지로 88 을지로지하쇼핑센터 2구역 380호,37.56615272,126.9868693,
874,신영시장,서울 양천구,02-2604-3319,"['문화센터', '쇼핑', '전통시장', '취미공간']",https://cdn.visitkorea.or.kr/img/call?cmd=VIEW&id=23b3ab6f-434a-4154-8ccb-65fa992a3042&thumb,서울특별시 양천구 월정로 161-5,37.53301405,126.8360249,
875,북촌상회(북촌가게),서울 종로구,02-743-1470,"['기념품', '북촌가게', '북촌상회', '쇼핑', '수도권']",https://cdn.visitkorea.or.kr/img/call?cmd=VIEW&id=a1422b2d-328d-4805-ad37-58fa5ea6ffd7&thumb,서울특별시 종로구 계동길 37,37.57908833,126.9862761,
876,비단빔한복 (종로점),서울 종로구,02-744-2080,"['비단빔한복', '쇼핑', '수도권', '연중무휴', '한복']",https://cdn.visitkorea.or.kr/img/call?cmd=VIEW&id=593e621a-0649-4c3e-9a62-5575b63292d8&thumb,서울특별시 종로구 종로 195-1,37.57112793,126.9994607,
877,페라라 코리아,서울 용산구,02-797-5117,"['가방', '가죽', '쇼핑', '이태원']",https://cdn.visitkorea.or.kr/img/call?cmd=VIEW&id=1156c78c-1b4f-405f-a3c7-dc9261d642f7&thumb,서울특별시 용산구 이태원로 169,37.53465288,126.9926853,
878,경창시장,서울 양천구,02-2606-5988,"['무료배송', '쇼핑', '양천구', '전통시장']",https://cdn.visitkorea.or.kr/img/call?cmd=VIEW&id=5aebae9a-aa9e-4b4c-8e80-81306f247f3b&thumb,서울특별시 양천구 오목로9길 31,37.52493416,126.8421214,
879,더블유피엠,서울 중구,070-8829-9982,"['기념주화', '쇼핑', '우표수집', '한정판']",https://cdn.visitkorea.or.kr/img/call?cmd=VIEW&id=a604dd06-a313-4f82-9d8c-8c60145bd902&thumb,서울 중구 소공로 58 회현지하도상가 다-32호,37.56066688,126.98184779999998,
880,목사랑시장,서울 양천구,02-2647-9191,"['도서관', '맘카페', '쇼핑', '전통시장']",https://cdn.visitkorea.or.kr/img/call?cmd=VIEW&id=5b181ee8-b647-4e81-b4de-98c85fa0d6b4&thumb,서울특별시 양천구 목동중앙남로7길 8,37.53761613,126.866218,
881,크래프트 로담,서울 종로구,02-722-1256,"['공예업체', '공예품', '쇼핑', '협동조합']",https://cdn.visitkorea.or.kr/img/call?cmd=VIEW&id=351ca52b-2241-4045-80a0-1d8eace3a68b&thumb,서울특별시 종로구 북촌로5길 39,37.57933761,126.9827019,
