,name,region,tel,keyword,photo,address,lat,lon,Unnamed: 0
0,인천도시역사관,인천 연수구,032-850-6000,"['가족과함께', '가족여행', '교육여행', '문화공간', '문화시설', '미세먼지_피하는_실내여행']",https://cdn.visitkorea.or.kr/img/call?cmd=VIEW&id=0535cc6e-2fd0-4518-8af9-56eec864a63c&thumb,인천광역시 연수구 인천타워대로 238,37.39281282,126.63588929999999,
1,송도컨벤시아,인천 연수구,032-210-1114,"['공연/행사', '공연관람', '기획공연', '문화공간', '문화시설', '방송촬영', '복합문화공간']",https://cdn.visitkorea.or.kr/img/call?cmd=VIEW&id=983e29cc-4a09-4958-92ad-83716fd95d7f&thumb,인천광역시 연수구 센트럴로 123,37.3881431,126.6455531,
2,송도해돋이도서관,인천 연수구,032-749-6950,"['남녀노소', '도서관', '독서여행', '문화공간', '문화시설', '복합문화공간', '열린문화공간']",https://cdn.visitkorea.or.kr/img/call?cmd=VIEW&id=56544d8e-0ed9-4be2-b94e-5966c5c1e5fb&thumb,인천광역시 연수구 해돋이로 7,37.38582193,126.6590477,
3,청라호수도서관,인천 서구,032-563-9579,"['남녀노소', '도서관', '독서여행', '문화공간', '문화시설', '복합문화공간', '열린문화공간']",https://cdn.visitkorea.or.kr/img/call?cmd=VIEW&id=4e5cf583-e674-459e-8169-65fe05788bee&thumb,인천광역시 서구 크리스탈로 59,37.5306152,126.6362978,
4,인천어린이박물관,인천 미추홀구,032-432-5600,"['교과서속여행', '문화시설', '박물관', '수도권', '아이와함께', '이색체험', '인천어린이박물관']",https://cdn.visitkorea.or.kr/img/call?cmd=VIEW&id=606fa918-790f-466e-bce4-92957c13cb28&thumb,인천광역시 미추홀구 매소홀로 618,37.43654516,126.68646059999999,
5,재미난 박물관,인천 중구,032-765-0780,"['과학놀이터', '과학전시물', '과학체험', '문화시설', '사고력', '아이와함께체험여행']",https://cdn.visitkorea.or.kr/img/call?cmd=VIEW&id=b4c23c68-4110-411a-b3a1-68ce6eabe706&thumb,인천광역시 중구 인중로 190,37.4693807,126.6235199,
6,인천 검단선사박물관,인천 서구,032-440-6797,"['가족과함께', '문화시설', '미세먼지_피하는_실내여행', '박물관', '서울근교여행']",https://cdn.visitkorea.or.kr/img/call?cmd=VIEW&id=f2a78d22-2725-4a17-a44e-55cc6b474395&thumb,인천광역시 서구 고산후로121번길 7,37.59444584,126.6986824,
7,인천 녹청자박물관,인천 서구,032-563-4341,"['교육여행', '녹청자박물관', '문화시설', '박물관', '수도권', '아이와함께', '이색체험']",https://cdn.visitkorea.or.kr/img/call?cmd=VIEW&id=691c2d69-90c5-436d-87d6-743826908aff&thumb,인천광역시 서구 도요지로 54,37.55820186,126.6562692,
8,강화자연사박물관,인천 강화군,032-930-7090,"['강화가볼만한곳', '강화자연사박물관', '겨울방학가볼만한곳', '문화시설', '박물관']",https://cdn.visitkorea.or.kr/img/call?cmd=VIEW&id=230dc421-bf62-43c2-9161-fe66ab889a81&thumb,인천광역시 강화군 하점면 강화대로 994-33,37.77459527,126.4347208,
9,인천상륙작전기념관,인천 연수구,032-832-0915,"['기념관', '문화시설', '박물관', '수도권', '아이와함께', '인천상륙작전기념관']",https://cdn.visitkorea.or.kr/img/call?cmd=VIEW&id=0c8e7d9c-95a2-41b0-baf0-adf519cd43ed&thumb,인천광역시 연수구 청량로 138,37.41957419,126.6542363,
10,애보박물관,인천 남동구,032-466-3181,"['가족체험여행', '무장애', '문화공간', '문화시설', '박물관', '복합문화공간', '서울근교여행']",https://cdn.visitkorea.or.kr/img/call?cmd=VIEW&id=dbed04f8-a500-4ae3-8a7b-f48c530f802d&thumb,인천광역시 남동구 만의골로 71,37.45046296,126.76708190000001,
11,황어장터 3.1만세운동 기념관,인천 계양구,31 032-430-7948,"['3·1운동_100주년_여행지추천', '교과서속여행', '문화시설', '미세먼지_피하는_실내여행']",https://cdn.visitkorea.or.kr/img/call?cmd=VIEW&id=d9241821-809c-4012-b1f2-94503353b8cc&thumb,인천광역시 계양구 황어로126번길 9,37.57902483,126.73531170000001,
12,강화역사박물관,인천 강화군,032-934-7887,"['강화역사박물관', '교과서속여행', '나들이', '문화시설', '박물관', '실내여행지']",https://cdn.visitkorea.or.kr/img/call?cmd=VIEW&id=5f73479e-3893-4461-b496-dd87f219394b&thumb,인천광역시 강화군 하점면 강화대로 994-19,37.77371034,126.4353383,
13,인천학생과학관,인천 중구,032-880-0792,"['문화시설', '아이와함께', '인천학생과학관', '전시관', '주말추천여행지', '체험학습']",https://cdn.visitkorea.or.kr/img/call?cmd=VIEW&id=f74f7af2-58b8-4999-9b7b-1ddc37ffc8f5&thumb,인천광역시 중구 영종대로277번길 74-10,37.490658399999994,126.5065551,
14,인천학생교육문화회관,인천 중구,032-760-3400,"['문화시설', '사계절', '수도권', '스포츠센터', '실내놀이터', '인천학생교육문화회관']",https://cdn.visitkorea.or.kr/img/call?cmd=VIEW&id=952d7827-c050-434e-a14b-2f6d890f9a9a&thumb,인천광역시 중구 자유공원로 12,37.47571168,126.62967079999999,
15,남동소래아트홀,인천 남동구,032-460-0560,"['남동소래아트홀', '데이트코스', '문화공간', '문화시설', '문화행사', '복합문화공간']",https://cdn.visitkorea.or.kr/img/call?cmd=VIEW&id=a3678a2a-6aca-47dc-9740-ab896231fe89&thumb,인천광역시 남동구 아암대로1437번길 32,37.38746375,126.7245963,
16,인천광역시 여성문화회관,인천 부평구,032-511-3141,"['문화공간', '문화시설', '문화행사', '복합문화공간', '수도권', '아이와함께', '여성문화']",https://cdn.visitkorea.or.kr/img/call?cmd=VIEW&id=71ebdb9e-3a4d-4709-a8bc-9a86cd0e1fc8&thumb,인천광역시 부평구 길주로 539,37.50794083,126.7221957,
17,영종대교휴게소 기념관,인천 서구,032-560-6400,"['가족여행', '기념관', '드라이브여행', '문화시설', '바다풍경', '서울근교여행']",https://cdn.visitkorea.or.kr/img/call?cmd=VIEW&id=7bc39dea-0356-418d-aef3-6854383db9d7&thumb,인천광역시 서구 정서진남로 25,37.55377853,126.6070575,
18,수도국산달동네박물관,인천 동구,032-770-6131,"['교과서속여행', '문화시설', '박물관', '사계절', '수도국산달동네박물관', '수도권']",https://cdn.visitkorea.or.kr/img/call?cmd=VIEW&id=6afbedd7-4b1f-4dc6-9014-e8d92f953f52&thumb,인천광역시 동구 솔빛로 51,37.47777516,126.63922360000001,
19,부평역사박물관,인천 부평구,032-515-6471,"['교과서속여행', '문화시설', '박물관', '부평역사박물관', '서울근교갈만한곳']",https://cdn.visitkorea.or.kr/img/call?cmd=VIEW&id=a0e4309f-c59b-4171-8136-5177e1e3ab8d&thumb,인천광역시 부평구 굴포로 151,37.51214216,126.7379081,
20,녹청자박물관,인천 서구,032-560-2932,"['녹청자박물관', '문화시설', '박물관', '수도권', '아이와함께', '이색체험', '전시관']",https://cdn.visitkorea.or.kr/img/call?cmd=VIEW&id=a73f7eff-2feb-4f8c-b6a7-d5f47454f284&thumb,인천광역시 서구 도요지로 54,37.55820186,126.6562692,
21,인천서구문화회관,인천 서구,032-579-1150,"['데이트코스', '문화시설', '복합문화공간', '서울근교여행', '수도권', '아이와함께']",https://cdn.visitkorea.or.kr/img/call?cmd=VIEW&id=9cb663ec-15c1-415c-856c-6dd54c1caa20&thumb,인천광역시 서구 서달로 190,37.51569923,126.67988989999999,
22,강화화문석문화관,인천 강화군,032-930-7060,"['강화화문석문화관', '문화강좌', '문화시설', '수도권']",https://cdn.visitkorea.or.kr/img/call?cmd=VIEW&id=fb830250-a165-4884-993e-a4df29a21c57&thumb,인천광역시 강화군 송해면 장정양오길 413,37.79571134,126.4547784,
23,인천광역시 미추홀도서관,인천 남동구,032-462-3900,"['도서관', '문화시설', '사계절', '수도권', '아이와함께', '인천광역시미추홀도서관']",https://cdn.visitkorea.or.kr/img/call?cmd=VIEW&id=0a5a688b-948f-42a3-8668-b246e10e4ce5&thumb,인천광역시 남동구 인주대로776번길 53,37.44704741,126.72487029999999,
24,국립생물자원관,인천 서구,032-590-7000,"['국립생물자원관', '문화시설', '미세먼지_피하는_실내여행', '생물다양성', '서울근교여행']",https://cdn.visitkorea.or.kr/img/call?cmd=VIEW&id=48309ec4-155d-4da6-bebd-663e698c3616&thumb,인천광역시 서구 환경로 42,37.56915184,126.6385146,
25,인천문화예술회관,인천 남동구,032-427-8401,"['가족여행', '공연장', '나들이', '데이트코스', '문화시설', '서울근교여행', '수도권']",https://cdn.visitkorea.or.kr/img/call?cmd=VIEW&id=026096eb-2989-4365-9fa3-86abd7f47697&thumb,인천광역시 남동구 예술로 149,37.44758892,126.7000558,
26,부평 기적의도서관,인천 부평구,032-505-0612,"['겨울방학가볼만한곳', '도서관', '독서', '독서여행', '문화시설', '문화행사', '부평기적의도서관']",https://cdn.visitkorea.or.kr/img/call?cmd=VIEW&id=e7b75239-9a21-4775-98fc-e05292a06766&thumb,인천광역시 부평구 길주남로 166,37.503448299999995,126.74019380000001,
27,해든뮤지움,인천 강화군,032-937-6911,"['교육체험', '남녀노소', '문화공간', '문화시설', '문화예술', '문화예술공간', '복합문화공간']",https://cdn.visitkorea.or.kr/img/call?cmd=VIEW&id=fb13b51d-ad8e-46c2-97ce-d532cb0655bd&thumb,인천광역시 강화군 길상면 장흥로101번길 44,37.61213705,126.5088507,
28,인천통일관,인천 미추홀구,032-868-0113,"['문화시설', '북한생활', '수도권', '역사', '인천통일관', '전시관', '체험학습', '평화통일']",https://cdn.visitkorea.or.kr/img/call?cmd=VIEW&id=4b9cb0ff-777a-4a15-9e87-5c2ee708f1cd&thumb,인천광역시 미추홀구 수봉안길 84,37.45982986,126.6632947,
29,송암미술관,인천 미추홀구,032-440-6770,"['데이트코스', '문화시설', '미술관', '송암미술관', '수도권', '아이와함께', '연인과함께']",https://cdn.visitkorea.or.kr/img/call?cmd=VIEW&id=fcb40017-bfe6-4e9e-955b-290d84c34597&thumb,인천광역시 미추홀구 비류대로55번길 68,37.43441631,126.64221840000002,
30,인천광역시립박물관,인천 연수구,032-440-6750,"['드라이브여행', '무료관람', '문화시설', '박물관', '수도권', '시립박물관', '아이와함께']",https://cdn.visitkorea.or.kr/img/call?cmd=VIEW&id=77d0eee2-3968-409a-b072-64bb87ac0a3b&thumb,인천광역시 연수구 청량로160번길 26,37.42070925,126.65317979999999,
31,인천 부평도서관,인천 부평구,032-510-7300,"['독서', '문화시설', '아이와 함께', '인천부평도서관']",https://cdn.visitkorea.or.kr/img/call?cmd=VIEW&id=7477440a-f42e-4f0f-84a7-57bad8dceed7&thumb,인천광역시 부평구 경원대로 1191,37.48499649,126.7045861,
32,인천아트플랫폼,인천 중구,032-760-1000,"['공연&전시', '남녀노소', '문화시설', '문화예술', '문화예술공간', '문화행사']",https://cdn.visitkorea.or.kr/img/call?cmd=VIEW&id=e6f61385-3623-4e70-bd90-ec1ca72f6f6d&thumb,인천광역시 중구 제물량로218번길 3,37.47278273,126.6205946,
33,인천 화도진도서관,인천 동구,032-760-4100,"['공공도서관', '문화시설', '수도권', '화도진도서관']",https://cdn.visitkorea.or.kr/img/call?cmd=VIEW&id=7e60a760-306c-4a05-b6f9-9684fa135c70&thumb,인천광역시 동구 화도진로 122,37.48183742,126.62834950000001,
34,범패박물관,인천 미추홀구,032-884-8904,"['문화시설', '불교', '불교문화', '이색체험', '전통&역사', '전통문화', '전통역사']",https://cdn.visitkorea.or.kr/img/call?cmd=VIEW&id=f7624b60-758b-455e-9fc4-89493a5eb644&thumb,인천광역시 미추홀구 경인로70번길 11-13,37.46478542,126.65121640000001,
35,인천개항박물관,인천 중구,032-760-7508,"['가족과함께', '개항박물관', '근현대사', '문화시설', '미세먼지_피하는_실내여행']",https://cdn.visitkorea.or.kr/img/call?cmd=VIEW&id=9f03b61d-22ba-428c-bb77-177067f018a7&thumb,인천광역시 중구 신포로23번길 89,37.47331375,126.620332,
36,심은미술관,인천 강화군,032-933-0964,"['데이트코스', '문화시설', '미술관', '서울근교여행', '수도권', '심은미술관', '연인과함께']",https://cdn.visitkorea.or.kr/img/call?cmd=VIEW&id=8f2c0d6c-3614-4a26-a3f0-f35cccdd2ac1&thumb,인천광역시 강화군 하점면 강화서로 915-1,37.77353136,126.39089979999999,
37,인천 서구도서관,인천 서구,032-585-7100,"['독서', '문화시설', '서구도서관', '아이와 함께', '인천']",https://cdn.visitkorea.or.kr/img/call?cmd=VIEW&id=d4f24036-aca5-4038-a5b1-2adc29a32fc2&thumb,인천광역시 서구 건지로334번길 45,37.49436108,126.679627,
38,한국이민사박물관,인천 중구,032-440-4710,"['교과서속여행', '교육프로그램', '문화시설', '박물관', '수도권', '역사공부', '역사속']",https://cdn.visitkorea.or.kr/img/call?cmd=VIEW&id=75425417-47ad-4f0e-b6a3-0ecbd3273158&thumb,인천광역시 중구 월미로 329,37.47014308,126.60027109999999,
39,인천광역시 중앙도서관,인천 남동구,032-627-8396,"['남녀노소', '독서', '문화시설', '인천광역시', '중앙도서관']",https://cdn.visitkorea.or.kr/img/call?cmd=VIEW&id=b06d3832-0c72-4a00-af12-2de178c98cc0&thumb,인천광역시 남동구 정각로 9,37.45631112,126.703115,
40,중구생활사전시관,인천 중구,032-766-2202,"['가족과함께', '근현대사', '대불호텔', '문화시설', '미세먼지_피하는_실내여행']",https://cdn.visitkorea.or.kr/img/call?cmd=VIEW&id=9183e8f1-faca-4e65-b2bb-883d8994443a&thumb,인천광역시 중구 신포로23번길 101,37.47355849,126.61997679999999,
41,소리체험박물관,인천 강화군,032-9377-154,"['강화도가볼만한곳', '무더위_피해_실내여행', '문화시설', '미세먼지_피하는_실내여행']",https://cdn.visitkorea.or.kr/img/call?cmd=VIEW&id=79f8b9d4-24d0-4a6a-a94b-887f69a89e06&thumb,인천광역시 강화군 길상면 해안남로474번길 11,37.59896244,126.50824070000002,
42,인천 중구문화원,인천 중구,032-761-2778,"['문화시설', '복합문화공간', '열린문화공간', '인천', '중구문화원', '친구와 함께']",https://cdn.visitkorea.or.kr/img/call?cmd=VIEW&id=c56e90fe-c04a-4ec4-9581-2fa112265af2&thumb,인천광역시 중구 축항대로296번길 81,37.44017538,126.629407,
43,한중문화관,인천 중구,032-760-7860,"['가족여행', '나들이', '문화시설', '복합문화공간', '사계절', '상설공연', '수도권']",https://cdn.visitkorea.or.kr/img/call?cmd=VIEW&id=40250b11-5c90-4a25-aa24-56639761eb65&thumb,인천광역시 중구 제물량로 238,37.47358364,126.61877630000001,
44,인천광역시교육청북구도서관,인천 부평구,032-363-5000,"['독서', '문화시설', '북구도서관', '아이와 함께', '인천광역시']",https://cdn.visitkorea.or.kr/img/call?cmd=VIEW&id=e985565e-9958-4dde-83cf-8a8177495086&thumb,인천광역시 부평구 신트리로 21,37.50658208,126.7236378,
45,인천 계양도서관,인천 계양구,032-540-4400,"['계양도서관', '독서', '문화시설', '아이와 함께', '인천']",https://cdn.visitkorea.or.kr/img/call?cmd=VIEW&id=32f0aee1-b3f6-4e5c-85f4-0515aea22e5d&thumb,인천광역시 계양구 계양산로134번길 18,37.54600361,126.7301101,
46,인천주안도서관,인천 미추홀구,032-450-9100,"['독서', '문화시설', '아이와 함께', '인천주안도서관']",https://cdn.visitkorea.or.kr/img/call?cmd=VIEW&id=fc6ce050-f1ef-451f-b7fa-9ef05ed78750&thumb,인천광역시 미추홀구 구월남로 27,37.45550009,126.69287879999999,
47,강화문화원(강화미술관),인천 강화군,031-932-0011,"['강화문화원', '문화강좌', '문화시설', '열린문화공간']",https://cdn.visitkorea.or.kr/img/call?cmd=VIEW&id=429094b4-e3e8-45cb-a514-75cbb38b8b98&thumb,인천광역시 강화군 강화읍 남문로 52,37.74254964,126.48797250000001,
48,인천수봉문화회관,인천 미추홀구,032-868-7196,"['공연장', '기차여행', '나들이', '데이트코스', '문화시설', '서울근교여행', '수도권']",https://cdn.visitkorea.or.kr/img/call?cmd=VIEW&id=9b5126b5-7a52-4b4c-a5aa-3d0188fb869b&thumb,인천광역시 미추홀구 수봉안길 78,37.46153324,126.66226280000001,
49,돌체소극장,인천 미추홀구,032-772-7361,"['가족여행', '데이트코스', '돌체소극장', '문화시설', '수도권', '연인과함께', '예술']",https://cdn.visitkorea.or.kr/img/call?cmd=VIEW&id=ff162727-b05f-4589-95a6-82a43754524a&thumb,인천광역시 미추홀구 매소홀로 573,37.43879643,126.6857463,
50,계양문화회관,인천 계양구,032-551-6602,"['계양문화회관', '데이트코스', '문화시설', '복합문화공간', '서울근교여행', '수도권']",https://cdn.visitkorea.or.kr/img/call?cmd=VIEW&id=42230d09-4bbd-4410-8c65-17a64ef94fcd&thumb,인천광역시 계양구 계양산로35번길 11,37.54607888,126.71813119999999,
51,인천동구청소년수련관,인천 동구,032-777-7942,"['교육여행', '교육프로그램', '문화공간', '문화시설', '복합문화공간', '수도권']",https://cdn.visitkorea.or.kr/img/call?cmd=VIEW&id=9a73a874-9670-4a0d-95a9-a62ceae088d7&thumb,인천광역시 동구 솔빛로 82,37.47606794,126.6425753,
52,혜명단청박물관,인천 중구,032-868-5898,"['가족과함께', '건축여행', '고건축', '남녀노소', '문화시설', '불교문화', '아이와함께']",https://cdn.visitkorea.or.kr/img/call?cmd=VIEW&id=4d6db822-62d3-477e-adfd-b85ac4a6ac17&thumb,인천광역시 중구 신포로15번길 48,37.47190732,126.6220591,
53,영종역사관,인천 중구,032-760-6307,"['문화시설', '생활문화', '아이와함께', '영종도', '인천권']",https://cdn.visitkorea.or.kr/img/call?cmd=VIEW&id=f3132c4b-41d5-4b57-93cc-61726d1bb89a&thumb,인천광역시 중구 구읍로 63,37.48906984,126.5777145,
54,삼산도서관,인천 부평구,032-330-7012,"['남녀노소', '도서관', '독서여행', '문화공간', '문화시설', '복합문화공간', '아이와함께']",https://cdn.visitkorea.or.kr/img/call?cmd=VIEW&id=48f2f4d8-26dd-493a-870e-5f7655dc2900&thumb,인천광역시 부평구 부평북로 445,37.52217318,126.74306899999999,
55,전원미술관,인천 강화군,032-933-0045,"['데이트코스', '문화시설', '사계절', '상설공연', '수도권', '실내여행지', '아이와함께']",https://cdn.visitkorea.or.kr/img/call?cmd=VIEW&id=6b9e1564-cf6f-478b-8e7a-131ba80b714a&thumb,인천광역시 강화군 강화대로766번길 27,37.76665206,126.4584439,
56,송도 초콜릿문화박물관,인천 연수구,032-831-9922,"['가족과함께', '남녀노소', '문화시설', '복합문화공간', '아이와함께', '역사속으로']",https://cdn.visitkorea.or.kr/img/call?cmd=VIEW&id=221c483b-de51-4cc1-9a09-02e18e10ed63&thumb,인천광역시 연수구 능허대로 227-10,37.41598224,126.6516105,
57,인천 부평문화원,인천 부평구,032-505-9001,"['문화강좌', '문화시설', '열린문화공간', '인천부평문화원', '친구와 함께']",https://cdn.visitkorea.or.kr/img/call?cmd=VIEW&id=c96ccdd2-939a-411f-b085-4c37f1015fda&thumb,인천광역시 부평구 굴포로 151,37.51214216,126.7379081,
58,인하대학교 정석학술정보관,인천 미추홀구,032-860-9014,"['가족여행', '교과서속여행', '도서관', '문화시설', '박물관', '수도권', '아이와함께']",https://cdn.visitkorea.or.kr/img/call?cmd=VIEW&id=3a60efd6-437e-4330-8cd2-2712181c0c91&thumb,인천광역시 미추홀구 인하로 100,37.45144803,126.65154229999999,
59,인하대학교 박물관,인천 미추홀구,032-860-8260,"['가족여행', '교과서속여행', '문화시설', '박물관', '수도권', '아이와함께', '인하대학교박물관']",https://cdn.visitkorea.or.kr/img/call?cmd=VIEW&id=b3bd90c5-f879-411a-bf5e-0a95985f2721&thumb,인천광역시 미추홀구 인하로 100,37.45144803,126.65154229999999,
60,추억극장미림,인천 동구,032-764-8880,"['문화공간', '문화시설', '문화예술', '복합문화공간', '아이와함께', '열린문화공간']",https://cdn.visitkorea.or.kr/img/call?cmd=VIEW&id=b9e133b0-f3a6-4d52-b367-e5ca28e77cba&thumb,인천광역시 동구 화도진로 31,37.47549514,126.6342924,
61,가천박물관,인천 연수구,032-833-4747,"['가천박물관', '근대문화유산', '무료관람', '문화시설', '박물관', '서울근교여행']",https://cdn.visitkorea.or.kr/img/call?cmd=VIEW&id=f6482062-f4e4-4b0c-b485-ce92df51cd1c&thumb,인천광역시 연수구 청량로102번길 40-9,37.41847997,126.65760259999999,
62,강화문예회관,인천 강화군,032-930-7046,"['강화문예회관', '남녀노소', '문화공간', '문화시설']",https://cdn.visitkorea.or.kr/img/call?cmd=VIEW&id=85d62662-6481-4745-b061-6dcd26043940&thumb,인천광역시 강화군 강화읍 고비고개로19번길 12,37.74536636,126.47457279999999,
63,짜장면박물관,인천 중구,032-773-9812,"['문화시설', '아이와함께', '이색체험', '인천권', '짜장면박물관']",https://cdn.visitkorea.or.kr/img/call?cmd=VIEW&id=b05bfc85-2007-4f59-a1df-5c13d07b0ac2&thumb,인천광역시 중구 차이나타운로 56-14,37.4748564,126.61819129999999,
64,인천음악문화원,인천 미추홀구,032-429-0248,"['문화시설', '음악공연', '인천', '인천음악문화원', '친구와 함께']",https://cdn.visitkorea.or.kr/img/call?cmd=VIEW&id=00fde28b-05e7-41d8-85e5-57e1979e1fd1&thumb,인천광역시 미추홀구 경인로 391,37.45856675,126.68354740000002,
65,연수문화원,인천 연수구,032-821-6229,"['문화시설', '아이와 함께', '연수문화원', '열린문화공간', '친구와 함께']",https://cdn.visitkorea.or.kr/img/call?cmd=VIEW&id=null&thumb,인천광역시 연수구 비류대로 299,37.42630571,126.6676686,
66,은율탈춤전수관,인천 미추홀구,032-875-9953,"['가족이색체험', '문화시설', '아이와 함께', '은율탈춤전수관', '이색체험', '전통문화']",https://cdn.visitkorea.or.kr/img/call?cmd=VIEW&id=d9bc065b-43d7-4e3e-bc99-0263b0c974a2&thumb,인천광역시 미추홀구 수봉안길 78,37.46153324,126.66226280000001,
67,인천어린이과학관,인천 계양구,032-456-2500,"['과학관', '문화시설', '어린이', '인천가볼만한곳', '인천어린이과학관']",https://cdn.visitkorea.or.kr/img/call?cmd=VIEW&id=467ff5be-3fbe-494a-9408-fc778dd46762&thumb,인천광역시 계양구 방축로 21,37.55157123,126.7399488,
68,소래역사관,인천 남동구,032-460-0590,"['무장애여행지', '문화시설', '박물관', '열린관광_모두의여행', '열린관광지', '인천가볼만한곳']",https://cdn.visitkorea.or.kr/img/call?cmd=VIEW&id=120abab2-6f2f-4588-ae00-e37b40b811d8&thumb,인천광역시 남동구 아암대로 1605,37.39816437,126.7375999,
69,화도진전시관,인천 동구,032-770-6892,"['문화관광', '문화시설', '역사공부', '화도진전시관', '화도진지']",https://cdn.visitkorea.or.kr/img/call?cmd=VIEW&id=d67b6fbc-559b-4842-958a-32cffdb56e28&thumb,인천광역시 동구 화도진로 114,37.48147946,126.62835279999999,
70,인천대공원 목재문화체험장,인천 남동구,032-440-58885884,"['가족과함께', '목재문화체험장', '문화시설', '아이와함께', '이색체험']",https://cdn.visitkorea.or.kr/img/call?cmd=VIEW&id=3bc5cac0-1db2-40e7-b347-ec82122df422&thumb,인천광역시 남동구 무네미로 236,37.45769366,126.74929080000001,
71,강화전쟁박물관,인천 강화군,032-934-4291,"['강화전쟁박물관', '문화시설', '역사체험', '인천권']",https://cdn.visitkorea.or.kr/img/call?cmd=VIEW&id=aff15fc5-3149-4456-8cc1-c66e7b727b49&thumb,인천광역시 강화군 강화읍 해안동로1366번길 18,37.73357906,126.5159972,
72,도솔미술관,인천 강화군,070-4125-1232,"['도솔미술관', '문화시설', '문화예술공간', '예술공간', '인천권']",https://cdn.visitkorea.or.kr/img/call?cmd=VIEW&id=08cf632f-9f5d-49f6-9871-42644c2fa009&thumb,인천광역시 강화군 길상면 길상로210번길 52-71,37.64199726,126.5064723,
73,강화문학관,인천 강화군,032-933-0605,"['강화문학관', '교육프로그램', '문화시설', '인천권']",https://cdn.visitkorea.or.kr/img/call?cmd=VIEW&id=83017a7f-e077-43aa-8d32-92f919d135a1&thumb,인천광역시 강화군 강화읍 관청길 40,37.74955128,126.4855737,
74,황어장터 3.1만세운동 기념관,인천 계양구,31 032-430-7948,"['3·1운동_100주년_여행지추천', '교과서속여행', '문화시설', '미세먼지_피하는_실내여행']",https://cdn.visitkorea.or.kr/img/call?cmd=VIEW&id=d9241821-809c-4012-b1f2-94503353b8cc&thumb,인천광역시 계양구 황어로126번길 9,37.57902483,126.7353117,
75,강화역사박물관,인천 강화군,032-934-7887,"['강화역사박물관', '교과서속여행', '나들이', '문화시설', '박물관', '실내여행지']",https://cdn.visitkorea.or.kr/img/call?cmd=VIEW&id=5f73479e-3893-4461-b496-dd87f219394b&thumb,인천광역시 강화군 하점면 강화대로 994-19,37.77371034,126.4353383,
76,스파시스,인천 미추홀구,032-866-4545,"['가족여행', '관광지', '사일온천', '수도권', '실내여행지', '아이와함께', '온천&스파']",https://cdn.visitkorea.or.kr/img/call?cmd=VIEW&id=2851acbc-51d0-4b79-b2fe-d439e1107eb6&thumb,인천광역시 미추홀구 경인로 263,37.46277933,126.67195320000002,
77,수도국산달동네박물관,인천 동구,032-770-6131,"['교과서속여행', '문화시설', '박물관', '사계절', '수도국산달동네박물관', '수도권']",https://cdn.visitkorea.or.kr/img/call?cmd=VIEW&id=6afbedd7-4b1f-4dc6-9014-e8d92f953f52&thumb,인천광역시 동구 솔빛로 51,37.47777516,126.6392236,
78,부평역사박물관,인천 부평구,032-515-6471,"['교과서속여행', '문화시설', '박물관', '부평역사박물관', '서울근교갈만한곳']",https://cdn.visitkorea.or.kr/img/call?cmd=VIEW&id=a0e4309f-c59b-4171-8136-5177e1e3ab8d&thumb,인천광역시 부평구 굴포로 151,37.51214216,126.7379081,
79,인천문화예술회관,인천 남동구,032-427-8401,"['가족여행', '공연장', '나들이', '데이트코스', '문화시설', '서울근교여행', '수도권']",https://cdn.visitkorea.or.kr/img/call?cmd=VIEW&id=026096eb-2989-4365-9fa3-86abd7f47697&thumb,인천광역시 남동구 예술로 149,37.44758892,126.7000558,
80,인천우체국,인천 중구,032-773-2106,"['관광지', '사계절', '수도권', '실내여행지', '역사', '역사공부', '역사를품은곳']",https://cdn.visitkorea.or.kr/img/call?cmd=VIEW&id=eb8fc466-01dd-4602-8197-b7aa16bd3443&thumb,인천광역시 중구 제물량로 183,37.47013228,126.6235355,
81,인천개항박물관,인천 중구,032-760-7508,"['가족과함께', '개항박물관', '근현대사', '문화시설', '미세먼지_피하는_실내여행']",https://cdn.visitkorea.or.kr/img/call?cmd=VIEW&id=9f03b61d-22ba-428c-bb77-177067f018a7&thumb,인천광역시 중구 신포로23번길 89,37.47331375,126.620332,
82,중구생활사전시관,인천 중구,032-766-2202,"['가족과함께', '근현대사', '대불호텔', '문화시설', '미세먼지_피하는_실내여행']",https://cdn.visitkorea.or.kr/img/call?cmd=VIEW&id=9183e8f1-faca-4e65-b2bb-883d8994443a&thumb,인천광역시 중구 신포로23번길 101,37.47355849,126.6199768,
83,한중문화관,인천 중구,032-760-7860,"['가족여행', '나들이', '문화시설', '복합문화공간', '사계절', '상설공연', '수도권']",https://cdn.visitkorea.or.kr/img/call?cmd=VIEW&id=40250b11-5c90-4a25-aa24-56639761eb65&thumb,인천광역시 중구 제물량로 238,37.47358364,126.6187763,
84,인천수봉문화회관,인천 미추홀구,032-868-7196,"['공연장', '기차여행', '나들이', '데이트코스', '문화시설', '서울근교여행', '수도권']",https://cdn.visitkorea.or.kr/img/call?cmd=VIEW&id=9b5126b5-7a52-4b4c-a5aa-3d0188fb869b&thumb,인천광역시 미추홀구 수봉안길 78,37.46153324,126.6622628,
85,전원미술관,인천 강화군,032-933-0045,"['데이트코스', '문화시설', '사계절', '상설공연', '수도권', '실내여행지', '아이와함께']",https://cdn.visitkorea.or.kr/img/call?cmd=VIEW&id=6b9e1564-cf6f-478b-8e7a-131ba80b714a&thumb,인천광역시 강화군 송해면 강화대로766번길 27,37.76665206,126.4584439,
86,덕산국민여가캠핑장,인천 강화군,032-930-7055,"['가족여행', '덕산', '레포츠', '삼림', '캠핑장']",https://cdn.visitkorea.or.kr/img/call?cmd=VIEW&id=688d5a1e-72cf-419e-ba09-c22a9eb2a27d&thumb,인천광역시 강화군 내가면 강화서로227번길 91,37.7175416,126.385956,0.0
87,계양산 둘레길,인천 계양구,032-450-4902,"['남녀노소', '레포츠', '산책코스', '언택트관광지_100선', '자연속으로', '자연여행']",https://cdn.visitkorea.or.kr/img/call?cmd=VIEW&id=4fa34a7f-2dca-40e6-b552-83cb3ec17715&thumb,인천광역시 계양구 다남동 산65-1,37.5601148,126.71600829999998,1.0
88,[인천 개항 누리길] 1시간 코스,인천 중구,032-440-4055,"['누리길', '레포츠', '산책코스', '산책하기좋은곳', '아이와함께', '역사', '역사공부']",https://cdn.visitkorea.or.kr/img/call?cmd=VIEW&id=fbb381f4-36ee-4d8e-9256-29bb89d556b8&thumb,인천광역시 중구 제물량로 269,37.4779641,126.6177128,2.0
89,인천아시아드주경기장,인천 서구,032-454-2014,"['가족과함께', '공연/행사', '남녀노소', '레포츠', '아이와함께', '육상경기', '인천서구']",https://cdn.visitkorea.or.kr/img/call?cmd=VIEW&id=7784fd96-bd97-4e1a-a25c-25dd12c045f6&thumb,인천광역시 서구 봉수대로 806,37.55560360000001,126.6578199,3.0
90,송도종합스포츠센터,인천 연수구,032-899-4850,"['레포츠', '송도', '스포츠센터', '인천연수구']",https://cdn.visitkorea.or.kr/img/call?cmd=VIEW&id=56bb8c89-0df0-457a-90cb-2dc29bd76169&thumb,인천광역시 연수구 인천신항대로892번길 40,37.3511891,126.6184667,4.0
91,덱스타이드 요트,인천 중구,02-6929-2877,"['가족과함께', '레포츠', '복합레저스포츠', '수상레포츠', '연인과함께', '요트운전']",https://cdn.visitkorea.or.kr/img/call?cmd=VIEW&id=4361c40e-6217-4e97-be94-cba6485a9f82&thumb,인천광역시 중구 왕산마리나길 131,37.456744,126.3572188,5.0
92,함허동천야영장,인천 강화군,032-930-7066,['레포츠'],https://cdn.visitkorea.or.kr/img/call?cmd=VIEW&id=873f050f-1eb8-4668-8451-e4f45fd8e1f4&thumb,인천광역시 강화군 화도면 해안남로1196번길 38,37.6120401,126.4530611,6.0
93,[강화 나들길 제3코스] 고려왕릉 가는 길,인천 강화군,032-934-1906,"['강화나들길', '고려왕릉', '레포츠', '산책길', '역사탐험', '연인과함께', '친구와함께']",https://cdn.visitkorea.or.kr/img/call?cmd=VIEW&id=f0fca26a-798c-4fe2-9d8f-5b056e219425&thumb,인천광역시 강화군 강화읍 청하동길 24,37.7465557,126.4815671,7.0
94,만정캠핑장,인천 중구,032-747-1144,"['가족여행', '낚시', '레포츠', '만정캠핑장', '인천', '캠핑장']",https://cdn.visitkorea.or.kr/img/call?cmd=VIEW&id=a49756c9-ea0f-4bfd-86bb-f35dfb134c8d&thumb,인천광역시 중구 영종순환로 279-20,37.5153643,126.5496602,8.0
95,강화레포츠파크,인천 강화군,032-937-7481,"['가족과함께', '남녀노소', '레포츠', '레포츠여행', '레포츠체험', '복합레저스포츠']",https://cdn.visitkorea.or.kr/img/call?cmd=VIEW&id=835c9569-d63a-4fc8-aad2-1a9b643eb7e0&thumb,인천광역시 강화군 불은면 중앙로 546-34,37.7154831,126.4534337,9.0
96,여성문화회관 수영장(실내),인천 부평구,032-517-2051,"['레포츠', '수도권', '수영장', '여성문화회관수영장']",https://cdn.visitkorea.or.kr/img/call?cmd=VIEW&id=6271a9ba-a068-449f-845e-93ba4f9d4f89&thumb,인천광역시 부평구 길주로 539,37.507813,126.7219616,10.0
97,영종씨사이드 레일바이크,인천 중구,032-719-7778,"['가족과함께', '경치좋은곳', '남녀노소', '레일바이크', '레포츠', '바다경치', '아이와함께']",https://cdn.visitkorea.or.kr/img/call?cmd=VIEW&id=fc6219af-fd62-4c85-b4b4-479b33b5ba7c&thumb,인천광역시 중구 구읍로 75,37.4885453,126.5774102,11.0
98,강화도 황청낚시터,인천 강화군,032-933-0105,"['강화도', '낚시터', '레포츠', '황청낚시터']",https://cdn.visitkorea.or.kr/img/call?cmd=VIEW&id=1288e07c-f4c1-40e7-8da3-f45384127940&thumb,인천광역시 강화군 내가면 황청포구로443번길 90,37.7147779,126.3647939,12.0
99,[인천 개항 누리길] 3시간 코스,인천 중구,032-440-4055,"['걷기길', '레포츠', '산책코스', '산책하기좋은곳', '수도권', '아이와함께', '역사']",https://cdn.visitkorea.or.kr/img/call?cmd=VIEW&id=8d5de004-2e13-4ab1-bfdf-957c9ac66760&thumb,인천광역시 중구 제물량로 269,37.4779641,126.6177128,13.0
100,인천대공원 사계절썰매장,인천 남동구,032-465-1524,"['가족과함께', '겨울스포츠', '눈썰매장', '눈썰매장', '레포츠', '복합레저스포츠']",https://cdn.visitkorea.or.kr/img/call?cmd=VIEW&id=89eb7771-74bb-498f-a615-73dbed30addf&thumb,인천 남동구 무네미로 238,37.4510879,126.7466778,14.0
101,[강화 나들길 제1코스] 심도역사문화길,인천 강화군,032-934-1906,"['강화나들길', '걷기길', '남녀노소', '레포츠', '산책길', '산책코스', '산책하기']",https://cdn.visitkorea.or.kr/img/call?cmd=VIEW&id=a34a4339-38fc-4cea-8427-489d50c10478&thumb,인천광역시 강화군 강화읍 청하동길 24,37.7465557,126.4815671,15.0
102,인천광역시 미추홀구 청소년수련관,인천 미추홀구,032-887-5270,"['교육프로그램', '레포츠', '인천미추홀구', '청소년수련관']",https://cdn.visitkorea.or.kr/img/call?cmd=VIEW&id=3b6aaa16-9655-41dc-8b7f-e2983a211e54&thumb,인천광역시 미추홀구 경인로42번길 23,37.46336760000001,126.6487115,16.0
103,국화지낚시터,인천 강화군,010-3448-6783,"['가족과함께', '강화읍', '국화지낚시터', '낚시', '레포츠']",https://cdn.visitkorea.or.kr/img/call?cmd=VIEW&id=4dc408fb-0eaa-4d9b-bae1-0599b2fab7f9&thumb,인천광역시 강화군 강화읍 국화길 51,37.74824270000001,126.4674823,17.0
104,인천서구 사계절썰매장,인천 서구,032-565-3483,"['겨울스포츠', '눈썰매장', '레포츠', '복합레저스포츠', '사계절썰매장', '아이와함께']",https://cdn.visitkorea.or.kr/img/call?cmd=VIEW&id=320f8743-66c0-443e-85b2-25598e667e5d&thumb,인천광역시 서구 심곡로 166,37.5474686,126.68365459999998,18.0
105,강화도,인천 강화군,032-933-3624,"['강화군', '강화바다', '강화바다낚시', '레포츠', '바다낚시', '인천권']",https://cdn.visitkorea.or.kr/img/call?cmd=VIEW&id=b97ca6c5-e835-4a1f-9000-dd2b0521051f&thumb,인천광역시 강화군 강화읍 강화대로,37.7437371,126.4956434,19.0
106,신선낚시터,인천 강화군,032-933-1366,"['강화군', '레포츠', '민물낚시', '신선낚시터', '자연경관']",https://cdn.visitkorea.or.kr/img/call?cmd=VIEW&id=dc61e31c-bdce-4b9e-94e6-5b9ef52290a6&thumb,인천광역시 강화군 내가면 고천리 1820,37.7202469,126.41132179999998,20.0
107,계양경기장 계양체육관,인천 계양구,032-550-3500,"['레포츠', '실내체육관', '인천계양구', '종합경기장']",https://cdn.visitkorea.or.kr/img/call?cmd=VIEW&id=b02ab53e-eec8-4579-8d07-45e60f4f7442&thumb,인천광역시 계양구 봉오대로 855,37.5300933,126.7225357,21.0
108,인산낚시터,인천 강화군,032-937-8788,"['낚시터', '레포츠', '인천권']",https://cdn.visitkorea.or.kr/img/call?cmd=VIEW&id=cc80391f-3390-4772-87aa-00df589d0059&thumb,인천광역시 강화군 양도면 중앙로787번길 8-2,37.6990805,126.43095929999998,22.0
109,계산국민체육센터,인천 계양구,032-717-7600,"['레포츠', '인천계양구', '체육센터']",https://cdn.visitkorea.or.kr/img/call?cmd=VIEW&id=199b8600-b91c-49b5-b531-3d90728d56f2&thumb,인천광역시 계양구 주부토로 580,37.5459931,126.7291679,23.0
110,계양경기장 아시아드양궁장,인천 계양구,032-550-3500,"['계양경기장', '계양경기장아시아드양궁장', '레포츠', '아시아드양궁장', '양궁장']",https://cdn.visitkorea.or.kr/img/call?cmd=VIEW&id=8c6ef32f-02bc-49e6-af94-82ba3d943edd&thumb,인천광역시 계양구 봉오대로 855,37.5300933,126.7225357,24.0
111,스쿠바몰,인천 부평구,080-272-1111,['레포츠'],https://cdn.visitkorea.or.kr/img/call?cmd=VIEW&id=ccd20bf7-cdea-4553-b191-38aa4bc604f6&thumb,인천광역시 부평구 충선로 191,37.5054779,126.7358947,25.0
112,인천문학경기장(인천월드컵경기장),인천 미추홀구,032-455-2677,"['레포츠', '인천미추홀구', '인천월드컵경기장']",https://cdn.visitkorea.or.kr/img/call?cmd=VIEW&id=39d7d4ee-3999-4db6-bd82-ce55a1fcf01b&thumb,인천 미추홀구 매소홀로 618,37.4360819,126.6891166,26.0
113,강화 길정지,인천 강화군,032-937-3114,"['강화', '낚시터', '레포츠', '밤낚시']",https://cdn.visitkorea.or.kr/img/call?cmd=VIEW&id=bc2fac00-2628-4a53-8dcb-9e7fb2223651&thumb,인천광역시 강화군 양도면 길정리 산201,37.6616191,126.4615991,27.0
114,선두포낚시터,인천 강화군,032-937-9978,"['강화낚시터', '레포츠', '민물낚시', '인천권']",https://cdn.visitkorea.or.kr/img/call?cmd=VIEW&id=1bb8f80e-7e39-4306-b8d3-56e36f54852c&thumb,인천광역시 강화군 화도면 덕포길,37.6245556,126.461986,28.0
115,[강화 나들길 제2코스] 호국돈대길,인천 강화군,032-934-1906,"['강화나들길', '걷기길', '경치좋은곳', '레포츠', '산책길', '산책하기', '산책하기좋은곳']",https://cdn.visitkorea.or.kr/img/call?cmd=VIEW&id=8998254e-ea35-4297-af10-d7d84082709d&thumb,인천광역시 강화군 강화읍 청하동길 24,37.7465557,126.4815671,29.0
116,[강화 나들길 제8코스] 철새 보러 가는 길,인천 강화군,032-934-1906,"['걷기길', '레포츠', '산책하기좋은곳', '연인과함께', '자연풍경', '철새도래지']",https://cdn.visitkorea.or.kr/img/call?cmd=VIEW&id=8a33c0d2-6d8d-4559-98d5-ea13142bda89&thumb,인천광역시 강화군 강화읍 청하동길 24,37.7465557,126.4815671,30.0
117,[강화 나들길 제5코스] 고비고개길,인천 강화군,032-934-1906,"['걷기길', '레포츠', '산책길', '산책하기', '산책하기좋은곳', '연인과함께', '자연마을']",https://cdn.visitkorea.or.kr/img/call?cmd=VIEW&id=77bfdce0-f88d-47ad-a51d-32b4df17ba28&thumb,인천광역시 강화군 강화읍 청하동길 24,37.7465557,126.4815671,31.0
118,[인천 개항 누리길] 2시간 코스,인천 중구,032-440-4055,"['누리길', '레포츠', '산책길', '산책코스', '산책하기좋은곳', '아이와함께', '역사']",https://cdn.visitkorea.or.kr/img/call?cmd=VIEW&id=c1ae9b42-7903-45bd-b5ef-125bb6cd29fe&thumb,인천광역시 중구 제물량로 269,37.4779641,126.6177128,32.0
119,강화 자전거 관광코스,인천 강화군,032-930-3731,['레포츠'],https://cdn.visitkorea.or.kr/img/call?cmd=VIEW&id=416d17a3-b510-4059-934d-37a63d2e72b7&thumb,인천광역시 강화군 강화읍,37.7483209,126.4835663,33.0
120,[강화 나들길 제4코스] 해가 지는 마을 길,인천 강화군,032-934-1906,"['걷기길', '농촌마을', '레포츠', '산책하기좋은곳', '연인과함께', '자연풍경', '친구와함께']",https://cdn.visitkorea.or.kr/img/call?cmd=VIEW&id=f3514823-c2fe-4047-a625-be4b7fa6adc8&thumb,인천광역시 강화군 강화읍 청하동길 24,37.7465557,126.4815671,34.0
121,[강화 나들길 제6코스] 화남생가 가는 길,인천 강화군,032-934-1906,"['경치좋은곳', '레포츠', '바다경치', '산책길', '산책하기', '산책하기좋은곳', '연인과함께']",https://cdn.visitkorea.or.kr/img/call?cmd=VIEW&id=fbed13b9-b9d3-4821-a0f0-5e08da45fb35&thumb,인천광역시 강화군 강화읍 청하동길 24,37.7465557,126.4815671,35.0
122,나인승마클럽,인천 계양구,032-556-8005,"['가족과함께', '레포츠', '승마', '승마레슨', '승마장', '승마체험', '승마캠프', '승마트레킹']",https://cdn.visitkorea.or.kr/img/call?cmd=VIEW&id=6101919a-bd3a-4d1a-b1f4-5286510475f2&thumb,인천 계양구 방축로76번길 61,37.5569394,126.7327554,36.0
123,[강화 나들길 제7코스] 낙조보러 가는 길,인천 강화군,032-934-1906,"['걷기길', '레포츠', '산책길', '산책하기', '산책하기좋은곳', '연인과함께', '자연마을']",https://cdn.visitkorea.or.kr/img/call?cmd=VIEW&id=d12dcd30-59e2-4cb1-84b1-cd9ca3ce275e&thumb,인천광역시 강화군 강화읍 청하동길 24,37.7465557,126.4815671,37.0
124,인천광역시 청소년수련관,인천 남동구,032-465-6827,"['레포츠', '숙박', '인천숙소', '청소년수련원']",https://cdn.visitkorea.or.kr/img/call?cmd=VIEW&id=e3c3e8e2-aa20-4f6d-afc7-7ae6d22b4c10&thumb,인천 남동구 장수로 42,37.4535494,126.7500018,38.0
125,인천아시아드 주경기장 연희크리켓경기장,인천 서구,032-458-2014,"['레포츠', '연희크리켓경기장', '인천서구', '인천아시아드경기장']",https://cdn.visitkorea.or.kr/img/call?cmd=VIEW&id=8ee4fe3e-042f-449a-b8a8-58f4f4f0a817&thumb,인천광역시 서구 봉수대로 806,37.55560360000001,126.6578199,39.0
126,인천 올림픽기념국민생활관,인천 남동구,032-468-8182,"['레포츠', '올림픽기념국민생활관', '인천남동구', '종합스포츠센터']",https://cdn.visitkorea.or.kr/img/call?cmd=VIEW&id=c6ad5633-02f4-41dd-bf46-5ebe3d53f115&thumb,인천광역시 남동구 구월로 251,37.4571784,126.718678,40.0
127,갈매기배낚시,인천 동구,032-765-4191,"['레포츠', '바다낚시', '인천바다', '인천바다낚시']",https://cdn.visitkorea.or.kr/img/call?cmd=VIEW&id=undefined&thumb,인천광역시 동구 보세로 4,37.4874962,126.6232088,41.0
128,파라다이스 카지노 인천공항점,인천 중구,032-729-3121,['레포츠'],https://cdn.visitkorea.or.kr/img/call?cmd=VIEW&id=62e38485-305e-4e61-950d-60de5b0e5d4b&thumb,인천광역시 중구 영종해안남로321번길 208,37.4404833,126.4575076,42.0
129,황산지(장흥지),인천 강화군,032-937-2732,"['강화군', '겨울낚시', '낚시', '레포츠', '저수지', '황산지']",https://cdn.visitkorea.or.kr/img/call?cmd=VIEW&id=b3db8ec1-7f77-485d-93f9-2aaa92126a19&thumb,인천광역시 강화군 길상면 장흥리,37.6170044,126.5118234,43.0
130,계양경기장,인천 계양구,032-550-3500,"['계양경기장', '레포츠', '인천계양구', '종합경기장']",https://cdn.visitkorea.or.kr/img/call?cmd=VIEW&id=7bbfee28-cb11-400a-9cc4-909038d82328&thumb,인천광역시 계양구 봉오대로 855,37.5300933,126.7225357,44.0
131,인천국제컨트리클럽,인천 서구,032-562-9991,['레포츠'],https://cdn.visitkorea.or.kr/img/call?cmd=VIEW&id=undefined&thumb,인천광역시 서구 도요지로 37,37.5627816,126.65981409999998,45.0
132,소래포구 종합어시장,인천 남동구,032-719-1522,"['가족여행', '나들이', '나홀로여행', '먹거리', '소래포구종합어시장', '쇼핑', '수도권']",https://cdn.visitkorea.or.kr/img/call?cmd=VIEW&id=e80e3bef-5247-49f4-9944-685447cfdde7&thumb,인천광역시 남동구 소래역로 12,37.39873702,126.7371747,
133,교동도 대룡시장,인천 강화군,032-930-4500,"['가족여행', '교동도대룡시장', '나들이', '나홀로여행', '데이트코스', '먹거리']",https://cdn.visitkorea.or.kr/img/call?cmd=VIEW&id=5165bba1-bec4-4eff-8c75-48f3ccddfc1b&thumb,인천광역시 강화군 교동면 교동남로 35,37.78048938,126.2810496,
134,인천 종합어시장,인천 중구,032-888-4241,"['가족여행', '나들이', '나홀로여행', '드라이브여행', '서울근교여행', '쇼핑', '수도권']",https://cdn.visitkorea.or.kr/img/call?cmd=VIEW&id=4af877a3-e7e5-4d48-9b07-e841d2dee023&thumb,인천광역시 중구 연안부두로33번길 37,37.45413649,126.6071645,
135,강화 풍물시장,인천 강화군,032-930-7042,"['가족여행', '강화풍물시장', '사계절', '쇼핑', '수도권', '시장맛집', '아이와함께']",https://cdn.visitkorea.or.kr/img/call?cmd=VIEW&id=021e1dc7-4a9d-4afb-89b7-9a06d3138a81&thumb,인천광역시 강화군 강화읍 중앙로 17-9,37.74142155,126.4928692,
136,신포국제시장,인천 중구,032-772-5812 032-764-0407,"['가족여행', '나들이', '나홀로여행', '드라이브여행', '마을축제', '먹거리', '서울근교여행']",https://cdn.visitkorea.or.kr/img/call?cmd=VIEW&id=61630607-cc43-497d-b857-3ba04799c0e8&thumb,인천광역시 중구 우현로49번길 11-5,37.47146219,126.627812,
137,인천 모래내시장,인천 남동구,032-471-1427,"['가족여행', '사계절', '쇼핑', '수도권', '시장맛집', '아이와함께', '인천모래내시장']",https://cdn.visitkorea.or.kr/img/call?cmd=VIEW&id=a58f3f64-aaf3-4ef0-b7e5-097c59bb90ec&thumb,인천광역시 남동구 호구포로810번길 42-8,37.45420055,126.7214912,
138,부평모두몰(부평지하도상가),인천 부평구,,"['부평구', '부평역', '부평지하상가', '쇼핑', '악세사리', '의류', '인천', '지하상가']",https://cdn.visitkorea.or.kr/img/call?cmd=VIEW&id=b32ad4c6-c38f-4975-a431-fdc6d7b0000c&thumb,인천광역시 부평구 부평대로 지하 7,37.49030551,126.72297,
139,엔타스면세점,인천 중구,1644-0159,"['면세점', '쇼핑', '인천면세점', '인천쇼핑', '인천중구']",https://cdn.visitkorea.or.kr/img/call?cmd=VIEW&id=7330df68-ddd9-46cd-a510-ed98b0c80bd1&thumb,인천광역시 중구 영종해안남로321번길 186,37.43721107,126.4557687,
140,인천 용현시장,인천 미추홀구,032-886-9318,"['가족여행', '사계절', '쇼핑', '수도권', '시장맛집', '아이와함께', '인천용현시장']",https://cdn.visitkorea.or.kr/img/call?cmd=VIEW&id=cb573952-3232-44f2-bc01-64e4be90d9d1&thumb,인천광역시 미추홀구 용삼길 57-1,37.45824141,126.6527511,
141,아이즈빌아울렛,인천 부평구,032-270-2000,['쇼핑'],https://cdn.visitkorea.or.kr/img/call?cmd=VIEW&id=ac0a8574-cffc-4aba-a091-8a625070c2ff&thumb,인천광역시 부평구 마장로 489,37.52136374,126.7037206,
142,SM면세점 (인천공항점),인천 중구,1522-0800,"['면세점', '쇼핑', '인천공항', '인천공항제1여객터미널', '인천공항제2여객터미널']",https://cdn.visitkorea.or.kr/img/call?cmd=VIEW&id=5e5f1b0c-19a2-4cc1-ba95-7fa526a52328&thumb,인천광역시 중구 공항로 271,37.44761097,126.4523467,
143,부평 종합시장,인천 부평구,032-516-0655,"['가족여행', '부평종합시장', '사계절', '쇼핑', '수도권', '시장맛집', '아이와함께']",https://cdn.visitkorea.or.kr/img/call?cmd=VIEW&id=ae774329-5163-433b-8b69-e335ae5d85ea&thumb,인천광역시 부평구 부흥로316번길 38-3,37.49649796,126.7266188,
144,인천 옥련시장,인천 연수구,032-831-8640,"['가족여행', '사계절', '쇼핑', '수도권', '시장맛집', '아이와함께', '옥련시장', '인천옥련시장']",https://cdn.visitkorea.or.kr/img/call?cmd=VIEW&id=5f6107d0-7b8c-461b-b6bd-38c0635e8e4e&thumb,인천광역시 연수구 독배로40번길 35,37.42462185,126.64683,
145,인천 삼산농산물도매시장,인천 부평구,032-440-6450,"['가족여행', '먹거리', '사계절', '쇼핑', '수도권', '아이와함께', '인천삼산농산물도매시장']",https://cdn.visitkorea.or.kr/img/call?cmd=VIEW&id=5cea9390-3c5c-4f7c-b767-722b40f354ce&thumb,인천광역시 부평구 영성동로 46,37.52182068,126.74900890000002,
146,석바위 지하도상가,인천 미추홀구,032-422-4976,['쇼핑'],https://cdn.visitkorea.or.kr/img/call?cmd=VIEW&id=121617b6-da6e-429e-b5d4-5a0b4a935b0a&thumb,인천광역시 미추홀구 경원대로 848,37.45788358,126.6902724,
147,인천 중앙시장,인천 동구,032-763-4242,"['가족여행', '나들이', '나홀로여행', '먹거리', '쇼핑', '수도권', '시장맛집', '아이와함께']",https://cdn.visitkorea.or.kr/img/call?cmd=VIEW&id=38daa9c8-da29-4ba2-9152-a047de3e73b6&thumb,인천광역시 동구 중앙로 68,37.47535282,126.6333451,
148,강화 중앙시장,인천 강화군,032-933-7104,"['가족여행', '강화중앙시장', '사계절', '쇼핑', '수도권', '아이와함께', '이색체험']",https://cdn.visitkorea.or.kr/img/call?cmd=VIEW&id=ce5c3d07-e140-4f89-afcc-36f650a7149e&thumb,인천광역시 강화군 강화읍 강화대로 429,37.74685524,126.4838615,
149,인천 강남시장,인천 서구,032-578-6163,"['가족여행', '사계절', '쇼핑', '수도권', '시장맛집', '아이와함께', '인천강남시장']",https://cdn.visitkorea.or.kr/img/call?cmd=VIEW&id=0917b864-9c33-40d4-a056-e18731175657&thumb,인천광역시 서구 강남로 14,37.51122131,126.6719954,
150,인천 현대시장,인천 동구,032-777-2361,"['가족여행', '나들이', '나홀로여행', '드라이브여행', '먹거리', '서울근교여행']",https://cdn.visitkorea.or.kr/img/call?cmd=VIEW&id=d2fe00f2-9f89-462a-b97c-238f3a07003b&thumb,인천광역시 동구 송림로109번길 21,37.47748725,126.6461237,
151,인천 구월시장,인천 남동구,032-469-2525,"['가족여행', '사계절', '쇼핑', '수도권', '시장맛집', '아이와함께', '인천구월시장']",https://cdn.visitkorea.or.kr/img/call?cmd=VIEW&id=f8e539dd-3b93-4db2-a848-10108fff3f61&thumb,인천광역시 남동구 호구포로790번길 21-13,37.45336936,126.7202675,
152,"길상공설시장 (4일, 9일)",인천 강화군,02-930-3352,"['가족여행', '길상공설시장', '사계절', '쇼핑', '수도권', '아이와함께', '이색체험']",https://cdn.visitkorea.or.kr/img/call?cmd=VIEW&id=2915e608-d64a-47fa-ac03-5aac85ebf4ae&thumb,인천광역시 강화군 길상면 온수길33번길 2,37.63913403,126.4907592,
153,올리브 아울렛 (인천점),인천 남동구,032-434-1234,"['쇼핑', '아울렛', '인천쇼핑', '인천아울렛']",https://cdn.visitkorea.or.kr/img/call?cmd=VIEW&id=95257010-4f6f-49db-b6c0-71e502598985&thumb,인천광역시 남동구 남동대로 880,37.46094966,126.70886000000002,
154,장승백이 전통시장 (구. 창대시장),인천 남동구,032-471-1216,"['가족여행', '사계절', '쇼핑', '수도권', '시장맛집', '아이와함께', '장승백이전통시장']",https://cdn.visitkorea.or.kr/img/call?cmd=VIEW&id=a2396b41-1980-4f80-bd11-917dd791d780&thumb,인천광역시 남동구 인주대로888번길 35,37.44656416,126.7352271,
155,인천 동부시장,인천 동구,032-773-4173,"['가족여행', '나들이', '나홀로여행', '드라이브여행', '마을축제', '먹거리', '서울근교여행']",https://cdn.visitkorea.or.kr/img/call?cmd=VIEW&id=f5fd7696-33a7-4858-b8ba-490ef02f15bb&thumb,인천광역시 동구 송림로 107,37.47659678,126.6464505,
156,강화 인삼센터,인천 강화군,032-933-8913,"['강화인삼센터', '쇼핑', '수도권', '인삼', '특산물']",https://cdn.visitkorea.or.kr/img/call?cmd=VIEW&id=3721fc5c-14a1-4042-9501-2858b5083fcd&thumb,인천광역시 강화군 강화읍 강화대로 335,37.74220811,126.4925195,
157,인천 송현자유시장,인천 동구,032-772-2126,"['가족여행', '나들이', '나홀로여행', '먹거리', '서울근교여행', '쇼핑', '수도권']",https://cdn.visitkorea.or.kr/img/call?cmd=VIEW&id=3f05957d-a72b-4d94-a1b4-ce6998b659db&thumb,인천광역시 동구 화도진로43번길 13-1,37.47597812,126.6329105,
158,강화젓갈,인천 강화군,032-933-2497,"['가족여행', '강화젓갈', '먹거리', '사계절', '쇼핑', '수도권', '아이와함께', '이색체험']",https://cdn.visitkorea.or.kr/img/call?cmd=VIEW&id=2366214d-b52e-44b8-b00c-b264fced23ff&thumb,인천광역시 강화군 내가면 해안서로 899-2,37.7008094,126.3784764,
159,인천 송현시장,인천 동구,032-773-2368,"['가족여행', '나들이', '나홀로여행', '데이트코스', '먹거리', '서울근교여행', '쇼핑']",https://cdn.visitkorea.or.kr/img/call?cmd=VIEW&id=f89ae859-5997-4a25-b961-0fc2165b1e6b&thumb,인천광역시 동구 화도진로44번길 18,37.47616144,126.6346428,
160,강화토산품판매장,인천 강화군,032-932-4010,"['강화토산품판매장', '기념품판매', '쇼핑', '인천권', '특산물']",https://cdn.visitkorea.or.kr/img/call?cmd=VIEW&id=11c98be5-9dcc-4c31-91ba-0b7d6312a8c8&thumb,인천광역시 강화군 강화읍 중앙로 17-9,37.74142155,126.4928692,
161,완초장,인천 강화군,032-932-9018,"['공예', '돗자리', '무형문화재', '쇼핑']",https://cdn.visitkorea.or.kr/img/call?cmd=VIEW&id=e86e6c6f-f4ba-4a4f-8aa7-26e029ba8e52&thumb,인천광역시 강화군 강화읍 충렬사로22번길 8-1,37.73758854,126.4859303,
162,유림상회/ 소금빛서점,인천 강화군,032-934-3456,"['감성소품', '강화도쇼핑', '그릇가게', '쇼핑', '주방용품']",https://cdn.visitkorea.or.kr/img/call?cmd=VIEW&id=5204c44d-996c-4f4f-b76a-2c45531ef1ba&thumb,인천광역시 강화군 강화읍 남문안길 7,37.74476925,126.4855937,
