,name,region,tel,keyword,photo,address,lat,lon,Unnamed: 0
0,군산근대역사박물관,전북 군산시,063-454-5953,"['가족여행', '교과서속으로', '군산근대역사박물관', '근대문화유산', '문화시설']",https://cdn.visitkorea.or.kr/img/call?cmd=VIEW&id=94fc6e8f-a0d4-4a9c-925d-fd6ab7fb4e7d&thumb,전라북도 군산시 해망로 240,35.99081903,126.71195230000001,
1,남원시립김병종미술관,전북 남원시,063-620-5660,"['남원가볼만한곳', '남원시립김병종미술관', '문화시설', '문화예술', '미술관']",https://cdn.visitkorea.or.kr/img/call?cmd=VIEW&id=8b11a7ae-000f-4540-8f6c-cef80077e1b6&thumb,전라북도 남원시 함파우길 65-14,35.39870644,127.38955459999998,
2,고창고인돌박물관,전북 고창군,063-560-8666,"['겨울방학가볼만한곳', '고창고인돌박물관', '교과서속여행', '문화시설', '미세먼지_피하는_실내여행']",https://cdn.visitkorea.or.kr/img/call?cmd=VIEW&id=f283b3be-ce20-402b-bb8c-cf94d91915d6&thumb,전라북도 고창군 고창읍 고인돌공원길 74,35.44169795,126.65249750000001,
3,채만식 문학관,전북 군산시,063-454-7885,"['기차여행', '문화시설', '아이와함께', '전라권', '전시관', '전통역사문화체험']",https://cdn.visitkorea.or.kr/img/call?cmd=VIEW&id=02359ae2-effe-468c-a205-9314fa7939e6&thumb,전라북도 군산시 강변로 449,36.008661,126.7578903,
4,국립태권도원,전북 무주군,063-320-0114,"['19_20한국관광100선', '가족여행', '가족체험', '국립태권도원', '문화시설']",https://cdn.visitkorea.or.kr/img/call?cmd=VIEW&id=4afdf1ac-3157-4a11-bead-2946c43dc84d&thumb,전라북도 무주군 설천면 무설로 1482,36.00931149,127.7786624,
5,국립전주박물관,전북 전주시,063-233-5651,"['교과서속여행', '국립전주박물관', '기차여행', '문화시설', '박물관', '실내여행지']",https://cdn.visitkorea.or.kr/img/call?cmd=VIEW&id=eb4d6ec2-bed2-4a0c-92b7-91f1d6ab1c0e&thumb,전라북도 전주시 완산구 쑥고개로 249,35.80103866,127.08837350000002,
6,전주 전통술박물관,전북 전주시,063-287-6305,"['가족여행', '기차여행', '문화시설', '박물관', '시음체험', '연인과함께', '이색체험']",https://cdn.visitkorea.or.kr/img/call?cmd=VIEW&id=1c1dc7b7-26e9-4078-a388-7fd874d7b6af&thumb,전라북도 전주시 완산구 한지길 74,35.81685036,127.15346670000001,
7,부안청자박물관,전북 부안군,063-580-3964,"['가족여행', '가족체험여행', '교과서속여행', '문화시설', '미세먼지_피하는_실내여행']",https://cdn.visitkorea.or.kr/img/call?cmd=VIEW&id=dee6bf30-6851-4345-9a67-1019c5be7941&thumb,전라북도 부안군 보안면 청자로 1493,35.61149913,126.6513338,
8,전주 덕진예술회관,전북 전주시,063-281-6650,"['가족여행', '공연장', '기차여행', '나들이', '덕진예술회관', '데이트코스', '문화시설']",https://cdn.visitkorea.or.kr/img/call?cmd=VIEW&id=3791cfc7-83bc-4137-9ea7-50e0786cd619&thumb,전라북도 전주시 덕진구 권삼득로 407,35.84775174,127.119375,
9,전주 추억박물관,전북 전주시,010-4131-3206,"['근대사박물관', '근현대사', '남녀노소', '문화시설', '아이와함께', '연인과함께']",https://cdn.visitkorea.or.kr/img/call?cmd=VIEW&id=d0f23541-f9c6-464e-9a59-1be252b506b7&thumb,전라북도 전주시 완산구 경원동1가 전동성당길 8,35.81852909,127.14848020000001,
10,동학농민혁명기념관,전북 정읍시,063-536-1894,"['가족여행', '겨울방학가볼만한곳', '교과서속여행', '기념관', '동학농민운동']",https://cdn.visitkorea.or.kr/img/call?cmd=VIEW&id=65edfd4a-39b4-4155-b4c1-f57ff3919b9f&thumb,전라북도 정읍시 덕천면 동학로 742,35.63370584,126.83011880000001,
11,전주한벽문화관,전북 전주시,063-280-7000,"['가족여행', '기차여행', '단체체험', '문화시설', '아이와함께', '이색체험', '전주한벽문화관']",https://cdn.visitkorea.or.kr/img/call?cmd=VIEW&id=80862567-3d54-4900-9689-e969799931af&thumb,전라북도 전주시 완산구 전주천동로 20,35.81224642,127.15903059999998,
12,국립익산박물관,전북 익산시,063-830-0900,"['교과서속여행', '국립익산박물관', '문화시설', '박물관', '아이와함께', '역사공부']",https://cdn.visitkorea.or.kr/img/call?cmd=VIEW&id=b7c89dc5-5983-400e-9394-27981c7dc5df&thumb,전라북도 익산시 금마면 미륵사지로 362,36.01155117,127.0287139,
13,내장산 탐방안내소,전북 정읍시,063-538-7875,"['가족여행', '내장산탐방안내소', '눈꽃&설경여행', '단풍여행', '데이트코스']",https://cdn.visitkorea.or.kr/img/call?cmd=VIEW&id=aea9d6a1-78ad-4846-a5e3-73d9c199d639&thumb,전라북도 정읍시 내장산로 1207,35.48790912,126.90747590000001,
14,고창판소리박물관,전북 고창군,063-560-8061,"['고창판소리박물관', '기차여행', '문화시설', '실내여행지', '아이와함께', '이색체험']",https://cdn.visitkorea.or.kr/img/call?cmd=VIEW&id=27ba5e61-ce19-4d5d-8abe-f79007f84a39&thumb,전라북도 고창군 고창읍 동리로 100,35.43237353,126.70262949999999,
15,전주한지박물관,전북 전주시,063-210-8103,"['가족과함께', '문화시설', '미세먼지_피하는_실내여행', '박물관', '아이와함께']",https://cdn.visitkorea.or.kr/img/call?cmd=VIEW&id=0d93481a-270b-4ebc-ba29-3e8cb2dbd256&thumb,전라북도 전주시 덕진구 팔복로 59,35.84512928,127.09670459999998,
16,순창장류박물관,전북 순창군,063-650-1627,"['가족여행', '문화시설', '박물관', '순창가볼만한곳', '순창장류박물관', '실내여행지']",https://cdn.visitkorea.or.kr/img/call?cmd=VIEW&id=659235ec-23f5-4718-accd-4054e61abde3&thumb,전라북도 순창군 순창읍 장류로 43,35.36959372,127.11109180000001,
17,마동도서관,전북 익산시,063-859-3465,"['도서', '도서관', '독서', '무장애', '문화시설', '익산', '전라북도', '평생교육']",https://cdn.visitkorea.or.kr/img/call?cmd=VIEW&id=f27164c4-68d8-4fa3-baee-e15f25284c6e&thumb,전라북도 익산시 선화1로 99,35.94007131,126.96869140000001,
18,고창문화의전당,전북 고창군,063-560-8041,"['고창문화의전당', '데이트코스', '문화공간', '문화시설', '문화행사', '복합문화공간']",https://cdn.visitkorea.or.kr/img/call?cmd=VIEW&id=a0fc2db0-ecd5-4a7f-a24a-de432f77ce53&thumb,전라북도 고창군 고창읍 모양성로 11,35.43338075,126.7045756,
19,전주자연생태관,전북 전주시,063-288-9540,"['가족여행', '교과서속여행', '문화시설', '박물관', '아이와함께', '이색체험', '전라권']",https://cdn.visitkorea.or.kr/img/call?cmd=VIEW&id=377151bb-01b6-41cf-ba43-741fbb386e16&thumb,전라북도 전주시 완산구 바람쐬는길 21,35.81159258,127.1625872,
20,전주역사박물관,전북 전주시,063-228-6485,"['기차여행', '단체관람', '문화시설', '박물관', '수학여행', '아이와함께', '전주역사박물관']",https://cdn.visitkorea.or.kr/img/call?cmd=VIEW&id=ed8dc3ca-2286-4404-a1dd-5d294b785527&thumb,전라북도 전주시 완산구 쑥고개로 259,35.8011446,127.09332859999998,
21,무주곤충박물관,전북 무주군,063-324-1155,"['교과서속여행', '무주곤충박물관', '문화시설', '박물관', '아이와함께', '이색체험']",https://cdn.visitkorea.or.kr/img/call?cmd=VIEW&id=66b5db34-20ae-46cd-93ed-3c629999ffef&thumb,전라북도 무주군 설천면 무설로 1324,36.01249047,127.7611881,
22,진안역사박물관,전북 진안군,063-430-8086,"['교과서속여행', '문화시설', '박물관', '사계절', '실내여행지', '아이와함께', '전라권']",https://cdn.visitkorea.or.kr/img/call?cmd=VIEW&id=4716e4f4-4d7f-4bdf-99de-e00e69ac33a5&thumb,전라북도 진안군 진안읍 내사양길 7,35.77255631,127.41716480000001,
23,어진박물관,전북 전주시,063-231-0090,"['가족여행', '교과서속여행', '문화시설', '박물관', '아이와함께', '어진박물관']",https://cdn.visitkorea.or.kr/img/call?cmd=VIEW&id=ca1d25af-734a-4b96-aa40-e94ae49f367c&thumb,전라북도 전주시 완산구 태조로 44,35.815519,127.1501202,
24,익산시솜리문화예술회관,전북 익산시,063-859-5278,"['가족여행', '공연장', '데이트코스', '문화시설', '실내여행지', '아이와함께', '연인과함께']",https://cdn.visitkorea.or.kr/img/call?cmd=VIEW&id=392ab97a-8909-40e4-8cf9-ad9eabc28d5c&thumb,전라북도 익산시 선화1로 106,35.93909935,126.96845159999998,
25,위도띠뱃놀이 전수관,전북 부안군,063-581-2208,"['문화시설', '아이와 함께', '위도띠뱃놀이', '이색체험', '전수관', '체험학습']",https://cdn.visitkorea.or.kr/img/call?cmd=VIEW&id=c6ea4076-9228-41f7-b1bd-876a445326df&thumb,전라북도 부안군 위도면 대장길 15-15,35.57770746,126.2652061,
26,전북도립미술관,전북 완주군,063-290-6888,"['도서관', '문화공간', '문화시설', '문화예술', '문화예술활동', '미술관', '복합문화공간']",https://cdn.visitkorea.or.kr/img/call?cmd=VIEW&id=186072a0-a69b-4f42-94bc-07d865455505&thumb,전라북도 완주군 구이면 모악산길 111-6,35.72770556,127.1069245,
27,국립군산대학교 박물관,전북 군산시,063-469-4191,"['가족여행', '국립군산대학교박물관', '기차여행', '문화시설', '박물관', '아이와함께']",https://cdn.visitkorea.or.kr/img/call?cmd=VIEW&id=7c245122-21b5-4e01-9256-616155c8dfef&thumb,전라북도 군산시 대학로 558,35.95034571,126.6803568,
28,익산문화원,전북 익산시,063-835-0120,"['문화시설', '박물관', '아이와함께', '익산문화원', '전라권', '전시관', '전통역사문화체험']",https://cdn.visitkorea.or.kr/img/call?cmd=VIEW&id=79eb75ec-d997-4e76-8e2f-fed2b149083f&thumb,전라북도 익산시 선화로 529,35.94849648,126.9882513,
29,석정문학관,전북 부안군,063-584-0560,"['가족체험', '문학관', '문학기행', '문화시설', '문화활동', '미세먼지_피하는_실내여행']",https://cdn.visitkorea.or.kr/img/call?cmd=VIEW&id=b9363d4c-b8b5-4bcd-8a3d-73a82668512b&thumb,전라북도 부안군 부안읍 선은1길 10,35.73991758,126.73538090000001,
30,부안댐 물문화관,전북 부안군,063-580-3273,"['가족여행', '도심여행', '문화시설', '부안댐물문화관', '사계절', '아이와함께']",https://cdn.visitkorea.or.kr/img/call?cmd=VIEW&id=4e0cb32a-fffd-48a4-b44f-2836d3228228&thumb,전라북도 부안군 변산면 부안댐로 280-26,35.675678999999995,126.56448300000001,
31,전주공예품전시관,전북 전주시,063-282-8886,"['가족여행', '공예체험', '기념품', '기념품샵', '문화시설', '문화여행', '선물샵']",https://cdn.visitkorea.or.kr/img/call?cmd=VIEW&id=ffd5cc7a-5dac-4de0-8e7c-16f567f2f9f5&thumb,전라북도 전주시 완산구 태조로 15,35.81439156,127.1530924,
32,전주완산도서관,전북 전주시,063-287-6417,"['도서관', '문화시설', '사계절', '실내여행지', '아이와함께', '전라권', '전주완산도서관']",https://cdn.visitkorea.or.kr/img/call?cmd=VIEW&id=bd9bd39e-72c8-4ba3-9f91-cca8d1e34a4c&thumb,전라북도 전주시 완산구 곤지산4길 12,35.8092414,127.14754280000001,
33,장미갤러리,전북 군산시,063-445-9813,"['가족체험', '문화시설', '문화예술', '문화예술공간', '미세먼지_피하는_실내여행']",https://cdn.visitkorea.or.kr/img/call?cmd=VIEW&id=53f1c7aa-e82b-4e58-8ac8-c1357ab7664c&thumb,전라북도 군산시 해망로 232,35.99015331,126.7124878,
34,옻칠목공체험관광협동조합,전북 남원시,063-626-5725,"['가족과함께', '가족체험여행', '나무와옻칠협동조합', '문화시설', '산업관광']",https://cdn.visitkorea.or.kr/img/call?cmd=VIEW&id=1d37da86-bc72-4c3c-9c9a-671732421705&thumb,전라북도 남원시 충정로 65,35.41277804,127.381027,
35,전라북도산림박물관,전북 순창군,063-652-6792,"['가족여행', '기차여행', '문화시설', '박물관', '아이와함께', '연인과함께', '전라권']",https://cdn.visitkorea.or.kr/img/call?cmd=VIEW&id=b8b0d829-9495-46b8-bb6e-e9e3a488b64f&thumb,전라북도 순창군 복흥면 추령로 1777,35.47714115,126.92572870000001,
36,전주공예명인관,전북 전주시,063-281-1541,"['문화시설', '전라권', '전주공예명인관', '전통체험']",https://cdn.visitkorea.or.kr/img/call?cmd=VIEW&id=6bf524d9-b27f-470f-b150-ed5ec4b284bc&thumb,전라북도 전주시 완산구 한지길 68-3,35.81715803,127.1534054,
37,장수 한누리전당,전북 장수군,063-350-2881,"['가족과함께', '문화공간', '문화시설', '문화예술공간', '문화예술활동', '복합문화공간']",https://cdn.visitkorea.or.kr/img/call?cmd=VIEW&id=a6bc8f49-6357-4f2f-9f58-964bb9b411e6&thumb,전라북도 장수군 장수읍 한누리로 393,35.64111386,127.51811029999999,
38,벽골제 농경문화 박물관,전북 김제시,063-540-3676,"['교과서속여행', '문화시설', '박물관', '벽골제농경문화박물관', '아이와함께']",https://cdn.visitkorea.or.kr/img/call?cmd=VIEW&id=9431f8de-4b3e-4e09-8191-fc00bdd12efb&thumb,전라북도 김제시 부량면 벽골제로 442,35.75462558,126.85310430000001,
39,남원문화원,전북 남원시,063-633-1582,"['남원문화원', '문화시설', '전라권', '지역문화', '향토문화']",https://cdn.visitkorea.or.kr/img/call?cmd=VIEW&id=8127686b-c799-43ef-82b5-8ac4429e6c6e&thumb,전라북도 남원시 광한북로 57,35.4080722,127.37933149999999,
40,구파백정기의사기념관,전북 정읍시,063-539-5237,"['교과서속여행', '구파백정기의사기념관', '기념관', '문화시설', '아이와함께']",https://cdn.visitkorea.or.kr/img/call?cmd=VIEW&id=8f7c7e5a-34f7-476d-9f95-7afa62743656&thumb,전라북도 정읍시 영원면 영원로 1049,35.65219943,126.78323909999999,
41,농업과학관,전북 전주시,063-238-1300,"['교과서속여행', '농업과학관', '문화시설', '사계절', '실내여행지', '아이와함께']",https://cdn.visitkorea.or.kr/img/call?cmd=VIEW&id=cf35b9ba-f728-4cf5-a728-d31a97b1af8b&thumb,전라북도 전주시 완산구 농생명로 300,35.831421999999996,127.05625400000001,
42,전주한방문화센터,전북 전주시,063-232-2500,"['가족여행', '기념품판매', '문화시설', '사계절', '아이와함께', '이색체험', '전라권']",https://cdn.visitkorea.or.kr/img/call?cmd=VIEW&id=3da19231-4638-4d40-9088-46b103cff1d6&thumb,전라북도 전주시 완산구 은행로 53,35.81522596,127.15273,
43,전라북도예술회관,전북 전주시,063-230-7400,"['문화시설', '문화예술', '복합문화공간', '열린문화공간', '전라북도예술회관']",https://cdn.visitkorea.or.kr/img/call?cmd=VIEW&id=359ce4da-3a58-4bbe-8b9d-0501ee67ea0a&thumb,전라북도 전주시 완산구 팔달로 161,35.81682307,127.14710919999999,
44,전북도청도서관,전북 전주시,063-280-2454,"['남녀노소', '도서관', '문화공간', '문화시설', '복합문화공간', '열린문화공간']",https://cdn.visitkorea.or.kr/img/call?cmd=VIEW&id=60138e33-0bf0-412a-be36-82ccff470a0a&thumb,전라북도 전주시 완산구 효자로 225,35.81944731,127.10637379999999,
45,예솔분재원,전북 순창군,063-652-1707,"['문화시설', '순창가볼만한곳', '예솔분재원', '전라북도']",https://cdn.visitkorea.or.kr/img/call?cmd=VIEW&id=a8aa2328-519f-4983-8f60-f04724090bb4&thumb,전라북도 순창군 구림면 강천로 952,35.43122099,127.05670790000002,
46,전주대학교 박물관,전북 전주시,063-220-2159,"['가족여행', '교과서속여행', '문화시설', '박물관', '아이와함께', '전라권', '전시관']",https://cdn.visitkorea.or.kr/img/call?cmd=VIEW&id=1460d17c-1ed9-4133-8781-93d08c14ca77&thumb,전라북도 전주시 완산구 천잠로 303,35.81616417,127.0888841,
47,팔복예술공장,전북 전주시,063-211-0288,"['문화공간', '문화시설', '문화예술', '문화예술창작공간', '복합문화시설', '아이와함께']",https://cdn.visitkorea.or.kr/img/call?cmd=VIEW&id=b90d39f3-ada3-42dc-b02b-fbc153acc2b6&thumb,전라북도 전주시 덕진구 구렛들1길 46,35.86133297,127.1009481,
48,미당 서정주 시문학관,전북 고창군,063-560-8058,"['가족여행', '교과서속여행', '기념관', '문화시설', '미당서정주시문학관', '사계절']",https://cdn.visitkorea.or.kr/img/call?cmd=VIEW&id=8956f8b4-cb8e-434f-903f-133caaa751cf&thumb,전라북도 고창군 부안면 질마재로 2-8,35.53558993,126.6099252,
49,최명희문학관,전북 전주시,063-284-0570,"['가족과함께', '기념관', '문학관', '문학기행', '문화시설', '문화행사', '아이와함께']",https://cdn.visitkorea.or.kr/img/call?cmd=VIEW&id=a2f4270b-8d8a-4304-81d2-d9a6095ed753&thumb,전라북도 전주시 완산구 최명희길 29,35.81570404,127.15133610000001,
50,남원향토박물관,전북 남원시,063-620-6792,"['기차여행', '남원향토박물관', '문화시설', '박물관', '아이와함께', '전통&역사문화체험']",https://cdn.visitkorea.or.kr/img/call?cmd=VIEW&id=b1e20e7d-d73a-4ebd-8033-e7330c850f57&thumb,전라북도 남원시 양림길 14-9,35.40146435,127.38690159999999,
51,무주 산골영화관,전북 무주군,063-322-7053,"['남녀노소', '무주가볼만한곳', '무주여행', '문화시설', '복합문화공간', '아이와함께']",https://cdn.visitkorea.or.kr/img/call?cmd=VIEW&id=4089b136-2292-4c5a-b894-8d02b3dbe2cb&thumb,전라북도 무주군 무주읍 한풍루로 326-17,36.00236088,127.66252879999999,
52,무주양수홍보관,전북 무주군,070-4000-2141,"['교과서속여행', '무주양수홍보관', '문화시설', '박물관', '사계절', '실내여행지']",https://cdn.visitkorea.or.kr/img/call?cmd=VIEW&id=36f1307a-568f-4849-9584-6ff22b928ad9&thumb,전라북도 무주군 적상면 괴목로 788,35.96693019,127.7124512,
53,완주향토예술문화회관,전북 완주군,063-291-7245,"['데이트코스', '문화시설', '복합문화공간', '사계절', '상설공연', '아이와함께']",https://cdn.visitkorea.or.kr/img/call?cmd=VIEW&id=04746bc0-d306-4576-b75e-aef28a57e170&thumb,전라북도 완주군 삼례읍 삼봉로 215,35.91989744,127.09337820000002,
54,필봉농악전수관,전북 임실군,063-643-1902,"['가족여행', '공연장', '기차여행', '나들이', '문화시설', '아이와함께', '연인과함께']",https://cdn.visitkorea.or.kr/img/call?cmd=VIEW&id=b0a1a401-9362-404f-9761-8f310a8f15f3&thumb,전라북도 임실군 강진면 강운로 272,35.53639298,127.15444640000001,
55,춘향문화예술회관,전북 남원시,063-620-5724,"['공연장', '기차여행', '나들이', '데이트코스', '문화시설', '아이와함께', '연인과함께']",https://cdn.visitkorea.or.kr/img/call?cmd=VIEW&id=9c6f5a5a-482c-4a98-a595-38e65dd28065&thumb,전라북도 남원시 양림길 43,35.40221411,127.39008259999999,
56,부안예술회관,전북 부안군,063-580-4318,"['가족여행', '남녀노소', '문화공간', '문화시설', '문화행사', '복합문화공간', '부안예술회관']",https://cdn.visitkorea.or.kr/img/call?cmd=VIEW&id=d5d79947-5564-490f-a78f-277658027ccf&thumb,전라북도 부안군 부안읍 예술회관길 11,35.72430809,126.72547639999999,
57,전주미술관,전북 전주시,036-283-8886,"['기획전시', '문화시설', '미술자료', '미술작품', '미술품', '복합문화공간', '열린문화공간']",https://cdn.visitkorea.or.kr/img/call?cmd=VIEW&id=9b3c670c-67ec-4348-b3ff-b29737a0db3c&thumb,전라북도 전주시 완산구 풍남문4길 25-26,35.8148935,127.14455759999998,
58,익산국악원,전북 익산시,063-855-3791,"['국악', '문화시설', '소공연', '전통공연', '전통문화', '전통예술', '판소리']",https://cdn.visitkorea.or.kr/img/call?cmd=VIEW&id=8861e8b9-a5a1-42a7-a9c5-f376478fc737&thumb,전라북도 익산시 평동로9길 66-3,35.937544200000005,126.9515285,
59,조정래 아리랑문학관,전북 김제시,063-540-3934,"['교육', '문학관', '문화시설', '전라권', '조정래아리랑문학관']",https://cdn.visitkorea.or.kr/img/call?cmd=VIEW&id=92af90c4-1515-489c-b599-f055151e9a50&thumb,전라북도 김제시 부량면 용성리 226-23,35.752273100000004,126.8493939,
60,군산문화원,전북 군산시,063-451-2138,"['군산문화원', '문화시설', '열린문화공간', '친구와 함께']",https://cdn.visitkorea.or.kr/img/call?cmd=VIEW&id=20f462f7-c464-43eb-88a6-4bcfe6b33678&thumb,전라북도 군산시 대학로 330,35.96417343,126.69258970000001,
61,고창문화원,전북 고창군,063-564-2340,"['가족여행', '고창문화원', '기차여행', '나들이', '마을축제', '문화시설', '복합문화공간']",https://cdn.visitkorea.or.kr/img/call?cmd=VIEW&id=a9c2b711-2c2b-448a-9df1-be46002a96d0&thumb,전라북도 고창군 고창읍 천변북로 119,35.43444094,126.70533940000001,
62,전북대학교 박물관,전북 전주시,063-270-3488,"['가족여행', '교과서속여행', '문화시설', '박물관', '아이와함께', '전라권', '전북대학교박물관']",https://cdn.visitkorea.or.kr/img/call?cmd=VIEW&id=36ccfcc5-08db-4117-bd81-a3b9eb3db8f0&thumb,전라북도 전주시 덕진구 백제대로 567,35.841140700000004,127.13158999999999,
63,한국소리문화의전당,전북 전주시,063-270-8000,"['가족여행', '기차여행', '기획전시', '문화시설', '미술관', '실내여행지', '아이와함께']",https://cdn.visitkorea.or.kr/img/call?cmd=VIEW&id=8f262bd0-0190-4536-af02-06e1c69b7155&thumb,전라북도 전주시 덕진구 소리로 31,35.85477195,127.1393284,
64,국립민속국악원,전북 남원시,063-620-2324,"['가족여행', '공연장', '국립민속국악원', '나들이', '문화시설', '실내여행지', '아이와함께']",https://cdn.visitkorea.or.kr/img/call?cmd=VIEW&id=cdeffb34-2030-442e-ac98-a68ac5263bf4&thumb,전라북도 남원시 양림길 54,35.40160485,127.3914938,
65,대한민국술테마박물관,전북 완주군,063-290-3842,"['가족과함께', '기획전시', '무더위_피해_실내여행', '문화시설', '박물관', '상설전시']",https://cdn.visitkorea.or.kr/img/call?cmd=VIEW&id=dd501b3d-a543-483c-a7cc-f85b293494f0&thumb,전라북도 완주군 구이면 덕천전원길 232-58,35.72601706,127.13616270000001,
66,무주예체문화관,전북 무주군,063-320-5601,"['가족여행', '기차여행', '나들이', '무주예체문화관', '문화시설', '아이와함께']",https://cdn.visitkorea.or.kr/img/call?cmd=VIEW&id=8d7c9b6e-f379-4ec0-98a2-f8661726b42e&thumb,전라북도 무주군 무주읍 한풍루로 326-17,36.00236088,127.66252879999999,
67,동학혁명기념관,전북 전주시,063-231-3219,"['기념관', '동학혁명기념관', '문화시설', '전라권']",https://cdn.visitkorea.or.kr/img/call?cmd=VIEW&id=e7d2413b-550f-42f4-8415-e84bf25a57f0&thumb,전라북도 전주시 완산구 은행로 34,35.81688691,127.15200279999999,
68,루이엘모자박물관,전북 전주시,063-283-5454,"['루이엘모자박물관', '문화시설', '문화체험', '복합문화공간', '아이와 함께']",https://cdn.visitkorea.or.kr/img/call?cmd=VIEW&id=e4899f8d-5bc7-4773-8eeb-20eccede1562&thumb,전라북도 전주시 완산구 전동성당길 8,35.81852909,127.14848020000001,
69,전주문화원,전북 전주시,063-255-3360,"['문화시설', '문화원', '전라북도', '전주문화', '전주시', '전통문화', '지역문화']",https://cdn.visitkorea.or.kr/img/call?cmd=VIEW&id=5c522cc7-e48a-4365-81ae-009b160c8101&thumb,전라북도 전주시 덕진구 팔달로 340-30,35.831292,127.1395254,
70,원광대학교 박물관,전북 익산시,063-850-5483,"['기차여행', '문화시설', '박물관', '실내여행지', '아이와함께', '원광대학교박물관']",https://cdn.visitkorea.or.kr/img/call?cmd=VIEW&id=d5d2162a-bd5d-4967-aeac-2cf9e60ade32&thumb,전라북도 익산시 익산대로 460,35.97171397,126.9602237,
71,정읍사국악원,전북 정읍시,063-539-6427,"['공연장', '기차여행', '나들이', '데이트코스', '문화시설', '아이와함께', '연인과함께']",https://cdn.visitkorea.or.kr/img/call?cmd=VIEW&id=275cf3db-f669-4d9c-9223-7fed1b36afdd&thumb,전라북도 정읍시 시기4길 23,35.5534123,126.86116409999998,
72,추령장승촌,전북 순창군,063-652-5596,"['가족체험', '공연', '공예품', '목공예', '문화시설', '민속자료', '사진찍기좋은곳']",https://cdn.visitkorea.or.kr/img/call?cmd=VIEW&id=ef902e3d-19d3-4644-ab8c-8068488ce1f7&thumb,전라북도 순창군 복흥면 추령로 1792-12,35.478139,126.92782209999999,
73,완주문화원,전북 완주군,063-263-0222,"['문화시설', '복합문화공간', '열린문화공간', '완주문화원']",https://cdn.visitkorea.or.kr/img/call?cmd=VIEW&id=48e1085e-cc5a-4f66-a1a3-988b4cfb4971&thumb,전라북도 완주군 고산면 읍내7길 43,35.97755483,127.2125439,
74,진안 문예체육회관,전북 진안군,063-430-8716,"['가족여행', '문화시설', '사계절', '아이와함께', '전라권', '진안문예체육회관']",https://cdn.visitkorea.or.kr/img/call?cmd=VIEW&id=93a5cc0c-4ee7-4e51-852d-2c64341720a8&thumb,전라북도 진안군 진안읍 진무로 1054-38,35.78633674,127.4265172,
75,정읍문화원,전북 정읍시,063-532-0222,"['문화강좌', '문화시설', '열린문화공간', '정읍문화원']",https://cdn.visitkorea.or.kr/img/call?cmd=VIEW&id=604ccd2a-2400-48de-af95-f8fd998275c8&thumb,전라북도 정읍시 조곡천1길 1,35.56839777,126.8450547,
76,화석전시관,전북 익산시,063-859-4641,"['교과서속여행', '문화시설', '박물관', '아이와함께', '이색체험', '전라권', '전시관']",https://cdn.visitkorea.or.kr/img/call?cmd=VIEW&id=9c5ecfdb-a465-4941-96f0-1261296cb3d4&thumb,전라북도 익산시 왕궁면 호반로 8,35.99061279,127.1025486,
77,장진영 기념관,전북 임실군,010-3667-6511,"['기념관', '문화시설', '배우장진영', '추모']",https://cdn.visitkorea.or.kr/img/call?cmd=VIEW&id=573b9367-cce3-4e45-afab-a58bceef8846&thumb,전라북도 임실군 운암면 임운로 1577,35.65005356,127.18322240000002,
78,명봉도서관,전북 정읍시,063-534-8261,"['남녀노소', '독서여행', '독서회', '문화시설', '복합문화공간', '열린문화공간']",https://cdn.visitkorea.or.kr/img/call?cmd=VIEW&id=b8151046-3c16-4de9-8aa2-9d5e342c8022&thumb,전라북도 정읍시 태인면 태인로 33-9,35.65234123,126.94218529999999,
79,정읍사예술회관,전북 정읍시,063-539-6424,"['공연장', '기차여행', '나들이', '데이트코스', '문화시설', '아이와함께', '연인과함께']",https://cdn.visitkorea.or.kr/img/call?cmd=VIEW&id=2f06303b-1ab8-4717-b90e-98a6ae9637b9&thumb,전라북도 정읍시 시기4길 13,35.55272301,126.8617345,
80,전주 창작극회 창작소극장,전북 전주시,063-282-1810,"['문화시설', '전주', '창작극회', '창작소극장']",https://cdn.visitkorea.or.kr/img/call?cmd=VIEW&id=ab144e8d-1a5b-4671-9482-02bbf25a8496&thumb,전라북도 전주시 완산구 동문길 100,35.81813082,127.1485548,
81,부안문화원,전북 부안군,063-583-2101,"['문화시설', '문화원', '부안문화원', '전라권', '전통문화', '지역문화']",https://cdn.visitkorea.or.kr/img/call?cmd=VIEW&id=003b7da5-1f4b-4ed8-8e07-e2510b08a51e&thumb,전라북도 부안군 부안읍 매창로 89,35.71882124,126.72869479999999,
82,원불교역사박물관,전북 익산시,063-850-3240,"['기념관', '문화시설', '박물관', '사계절', '실내여행지', '원불교역사박물관', '이색체험']",https://cdn.visitkorea.or.kr/img/call?cmd=VIEW&id=2b30bfa3-47d2-46f4-bd24-c36df6a289d6&thumb,전라북도 익산시 익산대로 501,35.97446561,126.95160700000001,
83,마한관,전북 익산시,063-859-4633,"['교과서속여행', '마한관', '문화시설', '박물관', '아이와함께', '전라권', '전시관']",https://cdn.visitkorea.or.kr/img/call?cmd=VIEW&id=d69bf941-5288-48d4-8dd5-186df1072b7e&thumb,전라북도 익산시 금마면 고도9길 41-14,36.00153176,127.0570709,
84,전라북도립국악원,전북 전주시,063-290-6450,"['가족여행', '공연장', '기차여행', '나들이', '데이트코스', '문화시설', '아이와함께']",https://cdn.visitkorea.or.kr/img/call?cmd=VIEW&id=a16ca4ea-abec-447a-ad54-6bca85b63055&thumb,전라북도 전주시 덕진구 권삼득로 400,35.84915665,127.11960819999999,
85,목우헌,전북 전주시,063-286-9285,"['목공예공방', '목우헌', '문화시설', '장인의숨결', '전라북도', '전주시', '전통공예']",https://cdn.visitkorea.or.kr/img/call?cmd=VIEW&id=f8666a55-9232-4c55-8539-d7e140099f28&thumb,전라북도 전주시 완산구 기린대로 88,35.81709624,127.1549986,
86,장수문화원,전북 장수군,063-351-5349,"['문화시설', '문화원', '장수군', '장수문화원', '전라북도', '향토문화']",https://cdn.visitkorea.or.kr/img/call?cmd=VIEW&id=dfd04603-ed0b-47dd-9ec8-6bae6da26371&thumb,전라북도 장수군 장수읍 한누리로 393,35.64111386,127.51811029999999,
87,풍남문화관,전북 전주시,063-281-2348,"['가족여행', '리모델링공간', '문화시설', '사계절', '이색체험', '전라권', '체험학습']",https://cdn.visitkorea.or.kr/img/call?cmd=VIEW&id=d14cc2f8-ddac-4c98-b1ad-13c7158c8b14&thumb,전라북도 전주시 완산구 전동성당길 110,35.81412219,127.14899229999999,
88,김제문화원,전북 김제시,063-547-4659,"['김제문화원', '김제시', '김제역사', '문화교육', '문화시설', '전라북도', '지역문화']",https://cdn.visitkorea.or.kr/img/call?cmd=VIEW&id=9920cde9-81f1-467f-86b2-8c9ae04076f4&thumb,전라북도 김제시 서암5길 5,35.80463248,126.8819565,
89,김환태문학관&최북미술관,전북 무주군,063-320-5636,"['문화시설', '문화예술', '문화예술공간', '미세먼지_피하는_실내여행', '복합문화공간']",https://cdn.visitkorea.or.kr/img/call?cmd=VIEW&id=3410a344-b4a1-4268-8df2-910d5f855abd&thumb,전라북도 무주군 무주읍 한풍루로 347,36.00463739,127.66390770000001,
90,순창문화원,전북 순창군,063-653-2069,"['문화시설', '복합문화공간', '순창문화원', '열린문화공간']",https://cdn.visitkorea.or.kr/img/call?cmd=VIEW&id=75e780d9-33b7-41ab-b26d-b010be8223fa&thumb,전라북도 순창군 순창읍 장류로 407-11,35.37765073,127.1468543,
91,동리국악당,전북 고창군,063-560-8065,"['공연장', '기차여행', '나들이', '동리국악당', '문화시설', '아이와함께', '예술']",https://cdn.visitkorea.or.kr/img/call?cmd=VIEW&id=7c79f445-fe34-4b67-b358-dad47dfb4a1f&thumb,전라북도 고창군 고창읍 읍내리 456-1,35.432156,126.702848,
92,남원다움관,전북 남원시,063-620-5670,"['가족과함께', '남원다움관', '문화시설', '아이와함께', '전라권']",https://cdn.visitkorea.or.kr/img/call?cmd=VIEW&id=e1ba3c67-c27c-4016-a4ce-8f108a19ab1a&thumb,전라북도 남원시 금동 검멀1길 14,35.40371332,127.3770078,
93,솔화랑,전북 전주시,063-285-7007,"['갤러리', '고미술품', '문화시설', '문화예술', '복합문화공간', '복합문화공간']",https://cdn.visitkorea.or.kr/img/call?cmd=VIEW&id=4eca80e6-250f-481e-b35c-51835ef0d500&thumb,전라북도 전주시 완산구 팔달로 212-6,35.82111358,127.14646270000001,
94,강암서예관,전북 전주시,063-285-7442,"['강암서예관', '문화시설', '전라권', '전시관']",https://cdn.visitkorea.or.kr/img/call?cmd=VIEW&id=f0447908-5b57-4fd9-ad23-9b566e16a611&thumb,전라북도 전주시 완산구 전주천동로 74,35.81128084,127.15247520000001,
95,휘목아트타운 미술관,전북 부안군,063-584-0006,"['근대미술', '문화시설', '미술관', '복합문화공간', '복합문화시설', '상설전시']",https://cdn.visitkorea.or.kr/img/call?cmd=VIEW&id=c60988ab-9250-431a-aa8f-b3b83da90cf2&thumb,전라북도 부안군 진서면 운호길 10,35.59440018,126.56351699999999,
96,진안문화원,전북 진안군,063-433-1674,"['문화강좌', '문화시설', '열린문화공간', '진안문화원']",https://cdn.visitkorea.or.kr/img/call?cmd=VIEW&id=undefined&thumb,전라북도 진안군 진안읍 중앙로 66,35.79068339,127.4255844,
97,무주문화원,전북 무주군,063-324-1300,"['무주문화원', '문화시설', '복합문화공간', '열린문화공간']",https://cdn.visitkorea.or.kr/img/call?cmd=VIEW&id=null&thumb,전라북도 무주군 무주읍 최북로 15,36.0029803,127.66518049999999,
98,오스갤러리,전북 완주군,063-244-7116,"['넘녀노소', '문화공간', '문화시설', '복합문화공간', '복합문화시설', '열린문화공간']",https://cdn.visitkorea.or.kr/img/call?cmd=VIEW&id=27bcc077-07d2-4029-b840-2c76cbe202c4&thumb,전라북도 완주군 소양면 오도길 24,35.90478157,127.2397121,
99,임실문화원,전북 임실군,063-642-2211,"['문화시설', '복합문화공간', '열린문화공간', '임실문화원']",https://cdn.visitkorea.or.kr/img/call?cmd=VIEW&id=null&thumb,전라북도 임실군 임실읍 봉황로 131,35.61271154,127.2775291,
100,보석박물관,전북 익산시,063-859-4641,"['가족과함께', '공룡박물관', '공룡화석', '교육여행', '남녀노소', '문화시설', '보석문화']",https://cdn.visitkorea.or.kr/img/call?cmd=VIEW&id=7163d5f0-c5eb-47cc-8311-6985edae883a&thumb,전라북도 익산시 왕궁면 호반로 8,35.99061279,127.1025486,
101,국립전북기상과학관,전북 정읍시,063-538-0665,"['VR체험관', '과학관', '교육관광', '문화시설', '실내여행지', '아이와함께', '전북']",https://cdn.visitkorea.or.kr/img/call?cmd=VIEW&id=4b1582db-9789-4c10-b75e-02a407e69d23&thumb,전라북도 정읍시 서부산업도로 168-43,35.56380732,126.838225,
102,남원 백두대간전시관,전북 남원시,063-620-5752,"['문화시설', '백두대간', '생태교육장', '전라권']",https://cdn.visitkorea.or.kr/img/call?cmd=VIEW&id=51c4730d-bbb0-4f51-9beb-a729302ef926&thumb,전라북도 남원시 운봉읍 운봉로 151,35.39732835,127.50793020000002,
103,부안누에타운,전북 부안군,063-580-4082,"['가족과함께', '곤충박물관', '교육여행', '문화시설', '민속품', '부안가볼만한곳']",https://cdn.visitkorea.or.kr/img/call?cmd=VIEW&id=9067c482-02d7-45c3-9d1d-5a1b6de216d6&thumb,전라북도 부안군 변산면 참뽕로 434-20,35.63184627,126.5130121,
104,군산근대역사박물관,전북 군산시,063-454-5953,"['가족여행', '교과서속으로', '군산근대역사박물관', '근대문화유산', '문화시설']",https://cdn.visitkorea.or.kr/img/call?cmd=VIEW&id=94fc6e8f-a0d4-4a9c-925d-fd6ab7fb4e7d&thumb,전라북도 군산시 해망로 240,35.99081903,126.7119523,
105,국립전주박물관,전북 전주시,063-233-5651,"['교과서속여행', '국립전주박물관', '기차여행', '문화시설', '박물관', '실내여행지']",https://cdn.visitkorea.or.kr/img/call?cmd=VIEW&id=eb4d6ec2-bed2-4a0c-92b7-91f1d6ab1c0e&thumb,전라북도 전주시 완산구 쑥고개로 249,35.80103866,127.08837350000002,
106,부안청자박물관,전북 부안군,063-580-3964,"['가족여행', '가족체험여행', '교과서속여행', '문화시설', '미세먼지_피하는_실내여행']",https://cdn.visitkorea.or.kr/img/call?cmd=VIEW&id=dee6bf30-6851-4345-9a67-1019c5be7941&thumb,전라북도 부안군 보안면 청자로 1493,35.61149913,126.6513338,
107,고창판소리박물관,전북 고창군,063-560-8061,"['고창판소리박물관', '기차여행', '문화시설', '실내여행지', '아이와함께', '이색체험']",https://cdn.visitkorea.or.kr/img/call?cmd=VIEW&id=27ba5e61-ce19-4d5d-8abe-f79007f84a39&thumb,전라북도 고창군 고창읍 동리로 100,35.43237353,126.7026295,
108,순창장류박물관,전북 순창군,063-650-1627,"['가족여행', '문화시설', '박물관', '순창가볼만한곳', '순창장류박물관', '실내여행지']",https://cdn.visitkorea.or.kr/img/call?cmd=VIEW&id=659235ec-23f5-4718-accd-4054e61abde3&thumb,전라북도 순창군 순창읍 장류로 43,35.36959372,127.1110918,
109,진안역사박물관,전북 진안군,063-430-8086,"['교과서속여행', '문화시설', '박물관', '사계절', '실내여행지', '아이와함께', '전라권']",https://cdn.visitkorea.or.kr/img/call?cmd=VIEW&id=4716e4f4-4d7f-4bdf-99de-e00e69ac33a5&thumb,전라북도 진안군 진안읍 내사양길 7,35.77255631,127.4171648,
110,익산시솜리문화예술회관,전북 익산시,063-859-5278,"['가족여행', '공연장', '데이트코스', '문화시설', '실내여행지', '아이와함께', '연인과함께']",https://cdn.visitkorea.or.kr/img/call?cmd=VIEW&id=392ab97a-8909-40e4-8cf9-ad9eabc28d5c&thumb,전라북도 익산시 선화1로 106,35.93909935,126.96845159999998,
111,석정문학관,전북 부안군,063-584-0560,"['가족체험', '문학관', '문학기행', '문화시설', '문화활동', '미세먼지_피하는_실내여행']",https://cdn.visitkorea.or.kr/img/call?cmd=VIEW&id=b9363d4c-b8b5-4bcd-8a3d-73a82668512b&thumb,전라북도 부안군 부안읍 선은1길 10,35.73991758,126.7353809,
112,전주완산도서관,전북 전주시,063-287-6417,"['도서관', '문화시설', '사계절', '실내여행지', '아이와함께', '전라권', '전주완산도서관']",https://cdn.visitkorea.or.kr/img/call?cmd=VIEW&id=bd9bd39e-72c8-4ba3-9f91-cca8d1e34a4c&thumb,전라북도 전주시 완산구 곤지산4길 12,35.8092414,127.1475428,
113,농업과학관,전북 전주시,063-238-1300,"['교과서속여행', '농업과학관', '문화시설', '사계절', '실내여행지', '아이와함께']",https://cdn.visitkorea.or.kr/img/call?cmd=VIEW&id=cf35b9ba-f728-4cf5-a728-d31a97b1af8b&thumb,전라북도 전주시 완산구 농생명로 300,35.8311617,127.05625220000002,
114,미당 서정주 시문학관,전북 고창군,063-560-8058,"['가족여행', '교과서속여행', '기념관', '문화시설', '미당서정주시문학관', '사계절']",https://cdn.visitkorea.or.kr/img/call?cmd=VIEW&id=8956f8b4-cb8e-434f-903f-133caaa751cf&thumb,전라북도 고창군 부안면 질마재로 2-8,35.53558993,126.6099252,
115,무주양수홍보관,전북 무주군,070-4000-2141,"['교과서속여행', '무주양수홍보관', '문화시설', '박물관', '사계절', '실내여행지']",https://cdn.visitkorea.or.kr/img/call?cmd=VIEW&id=36f1307a-568f-4849-9584-6ff22b928ad9&thumb,전라북도 무주군 적상면 괴목로 788,35.96693019,127.7124512,
116,한국소리문화의전당,전북 전주시,063-270-8000,"['가족여행', '기차여행', '기획전시', '문화시설', '미술관', '실내여행지', '아이와함께']",https://cdn.visitkorea.or.kr/img/call?cmd=VIEW&id=8f262bd0-0190-4536-af02-06e1c69b7155&thumb,전라북도 전주시 덕진구 소리로 31,35.85477195,127.1393284,
117,국립민속국악원,전북 남원시,063-620-2324,"['가족여행', '공연장', '국립민속국악원', '나들이', '문화시설', '실내여행지', '아이와함께']",https://cdn.visitkorea.or.kr/img/call?cmd=VIEW&id=cdeffb34-2030-442e-ac98-a68ac5263bf4&thumb,전라북도 남원시 양림길 54,35.40160485,127.3914938,
118,원광대학교 박물관,전북 익산시,063-850-5483,"['기차여행', '문화시설', '박물관', '실내여행지', '아이와함께', '원광대학교박물관']",https://cdn.visitkorea.or.kr/img/call?cmd=VIEW&id=d5d2162a-bd5d-4967-aeac-2cf9e60ade32&thumb,전라북도 익산시 익산대로 460,35.97171397,126.9602237,
119,원불교역사박물관,전북 익산시,063-850-3240,"['기념관', '문화시설', '박물관', '사계절', '실내여행지', '원불교역사박물관', '이색체험']",https://cdn.visitkorea.or.kr/img/call?cmd=VIEW&id=2b30bfa3-47d2-46f4-bd24-c36df6a289d6&thumb,전라북도 익산시 익산대로 501,35.97446561,126.951607,
120,국립전북기상과학관,전북 정읍시,063-538-0665,"['VR체험관', '과학관', '교육관광', '문화시설', '실내여행지', '아이와함께', '전북']",https://cdn.visitkorea.or.kr/img/call?cmd=VIEW&id=4b1582db-9789-4c10-b75e-02a407e69d23&thumb,전라북도 정읍시 서부산업도로 168-43,35.56380732,126.838225,
121,선유도해수욕장 (명사십리 해수욕장),전북 군산시,063-454-3332,"['가족여행', '갯벌체험', '경치좋은곳', '관광지', '레포츠', '명사십리해수욕장']",https://cdn.visitkorea.or.kr/img/call?cmd=VIEW&id=bc46dd1a-5b82-4873-9cb8-c6de7254696d&thumb,전라북도 군산시 옥도면,35.67096220000001,126.4965411,0.0
122,[군산 구불길] 구불1길 비단강길,전북 군산시,063-454-3303,"['구불길', '군산', '군산여행', '레포츠', '산책길']",https://cdn.visitkorea.or.kr/img/call?cmd=VIEW&id=0df56fe4-7f9f-4c64-9171-86468e2cc4ac&thumb,전라북도 군산시 금강변 일원,35.96767720000001,126.7366293,1.0
123,고군산군도,전북 군산시,063 -465-5186,"['고군산군도', '낚시체험', '낚시터', '레포츠', '전북권']",https://cdn.visitkorea.or.kr/img/call?cmd=VIEW&id=a45bdd7a-9d27-47ed-9754-791db893795e&thumb,전라북도 군산시 옥도면,35.67096220000001,126.4965411,2.0
124,웅포관광지 캠핑장,전북 익산시,063-862-1578,"['가족여행', '레포츠', '웅포관광지캠핑장', '전라권', '휴양여행']",https://cdn.visitkorea.or.kr/img/call?cmd=VIEW&id=b4118b32-8661-4726-a715-c7f059891490&thumb,전라북도 익산시 웅포면 강변로 25,36.0662158,126.876232,3.0
125,무주덕유산리조트 스키장,전북 무주군,063-322-9000,"['겨울레포츠', '겨울스포츠', '레포츠', '스키대여', '스키장', '스키장', '아이와함께']",https://cdn.visitkorea.or.kr/img/call?cmd=VIEW&id=8927cbb8-3d5b-4eb4-b0d1-5d16b9973f80&thumb,전라북도 무주군 설천면 만선로 185,35.88936670000001,127.7389493,4.0
126,섬진강향가오토캠핑장,전북 순창군,063-652-9001,"['가족여행', '레포츠', '섬진강', '캠핑장', '힐링여행']",https://cdn.visitkorea.or.kr/img/call?cmd=VIEW&id=78d18014-bd5f-4e77-91b9-14ea155d050c&thumb,전라북도 순창군 풍산면 향가로 575,35.34245629999999,127.1804313,5.0
127,무주덕유산리조트 썰매장,전북 무주군,063-320-7336,"['레포츠', '무주덕유산', '썰매장']",https://cdn.visitkorea.or.kr/img/call?cmd=VIEW&id=6761f453-4f71-4b09-be45-8b5069fde11a&thumb,전라북도 무주군 설천면 만선로 185,35.88936670000001,127.7389493,6.0
128,전주한옥레일바이크,전북 전주시,063-273-7788,"['가족여행', '레일바이크', '레포츠', '연중무휴', '전주시']",https://cdn.visitkorea.or.kr/img/call?cmd=VIEW&id=078177c6-644f-4904-93bc-39da6bc74623&thumb,전라북도 전주시 덕진구 동부대로 420,35.84875200000001,127.1464411,7.0
129,부안스포츠파크,전북 부안군,063-580-3904,"['레포츠', '복합레저스포츠', '부안스포츠파크', '이색체험', '전라권']",https://cdn.visitkorea.or.kr/img/call?cmd=VIEW&id=9a8049a1-cc32-4225-8c95-0755b9543d62&thumb,전라북도 부안군 행안면 체육공원길 31,35.7005537,126.723777,8.0
130,부남면 금강하천,전북 무주군,1899-8687,"['레포츠', '무주', '무주낚시', '무주낚시터', '민물낚시', '전북권']",https://cdn.visitkorea.or.kr/img/call?cmd=VIEW&id=5a1d5ff3-3e5a-4ef0-a12a-c47e6c66c223&thumb,전라북도 무주군 부남면 대소길,35.973251,127.5611447,9.0
131,전주승마장,전북 전주시,063-239-2695,"['가족과함께', '레포츠', '승마', '승마레슨', '승마장', '승마체험', '승마캠프', '승마트레킹']",https://cdn.visitkorea.or.kr/img/call?cmd=VIEW&id=e93d3e00-f08b-4c92-bb81-ffb1c0ac2a8d&thumb,전라북도 전주시 덕진구 호성로 19,35.8526495,127.15078,10.0
132,태평양수영장(실내),전북 전주시,063-277-0041,['레포츠'],https://cdn.visitkorea.or.kr/img/call?cmd=VIEW&id=e33814c1-fb49-4f94-b467-e87dfc8fb48e&thumb,전라북도 전주시 덕진구 기린대로 358,35.8357881,127.1357714,11.0
133,완주 밀리터리파크,전북 완주군,063-290-2727,"['레포츠', '복합레저스포츠', '사격장', '서바이벌', '아이와함께', '연인과함께']",https://cdn.visitkorea.or.kr/img/call?cmd=VIEW&id=6bae7d30-2450-40f5-8887-9c37960bedbb&thumb,전라북도 완주군 고산면 고산휴양림로 89,35.9740131,127.2315259,12.0
134,완주 에코 어드벤처,전북 완주군,063-263-8680,['레포츠'],https://cdn.visitkorea.or.kr/img/call?cmd=VIEW&id=60a990f4-265d-4d11-8df6-9d7095e7e7dd&thumb,전라북도 완주군 고산면 고산휴양림로 246,35.95966660000001,127.2355162,13.0
135,아름다운 순례길,전북 전주시,063-278-1101,"['레포츠', '산책길', '순례길', '전북권', '전주순례길', '트래킹']",https://cdn.visitkorea.or.kr/img/call?cmd=VIEW&id=4dea63cb-482c-4c66-91ac-f9fd65924e7d&thumb,전북 전주시 완산구,35.812111,127.1199201,14.0
136,[지리산 둘레길 코스] 인월~금계,전북 남원시,063-635-0850,"['걷기길', '레포츠', '전라권', '지리산둘레길코스']",https://cdn.visitkorea.or.kr/img/call?cmd=VIEW&id=56bcf2d0-bb8b-4603-9846-9cf9df51910b&thumb,전라북도 남원시 인월면 인월2길 95,35.45907879999999,127.6060085,15.0
137,선유스카이SUN라인,전북 군산시,063-463-8602,"['남녀노소', '레포츠', '선유도', '선유도해수욕장', '연인과함께', '이색체험', '이색체험여행']",https://cdn.visitkorea.or.kr/img/call?cmd=VIEW&id=58adec91-da22-4634-83a5-9c6d426b0104&thumb,전라북도 군산시 옥도면 선유북길 129-2,35.8141146,126.4096003,16.0
138,청정테마힐링센터,전북 완주군,063-222-7754,"['레포츠', '복합문화시설', '이색체험', '전라권']",https://cdn.visitkorea.or.kr/img/call?cmd=VIEW&id=0b50971e-8b05-47a0-8c14-31fdb8a43f6f&thumb,전라북도 완주군 구이면 장미로 31,35.68599329999999,127.09988020000002,17.0
139,장수승마체험장,전북 장수군,063-350-1612,"['레포츠', '승마', '장수승마체험장', '전라권']",https://cdn.visitkorea.or.kr/img/call?cmd=VIEW&id=f92a8a75-d530-40ce-a073-0603d111c9a6&thumb,전라북도 장수군 장수읍 승마로 74,35.6562999,127.5110902,18.0
140,격포방파제낚시,전북 부안군,063-580-4434,"['레포츠', '바다낚시', '부안낚시', '부안바다낚시', '전북권']",https://cdn.visitkorea.or.kr/img/call?cmd=VIEW&id=f2047095-3f3e-4bf9-910f-9fc4a4022233&thumb,전라북도 부안군 변산면 방파제길,35.6251571,126.4707171,19.0
141,전주월드컵경기장,전북 전주시,063-239-2546,"['레포츠', '월드컵경기장', '전라권', '전주']",https://cdn.visitkorea.or.kr/img/call?cmd=VIEW&id=f4b1875d-6167-4878-8343-73e1030a0f69&thumb,전라북도 전주시 덕진구 기린대로 1055,35.8680573,127.0645192,20.0
142,무주래프팅,전북 무주군,063-322-7745,"['가족과함께', '래프팅', '레포츠', '여름방학', '여름철', '여름피서지', '여름휴가']",https://cdn.visitkorea.or.kr/img/call?cmd=VIEW&id=95523248-8d70-43b3-a744-fa19148e97e5&thumb,전라북도 무주군 무주읍 잠두길 5-11,35.9978661,127.607204,21.0
143,[변산 마실길 1코스] 조개미 패총길,전북 부안군,063-580-4522,"['걷기길', '걷기여행길', '걷기좋은길', '걷기코스', '레포츠', '변산마실길', '변산마실길']",https://cdn.visitkorea.or.kr/img/call?cmd=VIEW&id=8d831b23-c063-46b2-98a0-2f2c1692f0d7&thumb,전라북도 부안군 변산면,35.6634849,126.5284868,22.0
144,[군산 구불길] 구불4길 구슬뫼길,전북 군산시,063-454-3303,['레포츠'],https://cdn.visitkorea.or.kr/img/call?cmd=VIEW&id=6e422ead-6d3e-449b-9f34-417a4211e8f2&thumb,전라북도 군산시 옥산면 남내리,35.9373896,126.764462,23.0
145,[변산 마실길 3코스] 적벽강 노을길,전북 부안군,063-580-4522,"['걷기길', '걷기여행', '걷기여행길', '걷기여행데이트코스', '걷기좋은곳', '레포츠']",https://cdn.visitkorea.or.kr/img/call?cmd=VIEW&id=73aca8e6-8122-4239-9a07-0363e3d3a595&thumb,전라북도 부안군 변산면,35.6634849,126.5284868,24.0
146,어청도,전북 군산시,063-453-4986,"['군산낚시', '군산바다', '군산바다낚시', '레포츠', '바다낚시', '전북권']",https://cdn.visitkorea.or.kr/img/call?cmd=VIEW&id=af2bdcf3-4fca-4ab7-a95a-ffdaffe8781e&thumb,전라북도 군산시 옥도면 어청도길,36.1191774,125.9782188,25.0
147,전라북도종합사격장,전북 임실군,063-643-0104,"['레포츠', '사격장', '실내레포츠', '전라권', '전라북도종합사격장']",https://cdn.visitkorea.or.kr/img/call?cmd=VIEW&id=a17140ef-ea40-49f8-bdcd-c4047ba88ee9&thumb,전라북도 임실군 청웅면 청운로 168-46,35.58686810000001,127.1921824,26.0
148,무주레저스쿨,전북 무주군,063-323-5882,"['래프팅', '레저', '레포츠', '무주', '서바이벌', '스쿨']",https://cdn.visitkorea.or.kr/img/call?cmd=VIEW&id=0df025c7-b297-40c9-8c71-be25f902a577&thumb,전라북도 무주군 부남면 굴암로 263,35.9928121,127.5820307,27.0
149,[고창 고인돌 질마재길 1코스] 고인돌길,전북 고창군,063-560-2456,"['고인돌', '레포츠', '생태연못', '생태탐방길', '유적지']",https://cdn.visitkorea.or.kr/img/call?cmd=VIEW&id=e2a34aab-2db3-486f-bd0b-b420b00934b8&thumb,전라북도 고창군 고창읍 고인돌공원길,35.4422854,126.6509793,28.0
150,청암산오토캠핑장,전북 군산시,063-465-3357,"['가족과함께', '레포츠', '아이와함께', '오토캠핑장', '직장인힐링여행', '청암산오토캠핑장']",https://cdn.visitkorea.or.kr/img/call?cmd=VIEW&id=697227a8-679e-40cd-822f-2519de707a49&thumb,전라북도 군산시 옥산면 대위로 50,35.9364117,126.7569602,29.0
151,코레일과 함께하는 남원 자전거하이킹_1일코스,전북 남원시,063-631-3299,"['가족과함께', '레포츠', '자전거대여', '자전거여행', '자전거코스', '자전거투어']",https://cdn.visitkorea.or.kr/img/call?cmd=VIEW&id=a59a1531-4d2f-47fa-ab49-918f2a525327&thumb,전라북도 남원시 교룡로 71,35.4109308,127.3621994,30.0
152,무주스피드레져,전북 무주군,063-322-2762,"['래프팅', '레포츠', '무주', '서바이벌', '수상스키', '연수']",https://cdn.visitkorea.or.kr/img/call?cmd=VIEW&id=4f5123d5-63ca-473f-939e-f494049b9bc3&thumb,전라북도 무주군 부남면 잠두강변길 215,36.002694,127.5989158,31.0
153,익산시 국민생활관,전북 익산시,063-859-4621,"['레포츠', '실내수영장', '익산', '전라권']",https://cdn.visitkorea.or.kr/img/call?cmd=VIEW&id=8db1b049-131b-4f2d-832c-005a156864e2&thumb,전라북도 익산시 선화로 255,35.9453889,126.9586965,32.0
154,전라북도교육문화회관,전북 전주시,063-270-1623,"['교육문화회관', '레포츠', '전라권', '전주']",https://cdn.visitkorea.or.kr/img/call?cmd=VIEW&id=1e4b7b7c-e395-4659-9ec5-bade2d1ffbcc&thumb,전라북도 전주시 덕진구 안덕원로 71,35.8291331,127.1378158,33.0
155,전라북도자연환경연수원,전북 무주군,063-323-0380,"['레포츠', '복합문화시설', '전라권', '전라북도자연환경연수원']",https://cdn.visitkorea.or.kr/img/call?cmd=VIEW&id=19d07dc3-42e4-426e-95e5-22aa4cbef1f1&thumb,전라북도 무주군 안성면 칠연로 607,35.8392615,127.6991484,34.0
156,코레일과 함께하는 남원 자전거하이킹_반일코스,전북 남원시,063-631-3299,"['가족과함께', '레포츠', '자전거대여', '자전거여행', '자전거코스', '자전거투어']",https://cdn.visitkorea.or.kr/img/call?cmd=VIEW&id=cd956058-3608-4042-8ed1-9ab2ddc71ac0&thumb,전라북도 남원시 교룡로 71,35.4109308,127.3621994,35.0
157,[지리산 둘레길 코스] 운봉~인월,전북 남원시,063-635-0850,['레포츠'],https://cdn.visitkorea.or.kr/img/call?cmd=VIEW&id=7819499d-0429-4b27-bbf6-eb6fd5a3ff6a&thumb,전라북도 남원시 인월면 인월2길 95,35.45907879999999,127.6060085,36.0
158,[지리산 둘레길 코스] 주천~운봉,전북 남원시,063-625-8952,['레포츠'],https://cdn.visitkorea.or.kr/img/call?cmd=VIEW&id=5b365835-65e6-4a69-9d1c-c648b83b0179&thumb,전라북도 남원시 주천면 정령치로,35.3864691,127.4773485,37.0
159,적상산 트레킹,전북 무주군,063-322-4174,"['등산객', '등산로', '레포츠', '산책코스', '산책하기좋은곳', '삼림욕', '자연속으로']",https://cdn.visitkorea.or.kr/img/call?cmd=VIEW&id=95b0ea3e-17fc-4fdc-8f97-64b2be751773&thumb,전라북도 무주군 적상면,35.9454691,127.659408,38.0
160,코레일과 함께하는 남원 자전거하이킹_2일코스,전북 남원시,063-631-3299,"['가족과함께', '레포츠', '자전거대여', '자전거여행', '자전거코스', '자전거투어']",https://cdn.visitkorea.or.kr/img/call?cmd=VIEW&id=ebc24e2a-3589-47ee-bd73-5ab48a418c63&thumb,전라북도 남원시 교룡로 71,35.4109308,127.3621994,39.0
161,만경지(능제저수지),전북 김제시,063-540-4601,"['낚시', '레포츠', '만경', '연안', '저수지']",https://cdn.visitkorea.or.kr/img/call?cmd=VIEW&id=98946beb-017b-4117-94bf-4e2b992d80cd&thumb,전라북도 김제시 만경읍 장산리,35.85102720000001,126.8341343,40.0
162,[변산 마실길 2코스] 노루목 상사화길,전북 부안군,063-580-4522,"['걷기여행길', '걷기여행데이트코스', '걷기좋은곳', '걷기좋은길', '걷기코스']",https://cdn.visitkorea.or.kr/img/call?cmd=VIEW&id=2031abf0-b419-432b-9772-bd1340715af5&thumb,전라북도 부안군 변산면,35.6634849,126.5284868,41.0
163,전북학생교육원,전북 남원시,063-620-7612,"['레포츠', '복합문화시설', '전라권', '청소년수련원']",https://cdn.visitkorea.or.kr/img/call?cmd=VIEW&id=5521452e-023e-48bd-b75e-71b3d00ed244&thumb,전라북도 남원시 운봉읍 행정공안길 302,35.3962966,127.5387097,42.0
164,[군산 구불길] 구불2길 햇빛길,전북 군산시,063-454-3303,['레포츠'],https://cdn.visitkorea.or.kr/img/call?cmd=VIEW&id=bb926bf1-1ffc-44c0-9153-68d204cc8c5a&thumb,전라북도 군산시 나포면 나포리,36.0491186,126.86009009999998,43.0
165,대율저수지,전북 김제시,063-540-3611,"['김제시', '대율저수지', '레포츠', '민물낚시', '저수지']",https://cdn.visitkorea.or.kr/img/call?cmd=VIEW&id=6df0c8a9-9b48-483f-a34a-5b4d387defa1&thumb,전라북도 김제시 금구면 대화리,35.7905138,127.0389206,44.0
166,월명실내수영장 (월명체육관),전북 군산시,063-454-5579,"['레포츠', '수영장', '실내수영장', '월명체육관']",https://cdn.visitkorea.or.kr/img/call?cmd=VIEW&id=d0bd796b-ba5b-4a4e-8582-41ac0474c57f&thumb,전라북도 군산시 번영로 281,35.9639181,126.7476388,45.0
167,위도바다낚시,전북 부안군,063-580-4434,"['레포츠', '바다낚시', '부안낚시', '부안바다', '부안바다낚시', '전북권']",https://cdn.visitkorea.or.kr/img/call?cmd=VIEW&id=ff73c8ad-0af4-47d2-92a4-09302e37edd0&thumb,전라북도 부안군 위도면 진리안길,35.6065714,126.2949504,46.0
168,녹두장군 전봉준관,전북 순창군,063-650-1633,['레포츠'],https://cdn.visitkorea.or.kr/img/call?cmd=VIEW&id=26583316-56ab-4327-badb-a3c77d2cbb13&thumb,전라북도 순창군 쌍치면 피노길 65-29,35.5242264,127.01270929999998,47.0
169,[익산 둘레길] 함라산길,전북 익산시,063-859-5438,['레포츠'],https://cdn.visitkorea.or.kr/img/call?cmd=VIEW&id=98899e6a-e095-4ef6-83ee-3e0988cd2fae&thumb,전라북도 익산시 함라면 수동길 8,36.0612814,126.9105952,48.0
170,전주종합경기장,전북 전주시,063-239-2553,"['레포츠', '전라권', '전주시', '종합경기장']",https://cdn.visitkorea.or.kr/img/call?cmd=VIEW&id=ee6f00db-10b3-46c8-b12f-88709970c090&thumb,전라북도 전주시 덕진구 기린대로 451,35.8382206,127.12516200000002,49.0
171,[고창 고인돌 질마재길 2코스] 복분자 풍천장어길,전북 고창군,063-560-2466,"['고인돌', '레포츠', '산책코스', '생태탐방길', '풍천']",https://cdn.visitkorea.or.kr/img/call?cmd=VIEW&id=9e1ecfdc-36d8-4b44-a8ee-e9c0e800023f&thumb,전라북도 고창군 고창읍 고인돌공원길,35.4422854,126.6509793,50.0
172,렛츠고스키샵,전북 무주군,063-322-5800,"['겨울스포츠', '레포츠', '복합레저스포츠', '스키대여', '스키렌탈', '스키샵', '익스트림스포츠']",https://cdn.visitkorea.or.kr/img/call?cmd=VIEW&id=cbdaa736-cb1f-4445-b444-624691703961&thumb,전라북도 무주군 설천면 만선로 84,35.90595360000001,127.7551551,51.0
173,상떼힐익산 컨트리클럽,전북 익산시,063-835-2521,['레포츠'],https://cdn.visitkorea.or.kr/img/call?cmd=VIEW&id=undefined&thumb,전라북도 익산시 무왕로38길 111,35.9617381,127.027346,52.0
174,김제시 청소년수련관,전북 김제시,063-540-4570,['레포츠'],https://cdn.visitkorea.or.kr/img/call?cmd=VIEW&id=34b7cba5-7e98-482e-9da0-32963442e5c3&thumb,전라북도 김제시 도작로 224-32,35.8151145,126.9008666,53.0
175,[고창 고인돌 질마재길 3코스] 질마재길,전북 고창군,063-560-2456,"['국화', '레포츠', '산책코스', '소금', '소요사']",https://cdn.visitkorea.or.kr/img/call?cmd=VIEW&id=b2d6f061-de16-4d23-a574-2ae1e69d435b&thumb,전라북도 고창군 고창읍 고인돌공원길,35.4422854,126.6509793,54.0
176,초이스스키샵,전북 무주군,063-322-9633,"['겨울스포츠', '레포츠', '복합레저스포츠', '스키대여', '스키렌탈', '스키샵', '익스트림스포츠']",https://cdn.visitkorea.or.kr/img/call?cmd=VIEW&id=25a8bd0d-6ebd-4250-8946-ab4d6abc093e&thumb,전라북도 무주군 설천면 만선1로 114,35.90950020000001,127.7568648,55.0
177,지리산 중앙하이츠콘도 수영장(실외),전북 남원시,063-626-8080,"['레포츠', '수영장', '실외', '지리산', '콘도']",https://cdn.visitkorea.or.kr/img/call?cmd=VIEW&id=9646e5d8-859e-4c71-bdc8-2d95d2cf4958&thumb,전라북도 남원시 장승안길 2-9,35.42009520000001,127.3735837,56.0
178,스카이스키샵,전북 무주군,063-322-0793,"['겨울스포츠', '레포츠', '복합레저스포츠', '스키대여', '스키렌탈', '스키샵', '익스트림스포츠']",https://cdn.visitkorea.or.kr/img/call?cmd=VIEW&id=cb378ef2-6da5-459f-8c0f-6be8bf5ed82b&thumb,전라북도 무주군 설천면 구천동로 1063,35.9077702,127.7598116,57.0
179,금강래프팅,전북 무주군,063-322-1077,"['금강래프팅', '래프팅', '레포츠', '이색체험', '전북권']",https://cdn.visitkorea.or.kr/img/call?cmd=VIEW&id=undefined&thumb,전라북도 무주군 부남면 부남로 854,35.9711621,127.5599128,58.0
180,[고창 고인돌 질마재길 4코스] 보은길,전북 고창군,063-560-2456,"['고인돌', '레포츠', '보은', '생가', '생태탐방길', '진채선']",https://cdn.visitkorea.or.kr/img/call?cmd=VIEW&id=c9f1cfbe-234b-435b-870c-5462667b33a9&thumb,전라북도 고창군 고창읍 고인돌공원길,35.4422854,126.6509793,59.0
181,반딧불레저,전북 무주군,063-322-6607,"['래프팅', '레저', '레포츠', '모터바이크', '무주군', '서바이벌']",https://cdn.visitkorea.or.kr/img/call?cmd=VIEW&id=fecac0a6-38bb-44c5-b215-03fbb6883558&thumb,전라북도 무주군 부남면 무금로 693,35.999802,127.5979194,60.0
182,무주스키텔 스키샵,전북 무주군,063-322-8900,"['겨울스포츠', '레포츠', '복합레저스포츠', '스키대여', '스키렌탈', '스키샵', '익스트림스포츠']",https://cdn.visitkorea.or.kr/img/call?cmd=VIEW&id=217bc053-35fb-4c5f-be4e-29b38afde24e&thumb,전라북도 무주군 설천면 만선로 36-19,35.9094807,127.7548218,61.0
183,[군산 구불길] 구불3길 큰들길,전북 군산시,063-454-3303,['레포츠'],https://cdn.visitkorea.or.kr/img/call?cmd=VIEW&id=undefined&thumb,전라북도 군산시 성산면 깐치멀1길 27-1,35.977922,126.8227874,62.0
184,익산시여성회관,전북 익산시,063-859-4986,['레포츠'],https://cdn.visitkorea.or.kr/img/call?cmd=VIEW&id=1fdb6072-cd04-4f12-90ad-0e5fa4fc01d1&thumb,전라북도 익산시 인북로32길 32,35.9471151,126.9598687,63.0
185,전라북도 학생해양수련원,전북 부안군,063-580-1710,['레포츠'],https://cdn.visitkorea.or.kr/img/call?cmd=VIEW&id=8c1956dc-d0ed-43ce-88f7-39c97321e3d4&thumb,전라북도 부안군 변산면 변산로 3318,35.5919811,126.4896929,64.0
186,실크로드스키샵,전북 무주군,063-322-7115,"['겨울스포츠', '레포츠', '복합레저스포츠', '스키대여', '스키렌탈', '스키샵', '익스트림스포츠']",https://cdn.visitkorea.or.kr/img/call?cmd=VIEW&id=a999dd96-c928-4de3-9d76-d03ae7b3412d&thumb,전라북도 무주군 설천면 만선로 57,35.90792310000001,127.7556243,65.0
187,스노우파크,전북 무주군,063-322-2355,"['겨울스포츠', '레포츠', '복합레저스포츠', '스노우파크', '스키대여', '스키렌탈']",https://cdn.visitkorea.or.kr/img/call?cmd=VIEW&id=75a1c917-40f9-45d9-9aca-3820f1377c79&thumb,전라북도 무주군 설천면 만선1로 60,35.9047006,127.7554913,66.0
188,무풍저수지(민물낚시터),전북 무주군,1899-8687,"['레포츠', '무주낚시터', '민물낚시']",https://cdn.visitkorea.or.kr/img/call?cmd=VIEW&id=undefined&thumb,전라북도 무주군 무풍면 대덕산로 352,35.942565,127.8483837,67.0
189,군산컨트리클럽,전북 군산시,063-472-3355,"['골프', '골프리조트', '골프장', '골프클럽', '남녀노소', '레저스포츠', '레포츠']",https://cdn.visitkorea.or.kr/img/call?cmd=VIEW&id=c128aa5f-46bb-4d67-af11-c68fdae1afdc&thumb,전라북도 군산시 옥서면 남군산로 1685,35.8963408,126.6587262,68.0
190,강산에스키샵,전북 무주군,063-322-9877,"['겨울스포츠', '레포츠', '복합레저스포츠', '스키대여', '스키렌탈', '스키샵', '익스트림스포츠']",https://cdn.visitkorea.or.kr/img/call?cmd=VIEW&id=c45ae5d8-7821-4471-bb9f-7892507124a7&thumb,전라북도 무주군 설천면 구천동로 1077,35.9089428,127.7593515,69.0
191,알파인스키보드 대여점,전북 무주군,063-322-0044,"['겨울스포츠', '레포츠', '복합레저스포츠', '스키대여', '스키렌탈', '스키샵', '익스트림스포츠']",https://cdn.visitkorea.or.kr/img/call?cmd=VIEW&id=6ce6cddc-b042-4b89-a20d-88c986eeb7bf&thumb,전라북도 무주군 설천면 만선로 6,35.91093929999999,127.7589256,70.0
192,오봉저수지,전북 임실군,063-640-4150,"['레포츠', '민물낚시', '임실낚시', '임실저수지']",https://cdn.visitkorea.or.kr/img/call?cmd=VIEW&id=undefined&thumb,전라북도 임실군 성수면 산성로 522,35.61469620000001,127.36433999999998,71.0
193,비응도일대,전북 군산시,063-453-4986,"['군산바다', '군산바다낚시', '레포츠', '바다낚시', '전북권']",https://cdn.visitkorea.or.kr/img/call?cmd=VIEW&id=undefined&thumb,전라북도 군산시 비응로,35.93977310000001,126.5298749,72.0
194,팡팡레저,전북 무주군,063-322-3506,"['겨울스포츠', '레포츠', '복합레저스포츠', '스키대여', '스키렌탈', '스키샵', '익스트림스포츠']",https://cdn.visitkorea.or.kr/img/call?cmd=VIEW&id=d55bfea7-6742-46a7-90ed-0d28bc7c6edf&thumb,전라북도 무주군 설천면 만선로 12,35.9109477,127.7582176,73.0
195,k2스키클럽,전북 무주군,2 063-322-3966,"['k2스키클럽', '겨울스포츠', '레포츠', '복합레저스포츠', '스키', '스키대여', '스키렌탈']",https://cdn.visitkorea.or.kr/img/call?cmd=VIEW&id=ef02c064-5195-47d2-8b0c-c25d93f213fd&thumb,전라북도 무주군 설천면 만선로 63,35.90749779999999,127.7557032,74.0
196,무주스키,전북 무주군,063-324-6611,"['겨울스포츠', '레포츠', '무주레저타운', '무주스키', '복합레저스포츠', '스키']",https://cdn.visitkorea.or.kr/img/call?cmd=VIEW&id=51faf3a6-6099-45ae-af89-1ea28c444e64&thumb,전라북도 무주군 설천면 만선로 70,35.9069023,127.7553948,75.0
197,노블스키샵,전북 무주군,063-322-3663,"['겨울스포츠', '레포츠', '복합레저스포츠', '스키대여', '스키렌탈', '스키샵', '익스트림스포츠']",https://cdn.visitkorea.or.kr/img/call?cmd=VIEW&id=3fecb298-f654-4700-87b1-3f12bcf0181a&thumb,전라북도 무주군 설천면 구천동로 1083-11,35.9094881,127.7589233,76.0
198,그랜드스키타운,전북 무주군,063-322-5800,"['겨울스포츠', '레포츠', '복합레저스포츠', '스키대여', '스키렌탈', '스키샵', '익스트림스포츠']",https://cdn.visitkorea.or.kr/img/call?cmd=VIEW&id=ee747701-9a7b-461b-b2de-446db9d44559&thumb,전라북도 무주군 설천면 만선로 74-1,35.9065459,127.7552142,77.0
199,스키119,전북 무주군,063-322-7119,"['겨울스포츠', '레포츠', '복합레저스포츠', '스키대여', '스키렌탈', '스키샵', '익스트림스포츠']",https://cdn.visitkorea.or.kr/img/call?cmd=VIEW&id=06e296bb-0f3c-4d51-9400-172fe2cbb6b0&thumb,전라북도 무주군 설천면 만선1로 62,35.90484960000001,127.7556703,78.0
200,수청저수지,전북 정읍시,063-539-7561,"['레포츠', '민물낚시', '전북권', '정읍낚시터', '정읍저수지']",https://cdn.visitkorea.or.kr/img/call?cmd=VIEW&id=undefined&thumb,전라북도 정읍시 칠보면 칠보산로,35.5732404,126.9500947,79.0
201,챔피언스키,전북 무주군,063-322-3232,"['겨울스포츠', '레포츠', '복합레저스포츠', '스키대여', '스키대여', '스키렌탈']",https://cdn.visitkorea.or.kr/img/call?cmd=VIEW&id=43067ffe-ecb6-4f19-bd4f-10941fafc40c&thumb,전라북도 무주군 설천면 만선1로 64,35.904967,127.7557531,80.0
202,스키라이프,전북 무주군,063-322-2111,"['겨울스포츠', '레포츠', '복합레저스포츠', '스키대여', '스키렌탈', '스키샵', '익스트림스포츠']",https://cdn.visitkorea.or.kr/img/call?cmd=VIEW&id=7af0207a-1c4e-4533-8a4b-fc1903abd23b&thumb,전라북도 무주군 설천면 만선로 36-2,35.91002620000001,127.7558173,81.0
203,칠산 앞바다,전북 고창군,063-560-2458,"['군산바다', '군산바다낚시', '군산시', '레포츠', '바다낚시', '전북권']",https://cdn.visitkorea.or.kr/img/call?cmd=VIEW&id=undefined&thumb,전라북도 고창군 해리면 구동호2길 9,35.5162785,126.4855878,82.0
204,태인컨트리클럽,전북 정읍시,063-532-7200,['레포츠'],https://cdn.visitkorea.or.kr/img/call?cmd=VIEW&id=d2cc767b-3693-4160-9e8b-14eda2fab69c&thumb,전라북도 정읍시 태인면 정읍북로 1739-90,35.68198029999999,126.9675575,83.0
205,고창컨트리클럽,전북 고창군,063-560-7744,"['고창가볼만한곳', '골프', '골프리조트', '골프장', '골프클럽', '남녀노소', '레저스포츠']",https://cdn.visitkorea.or.kr/img/call?cmd=VIEW&id=undefined&thumb,전라북도 고창군 심원면 애향갯벌로 70,35.51594940000001,126.50232350000002,84.0
206,무주스키스쿨,전북 무주군,063-324-3141,"['겨울스포츠', '레포츠', '복합레저스포츠', '스키대여', '스키렌탈', '스키샵', '익스트림스포츠']",https://cdn.visitkorea.or.kr/img/call?cmd=VIEW&id=6ffc20e1-7bb9-49cb-82e0-285c78968cce&thumb,전라북도 무주군 설천면 만선로 49,35.9085697,127.7558018,85.0
207,네이버스키샵,전북 무주군,063-322-1003,"['겨울스포츠', '레포츠', '복합레저스포츠', '스키대여', '스키렌탈', '스키샵', '익스트림스포츠']",https://cdn.visitkorea.or.kr/img/call?cmd=VIEW&id=9c9adec8-bea1-4f25-ba2a-499d470ed916&thumb,전라북도 무주군 설천면 내배방길 9,35.911379,127.7570707,86.0
208,스노우밸리콘도스키샵,전북 무주군,063-322-6678,"['겨울스포츠', '레포츠', '복합레저스포츠', '숙박시설', '숙박업소', '스키대여']",https://cdn.visitkorea.or.kr/img/call?cmd=VIEW&id=4f4ed3eb-923b-4546-acf8-cfdd1d0d13c7&thumb,전라북도 무주군 설천면 만선로 36-37,35.9091126,127.7546512,87.0
209,광산스키,전북 무주군,063-322-4334,['레포츠'],https://cdn.visitkorea.or.kr/img/call?cmd=VIEW&id=79e9db67-2140-43e0-be1c-6727699648ce&thumb,전라북도 무주군 설천면 만선로 52,35.9084891,127.7552049,88.0
210,스키일번지,전북 무주군,063-322-9555,"['겨울스포츠', '레포츠', '복합레저스포츠', '스키대여', '스키렌탈', '스키샵', '익스트림스포츠']",https://cdn.visitkorea.or.kr/img/call?cmd=VIEW&id=eaa973ea-2833-4e72-bb91-17b242270824&thumb,전라북도 무주군 설천면 만선로 62,35.9076904,127.7551331,89.0
211,국가대표,전북 무주군,063-322-6655,"['겨울스포츠', '레포츠', '복합레저스포츠', '스키대여', '스키렌탈', '스키샵', '익스트림스포츠']",https://cdn.visitkorea.or.kr/img/call?cmd=VIEW&id=1d0e1fd6-85b8-4c7a-9086-3085493080ba&thumb,전라북도 무주군 설천면 구천동로 1101,35.9111059,127.7593007,90.0
212,스키광장,전북 무주군,063-322-3285,"['겨울스포츠', '레포츠', '복합레저스포츠', '스키대여', '스키렌탈', '스키샵', '익스트림스포츠']",https://cdn.visitkorea.or.kr/img/call?cmd=VIEW&id=dd1826d5-b2bf-495b-9a42-7e5fb6a71f0f&thumb,전라북도 무주군 설천면 만선로 60,35.9078914,127.7551148,91.0
213,설천계곡 하천(낚시터),전북 무주군,063-324-7003,"['레포츠', '무주낚시터', '무주저수지', '민물낚시', '전북권']",https://cdn.visitkorea.or.kr/img/call?cmd=VIEW&id=undefined&thumb,전라북도 무주군 설천면 무설로,36.01116010000001,127.7752841,92.0
214,리틀프린스 스키샵,전북 무주군,063-322-0873,"['레포츠', '복합레저스포츠', '스키대여', '스키렌탈', '스키샵', '스포츠체험', '익스트림스포츠']",https://cdn.visitkorea.or.kr/img/call?cmd=VIEW&id=df4ec33b-a154-4458-a3bd-f2f3133985dc&thumb,전라북도 무주군 설천면 만선로 34-1,35.9104263,127.7557452,93.0
215,ok스키샵,전북 무주군,063-322-2218,"['ok스키샵', '겨울스포츠', '레포츠', '복합레저스포츠', '스키', '스키대여', '스키렌탈']",https://cdn.visitkorea.or.kr/img/call?cmd=VIEW&id=95d48fb0-6021-46be-80a8-f4b456a3bbc3&thumb,전라북도 무주군 설천면 내배방길 6,35.91151160000001,127.7580264,94.0
216,알프스펜션스키샵,전북 무주군,063-322-4336,['레포츠'],https://cdn.visitkorea.or.kr/img/call?cmd=VIEW&id=bd12df28-c458-47bc-9ba1-bcdc9f550e7c&thumb,전라북도 무주군 설천면 만선로 38,35.9097242,127.7557617,95.0
217,백암스키샵,전북 무주군,063-322-2244,"['겨울스포츠', '레포츠', '복합레저스포츠', '스키대여', '스키렌탈', '스키샵', '익스트림스포츠']",https://cdn.visitkorea.or.kr/img/call?cmd=VIEW&id=ff2dcbb5-d9e8-4716-a439-d70d31f1b22b&thumb,전라북도 무주군 설천면 만선로 32,35.9103673,127.7560101,96.0
218,알토스키샵,전북 무주군,063-322-5544,"['겨울스포츠', '레포츠', '복합레저스포츠', '스키대여', '스키렌탈', '스키샵', '익스트림스포츠']",https://cdn.visitkorea.or.kr/img/call?cmd=VIEW&id=1ea9494a-1565-4aed-bfe1-ee67c5e1c248&thumb,전라북도 무주군 설천면 만선로 72,35.90676879999999,127.7553387,97.0
219,스마트스키,전북 무주군,063-322-8858,"['겨울스포츠', '레포츠', '복합레저스포츠', '스키대여', '스키렌탈', '스키샵', '익스트림스포츠']",https://cdn.visitkorea.or.kr/img/call?cmd=VIEW&id=33b840fd-0fbe-4a16-bcc9-4a56f17c8b3c&thumb,전라북도 무주군 설천면 만선로 46,35.9091096,127.7553969,98.0
220,대위제,전북 군산시,063-446-5114,"['군산낚시', '군산시', '레포츠', '민물낚시', '전북권']",https://cdn.visitkorea.or.kr/img/call?cmd=VIEW&id=undefined&thumb,전라북도 군산시 회현면 대위로,35.915765,126.7579075,99.0
221,사동저수지(민물낚시터),전북 무주군,1899-8687,"['레포츠', '무주낚시터', '무주저수지', '민물낚시', '전북권']",https://cdn.visitkorea.or.kr/img/call?cmd=VIEW&id=undefined&thumb,전라북도 무주군 무풍면 실미길 59-10,35.9433385,127.8456124,100.0
222,무주컨트리클럽,전북 무주군,063-322-9000,['레포츠'],https://cdn.visitkorea.or.kr/img/call?cmd=VIEW&id=undefined&thumb,전라북도 무주군 설천면 만선로 185,35.88936670000001,127.7389493,101.0
223,덕동자동차야영장,전북 남원시,063-630-8900,"['국립공원야영장', '레포츠', '자동차아영장', '지리산']",https://cdn.visitkorea.or.kr/img/call?cmd=VIEW&id=368fd77b-a44c-46bb-91db-cbc78ea24486&thumb,전라북도 남원시 산내면 지리산로 593,35.3851324,127.5881926,102.0
224,군산 공설시장,전북 군산시,063-445-4929,"['가족여행', '군산공설시장', '나들이', '나홀로여행', '먹거리', '쇼핑', '시장맛집']",https://cdn.visitkorea.or.kr/img/call?cmd=VIEW&id=f2cf5d68-6897-4004-a746-9e56b40db77e&thumb,전라북도 군산시 신금길 18,35.98317106,126.72032450000002,
225,신영시장,전북 군산시,063-446-2524,"['가족여행', '기차여행', '나들이', '나홀로여행', '데이트코스', '먹거리', '쇼핑']",https://cdn.visitkorea.or.kr/img/call?cmd=VIEW&id=30aaa148-387a-4e35-a6ea-61151d21949f&thumb,전라북도 군산시 동신영길 36,35.98484999,126.7202172,
226,전주 남부시장,전북 전주시,063-284-1344,"['가족여행', '나들이', '나홀로여행', '먹거리', '쇼핑', '시장맛집', '아이와함께']",https://cdn.visitkorea.or.kr/img/call?cmd=VIEW&id=0ee9af51-f359-4ed1-bc3c-7aa383b19016&thumb,전라북도 전주시 완산구 풍남문2길 63,35.81241318,127.146605,
227,군산수산물종합센터,전북 군산시,063-442-4822,"['가족여행', '군산수산물종합센터', '나들이', '나홀로여행', '데이트코스', '먹거리']",https://cdn.visitkorea.or.kr/img/call?cmd=VIEW&id=14c91104-2929-42ed-a040-255acd089b9f&thumb,전라북도 군산시 내항2길 216,35.99398528,126.7047418,
228,"무주반딧불시장(무주반딧불장터) (1, 6일)",전북 무주군,063-324-0692,"['가족여행', '나들이', '나홀로여행', '먹거리', '무주반딧불시장', '무주반딧불장터']",https://cdn.visitkorea.or.kr/img/call?cmd=VIEW&id=1090bf23-7aa2-4810-956c-cd9568f9f2c8&thumb,전라북도 무주군 무주읍 장터로 2,36.00464802,127.653586,
229,"오수상설시장 / 오수5일장 (5, 10일)",전북 임실군,063-644-2007,"['가족여행', '나들이', '나홀로여행', '먹거리', '쇼핑', '시장맛집', '아이와함께']",https://cdn.visitkorea.or.kr/img/call?cmd=VIEW&id=90ab7988-02c0-4dd4-8c5c-c964ef87ae74&thumb,전라북도 임실군 오수면 오수로 159,35.5384383,127.3266517,
230,격포항 수산시장,전북 부안군,063-581-0877,"['가족여행', '격포항수산시장', '기차여행', '나들이', '나홀로여행', '데이트코스']",https://cdn.visitkorea.or.kr/img/call?cmd=VIEW&id=b93819c6-0582-4a9d-b3cc-37abfba37263&thumb,전라북도 부안군 변산면 격포중앙길 28-4,35.62216049,126.4703538,
231,곰소젓갈단지 (구시장),전북 부안군,063-580-4395 063-581-5114,"['가족여행', '곰소젓갈단지', '나홀로여행', '쇼핑', '아이와함께', '연인과함께']",https://cdn.visitkorea.or.kr/img/call?cmd=VIEW&id=c584e450-2fa7-4ce6-b16b-56b954ed549c&thumb,전라북도 부안군 진서면 곰소항길 22-11,35.58717176,126.6031147,
232,"고창장 (3, 8일)",전북 고창군,063-560-8100,"['가족여행', '고창장', '나들이', '나홀로여행', '먹거리', '쇼핑', '시장맛집', '아이와함께']",https://cdn.visitkorea.or.kr/img/call?cmd=VIEW&id=9c4e4204-7f05-41cf-a314-e201e0f56bc8&thumb,전라북도 고창군 고창읍 동산5길 24,35.43243658,126.7106612,
233,"부안상설시장 / 부안장 (4, 9일)",전북 부안군,063 584 3070,"['가족여행', '부안장', '사계절', '쇼핑', '시장맛집', '아이와함께', '어르신추천코스']",https://cdn.visitkorea.or.kr/img/call?cmd=VIEW&id=9ff2bf33-74ca-4bff-9994-52c3135c41ec&thumb,전라북도 부안군 부안읍 부풍로 47,35.72711546,126.7329623,
234,"남원장 / 남원공설시장 (4, 9일)",전북 남원시,063-625-4010,"['가족여행', '남원공설시장', '남원장', '사계절', '쇼핑', '시장맛집', '아이와함께']",https://cdn.visitkorea.or.kr/img/call?cmd=VIEW&id=f3b7c923-3a80-4e69-a919-945a86e0d4b1&thumb,전라북도 남원시 의총로 51,35.40461666,127.3758683,
235,전주 신중앙시장,전북 전주시,063-253-6535,"['가족여행', '사계절', '쇼핑', '시장맛집', '아이와함께', '재래시장', '전라권', '전주중앙시장']",https://cdn.visitkorea.or.kr/img/call?cmd=VIEW&id=d870ff3d-6f02-497f-b5ee-d8abc69be41d&thumb,전라북도 전주시 완산구 태평3길 70,35.82522552,127.1424578,
236,익산 주얼팰리스,전북 익산시,063-834-5100,"['견학', '귀금속', '보석', '쇼핑', '익산보석박물관']",https://cdn.visitkorea.or.kr/img/call?cmd=VIEW&id=98c7c63f-2f8b-4dc8-8ac7-404897c50095&thumb,전라북도 익산시 왕궁면 호반로 8,35.99061279,127.1025486,
237,"대야장 (1, 6일)",전북 군산시,063-451-2327,"['가족여행', '나들이', '나홀로여행', '대야장', '먹거리', '쇼핑', '시장맛집', '아이와함께']",https://cdn.visitkorea.or.kr/img/call?cmd=VIEW&id=3fe7cfc8-891c-4e8b-a247-d63637531c49&thumb,전라북도 군산시 대야면 대야시장로 7-1,35.94485510000001,126.8160847,
238,남원 목기공예사,전북 남원시,063-635-9906,"['공예', '남원특산품', '목굥예', '목기공예', '쇼핑']",https://cdn.visitkorea.or.kr/img/call?cmd=VIEW&id=0cedfba4-45e4-4a33-9191-68cbb91f3b2a&thumb,전라북도 남원시 요천로 1357,35.39810031,127.3717039,
239,남원 용남시장,전북 남원시,063-632-5133,"['가족여행', '나들이', '나홀로여행', '남원용남시장', '먹거리', '쇼핑', '시장맛집']",https://cdn.visitkorea.or.kr/img/call?cmd=VIEW&id=dda0adbc-3362-4470-a759-dee6203fcd25&thumb,전라북도 남원시 의총로 78,35.40773705,127.3766389,
240,전주 서부시장,전북 전주시,063-221-5336,"['가족여행', '나들이', '나홀로여행', '데이트코스', '먹거리', '쇼핑', '시장맛집']",https://cdn.visitkorea.or.kr/img/call?cmd=VIEW&id=171d13d0-ac6d-492b-9f1d-1c7f6836803e&thumb,전라북도 전주시 완산구 효동2길 18,35.80494147,127.1266043,
241,전주 모래내시장,전북 전주시,063-278-5802,"['가족여행', '먹거리', '사계절', '쇼핑', '아이와함께', '이색체험', '전라권', '전주모래내시장']",https://cdn.visitkorea.or.kr/img/call?cmd=VIEW&id=6a5ea23f-59aa-4430-a485-472319724f55&thumb,전라북도 전주시 덕진구 모래내4길 8-8,35.83356733,127.1438722,
242,"익산 북부장 / 북부시장 (4, 9일)",전북 익산시,063-855-6891,"['가족여행', '기차여행', '나들이', '나홀로여행', '먹거리', '북부시장', '쇼핑', '아이와함께']",https://cdn.visitkorea.or.kr/img/call?cmd=VIEW&id=34601468-c7ae-4619-8585-0d8f49c2675f&thumb,전라북도 익산시 인북로11길 27,35.95122845,126.9566254,
243,"줄포장 (1, 6일)",전북 부안군,063-580-4612,"['가족여행', '사계절', '쇼핑', '시장맛집', '아이와함께', '재래시장', '전라권', '전통시장']",https://cdn.visitkorea.or.kr/img/call?cmd=VIEW&id=ae840b23-873a-4d2a-b0d6-f9dcc0a1c8b2&thumb,전라북도 부안군 줄포면 서빈3길 7,35.58737584,126.677309,
244,정읍 샘고을시장 (구 제일시장),전북 정읍시,063-534-6661,"['가족여행', '나들이', '나홀로여행', '먹거리', '샘고을전통시장', '쇼핑', '시장맛집']",https://cdn.visitkorea.or.kr/img/call?cmd=VIEW&id=e0180065-4d83-41e3-896c-e4373a2191a8&thumb,전라북도 정읍시 태평6길 22-2,35.56297626,126.8547376,
245,"관촌시장 (5, 10일)",전북 임실군,063-643-5999,"['가족여행', '관촌시장', '나들이', '나홀로여행', '먹거리', '쇼핑', '시장맛집', '아이와함께']",https://cdn.visitkorea.or.kr/img/call?cmd=VIEW&id=612016fc-6313-4bef-9647-c05dfd812dc8&thumb,전라북도 임실군 관촌면 사선1길 70-3,35.67878053,127.2676801,
246,"진안장 / 진안시장 (4, 9일)",전북 진안군,063-433-1051,"['가족여행', '기차여행', '나들이', '나홀로여행', '먹거리', '쇼핑', '시장맛집', '아이와함께']",https://cdn.visitkorea.or.kr/img/call?cmd=VIEW&id=81dcff5d-5021-4525-a692-efc26b497e3c&thumb,전라북도 진안군 진안읍 진무로 1105-2,35.79215878,127.4295773,
247,"김제장 (2, 7일)",전북 김제시,063-540-3616,"['가족여행', '기차여행', '김제장', '나들이', '나홀로여행', '먹거리', '쇼핑', '시장맛집']",https://cdn.visitkorea.or.kr/img/call?cmd=VIEW&id=cc346908-5e4a-4c09-aa39-914994d2adf0&thumb,전라북도 김제시 요촌중길 50,35.80476591,126.8912745,
248,"고산미소시장/고산시장 (4, 9일)",전북 완주군,063-262-0119,"['가족여행', '고산정기시장', '나들이', '나홀로여행', '먹거리', '쇼핑', '시장맛집']",https://cdn.visitkorea.or.kr/img/call?cmd=VIEW&id=539107ee-ab7b-44d9-b504-cab8b445b663&thumb,전라북도 완주군 고산면 남봉로 134,35.97407542,127.2054123,
249,정읍 농산물도매시장,전북 정읍시,063-532-4001,"['가족여행', '나들이', '나홀로여행', '쇼핑', '시장맛집', '아이와함께', '연인과함께']",https://cdn.visitkorea.or.kr/img/call?cmd=VIEW&id=5113bbe4-d66a-4b7a-ba61-3d251a42daf9&thumb,전라북도 정읍시 황토현로 1213-15,35.58760191,126.84572,
250,정읍 연지시장,전북 정읍시,063-532-5380,"['가족여행', '나들이', '나홀로여행', '데이트코스', '먹거리', '쇼핑', '시장맛집']",https://cdn.visitkorea.or.kr/img/call?cmd=VIEW&id=d6da60ea-7cef-425c-ba7c-133148a6f3f2&thumb,전라북도 정읍시 연지시장3길 50-9,35.57332019,126.8459561,
251,"원평장 (4, 9일)",전북 김제시,063-540-4861,"['가족여행', '기차여행', '나들이', '나홀로여행', '먹거리', '쇼핑', '시장맛집', '아이와함께']",https://cdn.visitkorea.or.kr/img/call?cmd=VIEW&id=dc7e1d32-cb9d-4d2f-8884-e7b0ce802376&thumb,전라북도 김제시 금산면 원평6길 39-8,35.71402545,126.9949536,
252,손누리이야기 (관광두레 주민사업체),전북 김제시,063-547-0151,"['가족과함께', '공예체험', '공예품', '관광두레', '관광두레_주민사업체', '남녀노소']",https://cdn.visitkorea.or.kr/img/call?cmd=VIEW&id=bf4595d8-79a4-482e-8990-a28c19c2592e&thumb,전라북도 김제시 동헌4길 77,35.80035432,126.88062859999998,
253,"순창5일장 / 순창시장 (1, 6일)",전북 순창군,063-650-1311,"['가족여행', '기차여행', '나들이', '나홀로여행', '먹거리', '쇼핑', '순창시장', '순창오일장']",https://cdn.visitkorea.or.kr/img/call?cmd=VIEW&id=3b241260-1cc2-42db-ba48-3737ac2c1001&thumb,전라북도 순창군 순창읍 남계로 58,35.37186989,127.1450594,
254,금산필방,전북 김제시,063-548-0222,"['가족여행', '금산필방', '기념품판매', '기차여행', '나들이', '나홀로여행', '먹거리']",https://cdn.visitkorea.or.kr/img/call?cmd=VIEW&id=d9157c73-7fd7-4d11-8b12-5a7099b834b1&thumb,전라북도 김제시 금산면 모악로 470,35.71826142,127.0418048,
255,"삼례정기시장 (3, 8일)",전북 완주군,063-291-9429,"['가족여행', '나들이', '나홀로여행', '먹거리', '삼례정기시장', '쇼핑', '시장맛집']",https://cdn.visitkorea.or.kr/img/call?cmd=VIEW&id=eac971ab-90e5-43e3-8aff-6f503971c69a&thumb,전라북도 완주군 삼례읍 삼례로 370-2,35.910507,127.0734435,
256,남원 터미널시장,전북 남원시,063-620-6343,"['가족여행', '기차여행', '나들이', '나홀로여행', '남원터미널시장', '먹거리', '서울근교여행']",https://cdn.visitkorea.or.kr/img/call?cmd=VIEW&id=fa1634f0-cfc4-409d-825d-98a5d0ef7de2&thumb,전라북도 남원시 봉당길 8,35.41181056,127.3835072,
257,남원 목운공예사,전북 남원시,063-633-7489,"['무형문화재', '쇼핑', '식기류', '옻칠장', '칠기']",https://cdn.visitkorea.or.kr/img/call?cmd=VIEW&id=83ca9c51-3793-435d-9bb4-42223f6a6b8c&thumb,전라북도 남원시 요천로 1230-9,35.39518972,127.3583294,
258,"장수장 (5, 10일)",전북 장수군,063-350-2601,"['가족여행', '나들이', '나홀로여행', '먹거리', '쇼핑', '시장맛집', '아이와함께']",https://cdn.visitkorea.or.kr/img/call?cmd=VIEW&id=14366382-8408-44ea-b556-690374895c47&thumb,전라북도 장수군 장수읍 시장로 11,35.64910245,127.5174723,
259,고창옹기,전북 고창군,063-562-0101,"['쇼핑', '옹기', '용기', '항아리']",https://cdn.visitkorea.or.kr/img/call?cmd=VIEW&id=e2064ce1-a660-43bd-8d6a-ca281c5563b0&thumb,전라북도 고창군 고수면 장암길 20,35.40255446,126.6686275,
260,"임실장 / 임실시장 (1, 6일)",전북 임실군,063-642-0303,"['가족여행', '기차여행', '나들이', '나홀로여행', '먹거리', '쇼핑', '시장맛집', '아이와함께']",https://cdn.visitkorea.or.kr/img/call?cmd=VIEW&id=47305e65-55b6-4401-a74f-ec0f94e4ed89&thumb,전라북도 임실군 임실읍 운수로 26,35.61445105,127.2827109,
261,"운주정기시장 (1, 6일)",전북 완주군,063-290-3685,"['먹거리', '쇼핑', '시장맛집', '오일장', '운주정기시장', '전라권', '전통시장', '전통시장투어']",https://cdn.visitkorea.or.kr/img/call?cmd=VIEW&id=23a080b9-dff9-4943-ad8d-01495c7503d9&thumb,전라북도 완주군 운주면 운주로 134-18,36.09413878,127.2768754,
262,고창전통자수전시판매장,전북 고창군,063-561-1887,"['고창전통자수전시판매장', '기념품판매', '쇼핑', '전라권']",https://cdn.visitkorea.or.kr/img/call?cmd=VIEW&id=1040b663-5e20-4136-be78-bab9a92483ef&thumb,전라북도 고창군 아산면 중촌길 4,35.5029721,126.5868023,
263,"인월장 / 인월시장 (3, 8일)",전북 남원시,063-625-1498,"['가족여행', '나들이', '나홀로여행', '먹거리', '쇼핑', '시장맛집', '아이와함께']",https://cdn.visitkorea.or.kr/img/call?cmd=VIEW&id=1d7d8b1a-29a5-4842-b96a-f96d826afc3e&thumb,전라북도 남원시 인월면 인월로 65-3,35.46153231,127.6020919,
264,정읍 신태인시장,전북 정읍시,063-571-7040,"['가족여행', '나들이', '나홀로여행', '데이트코스', '먹거리', '쇼핑', '시장맛집']",https://cdn.visitkorea.or.kr/img/call?cmd=VIEW&id=05e3b3ef-a6e4-42de-814f-88dd90e4f31e&thumb,전라북도 정읍시 신태인읍 시장2길 14,35.68590753,126.8872157,
265,남원시 농특산물 전시판매장,전북 남원시,063-636-5365,"['기념품판매', '남원시농특산물전시판매장', '쇼핑', '전라권', '특산물']",https://cdn.visitkorea.or.kr/img/call?cmd=VIEW&id=8356bac9-102e-4ecb-8613-2d67f656f7ab&thumb,전라북도 남원시 인월면 천왕봉로 96,35.45752379,127.6079527,
266,농협 목우촌 김제지점,전북 김제시,080-910-9000,"['가족여행', '나들이', '나홀로여행', '농협목우촌김제지점', '쇼핑', '아이와함께']",https://cdn.visitkorea.or.kr/img/call?cmd=VIEW&id=9baf10f2-b041-4ac2-b17d-c0ae0d746000&thumb,전라북도 김제시 금산면 구성길 630,35.75472548,127.0038574,
267,온고을공예방,전북 전주시,010-9977-1617,"['공방', '생활용품', '쇼핑', '전주한옥마을', '체험']",https://cdn.visitkorea.or.kr/img/call?cmd=VIEW&id=39e0d50f-a48c-4a22-be41-318b91705712&thumb,전라북도 전주시 완산구 향교길 51-9,35.81223091,127.1522902,
268,"해리장 (4, 9일)",전북 고창군,063-560-2557,"['가족여행', '기차여행', '나들이', '나홀로여행', '먹거리', '쇼핑', '시장맛집', '아이와함께']",https://cdn.visitkorea.or.kr/img/call?cmd=VIEW&id=0d8dc51c-3f5a-4111-aa33-3021f01e4459&thumb,전라북도 고창군 해리면 남시길 16-1,35.45864248,126.5424772,
269,남원 목기사업협동조합 판매장,전북 남원시,063-626-9909,"['공예품', '기념품판매', '목공예사업협동조합판매장', '쇼핑', '연중무휴', '전라권']",https://cdn.visitkorea.or.kr/img/call?cmd=VIEW&id=6849e6bc-2097-409c-90b4-cbfba83be0f4&thumb,전라북도 남원시 목공예길 27,35.39019244,127.3930255,
270,"번암장 (1, 6일)",전북 장수군,063-353-2303,"['가족여행', '번암장', '사계절', '쇼핑', '시장맛집', '아이와함께', '재래시장', '전라권']",https://cdn.visitkorea.or.kr/img/call?cmd=VIEW&id=f16b78d6-94f7-4320-b6e2-b0af70d35a95&thumb,전라북도 장수군 번암면 신평로 317-1,35.5330751,127.5450979,
271,"함열장 (2, 7일)",전북 익산시,063-862-2900,"['가족여행', '나들이', '나홀로여행', '먹거리', '쇼핑', '시장맛집', '아이와함께']",https://cdn.visitkorea.or.kr/img/call?cmd=VIEW&id=f903451b-a827-4a52-a992-12f1f9c64775&thumb,전라북도 익산시 함열읍 와리2길 8,36.08082852,126.95852240000002,
272,전북인삼농협,전북 진안군,1577-3349,"['가족여행', '기념품판매', '기차여행', '나들이', '나홀로여행', '먹거리', '쇼핑']",https://cdn.visitkorea.or.kr/img/call?cmd=VIEW&id=8882c705-aebf-4ad2-b3da-7a56b4a0953a&thumb,전라북도 진안군 진안읍 진무로 1021,35.78750527,127.4228804,
273,"장계장 (3, 8일)",전북 장수군,063-352-0346,"['쇼핑', '장계장', '전라권', '전통시장']",https://cdn.visitkorea.or.kr/img/call?cmd=VIEW&id=f14439ef-802e-4c9d-9e32-e9afe9981e90&thumb,전라북도 장수군 장계면 시장천변길 36,35.72943841,127.5822721,
274,"봉동시장 (5, 10일)",전북 완주군,063-261-3001,"['가족여행', '나들이', '나홀로여행', '먹거리', '봉동시장', '쇼핑', '시장맛집', '아이와함께']",https://cdn.visitkorea.or.kr/img/call?cmd=VIEW&id=33576d06-1b61-4625-be53-c3fb6616af81&thumb,전라북도 완주군 봉동읍 봉동동서로 134-5,35.93872172,127.1670715,
275,"운봉장 / 운봉공설시장 (1, 6일)",전북 남원시,063-634-0212,"['가족여행', '사계절', '쇼핑', '시장맛집', '아이와함께', '운봉장', '재래시장', '전라권']",https://cdn.visitkorea.or.kr/img/call?cmd=VIEW&id=8e709cc9-6e59-41a8-bff0-d6ab0654fe1b&thumb,전라북도 남원시 운봉읍 운성로 20,35.43625768,127.5288053,
276,"복흥장 (3, 8일)",전북 순창군,063-650-1311,"['복흥장', '쇼핑', '시장', '전라권']",https://cdn.visitkorea.or.kr/img/call?cmd=VIEW&id=d1e4942b-ea22-4e76-81e4-7002268fc4b7&thumb,전라북도 순창군 복흥면 정산2길 7,35.4316724,126.9326399,
277,정일품공방,전북 남원시,063-633-6197,"['쇼핑', '옻칠', '옻칠공예', '옻칠기공예']",https://cdn.visitkorea.or.kr/img/call?cmd=VIEW&id=69456a89-5eab-4a49-9101-33d571bde732&thumb,전라북도 남원시 요천로 1268,35.39626372,127.3623187,
278,완주 로컬푸드직매장,전북 완주군,063-240-6925,"['농산물', '로컬푸드', '로컬푸드직매장', '쇼핑', '수산물', '축산품']",https://cdn.visitkorea.or.kr/img/call?cmd=VIEW&id=895caa74-99fe-4b15-b3d4-57778b103d13&thumb,전라북도 완주군 용진읍 상운리 85-1,35.88187953,127.1555791,
279,"산서장 (2, 7일)",전북 장수군,063-351-3460,"['가족여행', '사계절', '산서장', '쇼핑', '시장맛집', '아이와함께', '재래시장', '전라권']",https://cdn.visitkorea.or.kr/img/call?cmd=VIEW&id=9af6d877-1ab5-4971-9ec8-3c6e296036ae&thumb,전라북도 장수군 산서면 보산로 1864-11,35.58449451,127.3958895,
280,"안성장 (5, 10일)",전북 무주군,063-320-2615,"['가족여행', '나들이', '나홀로여행', '먹거리', '쇼핑', '시장맛집', '아이와함께']",https://cdn.visitkorea.or.kr/img/call?cmd=VIEW&id=78ed8bae-e852-415d-94e6-f461e2e484f5&thumb,전라북도 무주군 안성면 칠연로 38,35.86633002,127.653578,
281,"여산장 (1, 6일)",전북 익산시,063-836-5024,"['가족여행', '나들이', '나홀로여행', '먹거리', '쇼핑', '시장맛집', '아이와함께']",https://cdn.visitkorea.or.kr/img/call?cmd=VIEW&id=b5b53a38-488f-455b-a2e6-d85e77026b1e&thumb,전라북도 익산시 여산면 서촌2길 21,36.05874458,127.0833761,
282,"금마장 (2, 7일)",전북 익산시,063-836-6731,"['가족여행', '금마장', '나들이', '나홀로여행', '먹거리', '쇼핑', '시장맛집', '아이와함께']",https://cdn.visitkorea.or.kr/img/call?cmd=VIEW&id=fdb66f07-06a7-4b44-99b2-329dc852a98d&thumb,전라북도 익산시 금마면 금마4길 7,35.99175007,127.05346740000002,
283,"황등장 / 황등시장 (5, 10일)",전북 익산시,063-856-4446,"['가족여행', '나들이', '나홀로여행', '먹거리', '쇼핑', '시장맛집', '아이와함께']",https://cdn.visitkorea.or.kr/img/call?cmd=VIEW&id=ccd34439-a355-443d-8e52-b82ae1530e9c&thumb,전라북도 익산시 황등면 황등7길 25,36.00591581,126.9452533,
284,손내옹기,전북 진안군,063-432-3252,"['쇼핑', '수공예품', '옹기마을', '정송마을']",https://cdn.visitkorea.or.kr/img/call?cmd=VIEW&id=98a45098-a988-4412-bac7-5213b2e25614&thumb,전라북도 진안군 백운면 임진로 1724,35.72124796,127.402182,
285,지리산고원흑돈유통센타,전북 남원시,063-635-7878,"['남원시', '쇼핑', '유통센타', '흑돼지']",https://cdn.visitkorea.or.kr/img/call?cmd=VIEW&id=b92d524e-667b-4cfe-97c6-6f310983966c&thumb,전라북도 남원시 아영면 인월장터로 247,35.47994646,127.5910202,
