,name,region,tel,keyword,photo,address,lat,lon,Unnamed: 0
0,아쿠아플라넷 여수,전남 여수시,061-660-1111,"['문화시설', '미세먼지_피하는_실내여행', '상설공연', '실내관광지', '실내데이트']",https://cdn.visitkorea.or.kr/img/call?cmd=VIEW&id=1d941681-960e-421b-8fd2-6c3984e52408&thumb,전라남도 여수시 오동도로 61-11,34.74626041,127.7487115,
1,보성군립 백민미술관,전남 보성군,061-853-0003,"['문화공간', '문화시설', '복합문화공간', '열린문화공간', '예술공간', '작품', '전시작품']",https://cdn.visitkorea.or.kr/img/call?cmd=VIEW&id=9acdb734-bba8-486e-a626-8bbc12da2acf&thumb,전라남도 보성군 문덕면 죽산길 168-14,34.9669474,127.1600655,
2,전라남도해양수산과학관,전남 여수시,061-644-4136,"['기차여행', '문화시설', '박물관', '실내여행지', '아이와함께', '이색체험', '전라권']",https://cdn.visitkorea.or.kr/img/call?cmd=VIEW&id=4a37518b-d075-465f-af03-73164f941148&thumb,전라남도 여수시 돌산읍 돌산로 2876,34.68223799,127.77589950000001,
3,목포근대역사관 2관,전남 목포시,061-270-8728,"['목포근대역사관2관', '문화시설', '미세먼지_피하는_실내여행', '실내관광지']",https://cdn.visitkorea.or.kr/img/call?cmd=VIEW&id=79fdc7d1-d20e-4ed1-95dd-876de7ad790e&thumb,전라남도 목포시 번화로 18,34.78596374,126.3814912,
4,순천만 자연생태관,전남 순천시,061-749-4007,"['가족여행', '남녀노소', '문화시설', '미세먼지_피하는_실내여행', '사계절', '생태여행']",https://cdn.visitkorea.or.kr/img/call?cmd=VIEW&id=8a92a37c-aec6-4ae5-942e-bdcbbec21684&thumb,전라남도 순천시 순천만길 513-25,34.88579701,127.50928329999999,
5,목포자연사박물관,전남 목포시,061-274-3655,"['가족여행', '기차여행', '목포자연사박물관', '문화시설', '박물관', '실내여행지']",https://cdn.visitkorea.or.kr/img/call?cmd=VIEW&id=1054830a-a8f3-40bc-a475-c4e39b816085&thumb,전라남도 목포시 남농로 135,34.79372717,126.42106740000001,
6,함평엑스포공원,전남 함평군,061-322-2203,"['가족여행', '문화시설', '사계절', '아이와함께', '여름휴가', '워터파크', '전라권']",https://cdn.visitkorea.or.kr/img/call?cmd=VIEW&id=ab09866d-794c-4473-9360-ec8fbdf52855&thumb,전라남도 함평군 함평읍 곤재로 27,35.05618874,126.5199494,
7,한국천연염색박물관,전남 나주시,061-335-0160,"['교과서속여행', '문화시설', '미세먼지_피하는_실내여행', '박물관', '실내관광지']",https://cdn.visitkorea.or.kr/img/call?cmd=VIEW&id=530d7646-e90d-455a-b3a3-52a06e4f66bc&thumb,전라남도 나주시 다시면 백호로 379,34.99403168,126.66252539999999,
8,국립나주박물관,전남 나주시,061-330-7800,"['가족과함께', '가족여행', '가족체험여행', '교과서속정보', '국립나주박물관']",https://cdn.visitkorea.or.kr/img/call?cmd=VIEW&id=a47ce73c-40a0-47a1-9daa-78269d2a285b&thumb,전라남도 나주시 반남면 고분로 747,34.91485383,126.65890139999999,
9,목포어린이바다과학관,전남 목포시,061-242-6359,"['가족과함께', '가족여행', '가족체험여행', '교과서속정보', '목포어린이바다과학관']",https://cdn.visitkorea.or.kr/img/call?cmd=VIEW&id=aeade4e8-2467-420d-bf8c-19bbce8cb8b4&thumb,전라남도 목포시 삼학로92번길 98,34.78195651,126.388849,
10,태백산맥문학관,전남 보성군,061-850-8653,"['교과서속여행', '무장애', '문학관', '문학기념관', '문학기행', '문학기행', '문화시설']",https://cdn.visitkorea.or.kr/img/call?cmd=VIEW&id=9040f948-f546-423b-9ffe-da3ac7944e26&thumb,전라남도 보성군 벌교읍 홍암로 89-19,34.8492229,127.35225159999999,
11,한국대나무박물관,전남 담양군,061-380-3479,"['가족여행', '기차여행', '문화시설', '박물관', '아이와함께', '이색체험', '전라권']",https://cdn.visitkorea.or.kr/img/call?cmd=VIEW&id=933a9ea5-ae7b-4fdb-a2a7-3dabb49d8bc8&thumb,전라남도 담양군 담양읍 죽향문화로 35,35.30934367,126.9764088,
12,섬진강어류생태관,전남 구례군,061-781-3665,"['교과서속여행', '문화시설', '사계절', '섬진강어류생태관', '실내여행지', '아이와함께']",https://cdn.visitkorea.or.kr/img/call?cmd=VIEW&id=e14a2ff2-ba20-471e-b67d-b21cdb39e41e&thumb,전라남도 구례군 간전면 간전중앙로 47,35.18745224,127.5465226,
13,목포근대역사관 1관,전남 목포시,061-242-0340,"['가족과함께', '남녀노소', '목포가볼만한곳', '목포당일코스', '목포여행', '무더위_피해_실내여행']",https://cdn.visitkorea.or.kr/img/call?cmd=VIEW&id=a4104ac2-1be3-49af-b956-0776456c2f07&thumb,전라남도 목포시 영산로29번길 6,34.78769578,126.3817942,
14,해남공룡박물관,전남 해남군,061-530-5949,"['교과서속여행', '문화시설', '박물관', '아이가_좋아하는_여행', '아이와함께']",https://cdn.visitkorea.or.kr/img/call?cmd=VIEW&id=112f07ba-eb5b-43b8-b3ad-14cd7d8dfd39&thumb,전라남도 해남군 황산면 공룡박물관길 234,34.58908867,126.4428321,
15,"장전미술관 (구, 남진미술관)",전남 진도군,061-543-0777,"['기차여행', '남진미술관', '데이트코스', '문화시설', '미술관', '실내여행지', '아이와함께']",https://cdn.visitkorea.or.kr/img/call?cmd=VIEW&id=4434a696-ed98-4202-8174-b0a46fbce9ec&thumb,전라남도 진도군 임회면 하미길 39,34.429759600000004,126.2379554,
16,북한 반잠수정 전시관,전남 여수시,061-659-5687,"['문화시설', '북한반잠수정전시관', '안보여행', '역사유적지', '전라권', '전시관']",https://cdn.visitkorea.or.kr/img/call?cmd=VIEW&id=926d59b6-973e-4bc7-85f6-c877d52e52ff&thumb,전라남도 여수시 돌산읍 향일암로 365,34.60548076,127.78668300000001,
17,순천시립 뿌리깊은나무 박물관,전남 순천시,061-749-8855,"['문화시설', '박물관', '순천가볼만한곳', '순천시립뿌리깊은나무박물관', '아이와함께']",https://cdn.visitkorea.or.kr/img/call?cmd=VIEW&id=8a101045-3492-495d-900d-6ced36152a1c&thumb,전라남도 순천시 낙안면 평촌3길 45,34.90363951,127.33998159999999,
18,곡성레저문화센터,전남 곡성군,061-360-8343,"['곡성레저문화센터', '문화시설', '문화행사', '사계절', '실내여행지', '아이와함께']",https://cdn.visitkorea.or.kr/img/call?cmd=VIEW&id=f8e4d960-8592-461b-b7b5-7cc7bd3925bc&thumb,전라남도 곡성군 곡성읍 곡성로 855,35.28142166,127.2981783,
19,호남기후변화체험관,전남 담양군,061-380-2956,"['가족여행', '가족체험여행', '교과서속정보', '교육여행', '교육프로그램', '문화시설']",https://cdn.visitkorea.or.kr/img/call?cmd=VIEW&id=12427958-5ddb-4c6b-bb14-533ebab0ae35&thumb,전라남도 담양군 담양읍 메타세쿼이아로 45,35.32495533,127.0062507,
20,대원사 티벳박물관,전남 보성군,061-852-3038,"['가족여행', '가족체험여행', '다문화', '대원사티벳박물관', '문화시설', '박물관']",https://cdn.visitkorea.or.kr/img/call?cmd=VIEW&id=43571497-73d6-4f41-a1b3-9331c8af4b00&thumb,전라남도 보성군 문덕면 죽산길 520-1,34.95915165,127.13203700000001,
21,강진 고려청자박물관,전남 강진군,061-430-3755,"['강진고려청자박물관', '고려청자', '기차여행', '문화시설', '박물관', '아이와함께']",https://cdn.visitkorea.or.kr/img/call?cmd=VIEW&id=42382ef5-0d41-48e4-9736-23b37ec4dad5&thumb,전라남도 강진군 대구면 청자촌길 33,34.50866203,126.8008374,
22,진도향토문화회관,전남 진도군,061-540-6253,"['가족여행', '교과서속여행', '문화시설', '문화행사', '사계절', '실내여행지', '아이와함께']",https://cdn.visitkorea.or.kr/img/call?cmd=VIEW&id=a9d3dd2b-2fd7-486a-853b-e0d9e06970ac&thumb,전라남도 진도군 진도읍 진도대로 7197,34.47970593,126.26857720000001,
23,한국가사문학관,전남 담양군,061-380-2701,"['가족여행', '기차여행', '나홀로여행', '문화시설', '예술', '전라권', '전시관', '한국가사문학관']",https://cdn.visitkorea.or.kr/img/call?cmd=VIEW&id=7073c292-f210-421c-a4d3-a889dc2cd84e&thumb,전라남도 담양군 가사문학면 가사문학로 877,35.18796216,127.0054858,
24,목포문학관,전남 목포시,061-270-8400,"['기념관', '기차여행', '나들이', '목포문학관', '문화시설', '박물관', '아이와함께']",https://cdn.visitkorea.or.kr/img/call?cmd=VIEW&id=84bc8f2d-b805-4a52-9a0b-d672450fcbc7&thumb,전라남도 목포시 남농로 95,34.79282351,126.41692900000001,
25,장보고기념관,전남 완도군,061-550-6930,"['교과서속여행', '기념관', '무장애', '문화시설', '아이와함께', '장보고기념관']",https://cdn.visitkorea.or.kr/img/call?cmd=VIEW&id=c2e05e05-bd6d-4412-921a-60e4ad30476c&thumb,전라남도 완도군 완도읍 청해진로 1455,34.355095299999995,126.730162,
26,나주학생독립운동기념관,전남 나주시,061-334-5393,"['3·1운동_100주년_여행지추천', '교과서속여행', '나주학생독립운동기념관']",https://cdn.visitkorea.or.kr/img/call?cmd=VIEW&id=ca937c7f-fd95-4c77-935c-a1eb7f6572e6&thumb,전라남도 나주시 죽림길 26,35.02806317,126.7262445,
27,아산조방원미술관,전남 곡성군,061-363-7278,"['기차여행', '나홀로여행', '문화시설', '미술관', '실내여행지', '아산조방원미술관']",https://cdn.visitkorea.or.kr/img/call?cmd=VIEW&id=9d45dd1f-3d1e-4cce-8952-d10d78cb3308&thumb,전라남도 곡성군 옥과면 미술관로 288,35.29708033,127.1226242,
28,다산박물관,전남 강진군,061-430-3916,"['교과서속여행', '다산박물관', '문화시설', '문화행사', '박물관', '아이와함께']",https://cdn.visitkorea.or.kr/img/call?cmd=VIEW&id=164ee06e-89ca-49c4-8b0f-b06e6eb304b9&thumb,전라남도 강진군 도암면 다산로 766-20,34.57641194,126.7499561,
29,나주배박물관,전남 나주시,061-339-2590,"['교과서속여행', '기차여행', '나주배박물관', '문화시설', '박물관', '실내여행지']",https://cdn.visitkorea.or.kr/img/call?cmd=VIEW&id=329e2ad7-1ea6-4239-b945-2f132ea1b945&thumb,전라남도 나주시 금천면 영산로 5838,35.03343515,126.76720800000001,
30,담양우표박물관,전남 담양군,061-383-3863,"['가족과함께', '남녀노소', '담양가볼만한곳', '담양여행', '문화시설', '아이와함께']",https://cdn.visitkorea.or.kr/img/call?cmd=VIEW&id=fb691dc0-9fcd-443b-b599-7004ab870cf3&thumb,전라남도 담양군 대전면 대치9길 16,35.27663454,126.8895788,
31,귀족호도박물관,전남 장흥군,061-862-9944,"['가족과함께', '가족여행', '귀족호도박물관', '기획전시', '문화시설', '상설전시']",https://cdn.visitkorea.or.kr/img/call?cmd=VIEW&id=cf058f41-d4b1-4988-9bb3-051a50db731d&thumb,전라남도 장흥군 장흥읍 남부관광로 56-90,34.67501722,126.9191009,
32,해남문화예술회관,전남 해남군,061-530-5452,"['가족여행', '문화시설', '사계절', '상설공연', '아이와함께', '연인과함께', '예술']",https://cdn.visitkorea.or.kr/img/call?cmd=VIEW&id=82ef0bfc-526e-46d4-a07f-9dffd8427683&thumb,전라남도 해남군 해남읍 군청길 4,34.57347896,126.59906540000001,
33,나주문화원,전남 나주시,061-332-5115,"['나주문화원', '문화시설', '문화원', '사계절', '실내여행지', '역사문화체험', '전라권']",https://cdn.visitkorea.or.kr/img/call?cmd=VIEW&id=780484da-1d56-4787-b985-f327883a693e&thumb,전라남도 나주시 시청길 22,35.01578414,126.7108389,
34,오지호기념관,전남 화순군,061-379-3917,"['가족과함께', '기념관', '남녀노소', '문화공간', '문화시설', '문화예술', '문화예술공간']",https://cdn.visitkorea.or.kr/img/call?cmd=VIEW&id=6f9c360e-085d-4e75-a837-ebe59bc01e33&thumb,전라남도 화순군 동복면 독상1길 10,35.06802572,127.13095020000002,
35,전라남도 농업박물관,전남 영암군,061-462-2796,"['가족여행', '기차여행', '문화시설', '박물관', '아이와함께', '전라권', '전라남도농업박물관']",https://cdn.visitkorea.or.kr/img/call?cmd=VIEW&id=a446a236-a243-4ad8-a359-e1d8b4fb14cb&thumb,전라남도 영암군 삼호읍 녹색로 653-11,34.77615739,126.45777549999998,
36,고흥우주천문과학관,전남 고흥군,061-830-6690,"['가족과함께', '고흥우주', '고흥우주천문과학관', '과학놀이터', '과학체험', '문화시설']",https://cdn.visitkorea.or.kr/img/call?cmd=VIEW&id=c741e5f0-07b5-41fb-95db-6a28fbaae2a2&thumb,전라남도 고흥군 도양읍 장기산선암길 353,34.55250154,127.12505520000002,
37,영암도기박물관,전남 영암군,061-470-6851,"['기차여행', '단체체험', '문화시설', '박물관', '아이와함께', '영암도기박물관']",https://cdn.visitkorea.or.kr/img/call?cmd=VIEW&id=b78dd53d-040e-4ef6-99b9-b87227dafab4&thumb,전라남도 영암군 군서면 서호정길 5,34.76051634,126.6192804,
38,영광노을전시관,전남 영광군,061-350-5600,"['경치좋은곳', '노을전시관', '문화시설', '바다경치', '바다풍경', '산책길', '산책하기']",https://cdn.visitkorea.or.kr/img/call?cmd=VIEW&id=bb0071b6-00f1-4ecf-8065-547eceb03cb5&thumb,전라남도 영광군 백수읍 해안로 957,35.35373193,126.3892814,
39,진도해양생태관,전남 진도군,061-540-6287,"['교과서속여행', '문화시설', '사계절', '실내여행지', '아이와함께', '전라권', '전시관']",https://cdn.visitkorea.or.kr/img/call?cmd=VIEW&id=59de480f-6aac-4475-a111-06d644598d40&thumb,전라남도 진도군 고군면 신비의바닷길 64,34.43486634,126.35286880000001,
40,국립남도국악원,전남 진도군,061-540-4031,"['가족여행', '교과서속여행', '국립남도국악원', '문화시설', '문화행사', '사계절']",https://cdn.visitkorea.or.kr/img/call?cmd=VIEW&id=fa8ff904-d2c1-420a-9ff0-0abfb933f44a&thumb,전라남도 진도군 임회면 진도대로 3818,34.38597825,126.2258479,
41,국립해양문화재연구소,전남 목포시,061-270-3001,"['가족여행', '국립해양문화재연구소', '문화시설', '수중문화재', '아이와함께']",https://cdn.visitkorea.or.kr/img/call?cmd=VIEW&id=8ad397f8-2e5d-487b-bb4a-8744cc1358f0&thumb,전라남도 목포시 남농로 136,34.79250238,126.421301,
42,순천문화예술회관,전남 순천시,061-749-8612,"['가족여행', '공연장', '나들이', '데이트코스', '문화시설', '순천문화예술회관']",https://cdn.visitkorea.or.kr/img/call?cmd=VIEW&id=4c7c2f81-cf0d-40be-9150-9320be3eede1&thumb,전라남도 순천시 삼산로 16,34.970555499999996,127.48523759999999,
43,목포문화예술회관,전남 목포시,061-270-8484,"['가족여행', '목포문화예술회관', '문화시설', '문화행사', '복합문화공간', '사계절데이트코스']",https://cdn.visitkorea.or.kr/img/call?cmd=VIEW&id=e2c0b3f2-fc0d-43d6-9dc0-24b618bb3c19&thumb,전라남도 목포시 남농로 102,34.79223125,126.4189757,
44,손양원목사 순교기념관,전남 여수시,061-682-9534,"['기념관', '목사', '문화시설', '순교', '여수시', '율촌면', '전라남도']",https://cdn.visitkorea.or.kr/img/call?cmd=VIEW&id=fd29b281-5fe5-46b2-acbd-dbb8e4228f75&thumb,전라남도 여수시 율촌면 산돌길 70-62,34.84000214,127.63490320000001,
45,정남진천문과학관,전남 장흥군,061-860-0651,"['가족과함께', '무장애', '문화시설', '사계절', '아이가_좋아하는_여행', '아이와함께']",https://cdn.visitkorea.or.kr/img/call?cmd=VIEW&id=76aee263-9d99-46e0-a296-bea8a9802d97&thumb,전라남도 장흥군 장흥읍 평화우산길 180-608,34.65811173,126.9258628,
46,강진 오감통,전남 강진군,061-433-3636,"['가족과함게', '공연관람', '남녀노소', '먹거리장터', '무료공연', '문화공간', '문화시설']",https://cdn.visitkorea.or.kr/img/call?cmd=VIEW&id=a0a500e3-2399-4bb5-a800-0606708a814e&thumb,전라남도 강진군 강진읍 오감길 2,34.63914516,126.7735554,
47,보성문화원,전남 보성군,061-852-2629,"['문화시설', '보성문화원', '복합문화공간', '아이와 함께']",https://cdn.visitkorea.or.kr/img/call?cmd=VIEW&id=e8eb9b07-af33-4cf7-88ed-d051de8d942d&thumb,전라남도 보성군 보성읍 송재로 281-11,34.77840419,127.088819,
48,강진아트홀,전남 강진군,061-430-3972,"['강진군아트홀', '데이트코스', '문화공간', '문화시설', '복합문화공간', '사계절']",https://cdn.visitkorea.or.kr/img/call?cmd=VIEW&id=dd9f1f38-6b7c-4492-a239-625bf4314471&thumb,전라남도 강진군 강진읍 영랑로1길 9,34.63817527,126.7704992,
49,장흥동학농민혁명기념관,전남 장흥군,061-864-6531,"['교과서속여행', '기념관', '문화시설', '역사유적지', '장흥동학농민혁명기념관']",https://cdn.visitkorea.or.kr/img/call?cmd=VIEW&id=4f2e4cc9-8e18-486e-b108-fd6bdab1f60e&thumb,전라남도 장흥군 장흥읍 읍성로 2,34.66918564,126.89535190000001,
50,남농기념관,전남 목포시,061-276-0313,"['기념관', '남농기념관', '문화시설', '미술관', '전라권', '허건']",https://cdn.visitkorea.or.kr/img/call?cmd=VIEW&id=ffefccc7-c5b1-4a7e-bbf4-17572c26291f&thumb,전라남도 목포시 남농로 119,34.79294591,126.41964270000001,
51,여수시민회관,전남 여수시,061-659-3770,"['가족여행', '공연장', '나들이', '데이트코스', '문화시설', '실내여행지', '아이와함께']",https://cdn.visitkorea.or.kr/img/call?cmd=VIEW&id=18e870b5-3a5b-4438-933d-d27058b7004e&thumb,전라남도 여수시 좌수영로 69,34.74709238,127.7279291,
52,물사랑 배움터,전남 화순군,061-373-5278,"['가족과함께', '교육여행', '문화시설', '물사랑배움터', '미세먼지_피하는_실내여행']",https://cdn.visitkorea.or.kr/img/call?cmd=VIEW&id=9dcc9bef-f234-4549-807d-1f1364d9e99e&thumb,전라남도 화순군 사평면 효당로 400,35.0264407,127.11297809999999,
53,땅끝해양자연사박물관,전남 해남군,061-535-2110,"['교과서속여행', '기차여행', '땅끝해양자연사박물관', '문화시설', '박물관', '아이와함께']",https://cdn.visitkorea.or.kr/img/call?cmd=VIEW&id=4c7809b3-3452-4981-be25-d20ac45ce8b3&thumb,전라남도 해남군 송지면 중대동길 5-4,34.3249046,126.5672054,
54,동신대 카메라박물관(문화박물관),전남 나주시,061-330-3827,"['교과서속여행', '동신대카메라박물관', '문화시설', '박물관', '실내여행지', '아이와함께']",https://cdn.visitkorea.or.kr/img/call?cmd=VIEW&id=07a482c3-45a9-45bf-bda7-7652c96a7abb&thumb,전라남도 나주시 건재로 185,35.049948,126.717717,
55,광양 장도박물관,전남 광양시,061-762-4853,"['광양장도박물관', '무형문화재', '문화공간', '문화시설', '문화예술공간', '박물관']",https://cdn.visitkorea.or.kr/img/call?cmd=VIEW&id=34d74a66-f89a-4dbc-810f-ba60d9985ac0&thumb,전라남도 광양시 광양읍 매천로 771,34.97705608,127.58055149999998,
56,해동문화예술촌,전남 담양군,061-383-8246,"['도시예술', '문화시설', '문화예술복합공간', '실험예술', '정기적주제전시', '체험프로그램']",https://cdn.visitkorea.or.kr/img/call?cmd=VIEW&id=d73c933f-4b29-4585-90a0-34a3eb7f6954&thumb,전라남도 담양군 담양읍 지침1길 6,35.31755724,126.98383419999999,
57,소안항일운동기념관,전남 완도군,061-552-0516,"['3·1운동_100주년_여행지추천', '가족과함께', '교과서속여행', '독립운동']",https://cdn.visitkorea.or.kr/img/call?cmd=VIEW&id=23b62f18-aa39-45b9-8faf-1512cb5b7b40&thumb,전라남도 완도군 소안면 소안로 263,34.16712451,126.6528617,
58,와보랑께박물관,전남 강진군,061-432-1465,"['문화시설', '민속문화', '사투리', '아이와 함께', '와보랑께박물관', '이색체험여행']",https://cdn.visitkorea.or.kr/img/call?cmd=VIEW&id=15e453fd-1c1f-4b07-8bab-dc1b5d2395c7&thumb,전라남도 강진군 병영면 장강로 804-6,34.699757399999996,126.82676310000001,
59,순천 기적의도서관,전남 순천시,061-749-8890,"['겨울방학가볼만한곳', '도서관', '독서여행', '문화시설', '문화행사', '순천기적의도서관']",https://cdn.visitkorea.or.kr/img/call?cmd=VIEW&id=9c6c1715-c841-434c-ae27-a170e0908f8e&thumb,전라남도 순천시 해룡면 기적의도서관길 60,34.94715233,127.5276481,
60,동편제 판소리전수관,전남 구례군,061-782-6868,"['가족여행', '기차여행', '동편제판소리전수관', '문화시설', '예술', '이색체험']",https://cdn.visitkorea.or.kr/img/call?cmd=VIEW&id=c50fe16f-a18c-43f0-81a8-1074937d248a&thumb,전라남도 구례군 구례읍 동편제길 53,35.21561721,127.4579852,
61,완도문화예술의전당,전남 완도군,061-552-7568,"['데이트코스', '문화공간', '문화시설', '문화행사', '복합문화공간', '사계절', '상설공연']",https://cdn.visitkorea.or.kr/img/call?cmd=VIEW&id=8e4f3f75-06aa-4f1d-85a8-4078e63f84e1&thumb,전라남도 완도군 완도읍 개포로159번길 55,34.32367717,126.7416563,
62,김대중 노벨평화상기념관,전남 목포시,061-245-5660,"['기념관', '기념품판매', '김대중노벨평화상기념관', '문화시설', '설날연휴가볼만한곳']",https://cdn.visitkorea.or.kr/img/call?cmd=VIEW&id=535072ab-6f5b-4c8b-af0e-b3af23d344d5&thumb,전라남도 목포시 삼학로92번길 68,34.78285177,126.39225060000001,
63,여수시문화원,전남 여수시,061-663-0331,"['교육프로그램', '문화시설', '여수시문화원']",https://cdn.visitkorea.or.kr/img/call?cmd=VIEW&id=86f60c31-2d3b-4ca8-8ecc-5d62d64feb8e&thumb,전라남도 여수시 이순신광장로 200-7,34.73919954,127.74572409999999,
64,목포 국가무형문화재전수교육관,전남 목포시,061-277-1594,"['가족여행', '공예체험', '공예품', '목포국가무형문화재전수교육관', '무형문화재']",https://cdn.visitkorea.or.kr/img/call?cmd=VIEW&id=f85122f7-042c-4d96-a117-dbbba268ab5f&thumb,전라남도 목포시 남농로 83,34.79274689,126.4159327,
65,해양에너지공원,전남 진도군,061-542-0881,"['교육여행', '교육체험', '문화시설', '바다풍경', '산책길', '산책하기', '산책하기좋은곳']",https://cdn.visitkorea.or.kr/img/call?cmd=VIEW&id=70d79425-f9b2-46d6-a550-0e4969b46981&thumb,전남 진도군 군내면 진도대로 8459-13,34.5707173,126.3009784,
66,순천시립 그림책 도서관,전남 순천시,061-749-8892,"['도서관', '문화시설', '문화행사', '복합문화공간', '순천그림책도서관', '아이와함께']",https://cdn.visitkorea.or.kr/img/call?cmd=VIEW&id=a54075e4-d541-4ea7-8482-ac03159fe61e&thumb,전라남도 순천시 도서관길 33,34.95798517,127.4860248,
67,대나무 건강나라,전남 담양군,061-383-8000,"['대나무건강나라', '문화시설', '전라권', '체험']",https://cdn.visitkorea.or.kr/img/call?cmd=VIEW&id=a56d083d-1330-40f8-a7a2-68371ae413f1&thumb,전라남도 담양군 금성면 원율길 12,35.3525246,127.0311997,
68,진도문화원,전남 진도군,061-542-1109,"['문화시설', '문화원', '전라권', '진도문화원']",https://cdn.visitkorea.or.kr/img/call?cmd=VIEW&id=7371ddef-1c6c-4cf0-a1fc-35e3c0c33abb&thumb,전라남도 진도군 진도읍 진도대로 7187,34.47881463,126.26926110000001,
69,한국민화뮤지엄,전남 강진군,061-433-9770,"['문화시설', '미술관', '박물관', '아이와함께', '열린문화공간', '전라권', '전시/공연']",https://cdn.visitkorea.or.kr/img/call?cmd=VIEW&id=b910c1f0-2660-4407-9a16-1a1f9d185799&thumb,전라남도 강진군 대구면 청자촌길 61-5,34.50867534,126.8041628,
70,"목포문화원 (구, 호남은행)",전남 목포시,061-244-0044,"['목포문화원', '문화공간', '문화시설', '친구와 함께']",https://cdn.visitkorea.or.kr/img/call?cmd=VIEW&id=843a62ef-70f9-46dc-90ee-90a0dc26c4d4&thumb,전라남도 목포시 해안로249번길 34,34.78884677,126.3861757,
71,천관문학관,전남 장흥군,061-860-0457,"['문화시설', '사계절', '실내여행지', '아이와함께', '전라권', '전시관', '천관문학관']",https://cdn.visitkorea.or.kr/img/call?cmd=VIEW&id=12ebfb85-333d-4e42-bff0-a15c2a0e5d5d&thumb,전라남도 장흥군 대덕읍 천관산문학길 160,34.51564909,126.90345409999999,
72,승달문화예술회관,전남 무안군,061-450-4081,"['가족여행', '데이트코스', '문화시설', '사계절', '상설공연', '승달문화예술회관']",https://cdn.visitkorea.or.kr/img/call?cmd=VIEW&id=e3597f1e-fab9-4b52-8f8a-e077c8c9043b&thumb,전라남도 무안군 무안읍 창포로 8,34.99033472,126.4720301,
73,장성문화예술회관,전남 장성군,061-392-7552,"['가족과함께', '대극장', '문화공간', '문화시설', '복합문화공간', '소극장', '열린문화공간']",https://cdn.visitkorea.or.kr/img/call?cmd=VIEW&id=0c8f766f-5557-4d7b-ac83-500be7c188aa&thumb,전라남도 장성군 장성읍 문화로 110,35.30226766,126.76788459999999,
74,소전미술관(진도군),전남 진도군,061-540-6283,"['문화시설', '문화예술', '소전미술관', '실내데이트', '진도군']",https://cdn.visitkorea.or.kr/img/call?cmd=VIEW&id=3788d956-550f-434a-898b-a8e89d679c33&thumb,전라남도 진도군 진도읍 철마길 29,34.48699026,126.2646155,
75,남포미술관,전남 고흥군,061-832-0003,"['남포미술관', '문화시설', '문화예술', '실내데이트', '전시관']",https://cdn.visitkorea.or.kr/img/call?cmd=VIEW&id=d8512752-88d5-4d4d-ba0d-c2694e0cf350&thumb,전라남도 고흥군 영남면 팔영로 1081,34.60370701,127.45720179999999,
76,도화헌미술관,전남 고흥군,061-832-1333,"['문화시설', '미술관', '음악여행', '천연염색']",https://cdn.visitkorea.or.kr/img/call?cmd=VIEW&id=4287a4b3-7030-45d4-bfb0-c6a2cafe3c2b&thumb,전라남도 고흥군 도화면 땅끝로 860-5,34.44904959,127.32657079999998,
77,강진군도서관,전남 강진군,061-430-3842,"['강진군도서관', '도서관', '문화시설', '사계절', '실내여행지', '아이와함께', '전라권']",https://cdn.visitkorea.or.kr/img/call?cmd=VIEW&id=6fcdc1d5-f42d-4d78-9d56-9c1154c77152&thumb,전라남도 강진군 강진읍 남문길 10,34.640508700000005,126.76972009999999,
78,고흥문화원,전남 고흥군,061-835-5245,"['고흥문화원', '문화시설', '복합문화공간', '열린문화공간']",https://cdn.visitkorea.or.kr/img/call?cmd=VIEW&id=280e5fff-9806-40bb-bdb8-38ab7cc3075f&thumb,전라남도 고흥군 고흥읍 고흥로 1892-67,34.61552453,127.30031909999998,
79,완도어촌민속전시관,전남 완도군,061-550-6911,"['기차여행', '단체관람', '문화시설', '아이와함께', '완도어촌민속전시관', '전시관']",https://cdn.visitkorea.or.kr/img/call?cmd=VIEW&id=adccd56a-7911-4b3d-a02b-32884d674eea&thumb,전라남도 완도군 완도읍 화흥포길 149,34.30732882,126.6885571,
80,진도무형문화재전수관,전남 진도군,061-540-3079,"['교과서속여행', '무형문화재', '문화시설', '사계절', '아이와함께', '이색체험']",https://cdn.visitkorea.or.kr/img/call?cmd=VIEW&id=6e2ceed6-0dd2-41f0-ac9f-0ec07eb3dd7a&thumb,전라남도 진도군 진도읍 동외1길 6-9,34.48078213,126.27002,
81,정남진물과학관,전남 장흥군,061-863-0051,"['무장애', '문화시설', '사계절', '아이와함께', '전라권', '전시관', '정남진물과학관']",https://cdn.visitkorea.or.kr/img/call?cmd=VIEW&id=21fdca9a-7bbd-4c07-b57f-6e3a58bdb8e5&thumb,전라남도 장흥군 장흥읍 행원강변길 20,34.686038,126.90010790000001,
82,목포시립도서관,전남 목포시,061-278-3320,"['독서여행', '목포시립도서관', '문화시설', '아이와 함께', '힐링']",https://cdn.visitkorea.or.kr/img/call?cmd=VIEW&id=43b26e7c-b8a4-4783-874c-bc65bf705b9e&thumb,전라남도 목포시 용당로160번길 32,34.80347129,126.4030654,
83,나절로미술관,전남 진도군,,"['남녀노소', '문화시설', '문화예술', '미술관', '복합문화공간', '산책하기', '산책하기좋은곳']",https://cdn.visitkorea.or.kr/img/call?cmd=VIEW&id=871023a6-a773-4354-b427-30cde533c38c&thumb,전라남도 진도군 임회면 진도대로 3886,34.38278134,126.2184684,
84,광양시문화예술회관,전남 광양시,061-797-2529,"['광양시문화예술회관', '문화시설', '복합문화공간', '열린문화공간', '친구와 함께']",https://cdn.visitkorea.or.kr/img/call?cmd=VIEW&id=63f89f2f-2107-4e3a-a403-7efe139de321&thumb,전라남도 광양시 광양읍 향교길 9-30,34.97994433,127.58750690000001,
85,담양문화원,전남 담양군,061-383-6066,"['담양군', '문화시설', '문화예술', '문화원', '전라남도', '지역문화', '향토문화']",https://cdn.visitkorea.or.kr/img/call?cmd=VIEW&id=ace4fbf7-4309-4726-8f48-109b175a971f&thumb,전라남도 담양군 담양읍 죽향문화로 35,35.30934367,126.9764088,
86,함평군립미술관,전남 함평군,061-320-2276,"['걷기길', '데이트코스', '문화공간', '문화시설', '문화예술', '미술관', '복합문화공간']",https://cdn.visitkorea.or.kr/img/call?cmd=VIEW&id=7dcd09cd-a9a4-46ad-b20f-b44db8951863&thumb,전라남도 함평군 함평읍 곤재로 27,35.05618874,126.5199494,
87,고흥분청문화박물관,전남 고흥군,061-830-5990,"['가족과함께', '고흥가볼만한곳', '문화시설', '미세먼지_피하는_실내여행', '분청사기']",https://cdn.visitkorea.or.kr/img/call?cmd=VIEW&id=e583678d-33a9-409b-9829-35bbceaf6c1d&thumb,전라남도 고흥군 두원면 분청문화박물관길 99,34.62782423,127.32447109999998,
88,아트센터 대담,전남 담양군,061-381-0081,"['가족과함께', '대담미술관', '데이트장소추천', '문화시설', '복합문화공간', '분위기좋은카페']",https://cdn.visitkorea.or.kr/img/call?cmd=VIEW&id=8ddeb77c-0f2f-4efc-b0e1-5c713944db38&thumb,전라남도 담양군 담양읍 언골길 5-4,35.32531625,126.9834517,
89,곡성문화원,전남 곡성군,061-362-0890,"['곡성문화원', '문화강좌', '문화시설', '열린문화공간']",https://cdn.visitkorea.or.kr/img/call?cmd=VIEW&id=30cca68e-1523-4820-a9f9-8a9069d0edf0&thumb,전라남도 곡성군 곡성읍 곡성로 855,35.28142166,127.2981783,
90,장성문화원,전남 장성군,061-392-1796,"['문화공간', '문화시설', '문화활동', '문화활동', '복합문화공간', '장성문화원']",https://cdn.visitkorea.or.kr/img/call?cmd=VIEW&id=47fc662e-84fb-4e53-8e82-2f45d9cf2b91&thumb,전라남도 장성군 장성읍 문화로 110,35.30226766,126.76788459999999,
91,영광군립도서관,전남 영광군,061-350-5745,"['군립도서관', '독서', '독서회', '문화시설', '복합문화공간', '열린문화공간', '영광군']",https://cdn.visitkorea.or.kr/img/call?cmd=VIEW&id=663c59d5-b9d4-43d4-b565-d96a2ff99abc&thumb,전라남도 영광군 영광읍 중앙로 228-16,35.27922472,126.51578719999999,
92,한국압화박물관,전남 구례군,061-781-7117,"['가족과함께', '남녀노소', '무더위_피해_실내여행', '문화시설', '박물관', '실내관광지']",https://cdn.visitkorea.or.kr/img/call?cmd=VIEW&id=5d3f895c-bf6a-49ac-ae15-5afbec62d410&thumb,전라남도 구례군 구례읍 동산1길 29,35.19664998,127.45991059999999,
93,강강술래 전수관,전남 해남군,061-533-8810,"['강강술래전수관', '문화시설', '문화행사', '사계절', '상설공연', '아이와함께']",https://cdn.visitkorea.or.kr/img/call?cmd=VIEW&id=3a44076f-cf64-4876-a968-f49f560d9d54&thumb,전라남도 해남군 문내면 관광레저로 12,34.57264891,126.310144,
94,순천만문학관,전남 순천시,1577-2013,"['가족과함께', '남녀노소', '문학', '문학관', '문학기행', '문화시설', '소설', '소설가']",https://cdn.visitkorea.or.kr/img/call?cmd=VIEW&id=21f5aeb3-64c5-46c5-8754-b15b1683a897&thumb,전라남도 순천시 무진길 130,34.89476086,127.5155486,
95,신안문화원,전남 목포시,061-242-8131,"['문화시설', '복합문화공간', '신안문화원', '열린문화공간', '친구와 함께']",https://cdn.visitkorea.or.kr/img/call?cmd=VIEW&id=27cdc648-665e-449f-86ab-cf4a32b10d43&thumb,전라남도 목포시 수강로3번길 14,34.78445995,126.38496380000001,
96,방촌유물전시관,전남 장흥군,061-860-0529,"['교과서속여행', '문화시설', '민속문화재', '방촌유물전시관', '아이와함께', '역사공부']",https://cdn.visitkorea.or.kr/img/call?cmd=VIEW&id=ffaf3da6-0832-45c9-8e07-ee4827891167&thumb,전라남도 장흥군 관산읍 장흥대로 1645,34.55098982,126.94325249999999,
97,광양문화원,전남 광양시,061-761-3322,"['광양문화원', '광양시', '문화시설', '전라남도', '지역교육', '푸른예술제']",https://cdn.visitkorea.or.kr/img/call?cmd=VIEW&id=cf595837-6d22-4322-bf77-6304a8d6655f&thumb,전라남도 광양시 광양읍 매천로 829,34.975767100000006,127.58598020000001,
98,한천농악전수회관,전남 화순군,061-370-1225,"['문화시설', '아이와 함께', '이색체험', '한천농악전수회관']",https://cdn.visitkorea.or.kr/img/call?cmd=VIEW&id=26fdb7f4-c137-41ed-806a-9d422dc3788e&thumb,전라남도 화순군 동복면 김삿갓로 720,35.05959064,127.12997069999999,
99,장흥문화원,전남 장흥군,061-863-6362,"['무장애', '문화시설', '문화예술공간', '문화원', '장흥', '전라남도']",https://cdn.visitkorea.or.kr/img/call?cmd=VIEW&id=6582ed33-c3ad-46d7-ad09-9cdd3b901180&thumb,전라남도 장흥군 장흥읍 읍성로 96,34.67667645,126.8982389,
100,우도농악전수관,전남 영광군,061-351-2666,"['문화시설', '아이와 함께', '우도농악전수관', '이색체험여행', '전통문화']",https://cdn.visitkorea.or.kr/img/call?cmd=VIEW&id=8a534180-9385-46cc-b2c5-623e0aa72846&thumb,전라남도 영광군 영광읍 물무로1길 11,35.27860155,126.5050555,
101,함평문화원,전남 함평군,061-322-0505,"['가족여행', '공원', '기차여행', '문화강좌', '문화공간', '문화시설', '복합문화공간']",https://cdn.visitkorea.or.kr/img/call?cmd=VIEW&id=da2cb8b7-ecb9-4dec-97e2-4d2f6775c024&thumb,전라남도 함평군 함평읍 기산길 163-16,35.07181484,126.5187834,
102,영암문화원,전남 영암군,061-473-2632,"['공연장', '도서관', '무장애', '문화시설', '문화원', '영암군', '전라남도', '전시실']",https://cdn.visitkorea.or.kr/img/call?cmd=VIEW&id=189bc4b5-a5be-426b-9eb1-444e594b31da&thumb,전라남도 영암군 영암읍 교동로 55,34.79698141,126.69116000000001,
103,완도문화원,전남 완도군,061-552-4834,"['문화시설', '복합문화공간', '열린문화공간', '완도문화원']",https://cdn.visitkorea.or.kr/img/call?cmd=VIEW&id=9bc6e390-5d34-4e2e-8a29-064895f9f142&thumb,전라남도 완도군 완도읍 개포로159번길 44,34.32310664,126.7433758,
104,무안문화원,전남 무안군,061-452-8648,"['무안군', '문화시설', '문화원', '문화행사', '전국문화원', '전라남도', '지역문화']",https://cdn.visitkorea.or.kr/img/call?cmd=VIEW&id=d0eb940f-264c-4e14-b885-abd35e8cba49&thumb,전라남도 무안군 무안읍 창포로 8,34.99033472,126.4720301,
105,고산유물전시관,전남 해남군,061-530-5548,"['가족과함께', '남녀노소', '무더위_피해_실내여행', '문화시설', '아이와함께']",https://cdn.visitkorea.or.kr/img/call?cmd=VIEW&id=4dc0fe52-9ce7-402b-b3b9-f81ac1226e83&thumb,전라남도 해남군 해남읍 녹우당길 135,34.55101668,126.6219247,
106,해남문화원,전남 해남군,061-533-5345,"['문화시설', '복합문화공간', '열린문화공간', '해남문화원']",https://cdn.visitkorea.or.kr/img/call?cmd=VIEW&id=95b95917-fe3b-4a6e-b8ef-d51135a91a3c&thumb,전라남도 해남군 해남읍 수성4길 2,34.57355055,126.60044679999999,
107,영광문화원,전남 영광군,061-351-3255,"['문화시설', '영광군', '전라남도', '지역문화', '친구와 함께', '향토문화']",https://cdn.visitkorea.or.kr/img/call?cmd=VIEW&id=24a51187-0b8e-4a0e-9431-0cb8f9fa2699&thumb,전라남도 영광군 영광읍 중앙로 228-16,35.27922472,126.51578719999999,
108,여수시청소년수련관,전남 여수시,070-7733-1300,"['교육프로그램', '문화시설', '여수시청소년수련관', '체험학습']",https://cdn.visitkorea.or.kr/img/call?cmd=VIEW&id=null&thumb,전라남도 여수시 학동서4길 58-26,34.76273664,127.65858270000001,
109,구례향제줄풍류전수관,전남 구례군,061-782-8818,"['구례향제줄풍류전수관', '국가무형문화재', '문화시설', '전통문화', '체험학습']",https://cdn.visitkorea.or.kr/img/call?cmd=VIEW&id=bafe2cec-95cf-4bfd-91c7-8f4dbeed0eb2&thumb,전라남도 구례군 구례읍 봉성산길 16,35.20840816,127.462755,
110,낙죽장도 전시관,전남 곡성군,061-362-7670,"['가족과함께', '곡성가볼만한곳', '곡성낙죽장도전시관', '곡성여행', '공예품']",https://cdn.visitkorea.or.kr/img/call?cmd=VIEW&id=49e5684c-0cef-4a76-8fce-1677efd04f02&thumb,전라남도 곡성군 목사동면 공북길 11-19,35.12504169,127.26391869999999,
111,구례문화원,전남 구례군,061-782-8802,"['구례문화원', '문화시설', '복합문화공간', '열린문화공간']",https://cdn.visitkorea.or.kr/img/call?cmd=VIEW&id=null&thumb,전라남도 구례군 구례읍 양정2길 11,35.20712145,127.47129779999999,
112,고산 윤선도 문학체험공원,전남 완도군,061-550-5151,"['고산윤선도', '문학체험공원', '문화시설', '전통문화체험']",https://cdn.visitkorea.or.kr/img/call?cmd=VIEW&id=4076e907-d321-4bac-b044-a59567ca2ec2&thumb,전라남도 완도군 보길면 부황길 87,34.161700399999994,126.55458390000001,
113,난전시관,전남 목포시,061-270-8362,"['난전시관', '목포시', '문화시설', '야생화', '전라남도', '전시관']",https://cdn.visitkorea.or.kr/img/call?cmd=VIEW&id=b758364b-776f-4082-ab6a-3b049d1ab7d5&thumb,전라남도 목포시 유달로 180,34.79142993,126.3759183,
114,화순문화원,전남 화순군,061-372-7777,"['교육프로그램', '문화시설', '화순문화원']",https://cdn.visitkorea.or.kr/img/call?cmd=VIEW&id=null&thumb,전라남도 화순군 화순읍 대교로 7,35.06377423,126.9801142,
115,강진문화원,전남 강진군,061-433-7373,"['강진문화원', '문화시설', '복합문화공간', '열린문화공간', '친구와 함께']",https://cdn.visitkorea.or.kr/img/call?cmd=VIEW&id=undefined&thumb,전라남도 강진군 강진읍 영랑로1길 9,34.63817527,126.7704992,
116,조태일시문학기념관,전남 곡성군,061-362-5868,"['가족과함께', '곡성가볼만한곳', '곡성여행', '기념관', '무더위_피해_실내여행']",https://cdn.visitkorea.or.kr/img/call?cmd=VIEW&id=c34d0381-a698-45a2-aa20-2689ace30052&thumb,전라남도 곡성군 죽곡면 태안로 622-38,35.13351552,127.36859469999999,
117,GS칼텍스 예울마루,전남 여수시,1544-7669,"['문화센터', '문화시설', '아트센터', '예울마루']",https://cdn.visitkorea.or.kr/img/call?cmd=VIEW&id=aabc069b-5607-4403-92c4-b424a7e5579e&thumb,전라남도 여수시 예울마루로 100,34.75061691,127.66540890000002,
118,한국초콜릿연구소뮤지엄곡성지점,전남 곡성군,061-363-4694,"['가족과함께', '문화시설', '아이와함께', '이색체험', '한국초콜릿연구소뮤지엄']",https://cdn.visitkorea.or.kr/img/call?cmd=VIEW&id=a471f0cb-0ee9-4b9d-b65b-73e33aea84a7&thumb,전라남도 곡성군 오곡면 기차마을로 232,35.27753157,127.30828670000001,
119,신안 갯벌센터,전남 신안군,061-275-8400,"['가족과함께', '갯벌센터', '문화시설', '아이와함께', '이색체험']",https://cdn.visitkorea.or.kr/img/call?cmd=VIEW&id=2234c5c5-c97b-46cc-90c0-49e9a4437013&thumb,전라남도 신안군 증도면 지도증도로 1766-15,34.96455234,126.13593049999999,
120,아쿠아플라넷 여수,전남 여수시,061-660-1111,"['문화시설', '미세먼지_피하는_실내여행', '상설공연', '실내관광지', '실내데이트']",https://cdn.visitkorea.or.kr/img/call?cmd=VIEW&id=1d941681-960e-421b-8fd2-6c3984e52408&thumb,전라남도 여수시 오동도로 61-11,34.74626041,127.7487115,
121,전라남도해양수산과학관,전남 여수시,061-644-4136,"['기차여행', '문화시설', '박물관', '실내여행지', '아이와함께', '이색체험', '전라권']",https://cdn.visitkorea.or.kr/img/call?cmd=VIEW&id=4a37518b-d075-465f-af03-73164f941148&thumb,전라남도 여수시 돌산읍 돌산로 2876,34.68223799,127.7758995,
122,목포근대역사관 2관,전남 목포시,061-270-8728,"['목포근대역사관2관', '문화시설', '미세먼지_피하는_실내여행', '실내관광지']",https://cdn.visitkorea.or.kr/img/call?cmd=VIEW&id=79fdc7d1-d20e-4ed1-95dd-876de7ad790e&thumb,전라남도 목포시 번화로 18,34.78596374,126.3814912,
123,순천만 자연생태관,전남 순천시,061-749-4007,"['가족여행', '남녀노소', '문화시설', '미세먼지_피하는_실내여행', '사계절', '생태여행']",https://cdn.visitkorea.or.kr/img/call?cmd=VIEW&id=8a92a37c-aec6-4ae5-942e-bdcbbec21684&thumb,전라남도 순천시 순천만길 513-25,34.88579701,127.5092833,
124,목포자연사박물관,전남 목포시,061-274-3655,"['가족여행', '기차여행', '목포자연사박물관', '문화시설', '박물관', '실내여행지']",https://cdn.visitkorea.or.kr/img/call?cmd=VIEW&id=1054830a-a8f3-40bc-a475-c4e39b816085&thumb,전라남도 목포시 남농로 135,34.79372717,126.4210674,
125,한국천연염색박물관,전남 나주시,061-335-0160,"['교과서속여행', '문화시설', '미세먼지_피하는_실내여행', '박물관', '실내관광지']",https://cdn.visitkorea.or.kr/img/call?cmd=VIEW&id=530d7646-e90d-455a-b3a3-52a06e4f66bc&thumb,전라남도 나주시 다시면 백호로 379,34.99403168,126.6625254,
126,태백산맥문학관,전남 보성군,061-850-8653,"['교과서속여행', '무장애', '문학관', '문학기념관', '문학기행', '문학기행', '문화시설']",https://cdn.visitkorea.or.kr/img/call?cmd=VIEW&id=9040f948-f546-423b-9ffe-da3ac7944e26&thumb,전라남도 보성군 벌교읍 홍암로 89-19,34.8492229,127.3522516,
127,한국차박물관,전남 보성군,061-852-0918,"['가족과함께', '가족여행', '관광지', '문화공간', '미세먼지_피하는_실내여행']",https://cdn.visitkorea.or.kr/img/call?cmd=VIEW&id=f15bf573-fce5-4c35-8ef1-bfcf3cfda447&thumb,전라남도 보성군 보성읍 녹차로 775,34.71987643,127.08170990000002,
128,섬진강어류생태관,전남 구례군,061-781-3665,"['교과서속여행', '문화시설', '사계절', '섬진강어류생태관', '실내여행지', '아이와함께']",https://cdn.visitkorea.or.kr/img/call?cmd=VIEW&id=e14a2ff2-ba20-471e-b67d-b21cdb39e41e&thumb,전라남도 구례군 간전면 간전중앙로 47,35.18745224,127.5465226,
129,"장전미술관 (구, 남진미술관)",전남 진도군,061-543-0777,"['기차여행', '남진미술관', '데이트코스', '문화시설', '미술관', '실내여행지', '아이와함께']",https://cdn.visitkorea.or.kr/img/call?cmd=VIEW&id=4434a696-ed98-4202-8174-b0a46fbce9ec&thumb,전라남도 진도군 임회면 하미길 39,34.429759600000004,126.2379554,
130,곡성레저문화센터,전남 곡성군,061-360-8343,"['곡성레저문화센터', '문화시설', '문화행사', '사계절', '실내여행지', '아이와함께']",https://cdn.visitkorea.or.kr/img/call?cmd=VIEW&id=f8e4d960-8592-461b-b7b5-7cc7bd3925bc&thumb,전라남도 곡성군 곡성읍 곡성로 855,35.28142166,127.2981783,
131,진도향토문화회관,전남 진도군,061-540-6253,"['가족여행', '교과서속여행', '문화시설', '문화행사', '사계절', '실내여행지', '아이와함께']",https://cdn.visitkorea.or.kr/img/call?cmd=VIEW&id=a9d3dd2b-2fd7-486a-853b-e0d9e06970ac&thumb,전라남도 진도군 진도읍 진도대로 7197,34.47970593,126.2685772,
132,아산조방원미술관,전남 곡성군,061-363-7278,"['기차여행', '나홀로여행', '문화시설', '미술관', '실내여행지', '아산조방원미술관']",https://cdn.visitkorea.or.kr/img/call?cmd=VIEW&id=9d45dd1f-3d1e-4cce-8952-d10d78cb3308&thumb,전라남도 곡성군 옥과면 미술관로 288,35.29708033,127.1226242,
133,나주배박물관,전남 나주시,061-339-2590,"['교과서속여행', '기차여행', '나주배박물관', '문화시설', '박물관', '실내여행지']",https://cdn.visitkorea.or.kr/img/call?cmd=VIEW&id=329e2ad7-1ea6-4239-b945-2f132ea1b945&thumb,전라남도 나주시 금천면 영산로 5838,35.03343515,126.767208,
134,나주문화원,전남 나주시,061-332-5115,"['나주문화원', '문화시설', '문화원', '사계절', '실내여행지', '역사문화체험', '전라권']",https://cdn.visitkorea.or.kr/img/call?cmd=VIEW&id=780484da-1d56-4787-b985-f327883a693e&thumb,전라남도 나주시 시청길 22,35.01578414,126.7108389,
135,진도해양생태관,전남 진도군,061-540-6287,"['교과서속여행', '문화시설', '사계절', '실내여행지', '아이와함께', '전라권', '전시관']",https://cdn.visitkorea.or.kr/img/call?cmd=VIEW&id=59de480f-6aac-4475-a111-06d644598d40&thumb,전라남도 진도군 고군면 신비의바닷길 64,34.43486634,126.3528688,
136,순천문화예술회관,전남 순천시,061-749-8612,"['가족여행', '공연장', '나들이', '데이트코스', '문화시설', '순천문화예술회관']",https://cdn.visitkorea.or.kr/img/call?cmd=VIEW&id=4c7c2f81-cf0d-40be-9150-9320be3eede1&thumb,전라남도 순천시 삼산로 16,34.9705555,127.4852376,
137,여수시민회관,전남 여수시,061-659-3770,"['가족여행', '공연장', '나들이', '데이트코스', '문화시설', '실내여행지', '아이와함께']",https://cdn.visitkorea.or.kr/img/call?cmd=VIEW&id=18e870b5-3a5b-4438-933d-d27058b7004e&thumb,전라남도 여수시 좌수영로 69,34.74709238,127.7279291,
138,물사랑 배움터,전남 화순군,061-373-5278,"['가족과함께', '교육여행', '문화시설', '물사랑배움터', '미세먼지_피하는_실내여행']",https://cdn.visitkorea.or.kr/img/call?cmd=VIEW&id=9dcc9bef-f234-4549-807d-1f1364d9e99e&thumb,전라남도 화순군 사평면 효당로 400,35.0264407,127.1129781,
139,동신대 카메라박물관(문화박물관),전남 나주시,061-330-3827,"['교과서속여행', '동신대카메라박물관', '문화시설', '박물관', '실내여행지', '아이와함께']",https://cdn.visitkorea.or.kr/img/call?cmd=VIEW&id=07a482c3-45a9-45bf-bda7-7652c96a7abb&thumb,전라남도 나주시 건재로 185,35.049702,126.7177281,
140,천관문학관,전남 장흥군,061-860-0457,"['문화시설', '사계절', '실내여행지', '아이와함께', '전라권', '전시관', '천관문학관']",https://cdn.visitkorea.or.kr/img/call?cmd=VIEW&id=12ebfb85-333d-4e42-bff0-a15c2a0e5d5d&thumb,전라남도 장흥군 대덕읍 천관산문학길 160,34.51564909,126.9034541,
141,강진군도서관,전남 강진군,061-430-3842,"['강진군도서관', '도서관', '문화시설', '사계절', '실내여행지', '아이와함께', '전라권']",https://cdn.visitkorea.or.kr/img/call?cmd=VIEW&id=6fcdc1d5-f42d-4d78-9d56-9c1154c77152&thumb,전라남도 강진군 강진읍 남문길 10,34.640508700000005,126.7697201,
142,여수 해양레일바이크,전남 여수시,061-652-7882,['레포츠'],https://cdn.visitkorea.or.kr/img/call?cmd=VIEW&id=57317e37-cf85-4bbd-bd0c-9d17bc8dee2a&thumb,전라남도 여수시 망양로 187,34.7998043,127.7459652,0.0
143,한화리조트 지리산 카라반,전남 구례군,010-5811-0388,"['가족여행', '레포츠', '지리산', '카라반', '캠핑']",https://cdn.visitkorea.or.kr/img/call?cmd=VIEW&id=673865a1-4742-4ec8-b4d7-2c1e0453c9bd&thumb,전라남도 구례군 마산면 화엄사로 464,35.2483901,127.4937248,1.0
144,정남진해양낚시공원,전남 장흥군,061-867-0555,"['가족여행', '낚시체험', '레포츠', '전라권', '정남진', '정남진해양낚시공원']",https://cdn.visitkorea.or.kr/img/call?cmd=VIEW&id=2fd73c8d-4c14-4ed9-bf12-5e6661022a63&thumb,전라남도 장흥군 회진면 해양낚시길 137,34.4701055,126.9768207,2.0
145,하화도 꽃섬길,전남 여수시,061-659-1225,"['가족여행', '경치좋은곳', '레포츠', '전라권', '하화도꽃섬길', '힐링']",https://cdn.visitkorea.or.kr/img/call?cmd=VIEW&id=0c5d3ca7-b01f-40f0-a9ef-29f60b5dda76&thumb,전라남도 여수시 화정면 아랫꽃섬1길 1,34.5945796,127.6193105,3.0
146,가거도,전남 신안군,061-240-4008,"['가거도', '낚시', '레포츠', '바다낚시', '섬낚시', '신안군']",https://cdn.visitkorea.or.kr/img/call?cmd=VIEW&id=1f441fdc-8e98-4ed7-a150-d9da52be9eb0&thumb,전라남도 신안군 흑산면 가거도길 41-2,34.0521242,125.1245685,4.0
147,임자해변승마공원,전남 신안군,070-8285-2450,"['가족여행', '레포츠', '승마', '승마레슨', '승마체험', '승마트레킹', '연중무휴']",https://cdn.visitkorea.or.kr/img/call?cmd=VIEW&id=d95e83ce-5b74-4f47-b0ce-79375635b042&thumb,전라남도 신안군 임자면 한틀길 194-46,35.1103706,126.0869298,5.0
148,지리산온천랜드 카라반,전남 구례군,1899-7821,"['레포츠', '주말가족여행', '지리산온천랜드', '카라반', '캠핑장']",https://cdn.visitkorea.or.kr/img/call?cmd=VIEW&id=73f0faa3-4a8c-41a7-8dc7-1170625fa875&thumb,전라남도 구례군 산동면 지리산온천로 261,35.31849370000001,127.4577881,6.0
149,담양 용마루길,전남 담양군,061-380-3063,"['담양호', '레포츠', '산책코스', '전라권', '트레킹']",https://cdn.visitkorea.or.kr/img/call?cmd=VIEW&id=56b6d45e-f936-45bc-b6c1-f2526328e2b8&thumb,전라남도 담양군 용면 추월산로 735,35.3872808,126.993501,7.0
150,마량항,전남 강진군,061-430-3262,"['강진', '낚시터', '레포츠', '바다낚시']",https://cdn.visitkorea.or.kr/img/call?cmd=VIEW&id=f2d63de1-e90e-45f1-80e6-3eae61826e1d&thumb,전라남도 강진군 마량면 미항로 157,34.4493974,126.8192906,8.0
151,홍도 (바다낚시),전남 신안군,061-246-3700,['레포츠'],https://cdn.visitkorea.or.kr/img/call?cmd=VIEW&id=7769e4c0-f189-43db-946d-830ffd0c7cea&thumb,전라남도 신안군 흑산면 홍도1길 21-5,34.682951200000005,125.1904235,9.0
152,신지도.고금도.약산도(바다낚시),전남 완도군,061-550-5152,"['낚시터', '레포츠', '바다낚시', '완도낚시터', '전남권']",https://cdn.visitkorea.or.kr/img/call?cmd=VIEW&id=d7b25b63-2716-49f0-a73b-72bd000a4b36&thumb,전라남도 완도군 신지면,34.3347526,126.82724,10.0
153,곡성기차마을 패러글라이딩,전남 곡성군,010-5847-7448,"['감동', '경험', '곡성', '기차마을', '레포츠']",https://cdn.visitkorea.or.kr/img/call?cmd=VIEW&id=ac59ce08-35c0-400a-a7b8-20f03169f876&thumb,전라남도 곡성군 오곡면 덕양서원길 42,35.26343770000001,127.3106056,11.0
154,금오도 비렁길,전남 여수시,061-659-1187,"['걷기길', '금오도비렁길', '레포츠', '전라권', '트레킹']",https://cdn.visitkorea.or.kr/img/call?cmd=VIEW&id=7d5bf043-605f-467c-bc7e-aba10611275c&thumb,전라남도 여수시 남면 용머리길,34.5371321,127.7049429,12.0
155,금오도캠핑장 (관광두레 주민사업체),전남 여수시,010-7190-1944,"['가족과함께', '관광두레', '관광두레_주민사업체', '금오도', '남녀노소', '다도해']",https://cdn.visitkorea.or.kr/img/call?cmd=VIEW&id=6e122f85-a7aa-462e-abf6-83fe8b186685&thumb,전라남도 여수시 남면 대유길 36-2,34.5351616,127.7612922,13.0
156,병풍도,전남 신안군,061-271-0512,"['레포츠', '바다낚시', '신안군', '신안바다', '전남권']",https://cdn.visitkorea.or.kr/img/call?cmd=VIEW&id=189bf20f-c971-4d02-8f93-13cf9fdef7f6&thumb,전라남도 신안군 증도면 병풍리,34.966280600000005,126.2073817,14.0
157,유달산 둘레길,전남 목포시,061-270-8598,"['가족과함께', '남녀노소', '등산객', '레포츠', '산책하기좋은곳', '유달산공원']",https://cdn.visitkorea.or.kr/img/call?cmd=VIEW&id=61ddc01b-40f0-4b39-9eeb-063c9c44ee3d&thumb,전라남도 목포시 죽교동,34.79664260000001,126.368521,15.0
158,섬진강레일바이크,전남 곡성군,061-362-7717,"['가족여행', '레포츠', '섬진강', '섬진강레일바이크', '연인과함께', '자녀와함께']",https://cdn.visitkorea.or.kr/img/call?cmd=VIEW&id=7b523a5f-d00d-46f4-9087-794d5fa2bb30&thumb,전라남도 곡성군 오곡면 섬진강로 1877,35.25926550000001,127.3489305,16.0
159,느랭이골 글램핑,전남 광양시,1588-2704,"['가족여행', '글램핑', '레포츠', '주말여행', '휴양림', '힐링산책']",https://cdn.visitkorea.or.kr/img/call?cmd=VIEW&id=58b195f3-2be1-4580-addd-a0ebb695846c&thumb,전라남도 광양시 다압면 토끼재길 119-32,35.0596944,127.7106736,17.0
160,짚라인곡성,전남 곡성군,061-362-0494,"['남녀노소', '레포츠', '이색체험', '익스트림스포츠', '짚라인']",https://cdn.visitkorea.or.kr/img/call?cmd=VIEW&id=00b1deba-d007-4a00-b487-75922e585dba&thumb,전라남도 곡성군 오곡면 섬진강로 1492,35.2335225,127.3578324,18.0
161,전라남도종합사격장,전남 나주시,061-333-5857,"['레포츠', '사격', '사격장', '스포츠센터', '스포츠체험', '실내레포츠', '실내운동']",https://cdn.visitkorea.or.kr/img/call?cmd=VIEW&id=29ad1445-53e7-40a4-bc02-ab153cfba756&thumb,전라남도 나주시 사격장길 82,35.0200711,126.7051828,19.0
162,신안 천도천색호,전남 신안군,061-240-8685,"['레포츠', '세일요트', '요트', '전라권', '천도천색호']",https://cdn.visitkorea.or.kr/img/call?cmd=VIEW&id=dc9fc2a2-9576-4e24-bfef-6313ed095201&thumb,전라남도 신안군 암태면 박달로 15,34.8616464,126.1564545,20.0
163,나주호(민물낚시),전남 나주시,061-339-8592,"['나주시', '나주호', '레포츠', '민물낚시', '밤낚시']",https://cdn.visitkorea.or.kr/img/call?cmd=VIEW&id=4dcec758-b20c-4f32-836e-0ae48fdc9826&thumb,전라남도 나주시 다도면 나주호로 174,34.963651500000005,126.8433273,21.0
164,완도(바다낚시),전남 완도군,061-550-5151,"['레포츠', '바다낚시', '완도낚시', '완도낚시터', '완도바다낚시']",https://cdn.visitkorea.or.kr/img/call?cmd=VIEW&id=8538f6ae-3ce4-48cd-879e-cf0374755524&thumb,전라남도 완도군 완도읍 청해진남로 51,34.3109182,126.7550812,22.0
165,청산도 슬로길,전남 완도군,061-550-5431,"['레포츠', '생태탐방로', '슬로시티', '전라권', '청산도슬로길']",https://cdn.visitkorea.or.kr/img/call?cmd=VIEW&id=7b01f4c0-0e9d-4d6a-89b8-1231e34556df&thumb,전라남도 완도군 청산면 청산로 3,34.181341,126.8546986,23.0
166,추월산 트레킹,전남 담양군,061-380-2795,"['가족과함께', '경치좋은곳', '등산객', '레포츠', '산림욕', '산책하기좋은곳', '자연좋은곳']",https://cdn.visitkorea.or.kr/img/call?cmd=VIEW&id=undefined&thumb,전라남도 담양군 용면,35.36494620000001,126.9875112,24.0
167,[증도 모실길 1코스] 노을이 아름다운 사색의 길,전남 신안군,061-240-8357,['레포츠'],https://cdn.visitkorea.or.kr/img/call?cmd=VIEW&id=bbb24e3c-a327-4181-bafa-6d9fd5230124&thumb,전라남도 신안군 증도면,35.002795,126.1397376,25.0
168,목포실내수영장,전남 목포시,061-270-8371,['레포츠'],https://cdn.visitkorea.or.kr/img/call?cmd=VIEW&id=121823f5-5fb8-425b-abe6-e5bdfbb88d67&thumb,전라남도 목포시 대양로 286,34.8242902,126.407449,26.0
169,청산도.황제도(바다낚시),전남 완도군,061-1600-7788,"['레포츠', '바다낚시', '완도바다낚시', '청산도낚시', '황제도낚시']",https://cdn.visitkorea.or.kr/img/call?cmd=VIEW&id=400facce-d840-4cdf-947f-0c48a7c767e9&thumb,전라남도 완도군 청산면 청산로 1613,34.1816903,126.85774209999998,27.0
170,[해안누리길] 해넘이길,전남 신안군,061-240-8975,['레포츠'],https://cdn.visitkorea.or.kr/img/call?cmd=VIEW&id=48ba353c-1274-40ac-a5e3-d761be7f6772&thumb,전라남도 신안군 자은면 둔장길 2,34.9132403,126.0657165,28.0
171,순천승마장,전남 순천시,061-755-0800,"['가족과함께', '레포츠', '승마', '승마레슨', '승마장', '승마체험', '승마캠프', '승마트레킹']",https://cdn.visitkorea.or.kr/img/call?cmd=VIEW&id=ab2f7756-1bcd-49ae-ad7a-fbbf8ae14fc2&thumb,전라남도 순천시 낙안면 금산길 118-28,34.9355838,127.356801,29.0
172,곡성군청소년야영장,전남 곡성군,061-362-4186,"['곡성군', '레포츠', '섬진강', '수련장', '야영장', '청소년']",https://cdn.visitkorea.or.kr/img/call?cmd=VIEW&id=bad5b810-a69f-4249-8cec-89b1336eb416&thumb,전라남도 곡성군 고달면 가정마을길 51,35.2277826,127.3698141,30.0
173,땅끝오토캠핑리조트,전남 해남군,061-534-0830,['레포츠'],https://cdn.visitkorea.or.kr/img/call?cmd=VIEW&id=ecf8c280-d433-4f4a-9a32-c70f93c9bcfd&thumb,전라남도 해남군 송지면 갈산길 25-5,34.30897,126.52056770000002,31.0
174,거문도권,전남 여수시,061-659-1257,"['거문도낚시', '레포츠', '바다낚시', '여수바다', '여수바다낚시', '전남권']",https://cdn.visitkorea.or.kr/img/call?cmd=VIEW&id=undefined&thumb,전라남도 여수시 삼산면 거문길 28-10,34.0256376,127.3119639,32.0
175,장성호 낚시,전남 장성군,061-392-7248,"['경관', '낚시', '레포츠', '수상보트', '장성호']",https://cdn.visitkorea.or.kr/img/call?cmd=VIEW&id=6713faaa-9629-4f7e-98b2-ad0957cb7d5f&thumb,전라남도 장성군 북하면 백양로,35.4218945,126.8638265,33.0
176,중도방죽,전남 보성군,061-850-5213,"['걷기길', '나홀로여행', '레포츠', '산책', '산책길', '산책로', '산책하기', '산책하기좋은곳']",https://cdn.visitkorea.or.kr/img/call?cmd=VIEW&id=482c3f5d-b555-470b-91d6-b1b57bf8cf72&thumb,전라남도 보성군 벌교읍 신정길 4-41,34.8439274,127.35092579999998,34.0
177,섬진강 자전거하이킹,전남 곡성군,061-363-2011,"['가족과함께', '레포츠', '아이와함께', '자전거길', '자전거길', '자전거대여', '자전거여행']",https://cdn.visitkorea.or.kr/img/call?cmd=VIEW&id=718559a6-7421-4a3f-813a-364900ec9118&thumb,전라남도 곡성군 고달면 가정마을길 51,35.2277826,127.3698141,35.0
178,그랑프리승마파크,전남 담양군,061-382-9102,"['가족과함께', '레포츠', '승마', '승마레슨', '승마장', '승마체험', '승마캠프', '승마트레킹']",https://cdn.visitkorea.or.kr/img/call?cmd=VIEW&id=627cb3ad-7a5d-48c0-8545-a44b3c74bf2c&thumb,전라남도 담양군 고서면 광산길 43-7,35.2113146,126.9761332,36.0
179,맹골군도,전남 진도군,1588-9601,['레포츠'],https://cdn.visitkorea.or.kr/img/call?cmd=VIEW&id=undefined&thumb,전라남도 진도군 조도면 맹골도길,34.215447,125.85465990000002,37.0
180,곡성성림청소년수련의집,전남 곡성군,061-363-7576,['레포츠'],https://cdn.visitkorea.or.kr/img/call?cmd=VIEW&id=undefined&thumb,전라남도 곡성군 오산면 설산로 417,35.2852943,127.0968991,38.0
181,꿈꾸는 캠핑장,전남 곡성군,010-3634-4887,"['곡성여행', '곡성캠핑', '레포츠', '캠핑장', '힐링여행']",https://cdn.visitkorea.or.kr/img/call?cmd=VIEW&id=5a298f72-6e32-4284-bf37-66b58f2ed776&thumb,전라남도 곡성군 고달면 고산로 325,35.2905528,127.34535259999998,39.0
182,[증도 모실길 3코스] 천년의 숲길,전남 신안군,061-240-8357,['레포츠'],https://cdn.visitkorea.or.kr/img/call?cmd=VIEW&id=affa05c4-5c36-4e80-800c-79ba1b7cb839&thumb,전라남도 신안군 증도면,35.002795,126.1397376,40.0
183,[증도 모실길 5코스] 천일염길,전남 신안군,061-240-8357,['레포츠'],https://cdn.visitkorea.or.kr/img/call?cmd=VIEW&id=0916d128-3712-489c-8be3-05564da40946&thumb,전라남도 신안군 증도면,35.002795,126.1397376,41.0
184,여수일대(바다낚시),전남 여수시,061-643-4339,"['레포츠', '바다낚시', '여수낚시', '여수바다', '전남권']",https://cdn.visitkorea.or.kr/img/call?cmd=VIEW&id=undefined&thumb,전라남도 여수시 돌산읍 강남로 31,34.7185255,127.7488059,42.0
185,[증도 모실길 2코스] 보물선 순교자 발자취 길,전남 신안군,061-240-8357,['레포츠'],https://cdn.visitkorea.or.kr/img/call?cmd=VIEW&id=d6e0c5df-a5d8-44e2-a66b-5c94ba6c620a&thumb,전라남도 신안군 증도면,35.002795,126.1397376,43.0
186,장흥 포항저수지,전남 장흥군,061-860-0603,"['레포츠', '민물낚시', '장흥낚시터']",https://cdn.visitkorea.or.kr/img/call?cmd=VIEW&id=undefined&thumb,전라남도 장흥군 대덕읍 신흥2길 41,34.500953700000004,126.9114392,44.0
187,성암국제수련원,전남 담양군,061-381-8361,['레포츠'],https://cdn.visitkorea.or.kr/img/call?cmd=VIEW&id=undefined&thumb,전라남도 담양군 수북면 한수동로 872,35.3170484,126.8954132,45.0
188,보길도일대(바다낚시),전남 완도군,061-550-5151,"['레포츠', '바다낚시', '완도낚시', '완도낚시터', '완도바다', '전남권']",https://cdn.visitkorea.or.kr/img/call?cmd=VIEW&id=fe04623b-324b-43a0-a823-0693f022497c&thumb,전라남도 완도군 보길면,34.169077200000004,126.5676334,46.0
189,송호학생수련장,전남 해남군,061-534-2618,['레포츠'],https://cdn.visitkorea.or.kr/img/call?cmd=VIEW&id=bd589a64-df6b-41f3-a328-221f89ed53eb&thumb,전라남도 해남군 송지면 땅끝해안로 1823,34.3706011,126.53156509999998,47.0
190,[증도 모실길 4코스] 갯벌공원길,전남 신안군,061-240-8357,['레포츠'],https://cdn.visitkorea.or.kr/img/call?cmd=VIEW&id=d64d4f38-0e5c-4103-a47e-d0e5191405cc&thumb,전라남도 신안군 증도면,35.002795,126.1397376,48.0
191,고흥권,전남 고흥군,061-830-5347,"['고흥바다', '고흥바다낚시', '레포츠', '바다낚시', '전남권']",https://cdn.visitkorea.or.kr/img/call?cmd=VIEW&id=undefined&thumb,전라남도 고흥군 도양읍 목넘가는길,34.5306474,127.1288662,49.0
192,섬진강 승마유스빌,전남 곡성군,061-363-1733,"['가족과함께', '레포츠', '승마', '승마레슨', '승마장', '승마체험', '승마캠프', '승마트레킹']",https://cdn.visitkorea.or.kr/img/call?cmd=VIEW&id=25a71d80-72d5-4548-8ee2-e51b86723263&thumb,전라남도 곡성군 고달면 두계길 40-43,35.2379519,127.3756377,50.0
193,완도청소년수련원,전남 완도군,061-553-3844,['레포츠'],https://cdn.visitkorea.or.kr/img/call?cmd=VIEW&id=11cdfcbc-7e5c-4944-862c-af818046c260&thumb,전라남도 완도군 군외면 청해진북로 556-94,34.3861689,126.6920392,51.0
194,회진 바다낚시,전남 장흥군,061-860-0410,"['레포츠', '바다낚시', '장흥바다', '장흥바다낚시', '전남권']",https://cdn.visitkorea.or.kr/img/call?cmd=VIEW&id=undefined&thumb,전라남도 장흥군 회진면,34.481594,126.939615,52.0
195,목포시청소년수련관,전남 목포시,061-276-3640,['레포츠'],https://cdn.visitkorea.or.kr/img/call?cmd=VIEW&id=0e1a6910-6605-4a49-88b7-f45d465a6abd&thumb,전라남도 목포시 양을로397번길 68,34.8221602,126.4110238,53.0
196,한울테마승마장,전남 진도군,010-9696-8759,"['가족과함께', '레포츠', '승마', '승마레슨', '승마장', '승마체험', '승마캠프', '승마트레킹']",https://cdn.visitkorea.or.kr/img/call?cmd=VIEW&id=cd9d3b84-3f74-45bf-844b-0bf066b128da&thumb,전라남도 진도군 지산면 지산로 704,34.437052,126.1307108,54.0
197,섬진강 레프팅,전남 곡성군,061-363-4189,['레포츠'],https://cdn.visitkorea.or.kr/img/call?cmd=VIEW&id=97c2b292-4923-4473-b6b4-a874dbd22504&thumb,전라남도 곡성군 고달면 가정마을길 51,35.2277826,127.3698141,55.0
198,나주힐스 컨트리클럽,전남 나주시,061-337-5700,['레포츠'],https://cdn.visitkorea.or.kr/img/call?cmd=VIEW&id=undefined&thumb,전라남도 나주시 세지면 신지로 806,34.8941875,126.7257291,56.0
199,개초지(화원1호지),전남 해남군,061-531-3612 061-532-1330,"['레포츠', '민물낚시', '전남권', '해남낚시터', '해남저수지', '화원지']",https://cdn.visitkorea.or.kr/img/call?cmd=VIEW&id=undefined&thumb,전라남도 해남군 화원면 개초길 45,34.6453828,126.3135432,57.0
200,함동저수지,전남 장성군,061-390-7606,"['레포츠', '민물낚시', '장성낚시터']",https://cdn.visitkorea.or.kr/img/call?cmd=VIEW&id=null&thumb,전라남도 장성군 삼서면 수양로,35.2387133,126.6655498,58.0
201,순천시청소년수련원,전남 순천시,061-755-5522,['레포츠'],https://cdn.visitkorea.or.kr/img/call?cmd=VIEW&id=undefined&thumb,전라남도 순천시 서면 청소년수련원길 167,35.0458699,127.4732358,59.0
202,담양다이너스티컨트리클럽,전남 담양군,061-380-7500,"['골프장', '담양다이너스티컨트리클럽', '레포츠', '전남권']",https://cdn.visitkorea.or.kr/img/call?cmd=VIEW&id=null&thumb,전라남도 담양군 담양읍 깊은실길 169,35.31768320000001,127.0085368,60.0
203,관흥지민물낚시(수동 제1저수지),전남 장흥군,061-860-0224,"['레포츠', '민물낚시', '수동저수지', '장흥낚시터', '장흥저수지', '전남권']",https://cdn.visitkorea.or.kr/img/call?cmd=VIEW&id=undefined&thumb,전라남도 장흥군 관산읍 수동길,34.5109316,126.9409285,61.0
204,평일도일대(바다낚시),전남 완도군,061-550-51513,"['레포츠', '바다낚시', '완도낚시', '완도낚시터', '완도바다', '완도바다낚시', '전남권']",https://cdn.visitkorea.or.kr/img/call?cmd=VIEW&id=undefined&thumb,전라남도 완도군 금일읍 금일로,34.3418701,127.0407963,62.0
205,계마리,전남 영광군,061-350-5224,"['레포츠', '바다낚시', '영강바다', '영강바다낚시', '전남권']",https://cdn.visitkorea.or.kr/img/call?cmd=VIEW&id=undefined&thumb,전라남도 영광군 홍농읍 계마길,35.3951011,126.4066686,63.0
206,삼마도,전남 해남군,061-532-1330,"['레포츠', '바다낚시', '전남권', '해남군', '해남바다', '해남바다낚시']",https://cdn.visitkorea.or.kr/img/call?cmd=VIEW&id=undefined&thumb,전라남도 해남군 화산면 상마길,34.4559338,126.4178001,64.0
207,율포오토캠핑리조트,전남 보성군,061-853-4488,['레포츠'],https://cdn.visitkorea.or.kr/img/call?cmd=VIEW&id=null&thumb,전라남도 보성군 회천면 충의로 52,34.671047200000004,127.0912639,65.0
208,골드레이크컨트리클럽,전남 나주시,061-339-3000,['레포츠'],https://cdn.visitkorea.or.kr/img/call?cmd=VIEW&id=undefined&thumb,전라남도 나주시 남평읍 나주호로 442-129,34.959588200000006,126.8674484,66.0
209,승주컨트리클럽,전남 순천시,061-740-8181,['레포츠'],https://cdn.visitkorea.or.kr/img/call?cmd=VIEW&id=undefined&thumb,전라남도 순천시 별량면 오실길 333,34.901626799999995,127.4477028,67.0
210,광주컨트리클럽,전남 곡성군,061-339-7100,['레포츠'],https://cdn.visitkorea.or.kr/img/call?cmd=VIEW&id=undefined&thumb,전라남도 곡성군 옥과면 입면로 455,35.310138,127.1699544,68.0
211,장수지,전남 고흥군,061-830-6328,"['고흥낚시터', '고흥저수지', '레포츠', '민물낚시', '전남권']",https://cdn.visitkorea.or.kr/img/call?cmd=VIEW&id=undefined&thumb,전라남도 고흥군 포두면 신호산장길,34.6024564,127.3207229,69.0
212,무안 컨트리클럽,전남 무안군,061-450-9000,['레포츠'],https://cdn.visitkorea.or.kr/img/call?cmd=VIEW&id=undefined&thumb,전라남도 무안군 청계면 서호로 162,34.96227460000001,126.4018284,70.0
213,목포 자유시장 (남진야시장),전남 목포시,061-245-1615,"['가족여행', '먹거리', '목포자유시장', '사계절', '쇼핑', '아이와함께', '이색체험']",https://cdn.visitkorea.or.kr/img/call?cmd=VIEW&id=16e98410-a312-4c25-a2e3-35a7fc752a7c&thumb,전라남도 목포시 자유로 122,34.79296436,126.4030678,
214,목포 종합수산시장,전남 목포시,061-245-5096,"['가족여행', '먹거리', '목포종합수산시장', '바다풍경', '사계절', '쇼핑', '시장맛집']",https://cdn.visitkorea.or.kr/img/call?cmd=VIEW&id=d1d62cb5-afb7-401b-ae9e-8efa4035ee6c&thumb,전라남도 목포시 해안로 267,34.78781934,126.3900991,
215,여수 종합수산시장,전남 여수시,061-662-7268,"['가족여행', '기차여행', '나홀로여행', '쇼핑', '아이와함께', '여수종합수산시장']",https://cdn.visitkorea.or.kr/img/call?cmd=VIEW&id=68176fbe-58e3-4093-a071-de7da2a22c34&thumb,전라남도 여수시 여객선터미널길 24,34.73814206,127.7317636,
216,여수중앙선어시장,전남 여수시,,"['가족여행', '기차여행', '나들이', '나홀로여행', '데이트코스', '먹거리', '바다풍경']",https://cdn.visitkorea.or.kr/img/call?cmd=VIEW&id=cd2a9558-0e21-444e-808a-2857a2f22504&thumb,전라남도 여수시 이순신광장로 103,34.73913771,127.7370321,
217,"순천 아랫장 (2, 7일)",전남 순천시,061-741-3334,"['가족여행', '기차여행', '나들이', '나홀로여행', '데이트코스', '먹거리', '쇼핑']",https://cdn.visitkorea.or.kr/img/call?cmd=VIEW&id=16ecbc45-6e6d-47fc-b0d8-cb9a64743311&thumb,전라남도 순천시 장평로 60,34.94514679,127.49609,
218,영광 법성포 굴비거리,전남 영광군,061-350-5416,"['가족여행', '기념품판매', '기차여행', '나들이', '나홀로여행', '먹거리', '쇼핑']",https://cdn.visitkorea.or.kr/img/call?cmd=VIEW&id=c52ff911-f0d9-4fb1-ba4c-4c1107247c4a&thumb,전라남도 영광군 법성면,35.3620555,126.4460191,
219,정남진 장흥토요시장,전남 장흥군,061-846-7002,"['가족여행', '기차여행', '나들이', '나홀로여행', '먹거리', '쇼핑', '시장맛집', '아이와함께']",https://cdn.visitkorea.or.kr/img/call?cmd=VIEW&id=386c9b69-5c31-48ff-9d31-c3164f2b94f6&thumb,전라남도 장흥군 장흥읍 토요시장3길 15,34.67636797,126.9028619,
220,여수 돌산갓장터마을갓김치,전남 여수시,061-659-5728,"['가족여행', '기념품판매', '기차여행', '나들이', '나홀로여행', '쇼핑', '아이와함께']",https://cdn.visitkorea.or.kr/img/call?cmd=VIEW&id=7927fd57-94da-4274-983e-8ef1792602e4&thumb,전라남도 여수시 돌산읍 향일암로 359,34.60499613,127.7876658,
221,"구례5일장 / 구례전통시장(3, 8일)",전남 구례군,061-782-8484,"['가족여행', '구례5일장', '구례전통시장', '사계절', '쇼핑', '시장맛집', '아이와함께']",https://cdn.visitkorea.or.kr/img/call?cmd=VIEW&id=8ec96d6e-6450-4c97-82c1-98da5c46d163&thumb,전라남도 구례군 구례읍 5일시장작은길 20,35.21015153,127.4700805,
222,"보성장 / 녹차골 보성향토시장 (2, 7일)",전남 보성군,061-852-3360,"['가족여행', '녹차골보성향토시장', '보성장', '사계절', '쇼핑', '시장맛집', '아이와함께']",https://cdn.visitkorea.or.kr/img/call?cmd=VIEW&id=25081122-c627-4753-ab99-a4eed5ba247f&thumb,전라남도 보성군 보성읍 현충로 42-1,34.76564893,127.0772318,
223,광양 청매실농원,전남 광양시,061-772-4066,"['가족여행', '광양청매실농원', '기념품판매', '기차여행', '나들이', '나홀로여행']",https://cdn.visitkorea.or.kr/img/call?cmd=VIEW&id=8f7d1604-2640-4aed-8b34-3765ecbcafe7&thumb,전라남도 광양시 다압면 지막1길 55,35.07549641,127.7166502,
224,"곡성장 / 곡성기차마을전통시장 (3, 8일)",전남 곡성군,061-363-9002,"['가족여행', '곡성기차마을전통시장', '곡성장', '기차여행', '나들이', '나홀로여행']",https://cdn.visitkorea.or.kr/img/call?cmd=VIEW&id=48a9c528-5a9d-4245-847e-c67247e19e52&thumb,전라남도 곡성군 곡성읍 곡성로 856,35.27976851,127.2984376,
225,백록다원,전남 보성군,061-852-3722,"['가족여행', '기념품판매', '기차여행', '나들이', '나홀로여행', '백록다원', '쇼핑']",https://cdn.visitkorea.or.kr/img/call?cmd=VIEW&id=eb1af8e8-fa3f-4699-87f4-3e56c09dd56c&thumb,전라남도 보성군 회천면 봉서동길 81-7,34.66548303,127.0498304,
226,나주목사고을시장,전남 나주시,061-334-8249 061-332-1574,"['가족여행', '기차여행', '나들이', '나주목사고을시장', '나홀로여행', '데이트코스']",https://cdn.visitkorea.or.kr/img/call?cmd=VIEW&id=2e4f86dc-c327-47ca-bb8e-64135e8b42d2&thumb,전라남도 나주시 청동길 14,35.03624619,126.7237675,
227,여수 특산품전시판매장,전남 여수시,061-643-8899,"['가족여행', '기념품판매', '기차여행', '나들이', '나홀로여행', '쇼핑', '아이와함께']",https://cdn.visitkorea.or.kr/img/call?cmd=VIEW&id=53c12909-f442-4a7d-8f4e-bc6f780063ec&thumb,전라남도 여수시 봉산남9길 30-12,34.73121587,127.72822109999998,
228,목포 청호시장,전남 목포시,061-284-1379,"['가족여행', '기차여행', '나들이', '나홀로여행', '데이트코스', '먹거리', '목포청호시장']",https://cdn.visitkorea.or.kr/img/call?cmd=VIEW&id=95f24266-3237-4cb5-a483-26b1eb113f29&thumb,전라남도 목포시 석현로 28,34.81538137,126.424593,
229,"일로장 (1, 6일)",전남 무안군,061-450-5602,"['가족여행', '기차여행', '나들이', '나홀로여행', '먹거리', '쇼핑', '시장맛집', '아이와함께']",https://cdn.visitkorea.or.kr/img/call?cmd=VIEW&id=2b7eafcb-9325-4afb-ae33-590a3737a1d3&thumb,전라남도 무안군 일로읍 시장길 11-22,34.84753508,126.4943346,
230,완도 해산물장터,전남 완도군,061-554-2586,"['가족여행', '기차여행', '나들이', '나홀로여행', '데이트코스', '먹거리', '쇼핑']",https://cdn.visitkorea.or.kr/img/call?cmd=VIEW&id=9a240c6d-b2d7-4386-8717-ef21d76e79b8&thumb,전라남도 완도군 완도읍 해변공원로124번길 26,34.32596425,126.7499626,
231,"진도장 / 진도조금시장 (2, 7일)",전남 진도군,061-544-0151,"['가족여행', '사계절', '쇼핑', '시장맛집', '아이와함께', '재래시장', '전라권', '전통시장']",https://cdn.visitkorea.or.kr/img/call?cmd=VIEW&id=b67bf4c7-7e54-4bb8-8ab3-da769c3cdf0e&thumb,전라남도 진도군 진도읍 조금시장길 23,34.48097045,126.2570824,
232,목포 신중앙시장,전남 목포시,061-273-1733,"['가족여행', '목포신중앙시장', '사계절', '쇼핑', '시장맛집', '아이와함께', '재래시장']",https://cdn.visitkorea.or.kr/img/call?cmd=VIEW&id=7b17f659-9d72-4d8f-98d1-5456a68eced0&thumb,전라남도 목포시 원산중앙로 51,34.81025503,126.3775244,
233,목포 동부시장,전남 목포시,061-276-5787,"['가족여행', '목포동부시장', '사계절', '쇼핑', '아이와함께', '이색체험', '전라권']",https://cdn.visitkorea.or.kr/img/call?cmd=VIEW&id=6243685a-fe48-4ff8-bd53-665ab46dc375&thumb,전라남도 목포시 산정로 174,34.80408944,126.3920968,
234,"담양장 / 죽물시장 (2, 7일)",전남 담양군,061-380-3044,"['가족여행', '담양장', '사계절', '쇼핑', '시장맛집', '아이와함께', '재래시장', '전라권']",https://cdn.visitkorea.or.kr/img/call?cmd=VIEW&id=a4479e50-d327-48bf-9296-31527f17afa8&thumb,전라남도 담양군 담양읍 담주4길 44-8,35.32314598,126.9808152,
235,"화순장 / 화순전통시장 (3, 8일)",전남 화순군,061-370-1351,"['가족여행', '기차여행', '나들이', '나홀로여행', '먹거리', '쇼핑', '시장맛집', '아이와함께']",https://cdn.visitkorea.or.kr/img/call?cmd=VIEW&id=04ff2147-3572-4a4d-ab70-efcb39d850e5&thumb,전라남도 화순군 화순읍 시장길 42,35.05909677,126.9833988,
236,죽향참빗,전남 담양군,061-383-0703,"['대자리', '무형문화재', '쇼핑', '참빗']",https://cdn.visitkorea.or.kr/img/call?cmd=VIEW&id=007e5fe6-a0b8-4fe9-a29b-a1fc1864ffa7&thumb,전라남도 담양군 담양읍 향교길 29,35.32661836,126.9859351,
237,곡성 기차당 뚝방마켓,전남 곡성군,061-362-2753,"['가족여행', '곡성기차당뚝방마켓', '곡성볼거리', '곡성여행', '기념품판매', '기차여행']",https://cdn.visitkorea.or.kr/img/call?cmd=VIEW&id=ce6f9642-919e-474b-a280-3efd07b3e2f0&thumb,전라남도 곡성군 곡성읍 곡성로 898,35.28140201,127.3012726,
238,"광양5일장 (1, 6일)",전남 광양시,061-762-6800,"['가족여행', '광양오일장', '기차여행', '나들이', '나홀로여행', '데이트코스', '먹거리']",https://cdn.visitkorea.or.kr/img/call?cmd=VIEW&id=fb22ca47-c95d-4d25-8f9d-2c9121c205de&thumb,전라남도 광양시 광양읍 백운로 3,34.9711607,127.5904533,
239,수협 보성회천수산물위판장,전남 보성군,061-852-2151,"['보성', '쇼핑', '수산물', '전남보성']",https://cdn.visitkorea.or.kr/img/call?cmd=VIEW&id=b0dc87b3-b8b2-4378-88ae-b36f22cc55b8&thumb,전라남도 보성군 회천면 남부관광로 2274,34.66720677,127.08409509999998,
240,"함평장 (2, 7일)",전남 함평군,061-324-0026,"['가족여행', '나들이', '나홀로여행', '먹거리', '쇼핑', '시장맛집', '아이와함께']",https://cdn.visitkorea.or.kr/img/call?cmd=VIEW&id=bc70ff0b-5484-4598-be41-8c51c4694637&thumb,전라남도 함평군 함평읍 시장길 49-1,35.06373037,126.5234259,
241,순천만 공예특산품관,전남 순천시,061-749-3542,"['가족여행', '기념품판매', '기차여행', '나들이', '나홀로여행', '쇼핑', '순천만']",https://cdn.visitkorea.or.kr/img/call?cmd=VIEW&id=ec69acd0-9433-48fc-8899-8a25c19f74f0&thumb,전라남도 순천시 순천만길 513-25,34.88579701,127.5092833,
242,"장흥 5일장 (2, 7일)",전남 장흥군,061-864-7004,"['가족여행', '기차여행', '나들이', '나홀로여행', '먹거리', '쇼핑', '시장맛집', '아이와함께']",https://cdn.visitkorea.or.kr/img/call?cmd=VIEW&id=e2fd75b6-d4b3-4ecf-89bf-85d8e62d42bf&thumb,전라남도 장흥군 장흥읍 토요시장3길 15,34.67636797,126.9028619,
243,"과역 5일장 (5, 10일)",전남 고흥군,061-832-8733,"['가족여행', '과역5일장', '사계절', '쇼핑', '시장맛집', '아이와함께', '재래시장']",https://cdn.visitkorea.or.kr/img/call?cmd=VIEW&id=d95196d1-40a2-494e-8e21-921af979dc0b&thumb,전라남도 고흥군 과역면 시장안길 15,34.67945246,127.3622598,
244,보향다원,전남 보성군,061-852-0626,"['가족여행', '기념품판매', '기차여행', '나들이', '나홀로여행', '보향다원', '쇼핑']",https://cdn.visitkorea.or.kr/img/call?cmd=VIEW&id=343e6148-5570-409d-8f92-c09d0a077b1c&thumb,전라남도 보성군 보성읍 동암1길 144,34.75729483,127.0761278,
245,동박새꿈정원,전남 여수시,061-681-2107,"['가족여행', '기념품판매', '기차여행', '나들이', '나홀로여행', '동박새꿈정원']",https://cdn.visitkorea.or.kr/img/call?cmd=VIEW&id=19fa29b8-4358-4f91-9fae-7c170d1c7601&thumb,전라남도 여수시 오동도로 238-32,34.74447977,127.7675258,
246,여수 교동시장,전남 여수시,061-666-3778,"['가족과함께', '남녀노소', '상설시장', '새벽시장', '쇼핑', '수산물', '시장', '아이와함께']",https://cdn.visitkorea.or.kr/img/call?cmd=VIEW&id=76d578a7-e141-4cb7-a9cc-15c870abf019&thumb,전라남도 여수시 교동시장1길 17,34.73908203,127.7299176,
247,강진탐진청자,전남 강진군,061-432-7583,"['관광기념품', '기념품판매', '도자기', '쇼핑', '청자']",https://cdn.visitkorea.or.kr/img/call?cmd=VIEW&id=dbbc371e-5b79-46af-8e14-64c9e67aab6b&thumb,전라남도 강진군 대구면 청자촌길 20-16,34.50685054,126.8011591,
248,보성농협녹차잡곡사업소,전남 보성군,061-852-5640,"['가족여행', '기념품판매', '보성녹차', '보성농협녹차잡곡사업소', '쇼핑', '전라권']",https://cdn.visitkorea.or.kr/img/call?cmd=VIEW&id=11520cc1-d4d5-46b6-899e-087d206bf9f2&thumb,전라남도 보성군 보성읍 유촌길 151,34.75312709,127.0342106,
249,강진탐진청자 [한국관광 품질인증/Korea Quality],전남 강진군,061-433-7582,"['강진추천쇼핑', '강진탐진청자', '쇼핑', '전남추천쇼핑', '한국관광품질인증']",https://cdn.visitkorea.or.kr/img/call?cmd=VIEW&id=eb0e2dbc-9da7-4c88-9046-fc4a3c881753&thumb,전라남도 강진군 대구면 청자촌길 20-16,34.50685054,126.8011591,
250,"벌교장 (4, 9일)",전남 보성군,061-850-8110,"['가족여행', '벌교장', '사계절', '쇼핑', '시장맛집', '아이와함께', '재래시장', '전라권']",https://cdn.visitkorea.or.kr/img/call?cmd=VIEW&id=3eb28239-0137-4fcf-beee-033dc5d7bef2&thumb,전라남도 보성군 벌교읍 시장1길 15-19,34.84542918,127.34514579999998,
251,"대치장/대전장 (3, 8일)",전남 담양군,061-380-3043,"['가족여행', '대전장', '대치장', '사계절', '쇼핑', '시장맛집', '아이와함께', '재래시장']",https://cdn.visitkorea.or.kr/img/call?cmd=VIEW&id=bd0a647b-6199-4be8-95c0-33fe41366b7a&thumb,전라남도 담양군 대전면 대치8길 28-12,35.27545595,126.8860809,
252,용문도예,전남 여수시,061-681-0673,"['도예가', '도자기공방', '쇼핑', '전통차']",https://cdn.visitkorea.or.kr/img/call?cmd=VIEW&id=bebdd054-ee80-43dd-a71b-d8c87f63f737&thumb,전라남도 여수시 소라면 화양로 1824-27,34.74161281,127.6280155,
253,구례 콩장,전남 구례군,,"['가족과함께', '구례여행', '산책길', '산책하기', '산책하기좋은곳', '쇼핑', '시장']",https://cdn.visitkorea.or.kr/img/call?cmd=VIEW&id=6f595e0a-3e57-44ae-8a6c-f116c054c01f&thumb,전라남도 구례군 구례읍 서시천로 106,35.2166161,127.4668741,
254,나주목물 (나주반장 김춘식),전남 나주시,061-332-2684,"['무형문화재', '문화재공방', '쇼핑', '전통가구']",https://cdn.visitkorea.or.kr/img/call?cmd=VIEW&id=1b3bd712-6418-4eeb-9605-9ab81de19601&thumb,전라남도 나주시 영산로 5116-12,35.02408502,126.6936505,
255,"강진시장 (4, 9일)",전남 강진군,061-433-9006,"['가족여행', '강진시장', '사계절', '쇼핑', '시장맛집', '아이와함께', '재래시장']",https://cdn.visitkorea.or.kr/img/call?cmd=VIEW&id=3692a53a-a5de-4485-9b6c-b397ec850eba&thumb,전라남도 강진군 강진읍 시장길 17-14,34.6403433,126.7741164,
256,"고흥장 (4, 9일)",전남 고흥군,061-830-5601,"['가족여행', '고흥장', '사계절', '쇼핑', '시장맛집', '아이와함께', '어르신추천코스']",https://cdn.visitkorea.or.kr/img/call?cmd=VIEW&id=84edb4fd-ccc3-4125-abd9-9805f9386590&thumb,전라남도 고흥군 고흥읍 시장천변길 29-16,34.60782338,127.2865226,
257,보성삼베랑,전남 보성군,061-853-6805,"['삼베', '쇼핑', '전통', '전통한복', '특산품']",https://cdn.visitkorea.or.kr/img/call?cmd=VIEW&id=c2cab5ce-3bd3-4161-a8ce-cf5b044f2418&thumb,전라남도 보성군 복내면 옥평길 27-1,34.88571364,127.133174,
258,"석곡장 (5, 10일)",전남 곡성군,061-360-8352,"['가족여행', '사계절', '석곡장', '쇼핑', '시장맛집', '아이와함께', '어르신추천코스']",https://cdn.visitkorea.or.kr/img/call?cmd=VIEW&id=fb61398a-2729-4ab5-bebd-be296eb292ea&thumb,전라남도 곡성군 석곡면 강변로 12,35.13098905,127.254778,
259,"덕양장 (3, 8일)",전남 여수시,061-659-1060,"['가족여행', '덕양장', '사계절', '쇼핑', '시장맛집', '아이와함께', '재래시장', '전라권']",https://cdn.visitkorea.or.kr/img/call?cmd=VIEW&id=36bb48da-e8f4-4583-acab-e0e3f553236a&thumb,전라남도 여수시 소라면 하세동길 9-1,34.79821514,127.6317254,
260,"마량장 (3, 8일)",전남 강진군,061-433-7712,"['가족과함께', '마량장', '사계절', '쇼핑', '아이와함께', '재래시장', '전통시장']",https://cdn.visitkorea.or.kr/img/call?cmd=VIEW&id=2fe79625-3b8a-4282-bc8a-ba11d320b516&thumb,전라남도 강진군 마량면 마량3길 4,34.451918,126.8163158,
261,"무안장 (4, 9일)",전남 무안군,061-450-5601,"['가족여행', '무안장', '사계절', '쇼핑', '시장맛집', '아이와함께', '어르신추천코스']",https://cdn.visitkorea.or.kr/img/call?cmd=VIEW&id=8759e272-bb0e-4c5c-a357-951f3c0969bb&thumb,전라남도 무안군 무안읍 면성1길 134,34.98659503,126.4724902,
262,"완도장 (5, 10일)",전남 완도군,061-550-6173,"['가족과함께', '사계절', '쇼핑', '아이와함께', '완도장', '재래시장', '전통시장']",https://cdn.visitkorea.or.kr/img/call?cmd=VIEW&id=35db22ce-2c9f-4faf-add9-54f00962585d&thumb,전라남도 완도군 완도읍 개포로 34-1,34.31610421,126.7482463,
263,"망운장 (1, 6일)",전남 무안군,061-450-5607,"['가족여행', '망운장', '사계절', '쇼핑', '시장맛집', '아이와함께', '재래시장', '전라권']",https://cdn.visitkorea.or.kr/img/call?cmd=VIEW&id=d8fe4474-a57b-4805-8bcc-ec3edbf1e595&thumb,전라남도 무안군 망운면 조산길 2,35.01148293,126.3919782,
264,"남평장 (1, 6일)",전남 나주시,061-330-8601,"['가족여행', '나들이', '나홀로여행', '남평장', '먹거리', '쇼핑', '시장맛집', '아이와함께']",https://cdn.visitkorea.or.kr/img/call?cmd=VIEW&id=131ce5f6-a9a1-412c-a577-251681e07d2b&thumb,전라남도 나주시 남평읍 남평3로 59-20,35.04661434,126.8451315,
265,"해남장 (1, 6일)",전남 해남군,061-536-4953,"['가족여행', '나들이', '나홀로여행', '먹거리', '쇼핑', '시장맛집', '아이와함께']",https://cdn.visitkorea.or.kr/img/call?cmd=VIEW&id=3322ac7f-b3bf-4be7-aac6-05c319efa2a6&thumb,전라남도 해남군 해남읍 중앙2로 100-2,34.56828504,126.59635520000002,
266,태랑도예원,전남 순천시,061-742-9326,"['쇼핑', '전라권', '체험', '태랑도예원']",https://cdn.visitkorea.or.kr/img/call?cmd=VIEW&id=ef924b84-0eaa-4bdb-93fb-783dafb8e253&thumb,전라남도 순천시 별량면 일출길 141,34.868877000000005,127.483207,
267,"영광장 (1, 6일)",전남 영광군,061-350-5861,"['가족여행', '사계절', '쇼핑', '시장맛집', '아이와함께', '어르신추천코스', '영광장']",https://cdn.visitkorea.or.kr/img/call?cmd=VIEW&id=569ad0f8-e1a5-4650-a732-fdb07ee63646&thumb,전라남도 영광군 영광읍 천년로 1459,35.27350362,126.5030529,
268,"서시장 (4, 9일)",전남 여수시,061-642-6720,"['가족여행', '사계절', '서시장', '쇼핑', '시장맛집', '아이와함께', '재래시장', '전라권']",https://cdn.visitkorea.or.kr/img/call?cmd=VIEW&id=112bf741-6f18-4672-942e-426319eefa02&thumb,전라남도 여수시 좌수영로 16-6,34.74179248,127.7286157,
269,"능주장 / 능주전통시장 (5, 10일)",전남 화순군,061-379-5060,"['가족여행', '능주장', '능주전통시장', '사계절', '쇼핑', '시장맛집', '아이와함께']",https://cdn.visitkorea.or.kr/img/call?cmd=VIEW&id=2f7f1aeb-0aaa-4195-9cc1-9322b7e1bffc&thumb,전라남도 화순군 능주면 관동길 7,34.99053688,126.9591909,
270,흥진상사,전남 여수시,061-663-2158,"['가족여행', '기념품판매', '기차여행', '나들이', '나홀로여행', '쇼핑', '아이와함께']",https://cdn.visitkorea.or.kr/img/call?cmd=VIEW&id=7b6a0a4e-e576-4044-b1d7-ca880d3d4044&thumb,전라남도 여수시 이순신광장로 49,34.73940785,127.7340332,
271,"영암장 (5, 10일)",전남 영암군,061-470-2653,"['가족여행', '사계절', '쇼핑', '시장맛집', '아이와함께', '영암장', '재래시장', '전라권']",https://cdn.visitkorea.or.kr/img/call?cmd=VIEW&id=c3411ef6-dc86-464d-9886-e4d268bb4417&thumb,전라남도 영암군 영암읍 오일시장길 28,34.80123919,126.7005657,
272,청우다원 (청우녹차),전남 보성군,010-3647-4663,"['가족여행', '기념품판매', '기차여행', '나들이', '나홀로여행', '쇼핑', '아이와함께']",https://cdn.visitkorea.or.kr/img/call?cmd=VIEW&id=d2fa4ff2-eda3-4411-a5f5-ed2d1ee24380&thumb,전라남도 보성군 보성읍 사동길 52-2,34.72498073,127.0896825,
273,"십일시장 (4, 10일)",전남 진도군,061-540-3605,"['가족여행', '사계절', '쇼핑', '시장맛집', '십일시장', '아이와함께', '어르신추천코스']",https://cdn.visitkorea.or.kr/img/call?cmd=VIEW&id=cefe1ae7-58a3-4ee1-a88d-3a890a5c2095&thumb,전라남도 진도군 임회면 석교리 245-1,34.41091834,126.1919995,
274,충주산방,전남 나주시,061-336-3851,"['나주', '도자기', '도자기판매장', '쇼핑']",https://cdn.visitkorea.or.kr/img/call?cmd=VIEW&id=548d88dd-85f1-4f97-bb33-bf91e3e21763&thumb,전라남도 나주시 공산면 금강로 253,34.96223168,126.5908319,
275,무안요 / 무안요전통분청사기전수관,전남 무안군,061-452-3513,"['분청사기', '생활자기', '쇼핑', '수작업']",https://cdn.visitkorea.or.kr/img/call?cmd=VIEW&id=2a9a9531-bd5d-4e25-8d91-53e0387e44bc&thumb,전라남도 무안군 몽탄면 몽탄로 940-1,34.92358553,126.4995067,
276,"공산장 (1, 6일)",전남 나주시,061-339-3683,"['가족과함께', '공산장', '사계절', '쇼핑', '아이와함께', '재래시장', '전통시장']",https://cdn.visitkorea.or.kr/img/call?cmd=VIEW&id=2508c24b-3461-4ee0-bfc8-ba69ab0ac21d&thumb,전라남도 나주시 공산면 공산로 120,34.94238552,126.6090415,
277,"예당장 (5, 10일)",전남 보성군,061-853-7031,"['가족여행', '기차여행', '나들이', '나홀로여행', '먹거리', '쇼핑', '시장맛집', '아이와함께']",https://cdn.visitkorea.or.kr/img/call?cmd=VIEW&id=c3678cae-9844-4701-8bed-2ba4e0c517da&thumb,전라남도 보성군 득량면 예당길 160-55,34.778649200000004,127.1993357,
278,"영산포풍물시장/영산장 (5, 10일)",전남 나주시,061-339-8724,"['쇼핑', '영산장', '오일장', '전라권', '전통시장']",https://cdn.visitkorea.or.kr/img/call?cmd=VIEW&id=4dacf83d-f490-486f-a85c-01f95e4b7d64&thumb,전라남도 나주시 풍물시장2길 12-14,34.99199963,126.7072673,
279,"신북장 (3, 8일)",전남 영암군,061-470-2604,"['가족여행', '사계절', '쇼핑', '시장맛집', '신북장', '아이와함께', '어르신추천코스']",https://cdn.visitkorea.or.kr/img/call?cmd=VIEW&id=301588bb-f38f-4287-ae97-71ff544f1846&thumb,전라남도 영암군 신북면 황금동로 78,34.8885919,126.6922237,
280,"남리장 (3, 8일)",전남 해남군,061-531-3462,"['가족여행', '남리장', '사계절', '쇼핑', '시장맛집', '아이와함께', '재래시장', '전라권']",https://cdn.visitkorea.or.kr/img/call?cmd=VIEW&id=57e76a68-875f-42c3-8f49-1bdc35f52688&thumb,전라남도 해남군 황산면 시등로 111-11,34.57532366,126.43248359999998,
281,"남창장 (2, 7일)",전남 해남군,061-533-0981,"['가족여행', '남창장', '사계절', '쇼핑', '시장맛집', '아이와함께', '어르신추천코스']",https://cdn.visitkorea.or.kr/img/call?cmd=VIEW&id=34ac32ac-2a42-44f0-933d-e91d62c6e7a0&thumb,전라남도 해남군 북평면 달량진길 48-11,34.40453577,126.6267154,
282,"창평장 (5, 10일)",전남 담양군,061-382-8801,"['가족여행', '사계절', '쇼핑', '시장맛집', '아이와함께', '재래시장', '전라권', '전통시장']",https://cdn.visitkorea.or.kr/img/call?cmd=VIEW&id=f4ca93d6-f47c-4b9b-9743-5e532bd8a548&thumb,전라남도 담양군 창평면 사동길 14-25,35.23810681,127.0149068,
283,강진 고려청자사업소,전남 강진군,061-432-9831,['쇼핑'],https://cdn.visitkorea.or.kr/img/call?cmd=VIEW&id=3fc60d61-7cd1-45b2-807a-1b54491790ca&thumb,전라남도 강진군 대구면 청자촌길 33,34.50866203,126.8008374,
284,두리토방(몽평요),전남 무안군,061-453-6788,"['도예교실', '도자기', '쇼핑', '전통찻집']",https://cdn.visitkorea.or.kr/img/call?cmd=VIEW&id=e1cc7811-d32b-4139-b168-c5c27d454475&thumb,전라남도 무안군 몽탄면 신창길 4-3,34.91501719,126.5063459,
285,"독천장(4, 9일)",전남 영암군,061-470-2609,"['가족여행', '독천장', '사계절', '쇼핑', '시장맛집', '아이와함께', '재래시장', '전라권']",https://cdn.visitkorea.or.kr/img/call?cmd=VIEW&id=ecaf2f91-d661-4c7f-a525-d473a8f82566&thumb,전라남도 영암군 학산면 독천1길 5,34.72449458,126.5668315,
286,"구림장 (2, 7일)",전남 영암군,061-470-2607,"['가족여행', '구림장', '사계절', '쇼핑', '시장맛집', '아이와함께', '어르신추천코스']",https://cdn.visitkorea.or.kr/img/call?cmd=VIEW&id=238f2321-56b0-4b57-ba76-66a89b62870a&thumb,전라남도 영암군 군서면 도갑사로 31-13,34.76237653,126.6353421,
287,돌산갓 영농조합법인,전남 여수시,061-644-0636,"['가족여행', '기념품판매', '기차여행', '나들이', '나홀로여행', '돌산갓영농조합법인']",https://cdn.visitkorea.or.kr/img/call?cmd=VIEW&id=e54c4b8b-19de-44ac-a2fb-f33dc1d82373&thumb,전라남도 여수시 돌산읍 두문포길 6,34.64015693,127.7874441,
288,금영돗자리,전남 함평군,061-323-0313,"['돗자리', '배게', '쇼핑', '함평']",https://cdn.visitkorea.or.kr/img/call?cmd=VIEW&id=7d283fdb-1a26-4f00-b9a9-ae16bcb91129&thumb,전라남도 함평군 해보면 밀재로 1286-21,35.18053469,126.6041452,
289,"용산장 (1, 6일)",전남 장흥군,061-860-0704,"['가족과함께', '사계절', '쇼핑', '아이와함께', '용산장', '재래시장', '전통시장']",https://cdn.visitkorea.or.kr/img/call?cmd=VIEW&id=d5d3b1b0-aa0a-4f9b-a42c-dae7f28cd550&thumb,전라남도 장흥군 용산면 용인길 4,34.61491088,126.9153133,
290,"조성시장 (3, 8일)",전남 보성군,061-857-9034,"['쇼핑', '재래시장', '전라권', '조성시장']",https://cdn.visitkorea.or.kr/img/call?cmd=VIEW&id=9750d9eb-c8b5-46ed-870a-a1fc135116c0&thumb,전라남도 보성군 조성면 조성로 90-5,34.80669313,127.2455901,
291,금풍공예사,전남 곡성군,061-363-0630,"['고급가구점', '쇼핑', '수공업', '예술의거리']",https://cdn.visitkorea.or.kr/img/call?cmd=VIEW&id=a4c65390-b6e6-4c23-a843-f8e0ae382455&thumb,전라남도 곡성군 겸면 산이재로 681,35.24420549,127.1921524,
292,"이양장 / 이양재래시장 (4, 9일)",전남 화순군,061-370-1605,"['가족여행', '기차여행', '나들이', '나홀로여행', '먹거리', '쇼핑', '시장맛집', '아이와함께']",https://cdn.visitkorea.or.kr/img/call?cmd=VIEW&id=null&thumb,전라남도 화순군 이양면 이양로 29-12,34.88308307,126.9873029,
