,name,region,tel,keyword,photo,address,lat,lon,Unnamed: 0
0,제주돌문화공원,제주 제주시,064-710-7731,"['17_18한국관광100선', '걷기길', '걷기여행', '문화시설', '사계절', '아이와함께']",https://cdn.visitkorea.or.kr/img/call?cmd=VIEW&id=74be8475-ae61-4f45-a37e-4c72b233b67b&thumb,제주특별자치도 제주시 조천읍 남조로 2023,33.45136457,126.65671100000002,
1,제주도민속자연사박물관,제주 제주시,064-710-7708,"['가족여행', '데이트코스', '문화시설', '박물관', '섬여행', '아이와함께', '연인과함께']",https://cdn.visitkorea.or.kr/img/call?cmd=VIEW&id=70714f1b-c087-452b-a6fb-ea5ae0065bba&thumb,제주특별자치도 제주시 삼성로 40,33.50563037,126.53172409999999,
2,제주 세계자연유산센터,제주 제주시,1800-2002,"['가족여행', '가족체험여행', '교과서속여행', '문화시설', '사계절', '실내여행지']",https://cdn.visitkorea.or.kr/img/call?cmd=VIEW&id=033011ba-560c-4903-b8c9-b1274317584e&thumb,제주특별자치도 제주시 조천읍 선교로 569-36,33.45691987,126.7147521,
3,초콜릿 박물관,제주 서귀포시,064-792-3121,"['가족여행', '단체관람', '문화시설', '아이와함께', '연인과함께', '이색체험', '제주권']",https://cdn.visitkorea.or.kr/img/call?cmd=VIEW&id=4044c045-7b30-4102-806a-34ebb65ed1db&thumb,제주특별자치도 서귀포시 대정읍 일주서로3000번길 144,33.25705283,126.22993290000001,
4,제주테지움,제주 제주시,064-799-4820,"['가족여행', '문화시설', '미세먼지_피하는_실내여행', '박물관', '사계절', '실내관광지']",https://cdn.visitkorea.or.kr/img/call?cmd=VIEW&id=7c704041-17e7-4462-a866-725837d5e37f&thumb,제주특별자치도 제주시 애월읍 평화로 2159,33.4122175,126.3935364,
5,피규어뮤지엄 제주,제주 제주시,064-792-2244,"['남녀노소', '문화시설', '미세먼지_피하는_실내여행', '실내여행지', '아이와함께']",https://cdn.visitkorea.or.kr/img/call?cmd=VIEW&id=28a6f903-1217-4cd3-9ad3-622bb659d143&thumb,제주특별자치도 서귀포시 안덕면 한창로 243,33.28190379,126.35535690000002,
6,김영갑 갤러리(두모악),제주 서귀포시,064-784-9907,"['15_16한국관광100선', '가족여행', '기념품판매', '김영갑갤러리', '두모악']",https://cdn.visitkorea.or.kr/img/call?cmd=VIEW&id=79b6bbad-5578-48fe-9aef-1968d14a9250&thumb,제주특별자치도 서귀포시 성산읍 삼달로 137,33.37236763,126.85424579999999,
7,국립제주박물관,제주 제주시,064-720-8000,"['가족여행', '국립제주박물관', '문화시설', '미세먼지_피하는_실내여행', '실내관광지']",https://cdn.visitkorea.or.kr/img/call?cmd=VIEW&id=609f9323-983d-43c3-bc0f-be30f2f29fe1&thumb,제주특별자치도 제주시 일주동로 17,33.51379671,126.5479096,
8,아쿠아플라넷 제주,제주 서귀포시,064-780-0900,"['가족여행', '문화시설', '문화행사', '미세먼지_피하는_실내여행', '복합문화공간']",https://cdn.visitkorea.or.kr/img/call?cmd=VIEW&id=73882fc4-5a44-4d99-950f-066129e48ebb&thumb,제주특별자치도 서귀포시 성산읍 섭지코지로 95,33.43297686,126.9277955,
9,제주서커스월드공연장,제주 서귀포시,064-794-4444,"['문화시설', '실내여행지', '아이와함께', '어린이날가볼만한곳', '이색체험', '제주권']",https://cdn.visitkorea.or.kr/img/call?cmd=VIEW&id=3fdb57bc-0321-4568-8a73-5d9d034640ab&thumb,제주특별자치도 서귀포시 안덕면 동광로 214,33.31438574,126.3448192,
10,박물관은 살아있다(제주중문점),제주 서귀포시,064-805-0888,"['데이트코스', '문화시설', '박물관은살아있다', '사계절', '사진찍기', '사진찍기좋은곳']",https://cdn.visitkorea.or.kr/img/call?cmd=VIEW&id=00de075d-ea82-45f3-8937-d15d6d057a2f&thumb,제주특별자치도 서귀포시 중문관광로 42,33.25490055,126.40977029999999,
11,제주민속촌,제주 서귀포시,064-787-4501,"['가족과함께', '교육여행', '문화시설', '사계절', '아이와함께', '역사', '역사공부']",https://cdn.visitkorea.or.kr/img/call?cmd=VIEW&id=2f98d10e-edd5-4ff0-9ffd-0f5005e1054e&thumb,제주특별자치도 서귀포시 표선면 민속해안로 631-34,33.32128714,126.8430882,
12,해녀박물관,제주 제주시,064-782-9898,"['교과서속여행', '남녀노소', '문화시설', '미세먼지_피하는_실내여행', '박물관']",https://cdn.visitkorea.or.kr/img/call?cmd=VIEW&id=9b8b681a-23a2-462c-8815-ca3e02a9c23f&thumb,제주특별자치도 제주시 구좌읍 해녀박물관길 26,33.52360988,126.8634256,
13,방림원,제주 제주시,064-773-0090,"['가족여행', '문화시설', '방림원', '산책하기좋은곳', '식물원', '아이와함께', '연인과함께']",https://cdn.visitkorea.or.kr/img/call?cmd=VIEW&id=a5e1dc6d-2fcb-4e76-bf01-999b5b50c673&thumb,제주특별자치도 제주시 한경면 용금로 864,33.33722842,126.26851289999999,
14,제주 추사관,제주 서귀포시,064-710-6802,"['가족체험여행', '교과서속여행', '기념관', '문화시설', '박물관', '역사공부', '역사관광지']",https://cdn.visitkorea.or.kr/img/call?cmd=VIEW&id=8f21a88e-9cc1-41be-89c0-de2217706888&thumb,제주특별자치도 서귀포시 대정읍 추사로 44,33.24979614,126.278494,
15,제주유리박물관,제주 서귀포시,064-792-6262,"['문화시설', '박물관', '사진찍기', '사진찍기좋은곳', '사진촬영', '아이와함께']",https://cdn.visitkorea.or.kr/img/call?cmd=VIEW&id=6e01fac3-3ffa-4fa1-bff4-713974df2443&thumb,제주특별자치도 서귀포시 중산간서로 1403,33.27851386,126.3701574,
16,테디베어뮤지엄 제주,제주 서귀포시,064-738-7600,"['가족여행', '겨울방학', '나들이', '데이트코스', '문화시설', '박물관', '아이와함께']",https://cdn.visitkorea.or.kr/img/call?cmd=VIEW&id=f5921b4d-a60c-4720-8fa4-1969e7f628f6&thumb,제주특별자치도 서귀포시 중문관광로110번길 31,33.25030323,126.4121588,
17,제주라프(Light Art Flash),제주 제주시,064-784-9030,"['문화시설', '야경좋은곳', '제주가볼만한곳', '제주도관광지']",https://cdn.visitkorea.or.kr/img/call?cmd=VIEW&id=5600cc08-3fd6-450a-9fd0-6cfb6b287da0&thumb,제주특별자치도 제주시 조천읍 선교로 115-1,33.48676771,126.7068936,
18,믿거나 말거나 박물관,제주 서귀포시,064-738-3003,"['겨울방학가볼만한곳', '문화시설', '믿거나말거나박물관', '박물관', '사계절']",https://cdn.visitkorea.or.kr/img/call?cmd=VIEW&id=309153a4-ee3e-4a00-a4ca-69c14ecee2e1&thumb,제주특별자치도 서귀포시 중문관광로110번길 32,33.25121501,126.4128217,
19,본태박물관,제주 서귀포시,064-792-8108,"['가족여행', '가족체험여행', '데이트코스', '문화시설', '박물관', '본태박물관']",https://cdn.visitkorea.or.kr/img/call?cmd=VIEW&id=3c6e9c01-5028-46d8-b767-7de8a2ba9185&thumb,제주특별자치도 서귀포시 안덕면 산록남로762번길 69,33.30395481,126.3925683,
20,드라마월드,제주 제주시,064-792-3777,"['가족체험여행', '기념품판매', '놀이동산&테마파크', '데이트코스', '드라마월드']",https://cdn.visitkorea.or.kr/img/call?cmd=VIEW&id=a9d6f92e-e37a-449a-a69e-8b35170db791&thumb,제주특별자치도 제주시 애월읍 화전길 3,33.35194461,126.3605387,
21,한국야구명예전당,제주 서귀포시,064-760-6411,"['문화시설', '박물관', '이색체험', '제주권', '한국야구명예전당']",https://cdn.visitkorea.or.kr/img/call?cmd=VIEW&id=e7c62599-0db9-4513-bdfb-51d3d691a232&thumb,제주특별자치도 서귀포시 중산간서로 97-1,33.26053675,126.4984486,
22,제주현대미술관,제주 제주시,064-710-7801,"['남녀노소', '문화시설', '문화예술', '미술관', '미술작품', '연인과함께', '예술']",https://cdn.visitkorea.or.kr/img/call?cmd=VIEW&id=58127536-6f9e-4cad-b6f0-f6b2e9cc9a8b&thumb,제주특별자치도 제주시 한경면 저지14길 38,33.34063052,126.26634399999999,
23,김만덕기념관,제주 제주시,064-759-6090,"['가족과함께', '교과서속여행', '기념관', '김만덕기념관', '문화시설', '아이와함께']",https://cdn.visitkorea.or.kr/img/call?cmd=VIEW&id=cae6c5a1-78cb-4b0d-ac4c-2a39b1db3276&thumb,제주특별자치도 제주시 산지로 7,33.51587498,126.53039129999999,
24,제주아트센터,제주 제주시,064-728-1509,"['가족여행', '데이트코스', '문화공간', '문화시설', '문화행사', '복합문화공간']",https://cdn.visitkorea.or.kr/img/call?cmd=VIEW&id=2ff09b49-6e7a-43b4-b931-e7b72e38c349&thumb,제주특별자치도 제주시 오남로 231,33.4751044,126.5155186,
25,제주도립미술관,제주 제주시,064-710-4300,"['문화시설', '문화예술', '문화예술공간', '미술관', '복합문화공간', '산책하기좋은곳']",https://cdn.visitkorea.or.kr/img/call?cmd=VIEW&id=edc46450-a218-4afd-9dae-f72c440ba449&thumb,제주특별자치도 제주시 1100로 2894-78,33.45255002,126.4896861,
26,제주세계성문화박물관,제주 서귀포시,064-739-0059,"['남녀노소', '문화시설', '미세먼지_피하는_실내여행', '박물관', '연인과함께']",https://cdn.visitkorea.or.kr/img/call?cmd=VIEW&id=622b08db-316a-4abd-a9e8-2b61b88d2028&thumb,제주특별자치도 서귀포시 월드컵로 33,33.24621937,126.5092753,
27,트랜스포머 오토봇 얼라이언스 (신화월드),제주 서귀포시,1670-8800,"['가족과함께', '문화시설', '미세먼지_피하는_실내여행', '아이가_좋아하는_여행']",https://cdn.visitkorea.or.kr/img/call?cmd=VIEW&id=38cb415a-ffdb-432c-83c2-087bef5e957c&thumb,제주특별자치도 서귀포시 안덕면 신화역사로304번길 89,33.30275091,126.3176104,
28,이중섭 미술관,제주 서귀포시,064-760-3567,"['기획전시', '나홀로여행', '문화시설', '미술관', '예술', '이중섭미술관', '제주권']",https://cdn.visitkorea.or.kr/img/call?cmd=VIEW&id=49d1e707-6f1c-437a-ac70-b403c54da050&thumb,제주특별자치도 서귀포시 이중섭로 27-3,33.24586163,126.56487460000001,
29,세계자동차&피아노 박물관,제주 서귀포시,064-792-3000,"['무더위_피해_실내여행', '문화시설', '박물관', '세계자동차제주박물관', '아이가_좋아하는_여행']",https://cdn.visitkorea.or.kr/img/call?cmd=VIEW&id=643d9798-fd1c-44d6-998c-bc2ef0f46cb9&thumb,제주특별자치도 서귀포시 안덕면 중산간서로 1610,33.28294238,126.34901040000001,
30,서귀포천문과학문화관,제주 서귀포시,064-739-9701,"['가족여행', '겨울방학가볼만한곳', '문화시설', '미세먼지_피하는_실내여행']",https://cdn.visitkorea.or.kr/img/call?cmd=VIEW&id=dcd3f27f-9abc-4991-ac74-003c596ac0a2&thumb,제주특별자치도 서귀포시 1100로 506-1,33.28885198,126.4604137,
31,그리스신화박물관,제주 제주시,064-773-5800,"['교과서속여행', '교육여행', '교육체험', '교육프로그램', '그리스신화박물관']",https://cdn.visitkorea.or.kr/img/call?cmd=VIEW&id=d155e062-5eda-4232-983f-dc726032a41b&thumb,제주특별자치도 제주시 한림읍 광산로 942,33.34808613,126.3575213,
32,제주항일기념관,제주 제주시,064-783-2008,"['가족여행', '교과서속여행', '기념관', '단체관람', '문화시설', '아이와함께', '제주권']",https://cdn.visitkorea.or.kr/img/call?cmd=VIEW&id=64febf42-fed0-46c5-8f00-820c4818ec27&thumb,제주특별자치도 제주시 조천읍 신북로 303,33.54102729,126.64072549999999,
33,헬로키티아일랜드,제주 서귀포시,064-792-6114,"['가족과함께', '남녀노소', '문화시설', '사계절', '아이가_좋아하는_여행', '아이와함께']",https://cdn.visitkorea.or.kr/img/call?cmd=VIEW&id=d9a684ad-c0ce-4b1a-819c-7d1405e417fb&thumb,제주특별자치도 서귀포시 안덕면 한창로 340,33.29009955,126.35208109999999,
34,조안베어뮤지엄,제주 서귀포시,064-739-1024,"['남녀노소', '문화시설', '미세먼지_피하는_실내여행', '박물관', '사진찍기', '사진찍기좋은곳']",https://cdn.visitkorea.or.kr/img/call?cmd=VIEW&id=1359b802-f2fe-4511-90ec-0223cad122dc&thumb,제주특별자치도 서귀포시 대포로 113,33.24025015,126.4341101,
35,캐릭파크,제주 제주시,064-784-3500,"['가족여행', '문화시설', '사계절', '실내여행지', '아이와함께', '이색체험', '인생샷']",https://cdn.visitkorea.or.kr/img/call?cmd=VIEW&id=fcfc6c64-4092-4be2-94d3-f13924ced9da&thumb,제주특별자치도 제주시 조천읍 선교로 266,33.47927741,126.70053290000001,
36,제주교육박물관,제주 제주시,064-720-9114,"['문화시설', '박물관', '섬여행', '아이와함께', '자연좋은곳', '전시관', '전통&역사문화체험']",https://cdn.visitkorea.or.kr/img/call?cmd=VIEW&id=8490a0a1-e31c-4a81-b1b4-2d1b135b37c1&thumb,제주특별자치도 제주시 오복4길 25,33.49439315,126.5382962,
37,제주 탑동해변공연장,제주 제주시,064-728-2711,"['가족여행', '공연장', '나들이', '데이트코스', '문화시설', '섬여행', '아이와함께']",https://cdn.visitkorea.or.kr/img/call?cmd=VIEW&id=78c1e1bf-7cc9-4a29-96e1-14527f3cac05&thumb,제주특별자치도 제주시 삼도2동 1262,33.518233,126.524149,
38,건강과 성 박물관(제주),제주 서귀포시,064-792-5700,"['건강과성박물관', '기념품판매', '문화시설', '사계절', '연인과함께', '이색체험']",https://cdn.visitkorea.or.kr/img/call?cmd=VIEW&id=330d45c2-e008-48f7-81b3-ee34dd1b1098&thumb,제주특별자치도 서귀포시 안덕면 일주서로 1611,33.25484697,126.34658370000001,
39,닥종이인형박물관,제주 서귀포시,064-739-3906,"['닥종이인형박물관', '문화시설', '박물관', '실내여행지', '아이와함께', '이색체험']",https://cdn.visitkorea.or.kr/img/call?cmd=VIEW&id=603cb2e4-8200-43cf-a145-36b228c67304&thumb,제주특별자치도 서귀포시 월드컵로 33,33.24621937,126.5092753,
40,제주특별자치도립기당미술관,제주 서귀포시,064-733-1586,"['가족여행', '기당미술관', '데이트코스', '문화시설', '미술관', '섬여행', '연인과함께']",https://cdn.visitkorea.or.kr/img/call?cmd=VIEW&id=8cda03ba-031b-4d11-9890-6b990e5a8ff6&thumb,제주특별자치도 서귀포시 남성중로153번길 15,33.24484755,126.55119579999999,
41,조천읍도서관,제주 제주시,064-728-1505,"['교육프로그램', '남녀노소', '독서', '독서여행', '문화공간', '문화시설', '복합문화공간']",https://cdn.visitkorea.or.kr/img/call?cmd=VIEW&id=e71cc57f-e532-48ec-af40-20317fa4ed21&thumb,제주특별자치도 제주시 조천읍 일주동로 1189,33.5377042,126.6676196,
42,성산포 해녀물질공연장,제주 서귀포시,064-783-0959,"['가족과함께', '경치좋은곳', '문화시설', '바다경치', '바다내음', '아이와함께']",https://cdn.visitkorea.or.kr/img/call?cmd=VIEW&id=b7a605b6-e512-4fed-8044-4caf47c151bf&thumb,제주특별자치도 서귀포시 성산읍 일출로 284-34,33.4628825,126.9388483,
43,신영영화박물관 무비스타,제주 서귀포시,064-805-0008,"['나들이', '문화시설', '박물관', '신영영화박물관무비스타', '여름방학가볼만한곳']",https://cdn.visitkorea.or.kr/img/call?cmd=VIEW&id=cf1bd45e-4930-4224-ac1f-7ba8c5f52f52&thumb,제주특별자치도 서귀포시 남원읍 태위로 536,33.27515993,126.7082084,
44,돌거북이수석박물관,제주 제주시,064-772-4567,"['가족과함께', '공예품', '남녀노소', '문화시설', '아이와함께', '옥공예', '이색체험']",https://cdn.visitkorea.or.kr/img/call?cmd=VIEW&id=7f956809-b365-4206-84d2-7b6d70748666&thumb,제주특별자치도 제주시 한경면 명이2길 68,33.31589531,126.26221880000001,
45,제주난타전용관,제주 제주시,064-723-8878,"['가족과함께', '난타', '남녀노소', '문화시설', '실내여행지', '아이와함께', '연인과함께']",https://cdn.visitkorea.or.kr/img/call?cmd=VIEW&id=undefined&thumb,제주특별자치도 제주시 선돌목동길 56-26,33.44582735,126.5479104,
46,서복전시관,제주,064-763-3225,"['가족여행', '문화시설', '서복전시관', '아이와함께', '전시관', '전통&역사문화체험']",https://cdn.visitkorea.or.kr/img/call?cmd=VIEW&id=12d64aa1-31a4-4c82-8af7-bd6f7f742701&thumb,제주특별자치도 서귀포시 칠십리로 156-8,33.24480923,126.5706571,
47,제주평화박물관,제주 제주시,064-772-2500,"['가족여행', '교과서속여행', '문화시설', '박물관', '아이와함께', '제주평화박물관']",https://cdn.visitkorea.or.kr/img/call?cmd=VIEW&id=e3e38f17-e2de-4f6a-acbf-42daca632d3a&thumb,제주특별자치도 제주시 한경면 청수서5길 63,33.30581859,126.249548,
48,삼매봉도서관,제주 서귀포시,064-733-1524,"['공공시설', '독서', '독서여행', '문화공간', '문화시설', '복합문화공간', '삼매봉도서관']",https://cdn.visitkorea.or.kr/img/call?cmd=VIEW&id=d3d69ff4-bfd7-4fbf-a644-6bec72dfb1e2&thumb,제주특별자치도 서귀포시 남성중로153번길 15,33.24484755,126.55119579999999,
49,하멜상선전시관,제주 서귀포시,064-794-2940,"['네덜란드', '문화시설', '제주도', '하멜상선전시관', '하멜표류기']",https://cdn.visitkorea.or.kr/img/call?cmd=VIEW&id=7bd2db22-bb28-4177-9cae-07e0fa14ae13&thumb,제주특별자치도 서귀포시 안덕면 사계남로216번길 24-30,33.23342738,126.3136956,
50,제주국제평화센터,제주 서귀포시,064-735-6550,"['교과서속여행', '문화시설', '박물관', '사계절', '실내여행지', '아이와함께', '이색체험']",https://cdn.visitkorea.or.kr/img/call?cmd=VIEW&id=280394e3-d303-47be-a787-b94880b7a59e&thumb,제주특별자치도 서귀포시 중문관광로 227-24,33.24438838,126.4220223,
51,제주문화원,제주 제주시,064-722-0203,"['문화시설', '복합문화공간', '열린문화공간', '제주문화원', '친구와 함께']",https://cdn.visitkorea.or.kr/img/call?cmd=VIEW&id=746a4da7-fffd-4735-b308-1bf215a23b74&thumb,제주특별자치도 제주시 중앙로 2,33.51814757,126.5239547,
52,제주 문화예술진흥원,제주 제주시,064-710-7632,"['가족여행', '공연장', '나들이', '데이트코스', '문화시설', '뮤지컬', '섬여행', '실내여행지']",https://cdn.visitkorea.or.kr/img/call?cmd=VIEW&id=475c716f-77c3-4034-8600-5231e0ad29d8&thumb,제주특별자치도 제주시 동광로 69,33.50444397,126.53517240000002,
53,서귀포문화원,제주 서귀포시,064-733-3789,"['문화시설', '문화원', '사계절', '서귀포문화원', '실내여행지', '아이와함께', '제주권']",https://cdn.visitkorea.or.kr/img/call?cmd=VIEW&id=1f8bc764-7b31-4a33-9193-43e02092af07&thumb,제주특별자치도 서귀포시 동홍로 31-7,33.25179835,126.56645800000001,
54,아프리카 박물관,제주 서귀포시,064-738-6565,"['문화시설', '박물관', '아이와함께', '아프리카박물관', '이색체험', '자연좋은곳']",https://cdn.visitkorea.or.kr/img/call?cmd=VIEW&id=1711093f-aa5a-4c91-b825-96312e087509&thumb,제주특별자치도 서귀포시 이어도로 49,33.23997655,126.4288137,
55,제주돌마을공원 수석전시관,제주 제주시,064-772-4007,"['가족과 함께', '문화시설', '수석전시관', '이색체험지', '제주돌마을공원']",https://cdn.visitkorea.or.kr/img/call?cmd=VIEW&id=4323c70c-3ac1-4351-b580-75973631376d&thumb,제주특별자치도 제주시 한림읍 금능남로 421,33.35378407,126.2536923,
56,고흐의정원,제주 서귀포시,064-783-6700,"['고흐의정원', '문화시설', '서귀포가볼만한곳', '이색전시']",https://cdn.visitkorea.or.kr/img/call?cmd=VIEW&id=26e81899-8643-407b-8a16-974448eda5fe&thumb,제주특별자치도 서귀포시 성산읍 삼달신풍로 132,33.37339953,126.84371750000001,
57,갓전시관,제주 제주시,064-782-8778,"['갓전시관', '공예', '공예품', '무더위_피해_실내여행', '문화시설', '박물관', '실내관광지']",https://cdn.visitkorea.or.kr/img/call?cmd=VIEW&id=bdd79b6f-0d23-4630-80c5-de00e962149d&thumb,제주특별자치도 제주시 조천읍 남조로 1904,33.43721075,126.67069359999999,
58,제주국제컨벤션센터,제주 서귀포시,064-735-1000,"['문화시설', '복합문화공간', '사계절', '음악회', '제주국제컨벤션센터', '제주권']",https://cdn.visitkorea.or.kr/img/call?cmd=VIEW&id=9402ea0f-4877-4d4f-8e80-3e63bc05ee05&thumb,제주특별자치도 서귀포시 중문관광로 224,33.24128964,126.4244429,
59,세계조가비박물관,제주 서귀포시,064-762-5551,"['겨울방학에가볼만한곳', '문화시설', '박물관', '세계조가비박물관', '아이와함께']",https://cdn.visitkorea.or.kr/img/call?cmd=VIEW&id=f05f74e6-b2e6-4f4f-92b6-c303524ef17d&thumb,제주특별자치도 서귀포시 태평로 284,33.24744266,126.55162949999999,
60,제주 생태문화전시관 더플래닛,제주 서귀포시,064-798-2000,"['문화시설', '생태문화전시관', '아이와함께', '제주권', '제주생태문화전시관']",https://cdn.visitkorea.or.kr/img/call?cmd=VIEW&id=571f33ad-624e-498e-8ec0-1c9cf6ca4472&thumb,제주특별자치도 서귀포시 천제연로 70,33.255393,126.413049,
61,법환동 청소년문화의집,제주 서귀포시,064-738-4116,"['문화공간', '문화시설', '문화행사', '법환동청소년문화의집', '복합문화공간']",https://cdn.visitkorea.or.kr/img/call?cmd=VIEW&id=4dba1300-b7e5-4343-b12b-a726dccdd8a7&thumb,제주특별자치도 서귀포시 막숙포로 70-1,33.23554979,126.51412759999998,
62,봉황솟대박물관,제주 제주시,064-772-4567,"['가족과함께', '공예체험', '공예품', '남녀노소', '목공예', '문화시설', '아이와함께']",https://cdn.visitkorea.or.kr/img/call?cmd=VIEW&id=4094dc86-16c7-4a6d-bfa4-231586050024&thumb,제주특별자치도 제주시 한경면 명이2길 66,33.31592159,126.2625912,
63,제주통일관,제주 제주시,064-751-0191,"['교과서속여행', '문화시설', '실내여행지', '아이와함께', '역사', '전시관', '제주권']",https://cdn.visitkorea.or.kr/img/call?cmd=VIEW&id=undefined&thumb,제주특별자치도 제주시 신산로9길 4 ,33.50787107,126.5344436,
64,왈종미술관,제주 서귀포시,064-763-3600,"['남녀노소', '문화시설', '문화예술', '문화예술공간', '미세먼지_피하는_실내여행']",https://cdn.visitkorea.or.kr/img/call?cmd=VIEW&id=0cbbbda8-56b0-4f5e-8def-e08eca0d73e3&thumb,제주특별자치도 서귀포시 칠십리로214번길 30,33.24530212,126.5736629,
65,오설록 티뮤지엄,제주 서귀포시,064-794-5312,"['가족과함께', '남녀노소', '문화시설', '아이와함께', '오설록', '오설록티뮤지엄']",https://cdn.visitkorea.or.kr/img/call?cmd=VIEW&id=cedd5fed-3df6-4071-a983-33fc96e547c9&thumb,제주특별자치도 서귀포시 안덕면 신화역사로 15,33.30591966,126.2893737,
66,자연사랑미술관,제주 서귀포시,064-787-3110,"['기획전시', '문화시설', '문화예술', '문화예술공간', '복합문화공간', '상설전시']",https://cdn.visitkorea.or.kr/img/call?cmd=VIEW&id=859c59d1-459b-42c8-b535-4b942e66cda2&thumb,제주특별자치도 서귀포시 표선면 가시로613번길 46,33.35564999,126.7719331,
67,제주항공우주박물관,제주 서귀포시,064-800-2000,"['가족과함께', '문화시설', '아이와함께', '이색체험', '제주항공우주박물관']",https://cdn.visitkorea.or.kr/img/call?cmd=VIEW&id=0bc5a7f7-acef-412f-a755-e6e0f221c7a2&thumb,제주특별자치도 서귀포시 안덕면 녹차분재로 218,33.304207399999996,126.2996615,
68,제주 세계자연유산센터,제주 제주시,1800-2002,"['가족여행', '가족체험여행', '교과서속여행', '문화시설', '사계절', '실내여행지']",https://cdn.visitkorea.or.kr/img/call?cmd=VIEW&id=033011ba-560c-4903-b8c9-b1274317584e&thumb,제주특별자치도 제주시 조천읍 선교로 569-36,33.45691987,126.7147521,
69,제주테지움,제주 제주시,064-799-4820,"['가족여행', '문화시설', '미세먼지_피하는_실내여행', '박물관', '사계절', '실내관광지']",https://cdn.visitkorea.or.kr/img/call?cmd=VIEW&id=7c704041-17e7-4462-a866-725837d5e37f&thumb,제주특별자치도 제주시 애월읍 평화로 2159,33.4122175,126.3935364,
70,피규어뮤지엄 제주,제주 제주시,064-792-2244,"['남녀노소', '문화시설', '미세먼지_피하는_실내여행', '실내여행지', '아이와함께']",https://cdn.visitkorea.or.kr/img/call?cmd=VIEW&id=28a6f903-1217-4cd3-9ad3-622bb659d143&thumb,제주특별자치도 서귀포시 안덕면 한창로 243,33.28190379,126.35535690000002,
71,김영갑 갤러리(두모악),제주 서귀포시,064-784-9907,"['15_16한국관광100선', '가족여행', '기념품판매', '김영갑갤러리', '두모악']",https://cdn.visitkorea.or.kr/img/call?cmd=VIEW&id=79b6bbad-5578-48fe-9aef-1968d14a9250&thumb,제주특별자치도 서귀포시 성산읍 삼달로 137,33.37236763,126.8542458,
72,국립제주박물관,제주 제주시,064-720-8000,"['가족여행', '국립제주박물관', '문화시설', '미세먼지_피하는_실내여행', '실내관광지']",https://cdn.visitkorea.or.kr/img/call?cmd=VIEW&id=609f9323-983d-43c3-bc0f-be30f2f29fe1&thumb,제주특별자치도 제주시 일주동로 17,33.51379671,126.5479096,
73,아쿠아플라넷 제주,제주 서귀포시,064-780-0900,"['가족여행', '문화시설', '문화행사', '미세먼지_피하는_실내여행', '복합문화공간']",https://cdn.visitkorea.or.kr/img/call?cmd=VIEW&id=73882fc4-5a44-4d99-950f-066129e48ebb&thumb,제주특별자치도 서귀포시 성산읍 섭지코지로 95,33.43297686,126.9277955,
74,제주서커스월드공연장,제주 서귀포시,064-794-4444,"['문화시설', '실내여행지', '아이와함께', '어린이날가볼만한곳', '이색체험', '제주권']",https://cdn.visitkorea.or.kr/img/call?cmd=VIEW&id=3fdb57bc-0321-4568-8a73-5d9d034640ab&thumb,제주특별자치도 서귀포시 안덕면 동광로 214,33.31438574,126.3448192,
75,박물관은 살아있다(제주중문점),제주 서귀포시,064-805-0888,"['데이트코스', '문화시설', '박물관은살아있다', '사계절', '사진찍기', '사진찍기좋은곳']",https://cdn.visitkorea.or.kr/img/call?cmd=VIEW&id=00de075d-ea82-45f3-8937-d15d6d057a2f&thumb,제주특별자치도 서귀포시 중문관광로 42,33.25490055,126.4097703,
76,해녀박물관,제주 제주시,064-782-9898,"['교과서속여행', '남녀노소', '문화시설', '미세먼지_피하는_실내여행', '박물관']",https://cdn.visitkorea.or.kr/img/call?cmd=VIEW&id=9b8b681a-23a2-462c-8815-ca3e02a9c23f&thumb,제주특별자치도 제주시 구좌읍 해녀박물관길 26,33.52360988,126.8634256,
77,믿거나 말거나 박물관,제주 서귀포시,064-738-3003,"['겨울방학가볼만한곳', '문화시설', '믿거나말거나박물관', '박물관', '사계절']",https://cdn.visitkorea.or.kr/img/call?cmd=VIEW&id=309153a4-ee3e-4a00-a4ca-69c14ecee2e1&thumb,제주특별자치도 서귀포시 중문관광로110번길 32,33.25121501,126.4128217,
78,드라마월드,제주 제주시,064-792-3777,"['가족체험여행', '기념품판매', '놀이동산&테마파크', '데이트코스', '드라마월드']",https://cdn.visitkorea.or.kr/img/call?cmd=VIEW&id=a9d6f92e-e37a-449a-a69e-8b35170db791&thumb,제주특별자치도 제주시 애월읍 화전길 3,33.35194461,126.3605387,
79,제주도립미술관,제주 제주시,064-710-4300,"['문화시설', '문화예술', '문화예술공간', '미술관', '복합문화공간', '산책하기좋은곳']",https://cdn.visitkorea.or.kr/img/call?cmd=VIEW&id=edc46450-a218-4afd-9dae-f72c440ba449&thumb,제주특별자치도 제주시 1100로 2894-78,33.45255002,126.4896861,
80,서귀포천문과학문화관,제주 서귀포시,064-739-9701,"['가족여행', '겨울방학가볼만한곳', '문화시설', '미세먼지_피하는_실내여행']",https://cdn.visitkorea.or.kr/img/call?cmd=VIEW&id=dcd3f27f-9abc-4991-ac74-003c596ac0a2&thumb,제주특별자치도 서귀포시 1100로 506-1,33.28885198,126.4604137,
81,SOS박물관,제주 서귀포시,064-739-7707,"['SOS박물관', '가족과함께', '관광지', '교과서속여행', '교육체험', '교육프로그램']",https://cdn.visitkorea.or.kr/img/call?cmd=VIEW&id=513a5f8e-d631-4a1a-922d-5a8a90171319&thumb,제주특별자치도 서귀포시 월드컵로 31,33.24706746,126.5073626,
82,펀테마파크,제주 제주시,064-784-9940,"['가족과함께', '가족여행', '관광지', '사계절', '실내여행지', '아이가_좋아하는_여행']",https://cdn.visitkorea.or.kr/img/call?cmd=VIEW&id=5f768fc4-d222-4376-aaf2-c17777a83da2&thumb,제주특별자치도 제주시 조천읍 선교로 266-4,33.47894979,126.7006525,
83,조안베어뮤지엄,제주 서귀포시,064-739-1024,"['남녀노소', '문화시설', '미세먼지_피하는_실내여행', '박물관', '사진찍기', '사진찍기좋은곳']",https://cdn.visitkorea.or.kr/img/call?cmd=VIEW&id=1359b802-f2fe-4511-90ec-0223cad122dc&thumb,제주특별자치도 서귀포시 대포로 113,33.24025015,126.4341101,
84,캐릭파크,제주 제주시,064-784-3500,"['가족여행', '문화시설', '사계절', '실내여행지', '아이와함께', '이색체험', '인생샷']",https://cdn.visitkorea.or.kr/img/call?cmd=VIEW&id=fcfc6c64-4092-4be2-94d3-f13924ced9da&thumb,제주특별자치도 제주시 조천읍 선교로 264,33.47959444,126.7005408,
85,닥종이인형박물관,제주 서귀포시,064-739-3906,"['닥종이인형박물관', '문화시설', '박물관', '실내여행지', '아이와함께', '이색체험']",https://cdn.visitkorea.or.kr/img/call?cmd=VIEW&id=603cb2e4-8200-43cf-a145-36b228c67304&thumb,제주특별자치도 서귀포시 월드컵로 33,33.24621937,126.5092753,
86,제주난타전용관,제주 제주시,064-723-8878,"['가족과함께', '난타', '남녀노소', '문화시설', '실내여행지', '아이와함께', '연인과함께']",https://cdn.visitkorea.or.kr/img/call?cmd=VIEW&id=undefined&thumb,제주특별자치도 제주시 선돌목동길 56-26,33.44582735,126.5479104,
87,제주국제평화센터,제주 서귀포시,064-735-6550,"['교과서속여행', '문화시설', '박물관', '사계절', '실내여행지', '아이와함께', '이색체험']",https://cdn.visitkorea.or.kr/img/call?cmd=VIEW&id=280394e3-d303-47be-a787-b94880b7a59e&thumb,제주특별자치도 서귀포시 중문관광로 227-24,33.24438838,126.4220223,
88,제주 문화예술진흥원,제주 제주시,064-710-7632,"['가족여행', '공연장', '나들이', '데이트코스', '문화시설', '뮤지컬', '섬여행', '실내여행지']",https://cdn.visitkorea.or.kr/img/call?cmd=VIEW&id=475c716f-77c3-4034-8600-5231e0ad29d8&thumb,제주특별자치도 제주시 동광로 69,33.50444397,126.53517240000002,
89,서귀포문화원,제주 서귀포시,064-733-3789,"['문화시설', '문화원', '사계절', '서귀포문화원', '실내여행지', '아이와함께', '제주권']",https://cdn.visitkorea.or.kr/img/call?cmd=VIEW&id=1f8bc764-7b31-4a33-9193-43e02092af07&thumb,제주특별자치도 서귀포시 동홍로 31-7,33.25179835,126.566458,
90,제주통일관,제주 제주시,064-751-0191,"['교과서속여행', '문화시설', '실내여행지', '아이와함께', '역사', '전시관', '제주권']",https://cdn.visitkorea.or.kr/img/call?cmd=VIEW&id=undefined&thumb,제주특별자치도 제주시 신산로9길 4,33.50787107,126.5344436,
91,우도,제주 제주시,064-740-6000,"['19_20한국관광100선', '낚시체험', '레포츠', '우도', '제주도', '한국관광100선']",https://cdn.visitkorea.or.kr/img/call?cmd=VIEW&id=72e7e89e-c928-4b38-8f65-e32caf393adc&thumb,제주특별자치도 제주시 우도면 우도로 153,33.5063307,126.953232,0.0
92,사려니숲길,제주 서귀포시,064-900-8800,"['경치좋은곳', '레포츠', '사려니숲길', '산책코스', '제주도', '트레킹', '휴식여행']",https://cdn.visitkorea.or.kr/img/call?cmd=VIEW&id=f7080182-6fa9-4063-8220-801b517dd825&thumb,제주특별자치도 서귀포시 표선면 가시리 붉은오름 입구,33.403296999999995,126.682666,1.0
93,[제주올레 12코스] 무릉-용수 올레,제주 서귀포시,064-762-2190,"['레포츠', '서귀포', '올레코스', '제주도', '트레킹']",https://cdn.visitkorea.or.kr/img/call?cmd=VIEW&id=48520a21-691e-4f27-94b7-c8ebfe6e182b&thumb,제주특별자치도 서귀포시 대정읍 노을해안로 342-5,33.2522329,126.1956862,2.0
94,[제주올레 18-1코스] 추자도 올레,제주 제주시,064-762-2190,"['레포츠', '제주도트래킹', '제주올레', '제주올레길', '트래킹']",https://cdn.visitkorea.or.kr/img/call?cmd=VIEW&id=576d1524-a92a-4c47-8ad4-294ca865e2f4&thumb,제주특별자치도 제주시 추자면 추자로 26,33.963599,126.2961362,3.0
95,타보카 투명카약,제주 제주시,064-743-0051,"['경험', '남녀노소', '레포츠', '반려견과함께', '반려견동반여행지', '수상레포츠']",https://cdn.visitkorea.or.kr/img/call?cmd=VIEW&id=f9e62031-e062-4538-be36-cde342933735&thumb,제주특별자치도 제주시 애월읍 애월로 11,33.4600513,126.3113009,4.0
96,무릉 자전거 도로(환상자전거길 3구간),제주 제주시,064-728-1523,"['레포츠', '언택트관광지_100선', '자전거', '제주권', '휴양여행', '힐링']",https://cdn.visitkorea.or.kr/img/call?cmd=VIEW&id=6dfc7a00-8154-4716-a32e-f63580565c5f&thumb,제주특별자치도 제주시 구좌읍 구좌해안로 237,33.557110200000004,126.7365197,5.0
97,[제주올레 6코스] 쇠소깍-서귀포 올레,제주 서귀포시,064-762-2190,"['레포츠', '산책길', '연인과함께', '제주올레코스', '친구와함께', '해안산책로']",https://cdn.visitkorea.or.kr/img/call?cmd=VIEW&id=dd80a9b4-5ddd-4fad-bf46-f42526c52291&thumb,제주특별자치도 서귀포시 하효동 995-4,33.2522716,126.6233818,6.0
98,한라산 트레킹,제주 제주시,064-740-6000,"['걷기여행길', '남녀노소', '레포츠', '제주도', '제주도가볼만한곳', '트레킹', '휴식여행']",https://cdn.visitkorea.or.kr/img/call?cmd=VIEW&id=374c2318-c98a-4bbe-a550-53acc57904ec&thumb,제주특별자치도 제주시 1100로 2070-61,33.3922314,126.4945663,7.0
99,제주빅볼랜드,제주 제주시,1588-6418,"['경험', '레포츠', '레포츠체험', '애월읍', '제주도', '제주빅볼랜드']",https://cdn.visitkorea.or.kr/img/call?cmd=VIEW&id=19be0132-f6a2-4667-a196-64339d4ad979&thumb,제주특별자치도 제주시 애월읍 산록서로 15,33.3898219,126.3757735,8.0
100,[제주올레 3코스] 온평-표선 올레,제주 서귀포시,3 064-782-0505,"['가족여행', '경치좋은곳', '레포츠', '올레코스', '제주권']",https://cdn.visitkorea.or.kr/img/call?cmd=VIEW&id=3e776218-6da5-4f0c-a64d-92e74b2c1264&thumb,제주특별자치도 서귀포시 성산읍 온평리 1001-6,33.4054472,126.9040958,9.0
101,제주도 스쿠터 여행사 한라하이킹,제주 제주시,064-712-2678,"['레포츠', '산책코스', '산책하기좋은곳', '스쿠터', '연인과함께', '오토바이', '제주하이킹']",https://cdn.visitkorea.or.kr/img/call?cmd=VIEW&id=fae51b9f-0d65-44c3-87df-a1b4de0c6553&thumb,제주특별자치도 제주시 용두암길 50-1,33.5131312,126.5140754,10.0
102,더마파크,제주 제주시,064-795-8080,"['가족과함께', '가족여행', '공연', '관광지', '더마파크', '레포츠', '승마', '승마장']",https://cdn.visitkorea.or.kr/img/call?cmd=VIEW&id=72d75c95-5a43-45a5-bc4b-a85904509783&thumb,제주특별자치도 제주시 한림읍 월림7길 155,33.3555222,126.2420266,11.0
103,세리월드,제주 서귀포시,064-739-8254,"['레포츠', '속도', '연인과함께', '제주도', '제주도여행', '체험', '카트', '커플데이트']",https://cdn.visitkorea.or.kr/img/call?cmd=VIEW&id=ad400eec-08ff-4d7f-9a04-bb93f6f9a2ef&thumb,제주특별자치도 서귀포시 법환상로2번길 97-17,33.2468934,126.5119875,12.0
104,[제주올레 21코스] 하도-종달올레,제주 제주시,064-762-2190,"['걷기길', '걷기코스', '레포츠', '제주권', '제주올레', '제주올레길']",https://cdn.visitkorea.or.kr/img/call?cmd=VIEW&id=a2601c86-ccc0-45d6-9f21-23346e9e82b0&thumb,제주특별자치도 제주시 구좌읍 해녀박물관길 26,33.523049699999994,126.8628483,13.0
105,신풍리 밭담길,제주 서귀포시,064-782-7445,"['레포츠', '산책길', '산책로', '산책하기', '산책하기좋은곳', '언택트관광지_100선']",https://cdn.visitkorea.or.kr/img/call?cmd=VIEW&id=e70cd591-ffe4-4856-848a-3796a95304f6&thumb,제주특별자치도 서귀포시 성산읍 신풍하동로 39,33.3618401,126.8405958,14.0
106,제주하이킹(제주도자전거여행),제주 제주시,064-711-2200,"['레포츠', '자전거투어', '제주권', '제주도자전거여행', '제주하이킹', '커플데이트']",https://cdn.visitkorea.or.kr/img/call?cmd=VIEW&id=3d743f2b-84a1-4394-9f11-27b970db0080&thumb,제주특별자치도 제주시 용해로 6,33.516702,126.5020811,15.0
107,천아숲길(한라산둘레길),제주 제주시,064-738-4280,"['레포츠', '산책길', '산책로', '산책하기', '산책하기좋은곳', '언택트관광지_100선']",https://cdn.visitkorea.or.kr/img/call?cmd=VIEW&id=d65bacb8-9e04-4a0e-97db-94bb43066c80&thumb,제주특별자치도 제주시 애월읍 산록서로 678-207,33.3989223,126.40515729999998,16.0
108,윈드1947 카트테마파크,제주 서귀포시,1947 064-733-3500,"['남녀노소', '레포츠', '복합레저스포츠', '연인과함께', '이색체험', '익스트림스포츠']",https://cdn.visitkorea.or.kr/img/call?cmd=VIEW&id=cc430307-0502-4c36-a875-91e60bd13832&thumb,제주특별자치도 서귀포시 토평공단로 78-27,33.2894549,126.5876107,17.0
109,[제주올레 18코스] 제주원도심-조천 올레,제주 제주시,064-762-2190,"['가족과함께', '걷기길', '레포츠', '산책길', '산책코스', '산책하기좋은곳', '제주올레길']",https://cdn.visitkorea.or.kr/img/call?cmd=VIEW&id=1850ee9d-c10e-444a-9c57-131e2feafa5d&thumb,제주특별자치도 제주시 일도1동 1146-8,33.5131494,126.5273822,18.0
110,산방산‧용머리해안 지질트레일,제주 서귀포시,064-792-3363,"['레포츠', '산방산', '용머리해안', '제주지질공원', '지질트레일', '트레킹']",https://cdn.visitkorea.or.kr/img/call?cmd=VIEW&id=59ff28da-afbd-4d99-8bf6-09b808416e3e&thumb,제주특별자치도 서귀포시 안덕면,33.249680100000006,126.3371482,19.0
111,제주돔레저,제주 서귀포시,064-792-5688,"['가족과함께', '레포츠', '복합레저스포츠', '수상스포츠', '스포츠체험', '아이와함께']",https://cdn.visitkorea.or.kr/img/call?cmd=VIEW&id=758ce59d-08c4-4d6d-89a6-d586955bc596&thumb,제주특별자치도 서귀포시 대정읍 보성구억로 119,33.2621627,126.2754861,20.0
112,라마다프라자제주호텔 스포츠센터(실내.외 수영장),제주 제주시,064-729-8455,"['라마다플라자', '레포츠', '스포츠센터', '제주도']",https://cdn.visitkorea.or.kr/img/call?cmd=VIEW&id=c33888a1-37b2-4c09-baf5-197fb1271fa8&thumb,제주특별자치도 제주시 탑동로 66,33.5185924,126.5175016,21.0
113,김녕요트투어,제주 제주시,064-782-5271,"['레포츠', '요트투어', '이색체험', '제주도']",https://cdn.visitkorea.or.kr/img/call?cmd=VIEW&id=37f69115-30f4-4b87-a992-5f99542bbb7f&thumb,제주특별자치도 제주시 구좌읍 구좌해안로 229-16,33.558256,126.7372137,22.0
114,제주승마공원,제주 제주시,1544-9506,"['가족과함께', '레포츠', '승마', '승마레슨', '승마장', '승마체험', '승마캠프', '승마트레킹']",https://cdn.visitkorea.or.kr/img/call?cmd=VIEW&id=445ba8c5-f739-453b-8bf4-c603ce5e9116&thumb,제주특별자치도 제주시 애월읍 녹고메길 152-1,33.40538660000001,126.4054711,23.0
115,[제주올레 1-1코스] 우도올레,제주 제주시,064-762-2190,"['레포츠', '제주도트래킹', '제주올레', '제주올레길', '제주올레코스', '트래킹코스']",https://cdn.visitkorea.or.kr/img/call?cmd=VIEW&id=39ecef0a-9c3f-4125-ba8c-8b90447f0b4b&thumb,제주특별자치도 제주시 우도면 연평리 1737-1,33.4929922,126.9518677,24.0
116,[제주올레 1코스] 시흥-광치기 올레,제주 서귀포시,064-762-2190,"['레포츠', '올레코스', '제주도', '트레킹']",https://cdn.visitkorea.or.kr/img/call?cmd=VIEW&id=13f7ba30-b9db-4ae6-b62c-cd1f4bdd234b&thumb,제주특별자치도 서귀포시 성산읍 시흥상동로 113,33.47963,126.8955819,25.0
117,비자림청소년수련원,제주 제주시,064-782-7001,"['레포츠', '복합문화시설', '제주도', '청소년수련원']",https://cdn.visitkorea.or.kr/img/call?cmd=VIEW&id=128284a2-85e1-48ac-bfc9-ad0cac29bc15&thumb,제주특별자치도 제주시 구좌읍 비자숲길 55,33.4913168,126.8113883,26.0
118,9.81 파크,제주 제주시,981 1833-9810,"['남녀노소', '레포츠', '복합레저스포츠', '연인과함께', '이색체험', '제주도가볼만한곳']",https://cdn.visitkorea.or.kr/img/call?cmd=VIEW&id=a3eb8651-1be3-4bde-9f07-5a1318554677&thumb,제주특별자치도 제주시 애월읍 천덕로 880-24,33.3911825,126.3665285,27.0
119,말 테마파크 골프장 (렛츠런파크 제주),제주 제주시,064-741-9190,"['가족여행', '나이와함께', '레포츠', '렛츠런파크제주', '이색체험', '제주권', '체험학습']",https://cdn.visitkorea.or.kr/img/call?cmd=VIEW&id=d7984264-062b-4bc3-adaf-34b76a6d809d&thumb,제주특별자치도 제주시 애월읍 평화로 2144,33.4074945,126.3950743,28.0
120,중문골프클럽,제주 서귀포시,064-738-1202,"['골프장', '레포츠', '중문골프장', '중문관광단지']",https://cdn.visitkorea.or.kr/img/call?cmd=VIEW&id=9182298c-898b-4357-a6d6-a0698b7009e1&thumb,제주특별자치도 서귀포시 중문관광로72번길 60,33.2520261,126.40774,29.0
121,제주레포츠랜드㈜,제주 제주시,064-784-8800,"['레포츠', '레포츠여행', '레포츠체험', '복합레저스포츠', '서바이벌', '익스트림스포츠']",https://cdn.visitkorea.or.kr/img/call?cmd=VIEW&id=a28c5fec-c93f-4d20-965d-d6a645331ae3&thumb,제주특별자치도 제주시 조천읍 와흘상서2길 47,33.4823902,126.6386812,30.0
122,다이브랜드,제주 서귀포시,010-8696-2187,"['다이빙포인트', '레포츠', '문섬', '여름제주여행', '제주', '제주여행지']",https://cdn.visitkorea.or.kr/img/call?cmd=VIEW&id=d356f1e1-a444-4c90-bc4f-07a6cec264c2&thumb,제주특별자치도 서귀포시 보목포로 29,33.240825,126.60600990000002,31.0
123,에버리스골프리조트,제주 제주시,064-795-5000,"['골프리조트', '골프장', '남녀노소', '레포츠', '연인과함께', '제주도', '친구와함께']",https://cdn.visitkorea.or.kr/img/call?cmd=VIEW&id=68143038-f833-4143-8f64-22beff5b1e2a&thumb,제주특별자치도 제주시 애월읍 평화로 1693-75,33.3780778,126.3621058,32.0
124,요트투어 샹그릴라,제주 서귀포시,1544-2988,"['레포츠', '요트체험', '이색체험', '제주도', '퍼시픽랜드']",https://cdn.visitkorea.or.kr/img/call?cmd=VIEW&id=6cf264f9-6301-492b-a1b9-78320a7b8826&thumb,제주특별자치도 서귀포시 중문관광로 154-17,33.2444327,126.4161942,33.0
125,서귀포시청소년수련관,제주 서귀포시,064-760-6461,"['레포츠', '복합문화시설', '제주도', '청소년수련원']",https://cdn.visitkorea.or.kr/img/call?cmd=VIEW&id=28277401-61df-4382-87fc-2c9a4348b644&thumb,제주특별자치도 서귀포시 중산간서로 97-1,33.2608092,126.4981555,34.0
126,[제주올레 10코스] 화순-모슬포 올레,제주 서귀포시,064-762-2190,"['레포츠', '올레코스', '제주도', '트레킹']",https://cdn.visitkorea.or.kr/img/call?cmd=VIEW&id=a88e314f-58c7-47e6-997b-c1cc2cab1a13&thumb,제주특별자치도 서귀포시 안덕면 화순리 776-8,33.239592200000004,126.3357689,35.0
127,메종글래드호텔수영장(실외),제주 제주시,064-747-5000,['레포츠'],https://cdn.visitkorea.or.kr/img/call?cmd=VIEW&id=db53df96-d0f8-48f0-af60-3ea5e1669b5f&thumb,제주특별자치도 제주시 노연로 80,33.4847577,126.4887056,36.0
128,[제주올레 10-1코스] 가파도 올레,제주 서귀포시,064-762-2190,"['레포츠', '올레코스', '제주도', '트레킹']",https://cdn.visitkorea.or.kr/img/call?cmd=VIEW&id=5d69068c-38a7-4bb2-b861-a8beb4cef9c7&thumb,제주특별자치도 서귀포시 대정읍 가파로 243,33.1742353,126.2710076,37.0
129,대유랜드,제주 서귀포시,064-738-0500,"['가족과함께', '레포츠', '복합레저스포츠', '복합레저스포츠', '사격장', '아이와함께']",https://cdn.visitkorea.or.kr/img/call?cmd=VIEW&id=36aa92c9-2e62-4034-b8d8-4402ca6c8cc3&thumb,제주특별자치도 서귀포시 상예로 381,33.278756800000004,126.394896,38.0
130,추자군도,제주 제주시,064-740-6000,"['레포츠', '제주도', '제주바다', '제주바다낚시', '추자군도']",https://cdn.visitkorea.or.kr/img/call?cmd=VIEW&id=9b27403d-92c5-4486-be1f-2000f5df60f1&thumb,제주특별자치도 제주시 추자면 추자로,33.95301970000001,126.3158619,39.0
131,제주칼호텔 카지노 (주)골든비치,제주 제주시,064-720-9999,"['레포츠', '이색체험', '제주도', '제주칼호텔', '카지노']",https://cdn.visitkorea.or.kr/img/call?cmd=VIEW&id=99c74e21-b1da-4d4e-8d45-df3280b6c0ac&thumb,제주특별자치도 제주시 중앙로 151,33.5058769,126.5262064,40.0
132,제주 오리엔탈호텔 카지노,제주 제주시,064-754-8867,"['레포츠', '이색체험', '제주 오리엔탈호텔', '제주도', '카지노']",https://cdn.visitkorea.or.kr/img/call?cmd=VIEW&id=aa7ac6c1-d484-425b-8b65-b551ab4bf719&thumb,제주특별자치도 제주시 탑동로 47,33.5172617,126.5199138,41.0
133,[제주올레 17코스] 광령-제주원도심 올레,제주 제주시,064-762-2190,"['레포츠', '올레코스', '제주도', '트레킹']",https://cdn.visitkorea.or.kr/img/call?cmd=VIEW&id=c898cfe4-24d8-4b62-ac79-d7cd49aa2a88&thumb,제주특별자치도 제주시 애월읍 광령리 1271-5,33.4604957,126.43765829999998,42.0
134,[제주올레 7코스] 서귀포-월평 올레,제주 서귀포시,064-762-2190,"['레포츠', '서귀포', '제주도트래킹', '제주올레길', '트래킹']",https://cdn.visitkorea.or.kr/img/call?cmd=VIEW&id=1554242f-2f41-4a5e-af31-dc74337656bc&thumb,제주특별자치도 서귀포시 서홍동 780-4,33.2639577,126.5507293,43.0
135,오라컨트리클럽,제주 제주시,064-747-5100,"['골프장', '레포츠', '오라컨트리클럽', '제주도']",https://cdn.visitkorea.or.kr/img/call?cmd=VIEW&id=fd5fae98-e65a-4f29-b32c-d58c21a41049&thumb,제주특별자치도 제주시 오라남로 130-16,33.4480893,126.5137713,44.0
136,제주 조랑말타운,제주 서귀포시,064-787-2597,"['가족과함께', '레포츠', '승마', '승마레슨', '승마장', '승마체험', '승마캠프', '승마트레킹']",https://cdn.visitkorea.or.kr/img/call?cmd=VIEW&id=f129cb26-d3cf-4ed8-8190-31c01b1cbab0&thumb,제주특별자치도 서귀포시 표선면 번영로 2486,33.4092101,126.7706544,45.0
137,[제주올레 4코스] 표선-남원 올레,제주 서귀포시,064-762-2190,"['레포츠', '올레코스', '제주도', '트레킹']",https://cdn.visitkorea.or.kr/img/call?cmd=VIEW&id=14cf1a58-89e0-4945-a0b1-5f9c56db4d81&thumb,제주특별자치도 서귀포시 표선면 민속해안로 594,33.3126457,126.8232437,46.0
138,차귀도 바다낚시,제주 제주시,064-740-6001,"['대섬', '레포츠', '바다낚시', '와도', '지실이섬', '차귀도']",https://cdn.visitkorea.or.kr/img/call?cmd=VIEW&id=8e3fee11-cd90-4777-959d-2ba7821fe014&thumb,제주특별자치도 제주시 한경면 노을해안로,33.3019154,126.1657993,47.0
139,알프스승마장 포니,제주 서귀포시,064-787-3663,"['가족과함께', '레포츠', '서귀포승마장', '승마장', '승마체험', '아이와함께', '제주도']",https://cdn.visitkorea.or.kr/img/call?cmd=VIEW&id=5c2e71cd-5776-4221-83a8-f1c60890a2ef&thumb,제주특별자치도 서귀포시 표선면 서성일로 73,33.3991759,126.8021768,48.0
140,이어도 승마장,제주 서귀포시,064-783-0916,"['가족과함께', '레포츠', '승마', '승마레슨', '승마체험', '승마캠프', '승마트레킹']",https://cdn.visitkorea.or.kr/img/call?cmd=VIEW&id=1d37fe7d-32af-4c43-ae3f-f3db46742ec9&thumb,제주특별자치도 서귀포시 성산읍 서성일로 688,33.426896500000005,126.8647243,49.0
141,[제주올레 2코스] 광치기-온평 올레,제주 서귀포시,064-762-2190,"['레포츠', '서귀포', '제주도트래킹', '제주올레길', '트래킹', '트래킹코스']",https://cdn.visitkorea.or.kr/img/call?cmd=VIEW&id=3b87b506-701a-46e0-926e-6d34695b88b2&thumb,제주특별자치도 서귀포시 성산읍 고성리 224-33,33.4526753,126.9241174,50.0
142,파라다이스 카지노 제주 그랜드,제주 제주시,064-743-2121,['레포츠'],https://cdn.visitkorea.or.kr/img/call?cmd=VIEW&id=456cf504-4d38-422c-b407-b7eff903e979&thumb,제주특별자치도 제주시 노연로 80,33.4847577,126.4887056,51.0
143,홀스랜드(어승생승마장),제주 제주시,064-746-5532,['레포츠'],https://cdn.visitkorea.or.kr/img/call?cmd=VIEW&id=95bd34e8-bf13-44ea-a049-62dcd99c920a&thumb,제주특별자치도 제주시 1100로 2659,33.4257046,126.490448,52.0
144,제주신라호텔 실내.외 수영장,제주 서귀포시,064-735-5130,['레포츠'],https://cdn.visitkorea.or.kr/img/call?cmd=VIEW&id=ceb4b092-eada-4371-aaca-3e61c2d229d7&thumb,제주특별자치도 서귀포시 중문관광로72번길 75,33.2475582,126.4081161,53.0
145,[제주올레 5코스] 남원-쇠소깍 올레,제주 서귀포시,064-762-2190,"['레포츠', '올레코스', '제주도', '트레킹']",https://cdn.visitkorea.or.kr/img/call?cmd=VIEW&id=81f7bc0f-03eb-451a-8d93-f25f44bd9d47&thumb,제주특별자치도 서귀포시 남원읍 남태해안로 137-1,33.2781372,126.7198291,54.0
146,[제주올레 19코스] 조천-김녕 올레,제주 제주시,064-762-2190,"['레포츠', '제주도트래킹', '제주올레', '제주올레길', '트래킹']",https://cdn.visitkorea.or.kr/img/call?cmd=VIEW&id=bb75b8fb-3fac-4afe-89ce-c1ca8fbdb222&thumb,제주특별자치도 제주시 조천읍 조천리 1209-1,33.5397118,126.6412058,55.0
147,제주해양레저,제주 서귀포시,064-738-5111,['레포츠'],https://cdn.visitkorea.or.kr/img/call?cmd=VIEW&id=2e8273a7-fc82-4801-b975-0aa2d9eba184&thumb,제주특별자치도 서귀포시 중문관광로 192,33.2475278,126.4185955,56.0
148,[제주올레 15코스] 한림-고내 올레,제주 제주시,064-762-2190,"['레포츠', '제주도트래킹', '제주시', '제주올레길', '제주올레코스', '트래킹코스']",https://cdn.visitkorea.or.kr/img/call?cmd=VIEW&id=33716d01-0732-465f-a5ed-ba22f76ede40&thumb,제주특별자치도 제주시 한림읍 한림해안로 196,33.4190733,126.2626436,57.0
149,제주탑승마클럽 (구.봉개승마타운),제주 제주시,064-721-9001,"['가족과함께', '레포츠', '승마', '승마레슨', '승마장', '승마체험', '승마캠프', '승마트레킹']",https://cdn.visitkorea.or.kr/img/call?cmd=VIEW&id=af577ba7-994b-4a2a-be04-a2fc17343ff2&thumb,제주특별자치도 제주시 명림로 274,33.4637669,126.6144241,58.0
150,[제주올레 7-1코스] 제주월드컵경기장-서귀포 올레,제주 서귀포시,064-762-2190,"['레포츠', '제주도트래킹', '제주올레', '제주올레길', '제주올레코스', '트래킹']",https://cdn.visitkorea.or.kr/img/call?cmd=VIEW&id=4eaa25e4-b4ad-4519-8fe5-6b21e3793ac8&thumb,제주특별자치도 서귀포시 월드컵로 33,33.247238800000005,126.50920790000002,59.0
151,[제주올레 8코스] 월평-대평 올레,제주 서귀포시,064-762-2190,"['레포츠', '올레코스', '제주도', '트레킹']",https://cdn.visitkorea.or.kr/img/call?cmd=VIEW&id=56d50d86-68f1-4c26-ab12-47b6adea5c02&thumb,제주특별자치도 서귀포시 월평동 741-3,33.4510724,126.5758973,60.0
152,[제주올레 11코스] 모슬포-무릉 올레,제주 서귀포시,064-762-2190,"['레포츠', '제주도트래킹', '제주올레길', '제주올레코스', '트래킹']",https://cdn.visitkorea.or.kr/img/call?cmd=VIEW&id=2babff91-a9ea-4958-bfbc-6471acfe3657&thumb,제주특별자치도 서귀포시 대정읍 하모리 2140,33.2186656,126.2528951,61.0
153,캐슬렉스제주 골프클럽,제주 서귀포시,064-793-6630,"['골프장', '레포츠', '서귀포', '제주도']",https://cdn.visitkorea.or.kr/img/call?cmd=VIEW&id=c587b10f-efed-4c2e-8341-f2f62f96b749&thumb,제주특별자치도 서귀포시 안덕면 평화로 1241,33.3195978,126.342428,62.0
154,블랙스톤 골프클럽,제주 제주시,064-796-9988,"['골프리조트', '골프장', '골프클럽', '레저스포츠', '레포츠', '생활스포츠', '익스트림스포츠']",https://cdn.visitkorea.or.kr/img/call?cmd=VIEW&id=2bf6f0e3-4200-40eb-9c29-bc62ec1be5d7&thumb,제주특별자치도 제주시 한림읍 한창로 925-122,33.3386593,126.3124298,63.0
155,제주항방파제,제주 제주시,064-740-6000,"['레포츠', '바다낚시', '제주권', '제주바다낚시', '제주시낚시터']",https://cdn.visitkorea.or.kr/img/call?cmd=VIEW&id=e5f14064-f55f-4aab-aae0-a3a12c217736&thumb,제주특별자치도 제주시 서부두길 22,33.5183177,126.5285583,64.0
156,라온골프클럽,제주 제주시,064-795-8000,"['골프리조트', '골프장', '골프클럽', '레저스포츠', '레포츠', '복합레저스포츠']",https://cdn.visitkorea.or.kr/img/call?cmd=VIEW&id=c55b8363-b6bb-4312-bae8-4a8f39d2376c&thumb,제주특별자치도 제주시 한경면 용금로 998,33.3448687,126.2782452,65.0
157,라온더마파크,제주 제주시,064-795-8080,"['가족과함께', '레포츠', '승마', '승마레슨', '승마장', '승마체험', '승마캠프', '승마트레킹']",https://cdn.visitkorea.or.kr/img/call?cmd=VIEW&id=8aa5dbb0-edf4-451f-87c5-d9267fdc571f&thumb,제주특별자치도 제주시 한림읍 월림7길 155,33.3555222,126.2420266,66.0
158,탐라승마장,제주 제주시,064-782-5577,"['가족과함께', '레포츠', '승마', '승마레슨', '승마장', '승마체험', '승마캠프', '승마트레킹']",https://cdn.visitkorea.or.kr/img/call?cmd=VIEW&id=a2bd64a4-f319-4769-bd6d-f86088dbbf37&thumb,제주특별자치도 제주시 조천읍 비자림로 1044,33.4330365,126.7168442,67.0
159,[제주올레 13코스] 용수-저지 올레,제주 제주시,064-762-2190,"['레포츠', '제주도트래킹', '제주시', '제주올레길', '제주올레코스', '트래킹']",https://cdn.visitkorea.or.kr/img/call?cmd=VIEW&id=78e84288-5d27-4ddc-bc22-7e86b8abb7f3&thumb,제주특별자치도 제주시 한경면 용수리 4241-7,33.3234271,126.1671039,68.0
160,[제주올레 9코스] 대평-화순 올레,제주 서귀포시,064-762-2190,"['레포츠', '서귀포', '제주도트래킹', '제주올레길', '제주올레코스', '트래킹']",https://cdn.visitkorea.or.kr/img/call?cmd=VIEW&id=6aa685c5-3756-47df-9dab-897762f74f8a&thumb,제주특별자치도 서귀포시 안덕면 감산리 982-3,33.2370799,126.3614565,69.0
161,[제주올레 14-1코스] 저지-무릉 올레,제주 제주시,064-762-2190,"['레포츠', '제주도트래킹', '제주올레', '제주올레길', '제주올레코스', '트래킹']",https://cdn.visitkorea.or.kr/img/call?cmd=VIEW&id=e2c539da-d063-4187-ac01-9cad70bfdfa8&thumb,제주특별자치도 제주시 한경면 저지리 1851-5,33.3325613,126.2563791,70.0
162,차귀도글라스요트,제주 제주시,064-772-1321,"['레포츠', '요트체험', '이색체험', '제주도요트체험', '힐링체험']",https://cdn.visitkorea.or.kr/img/call?cmd=VIEW&id=b3cfd793-4efd-44b8-976a-c3d7825c6aff&thumb,제주특별자치도 제주시 한경면 한경해안로 156,33.3239386,126.1660859,71.0
163,사이프러스 골프앤리조트,제주 서귀포시,064-787-8888,"['골프리조트', '골프장', '골프클럽', '레저스포츠', '레포츠', '복합레저스포츠']",https://cdn.visitkorea.or.kr/img/call?cmd=VIEW&id=undefined&thumb,제주특별자치도 서귀포시 표선면 번영로 2300,33.3726822,126.7971235,72.0
164,성읍승마장,제주 서귀포시,064-787-2324,['레포츠'],https://cdn.visitkorea.or.kr/img/call?cmd=VIEW&id=496cd82b-b63d-419b-af19-fb1fd77c0877&thumb,제주특별자치도 서귀포시 표선면 번영로 2650,33.3990017,126.7868715,73.0
165,제주제트(중문),제주 서귀포시,064-739-3939,"['레포츠', '보트', '여름피서지', '제주제트', '해상']",https://cdn.visitkorea.or.kr/img/call?cmd=VIEW&id=c204192a-1787-4d3f-900d-8742c7154788&thumb,제주특별자치도 서귀포시 대포로 172-5,33.238440399999995,126.4395581,74.0
166,하얏트리젠시제주 수영장,제주 서귀포시,064-733-1234,"['레포츠', '수영장', '제주', '제주도수영장', '제주도여행']",https://cdn.visitkorea.or.kr/img/call?cmd=VIEW&id=85953d7d-f97e-4469-907b-fd297c52ff40&thumb,제주특별자치도 서귀포시 중문관광로72번길 114,33.2455761,126.4055533,75.0
167,송당승마장,제주 제주시,064-782-1199,['레포츠'],https://cdn.visitkorea.or.kr/img/call?cmd=VIEW&id=d8fb1642-d17b-4e78-8202-3cd1138d136f&thumb,제주특별자치도 제주시 구좌읍 번영로 2015,33.4358907,126.73772340000002,76.0
168,한라산컨트리클럽,제주 제주시,064-754-5678,"['골프리조트', '골프장', '골프클럽', '남녀노소', '레저스포츠', '레포츠', '복합레저스포츠']",https://cdn.visitkorea.or.kr/img/call?cmd=VIEW&id=b1585373-3864-464c-b48b-f82c85284e09&thumb,제주특별자치도 제주시 선돌목동길 56-46,33.444630100000005,126.5445663,77.0
169,제주청소년수련원,제주 제주시,064-796-1680,"['레포츠', '제주권', '제주청소년수련원', '청소년수련원']",https://cdn.visitkorea.or.kr/img/call?cmd=VIEW&id=6bbcc397-5d57-4aa2-90ef-4b6077f6ed0d&thumb,제주특별자치도 제주시 한림읍 금능남로 128,33.3781039,126.236942,78.0
170,보물섬하이킹,제주 제주시,010-4582-8240,['레포츠'],https://cdn.visitkorea.or.kr/img/call?cmd=VIEW&id=e91b5ec1-1d50-40a5-ac84-c7cab2a2c28f&thumb,제주특별자치도 제주시 용문로14길 14,33.5058529,126.5102555,79.0
171,[제주올레 20코스] 김녕-하도 올레,제주 제주시,064-762-2190,"['레포츠', '제주도올레', '제주도트래킹', '제주올레길', '제주올레코스', '트래킹']",https://cdn.visitkorea.or.kr/img/call?cmd=VIEW&id=45a6a8fa-bb99-481e-8c64-cc1b98e0618f&thumb,제주특별자치도 제주시 구좌읍 김녕리 4069,33.557624600000004,126.7452607,80.0
172,레이크힐스 제주컨트리클럽,제주 서귀포시,064-738-8858,"['골프리조트', '골프장', '골프클럽', '남녀노소', '레포츠', '연인과함께', '자연좋은곳']",https://cdn.visitkorea.or.kr/img/call?cmd=VIEW&id=undefined&thumb,제주특별자치도 서귀포시 산록남로 1391,33.3017887,126.5095926,81.0
173,[제주올레 14코스] 저지-한림 올레,제주 제주시,064-762-2190,"['레포츠', '올레코스', '제주도', '트레킹']",https://cdn.visitkorea.or.kr/img/call?cmd=VIEW&id=1bb0af7d-5f8e-4a5f-9a00-56013433764c&thumb,제주특별자치도 제주시 한경면 저지리 1851-5,33.3325613,126.2563791,82.0
174,제주월드컵경기장,제주 서귀포시,064-760-3623,"['레포츠', '서귀포', '월드컵경기장', '제주도']",https://cdn.visitkorea.or.kr/img/call?cmd=VIEW&id=2ded2631-d2a2-4b7f-a92f-079d7b183791&thumb,제주특별자치도 서귀포시 월드컵로 33,33.247238800000005,126.50920790000002,83.0
175,서진승마장,제주 제주시,064-782-0314,"['가족과함께', '레포츠', '승마', '승마레슨', '승마장', '승마체험', '승마캠프', '승마트레킹']",https://cdn.visitkorea.or.kr/img/call?cmd=VIEW&id=8217483d-0200-4090-a433-e06b17cc7e40&thumb,제주특별자치도 제주시 조천읍 비자림로 1118,33.4339185,126.7242038,84.0
176,멍에승마장,제주 서귀포시,064-787-8020,"['가족과함께', '레포츠', '승마', '승마레슨', '승마장', '승마체험', '승마캠프', '승마트레킹']",https://cdn.visitkorea.or.kr/img/call?cmd=VIEW&id=0cda28ed-8bb5-4cc5-8352-d57e3fac3c42&thumb,제주특별자치도 서귀포시 성산읍 서성일로 397,33.426896500000005,126.8647243,85.0
177,세인트 포 골프클럽,제주 제주시,064-786-3800,"['골프리조트', '골프장', '골프클럽', '남녀노소', '레저스포츠', '레포츠', '복합레저스포츠']",https://cdn.visitkorea.or.kr/img/call?cmd=VIEW&id=undefined&thumb,제주특별자치도 제주시 구좌읍 선유로 445-55,33.519600800000006,126.74250759999998,86.0
178,크라운컨트리클럽,제주 제주시,064-784-4811,"['골프장', '레포츠', '제주도', '크라운컨트리클럽']",https://cdn.visitkorea.or.kr/img/call?cmd=VIEW&id=2017e50c-7d96-4d93-94ce-56a3e8f23f07&thumb,제주특별자치도 제주시 조천읍 북선로 125,33.5300132,126.6947389,87.0
179,오케이 승마장,제주 서귀포시,064-787-3066,"['가족과함께', '레포츠', '승마', '승마레슨', '승마장', '승마체험', '승마캠프', '승마트레킹']",https://cdn.visitkorea.or.kr/img/call?cmd=VIEW&id=b2f83aa3-0f45-440d-b20a-cebd95ded4fc&thumb,제주특별자치도 서귀포시 표선면 번영로 2595,33.4027327,126.78311200000002,88.0
180,바지선 선상낚시(토평동유어장),제주 서귀포시,064-763-1234,"['레포츠', '선상낚시', '제주도', '제주도낚시']",https://cdn.visitkorea.or.kr/img/call?cmd=VIEW&id=undefined&thumb,제주특별자치도 서귀포시 칠십리로 56,33.2403183,126.5619085,89.0
181,[제주올레 16코스] 고내-광령 올레,제주 제주시,064-762-2190,"['레포츠', '제주도트래킹', '제주올레길', '제주올레코스', '트래킹코스']",https://cdn.visitkorea.or.kr/img/call?cmd=VIEW&id=032dc494-8c25-4f52-8838-04c4e3bf6e90&thumb,제주특별자치도 제주시 애월읍 고내리 1111-2,33.466846399999994,126.338134,90.0
182,엘리시안 골프 제주,제주 제주시,064-798-7000,['레포츠'],https://cdn.visitkorea.or.kr/img/call?cmd=VIEW&id=91e784e2-7359-4a65-b647-03e4c47e1e8e&thumb,제주특별자치도 제주시 애월읍 평화로 1738-116,33.3728781,126.3824986,91.0
183,서광승마장,제주 서귀포시,064-794-5220,['레포츠'],https://cdn.visitkorea.or.kr/img/call?cmd=VIEW&id=undefined&thumb,제주특별자치도 서귀포시 안덕면 녹차분재로 239,33.2923161,126.2996588,92.0
184,제주컨트리클럽,제주 제주시,064-702-0451,['레포츠'],https://cdn.visitkorea.or.kr/img/call?cmd=VIEW&id=059e7302-922e-4786-8504-6daa1fe3cdeb&thumb,제주특별자치도 제주시 516로 2695,33.4303677,126.583471,93.0
185,갬주리코지(볼락코지),제주 서귀포시,064-760-4082,"['레포츠', '바다낚시', '서귀포바다', '서귀포바다낚시', '서귀포시', '제주권']",https://cdn.visitkorea.or.kr/img/call?cmd=VIEW&id=undefined&thumb,제주특별자치도 서귀포시 대정읍 가파로,33.1710594,126.2731193,94.0
186,핀크스 골프클럽,제주 서귀포시,064-792-5200,['레포츠'],https://cdn.visitkorea.or.kr/img/call?cmd=VIEW&id=undefined&thumb,제주특별자치도 서귀포시 안덕면 산록남로 863,33.305353499999995,126.3937346,95.0
187,해비치 컨트리클럽 제주,제주 서귀포시,064-780-8000,['레포츠'],https://cdn.visitkorea.or.kr/img/call?cmd=VIEW&id=undefined&thumb,제주특별자치도 서귀포시 남원읍 원님로399번길 319,33.3601625,126.72563999999998,96.0
188,머체왓숲길,제주 서귀포시,064-805-3113,"['레포츠', '산책길', '숲길', '제주관광', '피크닉', '휴식']",https://cdn.visitkorea.or.kr/img/call?cmd=VIEW&id=f2f39e81-bf7b-4b82-b727-c01cb3375867&thumb,제주특별자치도 서귀포시 남원읍 서성로 755,33.3245683,126.6627718,97.0
189,서귀포매일올레시장,제주 서귀포시,064-762-1949,"['가족과함께', '먹거리', '사계절', '서귀포매일올레시장', '쇼핑', '시장맛집', '연인과함께']",https://cdn.visitkorea.or.kr/img/call?cmd=VIEW&id=8a635935-69d5-43fe-b3eb-078029d05527&thumb,제주특별자치도 서귀포시 중앙로62번길 18,33.2501708,126.5636786,
190,동문재래시장,제주 제주시,064-752-3001,"['가족과함께', '동문재래시장', '먹거리', '사계절', '쇼핑', '시장맛집', '연인과함께']",https://cdn.visitkorea.or.kr/img/call?cmd=VIEW&id=061b38ab-67c1-45b4-91f2-1a68bbbc461f&thumb,제주특별자치도 제주시 관덕로14길 20,33.5115817,126.526099,
191,"제주시민속오일시장 (2, 7일)",제주 제주시,064-743-5985,"['가족여행', '나들이', '데이트코스', '먹거리', '민속오일시장', '쇼핑', '시장맛집']",https://cdn.visitkorea.or.kr/img/call?cmd=VIEW&id=46073890-0a4b-4e58-aad1-a808a40c79b4&thumb,제주특별자치도 제주시 오일장서길 26,33.4974552,126.4747907,
192,제주 보성시장,제주 제주시,064-753-2085,"['가족여행', '나들이', '데이트코스', '먹거리', '쇼핑', '시장맛집', '아이와함께']",https://cdn.visitkorea.or.kr/img/call?cmd=VIEW&id=79728c72-5adc-48c9-96f3-77b685e62ec8&thumb,제주특별자치도 제주시 동광로1길 32,33.503294399999994,126.527915,
193,"성산 5일장 (1, 6일)",제주 서귀포시,064-760-4282,"['가족여행', '나들이', '나홀로여행', '먹거리', '성산오일장', '쇼핑', '시장맛집']",https://cdn.visitkorea.or.kr/img/call?cmd=VIEW&id=e046efc7-55fe-49b9-833f-b6d75371f255&thumb,제주특별자치도 서귀포시 성산읍 성산중앙로37번길 6,33.463857399999995,126.9331069,
194,㈜제주참앤참 [한국관광 품질인증/Korea Quality],제주 제주시,064-711-1688,"['쇼핑', '제주시추천쇼핑', '제주참앤참', '제주추천쇼핑', '한국관광품질인증']",https://cdn.visitkorea.or.kr/img/call?cmd=VIEW&id=5f4bb46d-bc83-4201-88bd-a07f4fc617cd&thumb,제주특별자치도 제주시 한천로 29,33.5020951,126.5266298,
195,골목시장,제주 서귀포시,064-766-3000,"['골목시장', '복합시장', '쇼핑', '제주권']",https://cdn.visitkorea.or.kr/img/call?cmd=VIEW&id=a29f3b10-dcca-4842-93f0-f838fdb5cf72&thumb,제주특별자치도 서귀포시 성산읍 동류암로 20,33.4500452,126.9184399,
196,"세화민속오일시장(5일, 0일)",제주 제주시,064-728-7762,"['가족여행', '나들이', '데이트코스', '먹거리', '세화오일장', '쇼핑', '시장맛집']",https://cdn.visitkorea.or.kr/img/call?cmd=VIEW&id=76e57e40-c028-4be1-8117-7da46e656378&thumb,제주특별자치도 제주시 구좌읍 해맞이해안로 1412,33.525938399999994,126.8572852,
197,㈜다원코리아 [한국관광 품질인증/Korea Quality],제주 제주시,064-745-3688,"['다원코리아', '쇼핑', '제주시추천쇼핑', '제주추천쇼핑', '한국관광품질인증']",https://cdn.visitkorea.or.kr/img/call?cmd=VIEW&id=f09f63c1-82dd-414a-b76e-0818e9af5436&thumb,제주특별자치도 제주시 도리로 40,33.5018336,126.4652862,
198,JDC 면세점 (제주공항점),제주 제주시,064-740-9900,"['공항면세점', '관광객', '면세점', '쇼핑', '유명브랜드']",https://cdn.visitkorea.or.kr/img/call?cmd=VIEW&id=b5670072-65e1-437b-a8b0-da2a77207279&thumb,제주특별자치도 제주시 공항로 2,33.5063344,126.4952613,
199,벨롱장,제주 제주시,064-783-3001,"['가족여행', '기념품판매', '나들이', '데이트코스', '벨롱장', '쇼핑', '아이와함께']",https://cdn.visitkorea.or.kr/img/call?cmd=VIEW&id=7647dd8a-1b94-4540-b3a4-1b779215838a&thumb,제주특별자치도 제주시 구좌읍 세화포구(세화항구),33.5290708,126.8574178,
200,"한림민속5일시장(4, 9일)",제주 제주시,064-796-8830,"['가족여행', '나들이', '데이트코스', '먹거리', '쇼핑', '시장맛집', '아이와함께']",https://cdn.visitkorea.or.kr/img/call?cmd=VIEW&id=238ca6ba-8560-4c0b-8323-ee7dd0cf6a51&thumb,제주특별자치도 제주시 한림읍 한수풀로4길 10,33.4201519,126.2742341,
201,한국기념품백화점,제주 제주시,064-742-0985,"['기념품판매', '쇼핑', '제주권', '한국기념품백화점']",https://cdn.visitkorea.or.kr/img/call?cmd=VIEW&id=40aa4cf5-0712-4b5e-8148-0013f5054de2&thumb,제주특별자치도 제주시 원노형로 13,33.4874419,126.4848081,
202,한림공원 다화원휴게소 (제주),제주 제주시,064-796-0009,"['가족여행', '기념품판매', '나들이', '나홀로여행', '쇼핑', '아이와함께', '연인과함께']",https://cdn.visitkorea.or.kr/img/call?cmd=VIEW&id=118d5e00-e645-4bf9-ab8e-0eb0d3249be7&thumb,제주특별자치도 제주시 한림읍 한림로 300,33.389494899999995,126.2396825,
203,제주 특산품전시판매장,제주 제주시,064-751-3360,"['가족여행', '기념품판매', '먹거리', '사계절', '쇼핑', '이색체험', '제주권', '제주특산품전시판매장']",https://cdn.visitkorea.or.kr/img/call?cmd=VIEW&id=4e738728-eac7-47be-b231-34222c8bd8a4&thumb,제주특별자치도 제주시 연삼로 473,33.4994261,126.5405872,
204,"서귀포 향토5일시장 (4, 9일)",제주 서귀포시,064-763-0965,"['가족여행', '나들이', '나홀로여행', '서귀포향토오일시장', '쇼핑', '시장맛집']",https://cdn.visitkorea.or.kr/img/call?cmd=VIEW&id=a523b96c-d3e8-437e-9246-daaa79ef5cdb&thumb,제주특별자치도 서귀포시 중산간동로7894번길 18-5,33.2671561,126.5733776,
205,"고성5일시장 (4, 9일)",제주 서귀포시,064-760-4282,"['가족여행', '고성오일시장', '나들이', '나홀로여행', '섬여행', '쇼핑', '시장맛집']",https://cdn.visitkorea.or.kr/img/call?cmd=VIEW&id=97fb11e9-36fd-44a4-bd73-ccd315940b99&thumb,제주특별자치도 서귀포시 성산읍 고성오조로 93,33.451775899999994,126.912796,
206,라온명품관,제주 제주시,064-795-3200,"['명품', '쇼핑', '외국인친구에게추천', '제주쇼핑', '키즈명품']",https://cdn.visitkorea.or.kr/img/call?cmd=VIEW&id=96b9e56e-670c-4dd8-8970-4360c1709440&thumb,제주특별자치도 제주시 한림읍 금능남로 127,33.3760556,126.2441268,
207,"중문향토오일시장 (3, 8일)",제주 서귀포시,064-760-2633,"['가족여행', '나들이', '나홀로여행', '쇼핑', '시장맛집', '아이와함께', '연인과함께']",https://cdn.visitkorea.or.kr/img/call?cmd=VIEW&id=638ef08a-a7b1-48cb-b846-acb2739aa2b9&thumb,제주특별자치도 서귀포시 천제연로188번길 12,33.2508555,126.4242065,
208,서문공설시장,제주 제주시,064-758-8387,"['가족여행', '나들이', '데이트코스', '먹거리', '서문공설시장', '쇼핑', '시장맛집']",https://cdn.visitkorea.or.kr/img/call?cmd=VIEW&id=248a26bb-3e7c-41da-a879-420f7ea48575&thumb,제주특별자치도 제주시 서문로4길 13-2,33.511382899999994,126.5179733,
209,제주 중앙지하상가,제주 제주시,064-755-0225,['쇼핑'],https://cdn.visitkorea.or.kr/img/call?cmd=VIEW&id=ef47c20e-f4ba-444c-865f-0b3dbc6e307e&thumb,제주특별자치도 제주시 중앙로 60,33.5128195,126.52450659999998,
210,제주관광기념품장터,제주 제주시,064-713-7560,"['기념품판매', '쇼핑', '제주관광기념품장터', '제주권', '특산물']",https://cdn.visitkorea.or.kr/img/call?cmd=VIEW&id=fcd8cdcf-5fe5-4bdb-b675-f4778b281e10&thumb,제주특별자치도 제주시 서천길 24,33.5009443,126.5105893,
211,바다잔치수산,제주 제주시,064-727-8245,"['쇼핑', '수산물', '수산물판매매장', '제주과일', '제주도', '택배가능']",https://cdn.visitkorea.or.kr/img/call?cmd=VIEW&id=04340119-1f63-4096-9d19-0f2b852f9149&thumb,제주특별자치도 제주시 탑동로 77,33.5177907,126.5170267,
212,한림공원 쌍용각,제주 제주시,064-796-0008,"['가족여행', '기념품판매', '나들이', '나홀로여행', '쇼핑', '시장맛집', '아이와함께']",https://cdn.visitkorea.or.kr/img/call?cmd=VIEW&id=9bfb2397-adbf-45aa-b7ef-4b9d817604db&thumb,제주특별자치도 제주시 한림읍 한림로 300,33.389494899999995,126.2396825,
213,더 아일랜더,제주 제주시,070-8811-9562,"['가족여행', '기념품판매', '나들이', '더아일랜더', '데이트코스', '소품샵', '쇼핑']",https://cdn.visitkorea.or.kr/img/call?cmd=VIEW&id=81fba9f7-d80b-488b-bc0b-2ea5edb6d0c1&thumb,제주특별자치도 제주시 중앙로7길 31,33.5149044,126.5281048,
214,"표선 5일시장 (2, 7일)",제주 서귀포시,064-760-4475,"['가족여행', '나홀로여행', '쇼핑', '시장맛집', '아이와함께', '연인과함께', '오일장']",https://cdn.visitkorea.or.kr/img/call?cmd=VIEW&id=64d8f308-a34a-458e-9f02-8cc4e2c78d2e&thumb,제주특별자치도 서귀포시 표선면 세성로 352-38,33.3359654,126.7985098,
215,제주민속식품,제주 제주시,064-782-1500,"['꿩엿', '쇼핑', '전통건강음식', '제주도', '체험프로그램']",https://cdn.visitkorea.or.kr/img/call?cmd=VIEW&id=99f2713e-ae9f-49e6-a6e8-eacbf1fd8b9d&thumb,제주특별자치도 제주시 구좌읍 번영로 2178,33.4281022,126.7510394,
216,제주칠성로상점가,제주 제주시,064-721-4700,"['동문시장', '쇼핑', '전통상권', '흑돼지거리']",https://cdn.visitkorea.or.kr/img/call?cmd=VIEW&id=b9a724d1-4232-419a-ae3c-2f4ec313faf2&thumb,제주특별자치도 제주시 중앙로 20,33.5166598,126.5246265,
217,중문농수산 / 중문농수산영농조합법인,제주 서귀포시,064-738-5757,"['쇼핑', '제주권', '중문농수산직판장']",https://cdn.visitkorea.or.kr/img/call?cmd=VIEW&id=cda76b46-a236-4040-9a02-a52f3e39b7d3&thumb,제주특별자치도 서귀포시 천제연로 355,33.2524077,126.4424968,
218,야호농수산,제주 제주시,064-725-1010,"['쇼핑', '야호농수산', '연중무휴', '제주권', '직거래장터']",https://cdn.visitkorea.or.kr/img/call?cmd=VIEW&id=3e37023e-4f5c-4d75-8676-d9099d7b991f&thumb,제주특별자치도 제주시 용해로 112,33.5075132,126.5046814,
219,소심한 책방,제주 제주시,070-8147-0848,"['서적', '서점', '쇼핑', '제주도']",https://cdn.visitkorea.or.kr/img/call?cmd=VIEW&id=45cf6d15-4475-4e09-9299-865eaf3f255a&thumb,제주특별자치도 제주시 구좌읍 종달동길 29-6,33.4914883,126.9031146,
220,제일토산품,제주 제주시,064-753-7319,"['가족여행', '기념품판매', '나들이', '데이트코스', '쇼핑', '아이와함께', '연인과함께']",https://cdn.visitkorea.or.kr/img/call?cmd=VIEW&id=1975259c-6e16-4bf3-a742-bd3f599a49f3&thumb,제주특별자치도 제주시 관덕로 24,33.512976300000005,126.5218541,
221,동부농원,제주 서귀포시,064-782-4488,"['감귤', '쇼핑', '제주도', '택배가능']",https://cdn.visitkorea.or.kr/img/call?cmd=VIEW&id=b5fc1e30-d775-4547-8cbd-7e674b4bfd71&thumb,제주특별자치도 서귀포시 성산읍 서성일로 1007,33.44295630000001,126.886143,
222,삼다닷컴,제주 제주시,064-752-0001,"['농수축산물', '농수축산물직매장', '쇼핑', '제주']",https://cdn.visitkorea.or.kr/img/call?cmd=VIEW&id=766e3b43-7181-44ce-b335-b98cfb2908d0&thumb,제주특별자치도 제주시 연삼로 295-1,33.492627500000005,126.52446609999998,
223,"대정5일시장 (1, 6일)",제주 서귀포시,064-730-1615,"['가족여행', '나들이', '나홀로여행', '대정오일시장', '쇼핑', '시장맛집', '아이와함께']",https://cdn.visitkorea.or.kr/img/call?cmd=VIEW&id=318fd558-0e86-420c-8c71-d33abb90cf45&thumb,제주특별자치도 서귀포시 대정읍 신영로36번길 65,33.220516,126.2483125,
224,자연이야기,제주 제주시,010-3389-1388,"['쇼핑', '아로마테라피', '천연', '천연화장품']",https://cdn.visitkorea.or.kr/img/call?cmd=VIEW&id=fb516fd3-7ce7-4702-82ea-245b660a0ce4&thumb,제주특별자치도 제주시 월랑로6길 21,33.4894714,126.4785643,
225,사회복지법인 평화의마을,제주 서귀포시,064-794-6277,"['사회적기업', '쇼핑', '제주도', '흑돼지']",https://cdn.visitkorea.or.kr/img/call?cmd=VIEW&id=b5596d40-bd08-4233-aad2-2d9d785b41f6&thumb,제주특별자치도 서귀포시 대정읍 중산간서로 2195-12,33.2790874,126.292444,
226,바당의물질,제주 제주시,064-758-3945,"['공장직영점', '쇼핑', '수산시장', '지역특산품']",https://cdn.visitkorea.or.kr/img/call?cmd=VIEW&id=27b696cf-84d8-4f3a-b8e5-79b7ab53c131&thumb,제주특별자치도 제주시 임항로 49,33.5170003,126.53005729999998,
227,나리농수산,제주 제주시,064-743-9755,"['쇼핑', '제주', '택배가능', '특산물']",https://cdn.visitkorea.or.kr/img/call?cmd=VIEW&id=c14c8806-9645-4f93-955e-9290c35fdb48&thumb,제주특별자치도 제주시 삼무로 72,33.4896241,126.4943162,
