,name,region,tel,keyword,photo,address,lat,lon,Unnamed: 0
0,충주세계무술박물관,충북 충주시,043-848-8483,"['가족여행', '교과서속여행', '문화시설', '미세먼지_피하는_실내여행', '미세먼지_피하는_실내여행']",https://cdn.visitkorea.or.kr/img/call?cmd=VIEW&id=9dc0e520-aa46-4f2d-b01d-cce465fd49d7&thumb,충청북도 충주시 남한강로 24,36.98783035,127.90557109999999,
1,난계국악박물관,충북 영동군,043-742-8843,"['기차여행', '난계국악박물관', '단체관람', '문화시설', '박물관', '아이와함께']",https://cdn.visitkorea.or.kr/img/call?cmd=VIEW&id=8de90102-1dd3-4d55-87e2-00d2cbc48cdd&thumb,충청북도 영동군 심천면 국악로 9,36.21019414,127.7049504,
2,오대호아트팩토리,충북 충주시,043-844-0741,"['가족과함께', '문화시설', '문화예술', '복합문화공간', '아이와함께', '언택트관광지_100선']",https://cdn.visitkorea.or.kr/img/call?cmd=VIEW&id=d73252a8-17c9-46fe-8701-0b59ce0ec7b5&thumb,충청북도 충주시 앙성면 가곡로 1434,37.09419009,127.7945155,
3,단양 다누리아쿠아리움,충북 단양군,043-420-2951,"['가족과함께', '가족여행', '가족체험여행', '교과서속정보', '다누리아쿠아리움']",https://cdn.visitkorea.or.kr/img/call?cmd=VIEW&id=d3bf580d-3c17-42f0-b297-ab68136ca5ad&thumb,충청북도 단양군 단양읍 수변로 111,36.98541064,128.37075190000002,
4,술박물관 리쿼리움,충북 충주시,043-855-7333,"['기념품판매', '문화시설', '박물관', '사계절', '술박물관리쿼리움', '실내여행지']",https://cdn.visitkorea.or.kr/img/call?cmd=VIEW&id=53fc4668-c943-4348-abcf-df1c3223639c&thumb,충청북도 충주시 중앙탑면 탑정안길 12,37.01850597,127.8656335,
5,공군박물관,충북 청주시,043-290-6071,"['공군박물관', '교과서속여행', '무료관람', '문화시설', '박물관', '실내여행지']",https://cdn.visitkorea.or.kr/img/call?cmd=VIEW&id=c6720798-da59-4aea-b6a7-b7c0216b91bd&thumb,충청북도 청주시 상당구 남일면 단재로 635,36.579854,127.527878,
6,충주고구려비전시관,충북 충주시,043-850-7301,"['문화시설', '박물관', '역사공부', '역사관광지', '역사를품은곳', '역사문화재']",https://cdn.visitkorea.or.kr/img/call?cmd=VIEW&id=8d334ed0-2b09-4284-a7fd-cbb5b71a1b0f&thumb,충청북도 충주시 중앙탑면 감노로 2319,37.02829102,127.8482537,
7,충주고구려천문과학관,충북 충주시,043-842-3247,"['가족여행', '무더위_피해_실내놀이', '문화시설', '별따라가기', '아이와함께']",https://cdn.visitkorea.or.kr/img/call?cmd=VIEW&id=950ea894-560a-4cbd-a098-b3b473ac9df7&thumb,충청북도 충주시 중앙탑면 묘곡내동길 100,37.04031896,127.8484155,
8,진천 종박물관,충북 진천군,043-539-3847,"['교과서속여행', '문화시설', '박물관', '사계절', '실내여행지', '아이와함께', '진천종박물관']",https://cdn.visitkorea.or.kr/img/call?cmd=VIEW&id=ac1fec55-01cd-4193-bdfa-99d18a8ddf25&thumb,충청북도 진천군 진천읍 백곡로 1504-12,36.87002892,127.4131749,
9,운보의 집,충북 청주시,043-213-0570,"['가족여행', '김기창', '문화시설', '운보', '운보문화체험', '운보의집', '청주시']",https://cdn.visitkorea.or.kr/img/call?cmd=VIEW&id=d5f75b3e-4732-408b-b878-18311bdeb1a2&thumb,충청북도 청주시 청원구 내수읍 형동2길 92-41,36.69193256,127.56506270000001,
10,수몰역사관,충북 제천시,043-641-6734,"['가족여행', '문화시설', '수몰역사관', '체험학습', '충청권']",https://cdn.visitkorea.or.kr/img/call?cmd=VIEW&id=6efa19f3-44d2-4c19-adda-d4aa0e6b1bff&thumb,충청북도 제천시 청풍면 청풍호로 2048,37.00404832,128.17338279999998,
11,국립청주박물관 어린이박물관,충북 청주시,043-229-6313,"['국립청주박물관', '기차여행', '문화시설', '박물관', '실내여행지', '아이와함께']",https://cdn.visitkorea.or.kr/img/call?cmd=VIEW&id=f0c38510-c278-41a6-abb3-5ccc37e0e9a8&thumb,충청북도 청주시 상당구 명암로 143,36.64966894,127.5120091,
12,철박물관,충북 음성군,043-883-2321,"['교과서속여행', '문화시설', '박물관', '실내여행지', '아이와함께', '전시관', '철박물관']",https://cdn.visitkorea.or.kr/img/call?cmd=VIEW&id=86559cfd-d3dd-47e3-8f29-f7de7ac62b95&thumb,충청북도 음성군 감곡면 영산로 360,37.09116101,127.6497515,
13,충주박물관,충북 충주시,043-850-3924 043-850-3921,"['기차여행', '문화시설', '미세먼지_피하는_실내여행', '박물관', '실내관광지']",https://cdn.visitkorea.or.kr/img/call?cmd=VIEW&id=91418d6c-755a-4a30-b652-ddb916821bee&thumb,충청북도 충주시 중앙탑면 중앙탑길 112-28,37.01668468,127.86512659999998,
14,정지용 문학관,충북 옥천군,043-730-3408,"['가족과함께', '교과서속여행', '기념관', '남녀노소', '문학관', '문학기행', '문화시설']",https://cdn.visitkorea.or.kr/img/call?cmd=VIEW&id=e420c275-7861-46cb-94ed-39b5d172e4dc&thumb,충청북도 옥천군 옥천읍 향수길 56,36.31493739,127.58160819999999,
15,청주백제유물전시관,충북 청주시,043-201-4255,"['가족여행', '교과서속여행', '문화시설', '박물관', '사계절', '아이와함께', '이색체험']",https://cdn.visitkorea.or.kr/img/call?cmd=VIEW&id=bc0daaa6-eab0-4e61-8d83-7348ff954f1f&thumb,충청북도 청주시 흥덕구 1순환로438번길 9,36.65216374,127.4690007,
16,수양개선사유물전시관,충북 단양군,043-423-8502,"['가족여행', '교과서속여행', '문화시설', '박물관', '사계절', '수양개선사유물전시관']",https://cdn.visitkorea.or.kr/img/call?cmd=VIEW&id=74a93828-9ec0-4b66-8333-7bc3402fb051&thumb,충청북도 단양군 적성면 수양개유적로 390,36.96046466,128.3324648,
17,국립현대미술관(청주관),충북 청주시,043-261-1400,"['관광지', '국립현대미술관', '기획전시', '문화시설', '문화예술공간', '미세먼지_피하는_실내여행']",https://cdn.visitkorea.or.kr/img/call?cmd=VIEW&id=1635e09d-04db-49a2-b27d-936bc2734b93&thumb,충청북도 청주시 청원구 상당로 314,36.65619563,127.4923824,
18,정크아트갤러리(오대호 스튜디오),충북 음성군,043-844-0741,"['갤러리', '문화공간', '문화시설', '문화예술', '복합문화공간', '열린문화공간']",https://cdn.visitkorea.or.kr/img/call?cmd=VIEW&id=025371cc-4a7a-4563-9a6c-fdcd26d95343&thumb,충청북도 음성군 음성읍 가섭길 219,36.96025377,127.6999297,
19,괴산한지체험박물관,충북 괴산군,043-832-3223,"['가족과함께', '괴산가볼만한곳', '괴산한지체험박물관', '문화시설', '미세먼지_피하는_실내여행']",https://cdn.visitkorea.or.kr/img/call?cmd=VIEW&id=1dacbb2d-66cb-41a0-8704-f9d34b636665&thumb,충청북도 괴산군 연풍면 원풍로 233,36.78543887,128.01489990000002,
20,증평민속체험박물관,충북 증평군,043-835-4161,"['가족체험여행', '공예체험', '공예품', '농촌체험', '목공예', '문화시설', '문화행사']",https://cdn.visitkorea.or.kr/img/call?cmd=VIEW&id=0cc42d29-d6da-47af-9e24-67833311a6db&thumb,충청북도 증평군 증평읍 둔덕길 89,36.7638886,127.59556940000002,
21,국립청주박물관,충북 청주시,043-229-6300,"['국립청주박물관', '기차여행', '문화시설', '박물관', '실내여행지', '아이와함께']",https://cdn.visitkorea.or.kr/img/call?cmd=VIEW&id=604dfb7f-1271-4416-8231-0e716361b989&thumb,충청북도 청주시 상당구 명암로 143,36.64966894,127.5120091,
22,오장환문학관,충북 보은군,043-540-3776,"['가족과함께', '문학', '문학관', '문화시설', '보은가볼만한곳', '아이와함께', '역사공부']",https://cdn.visitkorea.or.kr/img/call?cmd=VIEW&id=2baef959-e656-43eb-86c3-5f7f14b5770a&thumb,충청북도 보은군 회인면 회인로5길 12,36.49335597,127.59644640000002,
23,솔향공원,충북 보은군,043-540-3774,"['걷기길', '문화시설', '솔향공원', '아이와함께', '자연', '자연좋은곳', '전시관']",https://cdn.visitkorea.or.kr/img/call?cmd=VIEW&id=c827ddc1-9732-4c0b-ba46-d9ea54487093&thumb,충청북도 보은군 속리산면 속리산로 600,36.49920811,127.80270759999999,
24,제천문화회관,충북 제천시,043-641-5552,"['가족여행', '공연장', '나들이', '데이트코스', '문화시설', '아이와함께', '연인과함께']",https://cdn.visitkorea.or.kr/img/call?cmd=VIEW&id=c96bb39d-01fe-482e-8387-8d87bfa26f9d&thumb,충청북도 제천시 의림대로6길 32,37.13047926,128.2106102,
25,한독의약박물관,충북 음성군,043-530-1004,"['가족여행', '문화시설', '미세먼지_피하는_실내여행', '박물관', '실내관광지']",https://cdn.visitkorea.or.kr/img/call?cmd=VIEW&id=62afdc1a-4c3d-48f6-9ac6-7484cbae948f&thumb,충청북도 음성군 대소면 대풍산단로 78,36.97056729,127.46531599999999,
26,의림지 역사박물관,충북 제천시,043-641-6569,"['가족과함께', '남녀노소', '문화시설', '아이와함께', '역사공부', '역사를품은곳']",https://cdn.visitkorea.or.kr/img/call?cmd=VIEW&id=27c1d500-a576-4655-93f5-a3d5ba67c322&thumb,충청북도 제천시 의림대로47길 7,37.17611849,128.2095034,
27,한국잠사박물관(청주),충북 청주시,043-238-1267,"['교과서속여행', '문화시설', '박물관', '사계절', '실내여행지', '아이와함께', '체험학습']",https://cdn.visitkorea.or.kr/img/call?cmd=VIEW&id=e822617c-4f68-4398-b781-f2023714e35d&thumb,충청북도 청주시 흥덕구 강내면 청주역로 213-52,36.63936808,127.3822358,
28,조동리 선사유적 박물관,충북 충주시,043-850-3991,"['가족여행', '교과서속여행', '문화시설', '박물관', '사계절', '아이와함께', '전시관']",https://cdn.visitkorea.or.kr/img/call?cmd=VIEW&id=96650e2e-fe8a-4048-8e20-780d3322af1e&thumb,충청북도 충주시 동량면 조동1길 15,37.02641914,127.96186540000001,
29,청주시립대청호미술관,충북 청주시,043-201-0911,"['가족여행', '문화시설', '문화행사', '미술관', '사계절', '실내여행지', '아이와함께']",https://cdn.visitkorea.or.kr/img/call?cmd=VIEW&id=b8f47f05-c173-4782-990a-d9cd36d16a2d&thumb,충청북도 청주시 상당구 문의면 대청호반로 721,36.50711307,127.49371950000001,
30,박정우 염색갤러리,충북 제천시,043-644-4051,"['가족과 함께', '문화시설', '문화예술', '박정우염색갤러리', '아이와 함께', '염색체험']",https://cdn.visitkorea.or.kr/img/call?cmd=VIEW&id=3086da84-a71e-48d0-8761-ea289a629cc9&thumb,충청북도 제천시 청풍면 문화재길 30,37.00441876,128.17357109999998,
31,능강솟대문화공간,충북 제천시,043-653-6160,"['공예체험', '공예품', '능강솟대문화공간', '목공예', '문화시설', '전시관', '전통공예']",https://cdn.visitkorea.or.kr/img/call?cmd=VIEW&id=a367f792-3e1c-4665-89ea-7ea7614a1f01&thumb,충청북도 제천시 수산면 옥순봉로 1100,36.98166515,128.2008213,
32,충주시택견원,충북 충주시,043-850-7304,"['문화시설', '문화행사', '사계절', '스포츠센터', '아이와함께', '이색체험', '체험학습']",https://cdn.visitkorea.or.kr/img/call?cmd=VIEW&id=4e3a91be-bc8d-472b-8cf9-eab2986bf21a&thumb,충청북도 충주시 중원대로 3324,36.96502318,127.92640049999999,
33,제천의병전시관,충북 제천시,043-641-4811,"['가족여행', '교과서속여행', '근대문화유산', '문화시설', '박물관', '사계절', '아이와함께']",https://cdn.visitkorea.or.kr/img/call?cmd=VIEW&id=f1ac5f34-0858-4ea0-8e4a-cd39daa476f2&thumb,충청북도 제천시 봉양읍 의암로 566-7,37.09959081,128.0876169,
34,제천기적의도서관,충북 제천시,043-644-1215,"['남녀노소', '독서교육', '문화공간', '문화시설', '제천기적의도서관']",https://cdn.visitkorea.or.kr/img/call?cmd=VIEW&id=90a8fc2f-ea5e-4561-b0b0-924f6aeee2be&thumb,충청북도 제천시 용두천로38길 30,37.15525402,128.2200645,
35,청주예술의전당,충북 청주시,043-201-2360,"['가족여행', '공연장', '나들이', '데이트코스', '문화시설', '아이와함께', '연인과함께']",https://cdn.visitkorea.or.kr/img/call?cmd=VIEW&id=9ee0a4be-2c33-4dd2-8ad4-bbc730a030d1&thumb,충청북도 청주시 서원구 흥덕로 69,36.64209963,127.4696761,
36,충주 민물고기전시관,충북 충주시,043-220-6521,"['문화시설', '민물고기전시관', '아이와 함께', '이색전시', '자연공부', '충주시']",https://cdn.visitkorea.or.kr/img/call?cmd=VIEW&id=ef39b76a-f1a8-453c-91b3-1a2ee02d5b8a&thumb,충청북도 충주시 충주호수로 423,37.01828458,127.9656416,
37,충북문화관,충북 청주시,043-223-4100,"['공연&전시', '문화시설', '문화행사', '복합문화공간', '열린문화공간', '예술']",https://cdn.visitkorea.or.kr/img/call?cmd=VIEW&id=48394437-5472-4e35-9f45-ae3d8b6f008f&thumb,충청북도 청주시 상당구 대성로122번길 67,36.63732942,127.49548030000001,
38,음성문화예술회관,충북 음성군,043-871-5949,"['공연장', '무장애', '문화공간', '문화시설', '문화예술', '문화예술활동', '문화예술회관']",https://cdn.visitkorea.or.kr/img/call?cmd=VIEW&id=72bb7fc0-5631-4602-a17a-b8a5cded4fc9&thumb,충청북도 음성군 음성읍 예술로 102,36.9315225,127.68060459999998,
39,감우재전승기념관,충북 음성군,043-871-5930,"['가족과함께', '가족여행', '감우재전승기념관', '교과서속여행', '기념관', '문화시설']",https://cdn.visitkorea.or.kr/img/call?cmd=VIEW&id=0b2b9843-c645-4b33-8347-80936de185d7&thumb,충청북도 음성군 음성읍 소여리,36.94223521,127.6529808,
40,수안보곤충박물관,충북 충주시,043-857-1800,"['교과서여행', '문화시설', '수안보곤충박물관', '아이와 함께', '자연체험']",https://cdn.visitkorea.or.kr/img/call?cmd=VIEW&id=3172dee1-e018-4d7c-b397-32bb3ec7c600&thumb,충청북도 충주시 수안보면 관동길 152,36.85440938,128.0000354,
41,한국교원대학교 교육박물관,충북 청주시,043-230-3361,"['기차여행', '무료관람', '문화시설', '박물관', '실내여행지', '아이와함께', '전시관']",https://cdn.visitkorea.or.kr/img/call?cmd=VIEW&id=894a27cc-6254-4d5e-b3bd-230c02daf17b&thumb,충청북도 청주시 흥덕구 강내면 태성탑연로 250,36.6056652,127.35732469999999,
42,호암공원생태전시관,충북 충주시,043-855-6993,"['가족여행', '걷기길', '데이트코스', '문화시설', '사계절', '연인과함께', '조깅']",https://cdn.visitkorea.or.kr/img/call?cmd=VIEW&id=50613047-c8b4-48c9-8d9e-14d025de06f9&thumb,충청북도 충주시 상아배이길 84,36.96045033,127.92245390000001,
43,충주커피박물관,충북 충주시,043-852-4553,"['무더위_피해_실내여행', '문화시설', '박물관', '이색체험', '체험프로그램', '충주가볼만한곳']",https://cdn.visitkorea.or.kr/img/call?cmd=VIEW&id=80069748-d35e-40fc-80f0-310d04d54fff&thumb,충청북도 충주시 살미면 월악로 432,36.90496824,128.0141819,
44,음성 향토민속자료전시관,충북 음성군,043-871-3068,"['교과서속여행', '문화시설', '사계절', '실내여행지', '아이와함께', '음성향토민속자료전시관']",https://cdn.visitkorea.or.kr/img/call?cmd=VIEW&id=36f8b299-ae65-45cc-82ca-735f44ef50ec&thumb,충청북도 음성군 음성읍 설성공원길 10-7,36.93129655,127.6916111,
45,반기문 기념관,충북 음성군,,"['교육여행', '기념관', '남녀노소', '문화시설', '반기문기념관', '아이와함께', '역사를품은곳']",https://cdn.visitkorea.or.kr/img/call?cmd=VIEW&id=e169d500-e63b-4869-96f5-10c76fe3e200&thumb,충청북도 음성군 원남면 행치길 17-1,36.89226999,127.66464270000002,
46,영동군 난계국악당,충북 영동군,043-740-3884,"['가족여행', '공연장', '나들이', '데이트코스', '문화시설', '실내여행지', '아이와함께']",https://cdn.visitkorea.or.kr/img/call?cmd=VIEW&id=ac688b56-e5ea-427f-9f3a-29eaebea9ed7&thumb,충청북도 영동군 영동읍 성안길 11,36.17591836,127.7712217,
47,호암예술관,충북 충주시,043-850-3950,"['가족여행', '데이트코스', '문화시설', '문화행사', '사계절', '상설공연', '연인과함께']",https://cdn.visitkorea.or.kr/img/call?cmd=VIEW&id=44bd0075-0a06-4d4e-b123-9fd71208c650&thumb,충청북도 충주시 중원대로 3306,36.96271929,127.92690640000001,
48,증평문화원,충북 증평군,043-835-3977,"['무장애', '문화시설', '문화원', '증평군', '지역문화', '지역문화행사', '충청북도']",https://cdn.visitkorea.or.kr/img/call?cmd=VIEW&id=01d4eb01-359f-463c-81d2-c205e35b7690&thumb,충청북도 증평군 증평읍 문화로 75,36.78661528,127.59002360000001,
49,영동문화원,충북 영동군,043-742-2215,"['문화시설', '문화예술', '아이와함게', '영동군']",https://cdn.visitkorea.or.kr/img/call?cmd=VIEW&id=24e76638-088d-4832-b03c-3d1cf8ba7f69&thumb,충청북도 영동군 영동읍 영동천2길 29,36.17258808,127.77741540000001,
50,충북학생교육문화원,충북 청주시,043-229-2600,"['문화공간', '문화시설', '문화예술', '문화예술공간', '문화예술활동', '복합문화공간']",https://cdn.visitkorea.or.kr/img/call?cmd=VIEW&id=bcf5a081-12f4-42f4-88aa-b40398e7fb19&thumb,충청북도 청주시 청원구 공항로287번길 56,36.68294442,127.4796354,
51,예뿌리민속박물관,충북 청주시,043-283-6127,"['문화시설', '박물관', '예뿌리민속박물관', '충청권']",https://cdn.visitkorea.or.kr/img/call?cmd=VIEW&id=2b2d7f27-3673-4e8d-a457-3967a069cfed&thumb,충청북도 청주시 상당구 가덕면 금거1길 10,36.58283334,127.59787890000001,
52,시네마360,충북 제천시,070-4162-6001,"['문화시설', '영상관', '이색체험', '제천시네마360']",https://cdn.visitkorea.or.kr/img/call?cmd=VIEW&id=c3fb523d-eab4-4707-b426-e23fe65a8c78&thumb,충북 제천시 청풍면 물태리 산6-29 제천청풍호반케이블카 2층,37.001532,128.16661100000002,
53,매괴박물관,충북 음성군,043-881-2808,"['매괴박물관', '문화시설', '박물관', '역사', '전통&역사문화체험', '충청권']",https://cdn.visitkorea.or.kr/img/call?cmd=VIEW&id=665633d1-23eb-4037-bf9a-f4040fa658a3&thumb,충청북도 음성군 감곡면 성당길 10,37.12244452,127.64133770000001,
54,성마루미술관,충북 충주시,043-848-7200,"['가족여행', '문화시설', '미술관', '사계절', '성마루미술관', '실내여행지', '아이와함께']",https://cdn.visitkorea.or.kr/img/call?cmd=VIEW&id=304fd590-16b3-4bae-b235-94f5c26d0453&thumb,충청북도 충주시 대소원면 장성길 38-1,36.96136388,127.838825,
55,농민문학기념관,충북 영동군,043-743-5186,"['가족과함께', '기념관', '남녀노소', '농민', '농민문학', '농민문학기념관', '문학']",https://cdn.visitkorea.or.kr/img/call?cmd=VIEW&id=c6892a9f-c68f-4e1f-baff-dbf42e910444&thumb,충청북도 영동군 매곡면 노천2길 5-1,36.18884401,127.92987749999999,
56,음성문화원,충북 음성군,043-872-4084,"['문화시설', '사설문화원', '음성군', '음성문화원', '전시회', '충청북도', '향토문화']",https://cdn.visitkorea.or.kr/img/call?cmd=VIEW&id=91c1f37a-a687-4beb-ae55-01b1ab90636b&thumb,충청북도 음성군 음성읍 수정로 36,36.93420893,127.6903844,
57,단양문화원,충북 단양군,043-423-0701,"['단양군', '단양문화원', '문화시설', '문화원', '문화유적', '지역문화', '충청북도']",https://cdn.visitkorea.or.kr/img/call?cmd=VIEW&id=0a00e2fe-8e19-42a0-82a7-4326aceb757b&thumb,충청북도 단양군 단양읍 중앙1로 32,36.98555614,128.3682771,
58,한운사기념관,충북 괴산군,043-830-2684,"['가족여행', '기념관', '문화시설', '상설공연', '예술', '이색체험', '전시관', '추억여행']",https://cdn.visitkorea.or.kr/img/call?cmd=VIEW&id=33b4ecd9-0c0b-47f4-b33b-ad31e7fe9b83&thumb,충청북도 괴산군 청안면 청안읍내로6길 3,36.77424989,127.63768400000001,
59,옥천문화원,충북 옥천군,043-733-5588,"['문화시설', '복합문화공간', '열린문화공간', '옥천문화원']",https://cdn.visitkorea.or.kr/img/call?cmd=VIEW&id=2b9b8175-4563-4a28-94b5-9d02c138dfcc&thumb,충청북도 옥천군 옥천읍 관성로 35,36.30209032,127.5731251,
60,충주시립도서관,충북 충주시,043-850-3972,"['도서관', '독서', '무장애', '문화시설', '시립', '충주시', '충청북도']",https://cdn.visitkorea.or.kr/img/call?cmd=VIEW&id=111b4a79-0fbf-4f99-90b1-6ab0e86361ce&thumb,충청북도 충주시 예성로 207,36.97477979999999,127.93380630000001,
61,괴산문화원,충북 괴산군,043-832-3588,"['괴산문화원', '교육프로그램', '문화시설', '충북권']",https://cdn.visitkorea.or.kr/img/call?cmd=VIEW&id=cf3d05a4-7a22-4c3a-9280-6b9232e376ee&thumb,충청북도 괴산군 괴산읍 읍내로 268,36.807111,127.793765,
62,무심갤러리,충북 청주시,043-268-0070,"['무심갤러리', '문화시설', '문화예술공간', '전시관']",https://cdn.visitkorea.or.kr/img/call?cmd=VIEW&id=c5d3452e-709f-4c98-beeb-295916230fb0&thumb,충청북도 청주시 서원구 사직대로 175,36.63566579,127.4670081,
63,제천시립도서관,충북 제천시,043-646-2019,"['독서교육', '문화공간', '문화시설', '제천시립도서관']",https://cdn.visitkorea.or.kr/img/call?cmd=VIEW&id=4bb3fd2e-9237-410d-8760-9bea6ab4c334&thumb,충청북도 제천시 내제로 318,37.14506338,128.22013570000001,
64,지적박물관,충북 제천시,043-651-5115,"['교과서속여행', '문화시설', '박물관', '사계절', '실내여행지', '아이와함께', '지적박물관']",https://cdn.visitkorea.or.kr/img/call?cmd=VIEW&id=3ebca238-214a-4f68-9cc3-864701c36b8b&thumb,충청북도 제천시 금성면 양월로 34,37.07610652,128.1976841,
65,충주문화원,충북 충주시,043-846-3906,"['문화생활', '문화시설', '문화원', '지역문화', '지역정보', '충주시', '충청북도']",https://cdn.visitkorea.or.kr/img/call?cmd=VIEW&id=c84a4094-e7bf-41f6-927c-faec73ddbec2&thumb,충청북도 충주시 탄금대안길 33,36.98697749,127.8984696,
66,김재옥교사기념관,충북 충주시,043-857-3107,"['기념관', '김재옥교사기념관', '문화시설', '사계절', '아이와함께', '역사유적지']",https://cdn.visitkorea.or.kr/img/call?cmd=VIEW&id=0abf2870-4e22-461a-8deb-f6dd8668b782&thumb,충청북도 충주시 신니면 신덕로 301,37.0034506,127.686075,
67,보은문화원,충북 보은군,043-544-2314,"['무장애', '문화사업', '문화시설', '보은군', '지역문화', '지역주민', '충청북도']",https://cdn.visitkorea.or.kr/img/call?cmd=VIEW&id=d63faea7-4ca2-4982-bc53-3c4680622c07&thumb,충청북도 보은군 보은읍 뱃들로 54,36.48694626,127.7241379,
68,춘추민속관,충북 옥천군,043-733-4007,"['문학', '문화시설', '민속', '시문학', '아이와함께', '정지용문학관', '정지용문학관']",https://cdn.visitkorea.or.kr/img/call?cmd=VIEW&id=643c71c6-8ebc-43f5-ae31-81bfa17bf55b&thumb,충청북도 옥천군 옥천읍 향수3길 19,36.3144645,127.57989270000002,
69,옥천문화예술회관,충북 옥천군,043-730-4891,"['문화공간', '문화시설', '문화예술', '문화예술공간', '문화예술활동', '문화예술회관']",https://cdn.visitkorea.or.kr/img/call?cmd=VIEW&id=eb1443a3-1533-48a7-b732-1aaa691bef02&thumb,충청북도 옥천군 옥천읍 문정1길 32,36.30376019,127.5741229,
70,제천문화원,충북 제천시,043-646-3646,"['교육프로그램', '문화시설', '제천문화원', '충북권']",https://cdn.visitkorea.or.kr/img/call?cmd=VIEW&id=e5feed2f-225b-43ab-8c5c-1835aa1e3ed3&thumb,충청북도 제천시 의림대로 125,37.13923321,128.210774,
71,청주문화원,충북 청주시,043-265-36245,"['교육프로그램', '문화시설', '청주문화원', '충북권']",https://cdn.visitkorea.or.kr/img/call?cmd=VIEW&id=undefined&thumb,충청북도 청주시 상당구 단재로 361,36.59858685,127.50577520000002,
72,우륵당,충북 충주시,043-850-7305,"['국악', '문화시설', '연주회', '우륵', '충주시', '충청북도', '친구와함께', '힐링']",https://cdn.visitkorea.or.kr/img/call?cmd=VIEW&id=c59deb3b-b5d3-447d-a531-b2b3c9be5b49&thumb,충청북도 충주시 중원대로 3324,36.96502318,127.92640049999999,
73,진천향토민속자료전시관,충북 진천군,043-539-3543,"['가족과함께', '문화시설', '민속문화재', '민속테마', '아이와함께', '전시관', '향토문화']",https://cdn.visitkorea.or.kr/img/call?cmd=VIEW&id=7cb2ec84-d2d2-4150-bb75-bcc44fe862b6&thumb,충청북도 진천군 진천읍 문진로 1323,36.84730067,127.4205905,
74,청원문화원,충북 청주시,043-298-2858,"['교육프로그램', '문화시설', '청원문화원']",https://cdn.visitkorea.or.kr/img/call?cmd=VIEW&id=b3c5a891-d1bb-4196-bb8b-64943afeb139&thumb,충청북도 청주시 상당구 단재로 361,36.59858685,127.50577520000002,
75,충주과수과학관,충북 충주시,043-850-3258,"['기차여행', '문화시설', '봄나들이', '아이와함께', '전시관', '체험학습', '충북여행']",https://cdn.visitkorea.or.kr/img/call?cmd=VIEW&id=0a41596e-a638-4b3a-841c-ca8de0ee3ccd&thumb,충청북도 충주시 동량면 충원대로 1346,37.04521916,127.9289446,
76,환경문화전시장,충북 괴산군,043-233-8431,"['가족여행', '걷기길', '문화시설', '사계절', '아이와함께', '자연좋은곳', '전시관']",https://cdn.visitkorea.or.kr/img/call?cmd=VIEW&id=2ef95c7a-9791-4148-8800-91b5bc615cf7&thumb,충청북도 괴산군 청천면 괴산로 1248,36.65503442,127.74548490000002,
77,충청북도자연과학교육원 과학전시관,충북 청주시,043-229-1884,"['과학관', '과학체험', '무더위_피해_실내여행', '문화시설', '미세먼지_피하는_실내여행']",https://cdn.visitkorea.or.kr/img/call?cmd=VIEW&id=f7249d65-10d9-45b4-967b-25cb7a2e1da3&thumb,충청북도 청주시 상당구 대성로 150,36.63856953,127.49266029999998,
78,진천문화원,충북 진천군,043-533-2744,"['문화시설', '복합문화공간', '열린문화공간', '진천문화원']",https://cdn.visitkorea.or.kr/img/call?cmd=VIEW&id=06e6dfaa-b85c-4dba-8749-dc11214c9f7c&thumb,충청북도 진천군 진천읍 문화로 79,36.85002635,127.4398768,
79,주철장 전수교육관,충북 진천군,043-539-3847,"['가족과함께', '교육여행', '교육장', '문화시설', '아이와함께', '이색체험', '전시관']",https://cdn.visitkorea.or.kr/img/call?cmd=VIEW&id=814cdc95-6744-484c-85bd-109c48361b1a&thumb,충청북도 진천군 진천읍 장관리,36.87166333,127.4256601,
80,생거판화 미술관,충북 진천군,043-539-3607,"['', '미세먼지_피하는_실내여행', '문화시설', '문화예술공간', '미술관', '복합문화공간']",https://cdn.visitkorea.or.kr/img/call?cmd=VIEW&id=62fb4790-70d3-4dbe-bb80-49107ea5cd3b&thumb,충청북도 진천군 진천읍 백곡로 1504-12,36.87002892,127.4131749,
81,향산리 미술촌,충북 충주시,043-855-1555,"['문화시설', '문화예술공간', '미술촌', '향산리']",https://cdn.visitkorea.or.kr/img/call?cmd=VIEW&id=845d6159-1242-475f-82df-5800b0d3ff40&thumb,충청북도 충주시 살미면 팔봉향산길 489,36.92663589,127.9340262,
82,김종명 나뭇잎 예술 갤러리,충북 제천시,010-5460-4497,"['문화시설', '문화예술', '복합문화공간', '복합문화시설', '연인과함께', '예술여행']",https://cdn.visitkorea.or.kr/img/call?cmd=VIEW&id=bbd26777-fa93-43c7-8197-655f6760123a&thumb,충청북도 제천시 봉양읍 배론성지길 36,37.15842456,128.1060385,
83,청주시한국공예관,충북 청주시,043-268-0255,['문화시설'],https://cdn.visitkorea.or.kr/img/call?cmd=VIEW&id=24d6c2d3-f18c-4bf7-9cf4-405319c8949d&thumb,충청북도 청주시 청원구 상당로 314,36.65619563,127.4923824,
84,국립청주박물관,충북 청주시,043-229-6300,"['국립청주박물관', '기차여행', '문화시설', '박물관', '실내여행지', '아이와함께']",https://cdn.visitkorea.or.kr/img/call?cmd=VIEW&id=604dfb7f-1271-4416-8231-0e716361b989&thumb,충청북도 청주시 상당구 명암로 143,36.64966894,127.5120091,
85,한독의약박물관,충북 음성군,043-530-1004,"['가족여행', '문화시설', '미세먼지_피하는_실내여행', '박물관', '실내관광지']",https://cdn.visitkorea.or.kr/img/call?cmd=VIEW&id=62afdc1a-4c3d-48f6-9ac6-7484cbae948f&thumb,충청북도 음성군 대소면 대풍산단로 78,36.97056729,127.465316,
86,한국잠사박물관(청주),충북 청주시,043-238-1267,"['교과서속여행', '문화시설', '박물관', '사계절', '실내여행지', '아이와함께', '체험학습']",https://cdn.visitkorea.or.kr/img/call?cmd=VIEW&id=e822617c-4f68-4398-b781-f2023714e35d&thumb,충청북도 청주시 흥덕구 강내면 청주역로 213-52,36.63936808,127.3822358,
87,청주시립대청호미술관,충북 청주시,043-201-0911,"['가족여행', '문화시설', '문화행사', '미술관', '사계절', '실내여행지', '아이와함께']",https://cdn.visitkorea.or.kr/img/call?cmd=VIEW&id=b8f47f05-c173-4782-990a-d9cd36d16a2d&thumb,충청북도 청주시 상당구 문의면 대청호반로 721,36.50711307,127.4937195,
88,한국교원대학교 교육박물관,충북 청주시,043-230-3361,"['기차여행', '무료관람', '문화시설', '박물관', '실내여행지', '아이와함께', '전시관']",https://cdn.visitkorea.or.kr/img/call?cmd=VIEW&id=894a27cc-6254-4d5e-b3bd-230c02daf17b&thumb,충청북도 청주시 흥덕구 강내면 태성탑연로 250,36.6056652,127.3573247,
89,음성 향토민속자료전시관,충북 음성군,043-871-3068,"['교과서속여행', '문화시설', '사계절', '실내여행지', '아이와함께', '음성향토민속자료전시관']",https://cdn.visitkorea.or.kr/img/call?cmd=VIEW&id=36f8b299-ae65-45cc-82ca-735f44ef50ec&thumb,충청북도 음성군 음성읍 설성공원길 10-7,36.93129655,127.6916111,
90,영동군 난계국악당,충북 영동군,043-740-3884,"['가족여행', '공연장', '나들이', '데이트코스', '문화시설', '실내여행지', '아이와함께']",https://cdn.visitkorea.or.kr/img/call?cmd=VIEW&id=ac688b56-e5ea-427f-9f3a-29eaebea9ed7&thumb,충청북도 영동군 영동읍 성안길 11,36.17591836,127.7712217,
91,성마루미술관,충북 충주시,043-848-7200,"['가족여행', '문화시설', '미술관', '사계절', '성마루미술관', '실내여행지', '아이와함께']",https://cdn.visitkorea.or.kr/img/call?cmd=VIEW&id=304fd590-16b3-4bae-b235-94f5c26d0453&thumb,충청북도 충주시 대소원면 장성길 38-1,36.96136388,127.838825,
92,지적박물관,충북 제천시,043-651-5115,"['교과서속여행', '문화시설', '박물관', '사계절', '실내여행지', '아이와함께', '지적박물관']",https://cdn.visitkorea.or.kr/img/call?cmd=VIEW&id=3ebca238-214a-4f68-9cc3-864701c36b8b&thumb,충청북도 제천시 금성면 양월로 34,37.07610652,128.1976841,
93,충청북도자연과학교육원 과학전시관,충북 청주시,043-229-1884,"['과학관', '과학체험', '무더위_피해_실내여행', '문화시설', '미세먼지_피하는_실내여행']",https://cdn.visitkorea.or.kr/img/call?cmd=VIEW&id=f7249d65-10d9-45b4-967b-25cb7a2e1da3&thumb,충청북도 청주시 상당구 대성로 150,36.63856953,127.49266029999998,
94,생거판화 미술관,충북 진천군,043-539-3607,"['', '미세먼지_피하는_실내여행', '문화시설', '문화예술공간', '미술관', '복합문화공간']",https://cdn.visitkorea.or.kr/img/call?cmd=VIEW&id=62fb4790-70d3-4dbe-bb80-49107ea5cd3b&thumb,충청북도 진천군 진천읍 백곡로 1504-12,36.87002892,127.4131749,
95,만천하스카이워크,충북 단양군,043-421-0014,"['19_20한국관광100선', '가족과함께', '레포츠', '만천하스카이워크', '연인과함께']",https://cdn.visitkorea.or.kr/img/call?cmd=VIEW&id=aaa3ab4d-8653-458b-b10c-9d2844929806&thumb,충청북도 단양군 적성면 옷바위길 10,36.9770829,128.3369439,0.0
96,하늘재 트레킹,충북 충주시,043-653-3250,"['가족여행', '레포츠', '충청권', '트레킹', '하늘재트레킹']",https://cdn.visitkorea.or.kr/img/call?cmd=VIEW&id=749e234a-28e8-4907-97d9-3aaf428eb7d1&thumb,충청북도 충주시 수안보면 미륵리,36.8205886,128.09408259999998,1.0
97,청풍랜드,충북 제천시,043-648-4151,"['남녀노소', '레포츠', '번지점프', '복합레저스포츠', '연인과함께', '이색체험']",https://cdn.visitkorea.or.kr/img/call?cmd=VIEW&id=4bbdaa58-de72-4f1c-acdb-e215c327d8bf&thumb,충청북도 제천시 청풍면 청풍호로50길 6,37.0122312,128.179197,2.0
98,산막이옛길,충북 괴산군,043-832-3527,"['19_20한국관광100선', '걷기길', '레포츠', '산막이옛길', '산책코스', '자연풍경']",https://cdn.visitkorea.or.kr/img/call?cmd=VIEW&id=8c9330f3-e5e2-4289-8991-4b58fdb3a413&thumb,충청북도 괴산군 칠성면 산막이옛길 88,36.7609955,127.8387433,3.0
99,충주호 종댕이길,충북 충주시,043-842-0531,"['가족여행', '레포츠', '충주호종댕이길', '충청권']",https://cdn.visitkorea.or.kr/img/call?cmd=VIEW&id=268b6384-755e-42ed-bf39-a7256219c542&thumb,충청북도 충주시 종민동,36.9904678,127.9877821,4.0
100,옥천 향수 100리 자전거길(금강코스),충북 옥천군,043-730-3773,"['금강코스', '레포츠', '옥천향수100리자전거길', '충청권', '힐링']",https://cdn.visitkorea.or.kr/img/call?cmd=VIEW&id=b58a2988-c707-4365-b6dd-ac8e3e625029&thumb,충청북도 옥천군 옥천읍,36.3073447,127.5748173,5.0
101,두산패러글라이딩,충북 단양군,043-423-2633,"['가족여행', '두산패러글라이딩', '레포츠', '충청권', '항공스포츠']",https://cdn.visitkorea.or.kr/img/call?cmd=VIEW&id=ee0f068f-43b1-45a1-ad23-94981036e55f&thumb,충청북도 단양군 가곡면 두산길 254-6,36.9963008,128.3967846,6.0
102,충주호,충북 충주시,043-842-0531,"['가족여행', '관광지', '나들이', '데이트코스', '레포츠', '아이와함께', '연인과함께']",https://cdn.visitkorea.or.kr/img/call?cmd=VIEW&id=256ff6b7-c76f-47f1-9245-57b44e86fa3d&thumb,충청북도 충주시 동량면 조동리,37.0348412,127.984953,7.0
103,충주반딧불오토캠핑장,충북 충주시,043-846-3456,"['가족여행', '레포츠', '연중무휴', '충주반딧불오토캠핑장', '충청권', '휴양여행']",https://cdn.visitkorea.or.kr/img/call?cmd=VIEW&id=9060a7ad-4848-4de3-a3ac-b5f7d5c208fb&thumb,충청북도 충주시 엄정면 가춘리길 19,37.1254402,127.9256586,8.0
104,덕동골캠핑장,충북 제천시,070-7757-6978,"['가족여행지', '덕동', '레포츠', '캠핑장', '힐링']",https://cdn.visitkorea.or.kr/img/call?cmd=VIEW&id=fc0e4beb-b0d1-434c-9c9e-1df55a94f3ef&thumb,충청북도 제천시 백운면 덕동로2길 23-26,37.2172235,127.9568779,9.0
105,속리산둘레길 보은길,충북 보은군,043-542-3330,"['국립공원', '둘레길', '등산', '레포츠', '보은길', '속리산']",https://cdn.visitkorea.or.kr/img/call?cmd=VIEW&id=d165e72d-2859-4ad9-ac83-b4e585e86845&thumb,충청북도 보은군 장안면 개안길 20,36.4665509,127.7976087,10.0
106,양방산활공장,충북 단양군,043-422-1146,"['경험', '남한강', '단양군', '레포츠', '양방산활공장', '항공']",https://cdn.visitkorea.or.kr/img/call?cmd=VIEW&id=5eeefe93-ee6d-4e87-a0ea-2c994cd119d7&thumb,충청북도 단양군 단양읍 양방산길 350,36.9682771,128.3817898,11.0
107,청주종합사격장,충북 청주시,043-270-7375,"['레포츠', '사격장', '이색체험', '충청권']",https://cdn.visitkorea.or.kr/img/call?cmd=VIEW&id=42d45ee0-f3b2-4be6-898b-d8cddaaa1b14&thumb,충청북도 청주시 청원구 내수읍 도원세교로 369,36.6976745,127.5590271,12.0
108,충주조정체험아카데미,충북 충주시,043-844-3533,"['가족과함께', '레포츠', '수상레포츠', '에너제틱_청춘여행', '연인과함께', '조정체험']",https://cdn.visitkorea.or.kr/img/call?cmd=VIEW&id=bb7af45b-a283-42d5-b0dd-b9528214323c&thumb,충청북도 충주시 중앙탑면 중앙탑길 150,37.0220582,127.8611492,13.0
109,솔향공원 스카이바이크,충북 보은군,043-542-0970,"['레포츠', '솔향공원', '스카이바이크', '이색체험', '충청권']",https://cdn.visitkorea.or.kr/img/call?cmd=VIEW&id=4f261e30-c57a-4083-b899-22e1371e14cd&thumb,충청북도 보은군 속리산면 속리산로 600,36.49917420000001,127.8020815,14.0
110,짚라인 충주,충북 충주시,1588-5219,"['남녀노소', '레포츠', '복합레저스포츠', '에너제틱_청춘여행', '익스트림스포츠']",https://cdn.visitkorea.or.kr/img/call?cmd=VIEW&id=0bac28f8-58c7-4aca-96ed-b42cfd5b320c&thumb,충청북도 충주시 노은면 우성1길 191,37.0274709,127.7544342,15.0
111,단양드림레저 패러글라이딩,충북 단양군,043-421-7331,['레포츠'],https://cdn.visitkorea.or.kr/img/call?cmd=VIEW&id=19e6848b-5d9d-4194-8ad4-5e0299468b3d&thumb,충청북도 단양군 단양읍 수변로 59-1,36.98084470000001,128.370401,16.0
112,단양클레이사격장,충북 단양군,043-421-7766,"['레포츠', '사격', '사격장', '충북단양', '클레이사격']",https://cdn.visitkorea.or.kr/img/call?cmd=VIEW&id=b638dc0e-170a-4718-b002-ee72e32d4a05&thumb,충청북도 단양군 단양읍 노동장현로 207-17,36.96269760000001,128.3921631,17.0
113,송호국민관광지 야영장,충북 영동군,043-740-3228,"['가족여행', '레포츠', '송호국민관광지', '야영장', '충청권', '캠핑']",https://cdn.visitkorea.or.kr/img/call?cmd=VIEW&id=63808408-4732-44e5-8283-60429159fb3f&thumb,충청북도 영동군 양산면 송호로 105,36.1273455,127.6755192,18.0
114,비내길,충북 충주시,043-850-6724,"['경치여행', '경치좋은곳', '녹색길', '레포츠', '비내길', '산책길', '산책코스', '산책하기']",https://cdn.visitkorea.or.kr/img/call?cmd=VIEW&id=12d2c46a-551c-4b7d-be30-88a15230d842&thumb,충청북도 충주시 앙성면 새바지길 17,37.091572,127.8009252,19.0
115,떼제베 컨트리클럽,충북 청주시,043-230-4100,['레포츠'],https://cdn.visitkorea.or.kr/img/call?cmd=VIEW&id=029aceae-e250-415b-a20c-83278a053f0e&thumb,충청북도 청주시 흥덕구 옥산면 동림2길 149,36.66545900000001,127.3190149,20.0
116,박달재수련원,충북 제천시,043-652-9222,['레포츠'],https://cdn.visitkorea.or.kr/img/call?cmd=VIEW&id=7efb6b00-f84c-4236-bceb-71c30b27387f&thumb,충청북도 제천시 봉양읍 박달로 256-46,37.1430545,128.0604749,21.0
117,속리산유스타운,충북 보은군,043-540-7777,['레포츠'],https://cdn.visitkorea.or.kr/img/call?cmd=VIEW&id=565402fe-a2e0-4a01-beff-5d8a8ded41f2&thumb,충청북도 보은군 속리산면 법주사로 134,36.5212004,127.8179903,22.0
118,단양 패러일번지,충북 단양군,043-422-8190,"['남녀노소', '레포츠', '연인과함께', '익스트림스포츠', '인생샷', '추억여행', '패러글라이딩']",https://cdn.visitkorea.or.kr/img/call?cmd=VIEW&id=f5b5c7f5-d40a-4884-9154-9667a3d948f4&thumb,충청북도 단양군 가곡면 두산길 196-91,36.9938568,128.3949081,23.0
119,충청북도자연학습원,충북 괴산군,043-833-8005,['레포츠'],https://cdn.visitkorea.or.kr/img/call?cmd=VIEW&id=133fbf45-fca7-418a-9a6b-19c94e47f3e1&thumb,충청북도 괴산군 청천면 화양로 1314-12,36.6674381,127.844173,24.0
120,대청호,충북 옥천군,042-930-7204,"['남녀노소', '대청호', '드라이브', '레포츠', '산책하기좋은곳', '자연속으로', '자연여행']",https://cdn.visitkorea.or.kr/img/call?cmd=VIEW&id=d76417d7-6c5d-4eea-9758-1025379ff05a&thumb,충청북도 청주시 상당구 문의면 대청호반로 206,36.47903779999999,127.4850578,25.0
121,월류봉 둘레길,충북 영동군,043-740-3513,"['가을가볼만한곳', '가을경치', '가을여행', '경치좋은곳', '남녀노소', '둘레길']",https://cdn.visitkorea.or.kr/img/call?cmd=VIEW&id=f58775f2-a68c-402b-8ad9-f49cb05d49f0&thumb,충청북도 영동군 황간면 원촌리,36.2406353,127.8896966,26.0
122,청풍호 카약카누체험장 (관광두레 주민사업체),충북 제천시,043-646-8311,"['관광두레', '관광두레_주민사업체', '남녀노소', '레포츠', '매력&힐링', '수상레포츠']",https://cdn.visitkorea.or.kr/img/call?cmd=VIEW&id=37021749-8126-42c1-827c-6fb12e8ca8af&thumb,충청북도 제천시 수산면 옥순봉로 342,36.955213,128.2153962,27.0
123,닷돈재야영장,충북 제천시,043-653-3250,"['가족여행', '레포츠', '야영장', '오토캠핑장', '월악산국립공원', '충청권']",https://cdn.visitkorea.or.kr/img/call?cmd=VIEW&id=2c700766-8b95-473d-b4f7-bfbacd4b9ce5&thumb,충청북도 제천시 한수면 미륵송계로 1118,36.8459743,128.0926049,28.0
124,그랜드컨트리클럽,충북 청주시,043-212-7111,"['골프장', '그랜드컨트리클럽', '레포츠', '충청권']",https://cdn.visitkorea.or.kr/img/call?cmd=VIEW&id=45d2487f-3887-4c8a-b14d-4fc56de54657&thumb,충청북도 청주시 청원구 오창읍 꽃화산길 51-20,36.7221201,127.3783637,29.0
125,제천수상레저,충북 제천시,043-642-5020,"['레포츠', '모터보트', '수상레저', '수상스키', '제천여행']",https://cdn.visitkorea.or.kr/img/call?cmd=VIEW&id=904cb2d2-da49-490f-8f70-e1594a934996&thumb,충청북도 제천시 금성면 청풍호로 1482,37.0338405,128.17524509999998,30.0
126,도담삼봉 모터보트,충북 단양군,043-422-5593,"['단양관광지', '단양모터보트', '단양팔경', '레포츠']",https://cdn.visitkorea.or.kr/img/call?cmd=VIEW&id=1f08ebb2-fd0f-4b00-906d-38804a28557e&thumb,충청북도 단양군 매포읍 삼봉로 644-13,37.0007407,128.3417706,31.0
127,탄금호 국제조정경기장,충북 충주시,043-844-3533,"['레포츠', '수상레저', '이색체험', '조정체험', '충청권']",https://cdn.visitkorea.or.kr/img/call?cmd=VIEW&id=29782818-c117-473f-81de-b28571e83836&thumb,충청북도 충주시 중앙탑면 중앙탑길 150,37.0220582,127.8611492,32.0
128,낭추골 현장학습원 사계절썰매장,충북 청주시,043-297-1122,"['겨울스포츠', '낭추골', '낭추골현장체험학습원', '눈썰매장', '레포츠', '복합레저스포츠']",https://cdn.visitkorea.or.kr/img/call?cmd=VIEW&id=82366d7c-98d6-4892-81da-f0916ac886f3&thumb,충청북도 청주시 상당구 낭성면 단재로 1890,36.598121,127.6180379,33.0
129,영동군 산악자전거코스,충북 영동군,043-740-3215,"['레포츠', '레포츠여행', '복합레저스포츠', '산악자전거', '스포츠체험', '익스트림스포츠']",https://cdn.visitkorea.or.kr/img/call?cmd=VIEW&id=2e3e1c0d-2351-4a77-9ed5-744b17371c22&thumb,충청북도 영동군 영동읍 동정로 1,36.17489129999999,127.7834363,34.0
130,수안보 인공암벽장,충북 충주시,043-850-6640,"['관광지', '레포츠', '수안보인공암벽장', '연중무휴', '체험', '충청권']",https://cdn.visitkorea.or.kr/img/call?cmd=VIEW&id=a9ac398c-03bf-4b53-90ea-a50b72035a7f&thumb,충청북도 충주시 수안보면 수안보로 129,36.8421731,127.9986826,35.0
131,옥천 향수 200리 자전거길(대청호코스),충북 옥천군,043-730-3773,['레포츠'],https://cdn.visitkorea.or.kr/img/call?cmd=VIEW&id=10c6028b-f04a-4517-9c51-06820b8c6e07&thumb,충청북도 옥천군 옥천읍,36.3073447,127.5748173,36.0
132,화양동계곡 트레킹,충북 괴산군,043-832-4347,"['레포츠', '속리산국립공원', '자연환경', '트레킹', '화양동계곡']",https://cdn.visitkorea.or.kr/img/call?cmd=VIEW&id=e2a67a72-6955-4439-b7ad-2aecd8d762b4&thumb,충청북도 괴산군 청천면 화양동길,36.6704519,127.8095493,37.0
133,"대물낚시터 (모점지, 앙암저수지)",충북 충주시,043-855-8822,"['레포츠', '민물낚시', '충북권', '충주낚시터']",https://cdn.visitkorea.or.kr/img/call?cmd=VIEW&id=undefined&thumb,충청북도 충주시 앙성면 모점1길 128,37.1534211,127.736824,38.0
134,천동관광지 물놀이장,충북 단양군,043-423-1243,"['단양', '단양여행', '레포츠', '야외물놀이장']",https://cdn.visitkorea.or.kr/img/call?cmd=VIEW&id=65f3f21c-6b10-4f7a-8c2c-b2917531d7c3&thumb,충청북도 단양군 단양읍 다리안로 534,36.9731031,128.41731869999998,39.0
135,단양레포츠,충북 단양군,043-423-5600,['레포츠'],https://cdn.visitkorea.or.kr/img/call?cmd=VIEW&id=0c12b75a-4bef-40d9-a305-1b2afb735954&thumb,충청북도 단양군 영춘면 북벽길 51-10,37.0838566,128.4936908,40.0
136,초평저수지,충북 진천군,043-539-8773,"['낚시', '레포츠', '얼음낚시', '저수지', '초평저수지', '충청권']",https://cdn.visitkorea.or.kr/img/call?cmd=VIEW&id=1646ea5d-5933-4560-91d1-c58483afeac7&thumb,충청북도 진천군 초평면 초평로,36.8271581,127.5164427,41.0
137,에머슨 골프클럽,충북 진천군,043-533-6666,['레포츠'],https://cdn.visitkorea.or.kr/img/call?cmd=VIEW&id=48c039a4-498f-4ce6-b909-96151b476c3b&thumb,충청북도 진천군 백곡면 배티로 818-105,36.9388756,127.3375212,42.0
138,진양밸리 골프클럽,충북 음성군,043-880-8000,['레포츠'],https://cdn.visitkorea.or.kr/img/call?cmd=VIEW&id=31adad49-18a8-4c00-b466-90ef0228a474&thumb,충청북도 음성군 삼성면 금일로 1195,37.0311568,127.46832820000002,43.0
139,썬밸리컨트리클럽,충북 음성군,043-881-5307,['레포츠'],https://cdn.visitkorea.or.kr/img/call?cmd=VIEW&id=a56eb624-20bc-4478-9640-0a5514fe8692&thumb,충청북도 음성군 삼성면 범말길 49,37.0396909,127.465763,44.0
140,단양패러마을,충북 단양군,1800-3326,"['레포츠', '복합레저스포츠', '연인과함께', '이색여행', '이색체험', '익스트림스포츠']",https://cdn.visitkorea.or.kr/img/call?cmd=VIEW&id=dbce8cc4-f0ef-4608-8583-5f435501020c&thumb,충청북도 단양군 가곡면 두산길 196-52,36.9938568,128.3949081,45.0
141,용곡지,충북 청주시,043-297-1828,"['경치좋은곳', '낚시', '낚시터', '레포츠', '용곡지', '자연경관', '자연좋은곳', '저수지']",https://cdn.visitkorea.or.kr/img/call?cmd=VIEW&id=6a217d9d-3f79-4181-b862-1eee8c905206&thumb,충청북도 청주시 상당구 미원면 미원초정로 685-35,36.6396755,127.6564384,46.0
142,명암낚시터,충북 제천시,043-651-5566,"['낚시터', '레포츠', '명암낚시터', '충청권']",https://cdn.visitkorea.or.kr/img/call?cmd=VIEW&id=d8360dd6-d0ce-4079-bdc5-40ee7e607fe4&thumb,충청북도 제천시 봉양읍 명암로 243,37.1694047,128.1265577,47.0
143,제천청소년수련원,충북 제천시,043-653-5670,['레포츠'],https://cdn.visitkorea.or.kr/img/call?cmd=VIEW&id=88fcd32e-83f1-40d0-8900-3e05b512fd66&thumb,충청북도 제천시 봉양읍 제원로 623,37.1737691,128.1082017,48.0
144,충북학생종합수련원,충북 진천군,043-531-1833,['레포츠'],https://cdn.visitkorea.or.kr/img/call?cmd=VIEW&id=6fe6e307-0cdc-4623-8096-b5a6a8a7f8a0&thumb,충청북도 진천군 문백면 농다리로 536-41,36.7935058,127.4861618,49.0
145,맹동저수지,충북 음성군,043-877-8008,"['레포츠', '민물낚시', '음성낚시터']",https://cdn.visitkorea.or.kr/img/call?cmd=VIEW&id=5a8f4622-dbbe-432c-ae9f-e1ccdacc07d7&thumb,충청북도 음성군 맹동면 군자길 1492,36.8939606,127.5711534,50.0
146,청풍호 활공장,충북 제천시,043-642-3326,"['레포츠', '이색체험', '청풍호활공장', '패러글라이딩']",https://cdn.visitkorea.or.kr/img/call?cmd=VIEW&id=82c4c4bc-cb79-48f5-be35-a56a365fa08a&thumb,충청북도 제천시 청풍면 청풍명월로 869-17,37.0043945,128.1328006,51.0
147,초롱길,충북 진천군,043-539-8463,['레포츠'],https://cdn.visitkorea.or.kr/img/call?cmd=VIEW&id=1153857b-4a5c-456a-945a-dbfc75d7aa0d&thumb,충청북도 진천군 문백면 구곡리,36.8345396,127.4904527,52.0
148,남한강 래프팅(단양),충북 단양군,043-423-9199,"['ATV', '남한강', '남한강래프팅', '남한강레포츠', '레포츠', '서바이벌']",https://cdn.visitkorea.or.kr/img/call?cmd=VIEW&id=500dae61-bc49-4d37-8c05-907125a50c64&thumb,충청북도 단양군 영춘면 강변로 704,37.0871501,128.4865369,53.0
149,천지연레저,충북 단양군,043-423-5566,"['래프팅', '레포츠', '이색체험', '충북권']",https://cdn.visitkorea.or.kr/img/call?cmd=VIEW&id=332af513-522f-4d31-bc7a-e136ef2122a7&thumb,충청북도 단양군 영춘면 북벽1길 10,37.0866016,128.489738,54.0
150,백곡저수지낚시터,충북 진천군,043-539-7646,"['낚시', '레포츠', '백곡저수지낚시터', '충청권']",https://cdn.visitkorea.or.kr/img/call?cmd=VIEW&id=961df178-5cb7-4efb-b7f4-bd547312ed35&thumb,충청북도 진천군 진천읍 백곡로,36.8728084,127.41058329999998,55.0
151,BFL 플레이파크,충북 충주시,1588-4722,['레포츠'],https://cdn.visitkorea.or.kr/img/call?cmd=VIEW&id=703d6d96-fdcf-4987-9226-e4b97d1cc727&thumb,충청북도 충주시 중앙탑면 중앙탑길 150,37.0220582,127.8611492,56.0
152,청소년수련마을보람원,충북 괴산군,043-830-2233,['레포츠'],https://cdn.visitkorea.or.kr/img/call?cmd=VIEW&id=87b0178a-a837-4750-a4fe-5926966ff7bd&thumb,충청북도 괴산군 청천면 대야로 487,36.6977243,127.8829065,57.0
153,천등산승마클럽,충북 충주시,043-852-1033,"['레포츠', '승마레슨', '승마장', '승마체험', '승마트레킹', '전망좋은곳', '천등산승마클럽']",https://cdn.visitkorea.or.kr/img/call?cmd=VIEW&id=71772cc2-da6b-4860-9b88-c4c67ca32c65&thumb,충청북도 충주시 산척면 아랫강영길 9-4,37.0989339,127.9675144,58.0
154,남한강(목계교권),충북 충주시,043-852-2410,"['레포츠', '민물낚시', '충북권', '충주낚시', '충주낚시터']",https://cdn.visitkorea.or.kr/img/call?cmd=VIEW&id=96853afa-c902-4a71-9b96-2dde3a98f6b0&thumb,충청북도 충주시 엄정면 구룡로,37.0774839,127.8983402,59.0
155,꽃동네,충북 음성군,043-879-0100,['레포츠'],https://cdn.visitkorea.or.kr/img/call?cmd=VIEW&id=0cef0a19-38ee-4deb-9ca1-591bf99bc216&thumb,충청북도 음성군 맹동면 꽃동네길 47-93,36.9488823,127.5813012,60.0
156,실크리버 컨트리클럽,충북 청주시,043-277-5000,['레포츠'],https://cdn.visitkorea.or.kr/img/call?cmd=VIEW&id=6a40cf91-86a2-48a1-80d1-fb9d3cc9e9c9&thumb,충청북도 청주시 서원구 남이면 문곡구절골길 235,36.5459996,127.3920412,61.0
157,노은지(대덕지),충북 충주시,043-853-9332,"['낚시', '노은지', '대덕지', '레포츠', '서울근교', '저수지']",https://cdn.visitkorea.or.kr/img/call?cmd=VIEW&id=c464d09b-5bf6-44a1-bd3a-32b308253618&thumb,충청북도 충주시 노은면 대덕길 122,37.05842310000001,127.71214009999998,62.0
158,제천시 청소년수련원,충북 제천시,043-651-7472,['레포츠'],https://cdn.visitkorea.or.kr/img/call?cmd=VIEW&id=a284fc5c-492e-4e98-8b0a-c1e677650703&thumb,충청북도 제천시 송학면 의림대로 730,37.1899484,128.2053194,63.0
159,사랑의자전거 옥천사랑복지센터,충북 옥천군,043-733-1319,"['레포츠', '자전거', '자전거길', '자전거대여', '자전거여행', '자전거코스', '자전거투어']",https://cdn.visitkorea.or.kr/img/call?cmd=VIEW&id=fbb8cf39-012d-4ddc-a6dc-60fbaea1c8b6&thumb,충청북도 옥천군 옥천읍 옥천로 1624,36.2982103,127.5656818,64.0
160,나인밸리 청소년수련원,충북 보은군,043-542-0981,['레포츠'],https://cdn.visitkorea.or.kr/img/call?cmd=VIEW&id=1d2f995c-9fae-49ee-827a-890aacf8a1b1&thumb,충청북도 보은군 마로면 임곡길 66-80,36.4311723,127.8603108,65.0
161,이븐데일 컨트리클럽,충북 청주시,043-288-1000,"['골프장', '레포츠', '이븐데일컨트리클럽', '충북권']",https://cdn.visitkorea.or.kr/img/call?cmd=VIEW&id=589876b4-8b64-4072-9fb9-8bc93c07604c&thumb,충청북도 청주시 상당구 미원면 대신2길 31,36.6840968,127.6048494,66.0
162,추평지,충북 충주시,043-855-3241,"['레포츠', '민물낚시', '충북권', '충주낚시', '충주낚시터']",https://cdn.visitkorea.or.kr/img/call?cmd=VIEW&id=undefined&thumb,충청북도 충주시 엄정면 가춘리길,37.1374097,127.9438449,67.0
163,천룡컨트리클럽,충북 진천군,043-536-1001,['레포츠'],https://cdn.visitkorea.or.kr/img/call?cmd=VIEW&id=01e2d508-82ac-4f9e-a6d9-9fb633b9f902&thumb,충청북도 진천군 이월면 진안로 347-123,36.9466254,127.3896256,68.0
164,조터골(남한강 샛강),충북 충주시,043-855-3241,"['레포츠', '민물낚시', '충북권', '충주낚시', '충주낚시터']",https://cdn.visitkorea.or.kr/img/call?cmd=VIEW&id=undefined&thumb,충청북도 충주시 앙성면 남한강변길,37.123323600000006,127.7966493,69.0
165,백야낚시터,충북 음성군,043-877-2999,"['레포츠', '민물낚시', '음성낚시터', '충북권']",https://cdn.visitkorea.or.kr/img/call?cmd=VIEW&id=undefined&thumb,충청북도 음성군 금왕읍 백야로 320,36.9676776,127.6032866,70.0
166,세조길,충북 보은군,043-540-3393,"['걷기좋은곳', '남녀노소', '레포츠', '자연관광지', '자연속으로', '자연여행', '자연좋은곳']",https://cdn.visitkorea.or.kr/img/call?cmd=VIEW&id=39e8b654-0ca4-4eea-80ea-17f4db123b59&thumb,충청북도 보은군 속리산면 법주사로 405,36.5420409,127.83311100000002,71.0
167,"단양장 / 단양구경시장 (1, 6일)",충북 단양군,043-422-1706,"['가족여행', '나들이', '나홀로여행', '단양구경시장', '단양장', '먹거리', '쇼핑']",https://cdn.visitkorea.or.kr/img/call?cmd=VIEW&id=eef2fa4e-d6ce-407a-8e24-e1dc26655711&thumb,충청북도 단양군 단양읍 도전5길 31,36.98249125,128.3699808,
168,"괴산장 / 괴산산막이시장 (3, 8일)",충북 괴산군,043-832-0250,"['가족여행', '괴산시장', '괴산장', '사계절', '쇼핑', '시장맛집', '아이와함께', '어르신추천코스']",https://cdn.visitkorea.or.kr/img/call?cmd=VIEW&id=5026b917-bdf8-4af9-a437-bcf1d8f12460&thumb,충청북도 괴산군 괴산읍 읍내로15길 8-8,36.81121857,127.7950238,
169,숲속작은책방,충북 괴산군,043-834-7626,"['가정식서점', '문화행사', '민박', '북클럽', '서점', '쇼핑']",https://cdn.visitkorea.or.kr/img/call?cmd=VIEW&id=e006f4b4-5318-4677-9d66-af76c0f474c5&thumb,충청북도 괴산군 칠성면 명태재로미루길 90,36.76739515,127.8301572,
170,청주 육거리종합시장,충북 청주시,043-223-6696,"['가족여행', '기차여행', '나들이', '나홀로여행', '먹거리', '쇼핑', '시장맛집', '아이와함께']",https://cdn.visitkorea.or.kr/img/call?cmd=VIEW&id=6d605d20-f539-4c21-9c70-afbe5a77fe07&thumb,충청북도 청주시 상당구 청남로2197번길 46,36.62780211,127.4882655,
171,"충주 민속5일장 / 풍물시장 (5, 10일)",충북 충주시,043-853-7005,"['가족여행', '기차여행', '나들이', '나홀로여행', '서울근교여행', '쇼핑', '아이와함께']",https://cdn.visitkorea.or.kr/img/call?cmd=VIEW&id=c131ad8b-50aa-42da-9f42-b7e96f5263d8&thumb,충청북도 충주시 충인1길 22,36.97556884,127.9295483,
172,"진천장 (5, 10일)",충북 진천군,043-539-3332,"['가족여행', '사계절', '쇼핑', '시장맛집', '아이와함께', '어르신추천코스', '재래시장']",https://cdn.visitkorea.or.kr/img/call?cmd=VIEW&id=abb4b0ff-fb45-4945-953d-3f37fbd0c599&thumb,충청북도 진천군 진천읍 남산10길 27,36.8569511,127.4475257,
173,충주 자유시장,충북 충주시,043-848-3414,"['가족여행', '기차여행', '나들이', '나홀로여행', '데이트코스', '먹거리', '쇼핑']",https://cdn.visitkorea.or.kr/img/call?cmd=VIEW&id=5e55cddb-e1ec-4849-9a78-7f3901eacea6&thumb,충청북도 충주시 자유시장길 30,36.97326258,127.9322044,
174,복드림 도깨비방망이,충북 제천시,010-3881-0029,"['공예품', '쇼핑', '수제품', '제천쇼핑']",https://cdn.visitkorea.or.kr/img/call?cmd=VIEW&id=604d25be-2512-4965-8164-55aeb02c6b78&thumb,충청북도 제천시 백운면 금봉로 142,37.14487662,128.0368342,
175,제천 중앙시장,충북 제천시,043-647-2047,"['가족여행', '기차여행', '나들이', '나홀로여행', '마을축제', '먹거리', '쇼핑', '시장맛집']",https://cdn.visitkorea.or.kr/img/call?cmd=VIEW&id=6d60cbf7-00bc-4659-b07a-ffad6af88400&thumb,충청북도 제천시 풍양로 108,37.13662753,128.2113,
176,"평동장 (4, 9일)",충북 단양군,043-422-2525,"['가족여행', '나들이', '먹거리', '쇼핑', '시장맛집', '아이와함께', '연인과함께']",https://cdn.visitkorea.or.kr/img/call?cmd=VIEW&id=7acc29b7-a3ef-44c1-809a-68572972b209&thumb,충청북도 단양군 매포읍 평동3로 6,37.03459854,128.2990017,
177,증평대장간,충북 증평군,043-836-4501,"['대장간', '쇼핑', '전통대장간', '칠지도']",https://cdn.visitkorea.or.kr/img/call?cmd=VIEW&id=9aa704d7-762f-4bf1-9ac9-bc52665de2de&thumb,충청북도 증평군 증평읍 중앙로8길 17-1,36.78378199,127.5834027,
178,청주 지웰시티몰 II,충북 청주시,043-238-4020 043-237-5678,"['쇼핑', '청주', '청주쇼핑몰', '현대백화점']",https://cdn.visitkorea.or.kr/img/call?cmd=VIEW&id=5df29309-f42c-4561-af70-aad234877b17&thumb,충청북도 청주시 흥덕구 대농로 47-1,36.64333968,127.42783500000002,
179,가경 터미널시장,충북 청주시,043-232-1117,"['가경터미널시장', '가족여행', '기차여행', '나들이', '나홀로여행', '데이트코스']",https://cdn.visitkorea.or.kr/img/call?cmd=VIEW&id=b6527f57-1fdf-4689-852b-f475780a2a56&thumb,충청북도 청주시 흥덕구 가경로149번길 24-2,36.62787346,127.4358722,
180,"보은장, 보은전통시장 (1, 6일)",충북 보은군,043-543-3592,"['가족여행', '보은장', '사계절', '쇼핑', '시장맛집', '아이와함께', '어르신추천코스']",https://cdn.visitkorea.or.kr/img/call?cmd=VIEW&id=1834cdcb-664b-4b87-9943-45c31d63be72&thumb,충청북도 보은군 보은읍 삼산로 50,36.48358623,127.7169679,
181,중원면세점,충북 청주시,043-290-1000,"['면세점', '쇼핑', '청주']",https://cdn.visitkorea.or.kr/img/call?cmd=VIEW&id=f6850211-c73d-49d1-99ff-9e65c498934e&thumb,충청북도 청주시 청원구 충청대로 114,36.66656079999999,127.4944953,
182,제천 역전한마음시장,충북 제천시,043-645-2724,"['가족여행', '사계절', '쇼핑', '시장맛집', '아이와함께', '재래시장', '전통시장']",https://cdn.visitkorea.or.kr/img/call?cmd=VIEW&id=d544ef71-e954-4d3c-b682-e8f60bbd221b&thumb,충청북도 제천시 내토로28길 3-1,37.1294558,128.2069088,
183,증평 장뜰시장,충북 증평군,043-838-5501,"['가족여행', '나들이', '나홀로여행', '먹거리', '쇼핑', '시장맛집', '아이와함께']",https://cdn.visitkorea.or.kr/img/call?cmd=VIEW&id=7304b894-1ed5-45ac-9988-db6a4a1cf00b&thumb,충청북도 증평군 증평읍 장뜰로 58-1,36.78339213,127.5829505,
184,"옥천장 (5, 10일)",충북 옥천군,043-730-3081,"['가족여행', '사계절', '쇼핑', '시장맛집', '아이와함께', '옥천장', '재래시장', '전통시장']",https://cdn.visitkorea.or.kr/img/call?cmd=VIEW&id=f051a14c-05ba-4cb0-a9b7-74d230956052&thumb,충청북도 옥천군 옥천읍 삼금로 45,36.30239214,127.568213,
185,충주 무학시장,충북 충주시,043-848-2292,"['가족여행', '기차여행', '나들이', '나홀로여행', '데이트코스', '먹거리', '쇼핑']",https://cdn.visitkorea.or.kr/img/call?cmd=VIEW&id=f5e95536-e369-4cf2-b527-2adc90927897&thumb,충청북도 충주시 무학1길 15,36.97473821,127.9268217,
186,"음성장 (2, 7일)",충북 음성군,043-871-3601,"['가족여행', '사계절', '쇼핑', '시장맛집', '아이와함께', '어르신추천코스', '음성장']",https://cdn.visitkorea.or.kr/img/call?cmd=VIEW&id=b487e8c3-2065-4cce-81ae-84231948ccff&thumb,충청북도 음성군 음성읍 시장로117번길 6,36.9377006,127.6907548,
187,청주 성안길,충북 청주시,043-223-5200,"['브랜드', '쇼핑', '차없는거리', '청주읍성']",https://cdn.visitkorea.or.kr/img/call?cmd=VIEW&id=edb84b9a-16cd-47c1-9f61-e9d370c16798&thumb,충청북도 청주시 상당구 상당로59번길 59,36.6335138,127.4873024,
188,생거진천 전통시장,충북 진천군,043-533-3338,"['5일장', '가족과함께', '남녀노소', '먹거리여행', '먹거리투어', '쇼핑', '아이와함께']",https://cdn.visitkorea.or.kr/img/call?cmd=VIEW&id=799186ab-374c-41a6-9ee3-9768c391fcab&thumb,충청북도 진천군 진천읍 원덕로 390,36.86070802,127.4513239,
189,임페리얼,충북 청주시,043-716-6283,"['골프캐주얼', '쇼핑', '청주쇼핑']",https://cdn.visitkorea.or.kr/img/call?cmd=VIEW&id=1c1d70c0-e397-40ea-a77f-083dba8d592f&thumb,충청북도 청주시 흥덕구 2순환로 1233,36.62621749,127.43113259999998,
190,옹기공방,충북 영동군,043-744-6040,"['공방', '쇼핑', '옹기공방', '체험', '충청권']",https://cdn.visitkorea.or.kr/img/call?cmd=VIEW&id=f560a7e9-b10a-4c2a-ab38-8b087aadd2f3&thumb,충청북도 영동군 영동읍 임계길 240-27,36.16691211,127.8470709,
191,제천몰 / 제천한방클러스터,충북 제천시,043-648-4510,"['가족여행', '기념품판매', '기차여행', '나들이', '나홀로여행', '쇼핑', '아이와함께']",https://cdn.visitkorea.or.kr/img/call?cmd=VIEW&id=a05e792c-8556-4665-8f29-bf32ef3d9fac&thumb,충청북도 제천시 의병대로 82,37.13600039,128.2098398,
192,"영동장 (4, 9일)",충북 영동군,043-742-0809,"['가족과함께', '사계절', '쇼핑', '아이와함께', '영동장', '재래시장', '전통시장']",https://cdn.visitkorea.or.kr/img/call?cmd=VIEW&id=ae5138a9-60d0-4b5f-890a-bff470dabdb5&thumb,충청북도 영동군 영동읍 영동시장2길 10-1,36.17521107,127.7756349,
193,진천 중앙시장,충북 진천군,043-533-8966,"['가족여행', '기차여행', '나들이', '나홀로여행', '먹거리', '쇼핑', '시장맛집', '아이와함께']",https://cdn.visitkorea.or.kr/img/call?cmd=VIEW&id=526f086f-291a-477c-91cb-8d396a65fad2&thumb,충청북도 진천군 진천읍 중앙서로 29-1,36.85703982,127.4423169,
194,대현프리몰 청주점,충북 청주시,043-252-3125,"['쇼핑', '청주', '청주쇼핑', '패션전문몰']",https://cdn.visitkorea.or.kr/img/call?cmd=VIEW&id=4f6a5597-4331-4e59-8e9a-8a07fff39709&thumb,충청북도 청주시 상당구 사직대로 지하 316,36.63698111,127.4891188,
195,"오창장 (3, 8일)",충북 청주시,043-201-8562,"['가족여행', '사계절', '쇼핑', '시장맛집', '아이와함께', '오창장', '재래시장', '전통시장']",https://cdn.visitkorea.or.kr/img/call?cmd=VIEW&id=f83442c5-81da-4fa8-8a8d-67c5b8298c33&thumb,충청북도 청주시 청원구 오창읍 화복로 433-3,36.74265696,127.4558762,
196,"청천푸른내시장 / 괴산전통시장 (1일, 6일)",충북 괴산군,043-834-6636,"['가족과함께', '가족체험여행', '쇼핑', '이색체험', '재래시장', '전통시장', '전통시장투어']",https://cdn.visitkorea.or.kr/img/call?cmd=VIEW&id=859df2dd-242f-4ad5-962b-0b2db26943ac&thumb,충청북도 괴산군 청천면 청천3길 9-3,36.65935719,127.7373719,
197,"용산장 (5, 10일)",충북 영동군,043-740-3611,"['가족여행', '기차여행', '나들이', '나홀로여행', '먹거리', '쇼핑', '시장맛집', '아이와함께']",https://cdn.visitkorea.or.kr/img/call?cmd=VIEW&id=9d1467ee-8218-4309-b69c-d1bcd3950c73&thumb,충청북도 영동군 용산면 용산로 338,36.26070039,127.8290096,
198,"영춘장 (3, 8일)",충북 단양군,,"['가족여행', '기차여행', '나들이', '나홀로여행', '쇼핑', '시장맛집', '아이와함께']",https://cdn.visitkorea.or.kr/img/call?cmd=VIEW&id=dbb442fd-8311-466b-b99e-511732a74fea&thumb,충북 단양군 영춘면 상리 409-1,37.07827619,128.4837205,
199,"광혜원장 (3, 8일)",충북 진천군,043-539-8777,"['광혜원장', '쇼핑', '재래시장', '전통시장', '전통시장투어', '충청권']",https://cdn.visitkorea.or.kr/img/call?cmd=VIEW&id=63db3126-cd5e-4e83-a396-5b83c7522d86&thumb,충청북도 진천군 광혜원면 장기1안길 16,36.98892670000001,127.4453662,
200,"무극장 / 무극시장 (5, 10일)",충북 음성군,043-877-0129,"['가족여행', '무극시장', '무극장', '사계절', '쇼핑', '시장맛집', '아이와함께', '어르신추천코스']",https://cdn.visitkorea.or.kr/img/call?cmd=VIEW&id=4fc1ef72-3f67-46cf-9734-e8cbe5c11a65&thumb,충청북도 음성군 금왕읍 무극로308번길 12-2,36.99267767,127.5960038,
201,충주공설시장,충북 충주시,043-843-6138,"['가족여행', '기차여행', '나들이', '나홀로여행', '데이트코스', '먹거리', '쇼핑']",https://cdn.visitkorea.or.kr/img/call?cmd=VIEW&id=e3bd2242-b01a-49b3-b987-854ed77bb72c&thumb,충청북도 충주시 충인8길 4-2,36.97494061,127.9288134,
202,"옥산장 (3, 8일)",충북 청주시,043-201-1033,"['기념품판매', '쇼핑', '옥산장', '충청권', '특산물']",https://cdn.visitkorea.or.kr/img/call?cmd=VIEW&id=decab467-ce8e-48b2-a77c-32b27ef38310&thumb,충북 청주시 흥덕구 옥산면 오산리,36.66371297,127.3704378,
203,도예공방 필,충북 충주시,043-854-0049,['쇼핑'],https://cdn.visitkorea.or.kr/img/call?cmd=VIEW&id=0bc31fd5-e4d5-4121-ae72-6f572f1e3de8&thumb,충청북도 충주시 연원5길 26,36.98356206,127.931309,
204,"관터장 (관기재래시장) (4, 9일)",충북 보은군,043-540-3231,"['가족과함께', '관터장', '사계절', '쇼핑', '아이와함께', '재래시장', '전통시장']",https://cdn.visitkorea.or.kr/img/call?cmd=VIEW&id=669a4ce0-2ec9-4d0f-a3e0-857ef39c512c&thumb,충청북도 보은군 마로면 관기3길 6-7,36.43524313,127.8175961,
205,증평 인삼관광휴게소,충북 증평군,043-835-3761,"['가족여행', '기념품판매', '먹거리', '사계절', '쇼핑', '시장맛집', '아이와함께']",https://cdn.visitkorea.or.kr/img/call?cmd=VIEW&id=345449d0-543a-4a7e-86ba-af1e267bb1de&thumb,충청북도 증평군 증평읍 중부로 2451,36.79588146,127.5817602,
206,제천 약초시장,충북 제천시,043-647-0109,"['건강식', '건강여행', '건강한힐링여행', '남녀노소', '부모님과함께', '쇼핑', '약재료']",https://cdn.visitkorea.or.kr/img/call?cmd=VIEW&id=46caea35-bc8c-46be-a2f6-4b73039913e1&thumb,충청북도 제천시 원화산로 121,37.12788906,128.2195912,
207,"감곡장 / 감곡시장 (3, 8일)",충북 음성군,043-871-3612,"['감곡시장', '감곡장', '쇼핑', '재래시장', '충청권']",https://cdn.visitkorea.or.kr/img/call?cmd=VIEW&id=4d139a2e-0bbe-47f0-b808-92fd2919c080&thumb,충청북도 음성군 감곡면 장감로132번길 22,37.11822939,127.6391738,
208,"추풍령장 (3, 8일)",충북 영동군,043-742-3301,"['가족여행', '기차여행', '나들이', '나홀로여행', '먹거리', '쇼핑', '시장맛집', '아이와함께']",https://cdn.visitkorea.or.kr/img/call?cmd=VIEW&id=12a1981a-cb79-4a0e-96f6-16bf8bec9b84&thumb,충청북도 영동군 추풍령면 추풍령로5길 8-4,36.2114467,127.9999378,
209,일중요 (밤골도예),충북 충주시,043-857-7500,"['도예', '도자기', '쇼핑', '충주']",https://cdn.visitkorea.or.kr/img/call?cmd=VIEW&id=6df829e5-1b46-401c-95a9-10b997e39485&thumb,충청북도 충주시 앙성면 앙암로 471-17,37.14440824,127.7388379,
210,충인시장,충북 충주시,043-848-3414,"['가족과함께', '골목시장', '남녀노소', '상설시장', '쇼핑', '시장구경', '시장맛집']",https://cdn.visitkorea.or.kr/img/call?cmd=VIEW&id=d3c5139c-5b3c-48a8-b803-018e2352f296&thumb,충청북도 충주시 충인6길 16,36.9739313,127.9306713,
211,"미원장 (4, 9일)",충북 청주시,043-201-1032,"['가족과함께', '미원장', '사계절', '쇼핑', '아이와함께', '재래시장', '전통시장']",https://cdn.visitkorea.or.kr/img/call?cmd=VIEW&id=e7c8acfc-5525-41bc-b145-414f261bb389&thumb,충청북도 청주시 상당구 미원면 미원시내2길 14-22,36.63281672,127.65465690000002,
212,"삼성시장 / 모란장 (1, 6일)",충북 음성군,043-871-3612,"['가족과함께', '사계절', '삼성모란장', '쇼핑', '아이와함께', '재래시장', '전통시장']",https://cdn.visitkorea.or.kr/img/call?cmd=VIEW&id=d53cc9b0-80b0-4f32-b66f-faf034970a23&thumb,충청북도 음성군 삼성면 대성로 615,37.01851660000001,127.4982432,
213,"목도장 / 목도시장(4, 9일)",충북 괴산군,043-834-0123,"['가족여행', '목도시장', '목도장', '사계절', '쇼핑', '시장맛집', '아이와함께', '재래시장']",https://cdn.visitkorea.or.kr/img/call?cmd=VIEW&id=a97d851b-27ab-4ced-b2e7-0f116f9d188e&thumb,충청북도 괴산군 불정면 목도로2길 10,36.87149484,127.85328390000002,
214,운봉서각공방 (현도공방),충북 보은군,043-544-3649,"['간판', '도자기교실', '쇼핑', '현판']",https://cdn.visitkorea.or.kr/img/call?cmd=VIEW&id=75a6ac55-7062-471b-be98-d9bffa9d2dfb&thumb,충청북도 보은군 장안면 속리산로 127,36.49328126,127.7661976,
215,삼화대장간,충북 충주시,043-848-4079,"['대장간', '쇼핑', '충주무학시장', '충주쇼핑', '충주시']",https://cdn.visitkorea.or.kr/img/call?cmd=VIEW&id=e8eb305f-4e3e-4a9b-9ada-068f80886947&thumb,충청북도 충주시 충인1길 12,36.97534464,127.9290319,
216,용창 목공예,충북 청주시,043-297-1757,"['공방', '공예품', '생활공예', '쇼핑', '원목']",https://cdn.visitkorea.or.kr/img/call?cmd=VIEW&id=9e37d2bf-ef8a-4861-934f-0a27d6a977d8&thumb,충청북도 청주시 상당구 낭성면 관정1길 10,36.61089964,127.629704,
