,name,region,tel,keyword,photo,address,lat,lon,Unnamed: 0
0,국립공주박물관,충남 공주시,041-850-6300,"['교과서속여행', '국립공주박물관', '기차여행', '문화시설', '미세먼지_피하는_실내여행']",https://cdn.visitkorea.or.kr/img/call?cmd=VIEW&id=f0a91da9-7179-4cb9-9319-dc67f2f0c0e4&thumb,충청남도 공주시 관광단지길 34,36.46552912,127.11217990000002,
1,천안 독립기념관,충남 천안시,041-560-0114,"['3·1운동_100주년_여행지추천', '기념관', '독립기념관', '문화시설', '미세먼지_피하는_실내여행']",https://cdn.visitkorea.or.kr/img/call?cmd=VIEW&id=17617aa6-513f-4c24-b0b7-f3edaf33feb8&thumb,충청남도 천안시 동남구 목천읍 삼방로 95,36.787017999999996,127.22271,
2,국립해양생물자원관,충남 서천군,041-950-0695,"['국립해양생물자원관', '무더위_피해_실내여행', '문화시설', '아이가_좋아하는_여행']",https://cdn.visitkorea.or.kr/img/call?cmd=VIEW&id=36ecd104-c377-45e3-95e7-01357c99047b&thumb,충청남도 서천군 장항읍 장산로101번길 75,36.01724498,126.6698206,
3,안면도 쥬라기박물관,충남 태안군,041-674-5660,"['교과서속여행', '문화시설', '박물관', '아이와함께', '안면도쥬라기박물관', '이색체험']",https://cdn.visitkorea.or.kr/img/call?cmd=VIEW&id=8bb13c21-4c6c-46b4-bb82-df3a7ef6e612&thumb,충청남도 태안군 남면 곰섬로 지하 37-20,36.609339,126.31051299999999,
4,천안박물관,충남 천안시,041-521-2891,"['문화공간', '문화시설', '문화행사', '박물관', '복합문화공간', '아이와함께', '열린문화공간']",https://cdn.visitkorea.or.kr/img/call?cmd=VIEW&id=428b053d-7c6f-4676-843f-56fd40a14518&thumb,충청남도 천안시 동남구 천안대로 429-13,36.78669474,127.16332990000001,
5,온양민속박물관,충남 아산시,041-542-6001,"['기차여행', '문화시설', '박물관', '아이와함께', '온양민속박물관', '전시관', '전통&역사문화체험']",https://cdn.visitkorea.or.kr/img/call?cmd=VIEW&id=ed551421-d005-40ee-b737-4442843b6209&thumb,충청남도 아산시 충무로 123,36.79323056,127.00791029999999,
6,국립부여박물관,충남 부여군,041-833-8562,"['국립부여박물관', '기차여행', '문화시설', '박물관', '아이와함께', '전시관', '전통&역사문화체험']",https://cdn.visitkorea.or.kr/img/call?cmd=VIEW&id=bf581632-8780-484b-a994-51e2df85a17e&thumb,충청남도 부여군 부여읍 금성로 5,36.27564277,126.9178933,
7,아산시 평생학습관,충남 아산시,041-537-3906,"['공연장', '문화시설', '문화행사', '복합문화공간', '아산시평생학습관', '아이와함께']",https://cdn.visitkorea.or.kr/img/call?cmd=VIEW&id=a6b47e88-1a50-4c97-8238-1b567c55ad31&thumb,충청남도 아산시 남부로 92,36.77090939,126.9921619,
8,유관순열사기념관,충남 천안시,041-564-1223,"['3·1운동_100주년_여행지추천', '문화시설', '역사투어', '열사', '유관순', '천안시']",https://cdn.visitkorea.or.kr/img/call?cmd=VIEW&id=a2965043-37d7-4bbe-a0eb-62329c91526b&thumb,충청남도 천안시 동남구 병천면 유관순길 38,36.76009016,127.3083675,
9,충청남도역사박물관,충남 공주시,041-856-8608,"['공주가볼만한곳', '문화시설', '박물관', '아이와함께', '역사공부', '역사관광지']",https://cdn.visitkorea.or.kr/img/call?cmd=VIEW&id=62e3a891-df76-4dc2-ae98-5a8b3567970d&thumb,충청남도 공주시 국고개길 24,36.45308825,127.1273866,
10,고남패총박물관,충남 태안군,041-670-2337,"['고남패총박물관', '교과서속여행', '문화시설', '박물관', '사계절', '실내여행지']",https://cdn.visitkorea.or.kr/img/call?cmd=VIEW&id=0300394a-1f17-47a2-a0ed-3a86253e1a56&thumb,충청남도 태안군 고남면 안면대로 4270-6,36.42033319,126.41002140000002,
11,한국고건축박물관,충남 예산군,041-337-5877,"['가족여행', '기차여행', '문화시설', '박물관', '아이와함께', '전통&역사문화체험']",https://cdn.visitkorea.or.kr/img/call?cmd=VIEW&id=8c470140-b6c8-4dd6-b4c9-ad36b73440d5&thumb,충청남도 예산군 덕산면 홍덕서로 543,36.63319372,126.6116118,
12,석장리박물관,충남 공주시,041-840-8924,"['겨울방학가볼만한곳', '교과서속여행', '문화시설', '박물관', '석장리박물관']",https://cdn.visitkorea.or.kr/img/call?cmd=VIEW&id=defd9718-c124-422e-9143-c708fb4cfee4&thumb,충청남도 공주시 금벽로 990,36.44795203,127.18758759999999,
13,캔아트 체험교실,충남 아산시,041-532-0133,"['문화시설', '문화예술공간', '복합문화공간', '아이와함께', '열린문화공간', '이색체험']",https://cdn.visitkorea.or.kr/img/call?cmd=VIEW&id=28626b73-c03e-4370-bb3b-580d99ca1316&thumb,충청남도 아산시 신리길 55,36.77812882,127.03508000000001,
14,계룡산자연사박물관,충남 공주시,042-824-4055,"['계룡산자연사박물관', '기차여행', '문화시설', '박물관', '아이와함께', '이색체험']",https://cdn.visitkorea.or.kr/img/call?cmd=VIEW&id=95a369b8-52b9-4d16-9a71-2a11ecda481f&thumb,충청남도 공주시 반포면 임금봉길 49-25,36.36640091,127.2448239,
15,윤봉길의사기념관,충남 예산군,041-339-8233,"['교과서속여행', '기념관', '무장애', '문화시설', '아이와함께', '역사공부', '역사를품은곳']",https://cdn.visitkorea.or.kr/img/call?cmd=VIEW&id=43651ca7-66fe-4144-9afe-8060654655e5&thumb,충청남도 예산군 덕산면 덕산온천로 183-5,36.68653715,126.651381,
16,백제군사박물관,충남 논산시,041-746-8431,"['교과서속여행', '문화시설', '박물관', '백제군사박물관', '사계절', '실내여행지']",https://cdn.visitkorea.or.kr/img/call?cmd=VIEW&id=e5402631-e4eb-4021-826f-8a0c6b19ad6c&thumb,충청남도 논산시 부적면 충곡로 311-54,36.19238766,127.18158799999999,
17,지당자연사박물관,충남 공주시,041-857-0001,"['교과서속여행', '문화시설', '박물관', '사계절', '실내여행지', '아이와함께', '전시관']",https://cdn.visitkorea.or.kr/img/call?cmd=VIEW&id=28b93fd4-b434-4f7c-9d30-c2900e62d7d1&thumb,충청남도 공주시 탄천면 장마루로 1241-90,36.32395181,127.0683101,
18,홍성조류탐사과학관,충남 홍성군,041-631-9622,"['가족여행', '가족체험여행', '교과서속으로', '무더위_피해_실내놀이', '문화시설']",https://cdn.visitkorea.or.kr/img/call?cmd=VIEW&id=56865981-47bf-4c19-9a27-0fad86879f84&thumb,충청남도 홍성군 서부면 남당항로 934-14,36.59362481,126.4588229,
19,공주민속극박물관,충남 공주시,041-855-4933,"['가족과 함께', '공주민속극박물관', '문화시설', '아이와 함께', '전통문화', '체험학습']",https://cdn.visitkorea.or.kr/img/call?cmd=VIEW&id=53b65c34-df56-40bb-bbc4-5e7b24e20177&thumb,충청남도 공주시 의당면 돌모루1길 40,36.50155385,127.1470643,
20,정림사지박물관,충남 부여군,041-832-2721,"['교과서속여행', '문화시설', '박물관', '사계절', '실내여행지', '아이와함께', '정림사지박물관']",https://cdn.visitkorea.or.kr/img/call?cmd=VIEW&id=977c5246-8fec-4f16-bc66-7decd7d71480&thumb,충청남도 부여군 부여읍 정림로 83,36.27902527,126.91288059999998,
21,태영민속박물관,충남 금산군,041-754-7942,"['가족과함께', '금산군', '문화시설', '민속', '민속테마', '아이와함께', '역사박물관']",https://cdn.visitkorea.or.kr/img/call?cmd=VIEW&id=023926cd-168b-4fda-bbd3-5682d72493f8&thumb,충청남도 금산군 남이면 하금평촌길 26,36.05144034,127.4368332,
22,충청남도학생교육문화원,충남 천안시,041-904-8445,"['문화공간', '문화시설', '문화행사', '복합문화공간', '사계절', '아이와함께', '열린문화공간']",https://cdn.visitkorea.or.kr/img/call?cmd=VIEW&id=211ccfb8-477f-4a6a-aa8f-13e470b8ba96&thumb,충청남도 천안시 동남구 옛농고1길 41,36.80973948,127.1572682,
23,합덕수리민속박물관,충남 당진시,041-350-4931,"['교과서속여행', '문화시설', '박물관', '사계절', '실내여행지', '아이와함께', '체험학습']",https://cdn.visitkorea.or.kr/img/call?cmd=VIEW&id=d23f2284-eb78-4471-96bd-fab3fac88733&thumb,충청남도 당진시 합덕읍 덕평로 379-9,36.793266700000004,126.78427690000001,
24,백제문화체험박물관,충남 청양군,041-940-4871,"['교육여행', '문화시설', '백제문화', '백제문화체험박물관', '아이와 함께', '역사공부']",https://cdn.visitkorea.or.kr/img/call?cmd=VIEW&id=d4a8d8e1-52d5-421c-ae31-d8b63198624c&thumb,충청남도 청양군 대치면 장곡길 43-24,36.40606534,126.8454706,
25,태안군문화예술회관,충남 태안군,041-670-5922,"['가족여행', '데이트코스', '문화공간', '문화시설', '문화행사', '복합문화공간']",https://cdn.visitkorea.or.kr/img/call?cmd=VIEW&id=84b78341-3967-4e30-aea9-615fab3bd441&thumb,충청남도 태안군 태안읍 백화로 200,36.75482354,126.31272140000002,
26,한국(문인)인장박물관,충남 예산군,041-332-0592,"['가족과함께', '근대문화유산', '기획전시', '남녀노소', '문화시설', '박물관', '아이와함께']",https://cdn.visitkorea.or.kr/img/call?cmd=VIEW&id=09f616c0-74d3-439e-84be-6cd156eedb27&thumb,충청남도 예산군 광시면 운산2길 111-6,36.5471669,126.7501077,
27,당진문예의전당,충남 당진시,041-350-2911,"['가족여행', '당진문예의전당', '데이트코스', '문화공간', '문화시설', '문화행사']",https://cdn.visitkorea.or.kr/img/call?cmd=VIEW&id=bd180836-809b-4c11-b183-5f30a4d31fe2&thumb,충청남도 당진시 무수동2길 25-21,36.88972251,126.63748329999999,
28,백제원,충남 부여군,041-832-0041,"['가족과함께', '남녀노소', '문화시설', '복합문화', '부여가볼만한곳', '아이와함께']",https://cdn.visitkorea.or.kr/img/call?cmd=VIEW&id=85430f3c-4aee-4730-8556-e840d096b715&thumb,충청남도 부여군 규암면 백제문로 553,36.306531299999996,126.9169635,
29,백제역사문화관,충남 부여군,041-408-7274,"['교과서속여행', '문화시설', '박물관', '백제역사문화관', '사계절', '실내여행지']",https://cdn.visitkorea.or.kr/img/call?cmd=VIEW&id=b28ceef2-706b-42c0-8fe2-6a7ba73c05d4&thumb,충청남도 부여군 규암면 백제문로 455,36.30757158,126.9084946,
30,천안시 시민문화여성회관,충남 천안시,041-521-3741,"['문화시설', '문화행사', '시민문화여성회관', '아이와함께', '연인과함께', '체험학습']",https://cdn.visitkorea.or.kr/img/call?cmd=VIEW&id=73a5a5eb-f74a-4a33-b3cb-e5e93ff44640&thumb,충청남도 천안시 서북구 성정중4길 29,36.82738476,127.1362838,
31,보령문화예술회관,충남 보령시,041-930-3710,"['가족과함께', '남녀노소', '문화공간', '문화시설', '문화예술활동', '복합문화공간']",https://cdn.visitkorea.or.kr/img/call?cmd=VIEW&id=4a569f28-7991-438b-bfeb-13bf294c3aa8&thumb,충청남도 보령시 성주산로 101,36.33385815,126.6145824,
32,금산다락원,충남 금산군,041-750-4413,"['가족여행', '금산다락원', '데이트코스', '문화공간', '문화시설', '문화행사', '복합문화공간']",https://cdn.visitkorea.or.kr/img/call?cmd=VIEW&id=fcde5cf1-7492-4f26-8b8f-c9259e4eda0f&thumb,충청남도 금산군 금산읍 금산로 1559,36.11206663,127.4916388,
33,논산문화예술회관,충남 논산시,041-746-5950,"['남녀노소', '논산', '무장애', '문화공간', '문화시설', '문화예술', '복합문화공간']",https://cdn.visitkorea.or.kr/img/call?cmd=VIEW&id=2d0a6c4c-b785-47f3-ae5d-1ed2cd5c013f&thumb,충청남도 논산시 시민로 270,36.19095382,127.0951436,
34,홍주성역사관(홍성),충남 홍성군,041-630-9240,"['문화시설', '아이와 함께', '역사공부', '전통문화', '홍주성역사관']",https://cdn.visitkorea.or.kr/img/call?cmd=VIEW&id=f2fd9d51-3bdd-4707-b2a5-4e9b99937694&thumb,충청남도 홍성군 홍성읍 아문길 20,36.60019877,126.66092040000001,
35,장영실과학관 (아산),충남 아산시,041-903-5594,"['교과서속여행', '교육여행', '교육체험', '교육프로그램', '문화시설', '실내관광지']",https://cdn.visitkorea.or.kr/img/call?cmd=VIEW&id=3885be26-1ac5-4f61-b567-b6aa6bd7e064&thumb,충청남도 아산시 실옥로 220,36.79823027,126.9782088,
36,결성농요내포농사박물관,충남 홍성군,041-642-1993,"['가족과함께', '결성농요내포농사박물관', '교과서속여행', '문화시설', '미세먼지_피하는_실내여행']",https://cdn.visitkorea.or.kr/img/call?cmd=VIEW&id=1d975adf-15cb-4fcd-baef-84993de07aef&thumb,충청남도 홍성군 결성면 구성남로 91,36.53262479,126.5489686,
37,국립태안해양유물전시관,충남 태안군,041-419-7000,"['국립태안해양유물전시관', '문화시설', '아이와함께', '충남권', '태안가볼만한곳']",https://cdn.visitkorea.or.kr/img/call?cmd=VIEW&id=d5b3b401-5fdb-4ff6-8b48-72c4e3f51352&thumb,충청남도 태안군 근흥면 신진대교길 94-33,36.67719658,126.1514121,
38,임립미술관,충남 공주시,041-856-7749,"['공연/전시', '문화공간', '문화시설', '복합문화공간', '열린문화공간', '전시', '휴식공간']",https://cdn.visitkorea.or.kr/img/call?cmd=VIEW&id=72b42616-c51d-4f6b-9974-5a7c86bf2171&thumb,충청남도 공주시 계룡면 봉곡길 77-13,36.39645669,127.1405912,
39,목재문화·자연사체험관,충남 청양군,041-940-2841,"['곤충조립체험', '목재문화', '문화시설', '아이와 함께', '자연사체험관', '전시관']",https://cdn.visitkorea.or.kr/img/call?cmd=VIEW&id=8f9d6d93-eee2-485f-9aaf-4692d429f2ba&thumb,충청남도 청양군 대치면 칠갑산로 704-21,36.43895798,126.8504011,
40,장항도시탐험역,충남 서천군,041-956-2277,"['가족과함께', '무장애여행지', '문화시설', '복합문화공간', '서천가볼만한곳']",https://cdn.visitkorea.or.kr/img/call?cmd=VIEW&id=7deaee9f-e8fc-4e68-bce7-445d1c70cf2e&thumb,충청남도 서천군 장항읍 장항로161번길 27,36.01292029,126.6953371,
41,고암이응노생가기념관,충남 홍성군,041-630-9232,"['가족체험여행', '걷기길', '고암이응노생가기념관', '기념관', '나들이', '문화시설']",https://cdn.visitkorea.or.kr/img/call?cmd=VIEW&id=1272a5bb-6c35-4b48-9291-ec7c8094acad&thumb,충청남도 홍성군 홍북면 이응노로 61-7,36.62232225,126.6316666,
42,공주문예회관,충남 공주시,041-840-2180,"['가족여행', '공연장', '공주문예회관', '문화시설', '사계절', '실내여행지', '아이와함께']",https://cdn.visitkorea.or.kr/img/call?cmd=VIEW&id=e02081a5-eb01-4069-95a3-d620575b5050&thumb,충청남도 공주시 고마나루길 5,36.46017763,127.1117237,
43,리각미술관,충남 천안시,041-565-3463,"['가족과함께', '남녀노소', '리각미술관', '문화시설', '미술관', '복합문화공간']",https://cdn.visitkorea.or.kr/img/call?cmd=VIEW&id=ef9b2565-680b-47af-9e62-7bdd05e8449a&thumb,충청남도 천안시 동남구 태조산길 245,36.82015665,127.18628600000001,
44,한국도량형박물관,충남 당진시,041-356-9739,"['문화시설', '박물관', '아이와함께', '역사를품은곳', '역사속', '역사이야기', '역사탐방']",https://cdn.visitkorea.or.kr/img/call?cmd=VIEW&id=bc825360-bdca-47f2-a704-743c3452aac8&thumb,충청남도 당진시 산곡길 219-4,36.8927981,126.67659450000001,
45,예산군문예회관,충남 예산군,041-339-8211,"['가족여행', '공연장', '나들이', '데이트코스', '문화시설', '복합문화공간', '스포츠센터']",https://cdn.visitkorea.or.kr/img/call?cmd=VIEW&id=2838d6e2-2221-45f3-9570-28112bf5126d&thumb,충청남도 예산군 예산읍 아리랑로 185-14,36.68548132,126.84917759999999,
46,아라리오갤러리 천안,충남 천안시,041-551-5100,"['문화시설', '미술', '실내여행지', '아리리오갤러리', '전시관', '천안', '친구와 함께']",https://cdn.visitkorea.or.kr/img/call?cmd=VIEW&id=29afb472-5d99-4cf5-ab2d-4d5e2fdbd9d0&thumb,충청남도 천안시 동남구 만남로 43,36.81933021,127.1578465,
47,오마이갤러리,충남 태안군,041-673-6343,"['가족과함께', '교육여행', '남녀노소', '문화시설', '사진찍기좋은곳', '사진촬영명소']",https://cdn.visitkorea.or.kr/img/call?cmd=VIEW&id=7ce8c3b7-f88e-4918-9f17-0b4aaee8c703&thumb,충청남도 태안군 안면읍 안면대로 3171-6,36.49869904,126.357947,
48,계룡문화예술의전당,충남 계룡시,042-840-3707,"['가족여행', '계룡문화예술의전당', '데이트코스', '문화공간', '문화시설', '문화행사']",https://cdn.visitkorea.or.kr/img/call?cmd=VIEW&id=b0d7ae41-3ea1-4d6d-99f6-9917b80539f4&thumb,충청남도 계룡시 엄사면 문화로 31,36.497706,126.361822,
49,서산시문화회관,충남 서산시,041-661-8031,"['공연', '무장애', '문화공간', '문화시설', '문화예술공간', '서산시', '전시회']",https://cdn.visitkorea.or.kr/img/call?cmd=VIEW&id=e236cb57-d14c-4e98-ad99-924852014326&thumb,충청남도 서산시 문화로 54,36.78615258,126.4481269,
50,당림미술관,충남 아산시,041-543-6969,"['당림미술관', '문화시설', '문화예술공간', '전시관']",https://cdn.visitkorea.or.kr/img/call?cmd=VIEW&id=f36a7ff3-f142-45bc-8082-a9874159a7f4&thumb,충청남도 아산시 송악면 외암로1182번길 34-19,36.74278397,127.0186953,
51,기지시 줄다리기 보존회,충남 당진시,041-355-8118,"['가족여행', '기념관', '기지시줄다리기보존회', '나들이', '문화시설', '아이와함께']",https://cdn.visitkorea.or.kr/img/call?cmd=VIEW&id=e8810058-ecc2-460e-96bf-806cb7134302&thumb,충청남도 당진시 송악읍 안틀모시길 11,36.89616228,126.69476329999999,
52,안견기념관,충남 서산시,041-660-2536,"['근대문화유산', '기념관', '기차여행', '무료관람', '문화시설', '아이와함께', '안견기념관']",https://cdn.visitkorea.or.kr/img/call?cmd=VIEW&id=91a20839-3b11-479b-932c-e10cf8305876&thumb,충청남도 서산시 지곡면 화천리 산59-1,36.896465,126.694728,
53,박동진 판소리전수관,충남 공주시,041-856-0045,"['가족과 함께', '문화시설', '박동진판소리전수관', '아이와 함께', '이색체험', '전통문화']",https://cdn.visitkorea.or.kr/img/call?cmd=VIEW&id=4cc3fc41-255d-4b37-b4d4-287cd6203aea&thumb,충청남도 공주시 무릉중말길 22-14,36.45818584,127.17096409999998,
54,백야기념관,충남 홍성군,041-634-6952,"['가족과함께', '문화시설', '아이와함께', '역사공부', '역사를품은곳', '역사발자취']",https://cdn.visitkorea.or.kr/img/call?cmd=VIEW&id=06da3f5c-39c8-4aeb-ae7b-b4ee19635d17&thumb,충청남도 홍성군 갈산면 행산리,36.59538351,126.55521909999999,
55,해옥 전시장,충남 태안군,041-672-9898,"['데이트', '문화시설', '산책하기좋은곳', '이색전시장', '전시장', '커플데이트']",https://cdn.visitkorea.or.kr/img/call?cmd=VIEW&id=c5cf9697-ad14-4c74-80ed-bfbd3f238bee&thumb,충청남도 태안군 소원면 파도길 75,36.73786078,126.1354632,
56,홍주문화회관,충남 홍성군,041-634-0021,"['가족여행', '공연장', '나들이', '데이트코스', '문화시설', '아이와함께', '연인과함께']",https://cdn.visitkorea.or.kr/img/call?cmd=VIEW&id=5360e976-5347-4f91-9d76-bf924a8fef25&thumb,충청남도 홍성군 홍성읍 내포로 164,36.59477042,126.65189579999999,
57,청양문예회관,충남 청양군,041-940-2730,"['가족과함께', '문화공간', '문화시설', '문화예술', '문화예술공간', '문화예술활동']",https://cdn.visitkorea.or.kr/img/call?cmd=VIEW&id=a03e0ed3-6cda-422f-9bd7-592b475dbf9f&thumb,충청남도 청양군 청양읍 문화예술로 187,36.45621988,126.8006395,
58,무형문화재복합전수관(서천),충남 서천군,041-950-4225,"['무형문화재', '무형문화재복합전수관', '문화시설', '박물관', '아이와함께', '전시관']",https://cdn.visitkorea.or.kr/img/call?cmd=VIEW&id=ab7b6553-ff62-4fa6-bbaf-8bded7c6c570&thumb,충청남도 서천군 한산면 충절로 1120,36.08036933,126.8024885,
59,서산시 청소년문화의집,충남 서산시,041-688-7320,"['문화시설', '복합문화공간', '사계절', '서산시청소년문화의집', '이색체험', '체험학습']",https://cdn.visitkorea.or.kr/img/call?cmd=VIEW&id=cf0f4b74-5ecf-40b4-8eb8-5d10ccc81411&thumb,충청남도 서산시 해미면 성지3길 33,36.71009171,126.5425933,
60,사비도성 가상체험관,충남 부여군,041-830-2930,"['가족이색체험', '문화시설', '사비도성가상체험관', '이색체험']",https://cdn.visitkorea.or.kr/img/call?cmd=VIEW&id=dc084bf7-18c7-4c32-a34d-cd4ebbd8f5a9&thumb,충청남도 부여군 부여읍 부소로 15,36.28548643,126.9133514,
61,류방택천문기상과학관,충남 서산시,041-669-8496,"['과학관', '무더위_피해_실내여행', '문화시설', '미세먼지_피하는_실내여행']",https://cdn.visitkorea.or.kr/img/call?cmd=VIEW&id=c1d7c3f9-99b6-4d13-896e-47d6115a4ad0&thumb,충청남도 서산시 인지면 무학로 1353-4,36.72737118,126.4131813,
62,김홍신 문학관,충남 논산시,041-733-2018,"['가족과함께', '문학체험', '문화시설', '아이와함께']",https://cdn.visitkorea.or.kr/img/call?cmd=VIEW&id=6e41177d-7f85-4b88-b37b-cf0ddf636187&thumb,충청남도 논산시 중앙로 146-23,36.1826818,127.10712920000002,
63,남양여관,충남 서산시,041-668-8053,"['교육여행', '문화공간', '문화시설', '복합문화공간', '서산가볼만한곳', '아이와함께']",https://cdn.visitkorea.or.kr/img/call?cmd=VIEW&id=ee05d849-6ec7-4d6c-aeea-bd78a5f815b2&thumb,충청남도 서산시 번화3길 8-1,36.78169442,126.45248629999999,
64,한국서예비림박물관,충남 예산군,041-335-8610,"['문화시설', '서예문화', '이색체험', '한국서예비림박물관']",https://cdn.visitkorea.or.kr/img/call?cmd=VIEW&id=aad4ae04-bb5e-4c1d-853b-a6dd0dde8a29&thumb,충청남도 예산군 신양면 녹문박살미길 7,36.605608399999994,126.8481949,
65,예산군문예회관,충남 예산군,041-339-8211,"['가족여행', '공연장', '나들이', '데이트코스', '문화시설', '복합문화공간', '스포츠센터']",https://cdn.visitkorea.or.kr/img/call?cmd=VIEW&id=2838d6e2-2221-45f3-9570-28112bf5126d&thumb,충청남도 예산군 예산읍 아리랑로 185-14,36.68548132,126.8491776,
66,아라리오갤러리 천안,충남 천안시,041-551-5100,"['문화시설', '미술', '실내여행지', '아리리오갤러리', '전시관', '천안', '친구와 함께']",https://cdn.visitkorea.or.kr/img/call?cmd=VIEW&id=29afb472-5d99-4cf5-ab2d-4d5e2fdbd9d0&thumb,충청남도 천안시 동남구 만남로 43,36.81933021,127.1578465,
67,파라다이스 스파 도고 카라반 캠핑장,충남 아산시,041-537-7100,"['레포츠', '아산숙소', '연중무휴', '충청권', '카라반캠핑장', '캠핑카', '파라다이스스파도고']",https://cdn.visitkorea.or.kr/img/call?cmd=VIEW&id=88b711db-2333-4505-aac2-4dd8d98b707c&thumb,충청남도 아산시 도고면 도고온천로 176,36.7662476,126.8865625,0.0
68,몽산포오토캠핑장,충남 태안군,010-5408-6868,"['가족여행', '갯벌체험', '레포츠', '몽산포해수욕장', '오토캠핑장']",https://cdn.visitkorea.or.kr/img/call?cmd=VIEW&id=21613ce4-a5ef-4ca4-a1cd-0d4159551103&thumb,충청남도 태안군 남면 몽산포길 65-27,36.6699444,126.28754779999998,1.0
69,예당저수지(예당관광지),충남 예산군,041-339-8285,"['낚시터', '레포츠', '예당저수지', '충청권', '힐링산책']",https://cdn.visitkorea.or.kr/img/call?cmd=VIEW&id=135bec22-1522-4780-81fa-4e63ea4388fa&thumb,충청남도 예산군 광시면 장전리,36.5928467,126.8034625,2.0
70,학암포 오토캠핑장,충남 태안군,070-7601-4033,['레포츠'],https://cdn.visitkorea.or.kr/img/call?cmd=VIEW&id=c973e9e3-144b-4bed-98fc-e6ff3c694975&thumb,충청남도 태안군 원북면 옥파로 1152-37,36.8971864,126.2075073,3.0
71,송정저수지 (부여),충남 부여군,041-830-6628,"['낚시', '레포츠', '문화재', '송정저수지', '자연경관']",https://cdn.visitkorea.or.kr/img/call?cmd=VIEW&id=c67d3d37-3ae2-49fd-bd7f-1323efdf91f5&thumb,충청남도 부여군 충화면 충신로 437,36.1483723,126.8090222,4.0
72,계룡산글램핑,충남 공주시,070-5055-0319,"['가족여행', '계룡산글램핑', '레포츠', '충청권', '캠핑장', '휴양여행']",https://cdn.visitkorea.or.kr/img/call?cmd=VIEW&id=9167676b-c0d9-4483-965e-f47c48491a66&thumb,충청남도 공주시 반포면 계룡대로 1352,36.3559529,127.2518695,5.0
73,당진 장고항,충남 당진시,041-360-8202,"['가족여행', '당진장고항', '레포츠', '바지락잡기체험', '이색체험', '충청권']",https://cdn.visitkorea.or.kr/img/call?cmd=VIEW&id=82971d7d-3b60-44b8-b010-c3a598598b53&thumb,충청남도 당진시 석문면 장고항로,37.0230768,126.5569368,6.0
74,"보령 바다낚시(무창포,대천)",충남 보령시,041-930-4822,"['낚시', '대천', '레포츠', '무창포', '보령 바다낚시']",https://cdn.visitkorea.or.kr/img/call?cmd=VIEW&id=d9fc3d19-e64f-4e95-94f5-7a3f470405f1&thumb,충청남도 보령시 웅천읍 열린바다2길 46,36.2485451,126.5370439,7.0
75,송악저수지(낚시),충남 아산시,041-543-5441,"['낚시', '레포츠', '붕어', '송악', '저수지']",https://cdn.visitkorea.or.kr/img/call?cmd=VIEW&id=6fdd5abe-49d9-47d7-8dd1-b932ca1058dd&thumb,충청남도 아산시 송악면 송악로 560,36.72143270000001,126.9898213,8.0
76,상록리조트 눈썰매장,충남 천안시,041-560-9114,"['겨울스포츠', '눈썰매장', '레포츠', '복합레저스포츠', '상록리조트', '상록리조트 눈썰매장']",https://cdn.visitkorea.or.kr/img/call?cmd=VIEW&id=2f0a256d-86bc-4a15-a36d-59eda10685b5&thumb,충청남도 천안시 동남구 수신면 수신로 576,36.74204279999999,127.2873208,9.0
77,아산레일바이크,충남 아산시,041-547-7882,"['경험', '도고온천역', '레일바이크', '레포츠', '선장역', '아산시']",https://cdn.visitkorea.or.kr/img/call?cmd=VIEW&id=07d667d3-5dc3-45bd-ab05-c765f0b4ce66&thumb,충청남도 아산시 도고면 아산만로 199-7,36.7612584,126.8672308,10.0
78,삽교호(아산),충남 아산시,041-536-8686,['레포츠'],https://cdn.visitkorea.or.kr/img/call?cmd=VIEW&id=2d0e96b6-13d3-49ba-b7a9-413f681a5c0f&thumb,충청남도 아산시 인주면 아산만로 1363,36.8526333,126.8545664,11.0
79,벌말,충남 서산시,041-660-2411,"['낚시', '레포츠', '벌말', '충청권']",https://cdn.visitkorea.or.kr/img/call?cmd=VIEW&id=b7a550fd-752e-4b48-ad66-4d60165c0945&thumb,충청남도 서산시 대산읍 가로림로 972,36.9615555,126.3339824,12.0
80,보령시 옥마산 패러글라이딩 체험,충남 보령시,010-3900-8926,"['레포츠', '옥마산', '충청권', '패러글라이딩', '활공장']",https://cdn.visitkorea.or.kr/img/call?cmd=VIEW&id=2d36c2b6-46e4-40ff-addd-626a48bb938a&thumb,충청남도 보령시 남포면 창동1길 233-25,36.3138329,126.6283981,13.0
81,대천 레일바이크,충남 보령시,070-7770-8770,"['가족여행', '경치좋은곳', '레일바이크', '레포츠', '바다경치', '바다풍경', '아이와함께']",https://cdn.visitkorea.or.kr/img/call?cmd=VIEW&id=977959ad-77b7-40a4-9160-ba52c72f7cc5&thumb,충청남도 보령시 옥마벚길 64,36.332,126.623,14.0
82,대천 짚트랙,충남 보령시,041-934-3003,"['레포츠', '복합레저스포츠', '연인과함께', '이색체험', '짚라인', '짚와이어', '짚트랙']",https://cdn.visitkorea.or.kr/img/call?cmd=VIEW&id=e79bb38a-f9e1-4572-b2b5-3720843d17df&thumb,충청남도 보령시 해수욕장10길 80,36.3186662,126.50820459999998,15.0
83,천안승마클럽,충남 천안시,041-568-2229,"['가족과함께', '레포츠', '승마', '승마레슨', '승마장', '승마체험', '승마캠프', '승마트레킹']",https://cdn.visitkorea.or.kr/img/call?cmd=VIEW&id=25e460ab-04e9-4151-90d9-eac3f7b240d3&thumb,충청남도 천안시 서북구 업성3길 31-54,36.859591,127.1298348,16.0
84,마량 방파제,충남 서천군,041-950-4114,"['레포츠', '바다낚시', '서천낚시터', '서천바다낚시', '충남권']",https://cdn.visitkorea.or.kr/img/call?cmd=VIEW&id=d4268b59-9c10-4fbf-a836-faa41bd7008a&thumb,충청남도 서천군 서면 서인로 56,36.12936420000001,126.5036472,17.0
85,홍성군 승마체험장,충남 홍성군,041-630-9700,"['가족과함께', '레포츠', '승마', '승마레슨', '승마장', '승마체험', '승마캠프', '승마트레킹']",https://cdn.visitkorea.or.kr/img/call?cmd=VIEW&id=a55df5dc-73fd-41ae-85a7-e24fee29f0bf&thumb,충청남도 홍성군 서부면 남당항로 690,36.55902860000001,126.4729063,18.0
86,에딘버러컨트리클럽,충남 금산군,041-750-0114,"['골프장', '레포츠', '에딘버러컨트리클럽', '충남권']",https://cdn.visitkorea.or.kr/img/call?cmd=VIEW&id=6ec87824-7105-4907-81b2-5c78de155339&thumb,충청남도 금산군 진산면 살구정길 167,36.1539145,127.3246873,19.0
87,[서산 아라메길 1구간] 유기방가옥~해미읍성 동헌,충남 서산시,041-660-2373,"['레포츠', '산책코스', '충청권', '트레킹', '힐링&휴양']",https://cdn.visitkorea.or.kr/img/call?cmd=VIEW&id=f62dc841-f2b0-4959-a918-a7857105f791&thumb,충청남도 서산시 운산면 이문안길 72-10,36.8246941,126.5734262,20.0
88,당진 도비도항,충남 당진시,041-352-6862,['레포츠'],https://cdn.visitkorea.or.kr/img/call?cmd=VIEW&id=7d5ec5d1-0b84-4bda-89bd-4ebf3d2cd96d&thumb,충청남도 당진시 석문면 난지3길,37.0189533,126.4578757,21.0
89,양화저수지,충남 공주시,041-852-5567,"['공주낚시터', '공주저수지', '레포츠', '민물낚시', '충남권']",https://cdn.visitkorea.or.kr/img/call?cmd=VIEW&id=f5b4edaf-b787-4186-84dd-94ace815fe2b&thumb,충청남도 공주시 계룡면 양화리,36.3369902,127.1772777,22.0
90,오천.안면도,충남 보령시,041-932-4301,"['낚시', '레포츠', '바다낚시', '안면도', '오천', '우럭', '충청권']",https://cdn.visitkorea.or.kr/img/call?cmd=VIEW&id=9c2179e8-ccf7-444a-8001-e5ce9474bab9&thumb,충청남도 보령시 오천면 오천해안로,36.4180487,126.5091731,23.0
91,태안 방포항,충남 태안군,041-670-2885,"['레포츠', '바다낚시', '방포항', '충남권', '태안바다', '태안바다낚시', '태안시']",https://cdn.visitkorea.or.kr/img/call?cmd=VIEW&id=47771662-5e92-4849-910d-1faa6c1ac8d0&thumb,충청남도 태안군 안면읍 방포항길,36.5055765,126.336036,24.0
92,삼길포,충남 서산시,041-662-0819,"['낚시체험', '낚시터', '레포츠', '삼길포', '충청권']",https://cdn.visitkorea.or.kr/img/call?cmd=VIEW&id=66aac7aa-bf08-4e4f-a6e0-3e1025a224f1&thumb,충청남도 서산시 대산읍 삼길포1로 59,37.0030381,126.4521436,25.0
93,도고글로리콘도 실내수영장,충남 아산시,041-541-7100,['레포츠'],https://cdn.visitkorea.or.kr/img/call?cmd=VIEW&id=1fc48f12-9c2a-4193-a8c8-c9b18e88dfa6&thumb,충청남도 아산시 도고면 도고온천로 124-23,36.7653505,126.8889175,26.0
94,태안 통개항,충남 태안군,041-670-2772,"['낚시', '레포츠', '충청권', '통개항', '풍경좋은곳']",https://cdn.visitkorea.or.kr/img/call?cmd=VIEW&id=164e9483-fd46-49ae-ad3f-3a8d69ae4969&thumb,충청남도 태안군 소원면 파도리,36.7348857,126.1387204,27.0
95,충청남도학생수련원,충남 공주시,041-850-9235,['레포츠'],https://cdn.visitkorea.or.kr/img/call?cmd=VIEW&id=1d031ca5-a4ad-46a0-9653-af141343d69b&thumb,충청남도 공주시 연수원길 88-42,36.4911311,127.1519917,28.0
96,부여청소년수련원,충남 부여군,041-835-5502,"['교육프로그램', '레포츠', '부여청소년수련원', '충남권']",https://cdn.visitkorea.or.kr/img/call?cmd=VIEW&id=eb4339db-f7c6-4218-83ac-236ea31affaa&thumb,충청남도 부여군 충화면 충신로 618,36.1600553,126.8195001,29.0
97,안면해수욕장,충남 태안군,041-670-2691,"['가족여행', '관광지', '레포츠', '바다낚시', '바다풍경', '안면해수욕장', '자연']",https://cdn.visitkorea.or.kr/img/call?cmd=VIEW&id=bfcf922a-a4f2-4fb7-95c2-8a651ad60946&thumb,충청남도 태안군 안면읍 정당리,36.5508737,126.3576326,30.0
98,부여 산직지,충남 부여군,041-830-6808,"['낚시', '레포츠', '부여군', '산직지', '지석묘']",https://cdn.visitkorea.or.kr/img/call?cmd=VIEW&id=bb121d02-8b99-4cbd-83d2-386f2d9ec0d7&thumb,충청남도 부여군 초촌면 선사로 286,36.2609278,127.0410666,31.0
99,홍익대만리포청소년수련원,충남 태안군,041-671-7500,"['레포츠', '청소년수련원', '충청권']",https://cdn.visitkorea.or.kr/img/call?cmd=VIEW&id=eea89eb3-742d-40fe-9c33-4d1aa8ce5e9e&thumb,충청남도 태안군 소원면 천리포1길 41,36.7866346,126.1464107,32.0
100,충화 복금저수지(복심저수지),충남 부여군,041-830-6628,"['낚시', '레포츠', '부여군', '저수지', '충화 복금저수지']",https://cdn.visitkorea.or.kr/img/call?cmd=VIEW&id=ea6f9008-02c9-4314-9c3a-177cac1a1165&thumb,충청남도 부여군 충화면 가림로,36.1846155,126.8614973,33.0
101,아산시 실내수영장,충남 아산시,041-537-3913,"['레포츠', '수영교실', '실내수영장', '아산시', '운동']",https://cdn.visitkorea.or.kr/img/call?cmd=VIEW&id=40247cec-9f0c-4d81-9fa9-e5bfb49c735d&thumb,충청남도 아산시 신정로 685,36.778566,126.9847277,34.0
102,당진 초대리지,충남 당진시,041-360-8501,"['낚시', '당진 초대리지', '당진시', '레포츠', '저수지']",https://cdn.visitkorea.or.kr/img/call?cmd=VIEW&id=025b5f81-e743-44c4-b1e7-7987c69aed08&thumb,충청남도 당진시 신평면 새내큰말길,36.9062044,126.7410149,35.0
103,"도비도내수면어업계 카누,카약체험장",충남 당진시,041-353-6118,"['레포츠', '연중무휴', '체험프로그램', '카누', '카약']",https://cdn.visitkorea.or.kr/img/call?cmd=VIEW&id=ebf1a63c-6159-4980-99a7-2fcfe7c191eb&thumb,충청남도 당진시 석문면 대호만로 2881-16,37.051032,126.4335439,36.0
104,온양그랜드호텔 실내수영장,충남 아산시,041-540-9492,['레포츠'],https://cdn.visitkorea.or.kr/img/call?cmd=VIEW&id=ddec5314-a268-49ed-8a05-5c36db2b317c&thumb,충청남도 아산시 충무로20번길 7,36.7833066,127.0060287,37.0
105,태안 모항항,충남 태안군,041-670-2691,"['낚시', '레포츠', '모항항', '충청권', '항구']",https://cdn.visitkorea.or.kr/img/call?cmd=VIEW&id=d91c6f67-a0d9-4528-b619-98150f037aea&thumb,충청남도 태안군 소원면 모항항길 122-29,36.7754391,126.1355825,38.0
106,반산저수지,충남 부여군,041-835-1997,"['낚시', '레포츠', '반산저수지', '부여군', '붕어']",https://cdn.visitkorea.or.kr/img/call?cmd=VIEW&id=fe29745a-c535-4af8-8065-26f9e2be3ba1&thumb,충청남도 부여군 규암면 호반로,36.2777217,126.8507675,39.0
107,장삼포해수욕장,충남 태안군,041-670-2691,"['가족여행', '관광지', '레포츠', '바다낚시', '바다풍경', '아이와함께', '연인과함께']",https://cdn.visitkorea.or.kr/img/call?cmd=VIEW&id=52e60758-6556-44a6-a5fa-81b853250c71&thumb,충청남도 태안군 고남면 장곡리,36.4309938,126.3780996,40.0
108,백마강레저파크,충남 부여군,1833-8982,"['레포츠', '부여관광지', '부여여행', '수상레저', '오토캠핑장', '워터파크', '카라반']",https://cdn.visitkorea.or.kr/img/call?cmd=VIEW&id=6be91db8-466e-4f8f-9563-f5f0a6090966&thumb,충청남도 부여군 규암면 호암리 234-2,36.3020849,126.9159369,41.0
109,부여군 청소년수련원,충남 부여군,041-835-5502,"['레포츠', '부여숙소', '숙박', '청소년수련원']",https://cdn.visitkorea.or.kr/img/call?cmd=VIEW&id=2ce58266-4c79-4206-8024-82785fd7c982&thumb,충청남도 부여군 충화면 충신로 618,36.1600553,126.8195001,42.0
110,국립중앙청소년수련원,충남 천안시,041-620-7700,"['국립중앙청소년수련원', '레포츠', '청소년수련원', '충청권']",https://cdn.visitkorea.or.kr/img/call?cmd=VIEW&id=fff0768a-dce3-4659-83a3-77ec33d3a42a&thumb,충청남도 천안시 동남구 목천읍 서리4길 48,36.7931723,127.2249874,43.0
111,태안 곰섬각지(신온지),충남 태안군,041-670-2852,"['레포츠', '민물낚시', '신온지', '충남권', '태안낚시터', '태안저수지']",https://cdn.visitkorea.or.kr/img/call?cmd=VIEW&id=undefined&thumb,충청남도 태안군 남면 마검포길,36.6196327,126.3058838,44.0
112,서산 덕송지,충남 서산시,041-662-6301,"['덕송지', '레포츠', '충청권', '풍경좋은곳']",https://cdn.visitkorea.or.kr/img/call?cmd=VIEW&id=a90e4663-371e-4a1f-bd6d-91953f09c483&thumb,충청남도 서산시 팔봉면 덕송리,36.8254594,126.3460151,45.0
113,죽산낚시터,충남 아산시,041-544-3666,"['낚시터', '레포츠', '서울근교', '저수지', '죽산']",https://cdn.visitkorea.or.kr/img/call?cmd=VIEW&id=8e1785c5-709f-41a1-b5c5-3bb7455ff653&thumb,충남 아산시 선장면 서부남로 344,36.7857711,126.8978959,46.0
114,봉재낚시터,충남 아산시,041-531-3196,"['낚시터', '레포츠', '봉재낚시터', '충남권']",https://cdn.visitkorea.or.kr/img/call?cmd=VIEW&id=3ac5f3cb-77c1-416d-b91c-79ac545dd6ad&thumb,충청남도 아산시 둔포면 충무로 1258-32,36.8831057,127.0320924,47.0
115,천마승마목장,충남 공주시,041-858-1616,"['가족과함께', '레포츠', '승마', '승마레슨', '승마장', '승마체험', '승마캠프', '승마트레킹']",https://cdn.visitkorea.or.kr/img/call?cmd=VIEW&id=d724414b-af9d-4279-9e44-5540db5b7e70&thumb,충청남도 공주시 이인면 돌고지길 5-8,36.39384550000001,127.0801058,48.0
116,당진 오봉제,충남 당진시,041-360-8501,"['당진낚시터', '당진저수지', '레포츠', '민물낚시', '충남권']",https://cdn.visitkorea.or.kr/img/call?cmd=VIEW&id=8f947eee-0380-43bf-adf1-8cbd1c526535&thumb,충청남도 당진시 신평면,36.8852316,126.7735905,49.0
117,중왕리수로,충남 서산시,041-662-9001,"['레포츠', '바다낚시', '서산바다', '서산시', '충남권']",https://cdn.visitkorea.or.kr/img/call?cmd=VIEW&id=0629d77e-8fc5-4d5d-85c5-8d5096affda7&thumb,충청남도 서산시 지곡면 닷개길,36.8662854,126.3979731,50.0
118,보령시청소년수련관,충남 보령시,041-931-2336,"['레포츠', '복합문화시설', '청소년수련원', '충청권']",https://cdn.visitkorea.or.kr/img/call?cmd=VIEW&id=4e558772-949c-4309-822d-a42c843aec98&thumb,충청남도 보령시 성주면 성주산로 500,36.3265425,126.65106090000002,51.0
119,독립기념관야영장,충남 천안시,041-560-0711,['레포츠'],https://cdn.visitkorea.or.kr/img/call?cmd=VIEW&id=dc02ff06-b7ac-4094-81f2-c5575317c0f7&thumb,충청남도 천안시 동남구 목천읍 독립기념관로 1,36.7834151,127.2231815,52.0
120,신봉낚시터,충남 아산시,041-532-6648,"['낚시터', '레포츠', '신봉낚시터', '충남권']",https://cdn.visitkorea.or.kr/img/call?cmd=VIEW&id=ad43044a-8de4-4528-90e7-08fe4d3eecaf&thumb,충청남도 아산시 영인면 윤보선로 211,36.8943151,127.00396840000002,53.0
121,고북신송지,충남 서산시,041-664-2256,"['고북신송지', '레포츠', '밤낚시', '붕어', '저수지']",https://cdn.visitkorea.or.kr/img/call?cmd=VIEW&id=de71919e-0785-44bb-a976-cc4535f0b5d1&thumb,충청남도 서산시 고북면 신송리,36.6497723,126.5421558,54.0
122,계룡산동학사야영장,충남 공주시,042-825-3005,['레포츠'],https://cdn.visitkorea.or.kr/img/call?cmd=VIEW&id=null&thumb,충청남도 공주시 반포면 동학사2로 115-16,36.3576718,127.2416048,55.0
123,잠홍 저수지(상홍지),충남 서산시,041-688-3069,"['낚시', '레포츠', '민물낚시']",https://cdn.visitkorea.or.kr/img/call?cmd=VIEW&id=48935e86-dfd6-4503-9d17-eb6de88cb3bd&thumb,충청남도 서산시 음암면 상홍리,36.7958941,126.5000359,56.0
124,안흥과 만리포,충남 태안군,041-674-1295,"['레포츠', '민물낚시', '충남권', '태안낚시터', '태안저수지']",https://cdn.visitkorea.or.kr/img/call?cmd=VIEW&id=d5924dba-02a6-4137-bd86-547335ead838&thumb,충청남도 태안군 근흥면 안흥1길 30-1,36.6811519,126.1528733,57.0
125,오케이목장승마장,충남 예산군,041-333-3967,"['가족과함께', '레포츠', '승마', '승마레슨', '승마장', '승마체험', '승마캠프', '승마트레킹']",https://cdn.visitkorea.or.kr/img/call?cmd=VIEW&id=f90d0a54-575b-45c6-8094-182b263704bc&thumb,충청남도 예산군 대술면 마전리,36.62970670000001,126.9148369,58.0
126,마량권 낚시터,충남 서천군,041-951-8104,"['낚시터', '레포츠', '이색체험', '충남권']",https://cdn.visitkorea.or.kr/img/call?cmd=VIEW&id=56dc66de-ef61-4927-98fb-2592b14335c3&thumb,충청남도 서천군 서면 서인로,36.1456481,126.5306555,59.0
127,청양 천장지,충남 청양군,041-940-4191,"['낚시터', '레포츠', '천장지']",https://cdn.visitkorea.or.kr/img/call?cmd=VIEW&id=932025d7-ff7f-4fb5-bd08-3df24471aeaf&thumb,충청남도 청양군 정산면 천장호길,36.409706,126.9164653,60.0
128,풍전 저수지,충남 서산시,041-662-2064,"['레포츠', '민물낚시', '서산낚시터', '서산저수지', '충남저수지']",https://cdn.visitkorea.or.kr/img/call?cmd=VIEW&id=15b7ea2b-d910-4fae-b2a5-ff89f974015f&thumb,충청남도 서산시 인지면 풍전1길 117,36.7772202,126.4177744,61.0
129,구례포천사길,충남 태안군,041-672-9737,"['레포츠', '충청권', '태안해안국립공원', '트레킹']",https://cdn.visitkorea.or.kr/img/call?cmd=VIEW&id=5c5aa2eb-2cb7-4d1d-b0aa-b443e26a80be&thumb,충청남도 태안군 원북면 구례포길 47-20,36.8857202,126.1982802,62.0
130,덕삼지,충남 당진시,041-360-8305,"['낚시', '당진시', '덕삼지', '레포츠', '저수지']",https://cdn.visitkorea.or.kr/img/call?cmd=VIEW&id=e6531ab8-9abe-4db4-b19d-92264ba51042&thumb,충청남도 당진시 정미면 덕삼리,36.8329566,126.5364973,63.0
131,서천국민체육센터,충남 서천군,041-950-4766,['레포츠'],https://cdn.visitkorea.or.kr/img/call?cmd=VIEW&id=6b5b95da-6986-4204-bab4-e28e828e0afc&thumb,충청남도 서천군 마서면 마서로 400,36.0624478,126.6621736,64.0
132,옥산저수지,충남 부여군,041-830-6568,"['낚시터', '레포츠', '충남권']",https://cdn.visitkorea.or.kr/img/call?cmd=VIEW&id=undefined&thumb,충청남도 부여군 옥산면 옥산북로,36.2117441,126.7263992,65.0
133,천안시 태조산청소년수련관,충남 천안시,041-566-0179,['레포츠'],https://cdn.visitkorea.or.kr/img/call?cmd=VIEW&id=ed3c2468-00d1-47f2-b1b0-b87919e2540b&thumb,충청남도 천안시 동남구 태조산길 261,36.8238438,127.1946663,66.0
134,홍양저수지(빼뽀저수지),충남 홍성군,041-633-1141,"['레포츠', '민물낚시', '빼뽀저수지', '충남권', '홍성낚시터', '홍성저수지']",https://cdn.visitkorea.or.kr/img/call?cmd=VIEW&id=a4afdf30-8b69-4058-9ced-64a59fe87ef7&thumb,충청남도 홍성군 금마면 월암리 일대,36.5896447,126.753797,67.0
135,학암포항,충남 태안군,041-674-7924,"['레포츠', '바다낚시', '충남권', '태안바다', '태안바다낚시', '태안시']",https://cdn.visitkorea.or.kr/img/call?cmd=VIEW&id=f5f37f60-fadf-4d77-b343-25bed8a569ea&thumb,충청남도 태안군 원북면 방갈리,36.8948887,126.2247896,68.0
136,신수낚시터,충남 아산시,041-543-2109,"['낚시터', '레포츠', '충남권']",https://cdn.visitkorea.or.kr/img/call?cmd=VIEW&id=b04ff4c4-2333-47bb-a11e-d02901d91c02&thumb,충청남도 아산시 음봉면 충무로681번길 149-16,36.84385,126.998358,69.0
137,면천낚시터,충남 당진시,041-355-6050,"['당진낚시터', '당진저수지', '레포츠', '민물낚시', '충남권']",https://cdn.visitkorea.or.kr/img/call?cmd=VIEW&id=c1c3c70c-bb6b-45dc-b786-1846f243fb77&thumb,충청남도 당진시 면천면 면천로 844-5,36.81110200000001,126.68076229999998,70.0
138,계룡저수지,충남 공주시,041-840-8855,"['레포츠', '민물낚시', '충남낚시']",https://cdn.visitkorea.or.kr/img/call?cmd=VIEW&id=31d88c7e-7a83-40b3-b880-8a07b1cfca6f&thumb,충청남도 공주시 계룡면 하대리,36.3528,127.1608095,71.0
139,인평저수지,충남 태안군,041-674-5353,"['낚시', '레포츠', '인평저수지', '저수지', '충남태안군']",https://cdn.visitkorea.or.kr/img/call?cmd=VIEW&id=ed61e845-3e6b-494d-a415-c7f0e2b4847e&thumb,충청남도 태안군 태안읍 인평길,36.75807020000001,126.3413896,72.0
140,신창저수지,충남 서산시,041-660-2451,"['레포츠', '민물낚시', '서산낚시터']",https://cdn.visitkorea.or.kr/img/call?cmd=VIEW&id=a657f561-5785-4727-8937-c5397e35f802&thumb,충청남도 서산시 운산면 개심사로,36.7502006,126.5747113,73.0
141,고풍저수지,충남 서산시,041-660-2451,"['레포츠', '민물낚시', '서산낚시터']",https://cdn.visitkorea.or.kr/img/call?cmd=VIEW&id=193e3f4d-b5cb-4181-8016-f4273e815c6a&thumb,충청남도 서산시 운산면 봉운로,36.77981079999999,126.6070025,74.0
142,삼원승마클럽,충남 서산시,041-663-1111,"['가족과함께', '레포츠', '승마', '승마레슨', '승마장', '승마체험', '승마캠프', '승마트레킹']",https://cdn.visitkorea.or.kr/img/call?cmd=VIEW&id=3ce129c0-fce8-40ed-bd6a-59c6ed753c93&thumb,충청남도 서산시 팔봉면 진장서낭골길 204,36.7775109,126.35139879999998,75.0
143,태안 모항지,충남 태안군,041-670-2543,"['레포츠', '민물낚시', '충남권', '태안낚시터', '태안저수지']",https://cdn.visitkorea.or.kr/img/call?cmd=VIEW&id=d08a4a09-3095-48f1-8bcf-16d77490e0f0&thumb,충청남도 태안군 소원면 연들길,36.754757700000006,126.1314652,76.0
144,당진 대호지,충남 당진시,041-360-8256,"['당진낚시터', '당진저수지', '레포츠', '민물낚시', '충남권']",https://cdn.visitkorea.or.kr/img/call?cmd=VIEW&id=undefined&thumb,충청남도 당진시 대호지면 대호로,36.9245417,126.5123315,77.0
145,서대산드림리조트수영장(실외),충남 금산군,1666-0588,['레포츠'],https://cdn.visitkorea.or.kr/img/call?cmd=VIEW&id=undefined&thumb,충청남도 금산군 추부면 성당로 247,36.23500720000001,127.5340153,78.0
146,충남레저,충남 보령시,041-931-4672,"['가족과함께', '겨울스포츠', '레포츠', '복합레저스포츠', '수상스포츠', '스포츠']",https://cdn.visitkorea.or.kr/img/call?cmd=VIEW&id=undefined&thumb,충청남도 보령시 웅천읍 열린바다로 333-35,36.2408985,126.5366758,79.0
147,수룡저수지,충남 태안군,041-674-2132,"['레포츠', '민물낚시', '충남권', '태안낚시터', '태안저수지']",https://cdn.visitkorea.or.kr/img/call?cmd=VIEW&id=7a2f2702-90c5-4b86-8825-42b187f17c6f&thumb,충청남도 태안군 근흥면 마금로 80,36.7484925,126.2367957,80.0
148,진죽 저수지,충남 보령시,041-932-2023,"['레포츠', '민물낚시', '보령저수지']",https://cdn.visitkorea.or.kr/img/call?cmd=VIEW&id=f93dd223-55d4-4034-94a7-e735d7293160&thumb,충청남도 보령시 청소면 송덕신송길,36.4597185,126.5768331,81.0
149,부여 상천지,충남 부여군,041-830-2880,"['레포츠', '민물낚시', '부여낚시터', '부여저수지', '저수지', '충남권']",https://cdn.visitkorea.or.kr/img/call?cmd=VIEW&id=undefined&thumb,충청남도 부여군 홍산면 삽티로,36.2362661,126.7541404,82.0
150,"장항장 (3, 8일)",충남 서천군,041-957-0435,"['가족여행', '나들이', '먹거리', '쇼핑', '시장맛집', '아이와함께', '연인과함께']",https://cdn.visitkorea.or.kr/img/call?cmd=VIEW&id=4a7f0e51-e969-4966-8c6f-d5ca5f17ae5a&thumb,충청남도 서천군 장항읍 성화로 104,36.01556066,126.6945719,
151,농부마켓 & 농부밥상,충남 청양군,041-944-0900,"['농특산물', '로컬푸드', '쇼핑', '식당', '청양로컬푸드']",https://cdn.visitkorea.or.kr/img/call?cmd=VIEW&id=2da43257-2420-43e8-b9c0-1c6174183b6d&thumb,충청남도 청양군 대치면 칠갑산로 704-18,36.43849954,126.8493865,
152,태안 서부시장,충남 태안군,041-672-2151,"['가족여행', '기차여행', '나들이', '나홀로여행', '데이트코스', '먹거리', '쇼핑']",https://cdn.visitkorea.or.kr/img/call?cmd=VIEW&id=f572a8d2-38b4-475d-94ca-4ff87e70902b&thumb,충청남도 태안군 태안읍 시장1길 34,36.75343747,126.2961806,
153,천안 중앙시장,충남 천안시,041-555-1136,"['가족여행', '기차여행', '나들이', '나홀로여행', '데이트코스', '먹거리', '쇼핑']",https://cdn.visitkorea.or.kr/img/call?cmd=VIEW&id=fd6bb0db-8c97-45d6-9cfc-b1b2ca15b0f7&thumb,충청남도 천안시 동남구 사직로 7,36.80072079,127.1493019,
154,"아우내장 / 병천5일장 (1, 6일)",충남 천안시,041-521-2038,"['가족여행', '기차여행', '나들이', '나홀로여행', '먹거리', '쇼핑', '시장맛집', '아우내장']",https://cdn.visitkorea.or.kr/img/call?cmd=VIEW&id=db35fe3c-4521-4e53-b943-dfc0f0f26dc9&thumb,충청남도 천안시 동남구 병천면 아우내2길 20-3,36.76329257,127.2985001,
155,"서천장 / 서천 수산물특화시장 (2, 7일)",충남 서천군,041-951-1445,"['가족여행', '기차여행', '나들이', '나홀로여행', '먹거리', '서천장', '서천특화시장']",https://cdn.visitkorea.or.kr/img/call?cmd=VIEW&id=eb4cf255-7672-4545-8531-045033706e62&thumb,충청남도 서천군 서천읍 충절로 42,36.07502119,126.6868202,
156,"부여장 (5, 10일) / 백마강달밤야시장",충남 부여군,041-837-0112,"['가족여행', '부여장', '사계절', '쇼핑', '시장맛집', '아이와함께', '어르신추천코스']",https://cdn.visitkorea.or.kr/img/call?cmd=VIEW&id=87af0fa2-1192-4720-92d6-0f13a6287015&thumb,충청남도 부여군 부여읍 성왕로173번길 12,36.28149441,126.9075581,
157,강경젓갈시장,충남 논산시,041-745-1985,"['가족여행', '강경젓갈시장', '기념품판매', '기차여행', '나들이', '나홀로여행']",https://cdn.visitkorea.or.kr/img/call?cmd=VIEW&id=fc1a1cd8-63dd-4eab-b55b-77238e89a06c&thumb,충청남도 논산시 강경읍 옥녀봉로27번길 30-3,36.16074568,127.0146422,
158,무창포 수산물시장,충남 보령시,041-934-8683,"['가족여행', '기차여행', '나들이', '나홀로여행', '데이트코스', '먹거리', '무창포수산물시장']",https://cdn.visitkorea.or.kr/img/call?cmd=VIEW&id=bda80816-a720-4861-95fd-850b5b3759e1&thumb,충청남도 보령시 웅천읍 열린바다2길 46,36.24844475,126.5370371,
159,서산동부시장,충남 서산시,041-665-5478,"['가족여행', '나들이', '나홀로여행', '데이트코스', '먹거리', '서산동부시장', '쇼핑']",https://cdn.visitkorea.or.kr/img/call?cmd=VIEW&id=371205c2-c0d0-4d22-b6c7-baae0badab40&thumb,충청남도 서산시 시장3길 5-6,36.78261626,126.4556103,
160,금산인삼약령시장,충남 금산군,041-750-2012,"['가족여행', '금산인삼약령시장', '나들이', '나홀로여행', '데이트코스', '먹거리']",https://cdn.visitkorea.or.kr/img/call?cmd=VIEW&id=02fab1e7-b0a0-42c2-ad06-5f1ab204309f&thumb,충청남도 금산군 금산읍 인삼약초로 24,36.10010156,127.4964497,
161,온양온천시장,충남 아산시,041-534-2008,"['가족여행', '기차여행', '나들이', '나홀로여행', '먹거리', '쇼핑', '시장맛집', '아이와함께']",https://cdn.visitkorea.or.kr/img/call?cmd=VIEW&id=57f96be7-5f76-465f-aa4b-b5afc4fc7fa3&thumb,충청남도 아산시 시장길 29,36.7832919,127.0042322,
162,부여 롯데아울렛,충남 부여군,041-435-2500,"['부여롯데아울렛', '쇼핑', '아울렛', '충청권']",https://cdn.visitkorea.or.kr/img/call?cmd=VIEW&id=3140f65d-bbdd-4f88-a338-171df93b3dce&thumb,충청남도 부여군 규암면 백제문로 387,36.30721422,126.9019655,
163,"성환장 (1, 6일) / 성환이화시장",충남 천안시,041-521-5158,"['가족여행', '기차여행', '나들이', '나홀로여행', '먹거리', '성환이화시장', '성환장']",https://cdn.visitkorea.or.kr/img/call?cmd=VIEW&id=94649c29-a4c9-4ed8-a81f-b02a370a8f3b&thumb,충청남도 천안시 서북구 성환읍 성환시장길 12,36.9185394,127.13003159999998,
164,광천 토굴새우젓시장,충남 홍성군,041-630-1602,"['가족여행', '광천토굴새우젓시장', '기념품판매', '기차여행', '나들이', '나홀로여행']",https://cdn.visitkorea.or.kr/img/call?cmd=VIEW&id=258f999c-e78f-44cf-a1aa-853e110d6a1c&thumb,충청남도 홍성군 광천읍 광천로299번길 36,36.50094023,126.6243645,
165,온양도자기(인주면),충남 아산시,041-533-2477,"['그릇', '도자기', '쇼핑', '온양도자기', '충남아산']",https://cdn.visitkorea.or.kr/img/call?cmd=VIEW&id=4d6823e1-ba9b-4768-9934-e4714451cc7b&thumb,충청남도 아산시 인주면 현대로 984,36.84242809,126.8812561,
166,당진시 수산물 유통센터,충남 당진시,041-350-4271,"['가족여행', '기차여행', '나들이', '나홀로여행', '당진시수산물유통센터', '데이트코스']",https://cdn.visitkorea.or.kr/img/call?cmd=VIEW&id=ed5dbc28-877d-4de8-8f19-10f600ae86ee&thumb,충청남도 당진시 석문면 장고항로 334-48,37.03518716,126.5589845,
167,핫트랙스 (천안점),충남 천안시,041-558-9961,"['기프트아이템', '문구', '복합문화쇼핑공간', '쇼핑']",https://cdn.visitkorea.or.kr/img/call?cmd=VIEW&id=5bd2593b-cd0f-4ef5-a937-c3d17d010516&thumb,충청남도 천안시 동남구 만남로 43,36.81933021,127.1578465,
168,공주산성시장,충남 공주시,041-856-5427,"['가족과함께', '공주가볼만한곳', '공주당일코스', '공주맛집', '공주산성시장']",https://cdn.visitkorea.or.kr/img/call?cmd=VIEW&id=6780044f-4e39-4f4e-81b9-d947d2a356bf&thumb,충청남도 공주시 용당길 22,36.45881772,127.1226143,
169,부여 중앙시장,충남 부여군,041-835-7710,"['가족여행', '기차여행', '나들이', '나홀로여행', '데이트코스', '먹거리', '부여중앙시장']",https://cdn.visitkorea.or.kr/img/call?cmd=VIEW&id=5f263711-50c3-42df-9f84-0f7f866f75f2&thumb,충청남도 부여군 부여읍 중앙로 15,36.28079731,126.9121738,
170,"한산5일장 (1, 6일)",충남 서천군,070-4103-1651,"['가족여행', '나들이', '나홀로여행', '먹거리', '쇼핑', '시장맛집', '아이와함께']",https://cdn.visitkorea.or.kr/img/call?cmd=VIEW&id=a3259bed-820c-4780-a4b1-3f5b348d3173&thumb,충청남도 서천군 한산면 충절로1173번길 21-1,36.08447954,126.8044249,
171,온양시장 (온양온천전통시장),충남 아산시,041-541-1189,"['가족여행', '기차여행', '나들이', '나홀로여행', '먹거리', '쇼핑', '시장맛집', '아이와함께']",https://cdn.visitkorea.or.kr/img/call?cmd=VIEW&id=2b000b82-29fc-4ffb-9f98-b674e14e6012&thumb,충청남도 아산시 시장길 13,36.7835823,127.0021474,
172,"예산 역전시장 (3, 8일)",충남 예산군,041-334-4220,"['가족여행', '기차여행', '나들이', '나홀로여행', '먹거리', '쇼핑', '시장맛집', '아이와함께']",https://cdn.visitkorea.or.kr/img/call?cmd=VIEW&id=2ffa0185-8727-42e0-8752-d2eb16443b0c&thumb,충청남도 예산군 예산읍 역전로 84,36.68702514,126.829854,
173,"홍성장 (1, 6일)",충남 홍성군,041-635-2000,"['가족여행', '기차여행', '나들이', '나홀로여행', '먹거리', '쇼핑', '시장맛집', '아이와함께']",https://cdn.visitkorea.or.kr/img/call?cmd=VIEW&id=88c5961d-81f2-46c3-a80b-12e2482b6b69&thumb,충청남도 홍성군 홍북면 충남대로 21,36.65899261,126.67280359999998,
174,"당진장 (5, 10일)",충남 당진시,041-357-8483,"['가족여행', '당진장', '사계절', '쇼핑', '시장맛집', '아이와함께', '어르신추천코스']",https://cdn.visitkorea.or.kr/img/call?cmd=VIEW&id=07c24538-85b1-4811-ac5e-bffd393634f4&thumb,충청남도 당진시 당진시장길 99,36.8904573,126.629377,
175,전통예산옹기,충남 예산군,041-332-9888,"['문화행사', '쇼핑', '옹기', '체험학습장']",https://cdn.visitkorea.or.kr/img/call?cmd=VIEW&id=bb364e10-2510-4dc0-8534-9e1054fca5a5&thumb,충청남도 예산군 오가면 오촌중앙길 106,36.71598400000001,126.8027518,
176,금산국제인삼시장,충남 금산군,041-750-2114,"['가족여행', '금산인삼국제시장', '나들이', '나홀로여행', '데이트코스', '먹거리']",https://cdn.visitkorea.or.kr/img/call?cmd=VIEW&id=7b31083b-9cc2-4746-a9c0-283f923281b8&thumb,충청남도 금산군 금산읍 인삼약초로 45,36.10191794,127.4983403,
177,"예산장 / 예산시장 (5, 10일)",충남 예산군,041-339-7253,"['가족여행', '나들이', '나홀로여행', '먹거리', '쇼핑', '시장맛집', '아이와함께']",https://cdn.visitkorea.or.kr/img/call?cmd=VIEW&id=fa7b76bb-15bd-4017-95ff-9991a15d9860&thumb,충청남도 예산군 예산읍 형제고개로 967,36.67723471,126.8494508,
178,"광천장 (4, 9일)",충남 홍성군,041-642-9671,"['가족여행', '광천장', '사계절', '쇼핑', '시장맛집', '아이와함께', '어르신추천코스']",https://cdn.visitkorea.or.kr/img/call?cmd=VIEW&id=d47e1fb1-81ed-4cb0-abc0-f0bba1b1efbb&thumb,충청남도 홍성군 광천읍 광천로285번길 8-20,36.50077045,126.6249353,
179,"판교장 (5, 10일)",충남 서천군,041-950-4124,"['가족여행', '나들이', '먹거리', '쇼핑', '시장맛집', '아이와함께', '연인과함께']",https://cdn.visitkorea.or.kr/img/call?cmd=VIEW&id=32e5125c-ffe9-4752-9404-de05abf4ae60&thumb,충청남도 서천군 판교면 현암리,36.15664879999999,126.6879086,
180,"금산장 (2, 7일)",충남 금산군,041-751-3384,"['금산장', '사계절', '쇼핑', '아이와함께', '재래시장', '전통시장', '전통시장투어']",https://cdn.visitkorea.or.kr/img/call?cmd=VIEW&id=6b8bb204-603d-45b8-af25-4f8246c1c0b7&thumb,충청남도 금산군 금산읍 건삼전길 11,36.09998743,127.4904622,
181,대현수산,충남 당진시,041-353-6265,"['당진', '쇼핑', '수산물', '직판장']",https://cdn.visitkorea.or.kr/img/call?cmd=VIEW&id=4792f4c7-996c-44c0-81df-50d9892016a8&thumb,충청남도 당진시 석문면 대호만로 2888-14,37.02118498,126.4623744,
182,"덕산장 / 덕산시장 (4, 9일)",충남 예산군,041-339-7253,"['가족여행', '기차여행', '나들이', '나홀로여행', '덕산시장', '덕산장', '먹거리']",https://cdn.visitkorea.or.kr/img/call?cmd=VIEW&id=45037305-8fbc-4246-9389-70342c001ba7&thumb,충청남도 예산군 덕산면 읍내북문길 14,36.70513398,126.6680814,
183,"정산장 (5, 10일)",충남 청양군,041-942-0833,"['가족여행', '사계절', '쇼핑', '시장맛집', '아이와함께', '재래시장', '전통시장']",https://cdn.visitkorea.or.kr/img/call?cmd=VIEW&id=3575b65c-c7a4-477e-aa36-e7b0a15efa9a&thumb,충청남도 예산군 덕산면 읍내북문길 14,36.70513398,126.6680814,
184,"청양장 (2, 7일)",충남 청양군,041-943-0245,"['가족여행', '나들이', '나홀로여행', '먹거리', '쇼핑', '시장맛집', '아이와함께']",https://cdn.visitkorea.or.kr/img/call?cmd=VIEW&id=80bee3cb-0e1e-433e-9396-8893ec49bb19&thumb,충청남도 청양군 청양읍 칠갑산로4길 6,36.45057688,126.8011803,
185,갤러리아 백화점 (센터시티점),충남 천안시,041-559-9114,"['문화센터', '센터시티', '쇼핑', '영풍문고']",https://cdn.visitkorea.or.kr/img/call?cmd=VIEW&id=20834bf3-e6e9-4340-9b03-12d08a4ad2cd&thumb,충청남도 천안시 서북구 공원로 227,36.80056402,127.1047263,
186,"합덕장 (버그내장) (1, 6일)",충남 당진시,041-363-0433,"['가족여행', '기차여행', '나들이', '나홀로여행', '먹거리', '버그내장', '쇼핑', '시장맛집']",https://cdn.visitkorea.or.kr/img/call?cmd=VIEW&id=5aaacce5-6a74-4477-9003-76871e626a77&thumb,충청남도 당진시 합덕읍 버그내2길 128-25,36.8063422,126.7725834,
187,온양도자기,충남 아산시,041-541-2477,['쇼핑'],https://cdn.visitkorea.or.kr/img/call?cmd=VIEW&id=ce42c70d-ce3f-4e3b-a1a7-5a4808e8f530&thumb,충청남도 아산시 신창면 서부남로 559,36.79222618,126.9187534,
188,"비인장 (4, 9일)",충남 서천군,041-950-4125,"['가족여행', '비인장', '사계절', '쇼핑', '시장맛집', '아이와함께', '재래시장', '전통시장']",https://cdn.visitkorea.or.kr/img/call?cmd=VIEW&id=ddb4a7f0-284f-44c6-ae36-08a628761330&thumb,충청남도 서천군 비인면 비인로149번길 12,36.13941303,126.6037887,
189,해옥 공예사,충남 태안군,041-672-9898,"['공예품', '쇼핑', '자연석', '태안']",https://cdn.visitkorea.or.kr/img/call?cmd=VIEW&id=2296ca0b-0800-4abe-af6b-d9c752d8cb58&thumb,충청남도 태안군 소원면 파도길 75,36.73786078,126.1354632,
