address,name,keyword,latitude,longitude,areacode
부산광역시 연제구 묘봉산로 40,감천사,"['관광', '인문', '역사관광지', '사찰']",35.1833036953,129.0912632411,부산
부산광역시 부산진구 안창로14번길 46,광명사,"['관광', '인문', '역사관광지', '사찰']",35.1462125525,129.0451182721,부산
부산광역시 부산진구 전포동,구상반려암 ,"['관광', '자연', '자연관광지', '자연생태관광지']",35.1631194916,129.0721765659,부산
부산광역시 금정구 북문로 42,국청사,"['관광', '인문', '역사관광지', '사찰']",35.2538895578,129.0549922383,부산
부산광역시 동래구 우장춘로 211,금강사,"['관광', '인문', '역사관광지', '사찰']",35.2250098725,129.0771855435,부산
부산광역시 금정구 범어사로 254,금강암,"['관광', '인문', '역사관광지', '사찰']",35.2818532794,129.0652933488,부산
부산광역시 동구 망양로 533-1,금수사,"['관광', '인문', '역사관광지', '사찰']",35.1204207111,129.0296786530,부산
부산광역시 연제구 성지곡로 111,금용암,"['관광', '인문', '역사관광지', '사찰']",35.1916075512,129.0496638560,부산
부산광역시 금정구 금성동,금정산 ,"['관광', '자연', '자연관광지', '산']",35.2684489780,129.0518587773,부산
부산광역시 사하구 낙동남로 1240,낙동강하구 ,"['관광', '자연', '자연관광지', '강']",35.1045515050,128.9460085869,부산
부산광역시 서구 엄광산로40번길 121-22,내원정사,"['관광', '인문', '역사관광지', '사찰']",35.1265474825,129.0122827767,부산
부산광역시 중구 광복중앙로 21,대각사,"['관광', '인문', '역사관광지', '사찰']",35.1010840045,129.0306263201,부산
경기도 양평군 옥천면 신복리,대부산,"['관광', '자연', '자연관광지', '산']",37.5510012643,127.4805591302,부산
부산광역시 서구 암남동,두도 ,"['관광', '자연', '자연관광지', '섬']",35.0490923097,129.0148985467,부산
부산광역시 사하구 다대동,두송반도 ,"['관광', '자연', '자연관광지', '해안절경']",35.0595961635,128.9862007564,부산
부산광역시 연제구 봉수로 138,마하사,"['관광', '인문', '역사관광지', '사찰']",35.1639058017,129.0876863061,부산
부산광역시 사하구 다대동,몰운대 ,"['관광', '자연', '자연관광지', '해수욕장']",35.0402813591,128.9699332506,부산
부산광역시 동구 망양로 671,묘심사,"['관광', '인문', '역사관광지', '사찰']",35.1265813199,129.0398414892,부산
부산광역시 금정구 북문로 126,미륵사,"['관광', '인문', '역사관광지', '사찰']",35.2740066340,129.0489255467,부산
부산광역시 부산진구 새싹로 295,백양산 ,"['관광', '자연', '자연관광지', '산']",35.1853692278,129.0424174355,부산
부산광역시 금정구 범어사로 250,범어사,"['관광', '인문', '역사관광지', '사찰']",35.2839975351,129.0681263762,부산
부산광역시 동래구 동래로 162,법륜사,"['관광', '인문', '역사관광지', '사찰']",35.2037846774,129.0882184992,부산
부산광역시 동구 범상로1번길 35,보광사,"['관광', '인문', '역사관광지', '사찰']",35.1408826262,129.0468821528,부산
부산광역시 영도구 청학동,봉래산,"['관광', '자연', '자연관광지', '산']",35.0825699231,129.0584994009,부산
부산광역시 금정구 오륜대로 57,부산 가톨릭 특성화 거리,"['관광', '인문', '체험관광지', '이색거리']",35.2440581161,129.0976415723,부산
부산광역시 사하구 감내2로 203,부산 감천문화마을,"['관광', '인문', '체험관광지', '이색체험']",35.0975007038,129.0106253789,부산
부산광역시 동래구 복천로 66,부산 복천동 고분군,"['관광', '인문', '역사관광지', '유적지/사적지']",35.2068732659,129.0906820891,부산
부산광역시 중구 광복로12번길 3,부산 부평 족발 골목,"['관광', '인문', '체험관광지', '이색거리']",35.0992146927,129.0264572886,부산
부산광역시 서구 송도해변로 171,부산 송도해상케이블카,"['관광', '자연', '자연관광지', '산']",35.0766810472,129.0234248332,부산
부산광역시 서구 송도해변로 50,부산 송도해수욕장,"['관광', '자연', '자연관광지', '해수욕장']",35.0739256715,129.0164588470,부산
부산광역시 동구 홍곡로 75,부산 수정동 일본식 가옥,"['관광', '인문', '역사관광지', '유적지/사적지']",35.1255703737,129.0426662711,부산
부산광역시 서구 암남공원로 185,부산 암남공원,"['관광', '인문', '휴양관광지', '공원']",35.0616492424,129.0151037432,부산
부산광역시 사하구 하단동,부산 에덴공원,"['관광', '인문', '휴양관광지', '공원']",35.1092346301,128.9632291831,부산
부산광역시 해운대구 수영강변대로 120,부산 영화의 전당,"['관광', '인문', '산업관광지', '기타']",35.1707946470,129.1270576924,부산
부산광역시 해운대구 APEC로 58,부산 올림픽동산,"['관광', '인문', '휴양관광지', '공원']",35.1644621364,129.1331740011,부산
부산광역시 중구 구덕로 73,부산 자갈치 양곱창 골목,"['관광', '인문', '체험관광지', '이색거리']",35.0973677005,129.0277461155,부산
부산광역시 서구 망양로193번길 187,부산 중앙공원,"['관광', '인문', '휴양관광지', '공원']",35.1121382707,129.0278123742,부산
부산광역시 동구 자성로 99,부산 진지성,"['관광', '인문', '역사관광지', '성']",35.1357667829,129.0604644448,부산
부산광역시 동구 중앙대로179번길 1,부산 차이나타운특구,"['관광', '인문', '휴양관광지', '관광단지']",35.1134327682,129.0385614042,부산
부산광역시 기장군 철마면 철마천로 101,부산 치유의 숲,"['관광', '자연', '자연관광지', '자연생태관광지']",35.2690086937,129.1298103057,부산
부산광역시 해운대구 마린시티1로 168,부산 티파니21 크루즈 유람선,"['관광', '인문', '휴양관광지', '유람선/잠수함관광']",35.1568910746,129.1500810722,부산
부산광역시 해운대구 달맞이길62번길 33-1,부산 해운대 관광 유람선,"['관광', '인문', '휴양관광지', '유람선/잠수함관광']",35.1578080325,129.1713319770,부산
충청남도 부여군 규암면,부산각서석,"['관광', '인문', '역사관광지', '유적지/사적지']",36.2936608779,126.9027960704,부산
부산광역시 해운대구 수영강변대로 203,부산광안대교,"['관광', '인문', '건축/조형물', '다리/대교']",35.1449947568,129.1270084045,부산
부산광역시 영도구 남항로9번길 41,부산대교,"['관광', '인문', '건축/조형물', '다리/대교']",35.0960180495,129.0385091058,부산
부산광역시 남구 동명로 57,부산동명불원,"['관광', '인문', '역사관광지', '사찰']",35.1191749994,129.1040277765,부산
충청남도 부여군 규암면 진변로136번길 11-5,부산서원,"['관광', '인문', '역사관광지', '유적지/사적지']",36.2844951021,126.8936832412,부산
부산광역시 부산진구 시민공원로 73,부산시민공원,"['관광', '인문', '휴양관광지', '공원']",35.1654939246,129.0558806966,부산
부산광역시 부산진구 새싹로 295,부산어린이대공원,"['관광', '인문', '휴양관광지', '공원']",35.1872579098,129.0426784717,부산
부산광역시 해운대구 달맞이길 30,부산엑스더스카이,"['관광', '인문', '건축/조형물', '기념탑/기념비/전망대']",35.1613825711,129.1680432760,부산
부산광역시 중구 대청로126번길 12,부산영화체험박물관,"['관광', '인문', '산업관광지', '기타']",35.1017589855,129.0336899238,부산
부산광역시 해운대구 해운대해변로 52,부산영화촬영스튜디오,"['관광', '인문', '산업관광지', '기타']",35.1625180008,129.1380958485,부산
부산광역시 동구 정공단로17번길 17,부산진일신여학교,"['관광', '인문', '역사관광지', '유적지/사적지']",35.1348306373,129.0528984614,부산
부산광역시 부산진구 신천대로 215,부산차량융합기술단,"['관광', '인문', '산업관광지', '자동차']",35.1605860005,129.0482426068,부산
부산광역시 중구 용두산길 37-55,부산타워,"['관광', '인문', '건축/조형물', '기념탑/기념비/전망대']",35.1012701314,129.0326400285,부산
부산광역시 사상구 백양대로804번길 42-123,선광사,"['관광', '인문', '역사관광지', '사찰']",35.1771720590,128.9955161872,부산
부산광역시 부산진구 백양산로 138,선암사,"['관광', '인문', '역사관광지', '사찰']",35.1768587956,129.0275328529,부산
부산광역시 남구 진남로210번길 58-15,성암사,"['관광', '인문', '역사관광지', '사찰']",35.1456799238,129.0800957995,부산
부산광역시 동구 초량상로65번길 7,소림사,"['관광', '인문', '역사관광지', '사찰']",35.1176489316,129.0368531040,부산
부산광역시 서구 암남동,송도반도 ,"['관광', '자연', '자연관광지', '해수욕장']",35.0659655069,129.0195115760,부산
부산광역시 남구 신선로303번길 6,신선대,"['관광', '자연', '자연관광지', '해안절경']",35.1033184289,129.1033782666,부산
부산광역시 기장군 기장읍 내리길 461-16,안적사,"['관광', '인문', '역사관광지', '사찰']",35.2142711270,129.1698833270,부산
부산광역시 사상구 백양대로804번길 42-57,약수암,"['관광', '인문', '역사관광지', '사찰']",35.1782636211,128.9964744075,부산
부산광역시 동구 좌천동로 17-3,연등사,"['관광', '인문', '역사관광지', '사찰']",35.1330863176,129.0491127274,부산
부산광역시 수영구 망미배산로76번나길 15,영주암,"['관광', '인문', '역사관광지', '사찰']",35.1766545764,129.0986683346,부산
부산광역시 남구 용호동,오륙도 ,"['관광', '자연', '자연관광지', '섬']",35.0920423481,129.1269487495,부산
부산광역시 사상구 모라로219번길 173,운수사,"['관광', '인문', '역사관광지', '사찰']",35.1835827820,129.0134338969,부산
부산광역시 기장군 일광면 참샘길 124,월명사,"['관광', '인문', '역사관광지', '사찰']",35.2692436170,129.2167499529,부산
부산광역시 연제구 용호동,이기대 ,"['관광', '자연', '자연관광지', '해안절경']",35.1162451995,129.1271619566,부산
부산광역시 해운대구 좌동 1390,장산 ,"['관광', '자연', '자연관광지', '산']",35.1811053657,129.1681899430,부산
부산광역시 기장군 장안읍 장안로 482,장안사,"['관광', '인문', '역사관광지', '사찰']",35.3745682165,129.2328734022,부산
부산광역시 금정구 북문로 160,정수암,"['관광', '인문', '역사관광지', '사찰']",35.2603720514,129.0489064789,부산
부산광역시 기장군 장안읍 장안로 490-156,척판암,"['관광', '인문', '역사관광지', '사찰']",35.3760512352,129.2249379417,부산
부산광역시 기장군 철마면 임밖길 12,청량사,"['관광', '인문', '역사관광지', '사찰']",35.2390129146,129.1760737724,부산
부산광역시 동래구 충렬대로 345,충렬탑,"['관광', '인문', '건축/조형물', '기념탑/기념비/전망대']",35.2012128903,129.0961401022,부산
부산광역시 해운대구 센텀4로 15,키자니아 부산,"['관광', '인문', '체험관광지', '이색체험']",35.1698725513,129.1283131642,부산
부산광역시 영도구 전망로 24,태종대 ,"['관광', '인문', '휴양관광지', '유원지']",35.0582842405,129.0850810864,부산
부산광역시 동구 충장대로 206,팬스타부산주말원나잇크루즈,"['관광', '인문', '체험관광지', '이색체험']",35.1177630345,129.0491659191,부산
부산광역시 기장군 기장읍 용궁길 86,해동 용궁사,"['관광', '인문', '역사관광지', '사찰']",35.1882833680,129.2235599308,부산
부산광역시 금정구 두구로33번길 202,홍법사,"['관광', '인문', '역사관광지', '사찰']",35.3027517754,129.1106443769,부산
부산광역시 기장군 기장읍 동부산관광6로 59,국립부산과학관,"['문화', '인문', '문화시설', '전시관']",35.2046146711,129.2127159794,부산
부산광역시 부산진구 국악로 2,국립부산국악원,"['문화', '인문', '문화시설', '공연장']",35.1714404510,129.0542528980,부산
경상남도 진주시 진주대로 672,남부산림자원연구소,"['문화', '인문', '문화시설', '전시관']",35.1668126895,128.1066246796,부산
부산광역시 서구 구덕로 225,동아대학교 석당박물관,"['문화', '인문', '문화시설', '박물관']",35.1049250231,129.0187911335,부산
부산광역시 동래구 복천로 63,복천박물관,"['문화', '인문', '문화시설', '박물관']",35.2088924921,129.0911042192,부산
부산광역시 중구 중구로 71,부산 가톨릭센터,"['문화', '인문', '문화시설', '공연장']",35.1042141801,129.0290347066,부산
부산광역시 강서구 낙동북로 477,부산 강서문화원,"['문화', '인문', '문화시설', '문화원']",35.2122261867,128.9804693176,부산
부산광역시 금정구 체육공원로 7,부산 금정문화회관,"['문화', '인문', '문화시설', '공연장']",35.2459439575,129.0944806842,부산
부산광역시 기장군 기장읍 차성동로126번길 13-5,부산 기장도서관,"['문화', '인문', '문화시설', '도서관']",35.2497097044,129.2172810028,부산
부산광역시 동구 성북로36번길 54,부산 동구도서관,"['문화', '인문', '문화시설', '도서관']",35.1380885970,129.0524428566,부산
부산광역시 해운대구 재반로282번길 38,부산 반여도서관,"['문화', '인문', '문화시설', '도서관']",35.2020357183,129.1338451325,부산
부산광역시 해운대구 센텀동로 41,부산 스마트시티 전시관,"['문화', '인문', '문화시설', '전시관']",35.1728778149,129.1307239832,부산
부산광역시 중구 대청로126번길 12,부산 트릭아이뮤지엄,"['문화', '인문', '문화시설', '미술관/화랑']",35.1017589855,129.0336899238,부산
부산광역시 해운대구 양운로 183,부산 해운대도서관,"['문화', '인문', '문화시설', '도서관']",35.1779224038,129.1689871837,부산
부산광역시 해운대구 마린시티1로 167,부산공간화랑,"['문화', '인문', '문화시설', '미술관/화랑']",35.1576770997,129.1502004847,부산
부산광역시 북구 시랑로132번길 88,부산과학기술대학교 민속자료실,"['문화', '인문', '문화시설', '전시관']",35.1944619491,129.0042455100,부산
부산광역시 영도구 함지로79번길 6,부산광역시 영도도서관,"['문화', '인문', '문화시설', '도서관']",35.0755014082,129.0660433825,부산
부산광역시 동래구 명안로46번길 35,부산광역시립 명장도서관,"['문화', '인문', '문화시설', '도서관']",35.2008714550,129.1065697598,부산
부산광역시 부산진구 동천로 79,부산광역시립 부전도서관,"['문화', '인문', '문화시설', '도서관']",35.1558673423,129.0622192978,부산
부산광역시 사하구 승학로 247,부산광역시립 사하도서관,"['문화', '인문', '문화시설', '도서관']",35.1033496897,128.9910824750,부산
부산광역시 금정구 서부로76번길 5,부산광역시립 서동도서관,"['문화', '인문', '문화시설', '도서관']",35.2198858586,129.0994365249,부산
부산광역시 부산진구 월드컵대로 462,부산광역시립 시민도서관,"['문화', '인문', '문화시설', '도서관']",35.1828141013,129.0501640534,부산
부산광역시 연제구 고분로191번길 16,부산광역시립 연산도서관,"['문화', '인문', '문화시설', '도서관']",35.1858203215,129.1043481443,부산
부산광역시 중구 망양로193번길 146,부산광역시립 중앙도서관,"['문화', '인문', '문화시설', '도서관']",35.1099940500,129.0269458417,부산
부산광역시 중구 대청로 104,부산근대역사관,"['문화', '인문', '문화시설', '기념관']",35.1026921673,129.0311790057,부산
부산광역시 금정구 금정도서관로 33,부산금정도서관,"['문화', '인문', '문화시설', '도서관']",35.2726271087,129.0962020218,부산
부산광역시 금정구 부산대학로63번길 2,부산대학교 박물관,"['문화', '인문', '문화시설', '박물관']",35.2333923163,129.0798600805,부산
부산광역시 남구 유엔평화로76번길 1,부산문화회관,"['문화', '인문', '문화시설', '공연장']",35.1272405672,129.0933951468,부산
부산광역시 남구 유엔평화로 63,부산박물관,"['문화', '인문', '문화시설', '박물관']",35.1295542233,129.0947838516,부산
부산광역시 중구 충장대로 20,부산세관박물관,"['문화', '인문', '문화시설', '박물관']",35.1048559456,129.0383005496,부산
부산광역시 해운대구 APEC로 58,부산시립미술관,"['문화', '인문', '문화시설', '미술관/화랑']",35.1666980687,129.1370458254,부산
부산광역시 동구 자성로133번길 16,부산시민회관,"['문화', '인문', '문화시설', '공연장']",35.1388026415,129.0651972831,부산
부산광역시 북구 학사로 128,부산어촌민속관,"['문화', '인문', '문화시설', '전시관']",35.2337659545,129.0084662884,부산
부산광역시 부산진구 진남로 506,부산여자대학 차박물관,"['문화', '인문', '문화시설', '박물관']",35.1687883148,129.0729180128,부산
부산광역시 부산진구 초읍천로 113-10,부산자유회관,"['문화', '인문', '문화시설', '전시관']",35.1828751212,129.0455755619,부산
부산광역시 사상구 덕상로72번길 9,부산점자도서관,"['문화', '인문', '문화시설', '도서관']",35.1781301800,128.9898027697,부산
부산광역시 동래구 우장춘로 175,부산해양자연사박물관,"['문화', '인문', '문화시설', '박물관']",35.2219685247,129.0759940639,부산
부산광역시 사하구 낙동남로 1191,부산현대미술관,"['문화', '인문', '문화시설', '박물관']",35.1095258843,128.9425254212,부산
부산광역시 기장군 기장읍 기장해안로 216,수산과학관,"['문화', '인문', '문화시설', '전시관']",35.1915802033,129.2225932579,부산
부산광역시 금정구 금강로279번길 91,주한독일문화원 부산 분원,"['문화', '인문', '문화시설', '외국문화원']",35.2359087676,129.0834958054,부산
부산광역시 남구 유엔로157번길 10,주한인도문화원 부산,"['문화', '인문', '문화시설', '외국문화원']",35.1306818510,129.0935283742,부산
부산광역시 영도구 해양로301번길 23,해양환경공단 해양환경교육원,"['문화', '인문', '문화시설', '전시관']",35.0802260985,129.0779422192,부산
부산광역시 해운대구 해운대해변로 266,SEA LIFE 부산아쿠아리움,"['문화', '인문', '문화시설', '전시관']",35.1591965750,129.1610328343,부산
부산광역시 동래구 우장춘로 195-46,부산 동래민속예술축제 2019,"['축제/공연/행사', '인문', '축제', '일반축제']",35.2256680580,129.0731719858,부산
부산광역시 해운대구 APEC로 55,부산 마이스페스티벌 2019,"['축제/공연/행사', '인문', '축제', '일반축제']",35.1691116738,129.1363347095,부산
부산광역시 기장군 기장읍 기장해안로 147,부산 매직서커스 2019,"['축제/공연/행사', '인문', '축제', '일반축제']",35.1953128940,129.2105275371,부산
부산광역시 수영구 광안해변로 219,부산 불꽃축제 2020,"['축제/공연/행사', '인문', '축제', '일반축제']",35.1537908369,129.1184922375,부산
부산광역시 사상구 삼락동 686,부산 삼락벚꽃축제 2020,"['축제/공연/행사', '인문', '축제', '일반축제']",35.1685282437,128.9770930280,부산
부산광역시 부산진구 서면문화로 32,부산 수제맥주축제 2019,"['축제/공연/행사', '인문', '축제', '일반축제']",35.1630469443,129.0541031405,부산
부산광역시 기장군 장안읍 정관로 1133,부산 아울렛 삼거리 페스티벌 2019,"['축제/공연/행사', '인문', '축제', '일반축제']",35.3268069043,129.2326914133,부산
부산광역시 중구 구덕로 31,부산 원도심 스토리 투어,"['축제/공연/행사', '인문', '공연/행사', '기타행사']",35.0976955253,129.0322901564,부산
부산광역시 중구 중구로 120,부산 원도심골목길축제 2019,"['축제/공연/행사', '인문', '축제', '일반축제']",35.1062251276,129.0323788050,부산
부산광역시 해운대구 APEC로 55,부산 의료기기 전시회 KIMES BUSAN 2020,"['축제/공연/행사', '인문', '공연/행사', '전시회']",35.1691116738,129.1363347095,부산
부산광역시 중구 용두산길 35-26,부산 조선통신사축제 2020,"['축제/공연/행사', '인문', '축제', '일반축제']",35.1004841098,129.0326928231,부산
부산광역시 해운대구 APEC로 55,부산 코믹월드 2020,"['축제/공연/행사', '인문', '축제', '일반축제']",35.1690700054,129.1359569660,부산
부산광역시 중구 용두산길 37-55,부산 토요상설 전통민속놀이마당 2019,"['축제/공연/행사', '인문', '공연/행사', '기타행사']",35.1009479421,129.0324678301,부산
부산광역시 해운대구 수영강변대로 120,부산 펫팸 페스티벌 2019,"['축제/공연/행사', '인문', '축제', '일반축제']",35.1738664834,129.1247939167,부산
부산광역시 해운대구 APEC로 55,부산 한가위 추석 선물대축제 2020,"['축제/공연/행사', '인문', '공연/행사', '기타행사']",35.1691366711,129.1363402640,부산
부산광역시 서구 송도해변로 100,부산고등어축제 2019,"['축제/공연/행사', '인문', '축제', '일반축제']",35.0768337102,129.0181252895,부산
부산광역시 동래구 문화로 80,부산공연예술축제 2019,"['축제/공연/행사', '인문', '축제', '일반축제']",35.2118865776,129.0898542458,부산
부산광역시 해운대구 수영강변대로 120,부산국제단편영화제 2020,"['축제/공연/행사', '인문', '축제', '일반축제']",35.1713084771,129.1269826847,부산
부산광역시 해운대구 수영강변대로 120,부산국제매직페스티벌 2020,"['축제/공연/행사', '인문', '축제', '일반축제']",35.1707946470,129.1270576924,부산
부산광역시 해운대구 달맞이길62번길 47,부산국제무용제 2020,"['축제/공연/행사', '인문', '축제', '일반축제']",35.1580163619,129.1723763250,부산
부산광역시 해운대구 APEC로 55,부산국제식품대전 2020,"['축제/공연/행사', '인문', '공연/행사', '박람회']",35.1689089062,129.1356514414,부산
부산광역시 해운대구 APEC로 55,부산국제아트페어 2020,"['축제/공연/행사', '인문', '축제', '일반축제']",35.1689089062,129.1356514414,부산
부산광역시 해운대구 수영강변대로 120,부산국제어린이청소년영화제 2020,"['축제/공연/행사', '인문', '축제', '일반축제']",35.1707752050,129.1270688034,부산
부산광역시 부산진구 신천대로165번길 6,부산국제연극제 2019,"['축제/공연/행사', '인문', '축제', '일반축제']",35.1272127941,129.0934562537,부산
부산광역시 해운대구 수영강변대로 120,부산국제영화제 2019,"['축제/공연/행사', '인문', '축제', '일반축제']",35.1707946470,129.1270576924,부산
부산광역시 해운대구 APEC로 55,부산국제차공예박람회 2020,"['축제/공연/행사', '인문', '공연/행사', '박람회']",35.1690700054,129.1359569660,부산
부산광역시 해운대구 수영강변대로 120,부산국제코미디페스티벌 2020,"['축제/공연/행사', '인문', '축제', '일반축제']",35.1717167754,129.1275659567,부산
부산광역시 해운대구 수영강변대로 120,부산국제합창제 2019,"['축제/공연/행사', '인문', '축제', '일반축제']",35.1707946470,129.1270576924,부산
부산광역시 금정구 장전온천천로 48,부산금정거리예술축제 2019,"['축제/공연/행사', '인문', '축제', '일반축제']",35.2296290236,129.0893260259,부산
부산 사상구 삼락동 29-46,부산나이트워크42K 2020,"['축제/공연/행사', '인문', '축제', '일반축제']",35.1692058662,128.9727489430,부산
부산광역시 해운대구 APEC로 55,부산수제맥주페스티벌 2019,"['축제/공연/행사', '인문', '축제', '일반축제']",35.1691116738,129.1363347095,부산
부산 동래구 사직동 930-2 부산아시아드 조각광장,부산스토리텔링축제 2019,"['축제/공연/행사', '인문', '축제', '일반축제']",35.1931103961,129.0624154826,부산
부산광역시 남구 용소로 78,부산예술제 2019,"['축제/공연/행사', '인문', '축제', '일반축제']",35.1306903499,129.1025053716,부산
"부산광역시 북구 화명동 화명생태공원, 해운대 구남로(해운대 문화광장) 등 부산전역",부산원아시아페스티벌 2019,"['축제/공연/행사', '인문', '축제', '일반축제']",35.2313022594,129.0039806357,부산
부산광역시 중구 자갈치해안로 52,부산자갈치축제 2020,"['축제/공연/행사', '인문', '축제', '일반축제']",35.0966650543,129.0306014426,부산
부산광역시 해운대구 APEC로 55,부산커피쇼 ,"['축제/공연/행사', '인문', '공연/행사', '박람회']",35.1690700054,129.1359569660,부산
부산광역시 해운대구 수영강변대로 140,부산콘텐츠유니버시아드 ,"['축제/공연/행사', '인문', '축제', '일반축제']",35.1728721628,129.1254661073,부산
부산광역시 중구 광복로 58-2,부산크리스마스트리문화축제 2019,"['축제/공연/행사', '인문', '축제', '일반축제']",35.0990842439,129.0314790780,부산
부산광역시 동구 중앙대로 206 부산유라시아플랫폼(부산역 광장),부산평생학습주간 2019,"['축제/공연/행사', '인문', '축제', '일반축제']",35.1176435282,129.0450884994,부산
부산광역시 영도구 해양로301번길 17,부산항축제 2019,"['축제/공연/행사', '인문', '축제', '일반축제']",35.0807732826,129.0791754311,부산
부산광역시 부산진구 전포대로209번길 26,유니브엑스포 부산 2019,"['축제/공연/행사', '인문', '공연/행사', '박람회']",35.1564006288,129.0629164444,부산
부산광역시 서구 임시수도기념로,피란수도 부산 문화재 야행 2020,"['축제/공연/행사', '인문', '공연/행사', '기타행사']",35.1032530039,129.0196549929,부산
부산광역시 부산진구 중앙대로 818,2564부산연등축제 2020,"['축제/공연/행사', '인문', '축제', '일반축제']",35.1653967144,129.0559195851,부산
부산광역시 해운대구 APEC로 55,K-핸드메이드 & 일러스트레이션페어 부산 2020,"['축제/공연/행사', '인문', '공연/행사', '박람회']",35.1690700054,129.1359569660,부산
경상남도 양산시 매곡외산로 282,동부산컨트리클럽,"['레포츠', '레포츠', '육상 레포츠', '골프']",35.3623103704,129.1852890003,부산
부산광역시 연제구 월드컵대로 344,부산 아시아드주경기장,"['레포츠', '레포츠', '육상 레포츠', '경기장']",35.1902245312,129.0582325921,부산
부산광역시 수영구 황령산로 156,부산광역시 금련산청소년수련원,"['레포츠', '레포츠', '육상 레포츠', '수련시설']",35.1552848264,129.1029352159,부산
부산광역시 금정구 북문로 178,부산광역시학생교육원,"['레포츠', '레포츠', '육상 레포츠', '수련시설']",35.2533674222,129.0565115645,부산
부산광역시 해운대구 APEC로 68,부산사회체육센터,"['레포츠', '레포츠', '육상 레포츠', '스포츠센터']",35.1674341084,129.1376763055,부산
부산광역시 연제구 월드컵대로 344,부산종합운동장,"['레포츠', '레포츠', '육상 레포츠', '경기장']",35.1902245312,129.0582325921,부산
부산광역시 금정구 중앙대로2327번길 112,부산컨트리클럽,"['레포츠', '레포츠', '육상 레포츠', '골프']",35.2994296210,129.0941986786,부산
부산광역시 부산진구 가야대로 772,세븐럭카지노,"['레포츠', '레포츠', '육상 레포츠', '카지노']",35.1568643465,129.0564586602,부산
부산광역시 해운대구 해운대해변로 296,파라다이스 카지노 부산,"['레포츠', '레포츠', '육상 레포츠', '카지노']",35.1599632134,129.1641325437,부산
부산광역시 해운대구 우동,[부산 갈맷길 2코스] 2구간 민락교~오륙도,"['레포츠', '레포츠', '육상 레포츠', '트래킹']",35.1618263079,129.1325241300,부산
