address,name,keyword,latitude,longitude,areacode
대구광역시 동구 갓바위로 350,관암사,"['관광', '인문', '역사관광지', '사찰']",35.9775409155,128.7333808444,대구
대구광역시 동구 둔산로 535,관음사,"['관광', '인문', '역사관광지', '사찰']",35.9189546191,128.6651523890,대구
대구광역시 북구 구암로21길 41,구천서원,"['관광', '인문', '역사관광지', '유적지/사적지']",35.9361894770,128.5526340486,대구
대구광역시 달서구 공원순환로 213,금용사,"['관광', '인문', '역사관광지', '사찰']",35.8477246420,128.5605830316,대구
대구광역시 중구 남산로4길 112,남산동 가톨릭타운,"['관광', '인문', '체험관광지', '이색거리']",35.8598737703,128.5878969540,대구
대구광역시 달성군 가창면 남지장사길 127,남지장사,"['관광', '인문', '역사관광지', '사찰']",35.7351497188,128.6276080315,대구
대구광역시 중구 서성로 10,대구 계산동성당,"['관광', '인문', '역사관광지', '종교성지']",35.8679756281,128.5877689624,대구
대구광역시 동구 효목동,대구 고모령비,"['관광', '인문', '건축/조형물', '기념탑/기념비/전망대']",35.8773591657,128.6563571036,대구
대구광역시 동구 동촌역사로3길 35,대구 구 동촌역사,"['관광', '인문', '역사관광지', '유적지/사적지']",35.8901603738,128.6498350987,대구
대구광역시 중구 경상감영길 99,대구 근대골목,"['관광', '인문', '체험관광지', '이색거리']",35.8720863580,128.5923156699,대구
대구광역시 달서구 성서공단로 52,대구 녹색에너지체험관,"['관광', '인문', '산업관광지', '기타']",35.8346303496,128.4881842177,대구
대구광역시 중구 달성공원로 35,대구 달성공원,"['관광', '인문', '휴양관광지', '공원']",35.8734025733,128.5759198549,대구
대구광역시 달성군 다사읍 죽곡리,대구 달성습지,"['관광', '자연', '자연관광지', '자연생태관광지']",35.8409875753,128.4670442386,대구
대구광역시 동구 도평로,대구 도동 측백나무 숲,"['관광', '자연', '자연관광지', '수목원']",35.9182241168,128.6635775484,대구
대구광역시 중구 동성로2길 27,대구 동성로거리,"['관광', '인문', '체험관광지', '이색거리']",35.8702143803,128.5940850103,대구
대구광역시 동구 불로동,대구 불로동 고분군,"['관광', '인문', '역사관광지', '유적지/사적지']",35.9145547565,128.6456570076,대구
대구광역시 달성군 가창면 가창로 891,대구 스파밸리,"['관광', '인문', '휴양관광지', '온천/욕장/스파']",35.7881605357,128.6353392148,대구
대구광역시 중구 달구벌대로415길 49,대구 약령시 한의약박물관,"['관광', '인문', '산업관광지', '기타']",35.8685339382,128.5899076470,대구
대구광역시 중구 인교동,대구 오토바이골목,"['관광', '인문', '체험관광지', '이색거리']",35.8722695138,128.5838136357,대구
대구광역시 동구 둔산동,대구 옻골마을,"['관광', '인문', '역사관광지', '민속마을']",35.9065508628,128.6864647477,대구
대구광역시 북구 태평로 161,대구 중구 골목투어버스 ,"['관광', '인문', '체험관광지', '이색체험']",35.8758943303,128.5961291167,대구
대구광역시 중구 진골목길 26,대구 진골목,"['관광', '인문', '체험관광지', '이색거리']",35.8686534227,128.5928073889,대구
대구광역시 동구 아양로9길 10,대구 평화시장 닭똥집 골목,"['관광', '인문', '체험관광지', '이색거리']",35.8833661337,128.6192824239,대구
대구광역시 북구 노곡동 665,대구 하중도,"['관광', '자연', '자연관광지', '섬']",35.9007936200,128.5598788398,대구
대구광역시 동구 동대구로 461,대구경북디자인센터,"['관광', '인문', '산업관광지', '기타']",35.8714286996,128.6248600431,대구
대구광역시 달서구 두류공원로 161,대구두류공원,"['관광', '인문', '휴양관광지', '공원']",35.8500105518,128.5637104699,대구
대구광역시 수성구 팔현길 248,대구부수성비,"['관광', '인문', '역사관광지', '유적지/사적지']",35.8753566453,128.6580042373,대구
대구광역시 동구 팔공로 227,대구섬유박물관,"['관광', '인문', '산업관광지', '기타']",35.9191096976,128.6403017970,대구
대구광역시 달서구 화암로 342,대구수목원,"['관광', '자연', '자연관광지', '수목원']",35.8007431029,128.5200295717,대구
대구광역시 동구 팔공산로 1155,대구시민안전테마파크,"['관광', '인문', '체험관광지', '이색체험']",35.9891527182,128.6919230606,대구
대구광역시 남구 앞산순환로 574-87,대구앞산공원,"['관광', '인문', '휴양관광지', '공원']",35.8290189503,128.5890560428,대구
대구광역시 중구 국채보상로102길 50,대구제일교회,"['관광', '인문', '역사관광지', '종교성지']",35.8683617281,128.5895493503,대구
대구광역시 중구 명륜로 112,대구향교,"['관광', '인문', '역사관광지', '유적지/사적지']",35.8597517110,128.5959906893,대구
대구광역시 중구 북성로 19-1,대성사,"['관광', '인문', '역사관광지', '사찰']",35.8737887990,128.5845024217,대구
대구광역시 수성구 청호로46길 5-3,덕산서원,"['관광', '인문', '역사관광지', '유적지/사적지']",35.8390493209,128.6405817836,대구
대구광역시 동구 동화사1길 1,동화사,"['관광', '인문', '역사관광지', '사찰']",35.9903555744,128.7034886742,대구
대구광역시 동구 팔공로 220-2,땅땅랜드,"['관광', '인문', '체험관광지', '이색체험']",35.9175265690,128.6416906077,대구
대구광역시 동구 효신로 88,바운스 트램폴린파크,"['관광', '인문', '체험관광지', '이색체험']",35.8793946049,128.6324702620,대구
대구광역시 달서구 중흥로 67,백련사,"['관광', '인문', '역사관광지', '사찰']",35.8288628564,128.5588698165,대구
대구광역시 남구 고산3길 96-4,법장사,"['관광', '인문', '역사관광지', '사찰']",35.8234086688,128.5996413778,대구
대구광역시 수성구 수성로12길 70,봉산서원,"['관광', '인문', '역사관광지', '유적지/사적지']",35.8330189252,128.6122872193,대구
대구광역시 동구 팔공산로 967-28,부인사,"['관광', '인문', '역사관광지', '사찰']",35.9949489511,128.6740022555,대구
대구광역시 동구 도장길 243,북지장사,"['관광', '인문', '역사관광지', '사찰']",35.9764573607,128.7148547298,대구
서울특별시 용산구 한강대로 182,서울 삼각지 대구탕 골목,"['관광', '인문', '체험관광지', '이색거리']",37.5344523297,126.9735279372,대구
대구광역시 달성군 유가면 휴양림길 228,소재사,"['관광', '인문', '역사관광지', '사찰']",35.6915636097,128.5107111811,대구
대구광역시 달성군 구지면 구지서로 530-47,송담서원,"['관광', '인문', '역사관광지', '유적지/사적지']",35.6964852976,128.3596548955,대구
대구광역시 달성군 유가면 유가사길 161,수도암,"['관광', '인문', '역사관광지', '사찰']",35.7141554409,128.5073941840,대구
대구광역시 수성구 유니버시아드로 140,아이니테마파크,"['관광', '인문', '휴양관광지', '테마공원']",35.8315371496,128.6875778564,대구
대구광역시 남구 대명동,안일사,"['관광', '인문', '역사관광지', '사찰']",35.8236887493,128.5755657121,대구
대구광역시 달성군 가창면 가창로 1003,에코테마파크 대구숲,"['관광', '인문', '휴양관광지', '테마공원']",35.7930625796,128.6256038247,대구
대구광역시 달서구 선원로33안길 66,와룡산,"['관광', '자연', '자연관광지', '산']",35.8697101184,128.5103674020,대구
경상남도 거제시 장목면 외포5길 60,외포리 대구탕거리,"['관광', '인문', '체험관광지', '이색거리']",34.9393713828,128.7177745646,대구
대구광역시 달성군 화원읍 화원휴양림길 132,용문사,"['관광', '인문', '역사관광지', '사찰']",35.7691386926,128.5390037751,대구
대구광역시 달성군 옥포면 용연사길 260,용연사,"['관광', '인문', '역사관광지', '사찰']",35.7482796084,128.5209476069,대구
대구광역시 달성군 가창면 헐티로 1068,운흥사,"['관광', '인문', '역사관광지', '사찰']",35.7799386583,128.6035644607,대구
대구광역시 남구 앞산순환로 574-120,은적사,"['관광', '인문', '역사관광지', '사찰']",35.8235695788,128.5897144697,대구
대구광역시 달성군 가창면 남지장사길 127,청련암,"['관광', '인문', '역사관광지', '사찰']",35.7350803422,128.6308660801,대구
대구광역시 중구 공평로 3,하늘호수,"['관광', '인문', '체험관광지', '이색체험']",35.8644234667,128.5993485966,대구
대구광역시 달성군 화원읍 천내리 516-1,화장사,"['관광', '인문', '역사관광지', '사찰']",35.8026758860,128.5019727755,대구
대구광역시 달성군 유가면 테크노대로6길 20,국립대구과학관,"['문화', '인문', '문화시설', '전시관']",35.6866661174,128.4656569452,대구
대구광역시 동구 효동로2길 10,국립대구기상과학관,"['문화', '인문', '문화시설', '전시관']",35.8791505263,128.6507908775,대구
대구광역시 수성구 청호로 321,국립대구박물관,"['문화', '인문', '문화시설', '박물관']",35.8455790962,128.6383484648,대구
대구광역시 남구 앞산순환로 478,대구 남구문화원,"['문화', '인문', '문화시설', '문화원']",35.8313073556,128.5768876060,대구
대구광역시 달서구 문화회관길 160,대구 달서문화원,"['문화', '인문', '문화시설', '문화원']",35.8435133161,128.5229809055,대구
대구광역시 북구 구암로 47,대구 북구문화원,"['문화', '인문', '문화시설', '문화원']",35.9347756378,128.5466429499,대구
대구광역시 서구 당산로 403,대구 서구문화원,"['문화', '인문', '문화시설', '문화원']",35.8728270789,128.5455336604,대구
대구광역시 동구 동부로 149,대구 아쿠아리움,"['문화', '인문', '문화시설', '전시관']",35.8780669221,128.6294594533,대구
대구광역시 중구 봉산문화길 77,대구 중구문화원,"['문화', '인문', '문화시설', '문화원']",35.8634068630,128.5965738691,대구
대구광역시 달서구 야외음악당로 180,대구 코오롱 야외음악당,"['문화', '인문', '문화시설', '공연장']",35.8510547396,128.5561555513,대구
경상북도 경산시 하양읍 하양로 13-13,대구가톨릭대학교 역사박물관,"['문화', '인문', '문화시설', '박물관']",35.9121802523,128.8075983702,대구
대구광역시 남구 앞산순환로 512,대구광역시립남부도서관,"['문화', '인문', '문화시설', '도서관']",35.8320462318,128.5807428018,대구
대구광역시 중구 공평로10길 25,대구광역시립중앙도서관,"['문화', '인문', '문화시설', '도서관']",35.8684480545,128.6017288304,대구
대구광역시 수성구 동대구로 176,대구광역시어린이회관,"['문화', '인문', '문화시설', '공연장']",35.8466898866,128.6277826972,대구
대구광역시 남구 중앙대로 219,대구교육대학교 교육박물관,"['문화', '인문', '문화시설', '박물관']",35.8527023722,128.5885637613,대구
대구광역시 북구 대동로1길 40,대구교육박물관,"['문화', '인문', '문화시설', '박물관']",35.8974255259,128.6123604195,대구
대구광역시 중구 경상감영길 67,대구근대역사관,"['문화', '인문', '문화시설', '기념관']",35.8717808158,128.5911630018,대구
경상북도 경산시 진량읍 대구대로 201,대구대학교 중앙박물관,"['문화', '인문', '문화시설', '박물관']",35.9013015834,128.8427733592,대구
대구광역시 달서구 공원순환로 201,대구문화예술회관,"['문화', '인문', '문화시설', '공연장']",35.8451165839,128.5594887553,대구
대구광역시 수성구 미술관로 40,대구미술관,"['문화', '인문', '문화시설', '미술관/화랑']",35.8270151958,128.6744124743,대구
대구광역시 북구 검단로 71-17,대구북구청소년회관 아트홀,"['문화', '인문', '문화시설', '공연장']",35.9057718708,128.6160598608,대구
대구광역시 서구 당산로 403,대구서구문화회관,"['문화', '인문', '문화시설', '공연장']",35.8728270789,128.5455336604,대구
대구광역시 중구 달성로22길 31-12,대구예술발전소,"['문화', '인문', '문화시설', '공연장']",35.8754886074,128.5845523698,대구
대구광역시 북구 호암로 15,대구오페라하우스,"['문화', '인문', '문화시설', '공연장']",35.8834739558,128.5922514697,대구
대구광역시 중구 태평로 141,대구콘서트하우스 ,"['문화', '인문', '문화시설', '공연장']",35.8758692889,128.5937071082,대구
경상남도 거제시 장목면 외포5길 34,거제 대구 수산물축제 2019,"['축제/공연/행사', '인문', '축제', '일반축제']",34.9396463829,128.7194799643,대구
대구광역시 수성구 청호로 321,국립대구박물관 설맞이 문화행사 2020,"['축제/공연/행사', '인문', '축제', '일반축제']",35.8456846315,128.6378790585,대구
대구광역시 수성구 청호로 321,"국립대구박물관 '이영희 기증 복식, 새바람' 2019","['축제/공연/행사', '인문', '공연/행사', '전시회']",35.8489064482,128.6356847177,대구
대구광역시 달성군 다사읍 강정본길 57,달성대구현대미술제 2020,"['축제/공연/행사', '인문', '축제', '일반축제']",35.8411652970,128.4650638527,대구
대구광역시 달서구 야외음악당로 180,대구 국제바디페인팅 페스티벌 2019,"['축제/공연/행사', '인문', '축제', '일반축제']",35.8510547396,128.5561555513,대구
대구광역시 북구 엑스코로 10,대구 꽃박람회 2020,"['축제/공연/행사', '인문', '공연/행사', '박람회']",35.9070383402,128.6131378604,대구
대구광역시 달서구 공원순환로 216,대구 낭만한우숯불구이축제 2019,"['축제/공연/행사', '인문', '축제', '일반축제']",35.8475579725,128.5593831420,대구
대구광역시 서구 국채보상로81길 43,대구 달성토성마을 골목축제 2019,"['축제/공연/행사', '인문', '축제', '일반축제']",35.8758161670,128.5747198936,대구
대구광역시 중구 국채보상로 670,대구 제야의 타종 2020,"['축제/공연/행사', '인문', '축제', '일반축제']",35.8689396970,128.6034314445,대구
대구광역시 남구 중앙대로22길 269,대구 폭염탈출 신천 돗자리 음악회 2019,"['축제/공연/행사', '인문', '공연/행사', '기타행사']",35.8418039173,128.6054959067,대구
대구광역시 남구 안지랑로16길 67,대구 할로윈 축제 2019,"['축제/공연/행사', '인문', '축제', '일반축제']",35.8369094686,128.5751903786,대구
대구광역시 수성구 무학로 112,대구국제재즈축제 ,"['축제/공연/행사', '인문', '축제', '일반축제']",35.8293778245,128.6205949230,대구
대구 수성구 두산동 512,대구국제패션문화페스티벌 2019,"['축제/공연/행사', '인문', '축제', '일반축제']",35.8294027794,128.6182979022,대구
대구광역시 수성구 유니버시아드로 180,대구국제호러페스티벌 2019,"['축제/공연/행사', '인문', '축제', '일반축제']",35.8298096160,128.6901776754,대구
대구광역시 중구 국채보상로 537,대구단편영화제 2020,"['축제/공연/행사', '인문', '축제', '일반축제']",35.8706531337,128.5894298526,대구
대구광역시 수성구 달구벌대로 3170,대구도시농업박람회 2019,"['축제/공연/행사', '인문', '공연/행사', '박람회']",35.8329539154,128.7015654749,대구
대구광역시 달서구 화암로 342,대구수목원 국화전시회 2019,"['축제/공연/행사', '인문', '공연/행사', '전시회']",35.7984044967,128.5210462134,대구
대구광역시 수성구 무학로 112,대구수제맥주페스티벌 2019,"['축제/공연/행사', '인문', '축제', '일반축제']",35.8293778245,128.6205949230,대구
대구광역시 북구 엑스코로 10,대구음식관광박람회 2019,"['축제/공연/행사', '인문', '공연/행사', '박람회']",35.9070383402,128.6131378604,대구
대구광역시 중구 태평로 141,대구음악제 2019,"['축제/공연/행사', '인문', '축제', '일반축제']",35.8761025954,128.5937126569,대구
대구광역시 중구 서성로 6-1,옛 골목은 살아있다 - 대구 '빼앗긴 들에도 봄은 오는가' 2019,"['축제/공연/행사', '인문', '공연/행사', '기타행사']",35.8671840532,128.5878634206,대구
대구광역시 달서구 앞산순환로 180,대구광역시청소년수련원,"['레포츠', '레포츠', '육상 레포츠', '수련시설']",35.8200081984,128.5531788967,대구
대구광역시 북구 문주길 170,대구사격장,"['레포츠', '레포츠', '육상 레포츠', '사격장']",35.9113223289,128.5243483468,대구
대구광역시 수성구 청수로45길 100,대구수성구청소년수련관,"['레포츠', '레포츠', '육상 레포츠', '수련시설']",35.8450651536,128.6322934563,대구
대구광역시 수성구 유니버시아드로 180,대구스타디움,"['레포츠', '레포츠', '육상 레포츠', '경기장']",35.8299818185,128.6901804487,대구
대구광역시 북구 고성로35길 12-1,대구시민운동장,"['레포츠', '레포츠', '육상 레포츠', '경기장']",35.8816379215,128.5850938178,대구
대구광역시 북구 고성로 191,대구실내빙상장,"['레포츠', '레포츠', '육상 레포츠', '스케이트']",35.8814407694,128.5877297018,대구
경상북도 경산시 진량읍 일연로 718-42,대구컨트리클럽,"['레포츠', '레포츠', '육상 레포츠', '골프']",35.8713071617,128.8109464463,대구
대구광역시 북구 고성로 191,DGB 대구은행파크,"['레포츠', '레포츠', '육상 레포츠', '경기장']",35.8830627794,128.5861797933,대구
대구광역시 동구 도장길 10,[대구올레 팔공산 1코스] 북지장사 가는 길,"['레포츠', '레포츠', '육상 레포츠', '트래킹']",35.9640084797,128.6991814610,대구
대구광역시 수성구 신천동로86안길 10,[대구올레 팔공산 2코스] 한실골 가는 길,"['레포츠', '레포츠', '육상 레포츠', '트래킹']",35.8620267528,128.6122114188,대구
대구광역시 수성구 신천동로86안길 14-6,[대구올레 팔공산 3코스] 부인사 도보길,"['레포츠', '레포츠', '육상 레포츠', '트래킹']",35.8619045464,128.6123586322,대구
대구광역시 수성구 신천동로86안길 14-6,[대구올레 팔공산 4코스] 평광동 왕건길,"['레포츠', '레포츠', '육상 레포츠', '트래킹']",35.8619045464,128.6123586322,대구
대구광역시 수성구 신천동로86안길 14-6,[대구올레 팔공산 5코스] 구암마을 가는 길,"['레포츠', '레포츠', '육상 레포츠', '트래킹']",35.8619045464,128.6123586322,대구
대구광역시 수성구 신천동로86안길 14-6,[대구올레 팔공산 6코스] 단산지 가는 길,"['레포츠', '레포츠', '육상 레포츠', '트래킹']",35.8619045464,128.6123586322,대구
대구광역시 동구 팔공산로237길 147,[대구올레 팔공산 7코스] 폭포골 가는 길,"['레포츠', '레포츠', '육상 레포츠', '트래킹']",35.9875115561,128.7090715955,대구
대구광역시 동구 동화사1길 1,[대구올레 팔공산 8코스] 수태지 계곡길,"['레포츠', '레포츠', '육상 레포츠', '트래킹']",35.9931080539,128.7042246429,대구
