address,name,keyword,latitude,longitude,areacode
강원도 고성군 죽왕면 심층수길 124-19,㈜강원심층수,"['관광', '인문', '산업관광지', '식음료']",38.3343742648,128.5216381039,강원
강원도 춘천시 서면 박사로 1210,강원 경찰충혼탑,"['관광', '인문', '건축/조형물', '기념탑/기념비/전망대']",37.9165380832,127.7126856416,강원
강원도 영월군 김삿갓면 옥동장터길 36,강원 영월 김삿갓 [슬로시티],"['관광', '인문', '역사관광지', '민속마을']",37.1256818109,128.5701372137,강원
강원도 영월군 북면 밤재로 351,강원도 탄광문화촌,"['관광', '인문', '산업관광지', '광산']",37.2631362582,128.4669118411,강원
강원도 춘천시 화목원길 24,강원도립화목원,"['관광', '자연', '자연관광지', '수목원']",37.9233347533,127.7254731639,강원
강원도 춘천시 서면 삿갓봉길 102,강원숲체험장,"['관광', '인문', '체험관광지', '농.산.어촌 체험']",37.9629316912,127.6595446610,강원
강원도 횡성군 서원면 경강로 646-18,강원쥬라기랜드,"['관광', '레포츠', '육상 레포츠', 'ATV']",37.5240893228,127.8683692059,강원
강원도 횡성군 갑천면 정포로 327,강원참숯,"['관광', '인문', '체험관광지', '이색체험']",37.5292236459,128.1016118529,강원
강원도 태백시 창죽동,검룡소 ,"['관광', '자연', '자연관광지', '폭포']",37.2306100727,128.9354541660,강원
강원도 고성군 토성면 뒷골길 60,고성 제3기 현무암 ,"['관광', '자연', '자연관광지', '자연생태관광지']",38.2836243183,128.5058577959,강원
강원도 영월군 김삿갓면 영월동로 1117,고씨굴 ,"['관광', '자연', '자연관광지', '동굴']",37.1307444591,128.5353790658,강원
강원도 화천군 사내면 용담리,곡운구곡 ,"['관광', '인문', '역사관광지', '안보관광']",38.0532605818,127.5387168938,강원
강원도 영월군 무릉도원면 운학리 1111-5,구룡산,"['관광', '자연', '자연관광지', '산']",37.3298539120,128.1907402567,강원
강원도 태백시 태백로 2249,구문소 ,"['관광', '자연', '자연관광지', '강']",37.0949998754,129.0395322915,강원
강원도 고성군 간성읍 교동2길 26,극락암,"['관광', '인문', '역사관광지', '사찰']",38.3805783980,128.4399107683,강원
강원도 인제군 기린면 북리,내린천 포트홀 ,"['관광', '자연', '자연관광지', '계곡']",37.9653962072,128.2965060925,강원
강원도 고성군 죽왕면 문암진리,능파대 ,"['관광', '인문', '역사관광지', '안보관광']",38.2963959081,128.5498950558,강원
강원도 인제군 북면 월학리,대암산 용늪 ,"['관광', '자연', '자연관광지', '산']",38.1762023353,128.1567595734,강원
강원도 영월군 영월읍 하송로 44,동강 ,"['관광', '자연', '자연관광지', '강']",37.1842091706,128.4635117051,강원
강원도 양구군 방산면 고방산리,두타연 ,"['관광', '자연', '자연관광지', '계곡']",38.2326563021,127.9814793871,강원
강원도 원주시 소초면,매화산,"['관광', '자연', '자연관광지', '산']",37.4063627557,128.0965381607,강원
강원도 평창군 미탄면 문희길 63,백룡동굴 ,"['관광', '자연', '자연관광지', '동굴']",37.2779144274,128.5770904015,강원
강원도 화천군 상서면 구운리,비래암 ,"['관광', '자연', '자연관광지', '산']",38.1465143583,127.5801103308,강원
강원도 영월군 영월읍 방절리,선돌 ,"['관광', '자연', '자연관광지', '산']",37.2064060724,128.4347997364,강원
강원도 정선군 화암면 몰운리,소금강 ,"['관광', '자연', '자연관광지', '강']",37.3272795510,128.7934722941,강원
강원도 인제군 북면 둔지말길 43-6,소양강 하안단구 ,"['관광', '자연', '자연관광지', '자연생태관광지']",38.1314085900,128.2109560114,강원
강원도 고성군 죽왕면,송지호 해안 서낭바위 ,"['관광', '자연', '자연관광지', '호수']",38.3280945988,128.5297347853,강원
서울특별시 광진구 능동로 216,순명비유강원석물,"['관광', '인문', '역사관광지', '유적지/사적지']",37.5488358400,127.0763931608,강원
강원도 양구군 방산면 평화로 5182,양구백토 ,"['관광', '자연', '자연관광지', '자연생태관광지']",38.2074808928,127.9515051132,강원
강원도 화천군 화천읍 풍산리,양의대 하천습지 ,"['관광', '자연', '자연관광지', '자연생태관광지']",38.2576666735,127.8032004706,강원
강원도 영월군 영월읍 거운리,어라연 ,"['관광', '자연', '자연관광지', '계곡']",37.2417677735,128.5341758834,강원
강원도 영월군 무릉도원면 도원운학로 13-39,요선암 돌개구멍 ,"['관광', '자연', '자연관광지', '자연생태관광지']",37.2973367787,128.2618959214,강원
강원도 태백시 태백로 283-29,용연동굴 ,"['관광', '자연', '자연관광지', '동굴']",37.2089321328,128.9418875782,강원
강원도 화천군 하남면 삼화리,용화산 ,"['관광', '자연', '자연관광지', '산']",38.0482927641,127.7437760990,강원
강원도 원주시 원일로 85,원주 강원감영,"['관광', '인문', '역사관광지', '유적지/사적지']",37.3478140160,127.9504947193,강원
강원 삼척시 가곡면 풍곡리,응봉산,"['관광', '자연', '자연관광지', '산']",37.0872205462,129.2001737646,강원
강원도 평창군 용평면 금당계곡로 2010-13,정강원 ,"['관광', '인문', '산업관광지', '식음료']",37.5708801796,128.4080773896,강원
강원도 고성군 간성읍 진부리,진부령 ,"['관광', '자연', '자연관광지', '산']",38.3318233670,128.3166040880,강원
강원도 영월군 영월읍 청령포로 133,청령포 ,"['관광', '인문', '역사관광지', '유적지/사적지']",37.1774957570,128.4477938689,강원
강원도 춘천시 우두동,충렬탑,"['관광', '인문', '건축/조형물', '기념탑/기념비/전망대']",37.9162275497,127.7416802323,강원
강원도 영월군 김삿갓면,태화산,"['관광', '자연', '자연관광지', '산']",37.1202418309,128.4794816062,강원
강원도 홍천군 북방면 도둔길 49,하이트진로 강원공장,"['관광', '인문', '산업관광지', '식음료']",37.6920165887,127.8420444247,강원
강원도 영월군 한반도면 한반도로 555,한반도지형 ,"['관광', '자연', '자연관광지', '해안절경']",37.2195667918,128.3471683262,강원
강원도 양구군 해안면 해안서화로 35,해안분지 ,"['관광', '자연', '자연관광지', '자연생태관광지']",38.2901860485,128.1454848760,강원
강원도 정선군 화암면 화암동굴길 12,화암동굴 ,"['관광', '자연', '자연관광지', '동굴']",37.3508184512,128.7905635121,강원
강원도 정선군 화암면 약수길 1330,화암약수 ,"['관광', '자연', '자연관광지', '약수터']",37.3272599595,128.7857313222,강원
강원도 고성군 거진읍 현내면,화진포 ,"['관광', '자연', '자연관광지', '자연생태관광지']",38.4788446862,128.4391216433,강원
강원도 화천군 화천읍 평화로 2393,화천 백립암복합체 ,"['관광', '자연', '자연관광지', '자연생태관광지']",38.1898634065,127.7993306558,강원
강원도 양양군 현남면 광진2길 3-16,휴휴암,"['관광', '인문', '역사관광지', '사찰']",37.9612474552,128.7678829666,강원
강원도 평창군 대관령면 경강로 5754,강원 신재생에너지전시관,"['문화', '인문', '문화시설', '전시관']",37.6855597537,128.7582728990,강원
강원도 춘천시 신북읍 신샘밭로 361,강원경찰박물관,"['문화', '인문', '문화시설', '박물관']",37.9254988538,127.7502791735,강원
강원도 춘천시 강원대학길 1,강원대학교중앙박물관,"['문화', '인문', '문화시설', '박물관']",37.8684387044,127.7438036813,강원
강원도 춘천시 화목원길 24,강원도 산림박물관,"['문화', '인문', '문화시설', '박물관']",37.9225959520,127.7255592885,강원
강원도 삼척시 신기면 강원남부로 3016,강원종합박물관,"['문화', '인문', '문화시설', '박물관']",37.3512296843,129.0864425560,강원
강원도 춘천시 평화로 1,강원 산나물한마당축제 2019,"['축제/공연/행사', '인문', '축제', '일반축제']",37.8855029718,127.7215607554,강원
강원도 춘천시 서면 박사로 882,"강원과학기술대축전, 강원 지식재산 페스티벌 2019","['축제/공연/행사', '인문', '축제', '일반축제']",37.8951540906,127.6927991992,강원
강원도 춘천시 평화로 26,강원그린박람회 2019,"['축제/공연/행사', '인문', '공연/행사', '박람회']",37.8813589518,127.7184944906,강원
강원도 고성군 토성면 잼버리로 244,강원도 세계잼버리 수련장,"['레포츠', '레포츠', '육상 레포츠', '수련시설']",38.2226840374,128.4976743306,강원
강원도 원주시 소초면 구룡사로 451,강원도자연학습원,"['레포츠', '레포츠', '육상 레포츠', '수련시설']",37.4038455606,128.0527560737,강원
강원도 춘천시 신샘밭로 89,강원도청소년수련관,"['레포츠', '레포츠', '육상 레포츠', '수련시설']",37.9225208624,127.7202819941,강원
강원도 정선군 사북읍 하이원길 265,강원랜드 카지노,"['레포츠', '레포츠', '육상 레포츠', '카지노']",37.2127210495,128.8216009997,강원
