address,name,keyword,latitude,longitude,areacode
경기도 광주시 남한산성면 남한산성로 731-73,개원사,"['관광', '인문', '역사관광지', '사찰']",37.4740742575,127.1850881761,경기
경기도 남양주시 조안면 북한강로 413,경기 남양주 조안 [슬로시티],"['관광', '인문', '역사관광지', '민속마을']",37.5587972883,127.3123186352,경기
경기도 오산시 청학로 211,경기도립 물향기수목원,"['관광', '자연', '자연관광지', '수목원']",37.1662493315,127.0598415388,경기
경기도 파주시 탄현면 얼음실로 40,경기미래교육 파주캠퍼스,"['관광', '인문', '체험관광지', '이색체험']",37.7845044938,126.7026428319,경기
경기도 양평군 용문면 연수로 209,경기영어마을 양평캠프,"['관광', '인문', '체험관광지', '이색체험']",37.4995839707,127.5756214372,경기
전라북도 전주시 완산구 태조로 44,경기전,"['관광', '인문', '역사관광지', '유적지/사적지']",35.8152058871,127.1498643734,경기
경기도 성남시 분당구 대왕판교로645번길 12,경기콘텐츠 코리아 랩,"['관광', '인문', '산업관광지', '기타']",37.4003091464,127.1049419938,경기
경기도 고양시 덕양구 대서문길 268,국녕사,"['관광', '인문', '역사관광지', '사찰']",37.6470418178,126.9623840960,경기
경기도 광주시 남한산성면 남한산성로780번길 105,국청사,"['관광', '인문', '역사관광지', '사찰']",37.4840701770,127.1771802770,경기
경기도 광주시 오포읍 양촌길 268-1,극락사,"['관광', '인문', '역사관광지', '사찰']",37.3732069633,127.2718387210,경기
경기도 남양주시 별내면 순화궁로909번길 104,내원암,"['관광', '인문', '역사관광지', '사찰']",37.7004739646,127.0873239513,경기
경기도 고양시 덕양구 대서문길 311-35,노적사,"['관광', '인문', '역사관광지', '사찰']",37.6491417491,126.9721359245,경기
경기 가평군 가평읍 두밀리,대금산,"['관광', '자연', '자연관광지', '산']",37.8130533403,127.4363222043,경기
경기도 평택시 진위면 진위로 181-82,만기사,"['관광', '인문', '역사관광지', '사찰']",37.1080845650,127.1008561105,경기
경기도 의정부시 망월로28번길 211-500,망월사,"['관광', '인문', '역사관광지', '사찰']",37.7046917259,127.0213076325,경기
경기도 광주시 남한산성면 남한산성로 680,망월사,"['관광', '인문', '역사관광지', '사찰']",37.4781767652,127.1964786903,경기
경기도 고양시 덕양구 대서문길 184,무량사,"['관광', '인문', '역사관광지', '사찰']",37.6538048594,126.9589925470,경기
경기도 광주시 오포읍 청석로 22-22,백련암,"['관광', '인문', '역사관광지', '사찰']",37.3898798277,127.2605670484,경기
경기도 남양주시 진접읍 봉선사길 32,봉선사,"['관광', '인문', '역사관광지', '사찰']",37.7471036189,127.1837471484,경기
경기도 남양주시 진건읍 사릉로156번길 295,봉인사,"['관광', '인문', '역사관광지', '사찰']",37.6620307984,127.2177242776,경기
강원도 양양군 양양읍 군청길 1,사이클경기장,"['관광', '레포츠', '육상 레포츠', '경기장']",38.0755035170,128.6191178845,경기
경기도 고양시 덕양구 대서문길 197-22,상운사,"['관광', '인문', '역사관광지', '사찰']",37.6571685613,126.9703608585,경기
서울특별시 마포구 월드컵로 240,서울월드컵경기장 스타디움 투어,"['관광', '인문', '산업관광지', '기타']",37.5683081417,126.8972867084,경기
경기도 의정부시 동일로122번길 177,석림사,"['관광', '인문', '역사관광지', '사찰']",37.7011346184,127.0663147378,경기
경기도 부천시 소사로 367,석왕사,"['관광', '인문', '역사관광지', '사찰']",37.4910652639,126.7932011469,경기
경기도 군포시 속달로 347-181,수리사,"['관광', '인문', '역사관광지', '사찰']",37.3541080073,126.8969899700,경기
경기도 남양주시 천마산로 115-13,수진사,"['관광', '인문', '역사관광지', '사찰']",37.6716108383,127.2506098952,경기
경기 성남시 중원구 은행2동,약사사,"['관광', '인문', '역사관광지', '사찰']",37.4670805094,127.1787000666,경기
경기도 안양시 만안구 예술공원로245번길 150,염불암,"['관광', '인문', '역사관광지', '사찰']",37.4287694584,126.9344900240,경기
경기도 의정부시 망월로28번길 356,원효사,"['관광', '인문', '역사관광지', '사찰']",37.7095746145,127.0281624229,경기
경기도 양주시 백석읍 기산로471번길 190,육지장사,"['관광', '인문', '역사관광지', '사찰']",37.7836589115,126.9438346751,경기
경기도 동두천시 평화로2910번길 145,자재암,"['관광', '인문', '역사관광지', '사찰']",37.9458036922,127.0862725345,경기
경기도 광주시 남한산성면 남한산성로 676,장경사,"['관광', '인문', '역사관광지', '사찰']",37.4752576854,127.1979203095,경기
경기도 남양주시 불암산로 145,천보사,"['관광', '인문', '역사관광지', '사찰']",37.6566653120,127.0951050501,경기
경기도 의왕시 청계로 475,청계사,"['관광', '인문', '역사관광지', '사찰']",37.4120065300,127.0347591532,경기
경기도 광주시 도척면 추곡리,태화산,"['관광', '자연', '자연관광지', '산']",37.2807513940,127.2936171458,경기
경기도 하남시 검단산로146번길 240,호국사,"['관광', '인문', '역사관광지', '사찰']",37.5278301039,127.2388484232,경기
경기도 의정부시 전좌로155번길 262,회룡사,"['관광', '인문', '역사관광지', '사찰']",37.7199928365,127.0276177307,경기
경기도 과천시 도서관길 36,경기과천교육도서관,"['문화', '인문', '문화시설', '도서관']",37.4323257114,126.9965953850,경기
경기도 수원시 영통구 광교산로 154-42,경기대학교박물관,"['문화', '인문', '문화시설', '박물관']",37.3005500052,127.0347178433,경기
경기도 용인시 기흥구 민속촌로 89,경기도국악당,"['문화', '인문', '문화시설', '공연장']",37.2593867373,127.1135118480,경기
경기도 안산시 단원구 동산로 268,경기도미술관,"['문화', '인문', '문화시설', '미술관/화랑']",37.3250570533,126.8099598046,경기
경기도 용인시 기흥구 상갈로 6,경기도박물관,"['문화', '인문', '문화시설', '박물관']",37.2682634008,127.1086564838,경기
경기도 용인시 기흥구 상갈로 6,경기도어린이박물관,"['문화', '인문', '문화시설', '박물관']",37.2682634008,127.1086564838,경기
경기도 광주시 곤지암읍 경충대로 727,경기도자박물관,"['문화', '인문', '문화시설', '박물관']",37.3510216352,127.3266121626,경기
경기도 동두천시 평화로2910번길 46,경기북부어린이박물관,"['문화', '인문', '문화시설', '박물관']",37.9446145449,127.0643967935,경기
경기도 성남시 수정구 공원로370번길 26,경기성남교육도서관,"['문화', '인문', '문화시설', '도서관']",37.4466323641,127.1500699157,경기
경기도 수원시 팔달구 효원로307번길 20,경기아트센터,"['문화', '인문', '문화시설', '공연장']",37.2619683981,127.0367742919,경기
서울특별시 강남구 삼성로 29,경기여고 경운박물관,"['문화', '인문', '문화시설', '박물관']",37.4867511901,127.0656764529,경기
경기도 수원시 장안구 조원로 18,경기중앙교육도서관,"['문화', '인문', '문화시설', '도서관']",37.2983667056,127.0224634611,경기
경기도 광주시 문화로85번길 19-12,광주문화원,"['문화', '인문', '문화시설', '문화원']",37.4100272900,127.2493508267,경기
경기도 의정부시 청사로 1,경기 다독다독 축제 2019,"['축제/공연/행사', '인문', '축제', '일반축제']",37.7502067435,127.0695824781,경기
경기도 수원시 영통구 광교중앙로 140,경기과학축전 & 수원정보과학축제 2019,"['축제/공연/행사', '인문', '축제', '일반축제']",37.2858799237,127.0594632301,경기
서울특별시 서초구 강남대로 27,경기도자페어 2019,"['축제/공연/행사', '인문', '공연/행사', '전시회']",37.4672141004,127.0396016001,경기
전라북도 전주시 완산구 한지길 102,경기전 사람들 - 이야기술사 2020,"['축제/공연/행사', '인문', '공연/행사', '기타행사']",35.8158642143,127.1538417800,경기
전라북도 전주시 완산구 한지길 102,경기전 수복청 상설공연 2020,"['축제/공연/행사', '인문', '공연/행사', '기타행사']",35.8158642143,127.1538417800,경기
경기도 의왕시 왕송못동로 307,경기정원문화박람회 2020,"['축제/공연/행사', '인문', '공연/행사', '박람회']",37.3071811142,126.9531611746,경기
온라인개최,온라인 경기곤충페스티벌 2020,"['축제/공연/행사', '인문', '축제', '일반축제']",37.2225202975,127.0429415014,경기
전라북도 전주시 완산구 태조로 44,전주 한옥마을 경기전 '왕과의 산책' 2020,"['축제/공연/행사', '인문', '축제', '일반축제']",35.8162252063,127.1493588361,경기
광주광역시 서구 상무누리로 30,찾아가는 경기관광박람회 in 광주 2019,"['축제/공연/행사', '인문', '공연/행사', '박람회']",35.1498370921,126.8384367851,경기
경기도 화성시 양감면 사격장길 142,경기도종합사격장,"['레포츠', '레포츠', '육상 레포츠', '사격장']",37.0939558526,126.9565501235,경기
경기도 의왕시 왕송못동로 209,경기의왕레일파크,"['레포츠', '레포츠', '복합 레포츠', '복합 레포츠']",37.3108778568,126.9502807778,경기
인천광역시 계양구 봉오대로 855,계양경기장,"['레포츠', '레포츠', '육상 레포츠', '경기장']",37.5325151261,126.7438989280,경기
인천광역시 계양구 봉오대로 855,계양경기장 계양체육관,"['레포츠', '레포츠', '육상 레포츠', '경기장']",37.5325151261,126.7438989280,경기
인천광역시 계양구 봉오대로 855,계양경기장 아시아드양궁장,"['레포츠', '레포츠', '육상 레포츠', '경기장']",37.5325151261,126.7438989280,경기
경기도 광명시 오리로 703,광명시민체육관 실내경기장,"['레포츠', '레포츠', '육상 레포츠', '경기장']",37.4618867172,126.8717253645,경기
광주광역시 서구 금화로 240,광주월드컵경기장,"['레포츠', '레포츠', '육상 레포츠', '경기장']",35.1337617441,126.8749061843,경기
대전광역시 유성구 월드컵대로 32,대전월드컵경기장,"['레포츠', '레포츠', '육상 레포츠', '경기장']",36.3651962068,127.3251146529,경기
울산광역시 남구 문수로 44,문수축구경기장,"['레포츠', '레포츠', '육상 레포츠', '경기장']",35.5352867733,129.2595610237,경기
부산광역시 연제구 월드컵대로 344,부산 아시아드주경기장,"['레포츠', '레포츠', '육상 레포츠', '경기장']",35.1902245312,129.0582325921,경기
서울특별시 마포구 월드컵로 240,서울월드컵경기장,"['레포츠', '레포츠', '육상 레포츠', '경기장']",37.5683081417,126.8972867084,경기
부산광역시 해운대구 해운대해변로 84,수영만 요트경기장,"['레포츠', '레포츠', '수상 레포츠', '요트']",35.1609293352,129.1405651222,경기
경기도 수원시 팔달구 월드컵로 310,수원월드컵경기장,"['레포츠', '레포츠', '육상 레포츠', '경기장']",37.2865822176,127.0369291446,경기
서울특별시 송파구 올림픽로 424,올림픽공원 경기장,"['레포츠', '레포츠', '육상 레포츠', '경기장']",37.5209871362,127.1229758237,경기
인천광역시 미추홀구 매소홀로 618,인천문학경기장,"['레포츠', '레포츠', '육상 레포츠', '경기장']",37.4366169207,126.6864651730,경기
인천광역시 서구 봉수대로 806,인천아시아드 주경기장 연희크리켓경기장,"['레포츠', '레포츠', '육상 레포츠', '경기장']",37.5452400279,126.6651113190,경기
인천광역시 서구 봉수대로 806,인천아시아드주경기장,"['레포츠', '레포츠', '육상 레포츠', '경기장']",37.5452400279,126.6651113190,경기
전라북도 전주시 덕진구 기린대로 1055,전주월드컵경기장,"['레포츠', '레포츠', '육상 레포츠', '경기장']",35.8681289403,127.0645233665,경기
전라북도 전주시 덕진구 기린대로 451,전주종합경기장,"['레포츠', '레포츠', '육상 레포츠', '경기장']",35.8390416554,127.1263269556,경기
강원도 정선군 북평면 오대천로 549-6,정선 알파인경기장,"['레포츠', '레포츠', '육상 레포츠', '경기장']",37.4700819343,128.6174810108,경기
제주특별자치도 서귀포시 월드컵로 33,제주월드컵경기장,"['레포츠', '레포츠', '육상 레포츠', '경기장']",33.2462886912,126.5092023235,경기
경상남도 진주시 판문오동길 100,진주소싸움경기장,"['레포츠', '레포츠', '육상 레포츠', '경기장']",35.1760132613,128.0406607768,경기
충청북도 충주시 중앙탑면 중앙탑길 150,탄금호 국제조정경기장,"['레포츠', '레포츠', '수상 레포츠', '카약/카누']",37.0231331551,127.8619454087,경기
경기도 과천시 남태령옛길,[경기옛길 삼남길 제1길] 한양관문길,"['레포츠', '레포츠', '육상 레포츠', '트래킹']",37.4549257716,126.9912785657,경기
경기도 평택시 도일동,[경기옛길 삼남길 제10길] 소사원길,"['레포츠', '레포츠', '육상 레포츠', '트래킹']",37.0549741468,127.1072236769,경기
경기도 안양시 동안구 인덕원로30번길 14,[경기옛길 삼남길 제2길] 인덕원길,"['레포츠', '레포츠', '육상 레포츠', '트래킹']",37.4020038457,126.9751231900,경기
경기도 의왕시 학의동,[경기옛길 삼남길 제3길] 모락산길,"['레포츠', '레포츠', '육상 레포츠', '트래킹']",37.3816039027,127.0013547114,경기
경기도 수원시 장안구 경수대로,[경기옛길 삼남길 제4길] 서호천길,"['레포츠', '레포츠', '육상 레포츠', '트래킹']",37.3273404488,126.9845355390,경기
경기도 수원시 팔달구 수성로,[경기옛길 삼남길 제5길] 중복들길,"['레포츠', '레포츠', '육상 레포츠', '트래킹']",37.2818235755,126.9887614277,경기
경기도 화성시 배양동,[경기옛길 삼남길 제6길] 화성효행길 ,"['레포츠', '레포츠', '육상 레포츠', '트래킹']",37.2251053471,127.0001953060,경기
경기도 화성시 안녕동,[경기옛길 삼남길 제7길] 독산성길,"['레포츠', '레포츠', '육상 레포츠', '트래킹']",37.2006641764,127.0251659449,경기
경기도 오산시 금암동,[경기옛길 삼남길 제8길] 오나리길,"['레포츠', '레포츠', '육상 레포츠', '트래킹']",37.1733371955,127.0483534931,경기
경기도 오산시 오산천로 52,[경기옛길 삼남길 제9길] 진위고을길,"['레포츠', '레포츠', '육상 레포츠', '트래킹']",37.1383054242,127.0645585558,경기
경기도 성남시 수정구 옛골로,[경기옛길 영남길 제1길] 달래내고개길,"['레포츠', '레포츠', '육상 레포츠', '트래킹']",37.4283663863,127.0705665478,경기
경기도 안성시 일죽면 산전길,[경기옛길 영남길 제10길] 이천옛길,"['레포츠', '레포츠', '육상 레포츠', '트래킹']",37.0669576483,127.5023487669,경기
경기도 성남시 분당구 판교역로,[경기옛길 영남길 제2길] 낙생역길,"['레포츠', '레포츠', '육상 레포츠', '트래킹']",37.3936128045,127.1107305454,경기
경기도 성남시 분당구 미금로22번길 6,[경기옛길 영남길 제3길] 구성현길,"['레포츠', '레포츠', '육상 레포츠', '트래킹']",37.3359446228,127.1182592660,경기
경기도 용인시 기흥구 동백중앙로 239,[경기옛길 영남길 제4길] 석성산길,"['레포츠', '레포츠', '육상 레포츠', '트래킹']",37.2750189157,127.1500164326,경기
경기도 용인시 처인구 중부대로,[경기옛길 영남길 제5길] 수여선옛길,"['레포츠', '레포츠', '육상 레포츠', '트래킹']",37.2412455395,127.1774732269,경기
경기도 용인시 처인구 양지면 남곡로 92,"[경기옛길 영남길 제6길] 은이성지, 마애불길","['레포츠', '레포츠', '육상 레포츠', '트래킹']",37.2269045747,127.2786339124,경기
경기도 용인시 처인구 원삼면 이원로1116번길,[경기옛길 영남길 제7길] 구봉산길,"['레포츠', '레포츠', '육상 레포츠', '트래킹']",37.1566049377,127.3102746967,경기
경기도 용인시 처인구 백암면 삼백로,[경기옛길 영남길 제8길] 죽주산성길,"['레포츠', '레포츠', '육상 레포츠', '트래킹']",37.1107780953,127.3767033163,경기
경기도 안성시 죽산면 죽산초교길,[경기옛길 영남길 제9길] 죽산성지순례길,"['레포츠', '레포츠', '육상 레포츠', '트래킹']",37.0785770831,127.4224445375,경기
경기도 고양시 덕양구 삼송로,[경기옛길 의주길 제1길] 벽제관길,"['레포츠', '레포츠', '육상 레포츠', '트래킹']",37.6539870537,126.8966760073,경기
경기도 고양시 덕양구 벽제관로,[경기옛길 의주길 제2길] 고양관청길,"['레포츠', '레포츠', '육상 레포츠', '트래킹']",37.7045451334,126.9009186298,경기
경기도 파주시 광탄면,[경기옛길 의주길 제3길] 쌍미륵길,"['레포츠', '레포츠', '육상 레포츠', '트래킹']",37.7973222288,126.8460460073,경기
경기도 파주시 광탄면,[경기옛길 의주길 제4길] 파주고을길,"['레포츠', '레포츠', '육상 레포츠', '트래킹']",37.8665606994,126.8083363757,경기
경기도 파주시 문산읍,[경기옛길 의주길 제5길] 임진나루길,"['레포츠', '레포츠', '육상 레포츠', '트래킹']",37.8899845028,126.7390892764,경기
제주특별자치도 서귀포시 월드컵로 33,[제주올레 7-1코스] 제주월드컵경기장-서귀포 올레,"['레포츠', '레포츠', '육상 레포츠', '트래킹']",33.2485523457,126.5101438577,경기
