address,name,keyword,latitude,longitude,areacode
서울특별시 종로구 율곡로23길 16,감로암,"['관광', '인문', '역사관광지', '사찰']",37.5753148419,127.0066015446,Seoul
서울특별시 성북구 개운사길 73,개운사,"['관광', '인문', '역사관광지', '사찰']",37.5899857439,127.0280213987,Seoul
서울특별시 성북구 보국문로 113-10,경국사,"['관광', '인문', '역사관광지', '사찰']",37.6145602435,127.0045728379,Seoul
서울특별시 서초구 바우뫼로7길 111,관문사,"['관광', '인문', '역사관광지', '사찰']",37.4737408098,127.0222641043,Seoul
서울특별시 관악구 승방1길 109-80,관음사,"['관광', '인문', '역사관광지', '사찰']",37.4676601403,126.9765239933,Seoul
서울특별시 종로구 동숭길 3,구 서울대학교 본관,"['관광', '인문', '역사관광지', '유적지/사적지']",37.5798947977,127.0028545340,Seoul
서울특별시 서초구 염곡동,구룡산,"['관광', '자연', '자연관광지', '산']",37.4690781677,127.0615995465,Seoul
서울특별시 동작구 현충로 210,국립서울현충원,"['관광', '인문', '역사관광지', '유적지/사적지']",37.5013561691,126.9732511193,Seoul
서울특별시 중랑구 망우로91길 98,극락사,"['관광', '인문', '역사관광지', '사찰']",37.6047383453,127.1133520931,Seoul
서울특별시 종로구 비봉길 137,금선사,"['관광', '인문', '역사관광지', '사찰']",37.6207780461,126.9534467684,Seoul
서울특별시 성북구 선잠로5길 68,길상사,"['관광', '인문', '역사관광지', '사찰']",37.5990951960,126.9946241836,Seoul
서울특별시 중구 삼일대로 231,남산공원,"['관광', '인문', '휴양관광지', '공원']",37.5557113068,126.9922506300,Seoul
서울특별시 용산구 남산공원길 105,남산서울타워,"['관광', '인문', '건축/조형물', '기념탑/기념비/전망대']",37.5511089858,126.9878983791,Seoul
서울특별시 용산구 남산공원길 105,남산서울타워 한복문화체험관,"['관광', '인문', '체험관광지', '전통체험']",37.5511312042,126.9878594933,Seoul
서울특별시 성북구 보국문로 262-151,내원사,"['관광', '인문', '역사관광지', '사찰']",37.6267614100,126.9938929098,Seoul
서울특별시 종로구 인사동길 12,다이나믹 메이즈 ,"['관광', '인문', '체험관광지', '이색체험']",37.5718843365,126.9872034096,Seoul
서울특별시 동작구 서달로 50-26,달마사,"['관광', '인문', '역사관광지', '사찰']",37.4985229748,126.9626521644,Seoul
서울특별시 서초구 남부순환로328길 49,대성사,"['관광', '인문', '역사관광지', '사찰']",37.4759903902,127.0134398431,Seoul
서울특별시 중구 서소문로9길 14,대한민국 임시정부 서울연통부 터,"['관광', '인문', '역사관광지', '유적지/사적지']",37.5631989276,126.9700829938,Seoul
서울특별시 중구 세종대로21길 15,대한성공회 서울주교좌성당,"['관광', '인문', '역사관광지', '종교성지']",37.5671457978,126.9760490054,Seoul
서울특별시 중구 세종대로 39,대한제국군 서울시가 전투지,"['관광', '인문', '역사관광지', '유적지/사적지']",37.5607020615,126.9737577300,Seoul
서울특별시 강북구 삼양로173길 504,도선사,"['관광', '인문', '역사관광지', '사찰']",37.6552274686,126.9897341460,Seoul
서울특별시 송파구 올림픽로 300,롯데월드타워 서울스카이,"['관광', '인문', '건축/조형물', '기념탑/기념비/전망대']",37.5136209882,127.1042832896,Seoul
서울특별시 도봉구 도봉산길 92-4,만월암,"['관광', '인문', '역사관광지', '사찰']",37.6899045434,127.0204970175,Seoul
서울특별시 중랑구 망우동 산 69-1,망우산,"['관광', '자연', '자연관광지', '산']",37.5942810870,127.1056030968,Seoul
서울특별시 종로구 종로63가길 31,묘각사,"['관광', '인문', '역사관광지', '사찰']",37.5754261586,127.0187670996,Seoul
서울특별시 종로구 비봉2길 304,문수사,"['관광', '인문', '역사관광지', '사찰']",37.6313049428,126.9725891680,Seoul
서울특별시 중구 통일로 1,문화역 서울 284,"['관광', '인문', '체험관광지', '이색체험']",37.5560136788,126.9716025029,Seoul
서울특별시 서대문구 백련사길 170-43,백련사,"['관광', '인문', '역사관광지', '사찰']",37.5862038214,126.9273751252,Seoul
서울특별시 강북구 4.19로20길 142,백련사,"['관광', '인문', '역사관광지', '사찰']",37.6470369314,126.9995223749,Seoul
서울특별시 강북구 삼양로145길 176,보광사 보광선원,"['관광', '인문', '역사관광지', '사찰']",37.6500533176,127.0034858166,Seoul
서울특별시 용산구 장문로15나길 6,보광사,"['관광', '인문', '역사관광지', '사찰']",37.5271063892,126.9973954154,Seoul
서울특별시 성북구 보문사길 20,보문사,"['관광', '인문', '역사관광지', '사찰']",37.5842111903,127.0155032589,Seoul
서울특별시 강북구 삼각산로 1,본원정사,"['관광', '인문', '역사관광지', '사찰']",37.6372881685,127.0052887931,Seoul
서울특별시 성북구 정릉로 202,봉국사,"['관광', '인문', '역사관광지', '사찰']",37.6057001931,127.0062951545,Seoul
서울특별시 서대문구 봉원사길 120,봉원사,"['관광', '인문', '역사관광지', '사찰']",37.5723974448,126.9469959488,Seoul
서울특별시 강남구 봉은사로 531,봉은사,"['관광', '인문', '역사관광지', '사찰']",37.5158782211,127.0577485719,Seoul
서울특별시 중랑구 신내로21길,봉화산,"['관광', '자연', '자연관광지', '산']",37.6086568514,127.0866155277,Seoul
서울특별시 강북구 월계로 173,북서울 꿈의숲,"['관광', '인문', '휴양관광지', '공원']",37.6233876457,127.0407498436,Seoul
서울특별시 성북구 보국문로 262,북한산국립공원,"['관광', '자연', '자연관광지', '국립공원']",37.6215453578,126.9943263511,Seoul
서울특별시 성동구 서울숲2길 32-14,브릭캠퍼스 서울,"['관광', '인문', '휴양관광지', '테마공원']",37.5457800267,127.0423491255,Seoul
서울특별시 동작구 국사봉1길 235-14,사자암,"['관광', '인문', '역사관광지', '사찰']",37.4923815634,126.9370324485,Seoul
서울특별시 종로구 사직로9길 12,사직공원,"['관광', '인문', '휴양관광지', '공원']",37.5757946678,126.9690743960,Seoul
서울특별시 강북구 인수봉로23길 235,삼성암,"['관광', '인문', '역사관광지', '사찰']",37.6292195844,127.0009449741,Seoul
서울특별시 은평구 연서로54길 127,삼천사,"['관광', '인문', '역사관광지', '사찰']",37.6422783056,126.9524629145,Seoul
서울특별시 양천구 남부순환로64길 20,서서울호수공원,"['관광', '인문', '휴양관광지', '공원']",37.5274172505,126.8300634330,Seoul
서울특별시 종로구 새문안로 29,서울 경교장,"['관광', '인문', '역사관광지', '유적지/사적지']",37.5683899481,126.9677163958,Seoul
서울특별시 종로구 대학로 103,서울 경모궁지,"['관광', '인문', '역사관광지', '고택']",37.5790642609,126.9985466169,Seoul
서울특별시 성북구 안암로 145,서울 고려대학교 본관,"['관광', '인문', '역사관광지', '유적지/사적지']",37.5894664364,127.0322710260,Seoul
서울특별시 성북구 안암로 145,서울 고려대학교 중앙도서관,"['관광', '인문', '역사관광지', '유적지/사적지']",37.5898997105,127.0317877244,Seoul
서울특별시 종로구 원서동,서울 관상감 관천대,"['관광', '인문', '역사관광지', '유적지/사적지']",37.5781419576,126.9880281575,Seoul
서울특별시 중구 정동길 21-18,서울 구 러시아공사관,"['관광', '인문', '역사관광지', '유적지/사적지']",37.5684261216,126.9714160575,Seoul
서울특별시 관악구 남부순환로 2076,서울 구 벨기에영사관,"['관광', '인문', '건축/조형물', '유명건물']",37.4761175459,126.9795345921,Seoul
서울특별시 관악구 남현3길 60,서울 남현동 요지,"['관광', '인문', '역사관광지', '유적지/사적지']",37.4748538047,126.9796068440,Seoul
서울특별시 종로구 대학로 103,서울 대한의원,"['관광', '인문', '역사관광지', '유적지/사적지']",37.5808474208,127.0004019528,Seoul
서울특별시 종로구 난계로27길 84,서울 동관왕묘,"['관광', '인문', '역사관광지', '유적지/사적지']",37.5727625733,127.0184394274,Seoul
서울특별시 종로구 종로40가길 14,서울 동대문 닭한마리 골목,"['관광', '인문', '체험관광지', '이색거리']",37.5703487391,127.0058684191,Seoul
서울특별시 중구 명동길 74,서울 명동성당,"['관광', '인문', '역사관광지', '종교성지']",37.5633131117,126.9872814233,Seoul
서울특별시 송파구 올림픽로 424,서울 몽촌토성,"['관광', '인문', '역사관광지', '성']",37.5209871362,127.1229758237,Seoul
서울 종로구 성균관로 31,서울 문묘와 성균관,"['관광', '인문', '역사관광지', '유적지/사적지']",37.5855329073,126.9959633351,Seoul
서울특별시 송파구 오금로 219,서울 방이동 고분군,"['관광', '인문', '역사관광지', '유적지/사적지']",37.5081579775,127.1178488772,Seoul
서울특별시 성동구 성수동,서울 살곶이 다리,"['관광', '인문', '건축/조형물', '다리/대교']",37.5537847183,127.0459874565,Seoul
서울특별시 용산구 한강대로 182,서울 삼각지 대구탕 골목,"['관광', '인문', '체험관광지', '이색거리']",37.5344523297,126.9735279372,Seoul
서울특별시 송파구 잠실로 148,서울 삼전도비,"['관광', '인문', '역사관광지', '유적지/사적지']",37.5102657658,127.1011836669,Seoul
서울특별시 송파구 가락로11길 19-5,서울 석촌동 고분군,"['관광', '인문', '역사관광지', '유적지/사적지']",37.5019695547,127.1038336610,Seoul
서울특별시 강남구 선릉로100길 1,서울 선릉,"['관광', '인문', '역사관광지', '유적지/사적지']",37.5074206801,127.0471803291,Seoul
서울특별시 관악구 난곡로35길 28-7,서울 신림동 굴참나무,"['관광', '자연', '관광자원', '희귀동.식물']",37.4710197967,126.9169737649,Seoul
서울특별시 관악구 신림로59길 14,서울 신림동 민속순대타운,"['관광', '인문', '체험관광지', '이색거리']",37.4833519091,126.9287890094,Seoul
서울특별시 강동구 올림픽로 875,서울 암사동 유적,"['관광', '인문', '역사관광지', '유적지/사적지']",37.5605132450,127.1309239757,Seoul
서울특별시 중구 소공로 48,서울 애니메이션센터,"['관광', '인문', '산업관광지', '기타']",37.5626103024,126.9809570194,Seoul
서울특별시 중구 청파로 447-1,서울 약현성당,"['관광', '인문', '역사관광지', '종교성지']",37.5591437954,126.9674194623,Seoul
서울특별시 강서구 가양동,서울 양천고성지,"['관광', '인문', '역사관광지', '성']",37.5740425776,126.8408278075,Seoul
서울특별시 서대문구 연세로 50,서울 연세대학교 스팀슨관,"['관광', '인문', '역사관광지', '유적지/사적지']",37.5659535914,126.9381636030,Seoul
서울특별시 서대문구 연세로 50,서울 연세대학교 아펜젤러관,"['관광', '인문', '역사관광지', '유적지/사적지']",37.5659535914,126.9381636030,Seoul
서울특별시 서대문구 연세로 50,서울 연세대학교 언더우드관,"['관광', '인문', '역사관광지', '유적지/사적지']",37.5649231574,126.9383080636,Seoul
서울특별시 동대문구 홍릉길 90,서울 영휘원,"['관광', '인문', '역사관광지', '유적지/사적지']",37.5888834018,127.0451143171,Seoul
서울특별시 용산구 원효로19길 49,서울 용산신학교와 원효로 예수성심성당,"['관광', '인문', '역사관광지', '종교성지']",37.5344186461,126.9537436297,Seoul
서울특별시 종로구 우정국로 59,서울 우정총국,"['관광', '인문', '역사관광지', '유적지/사적지']",37.5744256247,126.9825759817,Seoul
서울특별시 종로구 삼일대로 464,서울 운현궁,"['관광', '인문', '역사관광지', '고궁']",37.5764588036,126.9871421746,Seoul
서울특별시 성북구 화랑로32길 146-20,서울 의릉,"['관광', '인문', '역사관광지', '유적지/사적지']",37.6035486003,127.0582349259,Seoul
서울특별시 중구 정동길 46,서울 정동교회,"['관광', '인문', '역사관광지', '종교성지']",37.5654653714,126.9723466121,Seoul
서울특별시 성북구 아리랑로19길 116,서울 정릉,"['관광', '인문', '역사관광지', '유적지/사적지']",37.6023505830,127.0063452451,Seoul
서울특별시 종로구 종로 19,서울 종로 낙지볶음 골목,"['관광', '인문', '체험관광지', '이색거리']",37.5708482131,126.9798041130,Seoul
서울특별시 노원구 화랑로 681,서울 태릉,"['관광', '인문', '역사관광지', '유적지/사적지']",37.6341401904,127.0971582841,Seoul
서울특별시 송파구 풍납동,서울 풍납동 토성,"['관광', '인문', '역사관광지', '성']",37.5375629524,127.1209255392,Seoul
서울특별시 서초구 헌인릉길 36-10,서울 헌릉,"['관광', '인문', '역사관광지', '유적지/사적지']",37.4653567754,127.0837087516,Seoul
서울특별시 금천구 시흥동,서울 호암산성,"['관광', '인문', '역사관광지', '유적지/사적지']",37.4474946828,126.9131692166,Seoul
서울특별시 용산구 효창원로 177-18,서울 효창공원,"['관광', '인문', '휴양관광지', '공원']",37.5450425860,126.9634757763,Seoul
서울특별시 중구 세종대로 110,서울광장,"['관광', '인문', '휴양관광지', '공원']",37.5657098894,126.9780155330,Seoul
서울특별시 성동구 천호대로 346,서울교통공사 차량기지 ,"['관광', '인문', '산업관광지', '자동차']",37.5625727888,127.0572306273,Seoul
서울특별시 성동구 천호대로 346,서울교통공사 차량기지 ,"['관광', '인문', '산업관광지', '자동차']",37.5625727888,127.0572306273,Seoul
서울특별시 성동구 천호대로 346,서울교통공사 ,"['관광', '인문', '체험관광지', '이색체험']",37.5625755656,127.0572167398,Seoul
경기도 용인시 처인구 양지면 죽양대로 2298-1,서울근교 찾아가는 양조장 술샘,"['관광', '인문', '체험관광지', '전통체험']",37.2335097261,127.2985846976,Seoul
경기도 과천시 대공원광장로 102,서울대공원,"['관광', '인문', '휴양관광지', '테마공원']",37.4278904825,127.0171158655,Seoul
서울특별시 중구 세종대로 119,서울도시건축전시관,"['관광', '인문', '문화시설', '전시관']",37.5669375007,126.9767183947,Seoul
경기도 과천시 광명로 181,서울랜드,"['관광', '인문', '휴양관광지', '테마공원']",37.4336870644,127.0188988734,Seoul
서울특별시 중구 한강대로 405,서울로 7017,"['관광', '인문', '휴양관광지', '공원']",37.5545193912,126.9706609645,Seoul
서울특별시 성동구 자동차시장길 49,서울새활용플라자,"['관광', '인문', '산업관광지', '기타']",37.5586760298,127.0578195730,Seoul
서울특별시 영등포구 여의동로 330,서울색공원,"['관광', '인문', '휴양관광지', '공원']",37.5263247807,126.9335762510,Seoul
서울특별시 노원구 동일로174길 27,서울생활사박물관,"['관광', '인문', '문화시설', '박물관']",37.6202469965,127.0769438565,Seoul
서울특별시 성동구 뚝섬로 273,서울숲,"['관광', '인문', '휴양관광지', '공원']",37.5430553337,127.0417770333,Seoul
서울특별시 강서구 마곡동로 161,서울식물원,"['관광', '자연', '자연관광지', '수목원']",37.5722981936,126.8328563613,Seoul
서울특별시 광진구 능동로 216,서울어린이대공원,"['관광', '인문', '휴양관광지', '공원']",37.5494219613,127.0807288607,Seoul
서울특별시 용산구 한강대로 405,서울역,"['관광', '인문', '산업관광지', '자동차']",37.5548277077,126.9717164149,Seoul
경상남도 거창군 거창읍 거함대로 3372-71,서울우유 거창공장,"['관광', '인문', '산업관광지', '식음료']",35.6704082178,127.9265493539,Seoul
경기도 안산시 단원구 성곡로 153,서울우유 안산공장,"['관광', '인문', '산업관광지', '식음료']",37.3225591898,126.7573424374,Seoul
서울특별시 마포구 월드컵로 240,서울월드컵경기장 스타디움 투어,"['관광', '인문', '산업관광지', '기타']",37.5683081417,126.8972867084,Seoul
서울특별시 도봉구 마들로 916,서울창포원,"['관광', '자연', '자연관광지', '자연생태관광지']",37.6893801026,127.0481278444,Seoul
서울특별시 동대문구 천호대로4길 21,서울풍물시장 전통문화체험관,"['관광', '인문', '체험관광지', '전통체험']",37.5730932173,127.0254887761,Seoul
서울특별시 용산구 두텁바위로 60,서울학도병참전기념비,"['관광', '인문', '건축/조형물', '기념탑/기념비/전망대']",37.5451539751,126.9797409572,Seoul
서울특별시 마포구 마포나루길 407,서울함공원,"['관광', '인문', '휴양관광지', '공원']",37.5558484197,126.8939818053,Seoul
서울특별시 성북구 선잠로2길 47,성락원,"['관광', '인문', '역사관광지', '생가']",37.5965039153,126.9993682695,Seoul
서울특별시 종로구 세검정로 241-3,소림사,"['관광', '인문', '역사관광지', '사찰']",37.6013470673,126.9587079507,Seoul
서울특별시 은평구 서오릉로23길 8-5,수국사,"['관광', '인문', '역사관광지', '사찰']",37.6159499573,126.9047680128,Seoul
서울특별시 종로구 비봉4길 213,승가사,"['관광', '인문', '역사관광지', '사찰']",37.6265552757,126.9603404195,Seoul
서울특별시 강북구 삼양로179길 209-44,신검사,"['관광', '인문', '역사관광지', '사찰']",37.6728339488,127.0005854323,Seoul
서울특별시 종로구 창신5길 59-2,안양암,"['관광', '인문', '역사관광지', '사찰']",37.5751760893,127.013289828,Seoul
서울특별시 강서구 금낭화로17길 261,약사사,"['관광', '인문', '역사관광지', '사찰']",37.5869209605,126.8029808981,Seoul
서울특별시 관악구 약수암1길 28,약수사,"['관광', '인문', '역사관광지', '사찰']",37.4591298224,126.9344197331,Seoul
서울특별시 동대문구 경희대로3길 56,연화사,"['관광', '인문', '역사관광지', '사찰']",37.5942578707,127.0503192452,Seoul
서울특별시 광진구 영화사로 107,영화사,"['관광', '인문', '역사관광지', '사찰']",37.5543189309,127.0982604590,Seoul
서울특별시 서대문구 홍지문길 1-38,옥천암,"['관광', '인문', '역사관광지', '사찰']",37.5968225119,126.9541779361,Seoul
서울특별시 노원구 덕릉로129가길 242,용굴암,"['관광', '인문', '역사관광지', '사찰']",37.6878781158,127.0822469969,Seoul
서울특별시 강북구 우이동 산68,용덕사,"['관광', '인문', '역사관광지', '사찰']",37.6706120337,127.0032852491,Seoul
서울특별시 은평구 대서문길 126,용암사,"['관광', '인문', '역사관광지', '사찰']",37.6512106489,126.9552040777,Seoul
서울특별시 도봉구 도봉로169길 520,원통사,"['관광', '인문', '역사관광지', '사찰']",37.6831357043,127.0103925774,Seoul
서울특별시 성동구 금호동4가 1540,응봉산,"['관광', '자연', '자연관광지', '산']",37.5471796096,127.0281781551,Seoul
서울특별시 종로구 통일로18가길 16-1,인왕사,"['관광', '인문', '역사관광지', '사찰']",37.5786358368,126.9597168346,Seoul
서울특별시 종로구 평창6길 79-141,일선사,"['관광', '인문', '역사관광지', '사찰']",37.6280165166,126.9770249672,Seoul
서울특별시 관악구 관악로,자운암,"['관광', '인문', '역사관광지', '사찰']",37.4487397158,126.9542210004,Seoul
서울특별시 성북구 흥천사길 49-23,적조사,"['관광', '인문', '역사관광지', '사찰']",37.5983843972,127.0074230376,Seoul
서울특별시 성북구 대사관로13길 44,정법사,"['관광', '인문', '역사관광지', '사찰']",37.6015254018,126.9908800117,Seoul
서울특별시 종로구 우정국로 55,조계사,"['관광', '인문', '역사관광지', '사찰']",37.5738701204,126.9818371759,Seoul
서울특별시 은평구 진관길 73,진관사,"['관광', '인문', '역사관광지', '사찰']",37.6380064804,126.9469052095,Seoul
서울특별시 도봉구 도봉산길 92-2,천축사,"['관광', '인문', '역사관광지', '사찰']",37.6945873024,127.0188609220,Seoul
강원도 철원군 근북면 유곡로 545,철원 평화마을 서울캠핑장,"['관광', '인문', '역사관광지', '안보관광']",38.3010484790,127.3988778698,Seoul
서울특별시 동대문구 제기로31길 10-3,청량사,"['관광', '인문', '역사관광지', '사찰']",37.5881724181,127.0475974440,Seoul
서울특별시 종로구 동망산길 65,청룡사,"['관광', '인문', '역사관광지', '사찰']",37.5797478387,127.0165310697,Seoul
서울특별시 송파구 올림픽로 240,키자니아 서울,"['관광', '인문', '체험관광지', '이색체험']",37.5110683960,127.0981394766,Seoul
서울특별시 종로구 청계천로 159,팹랩 서울,"['관광', '인문', '산업관광지', '기타']",37.5692681185,126.9952249747,Seoul
서울특별시 노원구 중계로14다길 89,학도암,"['관광', '인문', '역사관광지', '사찰']",37.6519935361,127.0897584489,Seoul
서울특별시 노원구 덕릉로129가길 241,학림사,"['관광', '인문', '역사관광지', '사찰']",37.6821398057,127.0773476077,Seoul
서울특별시 동작구 현충로 210,호국지장사,"['관광', '인문', '역사관광지', '사찰']",37.4987118764,126.9645797614,Seoul
서울특별시 금천구 호암로 278,호압사,"['관광', '인문', '역사관광지', '사찰']",37.4525443140,126.9253457441,Seoul
서울특별시 강북구 화계사길 117,화계사,"['관광', '인문', '역사관광지', '사찰']",37.6326415233,127.0073220730,Seoul
서울특별시 중구 을지로 281,간송미술관,"['문화', '인문', '문화시설', '미술관/화랑']",37.5681962916,127.0103125191,Seoul
서울특별시 강남구 삼성로 29,경기여고 경운박물관,"['문화', '인문', '문화시설', '박물관']",37.4867511901,127.0656764529,Seoul
서울특별시 종로구 삼청로 30,국립현대미술관,"['문화', '인문', '문화시설', '미술관/화랑']",37.5786500878,126.9800038741,Seoul
서울특별시 마포구 홍익로3길 20,서울 아이스뮤지엄,"['문화', '인문', '문화시설', '미술관/화랑']",37.5535769574,126.9217182298,Seoul
서울특별시 중구 청계천로 86,서울 중구문화원,"['문화', '인문', '문화시설', '문화원']",37.5674348418,126.9865480402,Seoul
서울특별시 마포구 홍익로3길 20,서울 트릭아이뮤지엄,"['문화', '인문', '문화시설', '미술관/화랑']",37.5535075202,126.9216765685,Seoul
서울특별시 마포구 홍익로3길 20,서울 홍대 러브뮤지엄,"['문화', '인문', '문화시설', '미술관/화랑']",37.5535075202,126.9216765685,Seoul
서울특별시 강서구 화곡로 215,서울강서문화원,"['문화', '인문', '문화시설', '문화원']",37.5446793765,126.8437394791,Seoul
서울특별시 종로구 북촌로5길 48,서울교육박물관,"['문화', '인문', '문화시설', '박물관']",37.5797611278,126.9832368815,Seoul
서울특별시 강남구 봉은사로 406,서울국가무형문화재전수회관,"['문화', '인문', '문화시설', '문화전수시설']",37.5102008674,127.0446443698,Seoul
서울특별시 중구 퇴계로34길 28,서울남산국악당,"['문화', '인문', '문화시설', '공연장']",37.5584387906,126.9935365470,Seoul
서울특별시 송파구 삼학사로 136,서울놀이마당,"['문화', '인문', '문화시설', '공연장']",37.5094852428,127.0979478723,Seoul
서울특별시 관악구 관악로 1,서울대학교 규장각,"['문화', '인문', '문화시설', '전시관']",37.4639934641,126.9522096436,Seoul
서울특별시 관악구 관악로 1,서울대학교 박물관,"['문화', '인문', '문화시설', '박물관']",37.4639934641,126.9522096436,Seoul
서울특별시 종로구 대학로 101,서울대학교 치의학박물관,"['문화', '인문', '문화시설', '박물관']",37.5778004989,126.9974217548,Seoul
서울특별시 종로구 대학로 101,서울대학교병원 의학박물관,"['문화', '인문', '문화시설', '박물관']",37.5795614331,126.9989687866,Seoul
서울특별시 중구 세종대로 110,서울도서관,"['문화', '인문', '문화시설', '도서관']",37.5665986816,126.9783710306,Seoul
서울특별시 종로구 율곡로 102,서울돈화문국악당,"['문화', '인문', '문화시설', '공연장']",37.5772754384,126.9906473873,Seoul
서울특별시 종로구 사직로 지하 130,서울메트로미술관,"['문화', '인문', '문화시설', '미술관/화랑']",37.5758475160,126.9733323397,Seoul
서울특별시 강남구 남부순환로 3104,서울무역전시컨벤션센터,"['문화', '인문', '문화시설', '컨벤션센터']",37.4958252427,127.0715423291,Seoul
서울특별시 광진구 능동로 216,서울상상나라,"['문화', '인문', '문화시설', '박물관']",37.5498913551,127.0809066088,Seoul
서울특별시 노원구 동일로 1238,서울시립 북서울미술관,"['문화', '인문', '문화시설', '미술관/화랑']",37.6406499975,127.0668386402,Seoul
서울특별시 동대문구 서울시립대로 163,서울시립대학교박물관,"['문화', '인문', '문화시설', '박물관']",37.5836259269,127.0588409932,Seoul
서울특별시 중구 덕수궁길 61,서울시립미술관,"['문화', '인문', '문화시설', '미술관/화랑']",37.5640988876,126.9736604198,Seoul
서울특별시 종로구 인사동길 24,서울아트센터 공평갤러리,"['문화', '인문', '문화시설', '미술관/화랑']",37.5729397563,126.9864701134,Seoul
경기도 파주시 탄현면 헤이리마을길 18-61,서울액션스쿨 ,"['문화', '인문', '문화시설', '전시관']",37.7873873494,126.6947129213,Seoul
서울특별시 동대문구 약령중앙로 26,서울약령시 한의약박물관,"['문화', '인문', '문화시설', '박물관']",37.5805592349,127.0376541221,Seoul
서울특별시 마포구 증산로 14,서울에너지드림센터,"['문화', '인문', '문화시설', '전시관']",37.5630864227,126.8914679417,Seoul
서울특별시 종로구 새문안로 55,서울역사박물관,"['문화', '인문', '문화시설', '박물관']",37.5704814320,126.9710493661,Seoul
서울특별시 송파구 올림픽로 424,서울올림픽기념관,"['문화', '인문', '문화시설', '기념관']",37.5218287295,127.1243145673,Seoul
서울특별시 중구 퇴계로34길 28,서울천년타임캡슐광장,"['문화', '인문', '문화시설', '전시관']",37.5584387906,126.9935365470,Seoul
서울특별시 강남구 선릉로116길 45,서울특별시교육청 강남도서관,"['문화', '인문', '문화시설', '도서관']",37.5136338386,127.0466663104,Seoul
서울특별시 강동구 양재대로116길 57,서울특별시교육청 강동도서관,"['문화', '인문', '문화시설', '도서관']",37.5380716341,127.1435012477,Seoul
서울특별시 강남구 선릉로4길 30,서울특별시교육청 개포도서관,"['문화', '인문', '문화시설', '도서관']",37.4830515870,127.0638656117,Seoul
서울특별시 강동구 고덕로 295,서울특별시교육청 고덕평생학습관,"['문화', '인문', '문화시설', '도서관']",37.5561170235,127.1580327444,Seoul
서울특별시 구로구 고척로45길 31,서울특별시교육청 고척도서관,"['문화', '인문', '문화시설', '도서관']",37.5053563345,126.8530397360,Seoul
서울특별시 관악구 낙성대로 101,서울특별시교육청 과학전시관,"['문화', '인문', '문화시설', '전시관']",37.4688152547,126.9593644119,Seoul
서울특별시 중구 소파로 46,서울특별시교육청 과학전시관 ,"['문화', '인문', '문화시설', '전시관']",37.5545501315,126.9811600067,Seoul
서울특별시 구로구 공원로 15,서울특별시교육청 구로도서관,"['문화', '인문', '문화시설', '도서관']",37.4986522445,126.8915364159,Seoul
서울특별시 용산구 소월로 109,서울특별시교육청 남산도서관,"['문화', '인문', '문화시설', '도서관']",37.5525420492,126.9821377524,Seoul
서울특별시 노원구 동일로204길 13,서울특별시교육청 노원평생학습관,"['문화', '인문', '문화시설', '도서관']",37.6395112581,127.0677941413,Seoul
서울특별시 도봉구 삼양로 556,서울특별시교육청 도봉도서관,"['문화', '인문', '문화시설', '도서관']",37.6525337513,127.0127432348,Seoul
서울특별시 동대문구 천호대로4길 22,서울특별시교육청 동대문도서관,"['문화', '인문', '문화시설', '도서관']",37.5738542164,127.0241777625,Seoul
서울특별시 동작구 장승배기로 94,서울특별시교육청 동작도서관,"['문화', '인문', '문화시설', '도서관']",37.5059328296,126.9405206377,Seoul
서울특별시 서대문구 모래내로 412,서울특별시교육청 서대문도서관,"['문화', '인문', '문화시설', '도서관']",37.5833099553,126.9408850861,Seoul
서울특별시 송파구 동남로 263,서울특별시교육청 송파도서관,"['문화', '인문', '문화시설', '도서관']",37.4999981197,127.1348475627,Seoul
서울특별시 양천구 목동서로 113,서울특별시교육청 양천도서관,"['문화', '인문', '문화시설', '도서관']",37.5335479165,126.8762257189,Seoul
서울특별시 종로구 사직로9길 7,서울특별시교육청 어린이도서관,"['문화', '인문', '문화시설', '도서관']",37.5762890396,126.9682161266,Seoul
서울특별시 영등포구 버드나루로15길 10,서울특별시교육청 영등포평생학습관,"['문화', '인문', '문화시설', '도서관']",37.5260548983,126.9073230952,Seoul
서울특별시 용산구 두텁바위로 160,서울특별시교육청 용산도서관,"['문화', '인문', '문화시설', '도서관']",37.5519892991,126.9801268407,Seoul
서울특별시 종로구 북촌로5길 48,서울특별시교육청 정독도서관,"['문화', '인문', '문화시설', '도서관']",37.5797611278,126.9832368815,Seoul
서울특별시 종로구 사직로9길 15-14,서울특별시교육청 종로도서관,"['문화', '인문', '문화시설', '도서관']",37.5764362125,126.9664385068,Seoul
서울특별시 동대문구 무학로44길 38,선농단역사문화관,"['문화', '인문', '문화시설', '전시관']",37.5812646078,127.0320435020,Seoul
서울특별시 용산구 청파로47길 100,숙명여자대학교 정영양자수박물관,"['문화', '인문', '문화시설', '박물관']",37.5459369463,126.9645617629,Seoul
서울특별시 종로구 북촌로5길 84,아라리오 갤러리,"['문화', '인문', '문화시설', '미술관/화랑']",37.5801332551,126.9803593549,Seoul
서울특별시 중구 통일로4길 30-1,유관순기념관,"['문화', '인문', '문화시설', '기념관']",37.5644487857,126.9702718302,Seoul
서울특별시 종로구 자하문로10길 30,팔레 드 서울,"['문화', '인문', '문화시설', '미술관/화랑']",37.5792137886,126.9731933682,Seoul
서울특별시 관악구 관악로 1,MoA 서울대학교미술관,"['문화', '인문', '문화시설', '미술관/화랑']",37.4639934641,126.9522096436,Seoul
서울시청 광장(서울 중구 을지로 12),건강서울페스티벌 2019,"['축제/공연/행사', '인문', '축제', '일반축제']",37.5659098804,126.9787932340,Seoul
서울특별시 마포구 한강난지로 162,그린플러그드 서울 2019,"['축제/공연/행사', '인문', '공연/행사', '기타행사']",37.5679022179,126.8740888353,Seoul
서울특별시 서초구 남부순환로 2406,마니프서울국제아트페어 2019,"['축제/공연/행사', '인문', '공연/행사', '전시회']",37.4793094549,127.0137702756,Seoul
서울특별시 마포구 증산로 87,메이커 페어 서울 2019,"['축제/공연/행사', '인문', '공연/행사', '박람회']",37.5703467526,126.8950118577,Seoul
서울특별시 중구 세종대로 110,문화가 흐르는 서울광장 2019,"['축제/공연/행사', '인문', '축제', '일반축제']",37.5693955409,126.9762683654,Seoul
서울특별시 양천구 남부순환로64길 20,서서울호수공원 수상음악축제 2019,"['축제/공연/행사', '인문', '축제', '일반축제']",37.5274839100,126.8300995393,Seoul
서울특별시 구로구 일대,서울 구로국제어린이영화제 2020,"['축제/공연/행사', '인문', '축제', '일반축제']",37.4954636544,126.8875146499,Seoul
서울특별시 서초구 강남대로 27,서울 국제 푸드 앤 테이블웨어 박람회 2020,"['축제/공연/행사', '인문', '공연/행사', '박람회']",37.4672141004,127.0396016001,Seoul
경기도 성남시 수정구 서울공항,서울 국제 항공우주 및 방위산업 전시회 2019,"['축제/공연/행사', '인문', '공연/행사', '기타행사']",37.4504485089,127.1456507642,Seoul
서울특별시 마포구 월드컵북로 400,서울 드라마어워즈 2020,"['축제/공연/행사', '인문', '축제', '일반축제']",37.5804343779,126.8899259259,Seoul
서울특별시 강동구 천호동 351-1,서울 드론 챌린지 2019 ,"['축제/공연/행사', '인문', '축제', '일반축제']",37.5473006952,127.1200864495,Seoul
서울특별시 중구 퇴계로34길 28,서울 명산트레킹 2019,"['축제/공연/행사', '인문', '공연/행사', '기타행사']",37.5584387906,126.9935365470,Seoul
서울특별시 중구 세종대로 110,서울 문화로 바캉스 2019,"['축제/공연/행사', '인문', '축제', '일반축제']",37.5665986816,126.9783710306,Seoul
서울특별시 종로구 세종대로 175,서울 문화원 엑스포 2019,"['축제/공연/행사', '인문', '축제', '일반축제']",37.5722396646,126.9768321230,Seoul
서울특별시 중구 세종대로 110,서울 물순환 시민문화제 2020,"['축제/공연/행사', '인문', '축제', '일반축제']",37.5665986816,126.9783710306,Seoul
서울특별시 영등포구 여의동로 330,서울 밤도깨비 야시장 2020,"['축제/공연/행사', '인문', '공연/행사', '기타행사']",37.5263358907,126.9335762507,Seoul
서울특별시 강남구 남부순환로 3104,서울 보드게임 페스타 2019,"['축제/공연/행사', '인문', '축제', '일반축제']",37.4957585883,127.0718200835,Seoul
서울특별시 강남구 영동대로 513,서울 살롱 뒤 쇼콜라 2021,"['축제/공연/행사', '인문', '축제', '일반축제']",37.5118092746,127.0591318945,Seoul
서울특별시 서초구 서래로10길 9,서울 술 페스티벌 ,"['축제/공연/행사', '인문', '축제', '일반축제']",37.4995151763,126.9989377215,Seoul
경기도 고양시 일산서구 킨텍스로 217-60,서울 슈즈앤백박람회 2019,"['축제/공연/행사', '인문', '공연/행사', '박람회']",37.6689215091,126.7457782594,Seoul
서울특별시 종로구 성균관로 91 올림픽기념국민생활관 신관 / 종로구 대학로 14길 29 2층 2관 /창경궁로35길 29,서울 아시테지 겨울축제 2020,"['축제/공연/행사', '인문', '축제', '일반축제']",37.5904796058,126.9988129355,Seoul
서울특별시 서초구 강남대로 27,서울 코믹월드 2020,"['축제/공연/행사', '인문', '축제', '일반축제']",37.4683111849,127.0390127336,Seoul
서울특별시 중구 서소문로 124,서울365패션쇼 2020,"['축제/공연/행사', '인문', '공연/행사', '기타행사']",37.5631601358,126.9752380805,Seoul
온라인개최,서울국악축제 2020,"['축제/공연/행사', '인문', '축제', '일반축제']",37.5585082277,126.9935754302,Seoul
서울특별시 강남구 남부순환로 3104,서울국제관광산업박람회 2020,"['축제/공연/행사', '인문', '공연/행사', '전시회']",37.4957363721,127.0719811806,Seoul
서울특별시 마포구 와우산로35길 53,서울국제대안영상예술페스티벌 2020,"['축제/공연/행사', '인문', '축제', '일반축제']",37.5564295139,126.9278870311,Seoul
서울특별시 강남구 남부순환로 3104 SETEC,서울국제불교박람회 2020,"['축제/공연/행사', '인문', '공연/행사', '기타행사']",37.4957363721,127.0719811806,Seoul
서울특별시 강남구 영동대로 513,서울국제식품산업전 2019,"['축제/공연/행사', '인문', '공연/행사', '전시회']",37.5126286175,127.0587624599,Seoul
서울특별시 마포구 월드컵북로 400,서울국제실험영화페스티벌 2020,"['축제/공연/행사', '인문', '축제', '일반축제']",37.5804315992,126.8898898184,Seoul
서울특별시 마포구 월드컵로 240,서울국제여성영화제 2020,"['축제/공연/행사', '인문', '축제', '일반축제']",37.5683081417,126.8972867084,Seoul
서울특별시 서초구 남부순환로 2406,서울국제음악제 2020,"['축제/공연/행사', '인문', '축제', '일반축제']",37.4785261578,127.0107150202,Seoul
온라인개최,서울국제작가축제,"['축제/공연/행사', '인문', '축제', '일반축제']",37.5675991318,127.0099486810,Seoul
서울특별시 강남구 영동대로 513 코엑스 C홀,서울국제주류박람회 2021,"['축제/공연/행사', '인문', '공연/행사', '기타행사']",37.5117592813,127.0591874466,Seoul
서울특별시 종로구 대학로10길 17,서울국제즉흥춤축제 2020,"['축제/공연/행사', '인문', '축제', '일반축제']",37.5811335446,127.0029767101,Seoul
서울특별시 중구 세종대로 110 서울광장 및 무교로,서울김장문화제 2019,"['축제/공연/행사', '인문', '축제', '일반축제']",37.5665986816,126.9783710306,Seoul
경기도 과천시 대공원광장로 102,서울대공원 호숫가 영화제 2019,"['축제/공연/행사', '인문', '축제', '일반축제']",37.4362505701,127.0141159025,Seoul
서울특별시 관악구 낙성대로 77,서울도시농업박람회 2019,"['축제/공연/행사', '인문', '공연/행사', '박람회']",37.4741701677,126.9581865912,Seoul
서울특별시 강남구 영동대로 513,서울디자인페스티벌 2019,"['축제/공연/행사', '인문', '축제', '일반축제']",37.5118092746,127.0591318945,Seoul
서울특별시 서초구 강남대로 27,서울디저트페어 [체리초코전] 2020,"['축제/공연/행사', '인문', '축제', '일반축제']",37.4683111849,127.0390127336,Seoul
서울특별시 서초구 강남대로 27 양재 aT센터,서울디저트페어 [초코&딸기전] 2020,"['축제/공연/행사', '인문', '축제', '일반축제']",37.4683111849,127.0390127336,Seoul
서울특별시 중구 을지로 281 DDP디자인거리,서울라이트,"['축제/공연/행사', '인문', '축제', '일반축제']",37.5675991318,127.0099486810,Seoul
경기도 과천시 광명로 181,서울랜드 겨울 빛축제 2020,"['축제/공연/행사', '인문', '축제', '일반축제']",37.4366477965,127.0169239697,Seoul
경기도 과천시 광명로 181,서울랜드 할로윈 페스티발 2019,"['축제/공연/행사', '인문', '축제', '일반축제']",37.4363173034,127.0182683012,Seoul
서울특별시 중구 세종대로 110,서울마을미디어축제 2019,"['축제/공연/행사', '인문', '축제', '일반축제']",37.5665986816,126.9783710306,Seoul
서울특별시 광진구 광나루로 441,서울맥주축제 2020,"['축제/공연/행사', '인문', '축제', '일반축제']",37.5470527467,127.0781902704,Seoul
경기도 고양시 일산서구 킨텍스로 217-60,서울모터쇼 ,"['축제/공연/행사', '인문', '공연/행사', '전시회']",37.6689909419,126.7455782754,Seoul
서울특별시 서대문구 통일로 251,서울무궁화축제 2019,"['축제/공연/행사', '인문', '축제', '일반축제']",37.5746640029,126.9556423190,Seoul
서울특별시 종로구 대학로8길 7,서울무용제 2019,"['축제/공연/행사', '인문', '축제', '일반축제']",37.5811724288,127.0029794866,Seoul
서울특별시 중구 퇴계로34길 28,서울무형문화축제 2019,"['축제/공연/행사', '인문', '축제', '일반축제']",37.5584387906,126.9935365470,Seoul
서울특별시 도봉구 마들로11길 74,서울뮤직시티커넥션 2019,"['축제/공연/행사', '인문', '축제', '일반축제']",37.6541925386,127.0486288033,Seoul
서울특별시 종로구 광화문광장,서울뮤직페스티벌,"['축제/공연/행사', '인문', '축제', '일반축제']",37.5716758408,126.9768015861,Seoul
서울특별시 동대문구 회기로 66,서울미래연극제 2019,"['축제/공연/행사', '인문', '축제', '일반축제']",37.5909664937,127.0451337005,Seoul
서울특별시 강남구 영동대로 513,서울미트페어 2019,"['축제/공연/행사', '인문', '축제', '일반축제']",37.5146172444,127.0570347838,Seoul
서울특별시 강동구 올림픽로 지하 776 암사역,서울분장페스티벌 2019,"['축제/공연/행사', '인문', '축제', '일반축제']",37.5515615388,127.1326796265,Seoul
서울특별시 종로구 서린동 14-1 청계광장,서울빛초롱축제 2019,"['축제/공연/행사', '인문', '축제', '일반축제']",37.5694512038,126.9825955652,Seoul
서울특별시 노원구 동일로 1238,서울사진축제 2019,"['축제/공연/행사', '인문', '축제', '일반축제']",37.6406499975,127.0668386402,Seoul
서울특별시 중구 을지로 281,서울서점페어 2019,"['축제/공연/행사', '인문', '축제', '일반축제']",37.5675991318,127.0099486810,Seoul
서울특별시 중구 세종대로 110,서울세계도시문화축제 2019,"['축제/공연/행사', '인문', '축제', '일반축제']",37.5665986816,126.9783710306,Seoul
서울특별시 마포구 월드컵북로5길 56 2층,서울세계무용축제 2019,"['축제/공연/행사', '인문', '축제', '일반축제']",37.5562820926,126.9157992483,Seoul
서울특별시 강북구 월계로 173,서울스트릿댄스 페스티벌 2019,"['축제/공연/행사', '인문', '축제', '일반축제']",37.6233876457,127.0407498436,Seoul
서울특별시 마포구 성미산로13길 84-5,서울시민시장 위크,"['축제/공연/행사', '인문', '축제', '일반축제']",37.5646783510,126.9164545071,Seoul
서울특별시 관악구 신림로3길 35,서울시민연극제 2020,"['축제/공연/행사', '인문', '축제', '일반축제']",37.4676512424,126.9448852069,Seoul
서울특별시 영등포구 여의동로 지하 343,서울시향 강변음악회 2019,"['축제/공연/행사', '인문', '공연/행사', '클래식음악회']",37.5304075633,126.9293265233,Seoul
서울특별시 서초구 남부순환로 2406,"서울시향 마르쿠스 슈텐츠의 합창 교향곡 ①, ② 2019","['축제/공연/행사', '인문', '공연/행사', '클래식음악회']",37.4785900399,127.0107566806,Seoul
서울특별시 서초구 남부순환로 2406,서울시향 모차르트 교향곡 제36번 '린츠’ 2020,"['축제/공연/행사', '인문', '공연/행사', '기타행사']",37.4785900399,127.0107566806,Seoul
서울특별시 송파구 올림픽로 300 롯데월드몰 8층,서울시향 브람스 교향곡 4번 2019,"['축제/공연/행사', '인문', '공연/행사', '클래식음악회']",37.5126099637,127.1025668077,Seoul
서울특별시 서초구 남부순환로 2406,"서울시향 에마뉘엘 파위의 모차르트 협주곡 ①, ② 2019","['축제/공연/행사', '인문', '공연/행사', '클래식음악회']",37.4785261578,127.0107150202,Seoul
서울특별시 송파구 올림픽로 300 롯데월드몰 8층,서울시향 오스모 벤스케의 말러 교향곡 2번 '부활' 2020,"['축제/공연/행사', '인문', '공연/행사', '기타행사']",37.5126099637,127.1025668077,Seoul
서울특별시 송파구 올림픽로 300 롯데월드몰 8층,서울시향 카바코스의 베토벤 바이올린 협주곡 2020,"['축제/공연/행사', '인문', '공연/행사', '클래식음악회']",37.5126099637,127.1025668077,Seoul
서울특별시 종로구 세종대로 지하 172,서울아리랑페스티벌 2019,"['축제/공연/행사', '인문', '축제', '일반축제']",37.5734061955,126.9768237567,Seoul
"서울특별시 종로구 대학로 112 이음센터, 좋은공연안내센터, 대학로예술극장, 서울남산국악당, 예스24스테이지",서울아트마켓 ,"['축제/공연/행사', '인문', '공연/행사', '기타행사']",37.5812446334,127.0024323119,Seoul
서울특별시 강남구 영동대로 513,서울아트쇼 2019,"['축제/공연/행사', '인문', '공연/행사', '전시회']",37.5117592813,127.0591874466,Seoul
서울특별시 성동구 왕십리광장로 17,서울아프리카페스티벌 2019,"['축제/공연/행사', '인문', '축제', '일반축제']",37.5641805587,127.0363435951,Seoul
서울특별시 중구 소파로 126,서울애니메이션센터 '재미로 애니소풍가자!' 2019,"['축제/공연/행사', '인문', '축제', '일반축제']",37.5582970456,126.9882592541,Seoul
서울특별시 마포구 하늘공원로 95,서울억새축제 2019,"['축제/공연/행사', '인문', '축제', '일반축제']",37.5675357894,126.8850267365,Seoul
서울특별시 종로구 대학로8길 7,서울연극제 2020,"['축제/공연/행사', '인문', '축제', '일반축제']",37.5811724288,127.0029794866,Seoul
서울특별시 서대문구 봉원사길 120,서울연꽃문화대축제 2019,"['축제/공연/행사', '인문', '축제', '일반축제']",37.5723446720,126.9469403996,Seoul
서울특별시 중구 세종대로 110,서울영상광고제 2020,"['축제/공연/행사', '인문', '축제', '일반축제']",37.5665986816,126.9783710306,Seoul
서울특별시 마포구 어울마당로 75,서울와우북페스티벌 2019,"['축제/공연/행사', '인문', '축제', '일반축제']",37.5518382634,126.9212877622,Seoul
서울특별시 강남구 영동대로 513,서울일러스트레이션페어 2019,"['축제/공연/행사', '인문', '공연/행사', '전시회']",37.5118092746,127.0591318945,Seoul
서울특별시 종로구 세종대로 172,서울자전거대행진 2019,"['축제/공연/행사', '인문', '축제', '일반축제']",37.5728423729,126.9768654360,Seoul
서울특별시 중랑구 중랑천로 332,서울장미축제 2020,"['축제/공연/행사', '인문', '축제', '일반축제']",37.6143448429,127.0735276696,Seoul
서울특별시 송파구 올림픽로 424,서울재즈페스티벌 ,"['축제/공연/행사', '인문', '축제', '일반축제']",37.5194456386,127.1224425827,Seoul
서울특별시 중구 퇴계로 33,서울정원박람회 2019,"['축제/공연/행사', '인문', '공연/행사', '박람회']",37.5575996956,126.9766214450,Seoul
온라인개최,서울지식이음축제·포럼 2020,"['축제/공연/행사', '인문', '축제', '일반축제']",37.5655599052,126.9779405439,Seoul
서울특별시 중구 세종대로19길 16,서울청소년연극축제 2020,"['축제/공연/행사', '인문', '축제', '일반축제']",37.5667736284,126.9765823002,Seoul
서울특별시 강남구 영동대로 513,서울카페쇼 2020,"['축제/공연/행사', '인문', '공연/행사', '전시회']",37.5117592813,127.0591874466,Seoul
서울특별시 서초구 강남대로 27,서울커피앤티페어 2019,"['축제/공연/행사', '인문', '공연/행사', '전시회']",37.4664808435,127.0391127763,Seoul
서울특별시 종로구 청계천로 41,서울크리스마스페스티벌 2019,"['축제/공연/행사', '인문', '축제', '일반축제']",37.5696483948,126.9821594884,Seoul
서울특별시 강남구 영동대로 513,서울패션페스티벌 2019,"['축제/공연/행사', '인문', '축제', '일반축제']",37.5117148467,127.0594429796,Seoul
서울특별시 마포구 증산로 87,서울프린지페스티벌 2020,"['축제/공연/행사', '인문', '축제', '일반축제']",37.5731297249,126.8929203036,Seoul
서울특별시 종로구 세종대로 175,세종문화회관과 서울시립교향악단이 함께하는 <신년음악회> 2020,"['축제/공연/행사', '인문', '공연/행사', '클래식음악회']",37.5722396646,126.9768321230,Seoul
서울특별시 종로구 세종대로 175,세종페스티벌×서울뮤직위크 2019,"['축제/공연/행사', '인문', '축제', '일반축제']",37.5721757834,126.9768376800,Seoul
서울특별시 동작구 여의대방로20길 33,온라인 서울안전한마당 2020,"['축제/공연/행사', '인문', '축제', '일반축제']",37.4949476180,126.9194673094,Seoul
서울특별시 광진구 자양동 427-1,인서울마켓 2019,"['축제/공연/행사', '인문', '축제', '일반축제']",37.5294546985,127.0730856795,Seoul
서울특별시 은평구 가좌로 208,제1서울창의예술교육센터 '모호함의 초상 Portrait of Ambiguity' 2019,"['축제/공연/행사', '인문', '공연/행사', '전시회']",37.5922557115,126.9170925587,Seoul
온라인개최,추석 농수특산물 서울장터 2020,"['축제/공연/행사', '인문', '축제', '일반축제']",37.5665986816,126.9783710306,Seoul
서울특별시 강남구 남부순환로 3104,케이펫페어 서울 2020,"['축제/공연/행사', '인문', '공연/행사', '박람회']",37.4957363721,127.0719811806,Seoul
서울특별시 중구 태평로2가 17-3,함께서울 정책박람회 2019,"['축제/공연/행사', '인문', '공연/행사', '박람회']",37.5653988094,126.9777155697,Seoul
서울특별시 강남구 영동대로 513,K-일러스트레이션페어 서울 2020,"['축제/공연/행사', '인문', '공연/행사', '기타행사']",37.5117148467,127.0594429796,Seoul
온라인개최,LiveWALK 서울 밤길걷기 2020,"['축제/공연/행사', '인문', '공연/행사', '기타행사']",37.5263886632,126.9336123570,Seoul
서울특별시 용산구 소월로 322,그랜드하얏트 서울 아이스링크,"['레포츠', '레포츠', '육상 레포츠', '스케이트']",37.5397493436,126.9962146098,Seoul
경기도 성남시 분당구 안양판교로1201번길 161,남서울컨트리클럽,"['레포츠', '레포츠', '육상 레포츠', '골프']",37.3816331319,127.0825806630,Seoul
경기도 광명시 하안로288번길 15,뉴서울 다이빙 풀,"['레포츠', '레포츠', '수상 레포츠', '스노쿨링/스킨스쿠버다이빙']",37.4623118393,126.8813661410,Seoul
경기도 광주시 삼지곡길 95,뉴서울컨트리클럽,"['레포츠', '레포츠', '육상 레포츠', '골프']",37.4195866633,127.2145037192,Seoul
강원도 원주시 지정면 신평석화로 236,동서울레스피아 골프장,"['레포츠', '레포츠', '육상 레포츠', '골프']",37.4007621316,127.8793829286,Seoul
강원도 원주시 지정면 신평석화로 236,동서울레스피아 연수원,"['레포츠', '레포츠', '육상 레포츠', '수련시설']",37.4008232364,127.8794606973,Seoul
경기도 과천시 경마공원대로 107,렛츠런파크 서울,"['레포츠', '레포츠', '육상 레포츠', '경마']",37.4476881606,127.0157237676,Seoul
경기도 파주시 광탄면 혜음로 324,서서울컨트리클럽,"['레포츠', '레포츠', '육상 레포츠', '골프']",37.7313808171,126.8964821613,Seoul
서울특별시 종로구 창의문로 42,서울 한양도성,"['레포츠', '레포츠', '육상 레포츠', '트래킹']",37.5913817938,126.9717959284,Seoul
서울특별시 종로구 종로 69,서울 YMCA 체육교육부,"['레포츠', '레포츠', '육상 레포츠', '스포츠센터']",37.5704816924,126.9855674875,Seoul
서울특별시 중구 세종대로 110,서울광장 스케이트장,"['레포츠', '레포츠', '육상 레포츠', '스케이트']",37.5655710163,126.9779988714,Seoul
경기도 과천시 광명로 181,서울랜드 눈썰매장,"['레포츠', '레포츠', '육상 레포츠', '썰매장']",37.4360979876,127.0240150074,Seoul
서울특별시 영등포구 여의서로 160,서울마리나 요트&클럽,"['레포츠', '레포츠', '복합 레포츠', '복합 레포츠']",37.5348539529,126.9116252334,Seoul
강원도 횡성군 둔내면 고원로 404,서울스키,"['레포츠', '레포츠', '육상 레포츠', '스키(보드) 렌탈샵']",37.4974771291,128.2391031598,Seoul
서울특별시 동작구 여의대방로54길 18,서울여성플라자,"['레포츠', '레포츠', '육상 레포츠', '수련시설']",37.5118763509,126.9274994339,Seoul
서울특별시 마포구 월드컵로 240,서울월드컵경기장,"['레포츠', '레포츠', '육상 레포츠', '경기장']",37.5683081417,126.8972867084,Seoul
서울특별시 송파구 올림픽로 25,서울종합운동장,"['레포츠', '레포츠', '육상 레포츠', '경기장']",37.5148536263,127.0736415981,Seoul
서울특별시 중구 을지로11길 23,서울청소년수련관,"['레포츠', '레포츠', '육상 레포츠', '수련시설']",37.5671210604,126.9905199091,Seoul
서울특별시 동작구 여의대방로20길 33,서울특별시립 보라매청소년수련관,"['레포츠', '레포츠', '육상 레포츠', '수련시설']",37.4906564343,126.9186119526,Seoul
서울특별시 강남구 광평로 144,서울특별시립수서청소년수련관,"['레포츠', '레포츠', '육상 레포츠', '수련시설']",37.4835991945,127.0888077714,Seoul
서울특별시 광진구 강변북로 139,송강카누학교 서울분교,"['레포츠', '레포츠', '수상 레포츠', '카약/카누']",37.5294047205,127.0739883760,Seoul
경기도 가평군 설악면 유명로 961-34,아난티클럽 서울,"['레포츠', '레포츠', '육상 레포츠', '골프']",37.6214875790,127.4832429567,Seoul
경기도 하남시 감이로 317,캐슬렉스서울,"['레포츠', '레포츠', '육상 레포츠', '골프']",37.4970046412,127.1691000886,Seoul
서울특별시 도봉구 도봉로 964-40,[서울둘레길 1코스] 수락·불암산코스,"['레포츠', '레포츠', '육상 레포츠', '트래킹']",37.6891745425,127.0465446617,Seoul
서울특별시 노원구 화랑로 지하 510,[서울둘레길 2코스] 용마·아차산코스,"['레포츠', '레포츠', '육상 레포츠', '트래킹']",37.6199221638,127.0841209895,Seoul
서울특별시 광진구 천호대로 813-2,[서울둘레길 3코스] 고덕·일자산코스,"['레포츠', '레포츠', '육상 레포츠', '트래킹']",37.5454061815,127.1040462967,Seoul
서울특별시 강남구 광평로 지하 270,[서울둘레길 4코스] 대모·우면산코스,"['레포츠', '레포츠', '육상 레포츠', '트래킹']",37.4873795456,127.1018425895,Seoul
서울특별시 관악구 과천대로 941,[서울둘레길 5코스] 관악산코스,"['레포츠', '레포츠', '육상 레포츠', '트래킹']",37.4747344068,126.9814372361,Seoul
경기도 안양시 만안구 경수대로 1431,[서울둘레길 6코스] 안양천코스,"['레포츠', '레포츠', '육상 레포츠', '트래킹']",37.4343960138,126.9025427735,Seoul
서울특별시 강서구 양천로 497,[서울둘레길 7코스] 봉산·앵봉산코스,"['레포츠', '레포츠', '육상 레포츠', '트래킹']",37.5614859737,126.8559434483,Seoul
서울특별시 은평구 진관동 533,[서울둘레길 8코스] 북한산코스,"['레포츠', '레포츠', '육상 레포츠', '트래킹']",37.6382503774,126.9179689544,Seoul
